$X
$1=255
G21
G90
G92 Z4.0000
G0 Z0.0000 F800.0
G4 P0.06
G92 Z0.0000
G0 Z0.0000 F800.0
G0 X0.0000 Y0.0000 F15000.0
G21
G90
G17
G91.1
G0 Z0.0000
G0 X160.9077 Y-161.7805 F15000.0
G1 Z11.9000 F2500.0
G4 P0.02
G1 X160.9520 Y-161.3383 F2200.0
G1 X161.8807 Y-161.0287
G1 X162.4999 Y-161.2056
G1 X162.8095 Y-161.4709
G1 X163.3402 Y-162.6208
G1 X164.1363 Y-165.1418
G1 X164.0478 Y-165.3187
G1 X162.8979 Y-165.4956
G1 X162.5883 Y-165.3629
G1 X162.1903 Y-165.0091
G1 X161.5269 Y-163.5054
G1 Z0.0000 F2500.0
G4 P0.02
G0 X161.3057 Y-162.8862 F15000.0
G1 Z11.9000 F2500.0
G4 P0.02
G1 X161.2616 Y-162.7535 F2200.0
G1 Z0.0000 F2500.0
G4 P0.02
G0 X127.5005 Y-148.2231 F15000.0
G1 Z11.9000 F2500.0
G4 P0.02
G1 X127.5890 Y-148.0905 F2200.0
G1 X127.1025 Y-146.5867
G1 X126.5275 Y-146.1445
G1 X125.9526 Y-146.0560
G1 X124.9353 Y-146.1002
G1 X125.9083 Y-148.8866
G1 X125.8641 Y-148.4885
G1 X127.3235 Y-148.4885
G1 X127.9428 Y-149.3288
G1 X128.1639 Y-150.1691
G1 X127.9428 Y-150.4787
G1 X126.5275 Y-150.5229
G1 X126.1295 Y-149.4615
G1 Z0.0000 F2500.0
G4 P0.02
G0 X125.5286 Y-195.8589 F15000.0
G1 Z11.9000 F2500.0
G4 P0.02
G1 X125.6170 Y-195.7261 F2200.0
G1 X125.1305 Y-194.2225
G1 X124.5556 Y-193.7802
G1 X123.9806 Y-193.6917
G1 X122.9634 Y-193.7360
G1 X123.9364 Y-196.5222
G1 X123.8922 Y-196.1242
G1 X125.3517 Y-196.1242
G1 X125.9708 Y-196.9646
G1 X126.1920 Y-197.8048
G1 X125.9708 Y-198.1145
G1 X124.5556 Y-198.1586
G1 X124.1575 Y-197.0972
G1 Z0.0000 F2500.0
G4 P0.02
G0 X127.3931 Y-197.5941 F15000.0
G1 Z11.9000 F2500.0
G4 P0.02
G1 X127.7911 Y-198.2132 F2200.0
G1 Z0.0000 F2500.0
G4 P0.02
G0 X128.4545 Y-198.2132 F15000.0
G1 Z11.9000 F2500.0
G4 P0.02
G1 X128.1007 Y-197.5941 F2200.0
G1 Z0.0000 F2500.0
G4 P0.02
G0 X102.6167 Y-158.5649 F15000.0
G1 Z11.9000 F2500.0
G4 P0.02
G1 X102.3955 Y-157.7688 F2200.0
G1 X102.7051 Y-157.4149
G1 X103.8550 Y-157.3708
G1 Z0.0000 F2500.0
G4 P0.02
G0 X102.7494 Y-158.9187 F15000.0
G1 Z11.9000 F2500.0
G4 P0.02
G1 X103.5897 Y-161.1743 F2200.0
G1 Z0.0000 F2500.0
G4 P0.02
G0 X104.0320 Y-161.6165 F15000.0
G1 Z11.9000 F2500.0
G4 P0.02
G1 X105.4915 Y-161.8819 F2200.0
G1 Z0.0000 F2500.0
G4 P0.02
G0 X106.1106 Y-161.2184 F15000.0
G1 Z11.9000 F2500.0
G4 P0.02
G1 X106.5086 Y-161.8377 F2200.0
G1 Z0.0000 F2500.0
G4 P0.02
G0 X107.1720 Y-161.8377 F15000.0
G1 Z11.9000 F2500.0
G4 P0.02
G1 X106.8182 Y-161.2184 F2200.0
G1 Z0.0000 F2500.0
G4 P0.02
G0 X30.0082 Y-193.4879 F15000.0
G1 Z11.9000 F2500.0
G4 P0.02
G1 X29.7870 Y-193.2225 F2200.0
G1 Z0.0000 F2500.0
G4 P0.02
G0 X32.3080 Y-193.3110 F15000.0
G1 Z11.9000 F2500.0
G4 P0.02
G1 X32.3522 Y-194.6378 F2200.0
G1 X30.8485 Y-194.6820
G1 X32.3522 Y-197.2030
G1 X32.6176 Y-197.3356
G1 X32.7503 Y-197.7779
G1 Z0.0000 F2500.0
G4 P0.02
G0 X32.6176 Y-197.3356 F15000.0
G1 Z11.9000 F2500.0
G4 P0.02
G1 X32.3964 Y-194.6378 F2200.0
G1 Z0.0000 F2500.0
G4 P0.02
G0 X34.6110 Y-197.1639 F15000.0
G1 Z11.9000 F2500.0
G4 P0.02
G1 X35.0091 Y-197.7831 F2200.0
G1 Z0.0000 F2500.0
G4 P0.02
G0 X35.6725 Y-197.7831 F15000.0
G1 Z11.9000 F2500.0
G4 P0.02
G1 X35.3187 Y-197.1639 F2200.0
G1 Z0.0000 F2500.0
G4 P0.02
G0 X46.6308 Y-213.2082 F15000.0
G1 Z11.9000 F2500.0
G4 P0.02
G1 X46.3654 Y-213.0313 F2200.0
G1 X45.7905 Y-212.9428
G1 X44.7732 Y-212.9870
G1 X45.1713 Y-214.1812
G1 Z0.0000 F2500.0
G4 P0.02
G0 X45.4367 Y-214.8888 F15000.0
G1 Z11.9000 F2500.0
G4 P0.02
G1 X46.3654 Y-217.4097 F2200.0
G1 X47.9576 Y-217.3655
G1 X48.1787 Y-217.0559
G1 X47.2500 Y-214.1812
G1 X46.9404 Y-213.4735
G1 Z0.0000 F2500.0
G4 P0.02
G0 X49.0743 Y-216.8451 F15000.0
G1 Z11.9000 F2500.0
G4 P0.02
G1 X49.4723 Y-217.4643 F2200.0
G1 Z0.0000 F2500.0
G4 P0.02
G0 X50.1357 Y-217.4643 F15000.0
G1 Z11.9000 F2500.0
G4 P0.02
G1 X49.7819 Y-216.8451 F2200.0
G1 Z0.0000 F2500.0
G4 P0.02
G0 X134.2402 Y-186.5120 F15000.0
G1 Z11.9000 F2500.0
G4 P0.02
G1 X133.0904 Y-183.1950 F2200.0
G1 X134.6826 Y-183.1508
G1 Z0.0000 F2500.0
G4 P0.02
G0 X134.9037 Y-185.5833 F15000.0
G1 Z11.9000 F2500.0
G4 P0.02
G1 X134.0192 Y-185.5390 F2200.0
G1 Z0.0000 F2500.0
G4 P0.02
G0 X134.4614 Y-187.0870 F15000.0
G1 Z11.9000 F2500.0
G4 P0.02
G1 X134.5498 Y-187.3524 F2200.0
G1 X136.3189 Y-187.6619
G1 Z0.0000 F2500.0
G4 P0.02
G0 X136.8939 Y-186.8659 F15000.0
G1 Z11.9000 F2500.0
G4 P0.02
G1 X137.3362 Y-187.6177 F2200.0
G1 Z0.0000 F2500.0
G4 P0.02
G0 X138.0438 Y-187.6177 F15000.0
G1 Z11.9000 F2500.0
G4 P0.02
G1 X137.6015 Y-186.8659 F2200.0
G1 Z0.0000 F2500.0
G4 P0.02
G0 X57.5939 Y-164.0934 F15000.0
G1 Z11.9000 F2500.0
G4 P0.02
G1 X57.0189 Y-162.5012 F2200.0
G1 Z0.0000 F2500.0
G4 P0.02
G0 X57.7266 Y-164.4472 F15000.0
G1 Z11.9000 F2500.0
G4 P0.02
G1 X58.2131 Y-165.8183 F2200.0
G1 Z0.0000 F2500.0
G4 P0.02
G0 X57.9919 Y-164.8453 F15000.0
G1 Z11.9000 F2500.0
G4 P0.02
G1 X59.5398 Y-164.8894 F2200.0
G1 Z0.0000 F2500.0
G4 P0.02
G0 X58.4341 Y-166.3932 F15000.0
G1 Z11.9000 F2500.0
G4 P0.02
G1 X58.5226 Y-166.6585 F2200.0
G1 X60.2917 Y-166.9681
G1 Z0.0000 F2500.0
G4 P0.02
G0 X60.9551 Y-166.3048 F15000.0
G1 Z11.9000 F2500.0
G4 P0.02
G1 X61.3089 Y-166.9239 F2200.0
G1 Z0.0000 F2500.0
G4 P0.02
G0 X62.0166 Y-166.9239 F15000.0
G1 Z11.9000 F2500.0
G4 P0.02
G1 X61.5743 Y-166.1720 F2200.0
G1 Z0.0000 F2500.0
G4 P0.02
G0 X96.3864 Y-85.7202 F15000.0
G1 Z11.9000 F2500.0
G4 P0.02
G1 X96.1653 Y-84.9241 F2200.0
G1 X96.4749 Y-84.5703
G1 X97.6247 Y-84.5260
G1 Z0.0000 F2500.0
G4 P0.02
G0 X96.5191 Y-86.0740 F15000.0
G1 Z11.9000 F2500.0
G4 P0.02
G1 X97.3594 Y-88.3296 F2200.0
G1 Z0.0000 F2500.0
G4 P0.02
G0 X97.8016 Y-88.7719 F15000.0
G1 Z11.9000 F2500.0
G4 P0.02
G1 X99.2611 Y-89.0372 F2200.0
G1 Z0.0000 F2500.0
G4 P0.02
G0 X100.0572 Y-88.5950 F15000.0
G1 Z11.9000 F2500.0
G4 P0.02
G1 X99.7034 Y-87.9758 F2200.0
G1 Z0.0000 F2500.0
G4 P0.02
G0 X31.2518 Y-133.5221 F15000.0
G1 Z11.9000 F2500.0
G4 P0.02
G1 X31.0306 Y-133.2566 F2200.0
G1 Z0.0000 F2500.0
G4 P0.02
G0 X33.5515 Y-133.3452 F15000.0
G1 Z11.9000 F2500.0
G4 P0.02
G1 X33.5958 Y-134.6719 F2200.0
G1 X32.0921 Y-134.7161
G1 X33.5958 Y-137.2371
G1 X33.8612 Y-137.3698
G1 X33.9939 Y-137.8121
G1 Z0.0000 F2500.0
G4 P0.02
G0 X33.8612 Y-137.3698 F15000.0
G1 Z11.9000 F2500.0
G4 P0.02
G1 X33.6401 Y-134.6719 F2200.0
G1 Z0.0000 F2500.0
G4 P0.02
G0 X43.9551 Y-95.0254 F15000.0
G1 Z11.9000 F2500.0
G4 P0.02
G1 X43.5570 Y-93.8312 F2200.0
G1 X44.5743 Y-93.7870
G1 X45.1492 Y-93.8754
G1 X45.7241 Y-94.3177
G1 X46.1664 Y-95.3792
G1 X46.9625 Y-97.9001
G1 X46.7414 Y-98.2097
G1 X45.1492 Y-98.2539
G1 X44.2204 Y-95.7329
G1 Z0.0000 F2500.0
G4 P0.02
G0 X131.2549 Y-98.0153 F15000.0
G1 Z11.9000 F2500.0
G4 P0.02
G1 X130.9011 Y-96.8654 F2200.0
G1 X132.4933 Y-96.8654
G1 Z0.0000 F2500.0
G4 P0.02
G0 X131.5203 Y-98.7229 F15000.0
G1 Z11.9000 F2500.0
G4 P0.02
G1 X132.3606 Y-101.0670 F2200.0
G1 X134.1297 Y-101.3766
G1 Z0.0000 F2500.0
G4 P0.02
G0 X131.8298 Y-99.2537 F15000.0
G1 Z11.9000 F2500.0
G4 P0.02
G1 X132.7144 Y-99.2979 F2200.0
G1 Z0.0000 F2500.0
G4 P0.02
G0 X134.8815 Y-100.8016 F15000.0
G1 Z11.9000 F2500.0
G4 P0.02
G1 X134.5719 Y-100.2267 F2200.0
G1 Z0.0000 F2500.0
G4 P0.02
G0 X57.7487 Y-147.4615 F15000.0
G1 Z11.9000 F2500.0
G4 P0.02
G1 X59.2523 Y-151.6188 F2200.0
G1 X61.0214 Y-151.9284
G1 Z0.0000 F2500.0
G4 P0.02
G0 X58.7217 Y-149.8056 F15000.0
G1 Z11.9000 F2500.0
G4 P0.02
G1 X60.2696 Y-149.8497 F2200.0
G1 Z0.0000 F2500.0
G4 P0.02
G0 X61.7732 Y-151.3535 F15000.0
G1 Z11.9000 F2500.0
G4 P0.02
G1 X61.4637 Y-150.7785 F2200.0
G1 Z0.0000 F2500.0
G4 P0.02
G0 X44.6765 Y-236.9559 F15000.0
G1 Z11.9000 F2500.0
G4 P0.02
G1 X45.7822 Y-240.0960 F2200.0
G1 Z0.0000 F2500.0
G4 P0.02
G0 X46.5341 Y-240.1844 F15000.0
G1 Z11.9000 F2500.0
G4 P0.02
G1 X45.9591 Y-240.1844 F2200.0
G1 X46.1360 Y-240.8921
G1 X46.4014 Y-241.2901
G1 X46.9764 Y-241.5555
G1 Z0.0000 F2500.0
G4 P0.02
G0 X47.2417 Y-239.6095 F15000.0
G1 Z11.9000 F2500.0
G4 P0.02
G1 X46.4456 Y-237.4424 F2200.0
G1 X46.4456 Y-237.2655
G1 X46.5783 Y-237.0443
G1 X47.4629 Y-237.0443
G1 X47.8167 Y-237.3097
G1 X48.6569 Y-239.8748
G1 X48.5243 Y-240.0075
G1 X47.7282 Y-240.0075
G1 Z0.0000 F2500.0
G4 P0.02
G0 X50.1607 Y-239.2114 F15000.0
G1 Z11.9000 F2500.0
G4 P0.02
G1 X49.5858 Y-238.9903 F2200.0
G1 X49.0993 Y-238.4596
G1 X48.8781 Y-238.0173
G1 X48.7897 Y-237.5308
G1 X48.8781 Y-237.0886
G1 X49.4089 Y-236.8674
G1 X49.7185 Y-237.0001
G1 X50.2491 Y-237.4424
G1 X50.6472 Y-238.2827
G1 X50.8241 Y-238.3712
G1 X50.6472 Y-238.3269
G1 X50.5145 Y-238.9903
G1 Z0.0000 F2500.0
G4 P0.02
G0 X50.4260 Y-237.4866 F15000.0
G1 Z11.9000 F2500.0
G4 P0.02
G1 X50.5587 Y-237.0443 F2200.0
G1 X50.8684 Y-237.0886
G1 X51.1780 Y-237.4866
G1 Z0.0000 F2500.0
G4 P0.02
G0 X51.3990 Y-239.1230 F15000.0
G1 Z11.9000 F2500.0
G4 P0.02
G1 X51.6202 Y-239.2114 F2200.0
G1 Z0.0000 F2500.0
G4 P0.02
G0 X52.9332 Y-240.7027 F15000.0
G1 Z11.9000 F2500.0
G4 P0.02
G1 X53.5523 Y-241.6314 F2200.0
G1 Z0.0000 F2500.0
G4 P0.02
G0 X54.2600 Y-241.6314 F15000.0
G1 Z11.9000 F2500.0
G4 P0.02
G1 X53.6408 Y-240.7027 F2200.0
G1 Z0.0000 F2500.0
G4 P0.02
G0 X152.2639 Y-193.1653 F15000.0
G1 Z11.9000 F2500.0
G4 P0.02
G1 X151.7774 Y-191.8386 F2200.0
G1 Z0.0000 F2500.0
G4 P0.02
G0 X152.4408 Y-193.6518 F15000.0
G1 Z11.9000 F2500.0
G4 P0.02
G1 X153.2369 Y-195.7747 F2200.0
G1 X153.5022 Y-196.1728
G1 X154.0772 Y-196.4382
G1 Z0.0000 F2500.0
G4 P0.02
G0 X153.6350 Y-195.0671 F15000.0
G1 Z11.9000 F2500.0
G4 P0.02
G1 X152.7504 Y-195.0229 F2200.0
G1 Z0.0000 F2500.0
G4 P0.02
G0 X154.3425 Y-194.4922 F15000.0
G1 Z11.9000 F2500.0
G4 P0.02
G1 X153.5464 Y-192.3251 F2200.0
G1 X153.5464 Y-192.1482
G1 X153.6791 Y-191.9270
G1 X154.5637 Y-191.9270
G1 X154.9175 Y-192.1923
G1 X155.7578 Y-194.7575
G1 X155.6251 Y-194.8902
G1 X154.8290 Y-194.8902
G1 Z0.0000 F2500.0
G4 P0.02
G0 X157.9692 Y-194.2268 F15000.0
G1 Z11.9000 F2500.0
G4 P0.02
G1 X158.1460 Y-194.5806 F2200.0
G1 X157.7480 Y-195.1998
G1 X156.9962 Y-194.8902
G1 X156.7308 Y-194.5364
G1 X155.7578 Y-191.8827
G1 X155.2713 Y-190.8213
G1 Z0.0000 F2500.0
G4 P0.02
G0 X155.8463 Y-192.0597 F15000.0
G1 Z11.9000 F2500.0
G4 P0.02
G1 X156.5539 Y-191.7501 F2200.0
G1 X157.3058 Y-192.0597
G1 X157.7923 Y-193.2096
G1 X157.7038 Y-193.3865
G1 Z0.0000 F2500.0
G4 P0.02
G0 X157.0846 Y-193.7403 F15000.0
G1 Z11.9000 F2500.0
G4 P0.02
G1 X157.4384 Y-193.7845 F2200.0
G1 X157.7923 Y-194.0057
G1 Z0.0000 F2500.0
G4 P0.02
G0 X159.9910 Y-195.7622 F15000.0
G1 Z11.9000 F2500.0
G4 P0.02
G1 X160.3891 Y-196.5141 F2200.0
G1 Z0.0000 F2500.0
G4 P0.02
G0 X161.4063 Y-196.5141 F15000.0
G1 Z11.9000 F2500.0
G4 P0.02
G1 X160.7429 Y-195.3642 F2200.0
G1 Z0.0000 F2500.0
G4 P0.02
G0 X52.9951 Y-139.7836 F15000.0
G1 Z11.9000 F2500.0
G4 P0.02
G1 X52.2875 Y-137.8817 F2200.0
G1 Z0.0000 F2500.0
G4 P0.02
G0 X52.5528 Y-140.4027 F15000.0
G1 Z11.9000 F2500.0
G4 P0.02
G1 X53.2604 Y-140.7565 F2200.0
G1 X53.2604 Y-140.4912
G1 Z0.0000 F2500.0
G4 P0.02
G0 X53.7912 Y-140.3142 F15000.0
G1 Z11.9000 F2500.0
G4 P0.02
G1 X54.1892 Y-141.0661 F2200.0
G1 Z0.0000 F2500.0
G4 P0.02
G0 X101.1879 Y-115.6328 F15000.0
G1 Z11.9000 F2500.0
G4 P0.02
G1 X101.0110 Y-115.1905 F2200.0
G1 Z0.0000 F2500.0
G4 P0.02
G0 X101.4091 Y-116.2078 F15000.0
G1 Z11.9000 F2500.0
G4 P0.02
G1 X102.2052 Y-118.1979 F2200.0
G1 X102.1609 Y-117.7999
G1 X102.5148 Y-115.6770
G1 X102.6474 Y-115.7655
G1 X103.1782 Y-117.1365
G1 Z0.0000 F2500.0
G4 P0.02
G0 X102.5148 Y-115.6770 F15000.0
G1 Z11.9000 F2500.0
G4 P0.02
G1 X102.4705 Y-115.2790 F2200.0
G1 Z0.0000 F2500.0
G4 P0.02
G0 X103.4435 Y-117.8442 F15000.0
G1 Z11.9000 F2500.0
G4 P0.02
G1 X103.6204 Y-118.3307 F2200.0
G1 Z0.0000 F2500.0
G4 P0.02
G0 X104.3723 Y-118.3748 F15000.0
G1 Z11.9000 F2500.0
G4 P0.02
G1 X103.9743 Y-117.5788 F2200.0
G1 Z0.0000 F2500.0
G4 P0.02
G0 X52.6977 Y-128.7962 F15000.0
G1 Z11.9000 F2500.0
G4 P0.02
G1 X51.5036 Y-125.6561 F2200.0
G1 Z0.0000 F2500.0
G4 P0.02
G0 X53.2284 Y-127.4694 F15000.0
G1 Z11.9000 F2500.0
G4 P0.02
G1 X53.0073 Y-127.4694 F2200.0
G1 X52.7861 Y-128.3098
G1 Z0.0000 F2500.0
G4 P0.02
G0 X53.6265 Y-126.0983 F15000.0
G1 Z11.9000 F2500.0
G4 P0.02
G1 X53.4496 Y-125.6118 F2200.0
G1 Z0.0000 F2500.0
G4 P0.02
G0 X53.8476 Y-126.7176 F15000.0
G1 Z11.9000 F2500.0
G4 P0.02
G1 X54.2899 Y-127.9559 F2200.0
G1 X54.3340 Y-128.3539
G1 X54.0245 Y-128.1770
G1 Z0.0000 F2500.0
G4 P0.02
G0 X54.9975 Y-128.0443 F15000.0
G1 Z11.9000 F2500.0
G4 P0.02
G1 X55.3956 Y-128.8404 F2200.0
G1 Z0.0000 F2500.0
G4 P0.02
G0 X51.6297 Y-115.9645 F15000.0
G1 Z11.9000 F2500.0
G4 P0.02
G1 X51.5413 Y-115.4780 F2200.0
G1 X51.2759 Y-114.9031
G1 X49.9933 Y-114.5936
G1 Z0.0000 F2500.0
G4 P0.02
G0 X50.7010 Y-116.3626 F15000.0
G1 Z11.9000 F2500.0
G4 P0.02
G1 X50.7894 Y-116.7165 F2200.0
G1 X50.8779 Y-116.2741
G1 X51.4528 Y-116.1857
G1 Z0.0000 F2500.0
G4 P0.02
G0 X50.9222 Y-117.0702 F15000.0
G1 Z11.9000 F2500.0
G4 P0.02
G1 X51.0106 Y-117.3356 F2200.0
G1 X52.4258 Y-117.7779
G1 Z0.0000 F2500.0
G4 P0.02
G0 X53.0892 Y-117.7779 F15000.0
G1 Z11.9000 F2500.0
G4 P0.02
G1 X52.6912 Y-116.9818 F2200.0
G1 Z0.0000 F2500.0
G4 P0.02
G0 X44.2638 Y-196.6076 F15000.0
G1 Z11.9000 F2500.0
G4 P0.02
G1 X45.5464 Y-196.9172 F2200.0
G1 X45.8560 Y-197.6690
G1 X45.7675 Y-198.1997
G1 X45.0157 Y-198.3324
G1 X45.2810 Y-199.3497
G1 X46.6963 Y-199.7919
G1 Z0.0000 F2500.0
G4 P0.02
G0 X47.2270 Y-199.5707 F15000.0
G1 Z11.9000 F2500.0
G4 P0.02
G1 X47.0501 Y-199.2611 F2200.0
G1 X47.5366 Y-199.2611
G1 X47.7135 Y-199.5707
G1 Z0.0000 F2500.0
G4 P0.02
G0 X50.4713 Y-198.4887 F15000.0
G1 Z11.9000 F2500.0
G4 P0.02
G1 X49.7637 Y-196.5869 F2200.0
G1 Z0.0000 F2500.0
G4 P0.02
G0 X50.0290 Y-199.1078 F15000.0
G1 Z11.9000 F2500.0
G4 P0.02
G1 X50.7367 Y-199.4617 F2200.0
G1 X50.7367 Y-199.1962
G1 Z0.0000 F2500.0
G4 P0.02
G0 X51.4443 Y-199.3732 F15000.0
G1 Z11.9000 F2500.0
G4 P0.02
G1 X51.6213 Y-199.6385 F2200.0
G1 X51.9308 Y-199.3732
G1 X52.1077 Y-199.6385
G1 Z0.0000 F2500.0
G4 P0.02
G0 X103.6275 Y-177.4518 F15000.0
G1 Z11.9000 F2500.0
G4 P0.02
G1 X103.4506 Y-177.0096 F2200.0
G1 Z0.0000 F2500.0
G4 P0.02
G0 X103.8487 Y-178.0268 F15000.0
G1 Z11.9000 F2500.0
G4 P0.02
G1 X104.6448 Y-180.0170 F2200.0
G1 X104.6005 Y-179.6190
G1 X104.9543 Y-177.4961
G1 X105.0870 Y-177.5845
G1 X105.6178 Y-178.9556
G1 Z0.0000 F2500.0
G4 P0.02
G0 X104.9543 Y-177.4961 F15000.0
G1 Z11.9000 F2500.0
G4 P0.02
G1 X104.9101 Y-177.0980 F2200.0
G1 Z0.0000 F2500.0
G4 P0.02
G0 X105.8831 Y-179.6631 F15000.0
G1 Z11.9000 F2500.0
G4 P0.02
G1 X106.0600 Y-180.1496 F2200.0
G1 Z0.0000 F2500.0
G4 P0.02
G0 X106.7234 Y-180.0170 F15000.0
G1 Z11.9000 F2500.0
G4 P0.02
G1 X106.8118 Y-180.1939 F2200.0
G1 X107.1657 Y-179.9727
G1 X106.9887 Y-179.6631
G1 Z0.0000 F2500.0
G4 P0.02
G0 X64.5134 Y-184.5260 F15000.0
G1 Z11.9000 F2500.0
G4 P0.02
G1 X64.4248 Y-184.3491 F2200.0
G1 X64.9113 Y-184.3491
G1 X64.9999 Y-184.5260
G1 Z0.0000 F2500.0
G4 P0.02
G0 X113.5640 Y-174.4234 F15000.0
G1 Z11.9000 F2500.0
G4 P0.02
G1 X113.6524 Y-174.6003 F2200.0
G1 X114.0505 Y-174.4234
G1 X114.1389 Y-174.6003
G1 Z0.0000 F2500.0
G4 P0.02
G0 X61.6437 Y-191.5372 F15000.0
G1 Z11.9000 F2500.0
G4 P0.02
G1 X61.5553 Y-191.3603 F2200.0
G1 X62.0418 Y-191.3603
G1 X62.1302 Y-191.5372
G1 Z0.0000 F2500.0
G4 P0.02
G0 X76.4892 Y-164.4242 F15000.0
G1 Z11.9000 F2500.0
G4 P0.02
G1 X76.4008 Y-164.2473 F2200.0
G1 X76.8873 Y-164.2473
G1 X76.9757 Y-164.4242
G1 Z0.0000 F2500.0
G4 P0.02
G0 X81.6207 Y-201.3387 F15000.0
G1 Z11.9000 F2500.0
G4 P0.02
G1 X83.1245 Y-203.9038 F2200.0
G1 X83.1686 Y-204.2576
G1 X81.8419 Y-204.0807
G1 Z0.0000 F2500.0
G4 P0.02
G0 X83.6994 Y-203.7270 F15000.0
G1 Z11.9000 F2500.0
G4 P0.02
G1 X84.0090 Y-204.1692 F2200.0
G1 X84.1859 Y-203.7270
G1 X84.4955 Y-204.1692
G1 Z0.0000 F2500.0
G4 P0.02
G0 X83.2647 Y-165.6149 F15000.0
G1 Z11.9000 F2500.0
G4 P0.02
G1 X84.1049 Y-165.1284 F2200.0
G1 X84.6357 Y-165.4822
G1 X84.9452 Y-166.5436
G1 X84.8568 Y-166.6763
G1 X83.7953 Y-166.8532
G1 X84.0165 Y-167.2956
G1 X83.3531 Y-165.8361
G1 Z0.0000 F2500.0
G4 P0.02
G0 X85.0338 Y-168.1801 F15000.0
G1 Z11.9000 F2500.0
G4 P0.02
G1 X85.2106 Y-168.3127 F2200.0
G1 Z0.0000 F2500.0
G4 P0.02
G0 X86.4056 Y-168.1075 F15000.0
G1 Z11.9000 F2500.0
G4 P0.02
G1 X86.4940 Y-168.2844 F2200.0
G1 X86.8921 Y-168.1075
G1 X86.9805 Y-168.2844
G1 Z0.0000 F2500.0
G4 P0.02
G0 X61.6460 Y-87.0028 F15000.0
G1 Z11.9000 F2500.0
G4 P0.02
G1 X62.4863 Y-86.5163 F2200.0
G1 X63.0170 Y-86.8701
G1 X63.3266 Y-87.9315
G1 X63.2382 Y-88.0642
G1 X62.1767 Y-88.2411
G1 X62.3979 Y-88.6833
G1 X61.7344 Y-87.2239
G1 Z0.0000 F2500.0
G4 P0.02
G0 X63.4151 Y-89.5679 F15000.0
G1 Z11.9000 F2500.0
G4 P0.02
G1 X63.5920 Y-89.7006 F2200.0
G1 Z0.0000 F2500.0
G4 P0.02
G0 X67.1005 Y-86.8459 F15000.0
G1 Z11.9000 F2500.0
G4 P0.02
G1 X67.0120 Y-86.7132 F2200.0
G1 Z0.0000 F2500.0
G4 P0.02
G0 X68.0735 Y-88.5266 F15000.0
G1 Z11.9000 F2500.0
G4 P0.02
G1 X68.5157 Y-89.2784 F2200.0
G1 X68.5600 Y-89.6322
G1 X67.2332 Y-89.4553
G1 Z0.0000 F2500.0
G4 P0.02
G0 X67.4101 Y-87.3766 F15000.0
G1 Z11.9000 F2500.0
G4 P0.02
G1 X67.3216 Y-87.2440 F2200.0
G1 Z0.0000 F2500.0
G4 P0.02
G0 X67.6312 Y-87.7747 F15000.0
G1 Z11.9000 F2500.0
G4 P0.02
G1 X67.8523 Y-88.1285 F2200.0
G1 Z0.0000 F2500.0
G4 P0.02
G0 X69.0907 Y-88.8804 F15000.0
G1 Z11.9000 F2500.0
G4 P0.02
G1 X69.4887 Y-89.6765 F2200.0
G1 Z0.0000 F2500.0
G4 P0.02
G0 X40.4397 Y-275.1390 F15000.0
G1 Z11.9000 F2500.0
G4 P0.02
G1 X42.0318 Y-279.6059 F2200.0
G1 Z0.0000 F2500.0
G4 P0.02
G0 X43.6240 Y-278.2350 F15000.0
G1 Z11.9000 F2500.0
G4 P0.02
G1 X43.2260 Y-277.4831 F2200.0
G1 X41.4127 Y-277.4831
G1 Z0.0000 F2500.0
G4 P0.02
G0 X43.2702 Y-277.4389 F15000.0
G1 Z11.9000 F2500.0
G4 P0.02
G1 X42.4299 Y-275.0064 F2200.0
G1 Z0.0000 F2500.0
G4 P0.02
G0 X43.6240 Y-275.2718 F15000.0
G1 Z11.9000 F2500.0
G4 P0.02
G1 X44.4643 Y-277.7927 F2200.0
G1 X44.6855 Y-277.9696
G1 X46.2334 Y-278.1907
G1 X45.3047 Y-275.2275
G1 X44.9508 Y-275.0949
G1 X43.7567 Y-275.0949
G1 Z0.0000 F2500.0
G4 P0.02
G0 X43.8009 Y-278.6772 F15000.0
G1 Z11.9000 F2500.0
G4 P0.02
G1 X44.1547 Y-279.6059 F2200.0
G1 Z0.0000 F2500.0
G4 P0.02
G0 X45.3489 Y-275.2275 F15000.0
G1 Z11.9000 F2500.0
G4 P0.02
G1 X45.4816 Y-275.0949 F2200.0
G1 Z0.0000 F2500.0
G4 P0.02
G0 X64.5295 Y-275.5813 F15000.0
G1 Z11.9000 F2500.0
G4 P0.02
G1 X65.6352 Y-275.0505 F2200.0
G1 X65.9006 Y-275.1389
G1 Z0.0000 F2500.0
G4 P0.02
G0 X64.6180 Y-275.8023 F15000.0
G1 Z11.9000 F2500.0
G4 P0.02
G1 X65.3256 Y-277.7926 F2200.0
G1 Z0.0000 F2500.0
G4 P0.02
G0 X65.8564 Y-279.2078 F15000.0
G1 Z11.9000 F2500.0
G4 P0.02
G1 X65.5468 Y-278.1906 F2200.0
G1 X66.1217 Y-278.2348
G1 X66.2545 Y-278.4560
G1 X66.7851 Y-278.9425
G1 X66.6967 Y-279.5174
G1 X66.1659 Y-279.4732
G1 Z0.0000 F2500.0
G4 P0.02
G0 X66.1659 Y-278.2348 F15000.0
G1 Z11.9000 F2500.0
G4 P0.02
G1 X66.9178 Y-278.1022 F2200.0
G1 X67.0505 Y-277.9695
G1 X66.2545 Y-275.5813
G1 Z0.0000 F2500.0
G4 P0.02
G0 X91.9465 Y-275.5805 F15000.0
G1 Z11.9000 F2500.0
G4 P0.02
G1 X93.0522 Y-275.0497 F2200.0
G1 X93.3175 Y-275.1382
G1 Z0.0000 F2500.0
G4 P0.02
G0 X92.1676 Y-276.1554 F15000.0
G1 Z11.9000 F2500.0
G4 P0.02
G1 X92.7868 Y-277.7918 F2200.0
G1 X93.0522 Y-278.0130
G1 X94.5117 Y-278.2341
G1 X94.9097 Y-279.3840
G1 X94.7770 Y-279.5166
G1 X93.4060 Y-279.5609
G1 Z0.0000 F2500.0
G4 P0.02
G0 X94.5558 Y-278.1898 F15000.0
G1 Z11.9000 F2500.0
G4 P0.02
G1 X93.6713 Y-275.5805 F2200.0
G1 Z0.0000 F2500.0
G4 P0.02
G0 X94.6886 Y-275.1824 F15000.0
G1 Z11.9000 F2500.0
G4 P0.02
G1 X94.6443 Y-275.5805 F2200.0
G1 X95.4404 Y-277.7918
G1 Z0.0000 F2500.0
G4 P0.02
G0 X96.0153 Y-275.1382 F15000.0
G1 Z11.9000 F2500.0
G4 P0.02
G1 X94.7770 Y-275.0940 F2200.0
G1 Z0.0000 F2500.0
G4 P0.02
G0 X95.9711 Y-279.2071 F15000.0
G1 Z11.9000 F2500.0
G4 P0.02
G1 X95.6615 Y-278.1898 F2200.0
G1 X96.2365 Y-278.2341
G1 X96.5461 Y-278.6322
G1 X96.9441 Y-279.4282
G1 X96.2808 Y-279.4724
G1 Z0.0000 F2500.0
G4 P0.02
G0 X96.2808 Y-278.2341 F15000.0
G1 Z11.9000 F2500.0
G4 P0.02
G1 X97.0326 Y-278.1014 F2200.0
G1 X97.1653 Y-277.9687
G1 X96.3692 Y-275.5805
G1 Z0.0000 F2500.0
G4 P0.02
G0 X96.8114 Y-273.6345 F15000.0
G1 Z11.9000 F2500.0
G4 P0.02
G1 X98.3594 Y-273.8998 F2200.0
G1 X98.5805 Y-274.2537
G1 X98.7574 Y-275.0497
G1 X97.5191 Y-275.0940
G1 X97.3422 Y-275.4036
G1 X98.3152 Y-278.2341
G1 Z0.0000 F2500.0
G4 P0.02
G0 X99.1113 Y-275.6689 F15000.0
G1 Z11.9000 F2500.0
G4 P0.02
G1 X98.8901 Y-275.0940 F2200.0
G1 Z0.0000 F2500.0
G4 P0.02
G0 X99.2439 Y-276.0227 F15000.0
G1 Z11.9000 F2500.0
G4 P0.02
G1 X100.0400 Y-278.2341 F2200.0
G1 Z0.0000 F2500.0
G4 P0.02
G0 X100.4381 Y-275.6689 F15000.0
G1 Z11.9000 F2500.0
G4 P0.02
G1 X100.1727 Y-275.3593 F2200.0
G1 Z0.0000 F2500.0
G4 P0.02
G0 X100.8361 Y-276.1112 F15000.0
G1 Z11.9000 F2500.0
G4 P0.02
G1 X101.2783 Y-276.3766 F2200.0
G1 X101.2783 Y-276.7746
G1 X101.6322 Y-276.9515
G1 X102.0744 Y-277.4380
G1 Z0.0000 F2500.0
G4 P0.02
G0 X101.1899 Y-276.9515 F15000.0
G1 Z11.9000 F2500.0
G4 P0.02
G1 X101.0130 Y-278.1457 F2200.0
G1 Z0.0000 F2500.0
G4 P0.02
G0 X101.3668 Y-276.2881 F15000.0
G1 Z11.9000 F2500.0
G4 P0.02
G1 X101.5879 Y-275.0940 F2200.0
G1 Z0.0000 F2500.0
G4 P0.02
G0 X102.4725 Y-277.8802 F15000.0
G1 Z11.9000 F2500.0
G4 P0.02
G1 X102.5609 Y-277.9687 F2200.0
G1 Z0.0000 F2500.0
G4 P0.02
G0 X162.6179 Y-154.4737 F15000.0
G1 Z11.9000 F2500.0
G4 P0.02
G1 X16.6408 Y-154.4737 F12000.0
G1 Z0.0000 F2500.0
G4 P0.02
G0 X38.4714 Y-195.6636 F15000.0
G1 Z11.9000 F2500.0
G4 P0.02
G1 X93.9131 Y-154.4737 F12000.0
G1 Z0.0000 F2500.0
G4 P0.02
G0 X95.9725 Y-192.4508 F15000.0
G1 Z11.9000 F2500.0
G4 P0.02
G1 X121.0984 Y-191.0503 F12000.0
G1 Z0.0000 F2500.0
G4 P0.02
G0 X58.1601 Y-194.5927 F15000.0
G1 Z11.9000 F2500.0
G4 P0.02
G1 X54.7003 Y-194.7574 F2200.0
G1 Z0.0000 F2500.0
G4 P0.02
G0 X54.9996 Y-194.4580 F15000.0
G1 Z11.9000 F2500.0
G4 P0.02
G1 X54.3185 Y-195.1391 F2200.0
G1 Z0.0000 F2500.0
G4 P0.02
G0 X60.0549 Y-194.5103 F15000.0
G1 Z11.9000 F2500.0
G4 P0.02
G1 X63.5149 Y-194.2632 F2200.0
G1 Z0.0000 F2500.0
G4 P0.02
G0 X65.4920 Y-194.1807 F15000.0
G1 Z11.9000 F2500.0
G4 P0.02
G1 X68.9520 Y-193.9336 F2200.0
G1 Z0.0000 F2500.0
G4 P0.02
G0 X70.9291 Y-193.8513 F15000.0
G1 Z11.9000 F2500.0
G4 P0.02
G1 X74.3890 Y-193.6865 F2200.0
G1 Z0.0000 F2500.0
G4 P0.02
G0 X76.2837 Y-193.5217 F15000.0
G1 Z11.9000 F2500.0
G4 P0.02
G1 X79.7437 Y-193.3570 F2200.0
G1 Z0.0000 F2500.0
G4 P0.02
G0 X81.7208 Y-193.2746 F15000.0
G1 Z11.9000 F2500.0
G4 P0.02
G1 X85.1808 Y-193.0275 F2200.0
G1 Z0.0000 F2500.0
G4 P0.02
G0 X87.0755 Y-192.9450 F15000.0
G1 Z11.9000 F2500.0
G4 P0.02
G1 X90.5354 Y-192.7803 F2200.0
G1 Z0.0000 F2500.0
G4 P0.02
G0 X92.5126 Y-192.6156 F15000.0
G1 Z11.9000 F2500.0
G4 P0.02
G1 X95.9725 Y-192.4508 F2200.0
G1 Z0.0000 F2500.0
G4 P0.02
G0 X54.7003 Y-194.7574 F15000.0
G1 Z11.9000 F2500.0
G4 P0.02
G1 X38.4714 Y-195.6636 F12000.0
G1 Z0.0000 F2500.0
G4 P0.02
G0 X93.9131 Y-154.4737 F15000.0
G1 Z11.9000 F2500.0
G4 P0.02
G1 X109.7300 Y-175.7277 F12000.0
G1 Z0.0000 F2500.0
G4 P0.02
G0 X113.6018 Y-181.0000 F15000.0
G1 Z11.9000 F2500.0
G4 P0.02
G1 X116.4028 Y-184.7071 F2200.0
G1 Z0.0000 F2500.0
G4 P0.02
G0 X112.4486 Y-179.4348 F15000.0
G1 Z11.9000 F2500.0
G4 P0.02
G1 X109.7300 Y-175.7277 F2200.0
G1 X110.0293 Y-175.3460
G1 X109.3482 Y-176.0271
G1 Z0.0000 F2500.0
G4 P0.02
G0 X116.4028 Y-184.7071 F15000.0
G1 Z11.9000 F2500.0
G4 P0.02
G1 X121.0984 Y-191.0503 F2200.0
G1 X121.3977 Y-190.6686
G1 X120.7166 Y-191.3497
G1 Z0.0000 F2500.0
G4 P0.02
G0 X57.3364 Y-186.3547 F15000.0
G1 Z11.9000 F2500.0
G4 P0.02
G1 X49.8398 Y-209.8330 F12000.0
G1 Z0.0000 F2500.0
G4 P0.02
G0 X58.5721 Y-182.4005 F15000.0
G1 Z11.9000 F2500.0
G4 P0.02
G1 X59.3135 Y-180.2586 F2200.0
G1 Z0.0000 F2500.0
G4 P0.02
G0 X59.6128 Y-179.9592 F15000.0
G1 Z11.9000 F2500.0
G4 P0.02
G1 X58.9317 Y-180.6403 F2200.0
G1 Z0.0000 F2500.0
G4 P0.02
G0 X57.9954 Y-184.2128 F15000.0
G1 Z11.9000 F2500.0
G4 P0.02
G1 X57.3364 Y-186.3547 F2200.0
G1 X57.6626 Y-186.0696
G1 X57.0102 Y-186.7221
G1 Z0.0000 F2500.0
G4 P0.02
G0 X59.3135 Y-180.2586 F15000.0
G1 Z11.9000 F2500.0
G4 P0.02
G1 X64.3386 Y-164.4417 F12000.0
G1 Z0.0000 F2500.0
G4 P0.02
G0 X49.8398 Y-209.8330 F15000.0
G1 Z11.9000 F2500.0
G4 P0.02
G1 X128.1831 Y-180.2586 F12000.0
G1 Z0.0000 F2500.0
G4 P0.02
G0 X76.5309 Y-167.4897 F15000.0
G1 Z11.9000 F2500.0
G4 P0.02
G1 X64.3386 Y-164.4417 F2200.0
G1 Z0.0000 F2500.0
G4 P0.02
G0 X100.5034 Y-173.4210 F15000.0
G1 Z11.9000 F2500.0
G4 P0.02
G1 X104.6224 Y-174.4096 F2200.0
G1 Z0.0000 F2500.0
G4 P0.02
G0 X104.9218 Y-174.1103 F15000.0
G1 Z11.9000 F2500.0
G4 P0.02
G1 X104.2407 Y-174.7914 F2200.0
G1 Z0.0000 F2500.0
G4 P0.02
G0 X98.6087 Y-172.9267 F15000.0
G1 Z11.9000 F2500.0
G4 P0.02
G1 X94.4897 Y-171.9382 F2200.0
G1 Z0.0000 F2500.0
G4 P0.02
G0 X92.5950 Y-171.4439 F15000.0
G1 Z11.9000 F2500.0
G4 P0.02
G1 X88.4760 Y-170.4553 F2200.0
G1 Z0.0000 F2500.0
G4 P0.02
G0 X86.5812 Y-169.9611 F15000.0
G1 Z11.9000 F2500.0
G4 P0.02
G1 X82.5447 Y-168.9725 F2200.0
G1 Z0.0000 F2500.0
G4 P0.02
G0 X80.6498 Y-168.4782 F15000.0
G1 Z11.9000 F2500.0
G4 P0.02
G1 X76.5309 Y-167.4897 F2200.0
G1 X76.8303 Y-167.1080
G1 X76.1492 Y-167.7891
G1 Z0.0000 F2500.0
G4 P0.02
G0 X104.6224 Y-174.4096 F15000.0
G1 Z11.9000 F2500.0
G4 P0.02
G1 X128.1831 Y-180.2586 F12000.0
G1 Z0.0000 F2500.0
G4 P0.02
G0 X55.7712 Y-119.9565 F15000.0
G1 Z11.9000 F2500.0
G4 P0.02
G1 X38.4714 Y-132.7254 F12000.0
G1 Z0.0000 F2500.0
G4 P0.02
G0 X77.1076 Y-104.1396 F15000.0
G1 Z11.9000 F2500.0
G4 P0.02
G1 X80.2078 Y-101.8631 F2200.0
G1 X79.5267 Y-102.5442
G1 Z0.0000 F2500.0
G4 P0.02
G0 X75.5423 Y-105.2929 F15000.0
G1 Z11.9000 F2500.0
G4 P0.02
G1 X72.9062 Y-107.3524 F2200.0
G1 Z0.0000 F2500.0
G4 P0.02
G0 X71.3410 Y-108.5057 F15000.0
G1 Z11.9000 F2500.0
G4 P0.02
G1 X68.6224 Y-110.4828 F2200.0
G1 Z0.0000 F2500.0
G4 P0.02
G0 X67.0572 Y-111.6362 F15000.0
G1 Z11.9000 F2500.0
G4 P0.02
G1 X64.3386 Y-113.6133 F2200.0
G1 Z0.0000 F2500.0
G4 P0.02
G0 X62.7735 Y-114.7666 F15000.0
G1 Z11.9000 F2500.0
G4 P0.02
G1 X60.0549 Y-116.7437 F2200.0
G1 Z0.0000 F2500.0
G4 P0.02
G0 X58.4897 Y-117.8970 F15000.0
G1 Z11.9000 F2500.0
G4 P0.02
G1 X55.7712 Y-119.9565 F2200.0
G1 Z0.0000 F2500.0
G4 P0.02
G0 X79.8261 Y-102.1625 F15000.0
G1 Z11.9000 F2500.0
G4 P0.02
G1 X93.9131 Y-91.7826 F12000.0
G1 Z0.0000 F2500.0
G4 P0.02
G0 X121.0984 Y-147.2242 F15000.0
G1 Z11.9000 F2500.0
G4 P0.02
G1 X38.4714 Y-132.7254 F12000.0
G1 Z0.0000 F2500.0
G4 P0.02
G0 X99.5973 Y-103.3982 F15000.0
G1 Z11.9000 F2500.0
G4 P0.02
G1 X93.9131 Y-91.7826 F2200.0
G1 Z0.0000 F2500.0
G4 P0.02
G0 X106.0229 Y-116.4966 F15000.0
G1 Z11.9000 F2500.0
G4 P0.02
G1 X107.3409 Y-119.1327 F2200.0
G1 Z0.0000 F2500.0
G4 P0.02
G0 X105.1991 Y-114.7666 F15000.0
G1 Z11.9000 F2500.0
G4 P0.02
G1 X103.8810 Y-112.1305 F2200.0
G1 Z0.0000 F2500.0
G4 P0.02
G0 X103.0572 Y-110.4005 F15000.0
G1 Z11.9000 F2500.0
G4 P0.02
G1 X101.7391 Y-107.7643 F2200.0
G1 Z0.0000 F2500.0
G4 P0.02
G0 X100.9153 Y-106.0343 F15000.0
G1 Z11.9000 F2500.0
G4 P0.02
G1 X99.5973 Y-103.3982 F2200.0
G1 Z0.0000 F2500.0
G4 P0.02
G0 X107.3409 Y-119.1327 F15000.0
G1 Z11.9000 F2500.0
G4 P0.02
G1 X121.0984 Y-147.2242 F12000.0
G1 Z0.0000 F2500.0
G4 P0.02
G0 X64.3386 Y-148.1305 F15000.0
G1 Z11.9000 F2500.0
G4 P0.02
G1 X60.8787 Y-136.5972 F2200.0
G1 Z0.0000 F2500.0
G4 P0.02
G0 X58.1601 Y-127.6179 F15000.0
G1 Z11.9000 F2500.0
G4 P0.02
G1 X57.3364 Y-124.9816 F2200.0
G1 X57.6626 Y-124.6966
G1 X57.0102 Y-125.3491
G1 Z0.0000 F2500.0
G4 P0.02
G0 X58.7368 Y-129.5126 F15000.0
G1 Z11.9000 F2500.0
G4 P0.02
G1 X59.4782 Y-132.1487 F2200.0
G1 Z0.0000 F2500.0
G4 P0.02
G0 X60.0549 Y-133.9611 F15000.0
G1 Z11.9000 F2500.0
G4 P0.02
G1 X60.8787 Y-136.5972 F2200.0
G1 Z0.0000 F2500.0
G4 P0.02
G0 X57.3364 Y-124.9816 F15000.0
G1 Z11.9000 F2500.0
G4 P0.02
G1 X49.8398 Y-100.3501 F12000.0
G1 Z0.0000 F2500.0
G4 P0.02
G0 X104.6224 Y-120.9451 F15000.0
G1 Z11.9000 F2500.0
G4 P0.02
G1 X128.1831 Y-105.1281 F12000.0
G1 Z0.0000 F2500.0
G4 P0.02
G0 X80.3204 Y-137.3386 F15000.0
G1 Z11.9000 F2500.0
G4 P0.02
G1 X77.1076 Y-139.4806 F2200.0
G1 Z0.0000 F2500.0
G4 P0.02
G0 X81.9680 Y-136.1853 F15000.0
G1 Z11.9000 F2500.0
G4 P0.02
G1 X85.1808 Y-134.0435 F2200.0
G1 Z0.0000 F2500.0
G4 P0.02
G0 X86.8283 Y-132.9725 F15000.0
G1 Z11.9000 F2500.0
G4 P0.02
G1 X90.0412 Y-130.7483 F2200.0
G1 Z0.0000 F2500.0
G4 P0.02
G0 X91.6888 Y-129.6773 F15000.0
G1 Z11.9000 F2500.0
G4 P0.02
G1 X94.9016 Y-127.5354 F2200.0
G1 Z0.0000 F2500.0
G4 P0.02
G0 X96.5492 Y-126.3822 F15000.0
G1 Z11.9000 F2500.0
G4 P0.02
G1 X99.7620 Y-124.2402 F2200.0
G1 Z0.0000 F2500.0
G4 P0.02
G0 X101.3273 Y-123.1693 F15000.0
G1 Z11.9000 F2500.0
G4 P0.02
G1 X104.6224 Y-120.9451 F2200.0
G1 Z0.0000 F2500.0
G4 P0.02
G0 X104.9218 Y-120.6457 F15000.0
G1 Z11.9000 F2500.0
G4 P0.02
G1 X104.2407 Y-121.3268 F2200.0
G1 Z0.0000 F2500.0
G4 P0.02
G0 X77.1076 Y-139.4806 F15000.0
G1 Z11.9000 F2500.0
G4 P0.02
G1 X64.3386 Y-148.1305 F2200.0
G1 Z0.0000 F2500.0
G4 P0.02
G0 X49.8398 Y-100.3501 F15000.0
G1 Z11.9000 F2500.0
G4 P0.02
G1 X128.1831 Y-105.1281 F12000.0
G1 Z0.0000 F2500.0
G4 P0.02
G0 X38.4714 Y-132.7254 F15000.0
G1 Z11.9000 F2500.0
G4 P0.02
G1 X38.4714 Y-195.6636 F12000.0
G1 Z0.0000 F2500.0
G4 P0.02
G0 X49.8398 Y-209.8330 F15000.0
G1 Z11.9000 F2500.0
G4 P0.02
G1 X49.8398 Y-100.3501 F12000.0
G1 Z0.0000 F2500.0
G4 P0.02
G0 X64.3386 Y-148.1305 F15000.0
G1 Z11.9000 F2500.0
G4 P0.02
G1 X64.3386 Y-164.4417 F12000.0
G1 Z0.0000 F2500.0
G4 P0.02
G0 X93.9131 Y-154.4737 F15000.0
G1 Z11.9000 F2500.0
G4 P0.02
G1 X93.9131 Y-91.7826 F12000.0
G1 Z0.0000 F2500.0
G4 P0.02
G0 X128.1831 Y-105.1281 F15000.0
G1 Z11.9000 F2500.0
G4 P0.02
G1 X128.1831 Y-180.2586 F12000.0
G1 Z0.0000 F2500.0
G4 P0.02
G0 X121.0984 Y-191.0503 F15000.0
G1 Z11.9000 F2500.0
G4 P0.02
G1 X121.0984 Y-147.2242 F12000.0
G1 Z0.0000 F2500.0
G4 P0.02
G0 X50.2216 Y-209.5336 F15000.0
G1 Z11.9000 F2500.0
G4 P0.02
G1 X49.5405 Y-210.2147 F2200.0
G1 Z0.0000 F2500.0
G4 P0.02
G0 X38.1721 Y-196.0454 F15000.0
G1 Z11.9000 F2500.0
G4 P0.02
G1 X38.8532 Y-195.3643 F2200.0
G1 Z0.0000 F2500.0
G4 P0.02
G0 X63.9569 Y-164.7410 F15000.0
G1 Z11.9000 F2500.0
G4 P0.02
G1 X64.6380 Y-164.0599 F2200.0
G1 Z0.0000 F2500.0
G4 P0.02
G0 X93.6137 Y-154.8554 F15000.0
G1 Z11.9000 F2500.0
G4 P0.02
G1 X94.2948 Y-154.1743 F2200.0
G1 Z0.0000 F2500.0
G4 P0.02
G0 X127.8014 Y-180.6403 F15000.0
G1 Z11.9000 F2500.0
G4 P0.02
G1 X128.4825 Y-179.9592 F2200.0
G1 Z0.0000 F2500.0
G4 P0.02
G0 X120.7166 Y-147.6060 F15000.0
G1 Z11.9000 F2500.0
G4 P0.02
G1 X121.3977 Y-146.9249 F2200.0
G1 Z0.0000 F2500.0
G4 P0.02
G0 X64.6380 Y-147.7487 F15000.0
G1 Z11.9000 F2500.0
G4 P0.02
G1 X63.9569 Y-148.4297 F2200.0
G1 Z0.0000 F2500.0
G4 P0.02
G0 X38.8532 Y-132.3437 F15000.0
G1 Z11.9000 F2500.0
G4 P0.02
G1 X38.1721 Y-133.0248 F2200.0
G1 Z0.0000 F2500.0
G4 P0.02
G0 X49.5405 Y-100.7319 F15000.0
G1 Z11.9000 F2500.0
G4 P0.02
G1 X50.2216 Y-100.0508 F2200.0
G1 Z0.0000 F2500.0
G4 P0.02
G0 X93.6137 Y-92.0820 F15000.0
G1 Z11.9000 F2500.0
G4 P0.02
G1 X94.2948 Y-91.4009 F2200.0
G1 Z0.0000 F2500.0
G4 P0.02
G0 X127.8014 Y-105.4275 F15000.0
G1 Z11.9000 F2500.0
G4 P0.02
G1 X128.4825 Y-104.7464 F2200.0
G1 Z0.0000 F2500.0
G4 P0.02
G0 X54.7003 Y-135.5263 F15000.0
G1 Z11.9000 F2500.0
G4 P0.02
G1 X54.7003 Y-194.7574 F12000.0
G1 Z0.0000 F2500.0
G4 P0.02
G0 X59.3135 Y-180.2586 F15000.0
G1 Z11.9000 F2500.0
G4 P0.02
G1 X59.3135 Y-117.3203 F12000.0
G1 X54.7003 Y-135.5263 F12000.0
G1 Z0.0000 F2500.0
G4 P0.02
G0 X57.3364 Y-124.9816 F15000.0
G1 Z11.9000 F2500.0
G4 P0.02
G1 X57.3364 Y-186.3547 F12000.0
G1 Z0.0000 F2500.0
G4 P0.02
G0 X54.3185 Y-135.9080 F15000.0
G1 Z11.9000 F2500.0
G4 P0.02
G1 X54.9996 Y-135.2269 F2200.0
G1 Z0.0000 F2500.0
G4 P0.02
G0 X58.9317 Y-117.7021 F15000.0
G1 Z11.9000 F2500.0
G4 P0.02
G1 X59.6128 Y-117.0210 F2200.0
G1 Z0.0000 F2500.0
G4 P0.02
G0 X54.7003 Y-116.1670 F15000.0
G1 Z11.9000 F2500.0
G4 P0.02
G1 X54.7003 Y-135.5263 F12000.0
G1 Z0.0000 F2500.0
G4 P0.02
G0 X54.3185 Y-116.5487 F15000.0
G1 Z11.9000 F2500.0
G4 P0.02
G1 X54.9996 Y-115.8676 F2200.0
G1 Z0.0000 F2500.0
G4 P0.02
G0 X76.5309 Y-104.6339 F15000.0
G1 Z11.9000 F2500.0
G4 P0.02
G1 X76.5309 Y-167.4897 F12000.0
G1 Z0.0000 F2500.0
G4 P0.02
G0 X109.7300 Y-175.7277 F15000.0
G1 Z11.9000 F2500.0
G4 P0.02
G1 X109.7300 Y-123.9108 F12000.0
G1 X76.5309 Y-104.6339 F12000.0
G1 Z0.0000 F2500.0
G4 P0.02
G0 X104.6224 Y-120.9451 F15000.0
G1 Z11.9000 F2500.0
G4 P0.02
G1 X104.6224 Y-174.4096 F12000.0
G1 Z0.0000 F2500.0
G4 P0.02
G0 X76.1492 Y-105.0156 F15000.0
G1 Z11.9000 F2500.0
G4 P0.02
G1 X76.8303 Y-104.3345 F2200.0
G1 Z0.0000 F2500.0
G4 P0.02
G0 X109.3482 Y-124.2925 F15000.0
G1 Z11.9000 F2500.0
G4 P0.02
G1 X110.0293 Y-123.6114 F2200.0
G1 Z0.0000 F2500.0
G4 P0.02
G0 X46.5447 Y-220.2128 F15000.0
G1 Z11.9000 F2500.0
G4 P0.02
G1 X42.3433 Y-233.6407 F2200.0
G1 Z0.0000 F2500.0
G4 P0.02
G0 X141.7758 Y-183.8833 F15000.0
G1 Z11.9000 F2500.0
G4 P0.02
G1 X160.8055 Y-188.7437 F12000.0
G1 Z0.0000 F2500.0
G4 P0.02
G0 X104.6224 Y-174.4096 F15000.0
G1 Z11.9000 F2500.0
G4 P0.02
G1 X57.3364 Y-186.3547 F12000.0
G1 Z0.0000 F2500.0
G4 P0.02
G0 X57.3364 Y-124.9816 F15000.0
G1 Z11.9000 F2500.0
G4 P0.02
G1 X104.6224 Y-120.9451 F12000.0
G1 Z0.0000 F2500.0
G4 P0.02
G0 X79.8261 Y-102.1625 F15000.0
G1 Z11.9000 F2500.0
G4 P0.02
G1 X79.8261 Y-198.5469 F12000.0
G1 Z0.0000 F2500.0
G4 P0.02
G0 X79.5267 Y-198.9287 F15000.0
G1 Z11.9000 F2500.0
G4 P0.02
G1 X80.2078 Y-198.2476 F2200.0
G1 Z0.0000 F2500.0
G4 P0.02
G0 X79.5267 Y-165.3177 F15000.0
G1 Z11.9000 F2500.0
G4 P0.02
G1 X80.2078 Y-164.6366 F2200.0
G1 Z0.0000 F2500.0
G4 P0.02
G0 X0.0000 Y-16.0755 F15000.0
G1 Z11.9000 F2500.0
G4 P0.02
G1 X180.0000 Y-16.0755 F12000.0
G1 Z0.0000 F2500.0
G4 P0.02
G0 X37.9771 Y-248.6339 F15000.0
G1 Z11.9000 F2500.0
G4 P0.02
G1 X37.9771 Y-283.6453 F12000.0
G1 Z0.0000 F2500.0
G4 P0.02
G0 X0.0000 Y-248.6339 F15000.0
G1 Z11.9000 F2500.0
G4 P0.02
G1 X180.0000 Y-248.6339 F12000.0
G1 Z0.0000 F2500.0
G4 P0.02
G0 X61.4554 Y-16.0755 F15000.0
G1 Z11.9000 F2500.0
G4 P0.02
G1 X61.4554 Y-6.3547 F2200.0
G1 Z0.0000 F2500.0
G4 P0.02
G0 X129.1571 Y-149.4779 F15000.0
G1 Z11.9000 F2500.0
G4 P0.02
G1 X129.4667 Y-150.0529 F2200.0
G1 Z0.0000 F2500.0
G4 P0.02
G0 X35.9564 Y-137.2926 F15000.0
G1 Z11.9000 F2500.0
G4 P0.02
G1 X35.6468 Y-136.7177 F2200.0
G1 Z0.0000 F2500.0
G4 P0.02
G0 X47.9598 Y-97.7838 F15000.0
G1 Z11.9000 F2500.0
G4 P0.02
G1 X47.6502 Y-97.2089 F2200.0
G1 Z0.0000 F2500.0
G4 P0.02
G0 X61.1623 Y-118.9156 F15000.0
G1 Z11.9000 F2500.0
G4 P0.02
G1 X61.3834 Y-118.9599 F2200.0
G1 X61.4719 Y-119.1811
G1 X61.4719 Y-118.9599
G1 X62.5333 Y-118.9156
G1 Z0.0000 F2500.0
G4 P0.02
G0 X62.1795 Y-121.5693 F15000.0
G1 Z11.9000 F2500.0
G4 P0.02
G1 X62.5775 Y-121.9230 F2200.0
G1 X63.2409 Y-122.0558
G1 X63.5505 Y-121.7462
G1 X63.4179 Y-121.1712
G1 X63.2852 Y-120.9943
G1 Z0.0000 F2500.0
G4 P0.02
G0 X64.1255 Y-121.3240 F15000.0
G1 Z11.9000 F2500.0
G4 P0.02
G1 X64.5236 Y-122.1201 F2200.0
G1 Z0.0000 F2500.0
G4 P0.02
G0 X113.3095 Y-121.8560 F15000.0
G1 Z11.9000 F2500.0
G4 P0.02
G1 X114.0614 Y-121.9003 F2200.0
G1 X114.5479 Y-122.1656
G1 X114.8574 Y-122.7848
G1 X114.9017 Y-123.3155
G1 X114.8132 Y-123.5366
G1 X114.4152 Y-123.5366
G1 X114.9901 Y-123.8020
G1 X115.2113 Y-124.0674
G1 X115.3439 Y-124.4212
G1 X115.2554 Y-124.8634
G1 X114.4594 Y-124.9961
G1 Z0.0000 F2500.0
G4 P0.02
G0 X116.0950 Y-124.2552 F15000.0
G1 Z11.9000 F2500.0
G4 P0.02
G1 X116.4931 Y-125.0512 F2200.0
G1 Z0.0000 F2500.0
G4 P0.02
G0 X75.6871 Y-110.4437 F15000.0
G1 Z11.9000 F2500.0
G4 P0.02
G1 X75.7313 Y-110.8417 F2200.0
G1 X75.0237 Y-110.9302
G1 X75.4218 Y-111.7705
G1 Z0.0000 F2500.0
G4 P0.02
G0 X75.8640 Y-112.6108 F15000.0
G1 Z11.9000 F2500.0
G4 P0.02
G1 X76.2621 Y-113.3627 F2200.0
G1 Z0.0000 F2500.0
G4 P0.02
G0 X76.0852 Y-111.5936 F15000.0
G1 Z11.9000 F2500.0
G4 P0.02
G1 X75.9083 Y-110.8859 F2200.0
G1 X76.2621 Y-110.8417
G1 Z0.0000 F2500.0
G4 P0.02
G0 X77.4592 Y-112.5272 F15000.0
G1 Z11.9000 F2500.0
G4 P0.02
G1 X77.8573 Y-113.3233 F2200.0
G1 Z0.0000 F2500.0
G4 P0.02
G0 X48.6322 Y-197.3263 F15000.0
G1 Z11.9000 F2500.0
G4 P0.02
G1 X47.4823 Y-197.3263 F2200.0
G1 Z0.0000 F2500.0
G4 P0.02
G0 X47.7460 Y-198.0507 F15000.0
G1 Z11.9000 F2500.0
G4 P0.02
G1 X48.8959 Y-198.0507 F2200.0
G1 Z0.0000 F2500.0
G4 P0.02
G0 X61.4671 Y-181.5911 F15000.0
G1 Z11.9000 F2500.0
G4 P0.02
G1 X61.3787 Y-181.3701 F2200.0
G1 X61.1575 Y-181.3258
G1 X62.5286 Y-181.3258
G1 Z0.0000 F2500.0
G4 P0.02
G0 X62.1747 Y-183.9794 F15000.0
G1 Z11.9000 F2500.0
G4 P0.02
G1 X62.5727 Y-184.3332 F2200.0
G1 X63.2362 Y-184.4659
G1 X63.5457 Y-184.1563
G1 X63.4131 Y-183.5814
G1 X63.2804 Y-183.4045
G1 Z0.0000 F2500.0
G4 P0.02
G0 X110.4744 Y-171.4093 F15000.0
G1 Z11.9000 F2500.0
G4 P0.02
G1 X111.2262 Y-171.4535 F2200.0
G1 X111.7127 Y-171.7189
G1 X112.0223 Y-172.3381
G1 X112.0665 Y-172.8687
G1 X111.9780 Y-173.0899
G1 X111.5800 Y-173.0899
G1 X112.1549 Y-173.3552
G1 X112.3761 Y-173.6207
G1 X112.5088 Y-173.9745
G1 X112.4203 Y-174.4167
G1 X111.6242 Y-174.5494
G1 Z0.0000 F2500.0
G4 P0.02
G0 X58.9407 Y-191.4916 F15000.0
G1 Z11.9000 F2500.0
G4 P0.02
G1 X57.7466 Y-188.3516 F2200.0
G1 Z0.0000 F2500.0
G4 P0.02
G0 X59.4714 Y-190.1648 F15000.0
G1 Z11.9000 F2500.0
G4 P0.02
G1 X59.2503 Y-190.1648 F2200.0
G1 X59.0291 Y-191.0051
G1 Z0.0000 F2500.0
G4 P0.02
G0 X59.8695 Y-188.7938 F15000.0
G1 Z11.9000 F2500.0
G4 P0.02
G1 X59.6926 Y-188.3073 F2200.0
G1 Z0.0000 F2500.0
G4 P0.02
G0 X60.0906 Y-189.4130 F15000.0
G1 Z11.9000 F2500.0
G4 P0.02
G1 X60.5329 Y-190.6513 F2200.0
G1 X60.5770 Y-191.0494
G1 X60.2675 Y-190.8725
G1 Z0.0000 F2500.0
G4 P0.02
G0 X73.8380 Y-162.4776 F15000.0
G1 Z11.9000 F2500.0
G4 P0.02
G1 X73.6611 Y-162.0354 F2200.0
G1 X74.3688 Y-161.9469
G1 X74.3245 Y-161.5489
G1 Z0.0000 F2500.0
G4 P0.02
G0 X73.9708 Y-162.7429 F15000.0
G1 Z11.9000 F2500.0
G4 P0.02
G1 X74.0592 Y-162.8756 F2200.0
G1 Z0.0000 F2500.0
G4 P0.02
G0 X74.5014 Y-163.7159 F15000.0
G1 Z11.9000 F2500.0
G4 P0.02
G1 X74.8995 Y-164.4678 F2200.0
G1 Z0.0000 F2500.0
G4 P0.02
G0 X74.7226 Y-162.6988 F15000.0
G1 Z11.9000 F2500.0
G4 P0.02
G1 X74.5457 Y-161.9911 F2200.0
G1 X74.8995 Y-161.9469
G1 Z0.0000 F2500.0
G4 P0.02
G0 X79.8261 Y-102.1625 F15000.0
G1 Z11.9000 F2500.0
G4 P0.02
G1 X77.2723 Y-97.9611 F2200.0
G1 Z0.0000 F2500.0
G4 P0.02
G0 X79.8261 Y-102.1625
G1 Z11.9000 F2500.0
G4 P0.02
G1 X78.4256 Y-97.4668
G1 X78.0137 Y-98.2082
G1 Z0.0000 F2500.0
G4 P0.02
G0 X78.9199 Y-100.2113 F15000.0
G1 Z11.9000 F2500.0
G4 P0.02
G1 X78.9199 Y-99.3356 F2200.0
G1 Z0.0000 F2500.0
G4 P0.02
G0 X78.6316 Y-99.6239 F15000.0
G1 Z11.9000 F2500.0
G4 P0.02
G1 X78.6316 Y-100.4996 F2200.0
G1 Z0.0000 F2500.0
G4 P0.02
G0 X79.8261 Y-102.1625 F15000.0
G1 Z11.9000 F2500.0
G4 P0.02
G1 X71.8352 Y-84.2860 F12000.0
G1 X59.1487 Y-84.2860 F2200.0
G1 Z0.0000 F2500.0
G4 P0.02
G0 X64.4829 Y-88.8804 F15000.0
G1 Z11.9000 F2500.0
G4 P0.02
G1 X64.8809 Y-89.6765 F2200.0
G1 Z0.0000 F2500.0
G4 P0.02
G0 X64.5554 Y-87.2067 F15000.0
G1 Z11.9000 F2500.0
G4 P0.02
G1 X65.7053 Y-87.2067 F2200.0
G1 Z0.0000 F2500.0
G4 P0.02
G0 X65.9690 Y-87.9311 F15000.0
G1 Z11.9000 F2500.0
G4 P0.02
G1 X64.8191 Y-87.9311 F2200.0
G1 Z0.0000 F2500.0
G4 P0.02
G0 X48.2473 Y-275.0308 F15000.0
G1 Z11.9000 F2500.0
G4 P0.02
G1 X49.7952 Y-275.1636 F2200.0
G1 Z0.0000 F2500.0
G4 P0.02
G0 X49.3972 Y-278.1710 F15000.0
G1 Z11.9000 F2500.0
G4 P0.02
G1 X50.7682 Y-278.1268 F2200.0
G1 X50.9009 Y-277.9941
G1 X50.5471 Y-276.6673
G1 Z0.0000 F2500.0
G4 P0.02
G0 X49.7068 Y-276.6230 F15000.0
G1 Z11.9000 F2500.0
G4 P0.02
G1 X50.4145 Y-276.6230 F2200.0
G1 X50.1933 Y-275.6500
G1 Z0.0000 F2500.0
G4 P0.02
G0 X52.0561 Y-278.0384 F15000.0
G1 Z11.9000 F2500.0
G4 P0.02
G1 X51.0388 Y-275.2520 F2200.0
G1 Z0.0000 F2500.0
G4 P0.02
G0 X52.1445 Y-278.1268 F15000.0
G1 Z11.9000 F2500.0
G4 P0.02
G1 X53.4713 Y-278.1268 F2200.0
G1 X53.6040 Y-277.9941
G1 X52.6752 Y-274.9867
G1 Z0.0000 F2500.0
G4 P0.02
G0 X54.8034 Y-278.2152 F15000.0
G1 Z11.9000 F2500.0
G4 P0.02
G1 X53.7419 Y-275.2520 F2200.0
G1 Z0.0000 F2500.0
G4 P0.02
G0 X54.3611 Y-276.6230 F15000.0
G1 Z11.9000 F2500.0
G4 P0.02
G1 X54.7591 Y-276.6230 F2200.0
G1 X54.7591 Y-276.2693
G1 X54.4938 Y-275.2963
G1 X55.2899 Y-275.0751
G1 X55.5110 Y-275.1194
G1 X55.8206 Y-275.3847
G1 X55.9533 Y-275.6059
G1 X56.7051 Y-277.9498
G1 X56.3513 Y-278.2152
G1 X55.5110 Y-277.9056
G1 X54.9360 Y-276.7558
G1 Z0.0000 F2500.0
G4 P0.02
G0 X58.6210 Y-275.2963 F15000.0
G1 Z11.9000 F2500.0
G4 P0.02
G1 X58.8865 Y-275.7828 F2200.0
G1 X59.5499 Y-277.6403
G1 X59.5056 Y-278.0825
G1 X58.0019 Y-278.1268
G1 X56.9405 Y-275.0308
G1 X56.8078 Y-274.8539
G1 X56.4097 Y-273.7483
G1 Z0.0000 F2500.0
G4 P0.02
G0 X56.9847 Y-275.0308 F15000.0
G1 Z11.9000 F2500.0
G4 P0.02
G1 X58.4442 Y-275.1636 F2200.0
G1 Z0.0000 F2500.0
G4 P0.02
G0 X59.8100 Y-275.2078 F15000.0
G1 Z11.9000 F2500.0
G4 P0.02
G1 X60.1638 Y-276.5346 F2200.0
G1 X60.6061 Y-277.7729
G1 X60.7388 Y-277.9056
G1 X61.9329 Y-278.2152
G1 X62.2867 Y-277.9498
G1 X61.8445 Y-276.6673
G1 X60.2523 Y-276.6230
G1 Z0.0000 F2500.0
G4 P0.02
G0 X59.8985 Y-275.1194 F15000.0
G1 Z11.9000 F2500.0
G4 P0.02
G1 X61.2695 Y-275.0751 F2200.0
G1 Z0.0000 F2500.0
G4 P0.02
G0 X69.3354 Y-275.2086 F15000.0
G1 Z11.9000 F2500.0
G4 P0.02
G1 X70.2642 Y-277.9064 F2200.0
G1 X70.4854 Y-278.0833
G1 X71.9449 Y-278.2160
G1 Z0.0000 F2500.0
G4 P0.02
G0 X70.7949 Y-275.0759 F15000.0
G1 Z11.9000 F2500.0
G4 P0.02
G1 X69.4239 Y-275.1202 F2200.0
G1 Z0.0000 F2500.0
G4 P0.02
G0 X72.5693 Y-277.1103 F15000.0
G1 Z11.9000 F2500.0
G4 P0.02
G1 X72.0386 Y-275.2086 F2200.0
G1 X72.1270 Y-275.1202
G1 X73.4981 Y-275.0759
G1 X74.6921 Y-278.2160
G1 Z0.0000 F2500.0
G4 P0.02
G0 X72.9673 Y-278.2160 F15000.0
G1 Z11.9000 F2500.0
G4 P0.02
G1 X72.7461 Y-277.5968 F2200.0
G1 Z0.0000 F2500.0
G4 P0.02
G0 X75.6704 Y-277.9064 F15000.0
G1 Z11.9000 F2500.0
G4 P0.02
G1 X74.7417 Y-275.2086 F2200.0
G1 X74.8301 Y-275.1202
G1 X76.2011 Y-275.0759
G1 Z0.0000 F2500.0
G4 P0.02
G0 X75.8915 Y-278.0833 F15000.0
G1 Z11.9000 F2500.0
G4 P0.02
G1 X77.3510 Y-278.2160 F2200.0
G1 Z0.0000 F2500.0
G4 P0.02
G0 X78.3147 Y-278.0384 F15000.0
G1 Z11.9000 F2500.0
G4 P0.02
G1 X77.2974 Y-275.2520 F2200.0
G1 Z0.0000 F2500.0
G4 P0.02
G0 X78.4031 Y-278.1268 F15000.0
G1 Z11.9000 F2500.0
G4 P0.02
G1 X80.7913 Y-278.1268 F2200.0
G1 X80.9240 Y-277.9498
G1 X79.9510 Y-274.9867
G1 Z0.0000 F2500.0
G4 P0.02
G0 X79.6857 Y-278.1268 F15000.0
G1 Z11.9000 F2500.0
G4 P0.02
G1 X78.5357 Y-274.9867 F2200.0
G1 Z0.0000 F2500.0
G4 P0.02
G0 X82.2308 Y-277.7729 F15000.0
G1 Z11.9000 F2500.0
G4 P0.02
G1 X81.7885 Y-276.5346 F2200.0
G1 X81.4348 Y-275.2078
G1 X81.5232 Y-275.1194
G1 X82.8942 Y-275.0751
G1 Z0.0000 F2500.0
G4 P0.02
G0 X81.8770 Y-276.6230 F15000.0
G1 Z11.9000 F2500.0
G4 P0.02
G1 X83.4692 Y-276.6673 F2200.0
G1 X83.9114 Y-277.9498
G1 X83.5576 Y-278.2152
G1 X82.3635 Y-277.9056
G1 Z0.0000 F2500.0
G4 P0.02
G0 X84.8311 Y-277.5588 F15000.0
G1 Z11.9000 F2500.0
G4 P0.02
G1 X83.9465 Y-275.1263 F2200.0
G1 Z0.0000 F2500.0
G4 P0.02
G0 X85.0522 Y-277.7799 F15000.0
G1 Z11.9000 F2500.0
G4 P0.02
G1 X85.0965 Y-278.1780 F2200.0
G1 Z0.0000 F2500.0
G4 P0.02
G0 X85.2734 Y-277.3819 F15000.0
G1 Z11.9000 F2500.0
G4 P0.02
G1 X85.4945 Y-276.8069 F2200.0
G1 X85.9810 Y-277.0723
G1 X86.5117 Y-277.5588
G1 X86.7771 Y-277.6472
G1 X86.7329 Y-277.1607
G1 X86.4675 Y-276.4089
G1 Z0.0000 F2500.0
G4 P0.02
G0 X86.1580 Y-275.5243 F15000.0
G1 Z11.9000 F2500.0
G4 P0.02
G1 X85.9810 Y-274.9936 F2200.0
G1 Z0.0000 F2500.0
G4 P0.02
G0 X88.0232 Y-277.7729 F15000.0
G1 Z11.9000 F2500.0
G4 P0.02
G1 X87.5809 Y-276.5346 F2200.0
G1 X87.2271 Y-275.2078
G1 X87.3155 Y-275.1194
G1 X88.6866 Y-275.0751
G1 Z0.0000 F2500.0
G4 P0.02
G0 X87.6693 Y-276.6230 F15000.0
G1 Z11.9000 F2500.0
G4 P0.02
G1 X89.2615 Y-276.6673 F2200.0
G1 X89.7037 Y-277.9498
G1 X89.3499 Y-278.2152
G1 X88.1558 Y-277.9056
G1 Z0.0000 F2500.0
G4 P0.02
G0 X104.7144 Y-275.2520 F15000.0
G1 Z11.9000 F2500.0
G4 P0.02
G1 X105.7317 Y-278.0384 F2200.0
G1 X105.8202 Y-278.1268
G1 X107.1469 Y-278.1268
G1 X107.2796 Y-277.9941
G1 X106.3508 Y-274.9867
G1 Z0.0000 F2500.0
G4 P0.02
G0 X108.1696 Y-276.5007 F15000.0
G1 Z11.9000 F2500.0
G4 P0.02
G1 X107.2851 Y-274.9970 F2200.0
G1 Z0.0000 F2500.0
G4 P0.02
G0 X109.0542 Y-274.9970 F15000.0
G1 Z11.9000 F2500.0
G4 P0.02
G1 X110.1156 Y-278.1371 F2200.0
G1 X109.1869 Y-278.1371
G1 Z0.0000 F2500.0
G4 P0.02
G0 X110.2237 Y-275.5616 F15000.0
G1 Z11.9000 F2500.0
G4 P0.02
G1 X111.3736 Y-275.0751 F2200.0
G1 X111.7275 Y-275.2520
G1 X111.9485 Y-275.5616
G1 X112.7446 Y-277.9498
G1 X112.6562 Y-278.0825
G1 X112.3909 Y-278.2152
G1 X111.1967 Y-277.9056
G1 X111.0640 Y-277.7729
G1 X110.4449 Y-276.1365
G1 Z0.0000 F2500.0
G4 P0.02
G0 X112.9710 Y-275.2086 F15000.0
G1 Z11.9000 F2500.0
G4 P0.02
G1 X113.8998 Y-277.9064 F2200.0
G1 X114.1209 Y-278.0833
G1 X115.5804 Y-278.2160
G1 Z0.0000 F2500.0
G4 P0.02
G0 X114.4305 Y-275.0759 F15000.0
G1 Z11.9000 F2500.0
G4 P0.02
G1 X113.0595 Y-275.1202 F2200.0
G1 Z0.0000 F2500.0
G4 P0.02
G0 X115.9725 Y-276.3814 F15000.0
G1 Z11.9000 F2500.0
G4 P0.02
G1 X115.4860 Y-275.1431 F2200.0
G1 Z0.0000 F2500.0
G4 P0.02
G0 X117.2994 Y-277.3544 F15000.0
G1 Z11.9000 F2500.0
G4 P0.02
G1 X116.6802 Y-276.7353 F2200.0
G1 X116.1052 Y-276.6469
G1 X116.1494 Y-276.9564
G1 X116.5917 Y-278.1948
G1 Z0.0000 F2500.0
G4 P0.02
G0 X116.7245 Y-276.6911 F15000.0
G1 Z11.9000 F2500.0
G4 P0.02
G1 X116.8129 Y-276.2930 F2200.0
G1 Z0.0000 F2500.0
G4 P0.02
G0 X116.9898 Y-275.6739 F15000.0
G1 Z11.9000 F2500.0
G4 P0.02
G1 X117.1224 Y-275.1431 F2200.0
G1 Z0.0000 F2500.0
G4 P0.02
G0 X117.7859 Y-277.7083 F15000.0
G1 Z11.9000 F2500.0
G4 P0.02
G1 X118.4050 Y-278.2833 F2200.0
G1 Z0.0000 F2500.0
G4 P0.02
G0 X118.3330 Y-275.5616 F15000.0
G1 Z11.9000 F2500.0
G4 P0.02
G1 X119.4829 Y-275.0751 F2200.0
G1 X119.8367 Y-275.2520
G1 X120.0578 Y-275.5616
G1 X120.8539 Y-277.9498
G1 X120.7655 Y-278.0825
G1 X120.5001 Y-278.2152
G1 X119.3060 Y-277.9056
G1 X119.1733 Y-277.7729
G1 X118.5541 Y-276.1365
G1 Z0.0000 F2500.0
G4 P0.02
G0 X121.0802 Y-275.2086 F15000.0
G1 Z11.9000 F2500.0
G4 P0.02
G1 X122.0091 Y-277.9064 F2200.0
G1 X122.2302 Y-278.0833
G1 X123.6897 Y-278.2160
G1 Z0.0000 F2500.0
G4 P0.02
G0 X122.5397 Y-275.0759 F15000.0
G1 Z11.9000 F2500.0
G4 P0.02
G1 X121.1688 Y-275.1202 F2200.0
G1 Z0.0000 F2500.0
G4 P0.02
G0 X124.6533 Y-278.0384 F15000.0
G1 Z11.9000 F2500.0
G4 P0.02
G1 X123.6361 Y-275.2520 F2200.0
G1 Z0.0000 F2500.0
G4 P0.02
G0 X124.7417 Y-278.1268 F15000.0
G1 Z11.9000 F2500.0
G4 P0.02
G1 X127.1300 Y-278.1268 F2200.0
G1 X127.2627 Y-277.9498
G1 X126.2897 Y-274.9867
G1 Z0.0000 F2500.0
G4 P0.02
G0 X126.0243 Y-278.1268 F15000.0
G1 Z11.9000 F2500.0
G4 P0.02
G1 X124.8744 Y-274.9867 F2200.0
G1 Z0.0000 F2500.0
G4 P0.02
G0 X128.5695 Y-277.7729 F15000.0
G1 Z11.9000 F2500.0
G4 P0.02
G1 X128.1272 Y-276.5346 F2200.0
G1 X127.7734 Y-275.2078
G1 X127.8618 Y-275.1194
G1 X129.2328 Y-275.0751
G1 Z0.0000 F2500.0
G4 P0.02
G0 X128.2157 Y-276.6230 F15000.0
G1 Z11.9000 F2500.0
G4 P0.02
G1 X129.8078 Y-276.6673 F2200.0
G1 X130.2501 Y-277.9498
G1 X129.8962 Y-278.2152
G1 X128.7022 Y-277.9056
G1 Z0.0000 F2500.0
G4 P0.02
G0 X131.0075 Y-277.1103 F15000.0
G1 Z11.9000 F2500.0
G4 P0.02
G1 X130.4767 Y-275.2086 F2200.0
G1 X130.5652 Y-275.1202
G1 X131.9362 Y-275.0759
G1 X133.1303 Y-278.2160
G1 Z0.0000 F2500.0
G4 P0.02
G0 X131.4055 Y-278.2160 F15000.0
G1 Z11.9000 F2500.0
G4 P0.02
G1 X131.1844 Y-277.5968 F2200.0
G1 Z0.0000 F2500.0
G4 P0.02
G0 X132.4099 Y-279.5617 F15000.0
G1 Z11.9000 F2500.0
G4 P0.02
G1 X133.0733 Y-279.6059 F2200.0
G1 Z0.0000 F2500.0
G4 P0.02
G0 X136.1093 Y-278.0384 F15000.0
G1 Z11.9000 F2500.0
G4 P0.02
G1 X135.0920 Y-275.2520 F2200.0
G1 Z0.0000 F2500.0
G4 P0.02
G0 X136.1977 Y-278.1268 F15000.0
G1 Z11.9000 F2500.0
G4 P0.02
G1 X137.5245 Y-278.1268 F2200.0
G1 X137.6572 Y-277.9941
G1 X136.7285 Y-274.9867
G1 Z0.0000 F2500.0
G4 P0.02
G0 X139.4563 Y-275.2963 F15000.0
G1 Z11.9000 F2500.0
G4 P0.02
G1 X139.7217 Y-275.7828 F2200.0
G1 X140.3851 Y-277.6403
G1 X140.3409 Y-278.0825
G1 X138.8371 Y-278.1268
G1 X137.7757 Y-275.0308
G1 X137.6430 Y-274.8539
G1 X137.2449 Y-273.7483
G1 Z0.0000 F2500.0
G4 P0.02
G0 X137.8199 Y-275.0308 F15000.0
G1 Z11.9000 F2500.0
G4 P0.02
G1 X139.2794 Y-275.1636 F2200.0
G1 Z0.0000 F2500.0
G4 P0.02
G0 X140.6013 Y-275.5616 F15000.0
G1 Z11.9000 F2500.0
G4 P0.02
G1 X141.7511 Y-275.0751 F2200.0
G1 X142.1050 Y-275.2520
G1 X142.3262 Y-275.5616
G1 X143.1222 Y-277.9498
G1 X143.0337 Y-278.0825
G1 X142.7684 Y-278.2152
G1 X141.5743 Y-277.9056
G1 X141.4416 Y-277.7729
G1 X140.8224 Y-276.1365
G1 Z0.0000 F2500.0
G4 P0.02
G0 X143.3483 Y-275.2078 F15000.0
G1 Z11.9000 F2500.0
G4 P0.02
G1 X143.7022 Y-276.5346 F2200.0
G1 X144.1444 Y-277.7729
G1 X144.2771 Y-277.9056
G1 X145.4712 Y-278.2152
G1 X145.8251 Y-277.9498
G1 X145.3827 Y-276.6673
G1 X143.7906 Y-276.6230
G1 Z0.0000 F2500.0
G4 P0.02
G0 X143.4368 Y-275.1194 F15000.0
G1 Z11.9000 F2500.0
G4 P0.02
G1 X144.8078 Y-275.0751 F2200.0
G1 Z0.0000 F2500.0
G4 P0.02
G0 X146.3502 Y-276.3814 F15000.0
G1 Z11.9000 F2500.0
G4 P0.02
G1 X145.8637 Y-275.1431 F2200.0
G1 Z0.0000 F2500.0
G4 P0.02
G0 X147.6770 Y-277.3544 F15000.0
G1 Z11.9000 F2500.0
G4 P0.02
G1 X147.0577 Y-276.7353 F2200.0
G1 X146.4828 Y-276.6469
G1 X146.5271 Y-276.9564
G1 X146.9693 Y-278.1948
G1 Z0.0000 F2500.0
G4 P0.02
G0 X147.1020 Y-276.6911 F15000.0
G1 Z11.9000 F2500.0
G4 P0.02
G1 X147.1905 Y-276.2930 F2200.0
G1 Z0.0000 F2500.0
G4 P0.02
G0 X147.3673 Y-275.6739 F15000.0
G1 Z11.9000 F2500.0
G4 P0.02
G1 X147.5001 Y-275.1431 F2200.0
G1 Z0.0000 F2500.0
G4 P0.02
G0 X148.1634 Y-277.7083 F15000.0
G1 Z11.9000 F2500.0
G4 P0.02
G1 X148.7827 Y-278.2833 F2200.0
G1 Z0.0000 F2500.0
G4 P0.02
G0 X149.2832 Y-277.1103 F15000.0
G1 Z11.9000 F2500.0
G4 P0.02
G1 X148.7082 Y-275.2528 F2200.0
G1 X150.3003 Y-275.0316
G1 X151.3176 Y-277.9506
G1 Z0.0000 F2500.0
G4 P0.02
G0 X149.6812 Y-278.2159 F15000.0
G1 Z11.9000 F2500.0
G4 P0.02
G1 X149.4601 Y-277.5968 F2200.0
G1 Z0.0000 F2500.0
G4 P0.02
G0 X150.5215 Y-274.9873 F15000.0
G1 Z11.9000 F2500.0
G4 P0.02
G1 X150.3446 Y-274.3240 F2200.0
G1 Z0.0000 F2500.0
G4 P0.02
G0 X151.8440 Y-275.2086 F15000.0
G1 Z11.9000 F2500.0
G4 P0.02
G1 X152.7728 Y-278.2160 F2200.0
G1 Z0.0000 F2500.0
G4 P0.02
G0 X151.9325 Y-275.1202 F15000.0
G1 Z11.9000 F2500.0
G4 P0.02
G1 X153.3035 Y-275.0759 F2200.0
G1 X154.4976 Y-278.2160
G1 Z0.0000 F2500.0
G4 P0.02
G0 X155.0778 Y-277.1103 F15000.0
G1 Z11.9000 F2500.0
G4 P0.02
G1 X154.5471 Y-275.2086 F2200.0
G1 X154.6356 Y-275.1202
G1 X156.0066 Y-275.0759
G1 X157.2007 Y-278.2160
G1 Z0.0000 F2500.0
G4 P0.02
G0 X155.4759 Y-278.2160 F15000.0
G1 Z11.9000 F2500.0
G4 P0.02
G1 X155.2547 Y-277.5968 F2200.0
G1 Z0.0000 F2500.0
G4 P0.02
G0 X156.4803 Y-279.5617 F15000.0
G1 Z11.9000 F2500.0
G4 P0.02
G1 X157.1437 Y-279.6059 F2200.0
G1 Z0.0000 F2500.0
G4 P0.02
G0 X41.5012 Y-270.8558 F15000.0
G1 Z11.9000 F2500.0
G4 P0.02
G1 X40.4839 Y-268.0695 F2200.0
G1 Z0.0000 F2500.0
G4 P0.02
G0 X41.5896 Y-270.9443 F15000.0
G1 Z11.9000 F2500.0
G4 P0.02
G1 X42.9164 Y-270.9443 F2200.0
G1 X43.0491 Y-270.8116
G1 X42.1203 Y-267.8041
G1 Z0.0000 F2500.0
G4 P0.02
G0 X43.2901 Y-268.3791 F15000.0
G1 Z11.9000 F2500.0
G4 P0.02
G1 X44.4400 Y-267.8926 F2200.0
G1 X44.7938 Y-268.0695
G1 X45.0149 Y-268.3791
G1 X45.8110 Y-270.7674
G1 X45.7226 Y-270.9000
G1 X45.4572 Y-271.0327
G1 X44.2631 Y-270.7231
G1 X44.1304 Y-270.5905
G1 X43.5112 Y-268.9540
G1 Z0.0000 F2500.0
G4 P0.02
G0 X46.0375 Y-268.0261 F15000.0
G1 Z11.9000 F2500.0
G4 P0.02
G1 X46.9662 Y-270.7239 F2200.0
G1 X47.1873 Y-270.9008
G1 X48.6468 Y-271.0335
G1 Z0.0000 F2500.0
G4 P0.02
G0 X47.4969 Y-267.8934 F15000.0
G1 Z11.9000 F2500.0
G4 P0.02
G1 X46.1259 Y-267.9376 F2200.0
G1 Z0.0000 F2500.0
G4 P0.02
G0 X49.6104 Y-270.8558 F15000.0
G1 Z11.9000 F2500.0
G4 P0.02
G1 X48.5932 Y-268.0695 F2200.0
G1 Z0.0000 F2500.0
G4 P0.02
G0 X49.6988 Y-270.9443 F15000.0
G1 Z11.9000 F2500.0
G4 P0.02
G1 X52.0871 Y-270.9443 F2200.0
G1 X52.2198 Y-270.7674
G1 X51.2468 Y-267.8041
G1 Z0.0000 F2500.0
G4 P0.02
G0 X50.9814 Y-270.9443 F15000.0
G1 Z11.9000 F2500.0
G4 P0.02
G1 X49.8315 Y-267.8041 F2200.0
G1 Z0.0000 F2500.0
G4 P0.02
G0 X54.2446 Y-268.1137 F15000.0
G1 Z11.9000 F2500.0
G4 P0.02
G1 X54.5101 Y-268.6002 F2200.0
G1 X55.1734 Y-270.4578
G1 X55.1292 Y-270.9000
G1 X53.6255 Y-270.9443
G1 X52.0333 Y-266.5658
G1 Z0.0000 F2500.0
G4 P0.02
G0 X52.4755 Y-267.7600 F15000.0
G1 Z11.9000 F2500.0
G4 P0.02
G1 X52.5641 Y-267.8484 F2200.0
G1 X54.0677 Y-267.9810
G1 Z0.0000 F2500.0
G4 P0.02
G0 X55.3896 Y-268.3791 F15000.0
G1 Z11.9000 F2500.0
G4 P0.02
G1 X56.5395 Y-267.8926 F2200.0
G1 X56.8933 Y-268.0695
G1 X57.1145 Y-268.3791
G1 X57.9106 Y-270.7674
G1 X57.8221 Y-270.9000
G1 X57.5568 Y-271.0327
G1 X56.3626 Y-270.7231
G1 X56.2299 Y-270.5905
G1 X55.6108 Y-268.9540
G1 Z0.0000 F2500.0
G4 P0.02
G0 X58.1370 Y-268.0261 F15000.0
G1 Z11.9000 F2500.0
G4 P0.02
G1 X59.0657 Y-271.0335 F2200.0
G1 Z0.0000 F2500.0
G4 P0.02
G0 X58.2254 Y-267.9376 F15000.0
G1 Z11.9000 F2500.0
G4 P0.02
G1 X59.5965 Y-267.8934 F2200.0
G1 X60.7905 Y-271.0335
G1 Z0.0000 F2500.0
G4 P0.02
G0 X61.7100 Y-270.8558 F15000.0
G1 Z11.9000 F2500.0
G4 P0.02
G1 X60.6927 Y-268.0695 F2200.0
G1 Z0.0000 F2500.0
G4 P0.02
G0 X61.7984 Y-270.9443 F15000.0
G1 Z11.9000 F2500.0
G4 P0.02
G1 X64.1866 Y-270.9443 F2200.0
G1 X64.3194 Y-270.7674
G1 X63.3464 Y-267.8041
G1 Z0.0000 F2500.0
G4 P0.02
G0 X63.0809 Y-270.9443 F15000.0
G1 Z11.9000 F2500.0
G4 P0.02
G1 X61.9311 Y-267.8041 F2200.0
G1 Z0.0000 F2500.0
G4 P0.02
G0 X65.7444 Y-271.0335 F15000.0
G1 Z11.9000 F2500.0
G4 P0.02
G1 X64.6388 Y-267.8934 F2200.0
G1 X66.2752 Y-268.0704
G1 X66.4963 Y-268.2914
G1 X66.7174 Y-269.2202
G1 X65.3022 Y-269.4856
G1 Z0.0000 F2500.0
G4 P0.02
G0 X69.3131 Y-267.8146 F15000.0
G1 Z11.9000 F2500.0
G4 P0.02
G1 X70.1977 Y-269.3182 F2200.0
G1 Z0.0000 F2500.0
G4 P0.02
G0 X71.0822 Y-267.8146 F15000.0
G1 Z11.9000 F2500.0
G4 P0.02
G1 X72.1437 Y-270.9546 F2200.0
G1 X71.2149 Y-270.9546
G1 Z0.0000 F2500.0
G4 P0.02
G0 X72.8267 Y-269.9278 F15000.0
G1 Z11.9000 F2500.0
G4 P0.02
G1 X72.2959 Y-268.0261 F2200.0
G1 X72.3844 Y-267.9376
G1 X73.7554 Y-267.8934
G1 X74.9496 Y-271.0335
G1 Z0.0000 F2500.0
G4 P0.02
G0 X73.2248 Y-271.0335 F15000.0
G1 Z11.9000 F2500.0
G4 P0.02
G1 X73.0036 Y-270.4143 F2200.0
G1 Z0.0000 F2500.0
G4 P0.02
G0 X75.9132 Y-271.0335 F15000.0
G1 Z11.9000 F2500.0
G4 P0.02
G1 X74.8518 Y-268.0704 F2200.0
G1 Z0.0000 F2500.0
G4 P0.02
G0 X75.4709 Y-269.4413 F15000.0
G1 Z11.9000 F2500.0
G4 P0.02
G1 X76.9304 Y-269.4413 F2200.0
G1 X76.9304 Y-269.0875
G1 X77.6381 Y-271.0335
G1 Z0.0000 F2500.0
G4 P0.02
G0 X76.5323 Y-267.9818 F15000.0
G1 Z11.9000 F2500.0
G4 P0.02
G1 X76.4882 Y-267.8049 F2200.0
G1 Z0.0000 F2500.0
G4 P0.02
G0 X78.2328 Y-269.9278 F15000.0
G1 Z11.9000 F2500.0
G4 P0.02
G1 X77.7022 Y-268.0261 F2200.0
G1 X77.7906 Y-267.9376
G1 X79.1617 Y-267.8934
G1 X80.3558 Y-271.0335
G1 Z0.0000 F2500.0
G4 P0.02
G0 X78.6309 Y-271.0335 F15000.0
G1 Z11.9000 F2500.0
G4 P0.02
G1 X78.4098 Y-270.4143 F2200.0
G1 Z0.0000 F2500.0
G4 P0.02
G0 X81.3194 Y-271.0327 F15000.0
G1 Z11.9000 F2500.0
G4 P0.02
G1 X80.2579 Y-268.0695 F2200.0
G1 Z0.0000 F2500.0
G4 P0.02
G0 X80.8771 Y-269.4405 F15000.0
G1 Z11.9000 F2500.0
G4 P0.02
G1 X81.2752 Y-269.4405 F2200.0
G1 X81.2752 Y-269.0867
G1 X81.0098 Y-268.1137
G1 X81.8059 Y-267.8926
G1 X82.0270 Y-267.9369
G1 X82.3366 Y-268.2022
G1 X82.4692 Y-268.4234
G1 X83.2212 Y-270.7674
G1 X82.8673 Y-271.0327
G1 X82.0270 Y-270.7231
G1 X81.4521 Y-269.5732
G1 Z0.0000 F2500.0
G4 P0.02
G0 X85.5354 Y-268.0695 F15000.0
G1 Z11.9000 F2500.0
G4 P0.02
G1 X86.5526 Y-270.8558 F2200.0
G1 X86.6410 Y-270.9443
G1 X87.9679 Y-270.9443
G1 X88.1005 Y-270.8116
G1 X87.1718 Y-267.8041
G1 Z0.0000 F2500.0
G4 P0.02
G0 X89.1816 Y-270.5905 F15000.0
G1 Z11.9000 F2500.0
G4 P0.02
G1 X88.7393 Y-269.3521 F2200.0
G1 X88.3855 Y-268.0253
G1 X88.4740 Y-267.9369
G1 X89.8450 Y-267.8926
G1 Z0.0000 F2500.0
G4 P0.02
G0 X88.8278 Y-269.4405 F15000.0
G1 Z11.9000 F2500.0
G4 P0.02
G1 X90.4199 Y-269.4848 F2200.0
G1 X90.8623 Y-270.7674
G1 X90.5084 Y-271.0327
G1 X89.3143 Y-270.7231
G1 Z0.0000 F2500.0
G4 P0.02
G0 X92.6028 Y-268.1137 F15000.0
G1 Z11.9000 F2500.0
G4 P0.02
G1 X92.8682 Y-268.6002 F2200.0
G1 X93.5316 Y-270.4578
G1 X93.4873 Y-270.9000
G1 X91.9836 Y-270.9443
G1 X90.3914 Y-266.5658
G1 Z0.0000 F2500.0
G4 P0.02
G0 X90.8338 Y-267.7600 F15000.0
G1 Z11.9000 F2500.0
G4 P0.02
G1 X90.9222 Y-267.8484 F2200.0
G1 X92.4259 Y-267.9810
G1 Z0.0000 F2500.0
G4 P0.02
G0 X93.7917 Y-268.0253 F15000.0
G1 Z11.9000 F2500.0
G4 P0.02
G1 X94.1455 Y-269.3521 F2200.0
G1 X94.5877 Y-270.5905
G1 X94.7205 Y-270.7231
G1 X95.9146 Y-271.0327
G1 X96.2684 Y-270.7674
G1 X95.8262 Y-269.4848
G1 X94.2340 Y-269.4405
G1 Z0.0000 F2500.0
G4 P0.02
G0 X93.8802 Y-267.9369 F15000.0
G1 Z11.9000 F2500.0
G4 P0.02
G1 X95.2512 Y-267.8926 F2200.0
G1 Z0.0000 F2500.0
G4 P0.02
G0 X97.4238 Y-270.7239 F15000.0
G1 Z11.9000 F2500.0
G4 P0.02
G1 X96.4951 Y-268.0261 F2200.0
G1 X96.5835 Y-267.9376
G1 X97.9546 Y-267.8934
G1 Z0.0000 F2500.0
G4 P0.02
G0 X97.6450 Y-270.9008 F15000.0
G1 Z11.9000 F2500.0
G4 P0.02
G1 X99.1045 Y-271.0335 F2200.0
G1 Z0.0000 F2500.0
G4 P0.02
G0 X99.9940 Y-270.5905 F15000.0
G1 Z11.9000 F2500.0
G4 P0.02
G1 X99.5517 Y-269.3521 F2200.0
G1 X99.1979 Y-268.0253
G1 X99.2863 Y-267.9369
G1 X100.6574 Y-267.8926
G1 Z0.0000 F2500.0
G4 P0.02
G0 X99.6402 Y-269.4405 F15000.0
G1 Z11.9000 F2500.0
G4 P0.02
G1 X101.2323 Y-269.4848 F2200.0
G1 X101.6746 Y-270.7674
G1 X101.3207 Y-271.0327
G1 X100.1267 Y-270.7231
G1 Z0.0000 F2500.0
G4 P0.02
G0 X102.4704 Y-269.5740 F15000.0
G1 Z11.9000 F2500.0
G4 P0.02
G1 X102.8242 Y-271.0335 F2200.0
G1 Z0.0000 F2500.0
G4 P0.02
G0 X102.5589 Y-269.4856 F15000.0
G1 Z11.9000 F2500.0
G4 P0.02
G1 X103.8415 Y-269.4413 F2200.0
G1 X103.8415 Y-269.0875
G1 X104.5490 Y-271.0335
G1 Z0.0000 F2500.0
G4 P0.02
G0 X103.4434 Y-267.9818 F15000.0
G1 Z11.9000 F2500.0
G4 P0.02
G1 X103.3992 Y-267.8049 F2200.0
G1 Z0.0000 F2500.0
G4 P0.02
G0 X105.4001 Y-270.5905 F15000.0
G1 Z11.9000 F2500.0
G4 P0.02
G1 X104.9579 Y-269.3521 F2200.0
G1 X104.6041 Y-268.0253
G1 X104.6926 Y-267.9369
G1 X106.0636 Y-267.8926
G1 Z0.0000 F2500.0
G4 P0.02
G0 X105.0463 Y-269.4405 F15000.0
G1 Z11.9000 F2500.0
G4 P0.02
G1 X106.6385 Y-269.4848 F2200.0
G1 X107.0808 Y-270.7674
G1 X106.7270 Y-271.0327
G1 X105.5328 Y-270.7231
G1 Z0.0000 F2500.0
G4 P0.02
G0 X108.2216 Y-271.0335 F15000.0
G1 Z11.9000 F2500.0
G4 P0.02
G1 X107.1602 Y-268.0704 F2200.0
G1 Z0.0000 F2500.0
G4 P0.02
G0 X107.7793 Y-269.4413 F15000.0
G1 Z11.9000 F2500.0
G4 P0.02
G1 X109.2388 Y-269.4413 F2200.0
G1 X109.2388 Y-269.0875
G1 X109.9464 Y-271.0335
G1 Z0.0000 F2500.0
G4 P0.02
G0 X108.8407 Y-267.9818 F15000.0
G1 Z11.9000 F2500.0
G4 P0.02
G1 X108.7965 Y-267.8049 F2200.0
G1 Z0.0000 F2500.0
G4 P0.02
G0 X110.5412 Y-269.9278 F15000.0
G1 Z11.9000 F2500.0
G4 P0.02
G1 X110.0105 Y-268.0261 F2200.0
G1 X110.0990 Y-267.9376
G1 X111.4700 Y-267.8934
G1 X112.6641 Y-271.0335
G1 Z0.0000 F2500.0
G4 P0.02
G0 X110.9392 Y-271.0335 F15000.0
G1 Z11.9000 F2500.0
G4 P0.02
G1 X110.7181 Y-270.4143 F2200.0
G1 Z0.0000 F2500.0
G4 P0.02
G0 X113.0073 Y-268.4683 F15000.0
G1 Z11.9000 F2500.0
G4 P0.02
G1 X113.4054 Y-268.9106 F2200.0
G1 X113.6707 Y-269.3529
G1 Z0.0000 F2500.0
G4 P0.02
G0 X113.2285 Y-269.6183 F15000.0
G1 Z11.9000 F2500.0
G4 P0.02
G1 X113.4938 Y-270.5913 F2200.0
G1 X113.8919 Y-270.9451
G1 X115.2629 Y-270.9893
G1 X115.0418 Y-270.1048
G1 X114.6437 Y-269.0875
G1 X114.6437 Y-269.4413
G1 X113.6707 Y-269.3971
G1 X113.3612 Y-269.4856
G1 Z0.0000 F2500.0
G4 P0.02
G0 X114.2458 Y-267.9818 F15000.0
G1 Z11.9000 F2500.0
G4 P0.02
G1 X114.2015 Y-267.8049 F2200.0
G1 Z0.0000 F2500.0
G4 P0.02
G0 X117.3289 Y-268.0695 F15000.0
G1 Z11.9000 F2500.0
G4 P0.02
G1 X118.3460 Y-270.8558 F2200.0
G1 X118.4346 Y-270.9443
G1 X119.7614 Y-270.9443
G1 X119.8941 Y-270.8116
G1 X118.9653 Y-267.8041
G1 Z0.0000 F2500.0
G4 P0.02
G0 X120.7841 Y-269.3182 F15000.0
G1 Z11.9000 F2500.0
G4 P0.02
G1 X119.8995 Y-267.8146 F2200.0
G1 Z0.0000 F2500.0
G4 P0.02
G0 X121.6686 Y-267.8146 F15000.0
G1 Z11.9000 F2500.0
G4 P0.02
G1 X122.7301 Y-270.9546 F2200.0
G1 X121.8012 Y-270.9546
G1 Z0.0000 F2500.0
G4 P0.02
G0 X122.8381 Y-268.3791 F15000.0
G1 Z11.9000 F2500.0
G4 P0.02
G1 X123.9880 Y-267.8926 F2200.0
G1 X124.3418 Y-268.0695
G1 X124.5630 Y-268.3791
G1 X125.3591 Y-270.7674
G1 X125.2706 Y-270.9000
G1 X125.0053 Y-271.0327
G1 X123.8111 Y-270.7231
G1 X123.6784 Y-270.5905
G1 X123.0593 Y-268.9540
G1 Z0.0000 F2500.0
G4 P0.02
G0 X125.5855 Y-268.0261 F15000.0
G1 Z11.9000 F2500.0
G4 P0.02
G1 X126.5142 Y-270.7239 F2200.0
G1 X126.7354 Y-270.9008
G1 X128.1949 Y-271.0335
G1 Z0.0000 F2500.0
G4 P0.02
G0 X127.0450 Y-267.8934 F15000.0
G1 Z11.9000 F2500.0
G4 P0.02
G1 X125.6739 Y-267.9376 F2200.0
G1 Z0.0000 F2500.0
G4 P0.02
G0 X128.5870 Y-269.1990 F15000.0
G1 Z11.9000 F2500.0
G4 P0.02
G1 X128.1005 Y-267.9606 F2200.0
G1 Z0.0000 F2500.0
G4 P0.02
G0 X129.9137 Y-270.1720 F15000.0
G1 Z11.9000 F2500.0
G4 P0.02
G1 X129.2946 Y-269.5528 F2200.0
G1 X128.7197 Y-269.4644
G1 X128.7639 Y-269.7740
G1 X129.2062 Y-271.0123
G1 Z0.0000 F2500.0
G4 P0.02
G0 X129.3388 Y-269.5085 F15000.0
G1 Z11.9000 F2500.0
G4 P0.02
G1 X129.4272 Y-269.1105 F2200.0
G1 Z0.0000 F2500.0
G4 P0.02
G0 X129.6042 Y-268.4914 F15000.0
G1 Z11.9000 F2500.0
G4 P0.02
G1 X129.7368 Y-267.9606 F2200.0
G1 Z0.0000 F2500.0
G4 P0.02
G0 X130.4002 Y-270.5258 F15000.0
G1 Z11.9000 F2500.0
G4 P0.02
G1 X131.0194 Y-271.1007 F2200.0
G1 Z0.0000 F2500.0
G4 P0.02
G0 X130.9474 Y-268.3791 F15000.0
G1 Z11.9000 F2500.0
G4 P0.02
G1 X132.0973 Y-267.8926 F2200.0
G1 X132.4511 Y-268.0695
G1 X132.6723 Y-268.3791
G1 X133.4684 Y-270.7674
G1 X133.3799 Y-270.9000
G1 X133.1145 Y-271.0327
G1 X131.9204 Y-270.7231
G1 X131.7877 Y-270.5905
G1 X131.1685 Y-268.9540
G1 Z0.0000 F2500.0
G4 P0.02
G0 X133.6947 Y-268.0261 F15000.0
G1 Z11.9000 F2500.0
G4 P0.02
G1 X134.6235 Y-270.7239 F2200.0
G1 X134.8446 Y-270.9008
G1 X136.3041 Y-271.0335
G1 Z0.0000 F2500.0
G4 P0.02
G0 X135.1542 Y-267.8934 F15000.0
G1 Z11.9000 F2500.0
G4 P0.02
G1 X133.7831 Y-267.9376 F2200.0
G1 Z0.0000 F2500.0
G4 P0.02
G0 X137.2677 Y-270.8558 F15000.0
G1 Z11.9000 F2500.0
G4 P0.02
G1 X136.2505 Y-268.0695 F2200.0
G1 Z0.0000 F2500.0
G4 P0.02
G0 X137.3561 Y-270.9443 F15000.0
G1 Z11.9000 F2500.0
G4 P0.02
G1 X139.7444 Y-270.9443 F2200.0
G1 X139.8771 Y-270.7674
G1 X138.9041 Y-267.8041
G1 Z0.0000 F2500.0
G4 P0.02
G0 X138.6387 Y-270.9443 F15000.0
G1 Z11.9000 F2500.0
G4 P0.02
G1 X137.4889 Y-267.8041 F2200.0
G1 Z0.0000 F2500.0
G4 P0.02
G0 X141.1839 Y-270.5905 F15000.0
G1 Z11.9000 F2500.0
G4 P0.02
G1 X140.7416 Y-269.3521 F2200.0
G1 X140.3878 Y-268.0253
G1 X140.4762 Y-267.9369
G1 X141.8473 Y-267.8926
G1 Z0.0000 F2500.0
G4 P0.02
G0 X140.8301 Y-269.4405 F15000.0
G1 Z11.9000 F2500.0
G4 P0.02
G1 X142.4222 Y-269.4848 F2200.0
G1 X142.8645 Y-270.7674
G1 X142.5107 Y-271.0327
G1 X141.3166 Y-270.7231
G1 Z0.0000 F2500.0
G4 P0.02
G0 X143.6219 Y-269.9278 F15000.0
G1 Z11.9000 F2500.0
G4 P0.02
G1 X143.0911 Y-268.0261 F2200.0
G1 X143.1796 Y-267.9376
G1 X144.5506 Y-267.8934
G1 X145.7448 Y-271.0335
G1 Z0.0000 F2500.0
G4 P0.02
G0 X144.0200 Y-271.0335 F15000.0
G1 Z11.9000 F2500.0
G4 P0.02
G1 X143.7988 Y-270.4143 F2200.0
G1 Z0.0000 F2500.0
G4 P0.02
G0 X145.0244 Y-272.3791 F15000.0
G1 Z11.9000 F2500.0
G4 P0.02
G1 X145.6878 Y-272.4234 F2200.0
G1 Z0.0000 F2500.0
G4 P0.02
G0 X145.5555 Y-267.8368 F15000.0
G1 Z11.9000 F2500.0
G4 P0.02
G1 X145.1575 Y-267.2176 F2200.0
G1 Z0.0000 F2500.0
G4 P0.02
G0 X148.8161 Y-268.2022 F15000.0
G1 Z11.9000 F2500.0
G4 P0.02
G1 X148.8604 Y-268.0253 F2200.0
G1 X149.9660 Y-267.9810
G1 X150.2314 Y-268.1580
G1 X150.5852 Y-269.2195
G1 X150.4525 Y-269.4405
G1 X149.8776 Y-269.4405
G1 Z0.0000 F2500.0
G4 P0.02
G0 X149.7449 Y-270.6347 F15000.0
G1 Z11.9000 F2500.0
G4 P0.02
G1 X150.9390 Y-270.9885 F2200.0
G1 X151.1159 Y-270.7674
G1 X151.1159 Y-270.4135
G1 X150.9390 Y-269.9270
G1 X150.5852 Y-269.5290
G1 Z0.0000 F2500.0
G4 P0.02
G0 X152.3484 Y-270.7239 F15000.0
G1 Z11.9000 F2500.0
G4 P0.02
G1 X153.9849 Y-270.9450 F2200.0
G1 X153.0560 Y-268.0703
G1 X152.5254 Y-267.8934
G1 X151.3754 Y-268.3799
G1 Z0.0000 F2500.0
G4 P0.02
G0 X151.5965 Y-268.9548 F15000.0
G1 Z11.9000 F2500.0
G4 P0.02
G1 X152.2158 Y-270.5912 F2200.0
G1 Z0.0000 F2500.0
G4 P0.02
G0 X154.1176 Y-268.3980 F15000.0
G1 Z11.9000 F2500.0
G4 P0.02
G1 X155.2232 Y-267.8673 F2200.0
G1 X155.4885 Y-267.9557
G1 Z0.0000 F2500.0
G4 P0.02
G0 X154.3386 Y-268.9729 F15000.0
G1 Z11.9000 F2500.0
G4 P0.02
G1 X154.9578 Y-270.6093 F2200.0
G1 X155.2232 Y-270.8304
G1 X156.6827 Y-271.0516
G1 X157.0807 Y-272.2015
G1 X156.9480 Y-272.3342
G1 X155.5771 Y-272.3784
G1 Z0.0000 F2500.0
G4 P0.02
G0 X156.7269 Y-271.0073 F15000.0
G1 Z11.9000 F2500.0
G4 P0.02
G1 X155.8424 Y-268.3980 F2200.0
G1 Z0.0000 F2500.0
G4 P0.02
G0 X156.7816 Y-268.3799 F15000.0
G1 Z11.9000 F2500.0
G4 P0.02
G1 X157.9315 Y-267.8934 F2200.0
G1 X158.4623 Y-268.0703
G1 X159.3910 Y-270.9450
G1 X157.7546 Y-270.7239
G1 X157.6219 Y-270.5912
G1 X157.0028 Y-268.9548
G1 Z0.0000 F2500.0
G4 P0.02
G0 X159.4199 Y-268.0704 F15000.0
G1 Z11.9000 F2500.0
G4 P0.02
G1 X160.4813 Y-271.0335 F2200.0
G1 Z0.0000 F2500.0
G4 P0.02
G0 X160.0390 Y-269.4413 F15000.0
G1 Z11.9000 F2500.0
G4 P0.02
G1 X161.4985 Y-269.4413 F2200.0
G1 X161.4985 Y-269.0875
G1 X162.2061 Y-271.0335
G1 Z0.0000 F2500.0
G4 P0.02
G0 X161.1004 Y-267.9818 F15000.0
G1 Z11.9000 F2500.0
G4 P0.02
G1 X161.0563 Y-267.8049 F2200.0
G1 Z0.0000 F2500.0
G4 P0.02
G0 X163.1844 Y-271.0335 F15000.0
G1 Z11.9000 F2500.0
G4 P0.02
G1 X162.1229 Y-268.0704 F2200.0
G1 Z0.0000 F2500.0
G4 P0.02
G0 X162.7421 Y-269.4413 F15000.0
G1 Z11.9000 F2500.0
G4 P0.02
G1 X164.2015 Y-269.4413 F2200.0
G1 X164.2015 Y-269.0875
G1 X164.9092 Y-271.0335
G1 Z0.0000 F2500.0
G4 P0.02
G0 X163.8036 Y-267.9818 F15000.0
G1 Z11.9000 F2500.0
G4 P0.02
G1 X163.7593 Y-267.8049 F2200.0
G1 Z0.0000 F2500.0
G4 P0.02
G0 X165.8874 Y-271.0335 F15000.0
G1 Z11.9000 F2500.0
G4 P0.02
G1 X164.7817 Y-267.8934 F2200.0
G1 X166.0643 Y-268.0704
G1 X166.2855 Y-268.2914
G1 X166.5508 Y-269.1760
G1 X165.4452 Y-269.4856
G1 Z0.0000 F2500.0
G4 P0.02
G0 X166.8163 Y-267.8049 F15000.0
G1 Z11.9000 F2500.0
G4 P0.02
G1 X167.9661 Y-271.0335 F2200.0
G1 Z0.0000 F2500.0
G4 P0.02
G0 X169.7274 Y-269.9114 F15000.0
G1 Z11.9000 F2500.0
G4 P0.02
G1 X169.5505 Y-269.7345 F2200.0
G1 X169.2409 Y-269.6018
G1 X169.2409 Y-269.2038
G1 X168.7544 Y-268.8500
G1 X167.7814 Y-267.8327
G1 Z0.0000 F2500.0
G4 P0.02
G0 X169.2409 Y-269.6903 F15000.0
G1 Z11.9000 F2500.0
G4 P0.02
G1 X168.9755 Y-270.9729 F2200.0
G1 Z0.0000 F2500.0
G4 P0.02
G0 X169.3293 Y-269.1153 F15000.0
G1 Z11.9000 F2500.0
G4 P0.02
G1 X169.5505 Y-267.9212 F2200.0
G1 X169.5062 Y-267.8770
G1 Z0.0000 F2500.0
G4 P0.02
G0 X170.0370 Y-270.2652 F15000.0
G1 Z11.9000 F2500.0
G4 P0.02
G1 X170.1254 Y-270.3537 F2200.0
G1 Z0.0000 F2500.0
G4 P0.02
G0 X41.5012 Y-263.6733 F15000.0
G1 Z11.9000 F2500.0
G4 P0.02
G1 X40.4839 Y-260.8871 F2200.0
G1 Z0.0000 F2500.0
G4 P0.02
G0 X41.5896 Y-263.7618 F15000.0
G1 Z11.9000 F2500.0
G4 P0.02
G1 X42.9164 Y-263.7618 F2200.0
G1 X43.0491 Y-263.6291
G1 X42.1203 Y-260.6216
G1 Z0.0000 F2500.0
G4 P0.02
G0 X43.9391 Y-262.1357 F15000.0
G1 Z11.9000 F2500.0
G4 P0.02
G1 X43.0546 Y-260.6320 F2200.0
G1 Z0.0000 F2500.0
G4 P0.02
G0 X44.8236 Y-260.6320 F15000.0
G1 Z11.9000 F2500.0
G4 P0.02
G1 X45.8851 Y-263.7722 F2200.0
G1 X44.9564 Y-263.7722
G1 Z0.0000 F2500.0
G4 P0.02
G0 X45.9932 Y-261.1967 F15000.0
G1 Z11.9000 F2500.0
G4 P0.02
G1 X47.1431 Y-260.7102 F2200.0
G1 X47.4969 Y-260.8871
G1 X47.7180 Y-261.1967
G1 X48.5141 Y-263.5849
G1 X48.4257 Y-263.7176
G1 X48.1603 Y-263.8502
G1 X46.9662 Y-263.5406
G1 X46.8335 Y-263.4080
G1 X46.2143 Y-261.7716
G1 Z0.0000 F2500.0
G4 P0.02
G0 X48.7405 Y-260.8436 F15000.0
G1 Z11.9000 F2500.0
G4 P0.02
G1 X49.6692 Y-263.5415 F2200.0
G1 X49.8904 Y-263.7184
G1 X51.3499 Y-263.8510
G1 Z0.0000 F2500.0
G4 P0.02
G0 X50.2000 Y-260.7109 F15000.0
G1 Z11.9000 F2500.0
G4 P0.02
G1 X48.8290 Y-260.7551 F2200.0
G1 Z0.0000 F2500.0
G4 P0.02
G0 X51.7420 Y-262.0165 F15000.0
G1 Z11.9000 F2500.0
G4 P0.02
G1 X51.2555 Y-260.7782 F2200.0
G1 Z0.0000 F2500.0
G4 P0.02
G0 X53.0689 Y-262.9895 F15000.0
G1 Z11.9000 F2500.0
G4 P0.02
G1 X52.4497 Y-262.3703 F2200.0
G1 X51.8747 Y-262.2818
G1 X51.9189 Y-262.5914
G1 X52.3612 Y-263.8298
G1 Z0.0000 F2500.0
G4 P0.02
G0 X52.4939 Y-262.3261 F15000.0
G1 Z11.9000 F2500.0
G4 P0.02
G1 X52.5824 Y-261.9281 F2200.0
G1 Z0.0000 F2500.0
G4 P0.02
G0 X52.7593 Y-261.3088 F15000.0
G1 Z11.9000 F2500.0
G4 P0.02
G1 X52.8919 Y-260.7782 F2200.0
G1 Z0.0000 F2500.0
G4 P0.02
G0 X53.5554 Y-263.3433 F15000.0
G1 Z11.9000 F2500.0
G4 P0.02
G1 X54.1745 Y-263.9182 F2200.0
G1 Z0.0000 F2500.0
G4 P0.02
G0 X54.6774 Y-262.7454 F15000.0
G1 Z11.9000 F2500.0
G4 P0.02
G1 X54.1466 Y-260.8436 F2200.0
G1 X54.2351 Y-260.7551
G1 X55.6061 Y-260.7109
G1 X56.8003 Y-263.8510
G1 Z0.0000 F2500.0
G4 P0.02
G0 X55.0755 Y-263.8510 F15000.0
G1 Z11.9000 F2500.0
G4 P0.02
G1 X54.8543 Y-263.2319 F2200.0
G1 Z0.0000 F2500.0
G4 P0.02
G0 X57.5428 Y-263.1938 F15000.0
G1 Z11.9000 F2500.0
G4 P0.02
G1 X56.6582 Y-260.7613 F2200.0
G1 Z0.0000 F2500.0
G4 P0.02
G0 X57.7639 Y-263.4149 F15000.0
G1 Z11.9000 F2500.0
G4 P0.02
G1 X57.8081 Y-263.8129 F2200.0
G1 Z0.0000 F2500.0
G4 P0.02
G0 X57.9851 Y-263.0168 F15000.0
G1 Z11.9000 F2500.0
G4 P0.02
G1 X58.2062 Y-262.4419 F2200.0
G1 X58.6927 Y-262.7073
G1 X59.2234 Y-263.1938
G1 X59.4888 Y-263.2823
G1 X59.4446 Y-262.7958
G1 X59.1792 Y-262.0438
G1 Z0.0000 F2500.0
G4 P0.02
G0 X58.8695 Y-261.1593 F15000.0
G1 Z11.9000 F2500.0
G4 P0.02
G1 X58.6927 Y-260.6286 F2200.0
G1 Z0.0000 F2500.0
G4 P0.02
G0 X60.4697 Y-262.7454 F15000.0
G1 Z11.9000 F2500.0
G4 P0.02
G1 X59.9390 Y-260.8436 F2200.0
G1 X60.0275 Y-260.7551
G1 X61.3984 Y-260.7109
G1 X62.5926 Y-263.8510
G1 Z0.0000 F2500.0
G4 P0.02
G0 X60.8678 Y-263.8510 F15000.0
G1 Z11.9000 F2500.0
G4 P0.02
G1 X60.6466 Y-263.2319 F2200.0
G1 Z0.0000 F2500.0
G4 P0.02
G0 X64.7169 Y-261.0971 F15000.0
G1 Z11.9000 F2500.0
G4 P0.02
G1 X64.7169 Y-261.4067 F2200.0
G1 X65.4245 Y-263.2200
G1 X65.9553 Y-263.6623
G1 X66.8840 Y-263.8392
G1 X67.8128 Y-263.7508
G1 X68.1224 Y-263.3970
G1 X67.5916 Y-261.6721
G1 X67.2820 Y-261.0971
G1 Z0.0000 F2500.0
G4 P0.02
G0 X64.8054 Y-260.9202 F15000.0
G1 Z11.9000 F2500.0
G4 P0.02
G1 X64.8938 Y-260.8318 F2200.0
G1 X65.7784 Y-260.6549
G1 X66.8840 Y-260.8318
G1 Z0.0000 F2500.0
G4 P0.02
G0 X65.2919 Y-259.2396 F15000.0
G1 Z11.9000 F2500.0
G4 P0.02
G1 X67.2379 Y-264.5026 F2200.0
G1 Z0.0000 F2500.0
G4 P0.02
G0 X68.5632 Y-260.8436 F15000.0
G1 Z11.9000 F2500.0
G4 P0.02
G1 X69.4919 Y-263.8510 F2200.0
G1 Z0.0000 F2500.0
G4 P0.02
G0 X68.6516 Y-260.7551 F15000.0
G1 Z11.9000 F2500.0
G4 P0.02
G1 X70.0226 Y-260.7109 F2200.0
G1 X71.2168 Y-263.8510
G1 Z0.0000 F2500.0
G4 P0.02
G0 X71.3559 Y-261.3735 F15000.0
G1 Z11.9000 F2500.0
G4 P0.02
G1 X71.2675 Y-260.7986 F2200.0
G1 X72.5058 Y-260.7543
G1 Z0.0000 F2500.0
G4 P0.02
G0 X72.2847 Y-263.6733 F15000.0
G1 Z11.9000 F2500.0
G4 P0.02
G1 X73.5673 Y-263.7618 F2200.0
G1 X73.7000 Y-263.5849
G1 X73.6557 Y-263.2311
G1 Z0.0000 F2500.0
G4 P0.02
G0 X75.0377 Y-259.6563 F15000.0
G1 Z11.9000 F2500.0
G4 P0.02
G1 X74.7724 Y-259.3910 F2200.0
G1 X73.4014 Y-259.3025
G1 Z0.0000 F2500.0
G4 P0.02
G0 X75.1705 Y-259.9217 F15000.0
G1 Z11.9000 F2500.0
G4 P0.02
G1 X75.3473 Y-260.6736 F2200.0
G1 X73.8879 Y-260.9389
G1 X74.8608 Y-263.8579
G1 Z0.0000 F2500.0
G4 P0.02
G0 X75.9223 Y-261.9562 F15000.0
G1 Z11.9000 F2500.0
G4 P0.02
G1 X75.4801 Y-260.7620 F2200.0
G1 Z0.0000 F2500.0
G4 P0.02
G0 X76.1434 Y-262.5311 F15000.0
G1 Z11.9000 F2500.0
G4 P0.02
G1 X76.6299 Y-263.8579 F2200.0
G1 Z0.0000 F2500.0
G4 P0.02
G0 X78.1863 Y-260.9312 F15000.0
G1 Z11.9000 F2500.0
G4 P0.02
G1 X78.4517 Y-261.4177 F2200.0
G1 X79.1151 Y-263.2753
G1 X79.0709 Y-263.7176
G1 X77.5671 Y-263.7618
G1 X75.9749 Y-259.3833
G1 Z0.0000 F2500.0
G4 P0.02
G0 X76.4172 Y-260.5774 F15000.0
G1 Z11.9000 F2500.0
G4 P0.02
G1 X76.5057 Y-260.6659 F2200.0
G1 X78.0093 Y-260.7986
G1 Z0.0000 F2500.0
G4 P0.02
G0 X79.2930 Y-261.1973 F15000.0
G1 Z11.9000 F2500.0
G4 P0.02
G1 X80.4430 Y-260.7108 F2200.0
G1 X80.9737 Y-260.8877
G1 X81.9025 Y-263.7625
G1 X80.2660 Y-263.5414
G1 X80.1334 Y-263.4087
G1 X79.5142 Y-261.7723
G1 Z0.0000 F2500.0
G4 P0.02
G0 X81.8871 Y-260.7613 F15000.0
G1 Z11.9000 F2500.0
G4 P0.02
G1 X82.7717 Y-263.1938 F2200.0
G1 X82.9927 Y-263.4149
G1 X83.0370 Y-263.8129
G1 Z0.0000 F2500.0
G4 P0.02
G0 X83.2139 Y-263.0168 F15000.0
G1 Z11.9000 F2500.0
G4 P0.02
G1 X83.4350 Y-262.4419 F2200.0
G1 X83.9215 Y-262.7073
G1 X84.4522 Y-263.1938
G1 X84.7176 Y-263.2823
G1 X84.6734 Y-262.7958
G1 X84.4080 Y-262.0438
G1 Z0.0000 F2500.0
G4 P0.02
G0 X84.0984 Y-261.1593 F15000.0
G1 Z11.9000 F2500.0
G4 P0.02
G1 X83.9215 Y-260.6286 F2200.0
G1 Z0.0000 F2500.0
G4 P0.02
G0 X85.6986 Y-262.7454 F15000.0
G1 Z11.9000 F2500.0
G4 P0.02
G1 X85.1678 Y-260.8436 F2200.0
G1 X85.2563 Y-260.7551
G1 X86.6273 Y-260.7109
G1 X87.8215 Y-263.8510
G1 Z0.0000 F2500.0
G4 P0.02
G0 X86.0967 Y-263.8510 F15000.0
G1 Z11.9000 F2500.0
G4 P0.02
G1 X85.8755 Y-263.2319 F2200.0
G1 Z0.0000 F2500.0
G4 P0.02
G0 X87.5387 Y-260.7036 F15000.0
G1 Z11.9000 F2500.0
G4 P0.02
G1 X87.7333 Y-260.7036 F2200.0
G1 Z0.0000 F2500.0
G4 P0.02
G0 X90.7687 Y-260.7740 F15000.0
G1 Z11.9000 F2500.0
G4 P0.02
G1 X92.2723 Y-264.9313 F2200.0
G1 X94.3067 Y-265.1967
G1 X92.8031 Y-260.6413
G1 Z0.0000 F2500.0
G4 P0.02
G0 X94.0052 Y-261.1967 F15000.0
G1 Z11.9000 F2500.0
G4 P0.02
G1 X95.1551 Y-260.7102 F2200.0
G1 X95.5089 Y-260.8871
G1 X95.7300 Y-261.1967
G1 X96.5261 Y-263.5849
G1 X96.4377 Y-263.7176
G1 X96.1723 Y-263.8502
G1 X94.9782 Y-263.5406
G1 X94.8455 Y-263.4080
G1 X94.2263 Y-261.7716
G1 Z0.0000 F2500.0
G4 P0.02
G0 X96.5645 Y-260.7782 F15000.0
G1 Z11.9000 F2500.0
G4 P0.02
G1 X97.0510 Y-262.0165 F2200.0
G1 Z0.0000 F2500.0
G4 P0.02
G0 X98.3777 Y-262.9895 F15000.0
G1 Z11.9000 F2500.0
G4 P0.02
G1 X97.7585 Y-262.3703 F2200.0
G1 X97.1836 Y-262.2818
G1 X97.2279 Y-262.5914
G1 X97.6701 Y-263.8298
G1 Z0.0000 F2500.0
G4 P0.02
G0 X97.8028 Y-262.3261 F15000.0
G1 Z11.9000 F2500.0
G4 P0.02
G1 X97.8912 Y-261.9281 F2200.0
G1 Z0.0000 F2500.0
G4 P0.02
G0 X98.0681 Y-261.3088 F15000.0
G1 Z11.9000 F2500.0
G4 P0.02
G1 X98.2009 Y-260.7782 F2200.0
G1 Z0.0000 F2500.0
G4 P0.02
G0 X98.8642 Y-263.3433 F15000.0
G1 Z11.9000 F2500.0
G4 P0.02
G1 X99.4834 Y-263.9182 F2200.0
G1 Z0.0000 F2500.0
G4 P0.02
G0 X100.3461 Y-263.5414 F15000.0
G1 Z11.9000 F2500.0
G4 P0.02
G1 X101.9826 Y-263.7625 F2200.0
G1 X101.0538 Y-260.8877
G1 X100.5231 Y-260.7108
G1 X99.3731 Y-261.1973
G1 Z0.0000 F2500.0
G4 P0.02
G0 X99.5943 Y-261.7723 F15000.0
G1 Z11.9000 F2500.0
G4 P0.02
G1 X100.2135 Y-263.4087 F2200.0
G1 Z0.0000 F2500.0
G4 P0.02
G0 X102.0914 Y-261.0197 F15000.0
G1 Z11.9000 F2500.0
G4 P0.02
G1 X102.1355 Y-260.8428 F2200.0
G1 X103.2412 Y-260.7986
G1 X103.5066 Y-260.9755
G1 X103.8604 Y-262.0369
G1 X103.7277 Y-262.2581
G1 X103.1528 Y-262.2581
G1 Z0.0000 F2500.0
G4 P0.02
G0 X103.0201 Y-263.4521 F15000.0
G1 Z11.9000 F2500.0
G4 P0.02
G1 X104.2142 Y-263.8060 F2200.0
G1 X104.3911 Y-263.5849
G1 X104.3911 Y-263.2311
G1 X104.2142 Y-262.7446
G1 X103.8604 Y-262.3465
G1 Z0.0000 F2500.0
G4 P0.02
G0 X105.6236 Y-263.5414 F15000.0
G1 Z11.9000 F2500.0
G4 P0.02
G1 X107.2600 Y-263.7625 F2200.0
G1 X106.3313 Y-260.8877
G1 X105.8005 Y-260.7108
G1 X104.6506 Y-261.1973
G1 Z0.0000 F2500.0
G4 P0.02
G0 X104.8718 Y-261.7723 F15000.0
G1 Z11.9000 F2500.0
G4 P0.02
G1 X105.4909 Y-263.4087 F2200.0
G1 Z0.0000 F2500.0
G4 P0.02
G0 X108.3060 Y-263.6733 F15000.0
G1 Z11.9000 F2500.0
G4 P0.02
G1 X107.2888 Y-260.8871 F2200.0
G1 Z0.0000 F2500.0
G4 P0.02
G0 X108.3945 Y-263.7618 F15000.0
G1 Z11.9000 F2500.0
G4 P0.02
G1 X110.7828 Y-263.7618 F2200.0
G1 X110.9154 Y-263.5849
G1 X109.9424 Y-260.6216
G1 Z0.0000 F2500.0
G4 P0.02
G0 X109.6771 Y-263.7618 F15000.0
G1 Z11.9000 F2500.0
G4 P0.02
G1 X108.5272 Y-260.6216 F2200.0
G1 Z0.0000 F2500.0
G4 P0.02
G0 X112.3406 Y-263.8510 F15000.0
G1 Z11.9000 F2500.0
G4 P0.02
G1 X111.2348 Y-260.7109 F2200.0
G1 X112.8712 Y-260.8878
G1 X113.0924 Y-261.1090
G1 X113.3135 Y-262.0377
G1 X111.8982 Y-262.3030
G1 Z0.0000 F2500.0
G4 P0.02
G0 X116.1456 Y-261.2162 F15000.0
G1 Z11.9000 F2500.0
G4 P0.02
G1 X117.2513 Y-260.6855 F2200.0
G1 X117.5167 Y-260.7740
G1 Z0.0000 F2500.0
G4 P0.02
G0 X116.2342 Y-261.4374 F15000.0
G1 Z11.9000 F2500.0
G4 P0.02
G1 X116.9417 Y-263.4276 F2200.0
G1 Z0.0000 F2500.0
G4 P0.02
G0 X117.4725 Y-264.8428 F15000.0
G1 Z11.9000 F2500.0
G4 P0.02
G1 X117.1629 Y-263.8256 F2200.0
G1 X117.7378 Y-263.8699
G1 X117.8705 Y-264.0910
G1 X118.4012 Y-264.5775
G1 X118.3128 Y-265.1525
G1 X117.7821 Y-265.1082
G1 Z0.0000 F2500.0
G4 P0.02
G0 X117.7821 Y-263.8699 F15000.0
G1 Z11.9000 F2500.0
G4 P0.02
G1 X118.5339 Y-263.7371 F2200.0
G1 X118.6666 Y-263.6045
G1 X117.8705 Y-261.2162
G1 Z0.0000 F2500.0
G4 P0.02
G0 X118.8921 Y-260.8436 F15000.0
G1 Z11.9000 F2500.0
G4 P0.02
G1 X119.8208 Y-263.8510 F2200.0
G1 Z0.0000 F2500.0
G4 P0.02
G0 X118.9805 Y-260.7551 F15000.0
G1 Z11.9000 F2500.0
G4 P0.02
G1 X120.3516 Y-260.7109 F2200.0
G1 X121.5457 Y-263.8510
G1 Z0.0000 F2500.0
G4 P0.02
G0 X121.5518 Y-261.2154 F15000.0
G1 Z11.9000 F2500.0
G4 P0.02
G1 X122.6574 Y-260.6848 F2200.0
G1 X122.9228 Y-260.7732
G1 Z0.0000 F2500.0
G4 P0.02
G0 X121.7728 Y-261.7905 F15000.0
G1 Z11.9000 F2500.0
G4 P0.02
G1 X122.3920 Y-263.4269 F2200.0
G1 X122.6574 Y-263.6479
G1 X124.1169 Y-263.8691
G1 X124.5149 Y-265.0190
G1 X124.3823 Y-265.1517
G1 X123.0112 Y-265.1959
G1 Z0.0000 F2500.0
G4 P0.02
G0 X124.1611 Y-263.8249 F15000.0
G1 Z11.9000 F2500.0
G4 P0.02
G1 X123.2766 Y-261.2154 F2200.0
G1 Z0.0000 F2500.0
G4 P0.02
G0 X124.2982 Y-260.8436 F15000.0
G1 Z11.9000 F2500.0
G4 P0.02
G1 X125.2270 Y-263.8510 F2200.0
G1 Z0.0000 F2500.0
G4 P0.02
G0 X124.3867 Y-260.7551 F15000.0
G1 Z11.9000 F2500.0
G4 P0.02
G1 X125.7577 Y-260.7109 F2200.0
G1 X126.9519 Y-263.8510
G1 Z0.0000 F2500.0
G4 P0.02
G0 X127.6943 Y-263.1938 F15000.0
G1 Z11.9000 F2500.0
G4 P0.02
G1 X126.8098 Y-260.7613 F2200.0
G1 Z0.0000 F2500.0
G4 P0.02
G0 X127.9155 Y-263.4149 F15000.0
G1 Z11.9000 F2500.0
G4 P0.02
G1 X127.9598 Y-263.8129 F2200.0
G1 Z0.0000 F2500.0
G4 P0.02
G0 X128.1367 Y-263.0168 F15000.0
G1 Z11.9000 F2500.0
G4 P0.02
G1 X128.3577 Y-262.4419 F2200.0
G1 X128.8442 Y-262.7073
G1 X129.3750 Y-263.1938
G1 X129.6403 Y-263.2823
G1 X129.5962 Y-262.7958
G1 X129.3307 Y-262.0438
G1 Z0.0000 F2500.0
G4 P0.02
G0 X129.0212 Y-261.1593 F15000.0
G1 Z11.9000 F2500.0
G4 P0.02
G1 X128.8442 Y-260.6286 F2200.0
G1 Z0.0000 F2500.0
G4 P0.02
G0 X130.0464 Y-261.1967 F15000.0
G1 Z11.9000 F2500.0
G4 P0.02
G1 X131.1962 Y-260.7102 F2200.0
G1 X131.5501 Y-260.8871
G1 X131.7712 Y-261.1967
G1 X132.5673 Y-263.5849
G1 X132.4788 Y-263.7176
G1 X132.2135 Y-263.8502
G1 X131.0193 Y-263.5406
G1 X130.8866 Y-263.4080
G1 X130.2675 Y-261.7716
G1 Z0.0000 F2500.0
G4 P0.02
G0 X132.7937 Y-260.8436 F15000.0
G1 Z11.9000 F2500.0
G4 P0.02
G1 X133.7224 Y-263.5415 F2200.0
G1 X133.9436 Y-263.7184
G1 X135.4031 Y-263.8510
G1 Z0.0000 F2500.0
G4 P0.02
G0 X134.2532 Y-260.7109 F15000.0
G1 Z11.9000 F2500.0
G4 P0.02
G1 X132.8821 Y-260.7551 F2200.0
G1 Z0.0000 F2500.0
G4 P0.02
G0 X136.3667 Y-263.6733 F15000.0
G1 Z11.9000 F2500.0
G4 P0.02
G1 X135.3494 Y-260.8871 F2200.0
G1 Z0.0000 F2500.0
G4 P0.02
G0 X136.4552 Y-263.7618 F15000.0
G1 Z11.9000 F2500.0
G4 P0.02
G1 X138.8434 Y-263.7618 F2200.0
G1 X138.9761 Y-263.5849
G1 X138.0031 Y-260.6216
G1 Z0.0000 F2500.0
G4 P0.02
G0 X137.7378 Y-263.7618 F15000.0
G1 Z11.9000 F2500.0
G4 P0.02
G1 X136.5878 Y-260.6216 F2200.0
G1 Z0.0000 F2500.0
G4 P0.02
G0 X140.4012 Y-263.8510 F15000.0
G1 Z11.9000 F2500.0
G4 P0.02
G1 X139.2955 Y-260.7109 F2200.0
G1 X140.9319 Y-260.8878
G1 X141.1530 Y-261.1090
G1 X141.3742 Y-262.0377
G1 X139.9589 Y-262.3030
G1 Z0.0000 F2500.0
G4 P0.02
G0 X141.8579 Y-260.7036 F15000.0
G1 Z11.9000 F2500.0
G4 P0.02
G1 X142.0525 Y-260.7036 F2200.0
G1 Z0.0000 F2500.0
G4 P0.02
G0 X26.7274 Y-11.1147 F15000.0
G1 Z11.9000 F2500.0
G4 P0.02
G1 X26.6472 Y-14.9220 F2200.0
G1 X24.3225 Y-11.2423
G1 X23.8571 Y-11.0174
G1 Z0.0000 F2500.0
G4 P0.02
G0 X29.4031 Y-11.1147 F15000.0
G1 Z11.9000 F2500.0
G4 P0.02
G1 X29.3545 Y-15.0066 F2200.0
G1 Z0.0000 F2500.0
G4 P0.02
G0 X27.9436 Y-15.0066 F15000.0
G1 Z11.9000 F2500.0
G4 P0.02
G1 X30.9112 Y-15.0066 F2200.0
G1 Z0.0000 F2500.0
G4 P0.02
G0 X31.7869 Y-12.4282 F15000.0
G1 Z11.9000 F2500.0
G4 P0.02
G1 X32.9059 Y-12.4282 F2200.0
G1 Z0.0000 F2500.0
G4 P0.02
G0 X34.1708 Y-13.3525 F15000.0
G1 Z11.9000 F2500.0
G4 P0.02
G1 X34.1708 Y-13.4012 F2200.0
G1 Z0.0000 F2500.0
G4 P0.02
G0 X36.2140 Y-12.8660 F15000.0
G1 Z11.9000 F2500.0
G4 P0.02
G1 X36.0378 Y-13.1730 F2200.0
G1 X35.6311 Y-13.4515
G1 X35.1388 Y-13.5291
G1 X34.2133 Y-13.4698
G1 X34.4828 Y-14.8961
G1 X34.6854 Y-14.9568
G1 X36.1167 Y-14.9580
G1 Z0.0000 F2500.0
G4 P0.02
G0 X37.5276 Y-14.1309 F15000.0
G1 Z11.9000 F2500.0
G4 P0.02
G1 X37.6701 Y-14.4807 F2200.0
G1 X37.9505 Y-14.8301
G1 X37.5329 Y-14.0807
G1 X37.4096 Y-12.8312
G1 X37.7228 Y-11.4938
G1 X38.3191 Y-11.0780
G1 X38.4151 Y-11.0980
G1 X39.6666 Y-12.3156
G1 X39.4973 Y-14.4265
G1 X38.6898 Y-14.9909
G1 X38.4578 Y-15.0170
G1 X38.0141 Y-14.9093
G1 Z0.0000 F2500.0
G4 P0.02
G0 X36.2627 Y-12.7687 F15000.0
G1 Z11.9000 F2500.0
G4 P0.02
G1 X36.2495 Y-11.8864 F2200.0
G1 X36.0223 Y-11.4627
G1 X34.8442 Y-11.0534
G1 X34.4088 Y-11.2486
G1 X34.0748 Y-11.7112
G1 X34.4140 Y-11.2120
G1 Z0.0000 F2500.0
G4 P0.02
G0 X37.5276 Y-11.8931 F15000.0
G1 Z11.9000 F2500.0
G4 P0.02
G1 X37.6735 Y-11.5039 F2200.0
G1 Z0.0000 F2500.0
G4 P0.02
G0 X41.0790 Y-11.4066 F15000.0
G1 Z11.9000 F2500.0
G4 P0.02
G1 X41.7178 Y-11.0628 F2200.0
G1 X42.7626 Y-11.4848
G1 X42.9458 Y-11.6320
G1 X43.1937 Y-12.5979
G1 X42.8696 Y-14.6310
G1 X42.7197 Y-14.7963
G1 X42.0247 Y-15.0387
G1 X41.6550 Y-14.9964
G1 X41.2988 Y-14.7947
G1 X41.1001 Y-14.5674
G1 X40.9099 Y-13.5809
G1 X41.0405 Y-13.1155
G1 X41.3394 Y-12.7832
G1 X41.7959 Y-12.6476
G1 X42.5407 Y-12.7811
G1 X43.0727 Y-13.0184
G1 X43.0268 Y-12.9409
G1 X44.4001 Y-12.4297
G1 X45.3602 Y-12.4282
G1 Z0.0000 F2500.0
G4 P0.02
G0 X46.6737 Y-11.3579 F15000.0
G1 Z11.9000 F2500.0
G4 P0.02
G1 X46.5141 Y-11.6481 F2200.0
G1 X46.8066 Y-11.3228
G1 X47.7739 Y-11.0526
G1 X48.4767 Y-11.4093
G1 X48.6899 Y-11.9588
G1 X48.4928 Y-12.8046
G1 X48.0359 Y-13.2552
G1 Z0.0000 F2500.0
G4 P0.02
G0 X47.4034 Y-13.1093 F15000.0
G1 Z11.9000 F2500.0
G4 P0.02
G1 X48.0022 Y-13.2745 F2200.0
G1 X48.4045 Y-13.7359
G1 X48.4762 Y-13.9650
G1 X48.3923 Y-14.1667
G1 X47.6971 Y-14.8980
G1 X47.5144 Y-14.9942
G1 X46.5277 Y-14.3255
G1 Z0.0000 F2500.0
G4 P0.02
G0 X98.7237 Y-10.8734 F15000.0
G1 Z11.9000 F2500.0
G4 P0.02
G1 X98.8081 Y-11.6624 F2200.0
G1 X99.0046 Y-11.7591
G1 X101.1930 Y-14.9544
G1 X101.2360 Y-11.8526
G1 X101.1845 Y-11.7786
G1 X99.0643 Y-11.7490
G1 Z0.0000 F2500.0
G4 P0.02
G0 X101.2535 Y-11.7490 F15000.0
G1 Z11.9000 F2500.0
G4 P0.02
G1 X101.5677 Y-11.6389 F2200.0
G1 X101.6427 Y-10.8734
G1 Z0.0000 F2500.0
G4 P0.02
G0 X104.1238 Y-11.7977 F15000.0
G1 Z11.9000 F2500.0
G4 P0.02
G1 X104.3556 Y-12.0121 F2200.0
G1 X103.8601 Y-11.6930
G1 X102.7992 Y-12.0076
G1 X102.5693 Y-12.4354
G1 X102.5707 Y-12.6708
G1 X103.0591 Y-13.9538
G1 X103.3964 Y-14.0948
G1 X104.0047 Y-14.0075
G1 X104.2963 Y-13.7811
G1 X104.4656 Y-13.4542
G1 X104.5156 Y-12.2355
G1 X106.7768 Y-11.6830
G1 X107.0039 Y-11.7660
G1 X107.3331 Y-12.1876
G1 X107.4641 Y-12.6700
G1 X107.3626 Y-13.5409
G1 X107.0636 Y-13.9358
G1 X106.6079 Y-14.1106
G1 X105.6481 Y-14.0027
G1 X105.5833 Y-10.7274
G1 Z0.0000 F2500.0
G4 P0.02
G0 X109.9131 Y-11.7490 F15000.0
G1 Z11.9000 F2500.0
G4 P0.02
G1 X110.1986 Y-12.0191 F2200.0
G1 X109.7588 Y-11.7109
G1 X109.5264 Y-11.7006
G1 X108.5994 Y-12.0457
G1 X108.3952 Y-12.4894
G1 X108.7979 Y-13.8006
G1 X108.9404 Y-13.9860
G1 X109.4128 Y-14.1078
G1 X109.7805 Y-14.0319
G1 X110.0898 Y-13.8310
G1 X110.3140 Y-13.3978
G1 X110.3561 Y-12.1689
G1 X110.9371 Y-11.5549
G1 X111.1521 Y-11.6085
G1 X111.3281 Y-11.7794
G1 X112.0994 Y-13.0756
G1 X113.0754 Y-14.1815
G1 Z0.0000 F2500.0
G4 P0.02
G0 X111.3726 Y-14.0356 F15000.0
G1 Z11.9000 F2500.0
G4 P0.02
G1 X112.1246 Y-13.0376 F2200.0
G1 X112.0944 Y-12.6564
G1 X112.6380 Y-12.1673
G1 X113.0101 Y-11.6904
G1 X113.3186 Y-11.5058
G1 Z0.0000 F2500.0
G4 P0.02
G0 X112.1510 Y-12.7220 F15000.0
G1 Z11.9000 F2500.0
G4 P0.02
G1 X112.0537 Y-12.7220 F2200.0
G1 Z0.0000 F2500.0
G4 P0.02
G0 X111.4699 Y-11.9923 F15000.0
G1 Z11.9000 F2500.0
G4 P0.02
G1 X111.3726 Y-11.8463 F2200.0
G1 Z0.0000 F2500.0
G4 P0.02
G0 X115.5078 Y-11.8950 F15000.0
G1 Z11.9000 F2500.0
G4 P0.02
G1 X115.3813 Y-11.7890 F2200.0
G1 X115.6051 Y-11.9923
G1 Z0.0000 F2500.0
G4 P0.02
G0 X116.8700 Y-12.9653 F15000.0
G1 Z11.9000 F2500.0
G4 P0.02
G1 X118.3526 Y-13.1669 F2200.0
G1 X118.4800 Y-13.3647
G1 X118.4934 Y-13.6058
G1 X118.3823 Y-13.8141
G1 X118.0758 Y-14.0185
G1 X116.9965 Y-14.0255
G1 X116.8946 Y-12.9340
G1 X118.0561 Y-11.8178
G1 X118.2253 Y-11.7384
G1 X118.5018 Y-12.0077
G1 X118.5836 Y-12.2170
G1 X118.4086 Y-13.1332
G1 X118.2923 Y-12.9025
G1 X118.4755 Y-12.6734
G1 Z0.0000 F2500.0
G4 P0.02
G0 X115.7024 Y-13.6464 F15000.0
G1 Z11.9000 F2500.0
G4 P0.02
G1 X115.3200 Y-13.9741 F2200.0
G1 X114.7253 Y-14.1024
G1 X114.3779 Y-13.9788
G1 X114.2416 Y-13.7871
G1 X113.8431 Y-12.5934
G1 X114.0564 Y-12.0349
G1 X115.1077 Y-11.6830
G1 X115.3817 Y-11.7815
G1 X115.6439 Y-12.0141
G1 X115.5636 Y-11.9161
G1 X115.8309 Y-12.4939
G1 X115.7404 Y-13.4928
G1 X115.2646 Y-14.0356
G1 Z0.0000 F2500.0
G4 P0.02
G0 X123.4164 Y-15.0572 F15000.0
G1 Z11.9000 F2500.0
G4 P0.02
G1 X121.2818 Y-13.5065 F2200.0
G1 X121.2704 Y-13.4146
G1 X123.4625 Y-11.7552
G1 X124.4540 Y-11.7440
G1 X124.6545 Y-11.8341
G1 X125.7516 Y-14.0842
G1 Z0.0000 F2500.0
G4 P0.02
G0 X127.7462 Y-14.0356 F15000.0
G1 Z11.9000 F2500.0
G4 P0.02
G1 X128.2256 Y-13.4795 F2200.0
G1 X128.3117 Y-12.4798
G1 X128.1362 Y-12.0378
G1 X127.8627 Y-11.7814
G1 X127.5847 Y-11.6835
G1 X126.5352 Y-12.0386
G1 X126.3271 Y-12.5974
G1 X126.8754 Y-13.9800
G1 X127.2181 Y-14.1045
G1 X127.8111 Y-13.9679
G1 X128.1841 Y-13.6464
G1 Z0.0000 F2500.0
G4 P0.02
G0 X128.2327 Y-12.1869 F15000.0
G1 Z11.9000 F2500.0
G4 P0.02
G1 X127.8435 Y-11.7490 F2200.0
G1 Z0.0000 F2500.0
G4 P0.02
G0 X129.4003 Y-11.9436 F15000.0
G1 Z11.9000 F2500.0
G4 P0.02
G1 X130.5005 Y-11.6784 F2200.0
G1 X130.8183 Y-11.7999
G1 X131.0264 Y-12.0350
G1 X131.2313 Y-12.6236
G1 X131.1688 Y-13.3760
G1 X131.0366 Y-13.7180
G1 X130.7749 Y-13.9813
G1 X130.3022 Y-14.1064
G1 X129.3903 Y-13.9588
G1 X129.3516 Y-10.7274
G1 Z0.0000 F2500.0
G4 P0.02
G0 X123.3191 Y-13.4518 F15000.0
G1 Z11.9000 F2500.0
G4 P0.02
G1 X121.2272 Y-13.5004 F2200.0
G1 Z0.0000 F2500.0
G4 P0.02
G0 X135.9285 Y-15.0572 F15000.0
G1 Z11.9000 F2500.0
G4 P0.02
G1 X135.3863 Y-14.7606 F2200.0
G1 X134.6323 Y-13.4915
G1 X134.6821 Y-13.3081
G1 X135.7032 Y-11.8289
G1 X135.9759 Y-11.6097
G1 X136.2052 Y-11.6199
G1 X136.8563 Y-11.9280
G1 X136.8042 Y-13.9869
G1 Z0.0000 F2500.0
G4 P0.02
G0 X136.9988 Y-12.0896 F15000.0
G1 Z11.9000 F2500.0
G4 P0.02
G1 X137.4063 Y-12.3771 F2200.0
G1 X138.4467 Y-13.6486
G1 X138.6224 Y-11.8345
G1 X138.6918 Y-11.7850
G1 X139.7945 Y-11.9236
G1 X140.8948 Y-11.6782
G1 X141.1237 Y-11.7544
G1 X141.4116 Y-12.0541
G1 X141.6036 Y-12.6471
G1 X141.5130 Y-13.5220
G1 X141.1256 Y-13.9919
G1 X140.6503 Y-14.1049
G1 X139.8051 Y-14.0098
G1 X139.7231 Y-10.7274
G1 Z0.0000 F2500.0
G4 P0.02
G0 X142.6908 Y-11.8463 F15000.0
G1 Z11.9000 F2500.0
G4 P0.02
G1 X142.6421 Y-13.9869 F2200.0
G1 Z0.0000 F2500.0
G4 P0.02
G0 X142.8367 Y-12.0896 F15000.0
G1 Z11.9000 F2500.0
G4 P0.02
G1 X143.2442 Y-12.3771 F2200.0
G1 X144.2846 Y-13.6486
G1 X144.4606 Y-11.8305
G1 X144.6401 Y-11.7514
G1 X145.6350 Y-11.7793
G1 X147.4133 Y-13.9979
G1 X147.5592 Y-11.7983
G1 X148.7283 Y-12.0487
G1 X148.8206 Y-11.9923
G1 Z0.0000 F2500.0
G4 P0.02
G0 X148.7720 Y-13.6464 F15000.0
G1 Z11.9000 F2500.0
G4 P0.02
G1 X148.5989 Y-12.5510 F2200.0
G1 X148.7843 Y-12.0930
G1 X148.9660 Y-11.9493
G1 X149.8071 Y-11.6891
G1 X150.0427 Y-11.7187
G1 X150.4256 Y-12.0383
G1 X150.6027 Y-12.4743
G1 X150.4781 Y-13.5911
G1 X150.2508 Y-13.8800
G1 X149.5507 Y-14.1013
G1 X149.0639 Y-13.9869
G1 Z0.0000 F2500.0
G4 P0.02
G0 X151.6423 Y-12.9653 F15000.0
G1 Z11.9000 F2500.0
G4 P0.02
G1 X153.0150 Y-12.8748 F2200.0
G1 X153.1709 Y-12.7502
G1 X153.0859 Y-12.9131
G1 X153.1587 Y-13.2978
G1 X153.0140 Y-13.9162
G1 X153.2234 Y-13.7009
G1 X153.2564 Y-12.7015
G1 X153.3573 Y-12.0926
G1 X153.2483 Y-11.8825
G1 X152.9446 Y-11.7492
G1 X151.6704 Y-12.9133
G1 X151.7611 Y-14.0094
G1 X151.9475 Y-14.0733
G1 X152.8585 Y-14.0356
G1 Z0.0000 F2500.0
G4 P0.02
G0 X154.4153 Y-13.9869 F15000.0
G1 Z11.9000 F2500.0
G4 P0.02
G1 X154.4962 Y-11.9199 F2200.0
G1 X154.9961 Y-12.3549
G1 X156.0509 Y-13.6642
G1 X156.2153 Y-11.7490
G1 Z0.0000 F2500.0
G4 P0.02
G0 X157.2370 Y-14.0356 F15000.0
G1 Z11.9000 F2500.0
G4 P0.02
G1 X157.2526 Y-13.2804 F2200.0
G1 X157.4077 Y-12.9494
G1 X157.8083 Y-12.6985
G1 X158.9087 Y-12.7848
G1 X158.9679 Y-12.7252
G1 X158.9884 Y-11.8357
G1 X158.9884 Y-14.0356
G1 Z0.0000 F2500.0
G4 P0.02
G0 X153.3450 Y-11.9923 F15000.0
G1 Z11.9000 F2500.0
G4 P0.02
G1 X153.2964 Y-11.8950 F2200.0
G1 Z0.0000 F2500.0
G4 P0.02
G0 X134.8095 Y-13.7437 F15000.0
G1 Z11.9000 F2500.0
G4 P0.02
G1 X134.6790 Y-13.6134 F2200.0
G1 X133.8365 Y-13.5004
G1 Z0.0000 F2500.0
G4 P0.02
G0 X133.8365 Y-15.0086 F15000.0
G1 Z11.9000 F2500.0
G4 P0.02
G1 X133.8365 Y-11.7977 F2200.0
G1 Z0.0000 F2500.0
G4 P0.02

G0 Z0.0000 F800.0
G4 P0.06
G0 X0.0000 Y0.0000 F15000.0
M5
G4 P0.10
$1=0
