$X
$1=255
G21
G90
G92 Z4.0000
G0 Z0.0000 F800.0
G4 P0.06
G92 Z0.0000
G0 Z0.0000 F800.0
G0 X0.0000 Y0.0000 F15000.0
G21
G90
G17
G91.1
G0 Z0.0000
G0 X0.0000 Y-5.0000 F15000.0
G1 Z11.9000 F8000.0
G1 X180.0000 Y-5.0000 F12000.0
G1 X180.0000 Y-285.0000
G1 X0.0000 Y-285.0000
G1 X0.0000 Y-5.0000
G1 Z0.0000 F8000.0
G0 X125.7872 Y-182.0286 F15000.0
G1 Z11.9000 F8000.0
G1 X127.7774 Y-179.7730 F12000.0
G1 X127.9543 Y-180.8344
G1 X128.4851 Y-181.0998
G1 X129.5023 Y-180.7460
G1 Z0.0000 F8000.0
G0 X129.7676 Y-180.6133 F15000.0
G1 Z11.9000 F8000.0
G1 X129.8561 Y-180.5248 F12000.0
G1 Z0.0000 F8000.0
G0 X130.0330 Y-180.3037 F15000.0
G1 Z11.9000 F8000.0
G1 X130.4310 Y-178.6231 F12000.0
G1 Z0.0000 F8000.0
G0 X128.7947 Y-178.2693 F15000.0
G1 Z11.9000 F8000.0
G1 X129.3254 Y-176.8982 F12000.0
G1 X129.0158 Y-176.9867
G1 Z0.0000 F8000.0
G0 X129.2812 Y-176.6771 F15000.0
G1 Z11.9000 F8000.0
G1 X129.5465 Y-176.5887 F12000.0
G1 Z0.0000 F8000.0
G0 X129.9003 Y-176.3675 F15000.0
G1 Z11.9000 F8000.0
G1 X130.2984 Y-176.1022 F12000.0
G1 Z0.0000 F8000.0
G0 X128.9716 Y-176.4118 F15000.0
G1 Z11.9000 F8000.0
G1 X128.2639 Y-176.4118 F12000.0
G1 X127.8217 Y-176.5887
G1 X127.5563 Y-176.8540
G1 Z0.0000 F8000.0
G0 X127.3794 Y-177.0752 F15000.0
G1 Z11.9000 F8000.0
G1 X127.1140 Y-178.0924 F12000.0
G1 Z0.0000 F8000.0
G0 X126.9814 Y-178.3577 F15000.0
G1 Z11.9000 F8000.0
G1 X127.4679 Y-178.0039 F12000.0
G1 Z0.0000 F8000.0
G0 X127.2467 Y-178.3577 F15000.0
G1 Z11.9000 F8000.0
G1 X127.4679 Y-178.6231 F12000.0
G1 Z0.0000 F8000.0
G0 X127.6005 Y-178.7115 F15000.0
G1 Z11.9000 F8000.0
G1 X128.5735 Y-178.4462 F12000.0
G1 Z0.0000 F8000.0
G0 X126.4949 Y-178.6673 F15000.0
G1 Z11.9000 F8000.0
G1 X126.1410 Y-178.8885 F12000.0
G1 Z0.0000 F8000.0
G0 X127.9986 Y-182.1612 F15000.0
G1 Z11.9000 F8000.0
G1 X129.9003 Y-181.6305 F12000.0
G1 X130.1215 Y-181.7632
G1 Z0.0000 F8000.0
G0 X130.2099 Y-181.8959 F15000.0
G1 Z11.9000 F8000.0
G1 X130.1657 Y-183.0458 F12000.0
G1 Z0.0000 F8000.0
G0 X130.0772 Y-183.2227 F15000.0
G1 Z11.9000 F8000.0
G1 X129.5907 Y-183.6650 F12000.0
G1 X128.6620 Y-184.0188
G1 X128.2639 Y-184.0630
G1 Z0.0000 F8000.0
G0 X128.0870 Y-183.9745 F15000.0
G1 Z11.9000 F8000.0
G1 X127.7774 Y-182.3382 F12000.0
G1 X126.9814 Y-182.7804
G1 Z0.0000 F8000.0
G0 X126.2737 Y-183.4880 F15000.0
G1 Z11.9000 F8000.0
G1 X126.1410 Y-183.6650 F12000.0
G1 Z0.0000 F8000.0
G0 X125.9641 Y-184.0188 F15000.0
G1 Z11.9000 F8000.0
G1 X125.8315 Y-184.3284 F12000.0
G1 Z0.0000 F8000.0
G0 X114.6907 Y-183.6740 F15000.0
G1 Z11.9000 F8000.0
G1 X114.6022 Y-181.9934 F12000.0
G1 X114.3811 Y-182.0818
G1 Z0.0000 F8000.0
G0 X113.0101 Y-181.4184 F15000.0
G1 Z11.9000 F8000.0
G1 X112.4351 Y-181.6838 F12000.0
G1 X111.8159 Y-181.5511
G1 Z0.0000 F8000.0
G0 X111.3737 Y-181.3299 F15000.0
G1 Z11.9000 F8000.0
G1 X112.1698 Y-180.7992 F12000.0
G1 Z0.0000 F8000.0
G0 X111.5064 Y-181.1088 F15000.0
G1 Z11.9000 F8000.0
G1 X111.7717 Y-180.0474 F12000.0
G1 Z0.0000 F8000.0
G0 X111.9486 Y-179.8262 F15000.0
G1 Z11.9000 F8000.0
G1 X112.2140 Y-179.5609 F12000.0
G1 X113.2312 Y-179.2955
G1 X113.5408 Y-179.5166
G1 Z0.0000 F8000.0
G0 X113.7177 Y-179.8705 F15000.0
G1 Z11.9000 F8000.0
G1 X113.6292 Y-180.6223 F12000.0
G1 Z0.0000 F8000.0
G0 X113.1428 Y-180.1358 F15000.0
G1 Z11.9000 F8000.0
G1 X113.0543 Y-180.2243 F12000.0
G1 Z0.0000 F8000.0
G0 X113.4966 Y-179.9147 F15000.0
G1 Z11.9000 F8000.0
G1 X114.6907 Y-179.0744 F12000.0
G1 Z0.0000 F8000.0
G0 X111.0199 Y-181.5511 F15000.0
G1 Z11.9000 F8000.0
G1 X110.5334 Y-181.9049 F12000.0
G1 Z0.0000 F8000.0
G0 X110.6660 Y-183.3644 F15000.0
G1 Z11.9000 F8000.0
G1 X110.2238 Y-184.1605 F12000.0
G1 X110.1796 Y-184.5143
G1 X110.4891 Y-185.0450
G1 Z0.0000 F8000.0
G0 X110.7545 Y-185.1777 F15000.0
G1 Z11.9000 F8000.0
G1 X111.2852 Y-185.0892 F12000.0
G1 X112.9216 Y-183.5413
G1 Z0.0000 F8000.0
G0 X112.1255 Y-185.9738 F15000.0
G1 Z11.9000 F8000.0
G1 X112.9658 Y-185.4873 F12000.0
G1 X113.5850 Y-185.2661
G1 X113.6735 Y-187.0794
G1 Z0.0000 F8000.0
G0 X112.6120 Y-186.9025 F15000.0
G1 Z11.9000 F8000.0
G1 X113.5850 Y-186.5929 F12000.0
G1 X113.6735 Y-186.4160
G1 X114.6907 Y-186.0622
G1 Z0.0000 F8000.0
G0 X116.6499 Y-173.8329 F15000.0
G1 Z11.9000 F8000.0
G1 X117.3089 Y-168.9725 F12000.0
G1 X117.9680 Y-173.8329 F12000.0
G1 X117.3089 Y-173.3387 F12000.0
G1 X116.6499 Y-173.8329 F12000.0
G1 Z0.0000 F8000.0
G0 X117.0206 Y-172.1701 F15000.0
G1 Z11.9000 F8000.0
G1 X117.0206 Y-171.2944 F12000.0
G1 Z0.0000 F8000.0
G0 X117.6384 Y-171.0061 F15000.0
G1 Z11.9000 F8000.0
G1 X117.6384 Y-171.8818 F12000.0
G1 Z0.0000 F8000.0
G0 X117.3089 Y-168.9725 F15000.0
G1 Z11.9000 F8000.0
G1 X117.3089 Y-198.6293 F12000.0
G1 Z0.0000 F8000.0
G0 X132.3021 Y-202.9954 F15000.0
G1 Z11.9000 F8000.0
G1 X132.8787 Y-203.4897 F12000.0
G1 X133.5378 Y-202.9954 F12000.0
G1 X132.8787 Y-207.8558 F12000.0
G1 X132.3021 Y-202.9954 F12000.0
G1 Z0.0000 F8000.0
G0 X132.6316 Y-204.6994 F15000.0
G1 Z11.9000 F8000.0
G1 X132.6316 Y-205.5751 F12000.0
G1 Z0.0000 F8000.0
G0 X133.2082 Y-205.9047 F15000.0
G1 Z11.9000 F8000.0
G1 X133.2082 Y-205.0290 F12000.0
G1 Z0.0000 F8000.0
G0 X132.8787 Y-207.8558 F15000.0
G1 Z11.9000 F8000.0
G1 X132.8787 Y-153.4027 F12000.0
G1 X132.3021 Y-158.2632 F12000.0
G1 X132.8787 Y-157.7689 F12000.0
G1 X133.5378 Y-158.2632 F12000.0
G1 X132.8787 Y-153.4027 F12000.0
G1 Z0.0000 F8000.0
G0 X134.8558 Y-153.4027 F15000.0
G1 Z11.9000 F8000.0
G1 X98.2792 Y-153.4027 F12000.0
G1 X98.2792 Y-180.5881 F12000.0
G1 X98.2792 Y-207.8558 F12000.0
G1 X82.7094 Y-207.8558 F12000.0
G1 X82.7094 Y-180.5881 F12000.0
G1 X82.7094 Y-153.4027 F12000.0
G1 X98.2792 Y-153.4027 F12000.0
G1 X98.2792 Y-120.2860 F12000.0
G1 Z0.0000 F8000.0
G0 X98.2792 Y-122.2632 F15000.0
G1 Z11.9000 F8000.0
G1 X103.1396 Y-122.2632 F12000.0
G1 X113.9313 Y-122.2632 F12000.0
G1 Z0.0000 F8000.0
G0 X110.2046 Y-126.8984 F15000.0
G1 Z11.9000 F8000.0
G1 X110.2046 Y-126.2792 F12000.0
G1 X109.8065 Y-125.2178
G1 X109.2316 Y-124.7755
G1 X108.8336 Y-124.6870
G1 X108.0375 Y-124.8640
G1 Z0.0000 F8000.0
G0 X107.9490 Y-124.9524 F15000.0
G1 Z11.9000 F8000.0
G1 X108.1259 Y-126.2792 F12000.0
G1 X108.9220 Y-127.8714
G1 Z0.0000 F8000.0
G0 X109.3643 Y-128.4021 F15000.0
G1 Z11.9000 F8000.0
G1 X109.7181 Y-128.7117 F12000.0
G1 X110.5584 Y-129.1540
G1 Z0.0000 F8000.0
G0 X109.9835 Y-127.0753 F15000.0
G1 Z11.9000 F8000.0
G1 X108.6566 Y-127.1637 F12000.0
G1 Z0.0000 F8000.0
G0 X108.0817 Y-128.8444 F15000.0
G1 Z11.9000 F8000.0
G1 X107.7721 Y-128.7559 F12000.0
G1 Z0.0000 F8000.0
G0 X108.3913 Y-129.1540 F15000.0
G1 Z11.9000 F8000.0
G1 X108.1259 Y-128.8001 F12000.0
G1 X106.6664 Y-124.7313
G1 Z0.0000 F8000.0
G0 X106.8433 Y-128.0925 F15000.0
G1 Z11.9000 F8000.0
G1 X107.0203 Y-128.2694 F12000.0
G1 Z0.0000 F8000.0
G0 X98.2792 Y-122.2632 F15000.0
G1 Z11.9000 F8000.0
G1 X93.4188 Y-121.6041 F12000.0
G1 X93.9130 Y-122.2632 F12000.0
G1 X93.4188 Y-122.9222 F12000.0
G1 X98.2792 Y-122.2632 F12000.0
G1 X82.7094 Y-122.2632 F12000.0
G1 X87.5698 Y-122.9222 F12000.0
G1 X87.1579 Y-122.2632 F12000.0
G1 X87.5698 Y-121.6041 F12000.0
G1 X82.7094 Y-122.2632 F12000.0
G1 Z0.0000 F8000.0
G0 X82.7094 Y-120.2860 F15000.0
G1 Z11.9000 F8000.0
G1 X82.7094 Y-166.9954 F12000.0
G1 Z0.0000 F8000.0
G0 X87.4050 Y-161.4760 F15000.0
G1 Z11.9000 F8000.0
G1 X94.9016 Y-168.9725 F12000.0
G1 Z0.0000 F8000.0
G0 X91.6888 Y-168.9725 F15000.0
G1 Z11.9000 F8000.0
G1 X82.7094 Y-153.4027 F12000.0
G1 X71.6705 Y-134.2082 F12000.0
G1 Z0.0000 F8000.0
G0 X72.6590 Y-135.9382 F15000.0
G1 Z11.9000 F8000.0
G1 X74.6362 Y-134.8673 F12000.0
G1 X77.8490 Y-133.3844 F12000.0
G1 X81.2265 Y-132.3135 F12000.0
G1 X84.6865 Y-131.4897 F12000.0
G1 X88.2288 Y-130.9954 F12000.0
G1 X91.6888 Y-130.8307 F12000.0
G1 X86.8284 Y-130.4188 F12000.0
G1 X87.3227 Y-131.0778 F12000.0
G1 X86.9108 Y-131.7368 F12000.0
G1 X91.6888 Y-130.8307 F12000.0
G1 Z0.0000 F8000.0
G0 X89.7376 Y-130.7483 F15000.0
G1 Z11.9000 F8000.0
G1 X88.8619 Y-130.7483 F12000.0
G1 Z0.0000 F8000.0
G0 X88.6972 Y-131.2838 F15000.0
G1 Z11.9000 F8000.0
G1 X89.5729 Y-131.2838 F12000.0
G1 Z0.0000 F8000.0
G0 X91.6888 Y-128.8536 F15000.0
G1 Z11.9000 F8000.0
G1 X91.6888 Y-180.5881 F12000.0
G1 Z0.0000 F8000.0
G0 X98.2792 Y-180.5881 F15000.0
G1 Z11.9000 F8000.0
G1 X82.7094 Y-180.5881 F12000.0
G1 Z0.0000 F8000.0
G0 X91.6888 Y-168.9725 F15000.0
G1 Z11.9000 F8000.0
G1 X98.2792 Y-168.9725 F12000.0
G1 X119.2860 Y-168.9725 F12000.0
G1 Z0.0000 F8000.0
G0 X132.6316 Y-156.6415 F15000.0
G1 Z11.9000 F8000.0
G1 X132.6316 Y-155.7658 F12000.0
G1 Z0.0000 F8000.0
G0 X133.2082 Y-155.4363 F15000.0
G1 Z11.9000 F8000.0
G1 X133.2082 Y-156.3120 F12000.0
G1 Z0.0000 F8000.0
G0 X98.2792 Y-155.8741 F15000.0
G1 Z11.9000 F8000.0
G1 X95.8078 Y-153.4027 F12000.0
G1 Z0.0000 F8000.0
G0 X91.6888 Y-153.4027 F15000.0
G1 Z11.9000 F8000.0
G1 X98.2792 Y-159.9931 F12000.0
G1 Z0.0000 F8000.0
G0 X98.2792 Y-164.1121 F15000.0
G1 Z11.9000 F8000.0
G1 X87.5698 Y-153.4027 F12000.0
G1 Z0.0000 F8000.0
G0 X83.4508 Y-153.4027 F15000.0
G1 Z11.9000 F8000.0
G1 X98.2792 Y-168.2311 F12000.0
G1 Z0.0000 F8000.0
G0 X84.8449 Y-138.7242 F15000.0
G1 Z11.9000 F8000.0
G1 X83.8277 Y-138.7242 F12000.0
G1 X83.3412 Y-138.4588
G1 Z0.0000 F8000.0
G0 X83.1200 Y-138.1493 F15000.0
G1 Z11.9000 F8000.0
G1 X82.5893 Y-137.4416 F12000.0
G1 Z0.0000 F8000.0
G0 X81.7490 Y-137.9724 F15000.0
G1 Z11.9000 F8000.0
G1 X81.0414 Y-137.6185 F12000.0
G1 X80.6433 Y-137.6185
G1 Z0.0000 F8000.0
G0 X81.0856 Y-137.5743 F15000.0
G1 Z11.9000 F8000.0
G1 X81.1741 Y-137.3532 F12000.0
G1 X80.9087 Y-136.4686
G1 Z0.0000 F8000.0
G0 X80.5991 Y-136.0264 F15000.0
G1 Z11.9000 F8000.0
G1 X80.0684 Y-135.6283 F12000.0
G1 Z0.0000 F8000.0
G0 X79.8473 Y-135.5399 F15000.0
G1 Z11.9000 F8000.0
G1 X78.3878 Y-135.6726 F12000.0
G1 Z0.0000 F8000.0
G0 X77.2723 Y-134.2906 F15000.0
G1 Z11.9000 F8000.0
G1 X72.6590 Y-135.9382 F12000.0
G1 X76.6957 Y-133.1373 F12000.0
G1 X76.6133 Y-133.9611 F12000.0
G1 X77.2723 Y-134.2906 F12000.0
G1 Z0.0000 F8000.0
G0 X75.4859 Y-134.9497 F15000.0
G1 Z11.9000 F8000.0
G1 X74.6102 Y-134.9497 F12000.0
G1 Z0.0000 F8000.0
G0 X74.4604 Y-134.8783 F15000.0
G1 Z11.9000 F8000.0
G1 X75.1415 Y-134.1972 F12000.0
G1 Z0.0000 F8000.0
G0 X81.4394 Y-135.0534 F15000.0
G1 Z11.9000 F8000.0
G1 X81.3510 Y-135.6283 F12000.0
G1 Z0.0000 F8000.0
G0 X81.6163 Y-134.9207 F15000.0
G1 Z11.9000 F8000.0
G1 X82.5451 Y-134.7438 F12000.0
G1 X83.5181 Y-135.2745
G1 Z0.0000 F8000.0
G0 X83.8719 Y-135.8052 F15000.0
G1 Z11.9000 F8000.0
G1 X84.1815 Y-136.2475 F12000.0
G1 Z0.0000 F8000.0
G0 X84.8007 Y-137.1763 F15000.0
G1 Z11.9000 F8000.0
G1 X85.1545 Y-137.6628 F12000.0
G1 X85.3314 Y-138.1935
G1 X85.2872 Y-138.3704
G1 Z0.0000 F8000.0
G0 X86.1242 Y-137.3595 F15000.0
G1 Z11.9000 F8000.0
G1 X86.1685 Y-137.6691 F12000.0
G1 X86.5665 Y-137.9787
G1 X86.9645 Y-138.0229
G1 X87.1414 Y-137.6249
G1 X87.0530 Y-137.4922
G1 Z0.0000 F8000.0
G0 X86.6550 Y-137.2268 F15000.0
G1 Z11.9000 F8000.0
G1 X86.3011 Y-137.2268 F12000.0
G1 Z0.0000 F8000.0
G0 X82.1028 Y-138.5031 F15000.0
G1 Z11.9000 F8000.0
G1 X82.3240 Y-139.0338 F12000.0
G1 X82.2797 Y-139.1665
G1 Z0.0000 F8000.0
G0 X82.1471 Y-139.3434 F15000.0
G1 Z11.9000 F8000.0
G1 X81.4836 Y-139.6087 F12000.0
G1 X81.1298 Y-139.6087
G1 Z0.0000 F8000.0
G0 X85.0313 Y-122.5927 F15000.0
G1 Z11.9000 F8000.0
G1 X85.9070 Y-122.5927 F12000.0
G1 Z0.0000 F8000.0
G0 X85.5774 Y-121.9748 F15000.0
G1 Z11.9000 F8000.0
G1 X84.7017 Y-121.9748 F12000.0
G1 Z0.0000 F8000.0
G0 X95.1640 Y-122.5927 F15000.0
G1 Z11.9000 F8000.0
G1 X96.0397 Y-122.5927 F12000.0
G1 Z0.0000 F8000.0
G0 X96.3280 Y-121.9748 F15000.0
G1 Z11.9000 F8000.0
G1 X95.4523 Y-121.9748 F12000.0
G1 Z0.0000 F8000.0
G0 X101.8991 Y-54.4963 F15000.0
G1 Z11.9000 F8000.0
G1 X101.7045 Y-54.0584 F12000.0
G1 Z0.0000 F8000.0
G0 X103.6992 Y-53.7179 F15000.0
G1 Z11.9000 F8000.0
G1 X103.7623 Y-52.7110 F12000.0
G1 X104.0234 Y-52.2978
G1 X104.5747 Y-52.0366
G1 X105.9011 Y-52.1536
G1 X105.9370 Y-50.7989
G1 Z0.0000 F8000.0
G0 X105.9370 Y-52.2098 F15000.0
G1 Z11.9000 F8000.0
G1 X105.9370 Y-53.7179 F12000.0
G1 Z0.0000 F8000.0
G0 X107.5425 Y-54.3503 F15000.0
G1 Z11.9000 F8000.0
G1 X107.9603 Y-54.8843 F12000.0
G1 X107.6395 Y-54.5487
G1 X107.8694 Y-54.8337
G1 X107.5741 Y-54.3764
G1 X107.3156 Y-52.6314
G1 X107.4516 Y-51.7643
G1 X108.2042 Y-50.7721
G1 X108.4360 Y-50.7256
G1 X109.1770 Y-50.8615
G1 X109.3612 Y-50.9869
G1 X109.6605 Y-51.4717
G1 X109.8637 Y-52.8426
G1 X109.6872 Y-54.2185
G1 X109.4617 Y-54.6599
G1 X109.2215 Y-54.8949
G1 X108.6392 Y-55.1017
G1 X108.1263 Y-55.0314
G1 Z0.0000 F8000.0
G0 X111.2885 Y-54.3503 F15000.0
G1 Z11.9000 F8000.0
G1 X111.5018 Y-54.7297 F12000.0
G1 X111.7178 Y-54.9150
G1 X111.3157 Y-54.3564
G1 X111.0607 Y-52.6121
G1 X111.2033 Y-51.7460
G1 X111.9663 Y-50.7632
G1 X112.2010 Y-50.7268
G1 X112.9396 Y-50.8680
G1 X113.1093 Y-50.9947
G1 X113.4141 Y-51.4893
G1 X113.6109 Y-52.8620
G1 X113.4284 Y-54.2370
G1 X113.1965 Y-54.6757
G1 X112.9509 Y-54.9037
G1 X112.3666 Y-55.1053
G1 X111.8723 Y-55.0314
G1 Z0.0000 F8000.0
G0 X111.1425 Y-51.8206 F15000.0
G1 Z11.9000 F8000.0
G1 X111.5327 Y-51.0355 F12000.0
G1 X111.8723 Y-50.7989
G1 Z0.0000 F8000.0
G0 X108.1263 Y-50.7989 F15000.0
G1 Z11.9000 F8000.0
G1 X107.7508 Y-51.0903 F12000.0
G1 X107.3965 Y-51.8206
G1 Z0.0000 F8000.0
G0 X102.4343 Y-50.7989 F15000.0
G1 Z11.9000 F8000.0
G1 X102.2151 Y-54.6621 F12000.0
G1 X101.9597 Y-54.5256
G1 X101.8217 Y-54.3228
G1 X100.7824 Y-51.3909
G1 X100.6275 Y-51.1202
G1 X100.4685 Y-51.0312
G1 X99.9992 Y-51.7917
G1 X99.1293 Y-54.3465
G1 X98.6778 Y-54.7333
G1 X99.0653 Y-54.4505
G1 X98.5034 Y-54.6551
G1 X98.4450 Y-50.8476
G1 Z0.0000 F8000.0
G0 X97.0501 Y-34.9704 F15000.0
G1 Z11.9000 F8000.0
G1 X97.0517 Y-33.2392 F12000.0
G1 X97.1191 Y-33.0524
G1 X99.6006 Y-32.9170
G1 X100.1114 Y-32.5561
G1 X100.2343 Y-32.3464
G1 X100.3350 Y-31.8562
G1 X100.1581 Y-31.2649
G1 X99.5737 Y-30.8059
G1 X99.0818 Y-30.7178
G1 X98.8636 Y-30.7630
G1 X97.0501 Y-33.0244
G1 Z0.0000 F8000.0
G0 X94.9581 Y-30.7865 F15000.0
G1 Z11.9000 F8000.0
G1 X91.9238 Y-34.9880 F12000.0
G1 X91.6953 Y-31.1748
G1 X91.6005 Y-30.9373
G1 X91.4359 Y-30.8041
G1 X90.9513 Y-30.7104
G1 X90.6207 Y-30.8631
G1 X89.5687 Y-31.7469
G1 X89.6900 Y-32.5849
G1 X89.6219 Y-33.5292
G1 X89.4108 Y-34.2322
G1 X89.1402 Y-34.5813
G1 X88.4500 Y-35.0800
G1 X87.0743 Y-35.0424
G1 X86.4494 Y-34.6434
G1 X86.0662 Y-34.0815
G1 X85.9099 Y-33.6028
G1 X85.8263 Y-32.8495
G1 X85.9181 Y-32.1009
G1 X86.2019 Y-31.4005
G1 X86.5239 Y-31.0325
G1 X87.0735 Y-30.7374
G1 X87.8155 Y-30.6092
G1 X88.3135 Y-30.6833
G1 X88.8713 Y-30.9276
G1 X89.2921 Y-31.3384
G1 X89.1868 Y-31.2117
G1 X89.4165 Y-31.5640
G1 X88.9804 Y-31.0089
G1 X88.4391 Y-30.6892
G1 Z0.0000 F8000.0
G0 X84.9363 Y-30.3487 F15000.0
G1 Z11.9000 F8000.0
G1 X83.8511 Y-31.2664 F12000.0
G1 X82.8407 Y-32.8629
G1 X82.3569 Y-33.4030
G1 X82.0660 Y-33.6082
G1 Z0.0000 F8000.0
G0 X80.5579 Y-33.9974 F15000.0
G1 Z11.9000 F8000.0
G1 X80.5579 Y-36.9164 F12000.0
G1 Z0.0000 F8000.0
G0 X84.5471 Y-37.0137 F15000.0
G1 Z11.9000 F8000.0
G1 X83.9378 Y-36.8571 F12000.0
G1 X83.4470 Y-36.4724
G1 X82.5936 Y-34.7842
G1 X81.9614 Y-34.0088
G1 X82.0477 Y-33.7114
G1 X82.0613 Y-34.1492
G1 X82.4985 Y-34.6173
G1 X82.0945 Y-34.2735
G1 X80.6297 Y-33.9822
G1 X80.5753 Y-33.9013
G1 X80.5579 Y-30.8352
G1 Z0.0000 F8000.0
G0 X86.4931 Y-34.6785 F15000.0
G1 Z11.9000 F8000.0
G1 X86.5418 Y-34.7758 F12000.0
G1 Z0.0000 F8000.0
G0 X99.8717 Y-30.9325 F15000.0
G1 Z11.9000 F8000.0
G1 X100.0663 Y-31.1271 F12000.0
G1 Z0.0000 F8000.0
G0 X102.2556 Y-35.0190 F15000.0
G1 Z11.9000 F8000.0
G1 X105.3684 Y-30.7470 F12000.0
G1 X106.0565 Y-30.6535
G1 X106.1475 Y-29.2784
G1 Z0.0000 F8000.0
G0 X105.4664 Y-30.7865 F15000.0
G1 Z11.9000 F8000.0
G1 X105.4664 Y-34.9704 F12000.0
G1 Z0.0000 F8000.0
G0 X107.9476 Y-34.5325 F15000.0
G1 Z11.9000 F8000.0
G1 X108.2939 Y-34.8022 F12000.0
G1 X109.8473 Y-35.1030
G1 X108.7168 Y-35.0545
G1 X108.0915 Y-34.6547
G1 X107.7041 Y-34.1593
G1 X107.5288 Y-33.6877
G1 X107.4254 Y-32.8108
G1 X107.5704 Y-31.9445
G1 X107.8221 Y-31.3673
G1 X108.1544 Y-31.0098
G1 X108.7111 Y-30.7267
G1 X109.3297 Y-30.6089
G1 X109.9515 Y-30.6925
G1 X110.4914 Y-30.9348
G1 X110.9043 Y-31.3509
G1 X110.7751 Y-31.1993
G1 X111.0181 Y-31.5824
G1 X110.1291 Y-30.7504
G1 X110.7083 Y-31.1526
G1 X111.2547 Y-32.4245
G1 X111.2452 Y-33.4237
G1 X111.0111 Y-34.2400
G1 X110.5705 Y-34.7528
G1 X110.1193 Y-35.0437
G1 X110.6526 Y-34.6725
G1 X110.9638 Y-34.3379
G1 Z0.0000 F8000.0
G0 X111.2135 Y-16.0690 F15000.0
G1 Z11.9000 F8000.0
G1 X109.9691 Y-16.0651 F12000.0
G1 X109.7921 Y-15.8920
G1 X109.6598 Y-15.1947
G1 X109.6964 Y-14.7945
G1 X109.7629 Y-14.7378
G1 X110.7512 Y-14.8258
G1 X111.3197 Y-14.3792
G1 X111.4765 Y-13.7856
G1 X111.3321 Y-13.2978
G1 X111.0166 Y-12.8910
G1 X110.0991 Y-12.7819
G1 X109.8140 Y-12.9927
G1 X109.9486 Y-12.8581
G1 Z0.0000 F8000.0
G0 X108.2945 Y-13.1500 F15000.0
G1 Z11.9000 F8000.0
G1 X108.0026 Y-12.8581 F12000.0
G1 Z0.0000 F8000.0
G0 X107.1269 Y-12.8581 F15000.0
G1 Z11.9000 F8000.0
G1 X106.9323 Y-12.9554 F12000.0
G1 Z0.0000 F8000.0
G0 X106.6404 Y-13.5392 F15000.0
G1 Z11.9000 F8000.0
G1 X106.5432 Y-13.7338 F12000.0
G1 Z0.0000 F8000.0
G0 X106.6404 Y-15.2906 F15000.0
G1 Z11.9000 F8000.0
G1 X106.5759 Y-15.1584 F12000.0
G1 X107.1457 Y-16.0469
G1 X107.6410 Y-16.1331
G1 X108.2379 Y-15.7803
G1 X108.3890 Y-15.1778
G1 X108.4751 Y-13.7118
G1 X108.3238 Y-13.2136
G1 X108.0044 Y-12.8147
G1 X107.1972 Y-12.8084
G1 X106.6477 Y-13.4110
G1 X106.5591 Y-15.0818
G1 X106.8239 Y-15.6478
G1 X107.0908 Y-16.0096
G1 X106.8350 Y-15.6798
G1 Z0.0000 F8000.0
G0 X103.9161 Y-15.2906 F15000.0
G1 Z11.9000 F8000.0
G1 X104.7611 Y-15.6204 F12000.0
G1 X104.8891 Y-12.8581
G1 Z0.0000 F8000.0
G0 X99.9375 Y-12.8581 F15000.0
G1 Z11.9000 F8000.0
G1 X99.8888 Y-16.1176 F12000.0
G1 Z0.0000 F8000.0
G0 X98.7212 Y-16.1176 F15000.0
G1 Z11.9000 F8000.0
G1 X101.1537 Y-16.1176 F12000.0
G1 Z0.0000 F8000.0
G0 X97.8942 Y-15.4365 F15000.0
G1 Z11.9000 F8000.0
G1 X97.6747 Y-15.8236 F12000.0
G1 X97.0461 Y-16.1487
G1 X96.1809 Y-16.0664
G1 X95.7762 Y-15.7751
G1 X95.4638 Y-15.3674
G1 X95.7536 Y-15.8257
G1 Z0.0000 F8000.0
G0 X95.6563 Y-15.7284 F15000.0
G1 Z11.9000 F8000.0
G1 X95.3750 Y-15.1665 F12000.0
G1 X95.2802 Y-14.2898
G1 X95.3586 Y-13.7944
G1 X95.5689 Y-13.3430
G1 X95.9641 Y-12.9512
G1 X96.5491 Y-12.7820
G1 X97.2885 Y-12.9040
G1 X97.7889 Y-13.2674
G1 X97.7389 Y-13.1709
G1 X97.7940 Y-13.2636
G1 X97.4563 Y-12.9068
G1 Z0.0000 F8000.0
G0 X91.5521 Y-13.3652 F15000.0
G1 Z11.9000 F8000.0
G1 X92.0098 Y-12.9578 F12000.0
G1 X92.2221 Y-12.8780
G1 X91.3917 Y-13.7642
G1 X91.2880 Y-13.9756
G1 X91.2867 Y-14.9816
G1 X91.4299 Y-15.4371
G1 X90.7325 Y-16.0912
G1 X89.0999 Y-16.1157
G1 X88.9196 Y-16.0419
G1 X88.8454 Y-12.9068
G1 Z0.0000 F8000.0
G0 X91.3222 Y-13.7910 F15000.0
G1 Z11.9000 F8000.0
G1 X91.6007 Y-13.2959 F12000.0
G1 X92.3339 Y-12.8186
G1 X92.7046 Y-12.7755
G1 X93.3255 Y-12.8660
G1 X93.8209 Y-13.1843
G1 X94.0931 Y-13.6327
G1 X94.2311 Y-14.1107
G1 X94.1482 Y-15.1165
G1 X93.9683 Y-15.5730
G1 X93.5970 Y-15.9164
G1 X93.0230 Y-16.1478
G1 X92.1499 Y-16.0582
G1 X91.6350 Y-15.6892
G1 X92.1049 Y-16.0690
G1 Z0.0000 F8000.0
G0 X85.8717 Y-12.9554 F15000.0
G1 Z11.9000 F8000.0
G1 X85.7744 Y-12.8581 F12000.0
G1 Z0.0000 F8000.0
G0 X84.8987 Y-12.8581 F15000.0
G1 Z11.9000 F8000.0
G1 X84.7041 Y-12.9554 F12000.0
G1 Z0.0000 F8000.0
G0 X84.4122 Y-13.5392 F15000.0
G1 Z11.9000 F8000.0
G1 X84.3149 Y-13.7338 F12000.0
G1 Z0.0000 F8000.0
G0 X84.3149 Y-15.0960 F15000.0
G1 Z11.9000 F8000.0
G1 X84.8582 Y-15.9984 F12000.0
G1 Z0.0000 F8000.0
G0 X84.8987 Y-16.0690 F15000.0
G1 Z11.9000 F8000.0
G1 X85.5081 Y-16.1280 F12000.0
G1 X85.9365 Y-15.8620
G1 X86.0735 Y-15.6054
G1 X86.2497 Y-13.7301
G1 X86.1029 Y-13.2311
G1 X85.8357 Y-12.8496
G1 X85.5472 Y-12.7622
G1 X85.0299 Y-12.7794
G1 X84.4399 Y-13.3456
G1 X84.3383 Y-15.1121
G1 Z0.0000 F8000.0
G0 X83.2446 Y-12.7608 F15000.0
G1 Z11.9000 F8000.0
G1 X81.6507 Y-12.8939 F12000.0
G1 X81.7754 Y-13.3313
G1 X82.4991 Y-13.9755
G1 X83.2448 Y-14.8479
G1 X83.3200 Y-15.1486
G1 X83.1788 Y-15.7521
G1 X83.0712 Y-15.9006
G1 X82.5161 Y-16.1407
G1 X81.7851 Y-15.9717
G1 Z0.0000 F8000.0
G0 X77.1330 Y-15.0960 F15000.0
G1 Z11.9000 F8000.0
G1 X77.1529 Y-12.9538 F12000.0
G1 X77.2113 Y-12.8950
G1 X78.7715 Y-13.1514
G1 X78.7292 Y-13.8160
G1 X77.1330 Y-14.1230
G1 Z0.0000 F8000.0
G0 X76.0140 Y-12.8581 F15000.0
G1 Z11.9000 F8000.0
G1 X75.9536 Y-15.0395 F12000.0
G1 X74.1654 Y-12.8095
G1 Z0.0000 F8000.0
G0 X72.8518 Y-14.0743 F15000.0
G1 Z11.9000 F8000.0
G1 X72.8861 Y-13.0325 F12000.0
G1 X73.1601 Y-12.6847
G1 X72.8321 Y-12.9787
G1 X72.0337 Y-12.7585
G1 X71.6707 Y-12.7754
G1 X71.2223 Y-12.9778
G1 X71.1511 Y-13.1967
G1 X71.1680 Y-13.5699
G1 X71.3069 Y-13.7596
G1 X71.5307 Y-13.8639
G1 X72.8710 Y-14.1058
G1 X72.9155 Y-14.1912
G1 X72.8161 Y-14.7998
G1 X72.7022 Y-14.9946
G1 X72.2436 Y-15.1699
G1 X71.7443 Y-15.1491
G1 X71.4426 Y-15.0382
G1 X71.1800 Y-14.8090
G1 X70.3751 Y-15.1236
G1 X69.4950 Y-15.0960
G1 Z0.0000 F8000.0
G0 X69.4950 Y-12.8581 F15000.0
G1 Z11.9000 F8000.0
G1 X69.4751 Y-15.0037 F12000.0
G1 X69.4165 Y-15.0747
G1 X68.5618 Y-15.1688
G1 X67.8400 Y-15.3945
G1 X67.3709 Y-15.9078
G1 X66.8048 Y-16.1518
G1 X66.1762 Y-16.1232
G1 X65.5381 Y-15.7689
G1 X65.2637 Y-15.3546
G1 X65.0822 Y-14.2413
G1 X65.1724 Y-13.7479
G1 X65.4084 Y-13.2473
G1 Z0.0000 F8000.0
G0 X65.9436 Y-12.8581 F15000.0
G1 Z11.9000 F8000.0
G1 X65.5814 Y-13.1253 F12000.0
G1 X65.9704 Y-12.8686
G1 X66.4605 Y-12.7753
G1 X67.0839 Y-12.8568
G1 X67.3053 Y-12.9577
G1 X67.5803 Y-13.2492
G1 X67.7436 Y-13.5878
G1 Z0.0000 F8000.0
G0 X65.1652 Y-15.1933 F15000.0
G1 Z11.9000 F8000.0
G1 X65.2138 Y-15.2906 F12000.0
G1 Z0.0000 F8000.0
G0 X63.2677 Y-15.0870 F15000.0
G1 Z11.9000 F8000.0
G1 X0.0000 Y-15.0870 F12000.0
G1 Z0.0000 F8000.0
G0 X0.8804 Y-14.3918 F15000.0
G1 Z11.9000 F8000.0
G1 X0.8804 Y-12.5481 F12000.0
G1 X0.9349 Y-13.4792
G1 X2.2523 Y-13.5090
G1 X2.3362 Y-14.2929
G1 X2.3399 Y-12.3971
G1 Z0.0000 F8000.0
G0 X1.6976 Y-11.5119 F15000.0
G1 Z11.9000 F8000.0
G1 X2.3541 Y-10.4452 F12000.0
G1 X2.6934 Y-10.5286
G1 X2.5338 Y-10.3534
G1 X2.7057 Y-10.5165
G1 X2.6180 Y-10.3647
G1 Z0.0000 F8000.0
G0 X3.1495 Y-11.3979 F15000.0
G1 Z11.9000 F8000.0
G1 X2.2465 Y-9.6252 F12000.0
G1 X1.9708 Y-9.5745
G1 X2.7968 Y-10.5750
G1 X3.4736 Y-10.8999
G1 X4.5593 Y-10.9767
G1 X4.1650 Y-10.9163
G1 X4.2436 Y-9.6863
G1 X5.2698 Y-10.3262
G1 X5.8956 Y-10.3001
G1 X6.2002 Y-10.1560
G1 X6.1367 Y-10.7353
G1 X6.2159 Y-9.7344
G1 X5.8958 Y-9.6287
G1 X5.3379 Y-10.1214
G1 X5.2411 Y-10.3096
G1 X5.9788 Y-10.9767
G1 Z0.0000 F8000.0
G0 X3.9940 Y-12.3971 F15000.0
G1 Z11.9000 F8000.0
G1 X4.0185 Y-13.0138 F12000.0
G1 X4.5122 Y-13.3358
G1 X4.8697 Y-13.8080
G1 Z0.0000 F8000.0
G0 X3.9940 Y-13.7593 F15000.0
G1 Z11.9000 F8000.0
G1 X4.0688 Y-13.1917 F12000.0
G1 X4.5320 Y-12.9236
G1 X4.4475 Y-13.1616
G1 X4.4462 Y-13.0537
G1 X4.8419 Y-12.4773
G1 X5.3742 Y-12.8527
G1 X5.4642 Y-13.4566
G1 X5.7231 Y-13.7626
G1 X5.6613 Y-13.7138
G1 X6.0546 Y-13.8066
G1 X6.3885 Y-13.6940
G1 X6.4976 Y-13.5011
G1 X6.5914 Y-12.7606
G1 X6.4655 Y-12.5662
G1 X6.0061 Y-12.3867
G1 X5.7840 Y-12.4346
G1 X5.4501 Y-12.7348
G1 X5.6066 Y-12.5057
G1 X5.7943 Y-12.4117
G1 X7.1476 Y-12.4311
G1 X7.2049 Y-13.6758
G1 X7.2495 Y-13.1636
G1 X8.1852 Y-13.0414
G1 X8.2694 Y-12.5023
G1 X8.3082 Y-13.7027
G1 X8.7533 Y-13.7983
G1 X9.9293 Y-13.8080
G1 Z0.0000 F8000.0
G0 X9.3455 Y-13.8080 F15000.0
G1 Z11.9000 F8000.0
G1 X9.4267 Y-12.4567 F12000.0
G1 X10.5015 Y-12.5258
G1 X11.2125 Y-12.4151
G1 X11.5085 Y-12.6368
G1 X11.6087 Y-12.8475
G1 X11.5147 Y-13.5858
G1 X11.2233 Y-13.7401
G1 X10.6242 Y-13.6397
G1 X10.4828 Y-12.8160
G1 X10.5400 Y-11.8412
G1 X11.5347 Y-12.6404
G1 Z0.0000 F8000.0
G0 X16.5584 Y-5.3662 F15000.0
G1 Z11.9000 F8000.0
G1 X16.5584 Y-58.9131 F12000.0
G1 Z0.0000 F8000.0
G0 X6.8375 Y-58.9131 F15000.0
G1 Z11.9000 F8000.0
G1 X6.8375 Y-34.6110 F12000.0
G1 Z0.0000 F8000.0
G0 X7.0322 Y-33.7740 F15000.0
G1 Z11.9000 F8000.0
G1 X6.9835 Y-33.6767 F12000.0
G1 Z0.0000 F8000.0
G0 X6.0105 Y-33.6281 F15000.0
G1 Z11.9000 F8000.0
G1 X6.6090 Y-33.4656 F12000.0
G1 X6.9537 Y-33.6738
G1 X7.0534 Y-33.8835
G1 X6.9541 Y-34.6183
G1 X6.7913 Y-34.7864
G1 X6.3112 Y-34.7830
G1 X6.0347 Y-34.5866
G1 X5.9619 Y-32.8497
G1 Z0.0000 F8000.0
G0 X4.5997 Y-33.4821 F15000.0
G1 Z11.9000 F8000.0
G1 X4.9537 Y-33.5084 F12000.0
G1 X5.2593 Y-33.6790
G1 X5.1374 Y-34.0914
G1 X4.9895 Y-34.1613
G1 X5.1659 Y-34.2345
G1 X5.2064 Y-34.6867
G1 X4.9093 Y-34.8190
G1 X4.6829 Y-34.7871
G1 X4.5024 Y-34.6011
G1 Z0.0000 F8000.0
G0 X3.7240 Y-34.7957 F15000.0
G1 Z11.9000 F8000.0
G1 X3.8463 Y-34.3069 F12000.0
G1 X3.8469 Y-33.5404
G1 X3.5339 Y-33.6381
G1 X3.1633 Y-34.0785
G1 X3.7874 Y-34.1648
G1 X3.9082 Y-33.5007
G1 X3.0396 Y-33.4782
G1 X2.9063 Y-33.9705
G1 X3.0307 Y-34.0547
G1 X2.8451 Y-33.6594
G1 X2.9294 Y-34.5656
G1 X3.6267 Y-34.8443
G1 Z0.0000 F8000.0
G0 X2.3132 Y-34.7470 F15000.0
G1 Z11.9000 F8000.0
G1 X2.2216 Y-35.1175 F12000.0
G1 X1.0302 Y-35.3861
G1 X0.9447 Y-35.2305
G1 X0.9053 Y-33.5713
G1 X1.0077 Y-34.3380
G1 X2.2645 Y-34.6497
G1 Z0.0000 F8000.0
G0 X0.0000 Y-34.6110 F15000.0
G1 Z11.9000 F8000.0
G1 X63.2677 Y-34.6110 F12000.0
G1 Z0.0000 F8000.0
G0 X61.3329 Y-36.7023 F15000.0
G1 Z11.9000 F8000.0
G1 X61.2824 Y-36.6252 F12000.0
G1 X60.9984 Y-36.5812
G1 X61.0648 Y-36.6541
G1 Z0.0000 F8000.0
G0 X61.2816 Y-37.3549 F15000.0
G1 Z11.9000 F8000.0
G1 X61.3474 Y-36.6094 F12000.0
G1 X60.3198 Y-36.5687
G1 X60.1327 Y-36.8465
G1 X60.3872 Y-37.2479
G1 X61.2813 Y-37.5499
G1 X61.2491 Y-37.8853
G1 X60.9553 Y-38.0884
G1 X60.4653 Y-38.0569
G1 X60.2930 Y-37.9560
G1 X60.3350 Y-38.0163
G1 Z0.0000 F8000.0
G0 X59.6540 Y-38.0650 F15000.0
G1 Z11.9000 F8000.0
G1 X58.6492 Y-38.0623 F12000.0
G1 X58.4294 Y-37.9866
G1 X57.9675 Y-37.4165
G1 X57.9578 Y-36.6936
G1 X57.1985 Y-36.5360
G1 X56.9629 Y-36.5688
G1 X56.7759 Y-36.8465
G1 X57.1354 Y-37.3017
G1 X57.8557 Y-37.4793
G1 X57.9366 Y-37.7767
G1 X57.8111 Y-37.9723
G1 X57.5985 Y-38.0884
G1 X57.1085 Y-38.0569
G1 X56.9361 Y-37.9560
G1 X56.9782 Y-38.0163
G1 Z0.0000 F8000.0
G0 X59.0215 Y-38.0650 F15000.0
G1 Z11.9000 F8000.0
G1 X59.0702 Y-36.6055 F12000.0
G1 Z0.0000 F8000.0
G0 X54.8377 Y-38.7461 F15000.0
G1 Z11.9000 F8000.0
G1 X55.8761 Y-38.6868 F12000.0
G1 X55.9716 Y-36.6351
G1 X56.1225 Y-36.5474
G1 X56.1820 Y-36.1239
G1 X55.8424 Y-36.5848
G1 X54.6102 Y-36.6260
G1 X54.3136 Y-36.1157
G1 X54.3171 Y-36.4289
G1 X54.5878 Y-36.7915
G1 X54.6894 Y-37.1528
G1 X54.7890 Y-38.6488
G1 Z0.0000 F8000.0
G0 X49.2865 Y-36.9298 F15000.0
G1 Z11.9000 F8000.0
G1 X49.2072 Y-38.2124 F12000.0
G1 X48.2633 Y-36.9441
G1 X47.7139 Y-36.5114
G1 X47.5586 Y-36.8775
G1 X46.5107 Y-36.9283
G1 X47.3807 Y-36.9077
G1 X47.4543 Y-36.9689
G1 X47.3954 Y-38.2060
G1 X46.5014 Y-37.0417
G1 X46.2428 Y-36.5750
G1 X46.2703 Y-36.8811
G1 Z0.0000 F8000.0
G0 X45.7838 Y-38.0974 F15000.0
G1 Z11.9000 F8000.0
G1 X45.5674 Y-38.2400 F12000.0
G1 X45.7428 Y-37.9999
G1 X45.8491 Y-37.2640
G1 X45.6728 Y-36.9892
G1 X45.7160 Y-37.0621
G1 X45.3069 Y-36.9132
G1 X44.9611 Y-36.9921
G1 X44.8081 Y-37.1641
G1 X44.6905 Y-37.5151
G1 X44.9079 Y-38.1448
G1 X45.4919 Y-38.2920
G1 Z0.0000 F8000.0
G0 X44.0324 Y-36.9298 F15000.0
G1 Z11.9000 F8000.0
G1 X43.9278 Y-38.7791 F12000.0
G1 X42.5729 Y-36.9298
G1 Z0.0000 F8000.0
G0 X36.0214 Y-32.8258 F15000.0
G1 Z11.9000 F8000.0
G1 X35.0335 Y-32.8948 F12000.0
G1 X34.9725 Y-32.9630
G1 X34.9511 Y-33.7015
G1 Z0.0000 F8000.0
G0 X34.9997 Y-33.7988 F15000.0
G1 Z11.9000 F8000.0
G1 X36.1800 Y-33.1340 F12000.0
G1 X36.0918 Y-32.8695
G1 X36.3555 Y-32.2767
G1 X35.0328 Y-31.8160
G1 X34.9511 Y-32.7771
G1 Z0.0000 F8000.0
G0 X33.4430 Y-33.7988 F15000.0
G1 Z11.9000 F8000.0
G1 X32.7022 Y-32.9413 F12000.0
G1 X32.2819 Y-32.7627
G1 X32.5755 Y-32.7916
G1 X32.6598 Y-32.6669
G1 X32.2424 Y-31.8452
G1 X33.4893 Y-31.6335
G1 X32.8541 Y-32.5167
G1 X32.2184 Y-32.8520
G1 X32.1781 Y-33.7501
G1 Z0.0000 F8000.0
G0 X30.7414 Y-32.2420 F15000.0
G1 Z11.9000 F8000.0
G1 X30.6137 Y-32.4061 F12000.0
G1 X30.6683 Y-32.8506
G1 X30.5920 Y-33.0469
G1 X30.5049 Y-33.0588
G1 X29.7204 Y-32.4835
G1 X29.7160 Y-32.3888
G1 X30.4348 Y-31.7693
G1 X30.7207 Y-32.1954
G1 X29.6711 Y-32.4852
G1 Z0.0000 F8000.0
G0 X28.1630 Y-33.1663 F15000.0
G1 Z11.9000 F8000.0
G1 X28.6265 Y-33.1358 F12000.0
G1 X28.8131 Y-33.0098
G1 X29.0114 Y-32.3209
G1 X28.9702 Y-32.0885
G1 X28.7882 Y-31.8315
G1 X28.3394 Y-31.7260
G1 X28.1255 Y-31.8209
G1 X27.8112 Y-32.2014
G1 X27.7713 Y-32.5461
G1 X27.7568 Y-32.3348
G1 X27.8326 Y-32.6948
G1 X28.0855 Y-33.1011
G1 X27.8640 Y-32.8172
G1 X27.9123 Y-31.9714
G1 X28.1630 Y-31.7555
G1 Z0.0000 F8000.0
G0 X26.0710 Y-31.9014 F15000.0
G1 Z11.9000 F8000.0
G1 X26.1603 Y-32.9909 F12000.0
G1 X26.7444 Y-33.1369
G1 X26.9617 Y-33.0700
G1 X27.0964 Y-32.8722
G1 X27.2065 Y-32.2627
G1 X27.0141 Y-31.8573
G1 X26.8362 Y-31.7506
G1 X26.1385 Y-31.8521
G1 X26.0224 Y-31.1230
G1 Z0.0000 F8000.0
G0 X24.5629 Y-31.7555 F15000.0
G1 Z11.9000 F8000.0
G1 X24.3122 Y-31.9714 F12000.0
G1 X24.2640 Y-32.8172
G1 X24.4854 Y-33.1011
G1 X24.2326 Y-32.6948
G1 X24.1737 Y-32.3379
G1 X24.1795 Y-32.5398
G1 X24.2112 Y-32.2001
G1 X24.5345 Y-31.8128
G1 X24.7516 Y-31.7258
G1 X25.1125 Y-31.7845
G1 X25.4105 Y-32.2130
G1 X25.3163 Y-32.8275
G1 X25.2052 Y-33.0188
G1 X25.0148 Y-33.1400
G1 X24.5629 Y-33.1663
G1 Z0.0000 F8000.0
G0 X22.4223 Y-32.1933 F15000.0
G1 Z11.9000 F8000.0
G1 X22.6277 Y-33.0853 F12000.0
G1 X22.8140 Y-33.1640
G1 X23.3712 Y-33.0905
G1 X23.4529 Y-31.8630
G1 X23.6323 Y-31.6128
G1 X23.6528 Y-31.3494
G1 X23.4633 Y-31.5976
G1 X23.2668 Y-31.7086
G1 X22.2761 Y-31.7155
G1 X22.1112 Y-31.3479
G1 X21.5820 Y-31.7409
G1 X21.2418 Y-31.7379
G1 X20.7670 Y-31.8717
G1 X20.6244 Y-32.0438
G1 X20.5438 Y-32.5359
G1 X20.7353 Y-32.9793
G1 X21.3170 Y-33.1397
G1 X21.5647 Y-32.9903
G1 X21.6901 Y-32.5935
G1 X20.8216 Y-32.9136
G1 X20.7682 Y-33.0690
G1 Z0.0000 F8000.0
G0 X19.6493 Y-33.4096 F15000.0
G1 Z11.9000 F8000.0
G1 X19.8951 Y-32.6949 F12000.0
G1 X19.8585 Y-32.4734
G1 X19.5985 Y-32.2316
G1 X19.0179 Y-32.1422
G1 X18.9195 Y-33.5555
G1 Z0.0000 F8000.0
G0 X19.5520 Y-33.4582 F15000.0
G1 Z11.9000 F8000.0
G1 X18.8882 Y-33.5674 F12000.0
G1 X18.4706 Y-33.4004
G1 X18.0893 Y-32.6428
G1 X18.3269 Y-32.2460
G1 X18.8772 Y-32.0333
G1 X19.0290 Y-31.8218
G1 X19.7952 Y-32.3393
G1 Z0.0000 F8000.0
G0 X19.6349 Y-30.3001 F15000.0
G1 Z11.9000 F8000.0
G1 X20.1814 Y-28.9409 F12000.0
G1 X19.9809 Y-28.2178
G1 X20.0096 Y-28.2913
G1 X19.8036 Y-28.1619
G1 X20.0864 Y-28.4278
G1 X20.1670 Y-28.9121
G1 X20.4154 Y-29.2785
G1 X20.8024 Y-30.3487
G1 Z0.0000 F8000.0
G0 X21.3862 Y-30.2028 F15000.0
G1 Z11.9000 F8000.0
G1 X21.7203 Y-30.3213 F12000.0
G1 X22.0475 Y-30.2386
G1 X22.0932 Y-29.7767
G1 X21.8248 Y-29.5782
G1 X22.0069 Y-29.5393
G1 X22.2191 Y-29.1238
G1 X22.1556 Y-28.9118
G1 X21.9602 Y-28.7866
G1 X21.5980 Y-28.7876
G1 X21.3512 Y-28.9664
G1 X21.5322 Y-28.7919
G1 Z0.0000 F8000.0
G0 X22.9917 Y-30.2028 F15000.0
G1 Z11.9000 F8000.0
G1 X23.1929 Y-30.2961 F12000.0
G1 X23.8847 Y-29.7268
G1 X23.0904 Y-29.5025
G1 X22.9064 Y-29.3473
G1 X22.8565 Y-29.0103
G1 X23.0043 Y-28.8272
G1 X23.2292 Y-28.7758
G1 X23.6900 Y-28.9176
G1 X23.9497 Y-29.5664
G1 X24.0482 Y-28.8901
G1 X24.5082 Y-28.8743
G1 X24.7078 Y-28.9406
G1 X24.7431 Y-30.1496
G1 X24.8177 Y-29.6426
G1 X25.5473 Y-29.5822
G1 X25.7393 Y-29.6385
G1 X25.8098 Y-30.1646
G1 X25.8329 Y-28.9377
G1 X25.9926 Y-28.8772
G1 X26.5387 Y-29.0317
G1 X26.4347 Y-29.6006
G1 X26.6445 Y-30.1603
G1 X27.0206 Y-30.3454
G1 X27.3753 Y-30.2845
G1 X27.5796 Y-30.0301
G1 X27.6511 Y-29.1776
G1 X27.4312 Y-28.8590
G1 X27.6143 Y-29.0604
G1 X27.1863 Y-28.7804
G1 X26.6890 Y-28.8892
G1 Z0.0000 F8000.0
G0 X28.3918 Y-29.5217 F15000.0
G1 Z11.9000 F8000.0
G1 X28.4556 Y-30.2060 F12000.0
G1 X28.5184 Y-30.2420
G1 X29.3609 Y-29.8340
G1 X29.3136 Y-29.6067
G1 X28.4752 Y-29.5368
G1 X29.0755 Y-28.8646
G1 X29.2854 Y-28.8688
G1 X29.4254 Y-29.0300
G1 X29.3524 Y-29.6855
G1 X29.4091 Y-29.4802
G1 X30.4271 Y-30.2966
G1 X31.1425 Y-29.7330
G1 X30.3556 Y-29.5099
G1 X30.1640 Y-29.3627
G1 X30.0998 Y-29.0264
G1 X30.2383 Y-28.8372
G1 X30.4598 Y-28.7768
G1 X31.1532 Y-28.9758
G1 X31.2462 Y-28.9196
G1 X31.2134 Y-29.6190
G1 Z0.0000 F8000.0
G0 X30.0344 Y-36.0796 F15000.0
G1 Z11.9000 F8000.0
G1 X30.3557 Y-36.3242 F12000.0
G1 X30.8318 Y-37.5482
G1 X30.7385 Y-37.3244
G1 X30.4084 Y-37.0968
G1 X30.6668 Y-37.1012
G1 Z0.0000 F8000.0
G0 X31.6398 Y-37.9282 F15000.0
G1 Z11.9000 F8000.0
G1 X32.2722 Y-37.0039 F12000.0
G1 Z0.0000 F8000.0
G0 X33.0020 Y-36.8093 F15000.0
G1 Z11.9000 F8000.0
G1 X32.8600 Y-37.8103 F12000.0
G1 X32.7060 Y-37.6906
G1 X32.2346 Y-36.8485
G1 X31.5777 Y-36.8709
G1 X31.5363 Y-37.8039
G1 X31.0136 Y-37.9674
G1 X31.0279 Y-38.0946
G1 X30.7388 Y-37.3174
G1 X30.4065 Y-37.1579
G1 X30.3239 Y-37.1842
G1 X29.9505 Y-38.0819
G1 X29.7583 Y-38.1686
G1 X29.5221 Y-38.1413
G1 X29.0920 Y-37.7068
G1 X28.6805 Y-37.4419
G1 X28.5936 Y-36.8822
G1 X27.9345 Y-36.9668
G1 X27.5909 Y-36.7728
G1 X26.4185 Y-36.3742
G1 X26.2552 Y-36.7290
G1 X26.1657 Y-36.7754
G1 X24.9167 Y-36.4394
G1 X24.9184 Y-36.6402
G1 X26.0377 Y-38.0764
G1 X26.1180 Y-36.8702
G1 X26.0585 Y-36.7947
G1 X25.0721 Y-36.8093
G1 Z0.0000 F8000.0
G0 X26.9694 Y-37.9769 F15000.0
G1 Z11.9000 F8000.0
G1 X27.0181 Y-38.0742 F12000.0
G1 Z0.0000 F8000.0
G0 X27.6019 Y-38.1715 F15000.0
G1 Z11.9000 F8000.0
G1 X27.1105 Y-38.0644 F12000.0
G1 X26.9349 Y-37.9074
G1 X26.8038 Y-37.4307
G1 X26.9033 Y-37.0781
G1 X27.0441 Y-36.8956
G1 X27.2605 Y-36.7950
G1 X27.5022 Y-36.8110
G1 X27.9051 Y-37.0753
G1 X27.9623 Y-37.2925
G1 X27.8767 Y-37.7886
G1 X27.6701 Y-38.1266
G1 X27.8938 Y-37.9769
G1 Z0.0000 F8000.0
G0 X28.6235 Y-38.1228 F15000.0
G1 Z11.9000 F8000.0
G1 X28.6635 Y-37.5741 F12000.0
G1 X29.0961 Y-37.3913
G1 X29.1046 Y-37.5358
G1 X29.1309 Y-37.3327
G1 X29.4019 Y-36.8093
G1 Z0.0000 F8000.0
G0 X23.1048 Y-38.1715 F15000.0
G1 Z11.9000 F8000.0
G1 X23.3341 Y-38.2383 F12000.0
G1 X23.5006 Y-38.1594
G1 X23.6030 Y-37.9880
G1 X23.6540 Y-37.5895
G1 X23.3723 Y-37.3252
G1 X22.9920 Y-37.3760
G1 X23.4152 Y-37.2431
G1 X23.6469 Y-36.9705
G1 X23.4610 Y-37.3011
G1 X23.5278 Y-37.4689
G1 X22.9719 Y-37.5131
G1 X22.9102 Y-37.9769
G1 Z0.0000 F8000.0
G0 X22.4237 Y-38.6580 F15000.0
G1 Z11.9000 F8000.0
G1 X22.3931 Y-37.2023 F12000.0
G1 X22.2421 Y-37.1312
G1 X22.0036 Y-37.1874
G1 X22.2915 Y-37.0607
G1 X21.7844 Y-37.5224
G1 X21.8120 Y-37.4646
G1 X21.7156 Y-37.7031
G1 X21.1508 Y-38.3012
G1 X20.9928 Y-38.3138
G1 X20.9643 Y-36.8093
G1 Z0.0000 F8000.0
G0 X21.7427 Y-37.5877 F15000.0
G1 Z11.9000 F8000.0
G1 X21.3206 Y-38.1854 F12000.0
G1 X21.0616 Y-38.3661
G1 Z0.0000 F8000.0
G0 X14.8559 Y-38.0326 F15000.0
G1 Z11.9000 F8000.0
G1 X13.0674 Y-37.9914 F12000.0
G1 X12.4959 Y-37.7658
G1 X12.3917 Y-37.2966
G1 X12.4578 Y-36.9420
G1 X12.9832 Y-36.6595
G1 X13.3836 Y-36.8306
G1 X13.3478 Y-36.7677
G1 Z0.0000 F8000.0
G0 X14.3694 Y-36.6704 F15000.0
G1 Z11.9000 F8000.0
G1 X14.3208 Y-38.0326 F12000.0
G1 Z0.0000 F8000.0
G0 X11.5478 Y-37.7407 F15000.0
G1 Z11.9000 F8000.0
G1 X11.6994 Y-37.8903 F12000.0
G1 X11.1046 Y-37.1771
G1 X10.5732 Y-36.8567
G1 X9.9979 Y-36.7203
G1 X9.8765 Y-38.5222
G1 X9.8166 Y-38.5904
G1 X8.8720 Y-38.6164
G1 Z0.0000 F8000.0
G0 X8.8234 Y-38.5191 F15000.0
G1 Z11.9000 F8000.0
G1 X8.7731 Y-36.8402 F12000.0
G1 X8.6933 Y-36.6474
G1 X8.5315 Y-36.5731
G1 Z0.0000 F8000.0
G0 X10.5836 Y-35.4768 F15000.0
G1 Z11.9000 F8000.0
G1 X9.6173 Y-35.2891 F12000.0
G1 X9.4924 Y-35.1482
G1 X9.3992 Y-34.8069
G1 X9.4899 Y-33.7655
G1 X9.6343 Y-33.5729
G1 X9.9705 Y-33.4726
G1 X10.3237 Y-33.5917
G1 X10.5022 Y-33.7469
G1 X10.5565 Y-33.9754
G1 X10.3751 Y-34.6918
G1 X10.1723 Y-34.8043
G1 X9.8054 Y-34.8052
G1 X9.5413 Y-34.6749
G1 X10.2082 Y-34.7658
G1 X10.4049 Y-34.6748
G1 X10.4834 Y-34.4761
G1 X10.4376 Y-33.6281
G1 Z0.0000 F8000.0
G0 X8.7349 Y-33.4821 F15000.0
G1 Z11.9000 F8000.0
G1 X8.6209 Y-33.6613 F12000.0
G1 X8.6682 Y-34.2704
G1 X8.5311 Y-34.7407
G1 X8.3403 Y-34.8017
G1 X7.7749 Y-34.5888
G1 X7.6683 Y-33.7499
G1 X7.7411 Y-33.5371
G1 X7.9521 Y-33.4574
G1 X8.7254 Y-33.4945
G1 X8.6082 Y-34.1567
G1 X7.9771 Y-34.0853
G1 X8.4327 Y-33.5833
G1 X8.5890 Y-33.5794
G1 Z0.0000 F8000.0
G0 X6.2009 Y-36.6704 F15000.0
G1 Z11.9000 F8000.0
G1 X6.0898 Y-37.6477 F12000.0
G1 X5.8790 Y-37.5132
G1 X5.5110 Y-36.7663
G1 X4.8497 Y-37.7274
G1 X4.7488 Y-36.7520
G1 X4.7498 Y-37.6480
G1 X3.4042 Y-37.8453
G1 X3.6421 Y-38.0124
G1 X3.9859 Y-37.9376
G1 X4.0303 Y-37.4951
G1 X3.8251 Y-37.3522
G1 X3.9809 Y-37.2610
G1 X4.1049 Y-36.9371
G1 X4.0720 Y-36.8517
G1 X3.6407 Y-36.6576
G1 X2.6675 Y-36.6995
G1 X2.5824 Y-36.8839
G1 X2.4756 Y-38.1372
G1 X2.5614 Y-38.4000
G1 X2.0595 Y-37.8634
G1 X2.2524 Y-38.1163
G1 X1.5503 Y-37.1432
G1 X1.2391 Y-36.8376
G1 X1.1413 Y-38.5677
G1 Z0.0000 F8000.0
G0 X0.0000 Y-39.4714 F15000.0
G1 Z11.9000 F8000.0
G1 X63.2677 Y-39.4714 F12000.0
G1 Z0.0000 F8000.0
G0 X63.2677 Y-44.3318 F15000.0
G1 Z11.9000 F8000.0
G1 X0.0000 Y-44.3318 F12000.0
G1 Z0.0000 F8000.0
G0 X0.0000 Y-49.1922 F15000.0
G1 Z11.9000 F8000.0
G1 X63.2677 Y-49.1922 F12000.0
G1 Z0.0000 F8000.0
G0 X63.2677 Y-44.3318 F15000.0
G1 Z11.9000 F8000.0
G1 X180.0000 Y-44.3318 F12000.0
G1 Z0.0000 F8000.0
G0 X178.0591 Y-43.6779 F15000.0
G1 Z11.9000 F8000.0
G1 X176.9660 Y-43.3808 F12000.0
G1 X176.7468 Y-43.0607
G1 X176.7453 Y-42.7254
G1 X177.7972 Y-42.7511
G1 X178.0533 Y-42.3572
G1 X178.0890 Y-42.1113
G1 X178.0186 Y-41.8944
G1 X177.2979 Y-41.2470
G1 X177.0255 Y-41.4300
G1 X176.7385 Y-42.5029
G1 X177.0472 Y-42.7633
G1 X176.7456 Y-42.5589
G1 Z0.0000 F8000.0
G0 X175.9186 Y-42.2670 F15000.0
G1 Z11.9000 F8000.0
G1 X175.9507 Y-41.6397 F12000.0
G1 X175.8626 Y-41.4231
G1 X175.2391 Y-41.2300
G1 X174.7806 Y-41.5036
G1 X175.7846 Y-42.1852
G1 X175.9075 Y-42.3709
G1 X175.8661 Y-42.7165
G1 X175.1660 Y-42.8767
G1 X174.8989 Y-42.8121
G1 X174.9942 Y-42.8995
G1 Z0.0000 F8000.0
G0 X174.1672 Y-42.8995 F15000.0
G1 Z11.9000 F8000.0
G1 X172.9509 Y-42.8995 F12000.0
G1 Z0.0000 F8000.0
G0 X172.4158 Y-42.8508 F15000.0
G1 Z11.9000 F8000.0
G1 X171.3941 Y-41.2940 F12000.0
G1 Z0.0000 F8000.0
G0 X171.3455 Y-42.8508 F15000.0
G1 Z11.9000 F8000.0
G1 X171.3216 Y-41.3499 F12000.0
G1 X171.1500 Y-41.2638
G1 X170.5251 Y-41.3247
G1 X170.3494 Y-41.4187
G1 X170.3239 Y-42.8508
G1 Z0.0000 F8000.0
G0 X169.6428 Y-42.6076 F15000.0
G1 Z11.9000 F8000.0
G1 X169.4021 Y-42.8716 F12000.0
G1 X168.8039 Y-42.8487
G1 X168.5683 Y-42.5704
G1 X168.4480 Y-41.9606
G1 X168.6910 Y-41.4003
G1 X169.1316 Y-41.2344
G1 X169.4757 Y-41.3608
G1 X169.6481 Y-41.5575
G1 X169.5941 Y-41.4400
G1 Z0.0000 F8000.0
G0 X167.7454 Y-41.4886 F15000.0
G1 Z11.9000 F8000.0
G1 X167.7469 Y-42.1683 F12000.0
G1 X167.6793 Y-41.4261
G1 X167.0521 Y-41.2339
G1 X166.6130 Y-41.5116
G1 X167.6239 Y-42.1938
G1 X167.7380 Y-42.3843
G1 X167.6839 Y-42.7261
G1 X166.9777 Y-42.8780
G1 X166.7289 Y-42.8173
G1 X166.8211 Y-42.8995
G1 Z0.0000 F8000.0
G0 X165.6048 Y-43.2887 F15000.0
G1 Z11.9000 F8000.0
G1 X165.2099 Y-42.6448 F12000.0
G1 X165.5914 Y-43.1900
G1 X165.7021 Y-41.2940
G1 Z0.0000 F8000.0
G0 X164.7292 Y-41.4886 F15000.0
G1 Z11.9000 F8000.0
G1 X164.9769 Y-41.9893 F12000.0
G1 X164.8955 Y-41.7140
G1 X165.0802 Y-42.2796
G1 X164.6877 Y-41.5621
G1 X163.8576 Y-43.0450
G1 X163.6737 Y-43.2327
G1 X163.6952 Y-43.3461
G1 X163.6102 Y-41.3427
G1 Z0.0000 F8000.0
G0 X162.5355 Y-44.3318 F15000.0
G1 Z11.9000 F8000.0
G1 X162.5355 Y-24.8078 F12000.0
G1 Z0.0000 F8000.0
G0 X162.1612 Y-23.4200 F15000.0
G1 Z11.9000 F8000.0
G1 X162.6130 Y-23.4835 F12000.0
G1 X163.1348 Y-23.1734
G1 X163.2609 Y-22.5704
G1 X163.1758 Y-22.2080
G1 X163.0306 Y-22.0385
G1 X162.3170 Y-21.8495
G1 X162.2137 Y-21.8951
G1 X161.8674 Y-22.4043
G1 X161.9184 Y-23.0138
G1 X162.1011 Y-23.3509
G1 X161.9145 Y-23.1484
G1 X161.3014 Y-23.4577
G1 X160.1666 Y-23.4687
G1 Z0.0000 F8000.0
G0 X160.7017 Y-23.4687 F15000.0
G1 Z11.9000 F8000.0
G1 X160.7504 Y-21.8632 F12000.0
G1 Z0.0000 F8000.0
G0 X159.7287 Y-22.2524 F15000.0
G1 Z11.9000 F8000.0
G1 X159.5250 Y-21.9935 F12000.0
G1 X158.9307 Y-21.8460
G1 X158.6205 Y-21.9900
G1 X158.4495 Y-22.3132
G1 X158.4643 Y-22.9340
G1 X158.7160 Y-23.3495
G1 X159.0511 Y-23.4895
G1 X159.5341 Y-23.3714
G1 Z0.0000 F8000.0
G0 X157.6854 Y-21.9119 F15000.0
G1 Z11.9000 F8000.0
G1 X157.2445 Y-22.8060 F12000.0
G1 X157.2684 Y-22.9071
G1 X157.5614 Y-23.1283
G1 X157.3008 Y-22.9627
G1 X156.8882 Y-22.3737
G1 X156.5475 Y-22.2240
G1 X156.5131 Y-23.3567
G1 X157.1846 Y-22.9317
G1 X156.9194 Y-22.4237
G1 X156.5207 Y-22.0279
G1 X156.5179 Y-22.1065
G1 Z0.0000 F8000.0
G0 X155.5935 Y-21.9119 F15000.0
G1 Z11.9000 F8000.0
G1 X155.5264 Y-24.1184 F12000.0
G1 X154.1724 Y-21.9013
G1 X153.9881 Y-21.8146
G1 Z0.0000 F8000.0
G0 X151.4142 Y-19.9474 F15000.0
G1 Z11.9000 F8000.0
G1 X151.4142 Y-24.8078 F12000.0
G1 Z0.0000 F8000.0
G0 X151.9074 Y-29.4129 F15000.0
G1 Z11.9000 F8000.0
G1 X152.0401 Y-29.5014 F12000.0
G1 X152.3055 Y-29.9437
G1 Z0.0000 F8000.0
G0 X152.0843 Y-31.5358 F15000.0
G1 Z11.9000 F8000.0
G1 X151.7305 Y-30.6955 F12000.0
G1 X151.3325 Y-30.3417
G1 X151.0671 Y-30.2532
G1 X150.0499 Y-30.2532
G1 Z0.0000 F8000.0
G0 X149.9172 Y-30.3417 F15000.0
G1 Z11.9000 F8000.0
G1 X149.7403 Y-30.9609 F12000.0
G1 X150.8902 Y-33.9683
G1 X151.3325 Y-34.4548
G1 Z0.0000 F8000.0
G0 X151.5094 Y-34.5432 F15000.0
G1 Z11.9000 F8000.0
G1 X152.8804 Y-34.4548 F12000.0
G1 X152.9246 Y-33.8798
G1 Z0.0000 F8000.0
G0 X152.5708 Y-32.9069 F15000.0
G1 Z11.9000 F8000.0
G1 X152.5266 Y-32.7742 F12000.0
G1 Z0.0000 F8000.0
G0 X152.3055 Y-32.1550 F15000.0
G1 Z11.9000 F8000.0
G1 X152.2612 Y-32.0223 F12000.0
G1 Z0.0000 F8000.0
G0 X154.6580 Y-33.5703 F15000.0
G1 Z11.9000 F8000.0
G1 X154.8349 Y-33.7472 F12000.0
G1 Z0.0000 F8000.0
G0 X155.5867 Y-34.2337 F15000.0
G1 Z11.9000 F8000.0
G1 X155.8963 Y-34.3221 F12000.0
G1 Z0.0000 F8000.0
G0 X156.2059 Y-34.6317 F15000.0
G1 Z11.9000 F8000.0
G1 X155.9406 Y-34.2779 F12000.0
G1 X154.4811 Y-30.2090
G1 Z0.0000 F8000.0
G0 X156.1617 Y-30.2090 F15000.0
G1 Z11.9000 F8000.0
G1 X156.4713 Y-30.3859 F12000.0
G1 Z0.0000 F8000.0
G0 X157.2674 Y-30.9166 F15000.0
G1 Z11.9000 F8000.0
G1 X157.3558 Y-31.0051 F12000.0
G1 Z0.0000 F8000.0
G0 X157.9750 Y-31.7127 F15000.0
G1 Z11.9000 F8000.0
G1 X158.1077 Y-32.1992 F12000.0
G1 Z0.0000 F8000.0
G0 X156.6040 Y-32.4204 F15000.0
G1 Z11.9000 F8000.0
G1 X158.0634 Y-32.2434 F12000.0
G1 X158.5499 Y-33.1280
G1 X158.8595 Y-34.2779
G1 X158.6384 Y-34.5875
G1 X157.4885 Y-34.5875
G1 Z0.0000 F8000.0
G0 X157.1347 Y-34.3663 F15000.0
G1 Z11.9000 F8000.0
G1 X157.0462 Y-34.2779 F12000.0
G1 Z0.0000 F8000.0
G0 X156.8251 Y-34.0125 F15000.0
G1 Z11.9000 F8000.0
G1 X156.5155 Y-33.2607 F12000.0
G1 X156.5155 Y-32.5088
G1 Z0.0000 F8000.0
G0 X154.6972 Y-41.8998 F15000.0
G1 Z11.9000 F8000.0
G1 X154.1513 Y-41.7352 F12000.0
G1 X153.8419 Y-41.8821
G1 X153.6515 Y-42.3258
G1 X153.6850 Y-42.8988
G1 X152.9261 Y-42.5430
G1 X152.9788 Y-41.8908
G1 X152.8986 Y-41.9402
G1 X152.2098 Y-41.7400
G1 X151.9854 Y-41.7893
G1 X151.8150 Y-42.0845
G1 X151.9688 Y-42.3983
G1 X152.8658 Y-42.6887
G1 X152.1740 Y-43.2581
G1 X151.9728 Y-43.1647
G1 Z0.0000 F8000.0
G0 X150.6106 Y-43.0674 F15000.0
G1 Z11.9000 F8000.0
G1 X150.5340 Y-42.8048 F12000.0
G1 X150.6757 Y-43.1939
G1 X151.0153 Y-43.6464
G1 X150.9527 Y-43.3852
G1 X151.0971 Y-41.8512
G1 Z0.0000 F8000.0
G0 X150.1728 Y-42.0458 F15000.0
G1 Z11.9000 F8000.0
G1 X150.1206 Y-42.0041 F12000.0
G1 X150.4701 Y-42.6473
G1 X150.2055 Y-42.0810
G1 X150.0412 Y-42.0961
G1 X149.2512 Y-43.5929
G1 X149.1742 Y-43.4877
G1 X149.1025 Y-41.8025
G1 Z0.0000 F8000.0
G0 X145.9771 Y-39.4714 F15000.0
G1 Z11.9000 F8000.0
G1 X180.0000 Y-39.4714 F12000.0
G1 Z0.0000 F8000.0
G0 X177.0375 Y-41.3427 F15000.0
G1 Z11.9000 F8000.0
G1 X176.8915 Y-41.4886 F12000.0
G1 Z0.0000 F8000.0
G0 X173.5834 Y-41.2940 F15000.0
G1 Z11.9000 F8000.0
G1 X173.5347 Y-42.8995 F12000.0
G1 Z0.0000 F8000.0
G0 X174.1343 Y-34.6217 F15000.0
G1 Z11.9000 F8000.0
G1 X173.8689 Y-34.2679 F12000.0
G1 X172.4094 Y-30.1990
G1 Z0.0000 F8000.0
G0 X170.9487 Y-31.3931 F15000.0
G1 Z11.9000 F8000.0
G1 X170.8160 Y-31.2605 F12000.0
G1 Z0.0000 F8000.0
G0 X169.5776 Y-30.1990 F15000.0
G1 Z11.9000 F8000.0
G1 X171.0371 Y-34.2679 F12000.0
G1 X171.3025 Y-34.6217
G1 Z0.0000 F8000.0
G0 X170.9929 Y-34.3121 F15000.0
G1 Z11.9000 F8000.0
G1 X170.6833 Y-34.2237 F12000.0
G1 Z0.0000 F8000.0
G0 X169.9314 Y-33.7372 F15000.0
G1 Z11.9000 F8000.0
G1 X169.7545 Y-33.5603 F12000.0
G1 Z0.0000 F8000.0
G0 X171.4352 Y-33.0295 F15000.0
G1 Z11.9000 F8000.0
G1 X171.6563 Y-33.1622 F12000.0
G1 Z0.0000 F8000.0
G0 X172.5863 Y-33.5603 F15000.0
G1 Z11.9000 F8000.0
G1 X172.7632 Y-33.7372 F12000.0
G1 Z0.0000 F8000.0
G0 X173.5151 Y-34.2237 F15000.0
G1 Z11.9000 F8000.0
G1 X173.8247 Y-34.3121 F12000.0
G1 Z0.0000 F8000.0
G0 X174.8195 Y-23.7306 F15000.0
G1 Z11.9000 F8000.0
G1 X174.5984 Y-23.5979 F12000.0
G1 Z0.0000 F8000.0
G0 X175.2618 Y-23.7306 F15000.0
G1 Z11.9000 F8000.0
G1 X174.4215 Y-21.3866 F12000.0
G1 X174.2446 Y-21.0770
G1 Z0.0000 F8000.0
G0 X180.0000 Y-19.9474 F15000.0
G1 Z11.9000 F8000.0
G1 X131.3959 Y-19.9474 F12000.0
G1 X63.2677 Y-19.9474 F12000.0
G1 X0.0000 Y-19.9474 F12000.0
G1 Z0.0000 F8000.0
G0 X2.2817 Y-21.9791 F15000.0
G1 Z11.9000 F8000.0
G1 X2.2330 Y-24.0224 F12000.0
G1 Z0.0000 F8000.0
G0 X1.6006 Y-24.0224 F15000.0
G1 Z11.9000 F8000.0
G1 X3.0601 Y-24.0224 F12000.0
G1 Z0.0000 F8000.0
G0 X4.1304 Y-23.3413 F15000.0
G1 Z11.9000 F8000.0
G1 X4.1667 Y-22.8025 F12000.0
G1 X4.6840 Y-22.4992
G1 X4.6119 Y-22.7582
G1 X5.0061 Y-21.9791
G1 Z0.0000 F8000.0
G0 X4.1304 Y-21.9791 F15000.0
G1 Z11.9000 F8000.0
G1 X4.1548 Y-22.5958 F12000.0
G1 X4.6486 Y-22.9177
G1 X5.0449 Y-23.3318
G1 X5.5440 Y-23.0372
G1 X5.5606 Y-22.4524
G1 X5.7825 Y-22.0812
G1 X5.5872 Y-22.3432
G1 X5.9849 Y-21.9780
G1 X6.4567 Y-22.0709
G1 X6.7158 Y-22.3048
G1 X6.6419 Y-23.0414
G1 X6.5458 Y-23.2447
G1 X5.9608 Y-23.3593
G1 X5.6385 Y-23.1467
G1 Z0.0000 F8000.0
G0 X7.3899 Y-23.3413 F15000.0
G1 Z11.9000 F8000.0
G1 X7.3899 Y-22.0729 F12000.0
G1 X7.4113 Y-22.6183
G1 X7.5773 Y-22.6972
G1 X8.3897 Y-22.5870
G1 X8.4571 Y-22.0612
G1 X8.5193 Y-23.3136
G1 X10.0656 Y-23.3899
G1 Z0.0000 F8000.0
G0 X9.4818 Y-23.3899 F15000.0
G1 Z11.9000 F8000.0
G1 X9.5631 Y-22.0387 F12000.0
G1 X10.6378 Y-22.1078
G1 X11.3489 Y-21.9970
G1 X11.6449 Y-22.2187
G1 X11.7451 Y-22.4295
G1 X11.6510 Y-23.1678
G1 X11.3597 Y-23.3221
G1 X10.7605 Y-23.2217
G1 X10.6191 Y-22.3980
G1 X10.6763 Y-21.4231
G1 X11.6710 Y-22.2223
G1 Z0.0000 F8000.0
G0 X7.4225 Y-28.9491 F15000.0
G1 Z11.9000 F8000.0
G1 X7.4412 Y-30.0302 F12000.0
G1 X7.3492 Y-30.2350
G1 X7.2588 Y-30.2572
G1 X6.5388 Y-29.6405
G1 X6.6388 Y-29.4528
G1 X7.1970 Y-28.9615
G1 X7.4823 Y-29.0570
G1 X7.5125 Y-29.2953
G1 X7.5169 Y-29.2020
G1 X7.4835 Y-29.4302
G1 X7.3906 Y-29.5275
G1 X6.4325 Y-29.7304
G1 X5.6009 Y-30.2591
G1 X5.7242 Y-30.1254
G1 X5.8883 Y-29.4023
G1 X5.7075 Y-29.0083
G1 X5.7517 Y-29.0801
G1 X5.3401 Y-28.9325
G1 X4.9944 Y-29.0114
G1 X4.8414 Y-29.1833
G1 X4.7238 Y-29.5344
G1 X4.9412 Y-30.1641
G1 X5.5252 Y-30.3112
G1 Z0.0000 F8000.0
G0 X3.0927 Y-29.0950 F15000.0
G1 Z11.9000 F8000.0
G1 X3.6911 Y-28.9325 F12000.0
G1 X4.0455 Y-29.1321
G1 X4.1392 Y-29.3440
G1 X4.0382 Y-30.0816
G1 X3.8772 Y-30.2516
G1 X3.3975 Y-30.2509
G1 X3.1179 Y-30.0572
G1 X3.0440 Y-28.3166
G1 Z0.0000 F8000.0
G0 X2.3143 Y-28.9491 F15000.0
G1 Z11.9000 F8000.0
G1 X2.2097 Y-30.7984 F12000.0
G1 X0.8548 Y-28.9491
G1 Z0.0000 F8000.0
G0 X0.0000 Y-29.7506 F15000.0
G1 Z11.9000 F8000.0
G1 X63.2677 Y-29.7506 F12000.0
G1 Z0.0000 F8000.0
G0 X63.2677 Y-24.8078 F15000.0
G1 Z11.9000 F8000.0
G1 X0.0000 Y-24.8078 F12000.0
G1 Z0.0000 F8000.0
G0 X0.0000 Y-10.2266 F15000.0
G1 Z11.9000 F8000.0
G1 X63.2677 Y-10.2266 F12000.0
G1 Z0.0000 F8000.0
G0 X63.2677 Y-5.3662 F15000.0
G1 Z11.9000 F8000.0
G1 X63.2677 Y-58.9131 F12000.0
G1 Z0.0000 F8000.0
G0 X63.2677 Y-54.0526 F15000.0
G1 Z11.9000 F8000.0
G1 X0.0000 Y-54.0526 F12000.0
G1 Z0.0000 F8000.0
G0 X0.0000 Y-58.9131 F15000.0
G1 Z11.9000 F8000.0
G1 X180.0000 Y-58.9131 F12000.0
G1 Z0.0000 F8000.0
G0 X158.1026 Y-42.5809 F15000.0
G1 Z11.9000 F8000.0
G1 X158.1356 Y-41.8908 F12000.0
G1 X158.0554 Y-41.9402
G1 X157.3666 Y-41.7400
G1 X157.1423 Y-41.7893
G1 X156.9718 Y-42.0845
G1 X157.1257 Y-42.3983
G1 X158.0226 Y-42.6887
G1 X157.3309 Y-43.2581
G1 X157.1296 Y-43.1647
G1 Z0.0000 F8000.0
G0 X155.4269 Y-43.0674 F15000.0
G1 Z11.9000 F8000.0
G1 X155.6380 Y-43.2349 F12000.0
G1 X156.1100 Y-43.2889
G1 X156.3694 Y-43.0956
G1 X156.3913 Y-42.0855
G1 X156.2826 Y-41.8934
G1 X155.8210 Y-41.7341
G1 X155.5078 Y-41.8735
G1 X155.3093 Y-42.3099
G1 X155.3393 Y-42.9095
G1 X154.1929 Y-43.2734
G1 X153.8369 Y-43.1208
G1 X154.0692 Y-43.2820
G1 X154.5447 Y-43.2517
G1 X154.7458 Y-43.0674
G1 Z0.0000 F8000.0
G0 X145.9771 Y-44.3318 F15000.0
G1 Z11.9000 F8000.0
G1 X145.9771 Y-24.8078 F12000.0
G1 Z0.0000 F8000.0
G0 X141.1167 Y-24.8078 F15000.0
G1 Z11.9000 F8000.0
G1 X141.1167 Y-39.4714 F12000.0
G1 Z0.0000 F8000.0
G0 X140.1082 Y-41.4736 F15000.0
G1 Z11.9000 F8000.0
G1 X140.0596 Y-42.9817 F12000.0
G1 Z0.0000 F8000.0
G0 X139.4758 Y-42.9817 F15000.0
G1 Z11.9000 F8000.0
G1 X140.6920 Y-42.9817 F12000.0
G1 Z0.0000 F8000.0
G0 X138.8920 Y-42.9330 F15000.0
G1 Z11.9000 F8000.0
G1 X138.7765 Y-42.6946 F12000.0
G1 X138.4241 Y-42.3791
G1 X137.7514 Y-42.8450
G1 X137.8062 Y-41.8878
G1 X137.8788 Y-41.7230
G1 X138.0462 Y-41.8260
G1 X138.4344 Y-42.3235
G1 X138.8274 Y-42.6435
G1 X138.8920 Y-41.4249
G1 Z0.0000 F8000.0
G0 X138.3082 Y-42.1547 F15000.0
G1 Z11.9000 F8000.0
G1 X137.9677 Y-41.7168 F12000.0
G1 Z0.0000 F8000.0
G0 X136.9460 Y-41.4736 F15000.0
G1 Z11.9000 F8000.0
G1 X136.8838 Y-43.5687 F12000.0
G1 X135.5838 Y-41.4736
G1 Z0.0000 F8000.0
G0 X136.1739 Y-39.4714 F15000.0
G1 Z11.9000 F8000.0
G1 X136.1739 Y-24.8078 F12000.0
G1 Z0.0000 F8000.0
G0 X136.0870 Y-23.4369 F15000.0
G1 Z11.9000 F8000.0
G1 X136.1595 Y-22.0592 F12000.0
G1 X136.5888 Y-22.2956
G1 Z0.0000 F8000.0
G0 X136.8638 Y-22.7631 F15000.0
G1 Z11.9000 F8000.0
G1 X136.5321 Y-22.2086 F12000.0
G1 X136.7025 Y-22.5003
G1 X137.2654 Y-23.0686
G1 X137.4006 Y-21.7828
G1 Z0.0000 F8000.0
G0 X136.1357 Y-21.9774 F15000.0
G1 Z11.9000 F8000.0
G1 X136.4423 Y-22.1587 F12000.0
G1 X137.3648 Y-23.3140
G1 X137.5604 Y-23.3552
G1 X138.2664 Y-23.2146
G1 X138.1704 Y-22.2738
G1 X138.3273 Y-21.9380
G1 X138.4955 Y-21.7756
G1 X138.7120 Y-21.7359
G1 X139.4981 Y-22.0247
G1 X140.5645 Y-21.8209
G1 X140.6570 Y-21.9602
G1 X140.5928 Y-23.4117
G1 X139.9790 Y-23.4855
G1 Z0.0000 F8000.0
G0 X139.3952 Y-23.2423 F15000.0
G1 Z11.9000 F8000.0
G1 X138.9701 Y-23.4926 F12000.0
G1 X138.3735 Y-23.3396
G1 Z0.0000 F8000.0
G0 X140.6601 Y-23.4369 F15000.0
G1 Z11.9000 F8000.0
G1 X141.2925 Y-23.4855 F12000.0
G1 Z0.0000 F8000.0
G0 X135.1627 Y-21.7828 F15000.0
G1 Z11.9000 F8000.0
G1 X135.0973 Y-24.1267 F12000.0
G1 X133.4113 Y-21.6855
G1 Z0.0000 F8000.0
G0 X131.3959 Y-24.8078 F15000.0
G1 Z11.9000 F8000.0
G1 X180.0000 Y-24.8078 F12000.0
G1 Z0.0000 F8000.0
G0 X164.9342 Y-22.6903 F15000.0
G1 Z11.9000 F8000.0
G1 X164.0875 Y-22.7850 F12000.0
G1 X164.7519 Y-23.4060
G1 X165.0749 Y-23.0911
G1 X165.0162 Y-22.6294
G1 X165.1348 Y-22.0476
G1 X165.0252 Y-21.9254
G1 X164.0896 Y-21.9203
G1 X164.0099 Y-22.6416
G1 Z0.0000 F8000.0
G0 X162.1612 Y-21.9119 F15000.0
G1 Z11.9000 F8000.0
G1 X161.9180 Y-22.2038 F12000.0
G1 Z0.0000 F8000.0
G0 X162.0310 Y-16.1007 F15000.0
G1 Z11.9000 F8000.0
G1 X162.4510 Y-16.1738 F12000.0
G1 X163.1602 Y-15.9692
G1 X163.4219 Y-15.7522
G1 X163.6748 Y-15.2022
G1 X163.6913 Y-14.2168
G1 X162.9565 Y-13.7716
G1 X162.0931 Y-13.7208
G1 X161.5488 Y-14.2244
G1 X161.4917 Y-15.4518
G1 X161.9585 Y-16.0468
G1 X161.4472 Y-15.4197
G1 Z0.0000 F8000.0
G0 X161.4958 Y-14.2521 F15000.0
G1 Z11.9000 F8000.0
G1 X161.3928 Y-14.4933 F12000.0
G1 X161.6438 Y-14.0357
G1 X161.9823 Y-13.7656
G1 Z0.0000 F8000.0
G0 X163.2959 Y-13.9602 F15000.0
G1 Z11.9000 F8000.0
G1 X163.6720 Y-14.1493 F12000.0
G1 X163.7625 Y-13.6223
G1 X163.6620 Y-13.0033
G1 X163.4113 Y-12.4912
G1 X162.9427 Y-12.1114
G1 X162.0878 Y-12.0596
G1 X161.6040 Y-12.4178
G1 X162.0310 Y-12.0628
G1 Z0.0000 F8000.0
G0 X159.3553 Y-12.1115 F15000.0
G1 Z11.9000 F8000.0
G1 X159.2729 Y-15.5999 F12000.0
G1 X158.2303 Y-15.1248
G1 X159.2162 Y-15.6317
G1 X159.3335 Y-15.8266
G1 X159.4039 Y-16.1980
G1 Z0.0000 F8000.0
G0 X156.4363 Y-16.1007 F15000.0
G1 Z11.9000 F8000.0
G1 X154.7212 Y-16.0769 F12000.0
G1 X154.6062 Y-15.7926
G1 X154.4651 Y-14.4134
G1 X155.5398 Y-14.6132
G1 X156.0153 Y-14.4592
G1 X156.2924 Y-14.2616
G1 X156.5601 Y-13.7133
G1 X156.3617 Y-12.4952
G1 X155.9366 Y-12.1499
G1 Z0.0000 F8000.0
G0 X156.2903 Y-12.4034 F15000.0
G1 Z11.9000 F8000.0
G1 X156.1873 Y-12.2905 F12000.0
G1 X154.8688 Y-12.1041
G1 X154.5852 Y-12.2827
G1 X154.2986 Y-12.7258
G1 X154.8602 Y-12.1436
G1 X155.0723 Y-12.0344
G1 Z0.0000 F8000.0
G0 X153.1281 Y-13.4737 F15000.0
G1 Z11.9000 F8000.0
G1 X152.0092 Y-13.4737 F12000.0
G1 Z0.0000 F8000.0
G0 X149.5767 Y-12.1601 F15000.0
G1 Z11.9000 F8000.0
G1 X149.5280 Y-16.1494 F12000.0
G1 Z0.0000 F8000.0
G0 X148.0199 Y-16.1494 F15000.0
G1 Z11.9000 F8000.0
G1 X151.0848 Y-16.1494 F12000.0
G1 Z0.0000 F8000.0
G0 X146.7550 Y-12.1115 F15000.0
G1 Z11.9000 F8000.0
G1 X146.6596 Y-16.1116 F12000.0
G1 X144.8003 Y-16.1486
G1 X144.5988 Y-16.0952
G1 X144.4028 Y-12.4702
G1 X144.2947 Y-12.2141
G1 X144.1097 Y-12.0845
G1 X143.7874 Y-12.0142
G1 Z0.0000 F8000.0
G0 X131.3959 Y-5.3662 F15000.0
G1 Z11.9000 F8000.0
G1 X131.3959 Y-44.3318 F12000.0
G1 Z0.0000 F8000.0
G0 X131.3959 Y-39.4714 F15000.0
G1 Z11.9000 F8000.0
G1 X145.9771 Y-39.4714 F12000.0
G1 Z0.0000 F8000.0
G0 X139.9431 Y-50.7989 F15000.0
G1 Z11.9000 F8000.0
G1 X139.6674 Y-50.9903 F12000.0
G1 X139.5146 Y-51.3007
G1 X140.1002 Y-50.7386
G1 X140.8459 Y-50.7817
G1 X141.2791 Y-50.9981
G1 X141.5987 Y-51.4549
G1 X141.3980 Y-51.1097
G1 X141.6997 Y-51.6804
G1 X141.8186 Y-52.2941
G1 X141.6544 Y-52.8302
G1 X141.2905 Y-52.6809
G1 X141.7187 Y-52.9649
G1 X141.8238 Y-53.2960
G1 X141.6298 Y-54.2866
G1 X141.4807 Y-54.6174
G1 X140.3087 Y-55.0386
G1 X139.6512 Y-54.7395
G1 Z0.0000 F8000.0
G0 X139.5052 Y-54.5449 F15000.0
G1 Z11.9000 F8000.0
G1 X139.3578 Y-54.1983 F12000.0
G1 X139.2818 Y-53.7026
G1 X139.4419 Y-53.0983
G1 X139.6484 Y-52.8226
G1 X140.2753 Y-52.4389
G1 X141.0043 Y-52.6077
G1 X141.7431 Y-52.8909
G1 Z0.0000 F8000.0
G0 X137.6079 Y-51.0908 F15000.0
G1 Z11.9000 F8000.0
G1 X137.5592 Y-50.9935 F12000.0
G1 Z0.0000 F8000.0
G0 X136.2944 Y-50.7989 F15000.0
G1 Z11.9000 F8000.0
G1 X135.9189 Y-51.0903 F12000.0
G1 X135.5646 Y-51.8206
G1 Z0.0000 F8000.0
G0 X135.7106 Y-54.3503 F15000.0
G1 Z11.9000 F8000.0
G1 X135.8851 Y-54.6826 F12000.0
G1 X136.2100 Y-54.9811
G1 X135.7591 Y-54.3945
G1 X135.4815 Y-52.5314
G1 X135.6612 Y-51.6749
G1 X136.3517 Y-50.7854
G1 X136.5798 Y-50.7258
G1 X137.3220 Y-50.8534
G1 X137.5986 Y-51.0859
G1 X137.8721 Y-51.6431
G1 X138.0344 Y-52.8956
G1 X137.8421 Y-54.2692
G1 X137.6023 Y-54.7001
G1 X137.3487 Y-54.9202
G1 X136.7560 Y-55.1060
G1 X136.2944 Y-55.0314
G1 Z0.0000 F8000.0
G0 X131.8186 Y-50.8962 F15000.0
G1 Z11.9000 F8000.0
G1 X132.1568 Y-51.3994 F12000.0
G1 X132.0108 Y-51.1648
G1 X132.2070 Y-51.5440
G1 X132.3802 Y-53.0443
G1 X132.2238 Y-54.1713
G1 X132.0141 Y-54.6195
G1 X131.7894 Y-54.8731
G1 X131.2110 Y-55.0924
G1 X130.7240 Y-55.0349
G1 X130.4112 Y-54.8521
G1 X130.0793 Y-54.3281
G1 X129.8364 Y-52.5784
G1 X129.9052 Y-51.9520
G1 X130.2436 Y-51.1411
G1 X130.5911 Y-50.8168
G1 X130.9431 Y-50.7309
G1 X131.7213 Y-50.8962
G1 Z0.0000 F8000.0
G0 X128.2185 Y-51.0908 F15000.0
G1 Z11.9000 F8000.0
G1 X128.0726 Y-50.8962 F12000.0
G1 Z0.0000 F8000.0
G0 X126.9050 Y-50.7989 F15000.0
G1 Z11.9000 F8000.0
G1 X126.5295 Y-51.0903 F12000.0
G1 X126.1753 Y-51.8206
G1 Z0.0000 F8000.0
G0 X126.3212 Y-54.3503 F15000.0
G1 Z11.9000 F8000.0
G1 X126.4279 Y-54.5768 F12000.0
G1 X126.7487 Y-54.9182
G1 X126.3665 Y-54.3886
G1 X126.0927 Y-52.5246
G1 X126.2751 Y-51.6690
G1 X126.8736 Y-50.8587
G1 X127.0761 Y-50.7406
G1 X128.1395 Y-51.0762
G1 X128.3115 Y-51.2431
G1 X128.4701 Y-51.5792
G1 X128.6417 Y-52.8304
G1 X128.4321 Y-54.3249
G1 X128.0110 Y-54.8895
G1 X127.3077 Y-55.1032
G1 X126.8077 Y-54.9341
G1 Z0.0000 F8000.0
G0 X122.4292 Y-50.8962 F15000.0
G1 Z11.9000 F8000.0
G1 X122.8065 Y-51.5011 F12000.0
G1 X122.9923 Y-52.7490
G1 X122.8147 Y-54.2489
G1 X122.4275 Y-54.8502
G1 X121.8645 Y-55.0840
G1 X121.2616 Y-55.0058
G1 X120.9695 Y-54.7942
G1 X120.6698 Y-54.2507
G1 X120.4497 Y-52.6231
G1 X120.5329 Y-51.8731
G1 X120.8964 Y-51.0783
G1 X121.1631 Y-50.8385
G1 X121.5105 Y-50.7288
G1 X122.3319 Y-50.8962
G1 Z0.0000 F8000.0
G0 X118.9265 Y-51.0908 F15000.0
G1 Z11.9000 F8000.0
G1 X118.7805 Y-50.8962 F12000.0
G1 Z0.0000 F8000.0
G0 X119.1211 Y-52.7449 F15000.0
G1 Z11.9000 F8000.0
G1 X118.8024 Y-53.1340 F12000.0
G1 X118.3427 Y-53.3773
G1 Z0.0000 F8000.0
G0 X117.2724 Y-53.0368 F15000.0
G1 Z11.9000 F8000.0
G1 X117.5886 Y-53.2168 F12000.0
G1 X118.3279 Y-53.3521
G1 X118.7783 Y-53.1576
G1 X119.0203 Y-52.8712
G1 X119.1401 Y-52.5271
G1 X119.1806 Y-51.6561
G1 X118.7706 Y-51.0266
G1 X118.5892 Y-50.8683
G1 X117.7299 Y-50.7313
G1 X117.3050 Y-50.9432
G1 X116.9939 Y-51.3066
G1 X116.7771 Y-52.7719
G1 X117.3429 Y-53.1240
G1 X116.7347 Y-52.8737
G1 X117.0291 Y-54.4350
G1 X117.5416 Y-54.9787
G1 X117.0821 Y-54.5687
G1 X117.2546 Y-54.7671
G1 X117.1541 Y-54.6664
G1 X117.6320 Y-55.0165
G1 X118.1208 Y-55.1076
G1 X118.7138 Y-54.9223
G1 X119.0238 Y-54.5449
G1 Z0.0000 F8000.0
G0 X117.3433 Y-15.8744 F15000.0
G1 Z11.9000 F8000.0
G1 X117.5810 Y-16.0040 F12000.0
G1 X118.1881 Y-16.1416
G1 X118.8009 Y-15.8150
G1 X118.9558 Y-15.3346
G1 X118.8941 Y-14.8322
G1 X117.3749 Y-13.2495
G1 X117.3063 Y-12.8939
G1 X118.9001 Y-12.7608
G1 Z0.0000 F8000.0
G0 X117.8298 Y-13.6365 F15000.0
G1 Z11.9000 F8000.0
G1 X117.9271 Y-13.8311 F12000.0
G1 Z0.0000 F8000.0
G0 X116.0785 Y-13.8311 F15000.0
G1 Z11.9000 F8000.0
G1 X115.3001 Y-13.8311 F12000.0
G1 Z0.0000 F8000.0
G0 X114.1325 Y-13.1500 F15000.0
G1 Z11.9000 F8000.0
G1 X113.9379 Y-12.9554 F12000.0
G1 X113.9379 Y-12.8581
G1 X113.8406 Y-12.8581
G1 X114.1325 Y-13.1500
G1 Z0.0000 F8000.0
G0 X112.9649 Y-12.8581 F15000.0
G1 Z11.9000 F8000.0
G1 X112.7703 Y-12.9554 F12000.0
G1 Z0.0000 F8000.0
G0 X112.4784 Y-13.5392 F15000.0
G1 Z11.9000 F8000.0
G1 X112.3811 Y-13.7338 F12000.0
G1 Z0.0000 F8000.0
G0 X112.3811 Y-15.0960 F15000.0
G1 Z11.9000 F8000.0
G1 X112.4784 Y-15.2906 F12000.0
G1 Z0.0000 F8000.0
G0 X112.6730 Y-15.6798 F15000.0
G1 Z11.9000 F8000.0
G1 X112.9242 Y-15.9978 F12000.0
G1 X112.4050 Y-15.1136
G1 X112.5053 Y-13.3469
G1 X113.0946 Y-12.7797
G1 X113.7095 Y-12.7794
G1 X114.1515 Y-13.2020
G1 X114.3106 Y-13.6963
G1 X114.0829 Y-15.7685
G1 X113.5883 Y-16.0960
G1 X112.9649 Y-16.0690
G1 Z0.0000 F8000.0
G0 X120.0677 Y-15.2906 F15000.0
G1 Z11.9000 F8000.0
G1 X120.0032 Y-15.1584 F12000.0
G1 X120.5730 Y-16.0469
G1 X121.0683 Y-16.1331
G1 X121.6651 Y-15.7803
G1 X121.8163 Y-15.1778
G1 X121.9024 Y-13.7118
G1 X121.7952 Y-13.3084
G1 X121.4767 Y-12.8407
G1 X121.1842 Y-12.7619
G1 X120.6682 Y-12.7831
G1 X120.0878 Y-13.3613
G1 X119.9818 Y-15.0293
G1 X120.2246 Y-15.6008
G1 X120.5041 Y-15.9962
G1 X120.2623 Y-15.6798
G1 Z0.0000 F8000.0
G0 X119.9704 Y-13.7338 F15000.0
G1 Z11.9000 F8000.0
G1 X120.0677 Y-13.5392 F12000.0
G1 Z0.0000 F8000.0
G0 X120.3596 Y-12.9554 F15000.0
G1 Z11.9000 F8000.0
G1 X120.5542 Y-12.8581 F12000.0
G1 Z0.0000 F8000.0
G0 X121.4299 Y-12.8581 F15000.0
G1 Z11.9000 F8000.0
G1 X121.5272 Y-12.9554 F12000.0
G1 Z0.0000 F8000.0
G0 X124.1543 Y-12.8581 F15000.0
G1 Z11.9000 F8000.0
G1 X124.0264 Y-15.6204 F12000.0
G1 X123.1813 Y-15.2906
G1 Z0.0000 F8000.0
G0 X126.1003 Y-15.8744 F15000.0
G1 Z11.9000 F8000.0
G1 X126.7488 Y-16.1398 F12000.0
G1 X127.1477 Y-16.0283
G1 X127.3923 Y-15.8403
G1 X127.5388 Y-15.1441
G1 X127.4084 Y-14.8689
G1 X127.5150 Y-15.0397
G1 X127.2207 Y-14.6180
G1 X127.5978 Y-14.2534
G1 X127.7359 Y-13.5520
G1 X127.3256 Y-12.8741
G1 X126.4047 Y-12.7867
G1 X126.1725 Y-12.9116
G1 X126.1976 Y-12.8581
G1 Z0.0000 F8000.0
G0 X164.8527 Y-13.4737 F15000.0
G1 Z11.9000 F8000.0
G1 X165.9840 Y-13.4469 F12000.0
G1 X167.0710 Y-12.8247
G1 X167.3138 Y-12.4070
G1 X167.5740 Y-12.1673
G1 X168.5527 Y-12.0510
G1 X168.9549 Y-12.2169
G1 X168.7786 Y-12.1132
G1 X169.1524 Y-12.4021
G1 X169.3964 Y-12.9076
G1 X169.1277 Y-13.8632
G1 X168.7446 Y-14.3007
G1 Z0.0000 F8000.0
G0 X168.0149 Y-14.1061 F15000.0
G1 Z11.9000 F8000.0
G1 X168.7235 Y-14.3221 F12000.0
G1 X169.0168 Y-14.6820
G1 X169.2034 Y-15.1290
G1 X169.0456 Y-15.7250
G1 X168.1878 Y-16.1657
G1 X167.4296 Y-15.8847
G1 X167.2822 Y-15.7107
G1 X167.1878 Y-15.4197
G1 Z0.0000 F8000.0
G0 X53.5469 Y-5.3662 F15000.0
G1 Z11.9000 F8000.0
G1 X53.5469 Y-58.9131 F12000.0
G1 Z0.0000 F8000.0
G0 X38.9657 Y-58.9131 F15000.0
G1 Z11.9000 F8000.0
G1 X38.9657 Y-5.3662 F12000.0
G1 Z0.0000 F8000.0
G0 X18.9538 Y-28.8892 F15000.0
G1 Z11.9000 F8000.0
G1 X18.8857 Y-30.8496 F12000.0
G1 X17.3970 Y-28.8892
G1 Z0.0000 F8000.0
G0 X11.7424 Y-36.6704 F15000.0
G1 Z11.9000 F8000.0
G1 X11.5659 Y-37.6688 F12000.0
G1 X11.3268 Y-37.4909
G1 X10.9797 Y-36.9938
G1 X10.8329 Y-36.9311
G1 X10.9307 Y-36.9836
G1 X10.7395 Y-37.0044
G1 X10.6721 Y-37.9839
G1 Z0.0000 F8000.0
G0 X98.2792 Y-207.8558 F15000.0
G1 Z11.9000 F8000.0
G1 X134.8558 Y-207.8558 F12000.0
G1 Z0.0000 F8000.0
G0 X68.1282 Y-271.0412 F15000.0
G1 Z11.9000 F8000.0
G1 X0.0000 Y-271.0412 F12000.0
G1 Z0.0000 F8000.0
G0 X11.0930 Y-276.2678 F15000.0
G1 Z11.9000 F8000.0
G1 X11.1086 Y-279.8655 F12000.0
G1 X11.2048 Y-279.9959
G1 X11.7004 Y-279.8061
G1 X11.3194 Y-280.0558
G1 X11.8216 Y-279.5945
G1 X13.0482 Y-276.5772
G1 X13.2434 Y-276.5714
G1 X13.1891 Y-276.6101
G1 X14.4562 Y-279.7240
G1 X14.2940 Y-279.3694
G1 X14.5277 Y-279.8128
G1 X14.9018 Y-280.0113
G1 X15.0822 Y-276.2678
G1 Z0.0000 F8000.0
G0 X13.0876 Y-276.2678 F15000.0
G1 Z11.9000 F8000.0
G1 X13.0390 Y-276.5110 F12000.0
G1 Z0.0000 F8000.0
G0 X16.2985 Y-279.0895 F15000.0
G1 Z11.9000 F8000.0
G1 X16.6408 Y-277.6386 F12000.0
G1 X17.6023 Y-277.4072
G1 X18.4515 Y-277.4930
G1 X18.5139 Y-277.4242
G1 X18.5364 Y-276.2191
G1 Z0.0000 F8000.0
G0 X18.5364 Y-277.5813 F15000.0
G1 Z11.9000 F8000.0
G1 X18.5364 Y-279.0895 F12000.0
G1 Z0.0000 F8000.0
G0 X19.8986 Y-277.5813 F15000.0
G1 Z11.9000 F8000.0
G1 X19.9006 Y-278.8650 F12000.0
G1 X20.0198 Y-279.4794
G1 X20.4181 Y-280.2039
G1 X20.6068 Y-280.3495
G1 X20.1348 Y-279.7931
G1 X20.3158 Y-280.1120
G1 X20.6934 Y-280.3831
G1 X21.3165 Y-280.4405
G1 X21.5543 Y-280.3914
G1 X21.9418 Y-280.1597
G1 Z0.0000 F8000.0
G0 X21.9905 Y-280.0624 F15000.0
G1 Z11.9000 F8000.0
G1 X22.1952 Y-279.6711 F12000.0
G1 X22.2926 Y-279.1867
G1 X22.3711 Y-277.7979
G1 X22.2686 Y-277.1787
G1 X21.9688 Y-276.4989
G1 X21.7551 Y-276.2890
G1 X21.3786 Y-276.1397
G1 X20.6388 Y-276.2435
G1 X20.1727 Y-276.6637
G1 X19.9285 Y-277.4870
G1 X20.0405 Y-277.0125
G1 X20.3790 Y-276.4061
G1 X20.6283 Y-276.2191
G1 Z0.0000 F8000.0
G0 X25.7365 Y-280.0624 F15000.0
G1 Z11.9000 F8000.0
G1 X25.9275 Y-279.7049 F12000.0
G1 X26.0359 Y-279.2238
G1 X26.1159 Y-277.7094
G1 X25.9856 Y-277.0949
G1 X25.7835 Y-276.6331
G1 X25.5017 Y-276.2910
G1 X25.6717 Y-276.4270
G1 X25.4052 Y-276.2335
G1 X25.0554 Y-276.1397
G1 X24.3184 Y-276.2516
G1 X23.8924 Y-276.7182
G1 X23.6649 Y-277.5657
G1 X23.6461 Y-278.8259
G1 X23.8262 Y-279.6824
G1 X24.1078 Y-280.1561
G1 X24.4382 Y-280.3849
G1 X25.1847 Y-280.4306
G1 X25.6879 Y-280.1597
G1 Z0.0000 F8000.0
G0 X29.5312 Y-279.9165 F15000.0
G1 Z11.9000 F8000.0
G1 X29.3428 Y-279.4494 F12000.0
G1 X29.2243 Y-278.3453
G1 X29.2813 Y-278.2857
G1 X29.4954 Y-278.3137
G1 X30.0430 Y-278.6183
G1 X30.5271 Y-278.7593
G1 X30.7668 Y-278.7492
G1 X31.2237 Y-278.5586
G1 X31.4580 Y-278.3107
G1 X31.6796 Y-277.0872
G1 X31.4790 Y-276.6292
G1 X31.3061 Y-276.4742
G1 X30.2304 Y-276.1560
G1 X30.0076 Y-276.2479
G1 X29.4314 Y-276.8914
G1 X29.2649 Y-278.0116
G1 X29.3386 Y-278.2085
G1 X29.7937 Y-278.4685
G1 X29.2879 Y-278.2138
G1 Z0.0000 F8000.0
G0 X29.4339 Y-276.8029 F15000.0
G1 Z11.9000 F8000.0
G1 X29.8783 Y-276.2887 F12000.0
G1 X30.1024 Y-276.2250
G1 X30.9843 Y-276.2258
G1 X31.2096 Y-276.3043
G1 X31.4285 Y-276.5110
G1 Z0.0000 F8000.0
G0 X32.9853 Y-277.5813 F15000.0
G1 Z11.9000 F8000.0
G1 X32.9801 Y-278.8414 F12000.0
G1 X33.1531 Y-279.6355
G1 Z0.0000 F8000.0
G0 X33.0531 Y-279.1875 F15000.0
G1 Z11.9000 F8000.0
G1 X33.2680 Y-279.8936 F12000.0
G1 X33.4994 Y-280.2053
G1 X33.7626 Y-280.3794
G1 X34.5083 Y-280.4322
G1 X35.0293 Y-280.1241
G1 X35.3321 Y-279.4957
G1 X35.4570 Y-277.7368
G1 X35.2880 Y-277.0039
G1 X34.9707 Y-276.3887
G1 X34.7404 Y-276.2149
G1 X34.4050 Y-276.1397
G1 X33.7846 Y-276.2244
G1 X33.2663 Y-276.6595
G1 X33.0146 Y-277.4973
G1 X33.1940 Y-276.8394
G1 X33.5697 Y-276.3093
G1 X33.7752 Y-276.2567
G1 X35.0951 Y-276.6313
G1 X35.3691 Y-277.1921
G1 Z0.0000 F8000.0
G0 X31.9150 Y-279.5759 F15000.0
G1 Z11.9000 F8000.0
G1 X31.2313 Y-280.2843 F12000.0
G1 X30.6410 Y-280.4806
G1 X30.0326 Y-280.3622
G1 X29.7629 Y-280.1812
G1 X29.8872 Y-280.2854
G1 X29.5955 Y-279.9748
G1 X30.0663 Y-280.4030
G1 Z0.0000 F8000.0
G0 X39.2124 Y-280.3057 F15000.0
G1 Z11.9000 F8000.0
G1 X39.3680 Y-280.3814 F12000.0
G1 X40.5776 Y-280.1588
G1 X40.1590 Y-280.4195
G1 X39.4136 Y-280.3933
G1 X39.0127 Y-280.1230
G1 X38.7393 Y-279.6272
G1 X38.5801 Y-278.8916
G1 X38.5798 Y-277.6340
G1 X38.8532 Y-276.6701
G1 X39.1203 Y-276.3494
G1 X39.4197 Y-276.2028
G1 X40.1655 Y-276.1621
G1 X40.6196 Y-276.4473
G1 X40.4138 Y-276.2623
G1 X40.7166 Y-276.6181
G1 X40.9579 Y-277.2010
G1 X41.0511 Y-277.6958
G1 X40.9723 Y-279.2102
G1 X40.8680 Y-279.6925
G1 X40.6719 Y-280.0624
G1 Z0.0000 F8000.0
G0 X44.3693 Y-280.1597 F15000.0
G1 Z11.9000 F8000.0
G1 X43.8662 Y-280.4306 F12000.0
G1 X43.1196 Y-280.3849
G1 X42.7893 Y-280.1561
G1 X42.5077 Y-279.6824
G1 X42.3276 Y-278.8259
G1 X42.3463 Y-277.5657
G1 X42.5738 Y-276.7182
G1 X42.9998 Y-276.2516
G1 X43.7368 Y-276.1397
G1 X44.0866 Y-276.2335
G1 X44.3532 Y-276.4270
G1 X44.1831 Y-276.2910
G1 X44.4649 Y-276.6331
G1 X44.6670 Y-277.0949
G1 X44.7973 Y-277.7094
G1 X44.7173 Y-279.2238
G1 X44.6089 Y-279.7049
G1 X44.4179 Y-280.0624
G1 Z0.0000 F8000.0
G0 X47.9207 Y-278.9922 F15000.0
G1 Z11.9000 F8000.0
G1 X47.9693 Y-279.0895 F12000.0
G1 Z0.0000 F8000.0
G0 X48.5531 Y-280.3057 F15000.0
G1 Z11.9000 F8000.0
G1 X48.7096 Y-280.3962 F12000.0
G1 X49.3788 Y-280.4457
G1 Z0.0000 F8000.0
G0 X48.7644 Y-280.3954 F15000.0
G1 Z11.9000 F8000.0
G1 X48.5438 Y-280.2967 F12000.0
G1 X48.2897 Y-280.0441
G1 X48.0440 Y-279.4928
G1 X47.9365 Y-277.6065
G1 X48.1512 Y-276.7561
G1 X48.5607 Y-276.2687
G1 X49.4140 Y-276.1413
G1 X49.9568 Y-276.4417
G1 X49.8826 Y-276.3639
G1 X50.3373 Y-277.4205
G1 X50.3927 Y-277.7921
G1 X50.2752 Y-279.4273
G1 X50.0273 Y-280.0094
G1 X49.5530 Y-280.4100
G1 X49.9580 Y-280.1380
G1 X50.3045 Y-279.3813
G1 Z0.0000 F8000.0
G0 X50.3045 Y-277.1921 F15000.0
G1 Z11.9000 F8000.0
G1 X49.7207 Y-276.2191 F12000.0
G1 Z0.0000 F8000.0
G0 X52.3964 Y-276.1705 F15000.0
G1 Z11.9000 F8000.0
G1 X52.0719 Y-276.3470 F12000.0
G1 X51.9257 Y-276.5436
G1 X52.4915 Y-276.1575
G1 X53.2306 Y-276.2400
G1 X53.4485 Y-276.3331
G1 X54.0025 Y-277.0117
G1 X53.7616 Y-276.5752
G1 X54.0352 Y-277.0947
G1 X54.1767 Y-277.8327
G1 X54.0435 Y-278.2780
G1 X53.3213 Y-277.9339
G1 X52.9609 Y-277.8488
G1 X52.0137 Y-278.1369
G1 X51.7424 Y-278.5514
G1 X51.6390 Y-278.9108
G1 X51.8981 Y-279.9832
G1 X51.8481 Y-279.8928
G1 X52.0488 Y-280.1000
G1 X52.8382 Y-280.4685
G1 X53.6559 Y-280.1834
G1 X53.8940 Y-279.7636
G1 X54.1090 Y-278.6470
G1 X54.0992 Y-278.3597
G1 Z0.0000 F8000.0
G0 X53.3694 Y-276.2678 F15000.0
G1 Z11.9000 F8000.0
G1 X53.2721 Y-276.2191 F12000.0
G1 Z0.0000 F8000.0
G0 X68.1282 Y-271.0412 F15000.0
G1 Z11.9000 F8000.0
G1 X68.1282 Y-284.6338 F12000.0
G1 Z0.0000 F8000.0

G0 Z0.0000 F800.0
G4 P0.06
G0 X0.0000 Y0.0000 F15000.0
M5
G4 P0.10
$1=0
