$X
$1=255
G21
G90
G92 Z4.0000
G0 Z0.0000 F800.0
G4 P0.06
G92 Z0.0000
G0 Z0.0000 F800.0
G0 X0.0000 Y0.0000 F15000.0
G21
G90
G17
G91.1
G0 Z0.0000
G0 X41.3589 Y-219.9601 F15000.0
G1 Z11.9000 F2500.0
G4 P0.02
G1 X41.4758 Y-218.5576 F2200.0
G1 X43.1120 Y-217.9732
G1 X43.3068 Y-218.9861
G1 X43.4237 Y-219.1030
G1 X43.7354 Y-219.1809
G1 X44.0860 Y-219.0640
G1 Z0.0000 F2500.0
G4 P0.02
G0 X41.3979 Y-217.0772 F15000.0
G1 Z11.9000 F2500.0
G4 P0.02
G1 X41.4368 Y-216.4928 F2200.0
G1 X41.7485 Y-215.9863
G1 Z0.0000 F2500.0
G4 P0.02
G0 X41.4368 Y-217.1551 F15000.0
G1 Z11.9000 F2500.0
G4 P0.02
G1 X41.5927 Y-217.3499 F2200.0
G1 X42.0602 Y-217.5057
G1 X42.4498 Y-217.3888
G1 Z0.0000 F2500.0
G4 P0.02
G0 X43.7354 Y-216.1032 F15000.0
G1 Z11.9000 F2500.0
G4 P0.02
G1 X45.2547 Y-214.7397 F2200.0
G1 X45.3327 Y-214.5838
G1 X45.3327 Y-216.2201
G1 Z0.0000 F2500.0
G4 P0.02
G0 X44.8652 Y-218.7134 F15000.0
G1 Z11.9000 F2500.0
G4 P0.02
G1 X44.4756 Y-218.9082 F2200.0
G1 X45.0210 Y-218.5576
G1 X45.1768 Y-218.3238
G1 X45.4495 Y-216.9992
G1 Z0.0000 F2500.0
G4 P0.02
G0 X74.9326 Y-96.8543 F15000.0
G1 Z11.9000 F2500.0
G4 P0.02
G1 X74.8547 Y-95.6077 F2200.0
G1 X75.3222 Y-95.1402
G1 X77.6986 Y-94.2052
G1 X78.3220 Y-94.0883
G1 X78.6336 Y-94.3610
G1 X78.6726 Y-95.1402
G1 X78.5947 Y-95.3739
G1 X78.6336 Y-95.2181
G1 X78.5557 Y-95.4518
G1 X78.1661 Y-95.8804
G1 X77.4649 Y-96.1920
G1 Z0.0000 F2500.0
G4 P0.02
G0 X74.8157 Y-94.0883 F15000.0
G1 Z11.9000 F2500.0
G4 P0.02
G1 X74.8157 Y-93.0754 F2200.0
G1 X75.1664 Y-92.6079
G1 Z0.0000 F2500.0
G4 P0.02
G0 X75.0105 Y-96.8933 F15000.0
G1 Z11.9000 F2500.0
G4 P0.02
G1 X75.4001 Y-96.9322 F2200.0
G1 Z0.0000 F2500.0
G4 P0.02
G0 X75.1274 Y-94.3220 F15000.0
G1 Z11.9000 F2500.0
G4 P0.02
G1 X75.4001 Y-94.3220 F2200.0
G1 Z0.0000 F2500.0
G4 P0.02
G0 X75.7897 Y-92.3352 F15000.0
G1 Z11.9000 F2500.0
G4 P0.02
G1 X75.4780 Y-92.4521 F2200.0
G1 X76.1403 Y-92.2183
G1 X76.6468 Y-92.2183
G1 X76.7247 Y-92.2962
G1 X76.9195 Y-93.6598
G1 X76.3741 Y-93.9714
G1 X76.8416 Y-93.7766
G1 X76.9195 Y-93.6598
G1 X77.5428 Y-93.3870
G1 X78.0493 Y-92.9196
G1 X78.6726 Y-91.9066
G1 Z0.0000 F2500.0
G4 P0.02
G0 X76.3741 Y-96.5816 F15000.0
G1 Z11.9000 F2500.0
G4 P0.02
G1 X76.2572 Y-96.6206 F2200.0
G1 Z0.0000 F2500.0
G4 P0.02
G0 X77.0363 Y-96.3479 F15000.0
G1 Z11.9000 F2500.0
G4 P0.02
G1 X76.9195 Y-96.3868 F2200.0
G1 Z0.0000 F2500.0
G4 P0.02
G0 X74.8944 Y-98.0055 F15000.0
G1 Z11.9000 F2500.0
G4 P0.02
G1 X74.7385 Y-98.4730 F2200.0
G1 X74.8944 Y-98.6677
G1 X75.6346 Y-98.1223
G1 X75.2060 Y-97.7717
G1 X75.0112 Y-97.8886
G1 X75.1281 Y-97.8107
G1 Z0.0000 F2500.0
G4 P0.02
G0 X86.4308 Y-47.7805 F15000.0
G1 Z11.9000 F2500.0
G4 P0.02
G1 X86.2749 Y-47.6246 F2200.0
G1 Z0.0000 F2500.0
G4 P0.02
G0 X86.6255 Y-48.0921 F15000.0
G1 Z11.9000 F2500.0
G4 P0.02
G1 X86.7424 Y-48.2479 F2200.0
G1 X86.7424 Y-48.7934
G1 X86.5476 Y-49.1050
G1 X86.7424 Y-49.8842
G1 X87.0930 Y-50.3127
G1 X87.5995 Y-50.6244
G1 X87.9891 Y-50.7413
G1 X88.5735 Y-50.5854
G1 X88.4955 Y-50.7413
G1 X88.9630 Y-51.5204
G1 Z0.0000 F2500.0
G4 P0.02
G0 X86.7814 Y-48.7544 F15000.0
G1 Z11.9000 F2500.0
G4 P0.02
G1 X86.9372 Y-48.6375 F2200.0
G1 X86.8593 Y-48.4427
G1 Z0.0000 F2500.0
G4 P0.02
G0 X88.0670 Y-50.1959 F15000.0
G1 Z11.9000 F2500.0
G4 P0.02
G1 X87.1320 Y-48.7154 F2200.0
G1 X87.1320 Y-48.5986
G1 X88.3787 Y-49.0661
G1 X88.5735 Y-49.2609
G1 X88.8072 Y-49.8063
G1 X88.7682 Y-50.3127
G1 X88.6124 Y-50.5465
G1 Z0.0000 F2500.0
G4 P0.02
G0 X89.1968 Y-48.4038 F15000.0
G1 Z11.9000 F2500.0
G4 P0.02
G1 X90.0539 Y-47.6636 F2200.0
G1 X90.5603 Y-47.8194
G1 X90.9109 Y-48.0921
G1 X91.1447 Y-48.6375
G1 X91.3395 Y-49.4557
G1 X91.1057 Y-49.8452
G1 X90.2487 Y-49.8842
G1 X90.2097 Y-50.0011
G1 Z0.0000 F2500.0
G4 P0.02
G0 X89.2357 Y-48.4817 F15000.0
G1 Z11.9000 F2500.0
G4 P0.02
G1 X89.5474 Y-49.1829 F2200.0
G1 X90.0539 Y-49.6894
G1 X90.3266 Y-50.9750
G1 Z0.0000 F2500.0
G4 P0.02
G0 X91.0668 Y-51.5984 F15000.0
G1 Z11.9000 F2500.0
G4 P0.02
G1 X91.6512 Y-51.5594 F2200.0
G1 X91.8849 Y-51.2867
G1 X91.6122 Y-50.3517
G1 X91.2226 Y-49.9621
G1 Z0.0000 F2500.0
G4 P0.02
G0 X91.8849 Y-48.6375 F15000.0
G1 Z11.9000 F2500.0
G4 P0.02
G1 X91.8849 Y-47.8973 F2200.0
G1 X91.9628 Y-47.8194
G1 X92.6641 Y-47.6636
G1 X93.2874 Y-47.8973
G1 Z0.0000 F2500.0
G4 P0.02
G0 X91.9628 Y-48.8323 F15000.0
G1 Z11.9000 F2500.0
G4 P0.02
G1 X92.9757 Y-51.2477 F2200.0
G1 X93.3653 Y-51.5204
G1 X94.4172 Y-51.5594
G1 X94.6120 Y-51.2867
G1 X94.3003 Y-50.1179
G1 X93.7549 Y-48.5596
G1 X93.5211 Y-48.1311
G1 Z0.0000 F2500.0
G4 P0.02
G0 X86.2749 Y-161.6993 F15000.0
G1 Z11.9000 F2500.0
G4 P0.02
G1 X86.4308 Y-161.8551 F2200.0
G1 Z0.0000 F2500.0
G4 P0.02
G0 X86.9372 Y-162.7122 F15000.0
G1 Z11.9000 F2500.0
G4 P0.02
G1 X86.5476 Y-163.1797 F2200.0
G1 X86.6645 Y-163.8030
G1 X87.2099 Y-164.4653
G1 X87.5995 Y-164.6991
G1 X88.4566 Y-164.7380
G1 X88.5735 Y-164.6601
G1 X88.4955 Y-164.8160
G1 X89.0410 Y-165.7120
G1 Z0.0000 F2500.0
G4 P0.02
G0 X86.8983 Y-162.6343 F15000.0
G1 Z11.9000 F2500.0
G4 P0.02
G1 X86.7424 Y-162.3226 F2200.0
G1 Z0.0000 F2500.0
G4 P0.02
G0 X87.2099 Y-162.9849 F15000.0
G1 Z11.9000 F2500.0
G4 P0.02
G1 X87.1320 Y-162.6733 F2200.0
G1 X88.3787 Y-163.1408
G1 X88.5735 Y-163.3356
G1 X88.8072 Y-163.8810
G1 X88.8072 Y-164.3095
G1 X88.6124 Y-164.6212
G1 X88.7682 Y-164.3874
G1 Z0.0000 F2500.0
G4 P0.02
G0 X88.2618 Y-164.6212 F15000.0
G1 Z11.9000 F2500.0
G4 P0.02
G1 X87.4047 Y-163.2966 F2200.0
G1 Z0.0000 F2500.0
G4 P0.02
G0 X89.4695 Y-162.9460 F15000.0
G1 Z11.9000 F2500.0
G4 P0.02
G1 X89.4695 Y-162.6733 F2200.0
G1 X90.4824 Y-162.5953
G1 X90.4045 Y-162.3226
G1 X90.5993 Y-162.6733
G1 X90.7551 Y-163.2187
G1 X90.6382 Y-162.6343
G1 X91.2226 Y-162.7122
G1 Z0.0000 F2500.0
G4 P0.02
G0 X89.6253 Y-163.2187 F15000.0
G1 Z11.9000 F2500.0
G4 P0.02
G1 X89.5085 Y-163.0239 F2200.0
G1 X90.3655 Y-164.5043
G1 Z0.0000 F2500.0
G4 P0.02
G0 X90.3266 Y-162.1668 F15000.0
G1 Z11.9000 F2500.0
G4 P0.02
G1 X90.2097 Y-161.8551 F2200.0
G1 Z0.0000 F2500.0
G4 P0.02
G0 X90.6382 Y-165.0108 F15000.0
G1 Z11.9000 F2500.0
G4 P0.02
G1 X91.0278 Y-165.7120 F2200.0
G1 Z0.0000 F2500.0
G4 P0.02
G0 X90.9109 Y-163.5693 F15000.0
G1 Z11.9000 F2500.0
G4 P0.02
G1 X90.7941 Y-163.2966 F2200.0
G1 Z0.0000 F2500.0
G4 P0.02
G0 X91.7984 Y-162.3776 F15000.0
G1 Z11.9000 F2500.0
G4 P0.02
G1 X91.9543 Y-161.8711 F2200.0
G1 X92.0711 Y-161.7932
G1 X93.1230 Y-161.8322
G1 X93.5126 Y-162.1828
G1 X93.7074 Y-162.5724
G1 X93.5515 Y-162.2607
G1 X93.8632 Y-163.0009
G1 X93.8632 Y-163.6632
G1 X93.7463 Y-163.7801
G1 X92.4997 Y-163.8970
G1 Z0.0000 F2500.0
G4 P0.02
G0 X91.9153 Y-162.6893 F15000.0
G1 Z11.9000 F2500.0
G4 P0.02
G1 X92.1880 Y-163.4684 F2200.0
G1 X92.8113 Y-164.5982
G1 Z0.0000 F2500.0
G4 P0.02
G0 X93.4736 Y-165.2605 F15000.0
G1 Z11.9000 F2500.0
G4 P0.02
G1 X94.1749 Y-165.6501 F2200.0
G1 Z0.0000 F2500.0
G4 P0.02
G0 X7.4903 Y-25.4634 F15000.0
G1 Z11.9000 F2500.0
G4 P0.02
G1 X7.3734 Y-25.5024 F2200.0
G1 X9.2434 Y-24.7622
G1 X9.1266 Y-24.8011
G1 X9.2045 Y-25.1517
G1 X8.4253 Y-25.8530
G1 X7.8020 Y-26.5542
G1 X9.6720 Y-25.8530
G1 Z0.0000 F2500.0
G4 P0.02
G0 X7.6072 Y-28.7749 F15000.0
G1 Z11.9000 F2500.0
G4 P0.02
G1 X7.4903 Y-29.2424 F2200.0
G1 X7.6462 Y-29.3203
G1 X8.2305 Y-28.8917
G1 X8.3864 Y-29.3982
G1 X9.2045 Y-29.2034
G1 X10.0616 Y-28.8528
G1 X10.2174 Y-28.0347
G1 X10.1005 Y-27.9178
G1 X8.5032 Y-28.4242
G1 X8.5032 Y-27.9567
G1 X9.0097 Y-27.6840
G1 X9.2434 Y-27.4503
G1 X9.2045 Y-26.6322
G1 X8.2695 Y-26.9828
G1 Z0.0000 F2500.0
G4 P0.02
G0 X7.5293 Y-26.7101 F15000.0
G1 Z11.9000 F2500.0
G4 P0.02
G1 X7.6462 Y-26.6322 F2200.0
G1 Z0.0000 F2500.0
G4 P0.02
G0 X7.6462 Y-28.7359 F15000.0
G1 Z11.9000 F2500.0
G4 P0.02
G1 X8.3084 Y-28.5801 F2200.0
G1 X8.3084 Y-28.7359
G1 X8.3084 Y-28.5411
G1 X8.4253 Y-28.4632
G1 Z0.0000 F2500.0
G4 P0.02
G0 X9.2824 Y-27.4892 F15000.0
G1 Z11.9000 F2500.0
G4 P0.02
G1 X10.3343 Y-27.1776 F2200.0
G1 Z0.0000 F2500.0
G4 P0.02
G0 X9.3214 Y-24.7232 F15000.0
G1 Z11.9000 F2500.0
G4 P0.02
G1 X9.6330 Y-24.6453 F2200.0
G1 X9.4772 Y-24.9180
G1 X9.8668 Y-24.4895
G1 X10.2174 Y-24.2947
G1 Z0.0000 F2500.0
G4 P0.02
G0 X10.3343 Y-26.1257 F15000.0
G1 Z11.9000 F2500.0
G4 P0.02
G1 X9.3603 Y-26.5542 F2200.0
G1 Z0.0000 F2500.0
G4 P0.02
G0 X7.5261 Y-33.3840 F15000.0
G1 Z11.9000 F2500.0
G4 P0.02
G1 X7.4093 Y-33.4230 F2200.0
G1 X7.5651 Y-33.7736
G1 X7.5261 Y-34.2411
G1 X8.5780 Y-33.9294
G1 X8.6170 Y-33.3840
G1 X8.0326 Y-33.5399
G1 X8.0326 Y-33.1892
G1 X7.6820 Y-33.3061
G1 X7.6041 Y-33.7346
G1 X7.8378 Y-33.6178
G1 Z0.0000 F2500.0
G4 P0.02
G0 X7.4093 Y-32.1374 F15000.0
G1 Z11.9000 F2500.0
G4 P0.02
G1 X8.0326 Y-32.0984 F2200.0
G1 X9.7078 Y-32.2932
G1 X9.7857 Y-32.3711
G1 X9.5520 Y-32.5659
G1 Z0.0000 F2500.0
G4 P0.02
G0 X9.8247 Y-32.3321 F15000.0
G1 Z11.9000 F2500.0
G4 P0.02
G1 X10.0974 Y-32.3321 F2200.0
G1 Z0.0000 F2500.0
G4 P0.02
G0 X8.3443 Y-31.7867 F15000.0
G1 Z11.9000 F2500.0
G4 P0.02
G1 X8.2274 Y-31.8257 F2200.0
G1 X10.3311 Y-30.9686
G1 Z0.0000 F2500.0
G4 P0.02
G0 X8.3053 Y-33.0724 F15000.0
G1 Z11.9000 F2500.0
G4 P0.02
G1 X9.2793 Y-32.6828 F2200.0
G1 Z0.0000 F2500.0
G4 P0.02
G0 X7.4232 Y-39.1346 F15000.0
G1 Z11.9000 F2500.0
G4 P0.02
G1 X7.5011 Y-40.0696 F2200.0
G1 X7.6569 Y-40.1475
G1 X8.1634 Y-39.9917
G1 X8.2803 Y-39.8748
G1 X8.4750 Y-38.8619
G1 X9.9165 Y-38.3165
G1 X10.1892 Y-38.3944
G1 X10.0723 Y-39.2515
G1 X8.3192 Y-39.9138
G1 Z0.0000 F2500.0
G4 P0.02
G0 X8.4361 Y-40.8098 F15000.0
G1 Z11.9000 F2500.0
G4 P0.02
G1 X8.3582 Y-41.4332 F2200.0
G1 X10.0334 Y-40.8877
G1 Z0.0000 F2500.0
G4 P0.02
G0 X8.3192 Y-38.1217 F15000.0
G1 Z11.9000 F2500.0
G4 P0.02
G1 X8.3582 Y-37.4205 F2200.0
G1 X8.4750 Y-37.2646
G1 X9.9165 Y-36.7192
G1 X10.2282 Y-36.8361
G1 X8.4361 Y-38.2386
G1 Z0.0000 F2500.0
G4 P0.02
G0 X8.3582 Y-36.5634 F15000.0
G1 Z11.9000 F2500.0
G4 P0.02
G1 X8.3192 Y-35.7453 F2200.0
G1 X10.1502 Y-34.9661
G1 Z0.0000 F2500.0
G4 P0.02
G0 X8.3971 Y-36.6023 F15000.0
G1 Z11.9000 F2500.0
G4 P0.02
G1 X8.5919 Y-36.6023 F2200.0
G1 Z0.0000 F2500.0
G4 P0.02
G0 X8.5140 Y-40.7709 F15000.0
G1 Z11.9000 F2500.0
G4 P0.02
G1 X10.1892 Y-39.7969 F2200.0
G1 Z0.0000 F2500.0
G4 P0.02
G0 X9.1373 Y-36.4076 F15000.0
G1 Z11.9000 F2500.0
G4 P0.02
G1 X9.4490 Y-36.3296 F2200.0
G1 Z0.0000 F2500.0
G4 P0.02
G0 X7.4232 Y-53.6146 F15000.0
G1 Z11.9000 F2500.0
G4 P0.02
G1 X7.5011 Y-54.5496 F2200.0
G1 X7.6569 Y-54.6275
G1 X8.1634 Y-54.4717
G1 X7.8128 Y-54.5496
G1 X8.2803 Y-54.3548
G1 X8.4750 Y-53.3419
G1 X9.9165 Y-52.7965
G1 X10.1892 Y-52.8744
G1 X10.0723 Y-53.7315
G1 X8.3192 Y-54.3938
G1 Z0.0000 F2500.0
G4 P0.02
G0 X7.4621 Y-51.4330 F15000.0
G1 Z11.9000 F2500.0
G4 P0.02
G1 X7.5011 Y-50.2642 F2200.0
G1 X10.1502 Y-49.2123
G1 Z0.0000 F2500.0
G4 P0.02
G0 X7.5011 Y-51.4719 F15000.0
G1 Z11.9000 F2500.0
G4 P0.02
G1 X10.1113 Y-50.5759 F2200.0
G1 Z0.0000 F2500.0
G4 P0.02
G0 X8.3192 Y-55.0171 F15000.0
G1 Z11.9000 F2500.0
G4 P0.02
G1 X8.3582 Y-55.8352 F2200.0
G1 X8.5919 Y-55.8742
G1 X10.1113 Y-55.3677
G1 Z0.0000 F2500.0
G4 P0.02
G0 X8.5919 Y-52.7186 F15000.0
G1 Z11.9000 F2500.0
G4 P0.02
G1 X8.3192 Y-51.9784 F2200.0
G1 X8.4750 Y-51.7446
G1 X10.2282 Y-51.3161
G1 X9.1373 Y-52.5238
G1 Z0.0000 F2500.0
G4 P0.02
G0 X9.0594 Y-54.6665 F15000.0
G1 Z11.9000 F2500.0
G4 P0.02
G1 X8.3971 Y-54.9392 F2200.0
G1 Z0.0000 F2500.0
G4 P0.02
G0 X9.1373 Y-54.6275 F15000.0
G1 Z11.9000 F2500.0
G4 P0.02
G1 X10.1502 Y-54.2380 F2200.0
G1 Z0.0000 F2500.0
G4 P0.02
G0 X7.4232 Y-61.2371 F15000.0
G1 Z11.9000 F2500.0
G4 P0.02
G1 X7.5011 Y-62.1721 F2200.0
G1 X7.6569 Y-62.2500
G1 X8.1634 Y-62.0942
G1 X8.2803 Y-61.9773
G1 X8.4750 Y-60.9644
G1 X9.9165 Y-60.4190
G1 X10.1892 Y-60.4969
G1 X10.0723 Y-61.3540
G1 X8.3192 Y-62.0163
G1 Z0.0000 F2500.0
G4 P0.02
G0 X8.3192 Y-64.9771 F15000.0
G1 Z11.9000 F2500.0
G4 P0.02
G1 X8.3582 Y-65.6784 F2200.0
G1 X9.0984 Y-65.5225
G1 X10.1502 Y-65.1329
G1 Z0.0000 F2500.0
G4 P0.02
G0 X8.3192 Y-64.8992 F15000.0
G1 Z11.9000 F2500.0
G4 P0.02
G1 X8.3192 Y-64.2369 F2200.0
G1 X10.0723 Y-63.4577
G1 X9.9944 Y-63.1071
G1 X9.7996 Y-63.1461
G1 X10.0723 Y-63.0292
G1 X10.1502 Y-62.0163
G1 X9.9165 Y-62.0163
G1 Z0.0000 F2500.0
G4 P0.02
G0 X8.3582 Y-64.9381 F15000.0
G1 Z11.9000 F2500.0
G4 P0.02
G1 X10.1502 Y-64.2759 F2200.0
G1 Z0.0000 F2500.0
G4 P0.02
G0 X8.3971 Y-66.4575 F15000.0
G1 Z11.9000 F2500.0
G4 P0.02
G1 X8.5140 Y-67.3925 F2200.0
G1 X10.0723 Y-66.8471
G1 X10.1502 Y-65.8342
G1 X9.3321 Y-66.0290
G1 Z0.0000 F2500.0
G4 P0.02
G0 X9.4880 Y-63.2629 F15000.0
G1 Z11.9000 F2500.0
G4 P0.02
G1 X8.2803 Y-63.5746 F2200.0
G1 X8.4750 Y-62.5617
G1 X9.4880 Y-62.1721
G1 Z0.0000 F2500.0
G4 P0.02
G0 X8.6964 Y-75.7371 F15000.0
G1 Z11.9000 F2500.0
G4 P0.02
G1 X7.5666 Y-77.0617 F2200.0
G1 X7.8783 Y-77.1785
G1 X8.6964 Y-76.6331
G1 X8.7743 Y-75.6981
G1 X10.2158 Y-75.2306
G1 X10.1768 Y-76.1656
G1 Z0.0000 F2500.0
G4 P0.02
G0 X8.5796 Y-80.8796 F15000.0
G1 Z11.9000 F2500.0
G4 P0.02
G1 X8.2289 Y-80.8796 F2200.0
G1 X8.6185 Y-80.8406
G1 X8.6964 Y-80.7237
G1 X8.6964 Y-80.9185
G1 X9.0470 Y-81.0354
G1 X9.0470 Y-81.2302
G1 X9.2418 Y-80.9964
G1 X9.0470 Y-80.5679
G1 X8.9302 Y-80.6069
G1 X9.8262 Y-80.2173
G1 X9.5535 Y-80.3342
G1 X9.4756 Y-79.8667
G1 X10.0989 Y-79.6329
G1 X10.2158 Y-79.2044
G1 X10.2158 Y-78.7369
G1 X9.9431 Y-78.6200
G1 X8.4237 Y-79.2044
G1 X8.3458 Y-80.2173
G1 X9.0470 Y-80.0225
G1 Z0.0000 F2500.0
G4 P0.02
G0 X8.4237 Y-82.0483 F15000.0
G1 Z11.9000 F2500.0
G4 P0.02
G1 X8.3068 Y-82.1262 F2200.0
G1 X8.6964 Y-81.8535
G1 X8.8912 Y-81.4639
G1 X8.7354 Y-81.8925
G1 X10.0989 Y-81.3860
G1 X10.2158 Y-81.8146
G1 X10.1379 Y-81.9314
G1 Z0.0000 F2500.0
G4 P0.02
G0 X8.6575 Y-78.4642 F15000.0
G1 Z11.9000 F2500.0
G4 P0.02
G1 X8.5406 Y-78.5031 F2200.0
G1 X8.5016 Y-77.6460
G1 Z0.0000 F2500.0
G4 P0.02
G0 X8.7354 Y-78.4252 F15000.0
G1 Z11.9000 F2500.0
G4 P0.02
G1 X9.2418 Y-78.1135 F2200.0
G1 X9.2418 Y-77.7240
G1 X9.2808 Y-78.1525
G1 X9.9431 Y-78.0356
G1 X10.0989 Y-77.8798
G1 X10.1768 Y-77.6460
G1 X10.0210 Y-77.1396
G1 Z0.0000 F2500.0
G4 P0.02
G0 X8.7354 Y-76.6721 F15000.0
G1 Z11.9000 F2500.0
G4 P0.02
G1 X9.2029 Y-76.8279 F2200.0
G1 X9.9041 Y-76.5163
G1 Z0.0000 F2500.0
G4 P0.02
G0 X9.9041 Y-80.1783 F15000.0
G1 Z11.9000 F2500.0
G4 P0.02
G1 X10.3327 Y-80.0225 F2200.0
G1 Z0.0000 F2500.0
G4 P0.02
G0 X7.6072 Y-87.7493 F15000.0
G1 Z11.9000 F2500.0
G4 P0.02
G1 X7.4903 Y-88.2168 F2200.0
G1 X7.6462 Y-88.2947
G1 X7.9968 Y-88.0609
G1 X8.3474 Y-88.3337
G1 X8.2695 Y-87.9051
G1 X8.0357 Y-87.9830
G1 X8.2305 Y-87.8662
G1 X8.2695 Y-87.5155
G1 X7.6462 Y-87.7103
G1 Z0.0000 F2500.0
G4 P0.02
G0 X8.2695 Y-85.9572 F15000.0
G1 Z11.9000 F2500.0
G4 P0.02
G1 X8.3864 Y-85.9182 F2200.0
G1 X8.2695 Y-85.4508
G1 X9.2045 Y-85.0612
G1 X9.2045 Y-85.6066
G1 X8.4643 Y-85.8793
G1 Z0.0000 F2500.0
G4 P0.02
G0 X8.2695 Y-84.3989 F15000.0
G1 Z11.9000 F2500.0
G4 P0.02
G1 X9.8278 Y-83.7755 F2200.0
G1 X10.2174 Y-84.4768
G1 X10.0226 Y-84.7105
G1 X9.2824 Y-85.0222
G1 X9.3603 Y-85.5287
G1 X10.3343 Y-85.1001
G1 Z0.0000 F2500.0
G4 P0.02
G0 X8.3084 Y-87.5545 F15000.0
G1 Z11.9000 F2500.0
G4 P0.02
G1 X8.3084 Y-87.7103 F2200.0
G1 X8.3084 Y-87.5155
G1 X8.4253 Y-87.4376
G1 Z0.0000 F2500.0
G4 P0.02
G0 X8.3864 Y-88.3726 F15000.0
G1 Z11.9000 F2500.0
G4 P0.02
G1 X9.2045 Y-88.1778 F2200.0
G1 X10.0616 Y-87.8272
G1 X10.2174 Y-87.0091
G1 X10.1005 Y-86.8922
G1 X8.5032 Y-87.3987
G1 X8.5032 Y-86.9312
G1 X9.0097 Y-86.6585
G1 X9.2434 Y-86.4247
G1 X9.2434 Y-85.6455
G1 Z0.0000 F2500.0
G4 P0.02
G0 X9.2824 Y-86.4637 F15000.0
G1 Z11.9000 F2500.0
G4 P0.02
G1 X10.3343 Y-86.1520 F2200.0
G1 Z0.0000 F2500.0
G4 P0.02
G0 X7.5261 Y-92.3584 F15000.0
G1 Z11.9000 F2500.0
G4 P0.02
G1 X7.4093 Y-92.3974 F2200.0
G1 X7.5651 Y-92.7480
G1 X7.5261 Y-93.2155
G1 X8.5780 Y-92.9039
G1 X8.6170 Y-92.3584
G1 X8.0326 Y-92.5143
G1 X8.0326 Y-92.1637
G1 X7.6820 Y-92.2805
G1 X7.6041 Y-92.7091
G1 X7.8378 Y-92.5922
G1 Z0.0000 F2500.0
G4 P0.02
G0 X7.4093 Y-91.1118 F15000.0
G1 Z11.9000 F2500.0
G4 P0.02
G1 X8.0326 Y-91.0728 F2200.0
G1 X9.7078 Y-91.2676
G1 X9.7857 Y-91.3455
G1 X9.5520 Y-91.5403
G1 X9.8247 Y-91.3066
G1 X10.0974 Y-91.3066
G1 Z0.0000 F2500.0
G4 P0.02
G0 X8.3443 Y-90.7612 F15000.0
G1 Z11.9000 F2500.0
G4 P0.02
G1 X8.2274 Y-90.8001 F2200.0
G1 X10.3311 Y-89.9430
G1 Z0.0000 F2500.0
G4 P0.02
G0 X8.3053 Y-92.0468 F15000.0
G1 Z11.9000 F2500.0
G4 P0.02
G1 X9.2793 Y-91.6572 F2200.0
G1 Z0.0000 F2500.0
G4 P0.02
G0 X7.4903 Y-98.3151 F15000.0
G1 Z11.9000 F2500.0
G4 P0.02
G1 X7.3734 Y-98.3541 F2200.0
G1 X9.2434 Y-97.6139
G1 X9.1266 Y-97.6528
G1 X9.2045 Y-98.0035
G1 X8.4253 Y-98.7047
G1 X7.8020 Y-99.4060
G1 X9.6720 Y-98.7047
G1 Z0.0000 F2500.0
G4 P0.02
G0 X7.6072 Y-101.6266 F15000.0
G1 Z11.9000 F2500.0
G4 P0.02
G1 X7.4903 Y-102.0941 F2200.0
G1 X7.6462 Y-102.1720
G1 X8.2305 Y-101.7434
G1 X8.3864 Y-102.2499
G1 X9.2045 Y-102.0551
G1 X10.0616 Y-101.7045
G1 X10.2174 Y-100.8864
G1 X10.1005 Y-100.7695
G1 X8.5032 Y-101.2759
G1 X8.5032 Y-100.8084
G1 X9.0097 Y-100.5357
G1 X9.2434 Y-100.3020
G1 X9.2045 Y-99.4839
G1 X8.2695 Y-99.8345
G1 Z0.0000 F2500.0
G4 P0.02
G0 X7.5293 Y-99.5618 F15000.0
G1 Z11.9000 F2500.0
G4 P0.02
G1 X7.6462 Y-99.4839 F2200.0
G1 Z0.0000 F2500.0
G4 P0.02
G0 X7.6462 Y-101.5876 F15000.0
G1 Z11.9000 F2500.0
G4 P0.02
G1 X8.3084 Y-101.4318 F2200.0
G1 X8.3084 Y-101.5876
G1 X8.3084 Y-101.3928
G1 X8.4253 Y-101.3149
G1 Z0.0000 F2500.0
G4 P0.02
G0 X9.2824 Y-100.3409 F15000.0
G1 Z11.9000 F2500.0
G4 P0.02
G1 X10.3343 Y-100.0293 F2200.0
G1 Z0.0000 F2500.0
G4 P0.02
G0 X9.3214 Y-97.5749 F15000.0
G1 Z11.9000 F2500.0
G4 P0.02
G1 X9.6330 Y-97.4970 F2200.0
G1 X9.4772 Y-97.7697
G1 X9.8668 Y-97.3412
G1 X10.2174 Y-97.1464
G1 Z0.0000 F2500.0
G4 P0.02
G0 X10.3343 Y-98.9774 F15000.0
G1 Z11.9000 F2500.0
G4 P0.02
G1 X9.3603 Y-99.4060 F2200.0
G1 Z0.0000 F2500.0
G4 P0.02
G0 X7.5261 Y-106.2357 F15000.0
G1 Z11.9000 F2500.0
G4 P0.02
G1 X7.4093 Y-106.2747 F2200.0
G1 X7.5651 Y-106.6253
G1 X7.5261 Y-107.0928
G1 X8.5780 Y-106.7811
G1 X8.6170 Y-106.2357
G1 X8.0326 Y-106.3915
G1 X8.0326 Y-106.0409
G1 X7.6820 Y-106.1578
G1 X7.6041 Y-106.5863
G1 X7.8378 Y-106.4695
G1 Z0.0000 F2500.0
G4 P0.02
G0 X7.4093 Y-104.9890 F15000.0
G1 Z11.9000 F2500.0
G4 P0.02
G1 X8.0326 Y-104.9501 F2200.0
G1 X9.7078 Y-105.1449
G1 X9.7857 Y-105.2228
G1 X9.5520 Y-105.4176
G1 Z0.0000 F2500.0
G4 P0.02
G0 X9.8247 Y-105.1838 F15000.0
G1 Z11.9000 F2500.0
G4 P0.02
G1 X10.0974 Y-105.1838 F2200.0
G1 Z0.0000 F2500.0
G4 P0.02
G0 X8.3443 Y-104.6384 F15000.0
G1 Z11.9000 F2500.0
G4 P0.02
G1 X8.2274 Y-104.6774 F2200.0
G1 X10.3311 Y-103.8203
G1 Z0.0000 F2500.0
G4 P0.02
G0 X8.3053 Y-105.9240 F15000.0
G1 Z11.9000 F2500.0
G4 P0.02
G1 X9.2793 Y-105.5345 F2200.0
G1 Z0.0000 F2500.0
G4 P0.02
G0 X7.4232 Y-108.7918 F15000.0
G1 Z11.9000 F2500.0
G4 P0.02
G1 X7.6569 Y-109.8047 F2200.0
G1 X8.1634 Y-109.6488
G1 X8.2803 Y-109.5320
G1 X8.4750 Y-108.5190
G1 X10.1892 Y-108.0515
G1 X10.0723 Y-108.9086
G1 X8.3192 Y-109.5709
G1 Z0.0000 F2500.0
G4 P0.02
G0 X7.4621 Y-112.2201 F15000.0
G1 Z11.9000 F2500.0
G4 P0.02
G1 X7.5011 Y-113.1940 F2200.0
G1 Z0.0000 F2500.0
G4 P0.02
G0 X7.7348 Y-112.2590 F15000.0
G1 Z11.9000 F2500.0
G4 P0.02
G1 X7.5011 Y-112.1811 F2200.0
G1 X8.2413 Y-112.4538
G1 X8.4750 Y-111.7136
G1 X9.9165 Y-111.1682
G1 X10.1892 Y-111.2461
G1 X10.0723 Y-112.1032
G1 X8.3582 Y-112.6486
G1 Z0.0000 F2500.0
G4 P0.02
G0 X8.2413 Y-111.3240 F15000.0
G1 Z11.9000 F2500.0
G4 P0.02
G1 X10.1892 Y-110.4670 F2200.0
G1 Z0.0000 F2500.0
G4 P0.02
G0 X8.2413 Y-110.2332 F15000.0
G1 Z11.9000 F2500.0
G4 P0.02
G1 X9.8775 Y-109.6099 F2200.0
G1 X10.1892 Y-109.6878
G1 X10.2282 Y-110.4280
G1 X11.0073 Y-109.9215
G1 X11.0463 Y-109.1813
G1 Z0.0000 F2500.0
G4 P0.02
G0 X8.4361 Y-113.6615 F15000.0
G1 Z11.9000 F2500.0
G4 P0.02
G1 X8.3582 Y-114.2849 F2200.0
G1 X10.0334 Y-113.7394
G1 Z0.0000 F2500.0
G4 P0.02
G0 X8.5140 Y-113.6226 F15000.0
G1 Z11.9000 F2500.0
G4 P0.02
G1 X10.1892 Y-112.6486 F2200.0
G1 Z0.0000 F2500.0
G4 P0.02
G0 X7.4232 Y-126.4663 F15000.0
G1 Z11.9000 F2500.0
G4 P0.02
G1 X7.5011 Y-127.4013 F2200.0
G1 X7.6569 Y-127.4792
G1 X8.1634 Y-127.3234
G1 X7.8128 Y-127.4013
G1 X8.2803 Y-127.2065
G1 X8.4750 Y-126.1936
G1 X9.9165 Y-125.6482
G1 X10.1892 Y-125.7261
G1 X10.0723 Y-126.5832
G1 X8.3192 Y-127.2455
G1 Z0.0000 F2500.0
G4 P0.02
G0 X7.4621 Y-124.2847 F15000.0
G1 Z11.9000 F2500.0
G4 P0.02
G1 X7.5011 Y-123.1159 F2200.0
G1 X10.1502 Y-122.0640
G1 Z0.0000 F2500.0
G4 P0.02
G0 X7.5011 Y-124.3236 F15000.0
G1 Z11.9000 F2500.0
G4 P0.02
G1 X10.1113 Y-123.4276 F2200.0
G1 Z0.0000 F2500.0
G4 P0.02
G0 X8.3192 Y-127.8688 F15000.0
G1 Z11.9000 F2500.0
G4 P0.02
G1 X8.3582 Y-128.6869 F2200.0
G1 X8.5919 Y-128.7259
G1 X10.1113 Y-128.2194
G1 Z0.0000 F2500.0
G4 P0.02
G0 X8.5919 Y-125.5703 F15000.0
G1 Z11.9000 F2500.0
G4 P0.02
G1 X8.3192 Y-124.8301 F2200.0
G1 X8.4750 Y-124.5963
G1 X10.2282 Y-124.1678
G1 X9.1373 Y-125.3755
G1 Z0.0000 F2500.0
G4 P0.02
G0 X9.0594 Y-127.5182 F15000.0
G1 Z11.9000 F2500.0
G4 P0.02
G1 X8.3971 Y-127.7909 F2200.0
G1 Z0.0000 F2500.0
G4 P0.02
G0 X9.1373 Y-127.4792 F15000.0
G1 Z11.9000 F2500.0
G4 P0.02
G1 X10.1502 Y-127.0897 F2200.0
G1 Z0.0000 F2500.0
G4 P0.02
G0 X7.4232 Y-134.0888 F15000.0
G1 Z11.9000 F2500.0
G4 P0.02
G1 X7.5011 Y-135.0238 F2200.0
G1 X7.6569 Y-135.1017
G1 X8.1634 Y-134.9459
G1 X8.2803 Y-134.8290
G1 X8.4750 Y-133.8161
G1 X9.9165 Y-133.2707
G1 X10.1892 Y-133.3486
G1 X10.0723 Y-134.2057
G1 X8.3192 Y-134.8680
G1 Z0.0000 F2500.0
G4 P0.02
G0 X8.3192 Y-137.8288 F15000.0
G1 Z11.9000 F2500.0
G4 P0.02
G1 X8.3582 Y-138.5301 F2200.0
G1 X9.0984 Y-138.3742
G1 X10.1502 Y-137.9847
G1 Z0.0000 F2500.0
G4 P0.02
G0 X8.3192 Y-137.7509 F15000.0
G1 Z11.9000 F2500.0
G4 P0.02
G1 X8.3192 Y-137.0886 F2200.0
G1 X10.0723 Y-136.3095
G1 X9.9944 Y-135.9588
G1 X9.7996 Y-135.9978
G1 X10.0723 Y-135.8809
G1 X10.1502 Y-134.8680
G1 X9.9165 Y-134.8680
G1 Z0.0000 F2500.0
G4 P0.02
G0 X8.3582 Y-137.7899 F15000.0
G1 Z11.9000 F2500.0
G4 P0.02
G1 X10.1502 Y-137.1276 F2200.0
G1 Z0.0000 F2500.0
G4 P0.02
G0 X8.3971 Y-139.3092 F15000.0
G1 Z11.9000 F2500.0
G4 P0.02
G1 X8.5140 Y-140.2442 F2200.0
G1 X10.0723 Y-139.6988
G1 X10.1502 Y-138.6859
G1 X9.3321 Y-138.8807
G1 Z0.0000 F2500.0
G4 P0.02
G0 X9.4880 Y-136.1147 F15000.0
G1 Z11.9000 F2500.0
G4 P0.02
G1 X8.2803 Y-136.4263 F2200.0
G1 X8.4750 Y-135.4134
G1 X9.4880 Y-135.0238
G1 Z0.0000 F2500.0
G4 P0.02
G0 X7.6072 Y-191.8364 F15000.0
G1 Z11.9000 F2500.0
G4 P0.02
G1 X7.4903 Y-192.3039 F2200.0
G1 X7.6462 Y-192.3818
G1 X8.2305 Y-191.9533
G1 X8.3864 Y-192.4598
G1 X9.2045 Y-192.2650
G1 X10.0616 Y-191.9143
G1 X10.2174 Y-191.0962
G1 X10.1005 Y-190.9793
G1 X8.3084 Y-191.6027
G1 X8.3084 Y-191.7975
G1 X8.2695 Y-191.6027
G1 X7.6462 Y-191.7975
G1 Z0.0000 F2500.0
G4 P0.02
G0 X7.4903 Y-186.6550 F15000.0
G1 Z11.9000 F2500.0
G4 P0.02
G1 X7.6462 Y-185.5642 F2200.0
G1 X8.5422 Y-185.0967
G1 X9.9447 Y-184.6681
G1 X10.1784 Y-184.8629
G1 X10.3343 Y-185.9927
G1 X8.7759 Y-186.6160
G1 Z0.0000 F2500.0
G4 P0.02
G0 X8.3084 Y-190.9404 F15000.0
G1 Z11.9000 F2500.0
G4 P0.02
G1 X8.4643 Y-189.9275 F2200.0
G1 X10.1005 Y-189.3821
G1 X10.2174 Y-189.4989
G1 X10.0616 Y-190.4339
G1 X8.3474 Y-190.9793
G1 Z0.0000 F2500.0
G4 P0.02
G0 X8.3084 Y-189.1873 F15000.0
G1 Z11.9000 F2500.0
G4 P0.02
G1 X9.3603 Y-187.9796 F2200.0
G1 X10.2174 Y-187.7069
G1 X11.0745 Y-187.2783
G1 Z0.0000 F2500.0
G4 P0.02
G0 X8.5811 Y-189.3041 F15000.0
G1 Z11.9000 F2500.0
G4 P0.02
G1 X8.5032 Y-189.3431 F2200.0
G1 X8.3474 Y-189.2652
G1 Z0.0000 F2500.0
G4 P0.02
G0 X9.7889 Y-187.2783 F15000.0
G1 Z11.9000 F2500.0
G4 P0.02
G1 X8.3084 Y-187.5900 F2200.0
G1 X8.5032 Y-186.7329
G1 Z0.0000 F2500.0
G4 P0.02
G0 X9.7499 Y-188.9146 F15000.0
G1 Z11.9000 F2500.0
G4 P0.02
G1 X9.0097 Y-189.1483 F2200.0
G1 Z0.0000 F2500.0
G4 P0.02
G0 X10.1395 Y-188.6419 F15000.0
G1 Z11.9000 F2500.0
G4 P0.02
G1 X10.2174 Y-187.7458 F2200.0
G1 Z0.0000 F2500.0
G4 P0.02
G0 X7.5261 Y-196.4456 F15000.0
G1 Z11.9000 F2500.0
G4 P0.02
G1 X7.4093 Y-196.4845 F2200.0
G1 X7.5651 Y-196.8352
G1 X7.5261 Y-197.3027
G1 X8.5780 Y-196.9910
G1 X8.6170 Y-196.4456
G1 X8.0326 Y-196.6014
G1 X8.0326 Y-196.2508
G1 X7.6820 Y-196.3677
G1 X7.6041 Y-196.7962
G1 X7.8378 Y-196.6793
G1 Z0.0000 F2500.0
G4 P0.02
G0 X7.4093 Y-195.1989 F15000.0
G1 Z11.9000 F2500.0
G4 P0.02
G1 X8.0326 Y-195.1600 F2200.0
G1 X9.7078 Y-195.3548
G1 X9.7857 Y-195.4327
G1 X9.5520 Y-195.6275
G1 X9.8247 Y-195.3937
G1 X10.0974 Y-195.3937
G1 Z0.0000 F2500.0
G4 P0.02
G0 X8.3443 Y-194.8483 F15000.0
G1 Z11.9000 F2500.0
G4 P0.02
G1 X8.2274 Y-194.8873 F2200.0
G1 X10.3311 Y-194.0302
G1 Z0.0000 F2500.0
G4 P0.02
G0 X8.3053 Y-196.1339 F15000.0
G1 Z11.9000 F2500.0
G4 P0.02
G1 X9.2793 Y-195.7443 F2200.0
G1 Z0.0000 F2500.0
G4 P0.02
G0 X7.6056 Y-239.4021 F15000.0
G1 Z11.9000 F2500.0
G4 P0.02
G1 X7.4887 Y-239.8696 F2200.0
G1 X7.6445 Y-239.9475
G1 X8.2289 Y-239.5190
G1 X8.0341 Y-239.6359
G1 X8.2679 Y-239.5580
G1 X8.3847 Y-240.0255
G1 X9.2028 Y-239.8307
G1 X10.0599 Y-239.4800
G1 X10.2158 Y-238.6619
G1 X10.0989 Y-238.5451
G1 X8.3068 Y-239.1684
G1 X8.3068 Y-239.3632
G1 X8.2679 Y-239.1684
G1 X7.6445 Y-239.3632
G1 Z0.0000 F2500.0
G4 P0.02
G0 X7.7614 Y-235.5842 F15000.0
G1 Z11.9000 F2500.0
G4 P0.02
G1 X7.5276 Y-235.6232 F2200.0
G1 X7.4887 Y-234.4155
G1 X10.3326 Y-233.3247
G1 Z0.0000 F2500.0
G4 P0.02
G0 X7.8393 Y-235.5453 F15000.0
G1 Z11.9000 F2500.0
G4 P0.02
G1 X10.0989 Y-234.7272 F2200.0
G1 Z0.0000 F2500.0
G4 P0.02
G0 X8.3068 Y-236.7530 F15000.0
G1 Z11.9000 F2500.0
G4 P0.02
G1 X8.4626 Y-235.8959 F2200.0
G1 X9.2808 Y-235.6621
G1 X9.0470 Y-236.7140
G1 X8.6574 Y-236.8309
G1 X8.9691 Y-236.7530
G1 Z0.0000 F2500.0
G4 P0.02
G0 X10.1768 Y-236.8699 F15000.0
G1 Z11.9000 F2500.0
G4 P0.02
G1 X8.3458 Y-238.3892 F2200.0
G1 X9.2028 Y-238.2334
G1 X10.0599 Y-237.8828
G1 X10.2158 Y-236.9088
G1 X11.0728 Y-236.4413
G1 Z0.0000 F2500.0
G4 P0.02
G0 X8.5795 Y-236.8699 F15000.0
G1 Z11.9000 F2500.0
G4 P0.02
G1 X8.3458 Y-236.8309 F2200.0
G1 Z0.0000 F2500.0
G4 P0.02
G0 X9.3197 Y-235.5842 F15000.0
G1 Z11.9000 F2500.0
G4 P0.02
G1 X10.0210 Y-235.3505 F2200.0
G1 X10.2547 Y-236.3244
G1 Z0.0000 F2500.0
G4 P0.02
G0 X8.3784 Y-250.6143 F15000.0
G1 Z11.9000 F2500.0
G4 P0.02
G1 X8.2616 Y-250.6533 F2200.0
G1 X9.2355 Y-250.3416
G1 X9.2745 Y-251.1597
G1 X10.2874 Y-250.8481
G1 X10.2874 Y-251.2766
G1 X10.1315 Y-251.3935
G1 Z0.0000 F2500.0
G4 P0.02
G0 X8.2616 Y-247.2250 F15000.0
G1 Z11.9000 F2500.0
G4 P0.02
G1 X8.6122 Y-247.2250 F2200.0
G1 X8.7680 Y-247.0302
G1 X9.3134 Y-246.7964
G1 X9.1966 Y-246.8354
G1 X9.2355 Y-247.3029
G1 X9.1186 Y-247.3808
G1 X8.6901 Y-247.2250
G1 Z0.0000 F2500.0
G4 P0.02
G0 X9.1186 Y-247.3808 F15000.0
G1 Z11.9000 F2500.0
G4 P0.02
G1 X8.6511 Y-248.2379 F2200.0
G1 X8.3005 Y-248.4716
G1 X8.6901 Y-248.2379
G1 X10.0926 Y-247.7314
G1 Z0.0000 F2500.0
G4 P0.02
G0 X8.3784 Y-246.6795 F15000.0
G1 Z11.9000 F2500.0
G4 P0.02
G1 X8.2616 Y-246.7185 F2200.0
G1 X10.1705 Y-245.8614
G1 X10.1315 Y-245.0043
G1 X10.0536 Y-244.9654
G1 X8.2616 Y-245.6277
G1 Z0.0000 F2500.0
G4 P0.02
G0 X8.4174 Y-248.9781 F15000.0
G1 Z11.9000 F2500.0
G4 P0.02
G1 X8.3395 Y-249.8352 F2200.0
G1 X8.4953 Y-249.9131
G1 X9.0018 Y-249.7572
G1 X9.2355 Y-248.6664
G1 X8.4563 Y-248.9391
G1 Z0.0000 F2500.0
G4 P0.02
G0 X8.3005 Y-244.7706 F15000.0
G1 Z11.9000 F2500.0
G4 P0.02
G1 X9.3524 Y-243.5629 F2200.0
G1 X10.2095 Y-243.2902
G1 X11.0665 Y-242.8616
G1 Z0.0000 F2500.0
G4 P0.02
G0 X8.8849 Y-251.3935 F15000.0
G1 Z11.9000 F2500.0
G4 P0.02
G1 X8.4174 Y-251.6272 F2200.0
G1 Z0.0000 F2500.0
G4 P0.02
G0 X8.4174 Y-244.8875 F15000.0
G1 Z11.9000 F2500.0
G4 P0.02
G1 X10.0536 Y-244.3031 F2200.0
G1 X10.2095 Y-243.3291
G1 Z0.0000 F2500.0
G4 P0.02
G0 X9.7809 Y-242.8616 F15000.0
G1 Z11.9000 F2500.0
G4 P0.02
G1 X8.3005 Y-243.1733 F2200.0
G1 X8.4953 Y-242.3162
G1 X10.3263 Y-241.5760
G1 Z0.0000 F2500.0
G4 P0.02
G0 X9.2355 Y-251.1987 F15000.0
G1 Z11.9000 F2500.0
G4 P0.02
G1 X9.0407 Y-251.3156 F2200.0
G1 Z0.0000 F2500.0
G4 P0.02
G0 X9.2745 Y-250.2637 F15000.0
G1 Z11.9000 F2500.0
G4 P0.02
G1 X10.2484 Y-249.7572 F2200.0
G1 X10.2484 Y-249.4066
G1 X9.9368 Y-248.3937
G1 X9.3524 Y-248.5885
G1 Z0.0000 F2500.0
G4 P0.02
G0 X9.7420 Y-246.6016 F15000.0
G1 Z11.9000 F2500.0
G4 P0.02
G1 X9.5472 Y-246.6795 F2200.0
G1 X10.3263 Y-246.3679
G1 Z0.0000 F2500.0
G4 P0.02
G0 X7.3200 Y-18.8749 F15000.0
G1 Z11.9000 F2500.0
G4 P0.02
G1 X7.2811 Y-18.7581 F2200.0
G1 X7.7875 Y-20.0047
G1 X8.1382 Y-21.2514
G1 Z0.0000 F2500.0
G4 P0.02
G0 X7.8265 Y-19.9658 F15000.0
G1 Z11.9000 F2500.0
G4 P0.02
G1 X8.8394 Y-19.9268 F2200.0
G1 X8.3719 Y-18.4854
G1 Z0.0000 F2500.0
G4 P0.02
G0 X8.8784 Y-18.7970 F15000.0
G1 Z11.9000 F2500.0
G4 P0.02
G1 X9.6575 Y-18.4854 F2200.0
G1 X9.7744 Y-18.5243
G1 Z0.0000 F2500.0
G4 P0.02
G0 X8.9173 Y-20.0437 F15000.0
G1 Z11.9000 F2500.0
G4 P0.02
G1 X9.3459 Y-21.2514 F2200.0
G1 Z0.0000 F2500.0
G4 P0.02
G0 X8.9952 Y-19.2645 F15000.0
G1 Z11.9000 F2500.0
G4 P0.02
G1 X8.9173 Y-18.8749 F2200.0
G1 Z0.0000 F2500.0
G4 P0.02
G0 X9.0732 Y-19.4593 F15000.0
G1 Z11.9000 F2500.0
G4 P0.02
G1 X9.1121 Y-19.6151 F2200.0
G1 X9.1121 Y-19.4204
G1 X10.0861 Y-19.4983
G1 X10.3198 Y-20.1606
G1 X9.4238 Y-20.2774
G1 X9.1511 Y-19.6931
G1 Z0.0000 F2500.0
G4 P0.02
G0 X11.3427 Y-19.2645 F15000.0
G1 Z11.9000 F2500.0
G4 P0.02
G1 X11.1868 Y-18.6022 F2200.0
G1 X11.8102 Y-18.4853
G1 X12.0439 Y-18.5632
G1 Z0.0000 F2500.0
G4 P0.02
G0 X11.3816 Y-19.3424 F15000.0
G1 Z11.9000 F2500.0
G4 P0.02
G1 X11.7323 Y-20.2384 F2200.0
G1 X12.7062 Y-20.3943
G1 X12.2387 Y-18.8359
G1 X12.5893 Y-18.7580
G1 X12.4335 Y-18.4853
G1 X13.4854 Y-20.3553
G1 X14.0308 Y-20.3553
G1 X13.5633 Y-18.8749
G1 X13.9918 Y-18.7580
G1 X14.3424 Y-19.1476
G1 X14.2256 Y-19.5761
G1 X14.4204 Y-20.2384
G1 Z0.0000 F2500.0
G4 P0.02
G0 X12.8620 Y-21.2124 F15000.0
G1 Z11.9000 F2500.0
G4 P0.02
G1 X12.0829 Y-21.2513 F2200.0
G1 Z0.0000 F2500.0
G4 P0.02
G0 X12.7452 Y-20.4722 F15000.0
G1 Z11.9000 F2500.0
G4 P0.02
G1 X12.9010 Y-21.1345 F2200.0
G1 Z0.0000 F2500.0
G4 P0.02
G0 X14.4593 Y-19.3813 F15000.0
G1 Z11.9000 F2500.0
G4 P0.02
G1 X14.3814 Y-19.2255 F2200.0
G1 Z0.0000 F2500.0
G4 P0.02
G0 X14.4593 Y-20.2774 F15000.0
G1 Z11.9000 F2500.0
G4 P0.02
G1 X15.3943 Y-20.3553 F2200.0
G1 X15.0827 Y-19.4203
G1 X14.4983 Y-19.4203
G1 X15.0437 Y-19.3813
G1 X14.8099 Y-18.5632
G1 Z0.0000 F2500.0
G4 P0.02
G0 X3.2054 Y-41.1882 F15000.0
G1 Z11.9000 F2500.0
G4 P0.02
G1 X3.0886 Y-41.7336 F2200.0
G1 X3.2444 Y-41.9674
G1 X3.5561 Y-42.0453
G1 Z0.0000 F2500.0
G4 P0.02
G0 X3.2054 Y-40.2922 F15000.0
G1 Z11.9000 F2500.0
G4 P0.02
G1 X3.2444 Y-39.6689 F2200.0
G1 X3.5561 Y-39.2793
G1 Z0.0000 F2500.0
G4 P0.02
G0 X3.2834 Y-40.3701 F15000.0
G1 Z11.9000 F2500.0
G4 P0.02
G1 X3.6340 Y-40.4870 F2200.0
G1 X4.0236 Y-40.2922
G1 X4.4521 Y-39.8636
G1 Z0.0000 F2500.0
G4 P0.02
G0 X3.4392 Y-40.9155 F15000.0
G1 Z11.9000 F2500.0
G4 P0.02
G1 X5.6208 Y-40.1753 F2200.0
G1 X5.8546 Y-40.8766
G1 X5.7377 Y-41.1103
G1 Z0.0000 F2500.0
G4 P0.02
G0 X3.9456 Y-38.8118 F15000.0
G1 Z11.9000 F2500.0
G4 P0.02
G1 X5.5429 Y-37.7209 F2200.0
G1 X5.8546 Y-37.6430
G1 Z0.0000 F2500.0
G4 P0.02
G0 X4.0236 Y-37.8378 F15000.0
G1 Z11.9000 F2500.0
G4 P0.02
G1 X5.4650 Y-37.7209 F2200.0
G1 Z0.0000 F2500.0
G4 P0.02
G0 X4.8027 Y-41.6557 F15000.0
G1 Z11.9000 F2500.0
G4 P0.02
G1 X4.3742 Y-41.7726 F2200.0
G1 Z0.0000 F2500.0
G4 P0.02
G0 X4.8806 Y-39.4741 F15000.0
G1 Z11.9000 F2500.0
G4 P0.02
G1 X5.8156 Y-38.6559 F2200.0
G1 X5.6598 Y-38.7339
G1 X5.8546 Y-38.6949
G1 X5.8936 Y-39.6689
G1 Z0.0000 F2500.0
G4 P0.02
G0 X5.3871 Y-41.4220 F15000.0
G1 Z11.9000 F2500.0
G4 P0.02
G1 X4.9975 Y-41.5778 F2200.0
G1 Z0.0000 F2500.0
G4 P0.02
G0 X4.4174 Y-43.2396 F15000.0
G1 Z11.9000 F2500.0
G4 P0.02
G1 X4.3395 Y-43.2007 F2200.0
G1 X3.0928 Y-43.5513
G1 Z0.0000 F2500.0
G4 P0.02
G0 X3.3655 Y-47.9536 F15000.0
G1 Z11.9000 F2500.0
G4 P0.02
G1 X3.2097 Y-47.9146 F2200.0
G1 X3.1318 Y-48.7717
G1 Z0.0000 F2500.0
G4 P0.02
G0 X3.1318 Y-44.7980 F15000.0
G1 Z11.9000 F2500.0
G4 P0.02
G1 X4.5343 Y-44.2526 F2200.0
G1 X4.6122 Y-44.0967
G1 X4.4564 Y-43.2786
G1 Z0.0000 F2500.0
G4 P0.02
G0 X3.4434 Y-47.9925 F15000.0
G1 Z11.9000 F2500.0
G4 P0.02
G1 X3.9109 Y-48.1873 F2200.0
G1 X3.9889 Y-47.7198
G1 X4.1447 Y-47.4861
G1 X5.8588 Y-47.0186
G1 X5.7420 Y-47.8367
G1 X5.4693 Y-47.9925
G1 X5.4693 Y-48.3432
G1 X4.9239 Y-48.5769
G1 X4.9628 Y-49.4340
G1 X5.9368 Y-49.1223
G1 X5.8199 Y-49.6288
G1 X5.3134 Y-49.7067
G1 X5.8588 Y-49.6677
G1 X5.7809 Y-50.5638
G1 X5.8978 Y-50.7196
G1 X5.7420 Y-50.6027
G1 X3.9499 Y-51.1092
G1 X4.1057 Y-50.1742
G1 Z0.0000 F2500.0
G4 P0.02
G0 X4.8849 Y-48.5769 F15000.0
G1 Z11.9000 F2500.0
G4 P0.02
G1 X3.9889 Y-48.8496 F2200.0
G1 X4.1057 Y-48.3821
G1 X5.1576 Y-48.1094
G1 Z0.0000 F2500.0
G4 P0.02
G0 X3.9889 Y-46.9407 F15000.0
G1 Z11.9000 F2500.0
G4 P0.02
G1 X4.0278 Y-46.2784 F2200.0
G1 X4.5732 Y-45.9278
G1 X4.8849 Y-45.8498
G1 X4.6511 Y-45.8888
G1 X4.5732 Y-45.6161
G1 X4.9239 Y-45.3823
G1 X4.8459 Y-44.6421
G1 X4.6511 Y-44.6032
G1 X4.6511 Y-44.1357
G1 X5.0797 Y-44.0578
G1 X5.6641 Y-43.7071
G1 X5.8978 Y-42.8501
G1 Z0.0000 F2500.0
G4 P0.02
G0 X4.0278 Y-44.7980 F15000.0
G1 Z11.9000 F2500.0
G4 P0.02
G1 X4.5732 Y-44.6421 F2200.0
G1 Z0.0000 F2500.0
G4 P0.02
G0 X4.3784 Y-47.0186 F15000.0
G1 Z11.9000 F2500.0
G4 P0.02
G1 X4.0668 Y-47.0186 F2200.0
G1 Z0.0000 F2500.0
G4 P0.02
G0 X5.0018 Y-49.8236 F15000.0
G1 Z11.9000 F2500.0
G4 P0.02
G1 X4.1447 Y-50.1352 F2200.0
G1 X4.2616 Y-49.7457
G1 X4.8459 Y-49.5119
G1 Z0.0000 F2500.0
G4 P0.02
G0 X4.2616 Y-45.7330 F15000.0
G1 Z11.9000 F2500.0
G4 P0.02
G1 X4.1447 Y-45.7719 F2200.0
G1 Z0.0000 F2500.0
G4 P0.02
G0 X4.3395 Y-51.4209 F15000.0
G1 Z11.9000 F2500.0
G4 P0.02
G1 X3.9499 Y-52.4727 F2200.0
G1 X4.8459 Y-52.2390
G1 X4.9628 Y-52.1221
G1 X4.9628 Y-51.5377
G1 X5.2355 Y-51.4209
G1 X5.7420 Y-50.9534
G1 Z0.0000 F2500.0
G4 P0.02
G0 X4.5343 Y-51.3429 F15000.0
G1 Z11.9000 F2500.0
G4 P0.02
G1 X4.9239 Y-51.4988 F2200.0
G1 Z0.0000 F2500.0
G4 P0.02
G0 X4.9239 Y-45.8888 F15000.0
G1 Z11.9000 F2500.0
G4 P0.02
G1 X4.6901 Y-46.9017 F2200.0
G1 Z0.0000 F2500.0
G4 P0.02
G0 X5.7809 Y-51.9273 F15000.0
G1 Z11.9000 F2500.0
G4 P0.02
G1 X4.9628 Y-52.1221 F2200.0
G1 Z0.0000 F2500.0
G4 P0.02
G0 X4.9628 Y-45.8498 F15000.0
G1 Z11.9000 F2500.0
G4 P0.02
G1 X5.5082 Y-45.6550 F2200.0
G1 X5.4693 Y-45.3044
G1 X4.9628 Y-45.4213
G1 Z0.0000 F2500.0
G4 P0.02
G0 X5.5861 Y-45.6161 F15000.0
G1 Z11.9000 F2500.0
G4 P0.02
G1 X5.8199 Y-45.6550 F2200.0
G1 X5.8978 Y-46.4732
G1 Z0.0000 F2500.0
G4 P0.02
G0 X5.7809 Y-48.2263 F15000.0
G1 Z11.9000 F2500.0
G4 P0.02
G1 X5.8978 Y-48.1873 F2200.0
G1 Z0.0000 F2500.0
G4 P0.02
G0 X5.7809 Y-45.1875 F15000.0
G1 Z11.9000 F2500.0
G4 P0.02
G1 X5.8978 Y-45.1096 F2200.0
G1 Z0.0000 F2500.0
G4 P0.02
G0 X5.9368 Y-51.8104 F15000.0
G1 Z11.9000 F2500.0
G4 P0.02
G1 X5.8199 Y-51.8884 F2200.0
G1 Z0.0000 F2500.0
G4 P0.02
G0 X3.2753 Y-54.1426 F15000.0
G1 Z11.9000 F2500.0
G4 P0.02
G1 X3.1194 Y-54.3763 F2200.0
G1 X3.3142 Y-54.6880
G1 X3.5480 Y-54.6101
G1 X3.9765 Y-54.6490
G1 X3.9375 Y-54.2984
G1 X3.7817 Y-53.9088
G1 X3.9375 Y-53.9088
G1 X3.8986 Y-54.2594
G1 X3.5869 Y-54.5321
G1 X3.6648 Y-54.4542
G1 X3.7038 Y-53.9478
G1 X3.3142 Y-54.1036
G1 Z0.0000 F2500.0
G4 P0.02
G0 X4.3271 Y-60.4927 F15000.0
G1 Z11.9000 F2500.0
G4 P0.02
G1 X4.0155 Y-61.5836 F2200.0
G1 X4.8725 Y-61.3109
G1 X4.9894 Y-61.1940
G1 X5.7686 Y-60.9992
G1 Z0.0000 F2500.0
G4 P0.02
G0 X3.9765 Y-60.2980 F15000.0
G1 Z11.9000 F2500.0
G4 P0.02
G1 X4.4830 Y-60.1032 F2200.0
G1 X4.5219 Y-60.4148
G1 X4.8336 Y-60.4148
G1 X4.9894 Y-60.6096
G1 X5.6127 Y-60.1421
G1 Z0.0000 F2500.0
G4 P0.02
G0 X3.9765 Y-58.8955 F15000.0
G1 Z11.9000 F2500.0
G4 P0.02
G1 X4.0934 Y-57.9605 F2200.0
G1 X4.2882 Y-57.8046
G1 X5.4569 Y-57.4150
G1 X5.8465 Y-57.4540
G1 X5.8855 Y-58.2332
G1 Z0.0000 F2500.0
G4 P0.02
G0 X3.9765 Y-57.3371 F15000.0
G1 Z11.9000 F2500.0
G4 P0.02
G1 X4.8725 Y-56.2463 F2200.0
G1 X5.8465 Y-55.9346
G1 X5.4959 Y-56.0126
G1 X5.8855 Y-55.9736
G1 X5.6907 Y-56.9476
G1 X4.7557 Y-57.2982
G1 X4.0934 Y-57.4540
G1 Z0.0000 F2500.0
G4 P0.02
G0 X3.9765 Y-54.1036 F15000.0
G1 Z11.9000 F2500.0
G4 P0.02
G1 X3.9765 Y-53.9088 F2200.0
G1 X5.4569 Y-53.3634
G1 X5.8075 Y-53.3634
G1 X5.8855 Y-53.4413
G1 X5.7686 Y-54.2205
G1 X5.4569 Y-54.3763
G1 X5.4569 Y-54.7269
G1 X5.8465 Y-54.7659
G1 X5.8855 Y-55.5451
G1 X6.3140 Y-55.7788
G1 X6.7425 Y-55.6230
G1 Z0.0000 F2500.0
G4 P0.02
G0 X4.0155 Y-56.0515 F15000.0
G1 Z11.9000 F2500.0
G4 P0.02
G1 X4.1323 Y-55.1944 F2200.0
G1 X4.7557 Y-54.9217
G1 X5.2621 Y-54.8049
G1 X5.1452 Y-54.4932
G1 X4.0934 Y-54.7659
G1 Z0.0000 F2500.0
G4 P0.02
G0 X4.9505 Y-54.9607 F15000.0
G1 Z11.9000 F2500.0
G4 P0.02
G1 X4.0544 Y-56.0905 F2200.0
G1 Z0.0000 F2500.0
G4 P0.02
G0 X4.7557 Y-59.0123 F15000.0
G1 Z11.9000 F2500.0
G4 P0.02
G1 X4.1713 Y-59.2071 F2200.0
G1 Z0.0000 F2500.0
G4 P0.02
G0 X4.9505 Y-60.6486 F15000.0
G1 Z11.9000 F2500.0
G4 P0.02
G1 X4.9505 Y-61.1550 F2200.0
G1 Z0.0000 F2500.0
G4 P0.02
G0 X5.1063 Y-59.8694 F15000.0
G1 Z11.9000 F2500.0
G4 P0.02
G1 X5.8855 Y-59.4409 F2200.0
G1 X5.6907 Y-58.7007
G1 X5.0673 Y-58.8955
G1 Z0.0000 F2500.0
G4 P0.02
G0 X3.2621 Y-63.6987 F15000.0
G1 Z11.9000 F2500.0
G4 P0.02
G1 X3.1452 Y-64.7116 F2200.0
G1 X3.2231 Y-64.8285
G1 X4.0023 Y-65.1401
G1 X4.7035 Y-64.8285
G1 X5.1710 Y-64.2831
G1 X5.0931 Y-64.3999
G1 X5.2490 Y-64.1272
G1 X5.4048 Y-63.4260
G1 X5.3269 Y-63.1922
G1 X4.7035 Y-62.7637
G1 X3.8075 Y-63.0753
G1 Z0.0000 F2500.0
G4 P0.02
G0 X3.3010 Y-63.6208 F15000.0
G1 Z11.9000 F2500.0
G4 P0.02
G1 X3.3790 Y-63.5039 F2200.0
G1 X3.8075 Y-63.8156
G1 X3.8854 Y-63.7376
G1 X3.7296 Y-63.9714
G1 X3.6517 Y-64.3999
G1 Z0.0000 F2500.0
G4 P0.02
G0 X4.1971 Y-63.5818 F15000.0
G1 Z11.9000 F2500.0
G4 P0.02
G1 X3.9633 Y-63.6597 F2200.0
G1 X4.3919 Y-63.5039
G1 X4.7425 Y-63.5428
G1 X4.8204 Y-63.9714
G1 Z0.0000 F2500.0
G4 P0.02
G0 X3.1665 Y-68.3937 F15000.0
G1 Z11.9000 F2500.0
G4 P0.02
G1 X3.2054 Y-69.0949 F2200.0
G1 X3.5561 Y-69.2118
G1 X3.5561 Y-69.5235
G1 X3.2444 Y-69.9130
G1 X3.2054 Y-70.5364
G1 X3.6340 Y-70.7312
G1 X4.0236 Y-70.4974
G1 Z0.0000 F2500.0
G4 P0.02
G0 X3.1665 Y-67.3808 F15000.0
G1 Z11.9000 F2500.0
G4 P0.02
G1 X3.2444 Y-66.7964 F2200.0
G1 X3.4392 Y-66.5626
G1 Z0.0000 F2500.0
G4 P0.02
G0 X3.7509 Y-67.5756 F15000.0
G1 Z11.9000 F2500.0
G4 P0.02
G1 X3.2834 Y-67.5366 F2200.0
G1 X3.4781 Y-68.0431
G1 X3.9456 Y-67.8872
G1 X3.8288 Y-67.5366
G1 X4.0236 Y-67.4197
G1 Z0.0000 F2500.0
G4 P0.02
G0 X3.4392 Y-71.3935 F15000.0
G1 Z11.9000 F2500.0
G4 P0.02
G1 X3.4002 Y-71.7051 F2200.0
G1 X5.1144 Y-71.1597
G1 Z0.0000 F2500.0
G4 P0.02
G0 X3.6340 Y-71.1208 F15000.0
G1 Z11.9000 F2500.0
G4 P0.02
G1 X3.5561 Y-71.1987 F2200.0
G1 Z0.0000 F2500.0
G4 P0.02
G0 X4.3352 Y-68.9391 F15000.0
G1 Z11.9000 F2500.0
G4 P0.02
G1 X5.5819 Y-68.4326 F2200.0
G1 X5.7767 Y-68.1989
G1 X5.7767 Y-67.4197
G1 X5.6208 Y-67.3418
G1 X5.3871 Y-67.3808
G1 Z0.0000 F2500.0
G4 P0.02
G0 X4.8806 Y-69.6793 F15000.0
G1 Z11.9000 F2500.0
G4 P0.02
G1 X4.4521 Y-70.1078 F2200.0
G1 Z0.0000 F2500.0
G4 P0.02
G0 X4.4521 Y-67.0301 F15000.0
G1 Z11.9000 F2500.0
G4 P0.02
G1 X4.8806 Y-66.6016 F2200.0
G1 Z0.0000 F2500.0
G4 P0.02
G0 X4.9586 Y-67.5366 F15000.0
G1 Z11.9000 F2500.0
G4 P0.02
G1 X4.6079 Y-67.6535 F2200.0
G1 Z0.0000 F2500.0
G4 P0.02
G0 X5.8156 Y-68.9001 F15000.0
G1 Z11.9000 F2500.0
G4 P0.02
G1 X5.3871 Y-69.2118 F2200.0
G1 X5.8546 Y-69.3287
G1 X5.8546 Y-68.9391
G1 X5.8936 Y-69.9130
G1 Z0.0000 F2500.0
G4 P0.02
G0 X5.3871 Y-66.1341 F15000.0
G1 Z11.9000 F2500.0
G4 P0.02
G1 X5.8156 Y-65.8224 F2200.0
G1 X5.8936 Y-66.7964
G1 Z0.0000 F2500.0
G4 P0.02
G0 X5.8936 Y-70.8480 F15000.0
G1 Z11.9000 F2500.0
G4 P0.02
G1 X5.7767 Y-70.9260 F2200.0
G1 Z0.0000 F2500.0
G4 P0.02
G0 X3.1707 Y-75.0546 F15000.0
G1 Z11.9000 F2500.0
G4 P0.02
G1 X3.2097 Y-75.7558 F2200.0
G1 X3.3266 Y-75.8337
G1 X5.5861 Y-75.0935
G1 X5.8588 Y-74.7039
G1 X5.7030 Y-74.0027
G1 X3.4434 Y-74.7039
G1 X3.4045 Y-74.3144
G1 X5.3134 Y-73.7300
G1 Z0.0000 F2500.0
G4 P0.02
G0 X3.2097 Y-74.1975 F15000.0
G1 Z11.9000 F2500.0
G4 P0.02
G1 X3.1707 Y-73.4962 F2200.0
G1 X3.4434 Y-73.1846
G1 X5.6251 Y-72.4444
G1 X5.7809 Y-72.5223
G1 X5.7809 Y-73.3015
G1 Z0.0000 F2500.0
G4 P0.02
G0 X3.2097 Y-76.5350 F15000.0
G1 Z11.9000 F2500.0
G4 P0.02
G1 X3.0928 Y-77.0804 F2200.0
G1 X3.2486 Y-77.3141
G1 X3.5603 Y-77.3921
G1 Z0.0000 F2500.0
G4 P0.02
G0 X3.4434 Y-76.2623 F15000.0
G1 Z11.9000 F2500.0
G4 P0.02
G1 X5.6251 Y-75.5221 F2200.0
G1 X5.8588 Y-76.2233
G1 X5.7420 Y-76.4571
G1 Z0.0000 F2500.0
G4 P0.02
G0 X4.3784 Y-77.1194 F15000.0
G1 Z11.9000 F2500.0
G4 P0.02
G1 X5.3913 Y-76.7687 F2200.0
G1 Z0.0000 F2500.0
G4 P0.02
G0 X3.3083 Y-119.3621 F15000.0
G1 Z11.9000 F2500.0
G4 P0.02
G1 X3.1136 Y-119.4790 F2200.0
G1 X3.2304 Y-119.8296
G1 X3.5421 Y-119.6348
G1 X3.4642 Y-119.2842
G1 X3.6200 Y-119.1673
G1 Z0.0000 F2500.0
G4 P0.02
G0 X4.5609 Y-121.4576 F15000.0
G1 Z11.9000 F2500.0
G4 P0.02
G1 X3.1973 Y-122.8211 F2200.0
G1 X3.4700 Y-122.9769
G1 X4.2881 Y-122.6653
G1 X4.4829 Y-122.4315
G1 X4.5998 Y-121.4965
G1 X4.6777 Y-121.3796
G1 X5.8854 Y-120.9511
G1 Z0.0000 F2500.0
G4 P0.02
G0 X4.3271 Y-128.4311 F15000.0
G1 Z11.9000 F2500.0
G4 P0.02
G1 X4.0154 Y-129.5219 F2200.0
G1 X4.8725 Y-129.2492
G1 Z0.0000 F2500.0
G4 P0.02
G0 X3.9765 Y-128.2363 F15000.0
G1 Z11.9000 F2500.0
G4 P0.02
G1 X4.4829 Y-128.0415 F2200.0
G1 X4.5219 Y-128.3532
G1 X4.8336 Y-128.3532
G1 X4.9894 Y-128.5479
G1 X5.1063 Y-128.5090
G1 X4.9504 Y-128.5869
G1 X4.9894 Y-129.1323
G1 X5.7686 Y-128.9375
G1 Z0.0000 F2500.0
G4 P0.02
G0 X3.9765 Y-126.8338 F15000.0
G1 Z11.9000 F2500.0
G4 P0.02
G1 X4.0934 Y-125.8988 F2200.0
G1 X3.9765 Y-125.4703
G1 X4.0934 Y-124.5353
G1 X5.6906 Y-123.9509
G1 X5.8854 Y-124.8080
G1 Z0.0000 F2500.0
G4 P0.02
G0 X4.0154 Y-123.9898 F15000.0
G1 Z11.9000 F2500.0
G4 P0.02
G1 X4.1323 Y-123.1328 F2200.0
G1 X5.0673 Y-122.7821
G1 X5.7686 Y-122.6263
G1 X5.8465 Y-122.6653
G1 X5.8075 Y-123.4444
G1 X5.4569 Y-123.6782
G1 Z0.0000 F2500.0
G4 P0.02
G0 X4.0544 Y-124.0288 F15000.0
G1 Z11.9000 F2500.0
G4 P0.02
G1 X5.1452 Y-123.7951 F2200.0
G1 Z0.0000 F2500.0
G4 P0.02
G0 X4.7556 Y-126.9507 F15000.0
G1 Z11.9000 F2500.0
G4 P0.02
G1 X4.1713 Y-127.1455 F2200.0
G1 Z0.0000 F2500.0
G4 P0.02
G0 X4.2881 Y-125.7430 F15000.0
G1 Z11.9000 F2500.0
G4 P0.02
G1 X5.4569 Y-125.3534 F2200.0
G1 X5.8465 Y-125.3923
G1 X5.8854 Y-126.1715
G1 Z0.0000 F2500.0
G4 P0.02
G0 X5.1063 Y-127.8077 F15000.0
G1 Z11.9000 F2500.0
G4 P0.02
G1 X5.8854 Y-127.3792 F2200.0
G1 X5.6906 Y-126.6390
G1 X5.0673 Y-126.8338
G1 Z0.0000 F2500.0
G4 P0.02
G0 X5.3790 Y-128.2752 F15000.0
G1 Z11.9000 F2500.0
G4 P0.02
G1 X5.1842 Y-128.4700 F2200.0
G1 X5.6127 Y-128.0805
G1 Z0.0000 F2500.0
G4 P0.02
G0 X4.0154 Y-131.3973 F15000.0
G1 Z11.9000 F2500.0
G4 P0.02
G1 X3.1973 Y-132.5271 F2200.0
G1 X3.4311 Y-132.6829
G1 X3.8986 Y-132.5661
G1 X4.0934 Y-133.0335
G1 X3.9765 Y-133.9296
G1 X4.1323 Y-134.2802
G1 X4.0544 Y-135.1762
G1 X4.9504 Y-134.0465
G1 X4.6388 Y-134.0854
G1 X5.4569 Y-133.8127
G1 X5.8465 Y-133.8517
G1 X5.8854 Y-134.6308
G1 Z0.0000 F2500.0
G4 P0.02
G0 X4.0544 Y-132.4881 F15000.0
G1 Z11.9000 F2500.0
G4 P0.02
G1 X4.3661 Y-132.1375 F2200.0
G1 X4.3661 Y-131.3194
G1 X4.2102 Y-131.3194
G1 X5.5738 Y-130.8519
G1 X5.8854 Y-130.8519
G1 X5.7686 Y-131.7869
G1 X5.5738 Y-132.0596
G1 X5.4569 Y-132.4881
G1 X5.8854 Y-133.2673
G1 Z0.0000 F2500.0
G4 P0.02
G0 X4.4440 Y-134.1633 F15000.0
G1 Z11.9000 F2500.0
G4 P0.02
G1 X4.2102 Y-134.2413 F2200.0
G1 Z0.0000 F2500.0
G4 P0.02
G0 X5.1452 Y-132.6050 F15000.0
G1 Z11.9000 F2500.0
G4 P0.02
G1 X4.2881 Y-132.8777 F2200.0
G1 Z0.0000 F2500.0
G4 P0.02
G0 X4.4050 Y-132.1765 F15000.0
G1 Z11.9000 F2500.0
G4 P0.02
G1 X4.8725 Y-132.3323 F2200.0
G1 X5.4959 Y-132.0986
G1 Z0.0000 F2500.0
G4 P0.02
G0 X3.2753 Y-140.9809 F15000.0
G1 Z11.9000 F2500.0
G4 P0.02
G1 X3.1194 Y-141.3705 F2200.0
G1 X3.1973 Y-141.4484
G1 X3.8986 Y-141.0978
G1 X3.7038 Y-140.7861
G1 X3.3142 Y-140.9419
G1 X3.9375 Y-140.7471
G1 X4.0934 Y-142.0328
G1 X4.0155 Y-143.0067
G1 X5.7686 Y-142.4223
G1 X5.8855 Y-142.0328
G1 X5.8465 Y-140.2017
G1 X4.3271 Y-140.5523
G1 Z0.0000 F2500.0
G4 P0.02
G0 X3.9765 Y-140.9419 F15000.0
G1 Z11.9000 F2500.0
G4 P0.02
G1 X4.1323 Y-139.3057 F2200.0
G1 X5.0673 Y-138.9551
G1 X5.7686 Y-138.7992
G1 X5.8465 Y-138.8382
G1 X5.8465 Y-139.4226
G1 X5.7296 Y-139.7732
G1 X4.0155 Y-140.3186
G1 X4.0934 Y-140.6692
G1 X4.2492 Y-140.5913
G1 Z0.0000 F2500.0
G4 P0.02
G0 X4.0155 Y-138.8382 F15000.0
G1 Z11.9000 F2500.0
G4 P0.02
G1 X5.8855 Y-137.3967 F2200.0
G1 X6.7425 Y-137.0461
G1 Z0.0000 F2500.0
G4 P0.02
G0 X5.1452 Y-141.3315 F15000.0
G1 Z11.9000 F2500.0
G4 P0.02
G1 X4.0544 Y-141.5653 F2200.0
G1 X4.1323 Y-141.9938
G1 X5.0673 Y-141.6432
G1 X5.7686 Y-141.4873
G1 X5.6127 Y-141.1367
G1 X5.4569 Y-141.2146
G1 Z0.0000 F2500.0
G4 P0.02
G0 X4.0544 Y-138.8771 F15000.0
G1 Z11.9000 F2500.0
G4 P0.02
G1 X4.8336 Y-138.7213 F2200.0
G1 X5.7296 Y-138.3707
G1 X5.8855 Y-137.4357
G1 X5.7686 Y-137.0461
G1 X5.8855 Y-136.9682
G1 Z0.0000 F2500.0
G4 P0.02
G0 X4.7946 Y-137.3578 F15000.0
G1 Z11.9000 F2500.0
G4 P0.02
G1 X3.9765 Y-137.4357 F2200.0
G1 X4.5219 Y-136.5007
G1 X5.8855 Y-135.9942
G1 Z0.0000 F2500.0
G4 P0.02
G0 X4.8725 Y-137.3188 F15000.0
G1 Z11.9000 F2500.0
G4 P0.02
G1 X5.1842 Y-137.2409 F2200.0
G1 Z0.0000 F2500.0
G4 P0.02
G0 X56.0210 Y-167.9309 F15000.0
G1 Z11.9000 F2500.0
G4 P0.02
G1 X56.0210 Y-180.7750 F2200.0
G1 Z0.0000 F2500.0
G4 P0.02
G0 X79.7501 Y-180.7750 F15000.0
G1 Z11.9000 F2500.0
G4 P0.02
G1 X118.0649 Y-180.7750 F12000.0
G1 Z0.0000 F2500.0
G4 P0.02
G0 X79.7501 Y-167.9309 F15000.0
G1 Z11.9000 F2500.0
G4 P0.02
G1 X56.0210 Y-167.9309 F12000.0
G1 Z0.0000 F2500.0
G4 P0.02
G0 X79.7501 Y-167.9309 F15000.0
G1 Z11.9000 F2500.0
G4 P0.02
G1 X79.7501 Y-180.7750 F2200.0
G1 Z0.0000 F2500.0
G4 P0.02
G0 X118.0649 Y-180.7750 F15000.0
G1 Z11.9000 F2500.0
G4 P0.02
G1 X118.0649 Y-167.9309 F2200.0
G1 Z0.0000 F2500.0
G4 P0.02
G0 X79.7501 Y-180.7750 F15000.0
G1 Z11.9000 F2500.0
G4 P0.02
G1 X56.0210 Y-180.7750 F12000.0
G1 Z0.0000 F2500.0
G4 P0.02
G0 X79.7501 Y-167.9309 F15000.0
G1 Z11.9000 F2500.0
G4 P0.02
G1 X118.0649 Y-167.9309 F12000.0
G1 Z0.0000 F2500.0
G4 P0.02
G0 X70.6067 Y-180.7750 F15000.0
G1 Z11.9000 F2500.0
G4 P0.02
G1 X70.6067 Y-206.4634 F12000.0
G1 Z0.0000 F2500.0
G4 P0.02
G0 X110.0101 Y-227.9430 F15000.0
G1 Z11.9000 F2500.0
G4 P0.02
G1 X110.0101 Y-180.7750 F12000.0
G1 Z0.0000 F2500.0
G4 P0.02
G0 X110.0101 Y-227.9430 F15000.0
G1 Z11.9000 F2500.0
G4 P0.02
G1 X79.6775 Y-227.9430 F12000.0
G1 Z0.0000 F2500.0
G4 P0.02
G0 X79.6775 Y-206.4634 F15000.0
G1 Z11.9000 F2500.0
G4 P0.02
G1 X70.6067 Y-206.4634 F2200.0
G1 Z0.0000 F2500.0
G4 P0.02
G0 X79.6775 Y-206.4634 F15000.0
G1 Z11.9000 F2500.0
G4 P0.02
G1 X79.6775 Y-227.9430 F12000.0
G1 Z0.0000 F2500.0
G4 P0.02
G0 X158.3390 Y-167.9309 F15000.0
G1 Z11.9000 F2500.0
G4 P0.02
G1 X180.0000 Y-167.9309 F12000.0
G1 Z0.0000 F2500.0
G4 P0.02
G0 X158.3390 Y-167.9309 F15000.0
G1 Z11.9000 F2500.0
G4 P0.02
G1 X158.3390 Y-180.7750 F2200.0
G1 X180.0000 Y-180.7750 F12000.0
G1 Z0.0000 F2500.0
G4 P0.02
G0 X174.3036 Y-227.9430 F15000.0
G1 Z11.9000 F2500.0
G4 P0.02
G1 X171.2558 Y-227.9430 F2200.0
G1 X171.2558 Y-180.7750 F12000.0
G1 Z0.0000 F2500.0
G4 P0.02
G0 X174.3036 Y-206.4634 F15000.0
G1 Z11.9000 F2500.0
G4 P0.02
G1 X174.3036 Y-227.9430 F12000.0
G1 Z0.0000 F2500.0
G4 P0.02
G0 X174.3036 Y-206.4634 F15000.0
G1 Z11.9000 F2500.0
G4 P0.02
G1 X180.0000 Y-206.4634 F2200.0
G1 Z0.0000 F2500.0
G4 P0.02
G0 X180.0000 Y-227.9430 F15000.0
G1 Z11.9000 F2500.0
G4 P0.02
G1 X174.3036 Y-227.9430 F2200.0
G1 Z0.0000 F2500.0
G4 P0.02
G0 X118.0649 Y-74.9012 F15000.0
G1 Z11.9000 F2500.0
G4 P0.02
G1 X79.7501 Y-62.4199 F12000.0
G1 Z0.0000 F2500.0
G4 P0.02
G0 X118.0649 Y-74.9012 F15000.0
G1 Z11.9000 F2500.0
G4 P0.02
G1 X118.0649 Y-115.1754 F12000.0
G1 X79.7501 Y-127.6567 F12000.0
G1 Z0.0000 F2500.0
G4 P0.02
G0 X56.0210 Y-95.0020 F15000.0
G1 Z11.9000 F2500.0
G4 P0.02
G1 X79.7501 Y-62.4199 F12000.0
G1 Z0.0000 F2500.0
G4 P0.02
G0 X56.0210 Y-95.0020 F15000.0
G1 Z11.9000 F2500.0
G4 P0.02
G1 X79.7501 Y-127.6567 F12000.0
G1 Z0.0000 F2500.0
G4 P0.02
G0 X109.8649 Y-97.3967 F15000.0
G1 Z11.9000 F2500.0
G4 P0.02
G1 X110.0101 Y-95.0020 F2200.0
G1 Z0.0000 F2500.0
G4 P0.02
G0 X109.8649 Y-97.3967 F15000.0
G1 Z11.9000 F2500.0
G4 P0.02
G1 X109.4296 Y-99.7914 F2200.0
G1 X108.7039 Y-102.0409
G1 X107.7605 Y-104.2179
G1 X106.5269 Y-106.2497
G1 X105.0030 Y-108.1365 F2200.0
G1 X103.3340 Y-109.8055
G1 X101.4473 Y-111.3294
G1 X99.4154 Y-112.5630
G1 X97.2385 Y-113.5063 F2200.0
G1 X94.9163 Y-114.2320
G1 X92.5942 Y-114.5948
G1 X90.1996 Y-114.7400
G1 X87.8049 Y-114.5948
G1 X85.4102 Y-114.1594 F2200.0
G1 X83.1607 Y-113.4338
G1 X80.9837 Y-112.4179
G1 X79.6775 Y-111.6196
G1 Z0.0000 F2500.0
G4 P0.02
G0 X79.6775 Y-78.4570 F15000.0
G1 Z11.9000 F2500.0
G4 P0.02
G1 X81.7819 Y-77.2959 F2200.0
G1 X84.0314 Y-76.3525
G1 X86.2810 Y-75.6995
G1 X88.6757 Y-75.4092
G1 X91.0703 Y-75.3366
G1 X93.4650 Y-75.5543 F2200.0
G1 X95.7871 Y-76.0623
G1 X98.0367 Y-76.9331
G1 X100.1411 Y-77.9490
G1 X102.1729 Y-79.2552
G1 X103.9871 Y-80.8516 F2200.0
G1 X105.5836 Y-82.5932
G1 X106.9623 Y-84.5525
G1 X108.1234 Y-86.6569
G1 X108.9942 Y-88.8339 F2200.0
G1 X109.6472 Y-91.1560
G1 X109.9375 Y-93.5507
G1 X110.0101 Y-95.0020
G1 Z0.0000 F2500.0
G4 P0.02
G0 X79.6775 Y-111.6196 F15000.0
G1 Z11.9000 F2500.0
G4 P0.02
G1 X77.7908 Y-110.2409 F2200.0
G1 X76.0492 Y-108.6444
G1 X74.4527 Y-106.7577
G1 X73.1465 Y-104.7984
G1 X72.1306 Y-102.6214 F2200.0
G1 X71.3324 Y-100.3719
G1 X70.8244 Y-98.0498
G1 X70.6067 Y-95.6551
G1 X70.6793 Y-93.2604 F2200.0
G1 X71.0421 Y-90.8658
G1 X71.6952 Y-88.6162
G1 X72.5660 Y-86.3667
G1 X73.7996 Y-84.3348 F2200.0
G1 X75.1784 Y-82.3755
G1 X76.8474 Y-80.6339
G1 X78.6616 Y-79.1101
G1 X79.6775 Y-78.4570 F2200.0
G1 Z0.0000 F2500.0
G4 P0.02
G0 X96.2951 Y-95.0020 F15000.0
G1 Z11.9000 F2500.0
G4 P0.02
G1 X79.6775 Y-111.6196 F12000.0
G1 Z0.0000 F2500.0
G4 P0.02
G0 X96.2951 Y-95.0020 F15000.0
G1 Z11.9000 F2500.0
G4 P0.02
G1 X79.6775 Y-78.4570 F12000.0
G1 Z0.0000 F2500.0
G4 P0.02
G0 X124.5958 Y-95.0020 F15000.0
G1 Z11.9000 F2500.0
G4 P0.02
G1 X124.4507 Y-98.1949 F2200.0
G1 X124.0153 Y-101.3153
G1 X123.2897 Y-104.3630
G1 X122.2737 Y-107.3382 F2200.0
G1 X121.0401 Y-110.2409
G1 X119.5162 Y-112.9984
G1 X118.9357 Y-113.8692
G1 Z0.0000 F2500.0
G4 P0.02
G0 X118.2100 Y-114.9577 F15000.0
G1 Z11.9000 F2500.0
G4 P0.02
G1 X117.3392 Y-116.0462 F2200.0
G1 Z0.0000 F2500.0
G4 P0.02
G0 X116.5410 Y-117.0621 F15000.0
G1 Z11.9000 F2500.0
G4 P0.02
G1 X115.7428 Y-118.0780 F2200.0
G1 X113.4932 Y-120.3276
G1 X111.0986 Y-122.2868
G1 X108.4862 Y-124.1010
G1 X105.7287 Y-125.6249 F2200.0
G1 X102.8260 Y-126.9311
G1 X100.1411 Y-127.8744
G1 Z0.0000 F2500.0
G4 P0.02
G0 X98.9075 Y-128.1647 F15000.0
G1 Z11.9000 F2500.0
G4 P0.02
G1 X97.5287 Y-128.5275 F2200.0
G1 Z0.0000 F2500.0
G4 P0.02
G0 X96.2225 Y-128.7452 F15000.0
G1 Z11.9000 F2500.0
G4 P0.02
G1 X93.6827 Y-129.1806 F2200.0
G1 X90.5624 Y-129.3257
G1 X87.3695 Y-129.1806
G1 X84.2491 Y-128.7452
G1 X81.2014 Y-128.0921 F2200.0
G1 X78.1536 Y-127.0762
G1 X76.7023 Y-126.4957
G1 Z0.0000 F2500.0
G4 P0.02
G0 X75.5412 Y-125.9877 F15000.0
G1 Z11.9000 F2500.0
G4 P0.02
G1 X74.3076 Y-125.3346 F2200.0
G1 Z0.0000 F2500.0
G4 P0.02
G0 X73.1465 Y-124.6815 F15000.0
G1 Z11.9000 F2500.0
G4 P0.02
G1 X69.8811 Y-122.5771 F2200.0
G1 X67.4864 Y-120.6178
G1 X65.2368 Y-118.3683
G1 X63.1324 Y-115.9736 F2200.0
G1 X61.3183 Y-113.3612
G1 X59.6493 Y-110.3860
G1 Z0.0000 F2500.0
G4 P0.02
G0 X59.1413 Y-109.2250 F15000.0
G1 Z11.9000 F2500.0
G4 P0.02
G1 X58.5608 Y-107.9188 F2200.0
G1 Z0.0000 F2500.0
G4 P0.02
G0 X58.1254 Y-106.6851 F15000.0
G1 Z11.9000 F2500.0
G4 P0.02
G1 X57.4723 Y-104.7984 F2200.0
G1 X56.6741 Y-101.7507
G1 X56.2387 Y-98.6303
G1 X56.0210 Y-95.5100 F2200.0
G1 X56.1661 Y-92.3171
G1 X56.5289 Y-89.1967
G1 X56.9643 Y-87.0923 F2200.0
G1 Z0.0000 F2500.0
G4 P0.02
G0 X57.3272 Y-85.8587 F15000.0
G1 Z11.9000 F2500.0
G4 P0.02
G1 X57.6900 Y-84.4799 F2200.0
G1 Z0.0000 F2500.0
G4 P0.02
G0 X58.1979 Y-83.1012 F15000.0
G1 Z11.9000 F2500.0
G4 P0.02
G1 X59.4316 Y-80.1985 F2200.0
G1 X60.8829 Y-77.4410
G1 X62.6245 Y-74.8287
G1 X64.5838 Y-72.3614 F2200.0
G1 X66.8333 Y-70.1119
G1 X69.2280 Y-68.0075
G1 X69.8811 Y-67.4995 F2200.0
G1 Z0.0000 F2500.0
G4 P0.02
G0 X70.9696 Y-66.7738 F15000.0
G1 Z11.9000 F2500.0
G4 P0.02
G1 X72.1306 Y-65.9756 F2200.0
G1 Z0.0000 F2500.0
G4 P0.02
G0 X73.2191 Y-65.3225 F15000.0
G1 Z11.9000 F2500.0
G4 P0.02
G1 X74.5253 Y-64.5969 F2200.0
G1 X77.3554 Y-63.2907
G1 X80.3306 Y-62.2022
G1 X83.3784 Y-61.4765
G1 X86.4987 Y-60.9686 F2200.0
G1 X89.6190 Y-60.7509
G1 X92.3765 Y-60.8234
G1 Z0.0000 F2500.0
G4 P0.02
G0 X93.6102 Y-60.9686 F15000.0
G1 Z11.9000 F2500.0
G4 P0.02
G1 X95.0615 Y-61.1137 F2200.0
G1 Z0.0000 F2500.0
G4 P0.02
G0 X96.2951 Y-61.3314 F15000.0
G1 Z11.9000 F2500.0
G4 P0.02
G1 X99.0526 Y-61.9119 F2200.0
G1 X102.0278 Y-62.8553
G1 X104.9305 Y-64.0163
G1 X107.7605 Y-65.5402
G1 X110.3729 Y-67.2092 F2200.0
G1 X112.8402 Y-69.1685
G1 X113.8561 Y-70.1844
G1 Z0.0000 F2500.0
G4 P0.02
G0 X114.7994 Y-71.0552 F15000.0
G1 Z11.9000 F2500.0
G4 P0.02
G1 X115.7428 Y-72.0712 F2200.0
G1 Z0.0000 F2500.0
G4 P0.02
G0 X116.6136 Y-73.0871 F15000.0
G1 Z11.9000 F2500.0
G4 P0.02
G1 X117.1941 Y-73.7402 F2200.0
G1 X119.0083 Y-76.2800
G1 X120.6047 Y-79.0375
G1 X121.9835 Y-81.8676
G1 X123.0720 Y-84.8428 F2200.0
G1 X123.8702 Y-87.8905
G1 X124.3781 Y-91.0109
G1 Z0.0000 F2500.0
G4 P0.02
G0 X124.4507 Y-92.3896 F15000.0
G1 Z11.9000 F2500.0
G4 P0.02
G1 X124.5233 Y-93.8410 F2200.0
G1 Z0.0000 F2500.0
G4 P0.02
G0 X90.3447 Y-220.0333 F15000.0
G1 Z11.9000 F2500.0
G4 P0.02
G1 X90.3447 Y-229.6120 F2200.0
G1 Z0.0000 F2500.0
G4 P0.02
G0 X90.3447 Y-218.7271 F15000.0
G1 Z11.9000 F2500.0
G4 P0.02
G1 X90.3447 Y-217.4934 F2200.0
G1 Z0.0000 F2500.0
G4 P0.02
G0 X90.3447 Y-216.1873 F15000.0
G1 Z11.9000 F2500.0
G4 P0.02
G1 X90.3447 Y-206.6085 F2200.0
G1 Z0.0000 F2500.0
G4 P0.02
G0 X90.3447 Y-205.3024 F15000.0
G1 Z11.9000 F2500.0
G4 P0.02
G1 X90.3447 Y-203.9962 F2200.0
G1 Z0.0000 F2500.0
G4 P0.02
G0 X90.3447 Y-202.6900 F15000.0
G1 Z11.9000 F2500.0
G4 P0.02
G1 X90.3447 Y-193.1113 F2200.0
G1 Z0.0000 F2500.0
G4 P0.02
G0 X90.3447 Y-191.8051 F15000.0
G1 Z11.9000 F2500.0
G4 P0.02
G1 X90.3447 Y-190.5715 F2200.0
G1 Z0.0000 F2500.0
G4 P0.02
G0 X90.3447 Y-189.2653 F15000.0
G1 Z11.9000 F2500.0
G4 P0.02
G1 X90.3447 Y-179.6866 F2200.0
G1 Z0.0000 F2500.0
G4 P0.02
G0 X90.3447 Y-178.3804 F15000.0
G1 Z11.9000 F2500.0
G4 P0.02
G1 X90.3447 Y-177.0742 F2200.0
G1 Z0.0000 F2500.0
G4 P0.02
G0 X90.3447 Y-175.8406 F15000.0
G1 Z11.9000 F2500.0
G4 P0.02
G1 X90.3447 Y-166.1893 F2200.0
G1 Z0.0000 F2500.0
G4 P0.02
G0 X48.0387 Y-223.6616 F15000.0
G1 Z11.9000 F2500.0
G4 P0.02
G1 X47.4582 Y-227.9430 F2200.0
G1 X46.8776 Y-223.6616
G1 X47.4582 Y-224.0970
G1 Z0.0000 F2500.0
G4 P0.02
G0 X47.7484 Y-226.2242 F15000.0
G1 Z11.9000 F2500.0
G4 P0.02
G1 X47.7484 Y-225.4529 F2200.0
G1 Z0.0000 F2500.0
G4 P0.02
G0 X47.2042 Y-225.1989 F15000.0
G1 Z11.9000 F2500.0
G4 P0.02
G1 X47.2042 Y-225.9702 F2200.0
G1 Z0.0000 F2500.0
G4 P0.02
G0 X46.8776 Y-210.7448 F15000.0
G1 Z11.9000 F2500.0
G4 P0.02
G1 X47.4582 Y-206.4634 F2200.0
G1 X48.0387 Y-210.7448
G1 X47.4582 Y-210.3820
G1 Z0.0000 F2500.0
G4 P0.02
G0 X47.2042 Y-208.5087 F15000.0
G1 Z11.9000 F2500.0
G4 P0.02
G1 X47.2042 Y-209.2801 F2200.0
G1 Z0.0000 F2500.0
G4 P0.02
G0 X47.7484 Y-209.0261 F15000.0
G1 Z11.9000 F2500.0
G4 P0.02
G1 X47.7484 Y-208.2547 F2200.0
G1 Z0.0000 F2500.0
G4 P0.02
G0 X47.4582 Y-206.4634 F15000.0
G1 Z11.9000 F2500.0
G4 P0.02
G1 X47.4582 Y-227.9430 F12000.0
G1 Z0.0000 F2500.0
G4 P0.02
G0 X45.7166 Y-227.9430 F15000.0
G1 Z11.9000 F2500.0
G4 P0.02
G1 X79.6775 Y-227.9430 F12000.0
G1 Z0.0000 F2500.0
G4 P0.02
G0 X70.6067 Y-206.4634 F15000.0
G1 Z11.9000 F2500.0
G4 P0.02
G1 X45.7166 Y-206.4634 F12000.0
G1 Z0.0000 F2500.0
G4 P0.02
G0 X49.1998 Y-95.0020 F15000.0
G1 Z11.9000 F2500.0
G4 P0.02
G1 X57.6174 Y-95.0020 F2200.0
G1 Z0.0000 F2500.0
G4 P0.02
G0 X58.9236 Y-95.0020 F15000.0
G1 Z11.9000 F2500.0
G4 P0.02
G1 X60.1572 Y-95.0020 F2200.0
G1 Z0.0000 F2500.0
G4 P0.02
G0 X61.4634 Y-95.0020 F15000.0
G1 Z11.9000 F2500.0
G4 P0.02
G1 X69.9536 Y-95.0020 F2200.0
G1 Z0.0000 F2500.0
G4 P0.02
G0 X71.1873 Y-95.0020 F15000.0
G1 Z11.9000 F2500.0
G4 P0.02
G1 X72.4934 Y-95.0020 F2200.0
G1 Z0.0000 F2500.0
G4 P0.02
G0 X73.7996 Y-95.0020 F15000.0
G1 Z11.9000 F2500.0
G4 P0.02
G1 X82.2173 Y-95.0020 F2200.0
G1 Z0.0000 F2500.0
G4 P0.02
G0 X83.5235 Y-95.0020 F15000.0
G1 Z11.9000 F2500.0
G4 P0.02
G1 X84.8297 Y-95.0020 F2200.0
G1 Z0.0000 F2500.0
G4 P0.02
G0 X86.0633 Y-95.0020 F15000.0
G1 Z11.9000 F2500.0
G4 P0.02
G1 X94.5535 Y-95.0020 F2200.0
G1 Z0.0000 F2500.0
G4 P0.02
G0 X122.9994 Y-95.0020 F15000.0
G1 Z11.9000 F2500.0
G4 P0.02
G1 X131.4171 Y-95.0020 F2200.0
G1 Z0.0000 F2500.0
G4 P0.02
G0 X121.6932 Y-95.0020 F15000.0
G1 Z11.9000 F2500.0
G4 P0.02
G1 X120.4596 Y-95.0020 F2200.0
G1 Z0.0000 F2500.0
G4 P0.02
G0 X119.1534 Y-95.0020 F15000.0
G1 Z11.9000 F2500.0
G4 P0.02
G1 X110.6632 Y-95.0020 F2200.0
G1 Z0.0000 F2500.0
G4 P0.02
G0 X109.4296 Y-95.0020 F15000.0
G1 Z11.9000 F2500.0
G4 P0.02
G1 X108.1234 Y-95.0020 F2200.0
G1 Z0.0000 F2500.0
G4 P0.02
G0 X106.8172 Y-95.0020 F15000.0
G1 Z11.9000 F2500.0
G4 P0.02
G1 X98.3995 Y-95.0020 F2200.0
G1 Z0.0000 F2500.0
G4 P0.02
G0 X97.0933 Y-95.0020 F15000.0
G1 Z11.9000 F2500.0
G4 P0.02
G1 X95.7871 Y-95.0020 F2200.0
G1 Z0.0000 F2500.0
G4 P0.02
G0 X90.3447 Y-62.3473 F15000.0
G1 Z11.9000 F2500.0
G4 P0.02
G1 X90.3447 Y-53.8571 F2200.0
G1 X84.3217 Y-53.8571
G1 Z0.0000 F2500.0
G4 P0.02
G0 X90.3447 Y-63.6535 F15000.0
G1 Z11.9000 F2500.0
G4 P0.02
G1 X90.3447 Y-64.8871 F2200.0
G1 Z0.0000 F2500.0
G4 P0.02
G0 X90.3447 Y-66.1933 F15000.0
G1 Z11.9000 F2500.0
G4 P0.02
G1 X90.3447 Y-74.6835 F2200.0
G1 Z0.0000 F2500.0
G4 P0.02
G0 X90.3447 Y-75.9172 F15000.0
G1 Z11.9000 F2500.0
G4 P0.02
G1 X90.3447 Y-77.2233 F2200.0
G1 Z0.0000 F2500.0
G4 P0.02
G0 X90.3447 Y-78.5295 F15000.0
G1 Z11.9000 F2500.0
G4 P0.02
G1 X90.3447 Y-86.9472 F2200.0
G1 Z0.0000 F2500.0
G4 P0.02
G0 X90.3447 Y-88.2534 F15000.0
G1 Z11.9000 F2500.0
G4 P0.02
G1 X90.3447 Y-89.5596 F2200.0
G1 Z0.0000 F2500.0
G4 P0.02
G0 X90.3447 Y-90.7932 F15000.0
G1 Z11.9000 F2500.0
G4 P0.02
G1 X90.3447 Y-99.2834 F2200.0
G1 Z0.0000 F2500.0
G4 P0.02
G0 X90.3447 Y-127.7293 F15000.0
G1 Z11.9000 F2500.0
G4 P0.02
G1 X90.3447 Y-136.1469 F2200.0
G1 Z0.0000 F2500.0
G4 P0.02
G0 X90.3447 Y-126.4231 F15000.0
G1 Z11.9000 F2500.0
G4 P0.02
G1 X90.3447 Y-125.1895 F2200.0
G1 Z0.0000 F2500.0
G4 P0.02
G0 X90.3447 Y-123.8833 F15000.0
G1 Z11.9000 F2500.0
G4 P0.02
G1 X90.3447 Y-115.3931 F2200.0
G1 Z0.0000 F2500.0
G4 P0.02
G0 X90.3447 Y-114.1594 F15000.0
G1 Z11.9000 F2500.0
G4 P0.02
G1 X90.3447 Y-112.8533 F2200.0
G1 Z0.0000 F2500.0
G4 P0.02
G0 X90.3447 Y-111.5471 F15000.0
G1 Z11.9000 F2500.0
G4 P0.02
G1 X90.3447 Y-103.1294 F2200.0
G1 Z0.0000 F2500.0
G4 P0.02
G0 X90.3447 Y-101.8232 F15000.0
G1 Z11.9000 F2500.0
G4 P0.02
G1 X90.3447 Y-100.5170 F2200.0
G1 Z0.0000 F2500.0
G4 P0.02
G0 X92.7632 Y-56.1415 F15000.0
G1 Z11.9000 F2500.0
G4 P0.02
G1 X92.6852 Y-56.0246 F2200.0
G1 Z0.0000 F2500.0
G4 P0.02
G0 X93.0359 Y-59.5698 F15000.0
G1 Z11.9000 F2500.0
G4 P0.02
G1 X94.9059 Y-59.8814 F2200.0
G1 X94.7500 Y-59.4919
G1 X93.6592 Y-57.6608
G1 X93.7371 Y-57.7777
G1 Z0.0000 F2500.0
G4 P0.02
G0 X90.3447 Y-53.8571 F15000.0
G1 Z11.9000 F2500.0
G4 P0.02
G1 X85.9907 Y-53.2766 F2200.0
G1 Z0.0000 F2500.0
G4 P0.02
G0 X90.3447 Y-53.8571
G1 Z11.9000 F2500.0
G4 P0.02
G1 X85.9907 Y-54.4376
G1 X86.4261 Y-53.8571
G1 Z0.0000 F2500.0
G4 P0.02
G0 X87.5643 Y-54.1473 F15000.0
G1 Z11.9000 F2500.0
G4 P0.02
G1 X88.3357 Y-54.1473 F2200.0
G1 Z0.0000 F2500.0
G4 P0.02
G0 X88.5897 Y-53.6031 F15000.0
G1 Z11.9000 F2500.0
G4 P0.02
G1 X87.8183 Y-53.6031 F2200.0
G1 Z0.0000 F2500.0
G4 P0.02
G0 X96.2951 Y-53.8571 F15000.0
G1 Z11.9000 F2500.0
G4 P0.02
G1 X100.5765 Y-54.4376 F2200.0
G1 Z0.0000 F2500.0
G4 P0.02
G0 X96.2951 Y-53.8571
G1 Z11.9000 F2500.0
G4 P0.02
G1 X100.5765 Y-53.2766
G1 X100.1411 Y-53.8571
G1 Z0.0000 F2500.0
G4 P0.02
G0 X96.2951 Y-53.8571 F15000.0
G1 Z11.9000 F2500.0
G4 P0.02
G1 X102.3181 Y-53.8571 F2200.0
G1 Z0.0000 F2500.0
G4 P0.02
G0 X98.8215 Y-53.6031 F15000.0
G1 Z11.9000 F2500.0
G4 P0.02
G1 X98.0501 Y-53.6031 F2200.0
G1 Z0.0000 F2500.0
G4 P0.02
G0 X98.3404 Y-54.1473 F15000.0
G1 Z11.9000 F2500.0
G4 P0.02
G1 X99.1117 Y-54.1473 F2200.0
G1 Z0.0000 F2500.0
G4 P0.02
G0 X96.2951 Y-53.8571 F15000.0
G1 Z11.9000 F2500.0
G4 P0.02
G1 X90.3447 Y-53.8571 F2200.0
G1 Z0.0000 F2500.0
G4 P0.02
G0 X90.3447 Y-52.1155 F15000.0
G1 Z11.9000 F2500.0
G4 P0.02
G1 X90.3447 Y-60.7509 F2200.0
G1 Z0.0000 F2500.0
G4 P0.02
G0 X96.2951 Y-52.1155 F15000.0
G1 Z11.9000 F2500.0
G4 P0.02
G1 X96.2951 Y-95.0020 F12000.0
G1 Z0.0000 F2500.0
G4 P0.02
G0 X83.3784 Y-102.0409 F15000.0
G1 Z11.9000 F2500.0
G4 P0.02
G1 X85.5553 Y-105.8144 F2200.0
G1 X82.5076 Y-102.7666
G1 X83.1607 Y-102.7666
G1 Z0.0000 F2500.0
G4 P0.02
G0 X84.0217 Y-104.1913 F15000.0
G1 Z11.9000 F2500.0
G4 P0.02
G1 X84.6217 Y-103.5914 F2200.0
G1 Z0.0000 F2500.0
G4 P0.02
G0 X84.3677 Y-103.9905 F15000.0
G1 Z11.9000 F2500.0
G4 P0.02
G1 X83.7678 Y-104.5904 F2200.0
G1 Z0.0000 F2500.0
G4 P0.02
G0 X82.5076 Y-87.3100 F15000.0
G1 Z11.9000 F2500.0
G4 P0.02
G1 X85.5553 Y-84.2622 F2200.0
G1 X83.3784 Y-88.0357
G1 X83.1607 Y-87.3100
G1 Z0.0000 F2500.0
G4 P0.02
G0 X84.5854 Y-85.9578 F15000.0
G1 Z11.9000 F2500.0
G4 P0.02
G1 X83.9854 Y-86.5578 F2200.0
G1 Z0.0000 F2500.0
G4 P0.02
G0 X84.1766 Y-104.2179 F15000.0
G1 Z11.9000 F2500.0
G4 P0.02
G1 X85.5553 Y-105.8144 F2200.0
G1 Z0.0000 F2500.0
G4 P0.02
G0 X84.1766 Y-104.2179 F15000.0
G1 Z11.9000 F2500.0
G4 P0.02
G1 X83.0155 Y-102.4763 F2200.0
G1 X82.1447 Y-100.5896
G1 X81.4916 Y-98.5578
G1 X81.1288 Y-96.4533
G1 X81.1288 Y-94.3489
G1 X81.3465 Y-92.3171 F2200.0
G1 X81.8545 Y-90.2852
G1 X82.6527 Y-88.3259
G1 X83.7412 Y-86.5118
G1 X84.9748 Y-84.8428
G1 Z0.0000 F2500.0
G4 P0.02
G0 X60.3024 Y-45.8748 F15000.0
G1 Z11.9000 F2500.0
G4 P0.02
G1 X56.0210 Y-45.2943 F2200.0
G1 X60.3024 Y-44.7138
G1 X59.8670 Y-45.2943
G1 Z0.0000 F2500.0
G4 P0.02
G0 X58.0662 Y-45.5846 F15000.0
G1 Z11.9000 F2500.0
G4 P0.02
G1 X58.8376 Y-45.5846 F2200.0
G1 Z0.0000 F2500.0
G4 P0.02
G0 X58.5473 Y-45.0403 F15000.0
G1 Z11.9000 F2500.0
G4 P0.02
G1 X57.7760 Y-45.0403 F2200.0
G1 Z0.0000 F2500.0
G4 P0.02
G0 X120.3145 Y-44.7138 F15000.0
G1 Z11.9000 F2500.0
G4 P0.02
G1 X124.5958 Y-45.2943 F2200.0
G1 X120.3145 Y-45.8748
G1 X120.7498 Y-45.2943
G1 Z0.0000 F2500.0
G4 P0.02
G0 X122.8771 Y-45.0403 F15000.0
G1 Z11.9000 F2500.0
G4 P0.02
G1 X122.1057 Y-45.0403 F2200.0
G1 Z0.0000 F2500.0
G4 P0.02
G0 X121.8518 Y-45.5846 F15000.0
G1 Z11.9000 F2500.0
G4 P0.02
G1 X122.6231 Y-45.5846 F2200.0
G1 Z0.0000 F2500.0
G4 P0.02
G0 X124.5958 Y-45.2943 F15000.0
G1 Z11.9000 F2500.0
G4 P0.02
G1 X56.0210 Y-45.2943 F12000.0
G1 Z0.0000 F2500.0
G4 P0.02
G0 X56.0210 Y-43.5527 F15000.0
G1 Z11.9000 F2500.0
G4 P0.02
G1 X56.0210 Y-95.0020 F12000.0
G1 Z0.0000 F2500.0
G4 P0.02
G0 X124.5958 Y-95.0020 F15000.0
G1 Z11.9000 F2500.0
G4 P0.02
G1 X124.5958 Y-43.5527 F12000.0
G1 Z0.0000 F2500.0
G4 P0.02
G0 X74.8881 Y-159.9486 F15000.0
G1 Z11.9000 F2500.0
G4 P0.02
G1 X70.6067 Y-159.3681 F2200.0
G1 X74.8881 Y-158.7875
G1 X74.4527 Y-159.3681
G1 Z0.0000 F2500.0
G4 P0.02
G0 X72.6520 Y-159.6583 F15000.0
G1 Z11.9000 F2500.0
G4 P0.02
G1 X73.4234 Y-159.6583 F2200.0
G1 Z0.0000 F2500.0
G4 P0.02
G0 X73.1331 Y-159.1141 F15000.0
G1 Z11.9000 F2500.0
G4 P0.02
G1 X72.3617 Y-159.1141 F2200.0
G1 Z0.0000 F2500.0
G4 P0.02
G0 X105.7287 Y-158.7875 F15000.0
G1 Z11.9000 F2500.0
G4 P0.02
G1 X110.0101 Y-159.3681 F2200.0
G1 X105.7287 Y-159.9486
G1 X106.1641 Y-159.3681
G1 Z0.0000 F2500.0
G4 P0.02
G0 X108.2914 Y-159.1141 F15000.0
G1 Z11.9000 F2500.0
G4 P0.02
G1 X107.5200 Y-159.1141 F2200.0
G1 Z0.0000 F2500.0
G4 P0.02
G0 X107.2660 Y-159.6583 F15000.0
G1 Z11.9000 F2500.0
G4 P0.02
G1 X108.0374 Y-159.6583 F2200.0
G1 Z0.0000 F2500.0
G4 P0.02
G0 X110.0101 Y-159.3681 F15000.0
G1 Z11.9000 F2500.0
G4 P0.02
G1 X70.6067 Y-159.3681 F12000.0
G1 Z0.0000 F2500.0
G4 P0.02
G0 X70.6067 Y-157.6265 F15000.0
G1 Z11.9000 F2500.0
G4 P0.02
G1 X70.6067 Y-180.7750 F12000.0
G1 Z0.0000 F2500.0
G4 P0.02
G0 X110.0101 Y-180.7750 F15000.0
G1 Z11.9000 F2500.0
G4 P0.02
G1 X110.0101 Y-157.6265 F12000.0
G1 Z0.0000 F2500.0
G4 P0.02
G0 X0.0000 Y-272.2808 F15000.0
G1 Z11.9000 F2500.0
G4 P0.02
G1 X0.0000 Y-17.7192 F12000.0
G1 Z0.0000 F2500.0
G4 P0.02
G0 X0.0000 Y-272.2808 F15000.0
G1 Z11.9000 F2500.0
G4 P0.02
G1 X180.0000 Y-272.2808 F12000.0
G1 Z0.0000 F2500.0
G4 P0.02
G0 X180.0000 Y-17.7192 F15000.0
G1 Z11.9000 F2500.0
G4 P0.02
G1 X0.0000 Y-17.7192 F12000.0
G1 Z0.0000 F2500.0
G4 P0.02
G0 X17.1256 Y-22.0006 F15000.0
G1 Z11.9000 F2500.0
G4 P0.02
G1 X17.1256 Y-267.9994 F12000.0
G1 X180.0000 Y-267.9994 F12000.0
G1 Z0.0000 F2500.0
G4 P0.02
G0 X180.0000 Y-22.0006 F15000.0
G1 Z11.9000 F2500.0
G4 P0.02
G1 X17.1256 Y-22.0006 F12000.0
G1 Z0.0000 F2500.0
G4 P0.02
G0 X6.8212 Y-22.0006 F15000.0
G1 Z11.9000 F2500.0
G4 P0.02
G1 X6.8212 Y-146.3062 F12000.0
G1 Z0.0000 F2500.0
G4 P0.02
G0 X11.1026 Y-146.3062 F15000.0
G1 Z11.9000 F2500.0
G4 P0.02
G1 X11.1026 Y-22.0006 F12000.0
G1 Z0.0000 F2500.0
G4 P0.02
G0 X6.8212 Y-22.0006 F15000.0
G1 Z11.9000 F2500.0
G4 P0.02
G1 X17.1256 Y-22.0006 F2200.0
G1 Z0.0000 F2500.0
G4 P0.02
G0 X17.1256 Y-146.3062 F15000.0
G1 Z11.9000 F2500.0
G4 P0.02
G1 X6.8212 Y-146.3062 F2200.0
G1 Z0.0000 F2500.0
G4 P0.02
G0 X6.8212 Y-43.4801 F15000.0
G1 Z11.9000 F2500.0
G4 P0.02
G1 X17.1256 Y-43.4801 F2200.0
G1 Z0.0000 F2500.0
G4 P0.02
G0 X17.1256 Y-73.4499 F15000.0
G1 Z11.9000 F2500.0
G4 P0.02
G1 X6.8212 Y-73.4499 F2200.0
G1 Z0.0000 F2500.0
G4 P0.02
G0 X6.8212 Y-94.8569 F15000.0
G1 Z11.9000 F2500.0
G4 P0.02
G1 X17.1256 Y-94.8569 F2200.0
G1 Z0.0000 F2500.0
G4 P0.02
G0 X17.1256 Y-116.2639 F15000.0
G1 Z11.9000 F2500.0
G4 P0.02
G1 X6.8212 Y-116.2639 F2200.0
G1 Z0.0000 F2500.0
G4 P0.02
G0 X8.2572 Y-59.3789 F15000.0
G1 Z11.9000 F2500.0
G4 P0.02
G1 X9.7766 Y-58.7555 F2200.0
G1 X10.2051 Y-57.7426
G1 X9.8155 Y-57.7037
G1 X8.2572 Y-58.3270
G1 Z0.0000 F2500.0
G4 P0.02
G0 X8.3741 Y-132.1916 F15000.0
G1 Z11.9000 F2500.0
G4 P0.02
G1 X8.2572 Y-132.2306 F2200.0
G1 X9.7766 Y-131.6072
G1 X10.2051 Y-130.5943
G1 X9.8155 Y-130.5554
G1 X8.2572 Y-131.1787
G1 Z0.0000 F2500.0
G4 P0.02
G0 X6.8212 Y-165.1734 F15000.0
G1 Z11.9000 F2500.0
G4 P0.02
G1 X6.8212 Y-267.9994 F12000.0
G1 Z0.0000 F2500.0
G4 P0.02
G0 X11.1026 Y-267.9994 F15000.0
G1 Z11.9000 F2500.0
G4 P0.02
G1 X11.1026 Y-165.1734 F12000.0
G1 Z0.0000 F2500.0
G4 P0.02
G0 X6.8212 Y-165.1734 F15000.0
G1 Z11.9000 F2500.0
G4 P0.02
G1 X17.1256 Y-165.1734 F2200.0
G1 Z0.0000 F2500.0
G4 P0.02
G0 X17.1256 Y-267.9994 F15000.0
G1 Z11.9000 F2500.0
G4 P0.02
G1 X6.8212 Y-267.9994 F2200.0
G1 Z0.0000 F2500.0
G4 P0.02
G0 X6.8212 Y-216.5501 F15000.0
G1 Z11.9000 F2500.0
G4 P0.02
G1 X17.1256 Y-216.5501 F2200.0
G1 Z0.0000 F2500.0
G4 P0.02
G0 X17.1256 Y-256.0260 F15000.0
G1 Z11.9000 F2500.0
G4 P0.02
G1 X77.1377 Y-256.0260 F12000.0
G1 X77.1377 Y-267.9994 F2200.0
G1 Z0.0000 F2500.0
G4 P0.02
G0 X61.5113 Y-259.2812 F15000.0
G1 Z11.9000 F2500.0
G4 P0.02
G1 X61.2776 Y-259.0474 F2200.0
G1 Z0.0000 F2500.0
G4 P0.02
G0 X61.7451 Y-259.4760 F15000.0
G1 Z11.9000 F2500.0
G4 P0.02
G1 X62.2515 Y-259.9435 F2200.0
G1 Z0.0000 F2500.0
G4 P0.02
G0 X62.9918 Y-260.6058 F15000.0
G1 Z11.9000 F2500.0
G4 P0.02
G1 X63.1086 Y-260.7226 F2200.0
G1 Z0.0000 F2500.0
G4 P0.02
G0 X63.4203 Y-261.1901 F15000.0
G1 Z11.9000 F2500.0
G4 P0.02
G1 X63.1086 Y-264.3457 F2200.0
G1 Z0.0000 F2500.0
G4 P0.02
G0 X63.4203 Y-261.1901 F15000.0
G1 Z11.9000 F2500.0
G4 P0.02
G1 X63.9267 Y-261.4239 F2200.0
G1 X64.1995 Y-261.6576
G1 X64.5890 Y-261.8135
G1 X65.5240 Y-264.0341
G1 Z0.0000 F2500.0
G4 P0.02
G0 X64.5890 Y-261.7355 F15000.0
G1 Z11.9000 F2500.0
G4 P0.02
G1 X63.7320 Y-259.1254 F2200.0
G1 Z0.0000 F2500.0
G4 P0.02
G0 X57.4788 Y-259.1126 F15000.0
G1 Z11.9000 F2500.0
G4 P0.02
G1 X57.4398 Y-258.9958 F2200.0
G1 X58.4528 Y-261.4891
G1 X58.8034 Y-262.6578
G1 Z0.0000 F2500.0
G4 P0.02
G0 X58.4917 Y-261.4501 F15000.0
G1 Z11.9000 F2500.0
G4 P0.02
G1 X60.7902 Y-261.4501 F2200.0
G1 Z0.0000 F2500.0
G4 P0.02
G0 X59.0371 Y-263.2812 F15000.0
G1 Z11.9000 F2500.0
G4 P0.02
G1 X59.4657 Y-264.4499 F2200.0
G1 Z0.0000 F2500.0
G4 P0.02
G0 X60.0890 Y-259.1516 F15000.0
G1 Z11.9000 F2500.0
G4 P0.02
G1 X59.9721 Y-258.9178 F2200.0
G1 X60.2838 Y-259.6581
G1 X60.8292 Y-261.4112
G1 X60.9461 Y-261.5280
G1 X62.0369 Y-264.4499
G1 Z0.0000 F2500.0
G4 P0.02
G0 X56.4613 Y-259.2295 F15000.0
G1 Z11.9000 F2500.0
G4 P0.02
G1 X54.2796 Y-258.8010 F2200.0
G1 Z0.0000 F2500.0
G4 P0.02
G0 X56.5002 Y-259.3074 F15000.0
G1 Z11.9000 F2500.0
G4 P0.02
G1 X57.6300 Y-262.3851 F2200.0
G1 Z0.0000 F2500.0
G4 P0.02
G0 X57.9417 Y-263.2032 F15000.0
G1 Z11.9000 F2500.0
G4 P0.02
G1 X58.4092 Y-264.4499 F2200.0
G1 Z0.0000 F2500.0
G4 P0.02
G0 X55.3647 Y-264.3296 F15000.0
G1 Z11.9000 F2500.0
G4 P0.02
G1 X55.1933 Y-264.3296 F2200.0
G1 Z0.0000 F2500.0
G4 P0.02
G0 X47.6429 Y-260.0668 F15000.0
G1 Z11.9000 F2500.0
G4 P0.02
G1 X47.6429 Y-259.1708 F2200.0
G1 X48.0714 Y-258.8981
G1 X49.3181 Y-258.9760
G1 Z0.0000 F2500.0
G4 P0.02
G0 X47.7208 Y-260.2616 F15000.0
G1 Z11.9000 F2500.0
G4 P0.02
G1 X48.9285 Y-263.4951 F2200.0
G1 Z0.0000 F2500.0
G4 P0.02
G0 X49.5129 Y-264.1574 F15000.0
G1 Z11.9000 F2500.0
G4 P0.02
G1 X49.9414 Y-264.3912 F2200.0
G1 X51.2660 Y-264.2743
G1 X51.4997 Y-263.9237
G1 X51.4997 Y-263.4172
G1 X50.2141 Y-259.8720
G1 X50.2920 Y-260.0668
G1 Z0.0000 F2500.0
G4 P0.02
G0 X50.0193 Y-259.5214 F15000.0
G1 Z11.9000 F2500.0
G4 P0.02
G1 X49.7856 Y-259.2876 F2200.0
G1 Z0.0000 F2500.0
G4 P0.02
G0 X43.9554 Y-259.8949 F15000.0
G1 Z11.9000 F2500.0
G4 P0.02
G1 X43.9943 Y-259.1547 F2200.0
G1 X44.2281 Y-258.9599
G1 X46.2150 Y-259.3494
G1 X46.4487 Y-259.7001
G1 X46.3708 Y-259.5442
G1 X46.8772 Y-260.7519
G1 X46.8383 Y-260.5961
G1 X46.9162 Y-260.8299
G1 X46.8383 Y-261.5701
G1 X46.5656 Y-261.8038
G1 X44.8125 Y-261.9207
G1 Z0.0000 F2500.0
G4 P0.02
G0 X43.9943 Y-259.9728 F15000.0
G1 Z11.9000 F2500.0
G4 P0.02
G1 X43.9943 Y-260.0897 F2200.0
G1 Z0.0000 F2500.0
G4 P0.02
G0 X44.5008 Y-261.4532 F15000.0
G1 Z11.9000 F2500.0
G4 P0.02
G1 X44.6956 Y-261.8428 F2200.0
G1 X44.8125 Y-261.9207
G1 X45.5916 Y-263.2842
G1 X46.2539 Y-263.8296
G1 X47.3837 Y-264.4530
G1 Z0.0000 F2500.0
G4 P0.02
G0 X44.7292 Y-264.3296 F15000.0
G1 Z11.9000 F2500.0
G4 P0.02
G1 X44.5578 Y-264.3296 F2200.0
G1 Z0.0000 F2500.0
G4 P0.02
G0 X39.3885 Y-260.0668 F15000.0
G1 Z11.9000 F2500.0
G4 P0.02
G1 X39.3885 Y-259.1708 F2200.0
G1 X39.8170 Y-258.8981
G1 X41.0637 Y-258.9760
G1 Z0.0000 F2500.0
G4 P0.02
G0 X39.4664 Y-260.2616 F15000.0
G1 Z11.9000 F2500.0
G4 P0.02
G1 X40.6741 Y-263.4951 F2200.0
G1 Z0.0000 F2500.0
G4 P0.02
G0 X41.2585 Y-264.1574 F15000.0
G1 Z11.9000 F2500.0
G4 P0.02
G1 X41.6870 Y-264.3912 F2200.0
G1 X43.0116 Y-264.2743
G1 X43.2453 Y-263.9237
G1 X43.2453 Y-263.4172
G1 X41.9597 Y-259.8720
G1 X42.0376 Y-260.0668
G1 Z0.0000 F2500.0
G4 P0.02
G0 X41.7649 Y-259.5214 F15000.0
G1 Z11.9000 F2500.0
G4 P0.02
G1 X41.5312 Y-259.2876 F2200.0
G1 Z0.0000 F2500.0
G4 P0.02
G0 X36.7883 Y-259.1514 F15000.0
G1 Z11.9000 F2500.0
G4 P0.02
G1 X36.6714 Y-258.9956 F2200.0
G1 X36.8662 Y-259.2683
G1 X36.9051 Y-259.6578
G1 X36.9051 Y-259.2293
G1 X37.4506 Y-259.4631
G1 X38.3856 Y-260.1253
G1 Z0.0000 F2500.0
G4 P0.02
G0 X36.9441 Y-259.7358 F15000.0
G1 Z11.9000 F2500.0
G4 P0.02
G1 X38.6193 Y-264.2939 F2200.0
G1 Z0.0000 F2500.0
G4 P0.02
G0 X37.5733 Y-264.3296 F15000.0
G1 Z11.9000 F2500.0
G4 P0.02
G1 X37.7448 Y-264.3296 F2200.0
G1 Z0.0000 F2500.0
G4 P0.02
G0 X32.4040 Y-260.0668 F15000.0
G1 Z11.9000 F2500.0
G4 P0.02
G1 X32.4040 Y-259.1708 F2200.0
G1 X32.8326 Y-258.8981
G1 X34.0792 Y-258.9760
G1 Z0.0000 F2500.0
G4 P0.02
G0 X32.4819 Y-260.2616 F15000.0
G1 Z11.9000 F2500.0
G4 P0.02
G1 X33.6896 Y-263.4951 F2200.0
G1 Z0.0000 F2500.0
G4 P0.02
G0 X34.2740 Y-264.1574 F15000.0
G1 Z11.9000 F2500.0
G4 P0.02
G1 X34.7025 Y-264.3912 F2200.0
G1 X36.0271 Y-264.2743
G1 X36.2609 Y-263.9237
G1 X36.2609 Y-263.4172
G1 X34.9753 Y-259.8720
G1 X35.0532 Y-260.0668
G1 Z0.0000 F2500.0
G4 P0.02
G0 X34.7805 Y-259.5214 F15000.0
G1 Z11.9000 F2500.0
G4 P0.02
G1 X34.5467 Y-259.2876 F2200.0
G1 Z0.0000 F2500.0
G4 P0.02
G0 X28.7566 Y-259.9499 F15000.0
G1 Z11.9000 F2500.0
G4 P0.02
G1 X29.2241 Y-258.9760 F2200.0
G1 X30.3150 Y-259.0149
G1 X30.6656 Y-259.2097
G1 Z0.0000 F2500.0
G4 P0.02
G0 X28.7956 Y-260.0278 F15000.0
G1 Z11.9000 F2500.0
G4 P0.02
G1 X29.0293 Y-260.4953 F2200.0
G1 Z0.0000 F2500.0
G4 P0.02
G0 X30.3929 Y-264.3912 F15000.0
G1 Z11.9000 F2500.0
G4 P0.02
G1 X32.6914 Y-264.3912 F2200.0
G1 X30.8993 Y-262.3653
G1 Z0.0000 F2500.0
G4 P0.02
G0 X16.2595 Y-18.9201 F15000.0
G1 Z11.9000 F2500.0
G4 P0.02
G1 X16.1037 Y-18.4916 F2200.0
G1 Z0.0000 F2500.0
G4 P0.02
G0 X16.4543 Y-19.3487 F15000.0
G1 Z11.9000 F2500.0
G4 P0.02
G1 X16.5323 Y-19.6993 F2200.0
G1 X16.5712 Y-19.4655
G1 X16.8050 Y-19.5045
G1 X16.6491 Y-20.0110
G1 X16.7660 Y-20.4005
G1 Z0.0000 F2500.0
G4 P0.02
G0 X16.8439 Y-19.5045 F15000.0
G1 Z11.9000 F2500.0
G4 P0.02
G1 X17.0777 Y-18.4916 F2200.0
G1 Z0.0000 F2500.0
G4 P0.02
G0 X17.1556 Y-19.8162 F15000.0
G1 Z11.9000 F2500.0
G4 P0.02
G1 X17.6231 Y-20.2058 F2200.0
G1 Z0.0000 F2500.0
G4 P0.02
G0 X17.7261 Y-19.2660 F15000.0
G1 Z11.9000 F2500.0
G4 P0.02
G1 X17.5703 Y-18.6037 F2200.0
G1 X18.1936 Y-18.4868
G1 X18.4274 Y-18.5647
G1 X18.7897 Y-18.4835
G1 X18.9065 Y-18.7951
G1 X18.7390 Y-19.1881
G1 X19.0507 Y-20.1620
G1 X18.9338 Y-20.3958
G1 X18.1157 Y-20.2399
G1 X17.7651 Y-19.3439
G1 Z0.0000 F2500.0
G4 P0.02
G0 X19.2961 Y-19.8860 F15000.0
G1 Z11.9000 F2500.0
G4 P0.02
G1 X19.4909 Y-20.1587 F2200.0
G1 X19.4909 Y-20.3924
G1 X19.4909 Y-20.1197
G1 X19.6857 Y-19.6522
G1 X19.7636 Y-19.6133
G1 X20.4649 Y-20.0418
G1 X20.4649 Y-19.8081
G1 X20.5817 Y-20.1976
G1 X20.8417 Y-19.8860
G1 X21.0365 Y-20.1587
G1 X21.0365 Y-20.3924
G1 X21.0365 Y-20.1197
G1 X21.2313 Y-19.6522
G1 X21.3092 Y-19.6133
G1 X22.0105 Y-20.0418
G1 X22.0105 Y-19.8081
G1 X22.1273 Y-20.1976
G1 X22.3169 Y-19.6947
G1 X22.5897 Y-20.2791
G1 X23.4857 Y-20.1622
G1 X23.2130 Y-19.4610
G1 X22.2780 Y-19.4220
G1 X22.1222 Y-18.9935
G1 X22.0832 Y-18.5649
G1 X22.0832 Y-18.9155
G1 Z0.0000 F2500.0
G4 P0.02
G0 X20.4521 Y-18.7951 F15000.0
G1 Z11.9000 F2500.0
G4 P0.02
G1 X20.3353 Y-18.4835 F2200.0
G1 Z0.0000 F2500.0
G4 P0.02
G0 X22.1222 Y-18.5260 F15000.0
G1 Z11.9000 F2500.0
G4 P0.02
G1 X23.3202 Y-18.4526 F2200.0
G1 X24.0604 Y-18.5305
G1 X24.2941 Y-18.6864
G1 X24.8395 Y-20.1668
G1 X23.9046 Y-20.3616
G1 X23.0475 Y-17.9072
G1 X23.0864 Y-18.0241
G1 Z0.0000 F2500.0
G4 P0.02
G0 X25.0633 Y-19.7383 F15000.0
G1 Z11.9000 F2500.0
G4 P0.02
G1 X25.8815 Y-19.4266 F2200.0
G1 X25.7256 Y-18.8812
G1 X26.1151 Y-18.9155
G1 X26.1151 Y-18.5649
G1 X26.1541 Y-18.9935
G1 X26.3099 Y-19.4220
G1 X27.2839 Y-19.4999
G1 X27.5176 Y-20.1622
G1 X26.6216 Y-20.2791
G1 X26.3489 Y-19.6947
G1 Z0.0000 F2500.0
G4 P0.02
G0 X25.1023 Y-19.8162 F15000.0
G1 Z11.9000 F2500.0
G4 P0.02
G1 X25.2192 Y-20.2837 F2200.0
G1 Z0.0000 F2500.0
G4 P0.02
G0 X25.9594 Y-19.5435 F15000.0
G1 Z11.9000 F2500.0
G4 P0.02
G1 X26.2710 Y-20.4005 F2200.0
G1 Z0.0000 F2500.0
G4 P0.02
G0 X26.1541 Y-18.5260 F15000.0
G1 Z11.9000 F2500.0
G4 P0.02
G1 X26.8943 Y-18.4870 F2200.0
G1 Z0.0000 F2500.0
G4 P0.02
G0 X27.4593 Y-18.9201 F15000.0
G1 Z11.9000 F2500.0
G4 P0.02
G1 X27.4982 Y-18.5305 F2200.0
G1 X28.6028 Y-18.4916
G1 X29.0313 Y-19.6993
G1 X29.0703 Y-19.4655
G1 X29.3040 Y-19.5045
G1 X29.1482 Y-20.0110
G1 X29.2650 Y-20.4005
G1 Z0.0000 F2500.0
G4 P0.02
G0 X27.5762 Y-19.2318 F15000.0
G1 Z11.9000 F2500.0
G4 P0.02
G1 X27.8099 Y-20.0499 F2200.0
G1 X28.0047 Y-20.2837
G1 X28.9007 Y-20.4005
G1 Z0.0000 F2500.0
G4 P0.02
G0 X29.3430 Y-19.5045 F15000.0
G1 Z11.9000 F2500.0
G4 P0.02
G1 X29.5767 Y-18.4916 F2200.0
G1 Z0.0000 F2500.0
G4 P0.02
G0 X29.6546 Y-19.8162 F15000.0
G1 Z11.9000 F2500.0
G4 P0.02
G1 X30.1221 Y-20.2058 F2200.0
G1 Z0.0000 F2500.0
G4 P0.02
G0 X30.2252 Y-19.2660 F15000.0
G1 Z11.9000 F2500.0
G4 P0.02
G1 X30.0693 Y-18.6037 F2200.0
G1 X30.6927 Y-18.4868
G1 X30.9264 Y-18.5647
G1 Z0.0000 F2500.0
G4 P0.02
G0 X30.2641 Y-19.3439 F15000.0
G1 Z11.9000 F2500.0
G4 P0.02
G1 X30.6148 Y-20.2399 F2200.0
G1 X31.4329 Y-20.3958
G1 X31.5497 Y-20.1620
G1 X31.2381 Y-19.1881
G1 X31.5309 Y-18.9467
G1 X31.4140 Y-18.6351
G1 X32.2322 Y-18.5961
G1 Z0.0000 F2500.0
G4 P0.02
G0 X31.6088 Y-18.9857 F15000.0
G1 Z11.9000 F2500.0
G4 P0.02
G1 X32.8165 Y-19.9986 F2200.0
G1 X32.8555 Y-20.2323
G1 X32.7776 Y-20.3492
G1 X31.9594 Y-20.2713
G1 Z0.0000 F2500.0
G4 P0.02
G0 X32.9131 Y-19.2660 F15000.0
G1 Z11.9000 F2500.0
G4 P0.02
G1 X32.7573 Y-18.6037 F2200.0
G1 X33.3806 Y-18.4868
G1 X33.6144 Y-18.5647
G1 Z0.0000 F2500.0
G4 P0.02
G0 X32.9521 Y-19.3439 F15000.0
G1 Z11.9000 F2500.0
G4 P0.02
G1 X33.3027 Y-20.2399 F2200.0
G1 X34.1208 Y-20.3958
G1 X34.2377 Y-20.1620
G1 X33.9260 Y-19.1881
G1 Z0.0000 F2500.0
G4 P0.02
G0 X35.1872 Y-18.9201 F15000.0
G1 Z11.9000 F2500.0
G4 P0.02
G1 X35.2261 Y-18.5305 F2200.0
G1 X36.3559 Y-19.5045
G1 X36.6480 Y-19.2318
G1 X36.8818 Y-20.0499
G1 X37.0766 Y-20.2837
G1 X37.9726 Y-20.4005
G1 X38.2180 Y-20.0110
G1 X39.1141 Y-20.4005
G1 X39.1920 Y-20.3226
G1 X39.1920 Y-19.9720
G1 X38.7245 Y-18.5305
G1 Z0.0000 F2500.0
G4 P0.02
G0 X35.5378 Y-20.0499 F15000.0
G1 Z11.9000 F2500.0
G4 P0.02
G1 X35.3041 Y-19.2318 F2200.0
G1 Z0.0000 F2500.0
G4 P0.02
G0 X36.5507 Y-20.0499 F15000.0
G1 Z11.9000 F2500.0
G4 P0.02
G1 X36.6676 Y-20.4005 F2200.0
G1 Z0.0000 F2500.0
G4 P0.02
G0 X36.5312 Y-18.9201 F15000.0
G1 Z11.9000 F2500.0
G4 P0.02
G1 X36.5701 Y-18.5305 F2200.0
G1 X37.6726 Y-18.4916
G1 X37.7895 Y-18.8033
G1 Z0.0000 F2500.0
G4 P0.02
G0 X37.9843 Y-19.3487 F15000.0
G1 Z11.9000 F2500.0
G4 P0.02
G1 X38.0232 Y-19.4655 F2200.0
G1 Z0.0000 F2500.0
G4 P0.02
G0 X39.2971 Y-19.2660 F15000.0
G1 Z11.9000 F2500.0
G4 P0.02
G1 X39.1412 Y-18.6037 F2200.0
G1 X39.7646 Y-18.4868
G1 X39.9983 Y-18.5647
G1 X40.3997 Y-18.4974
G1 X41.4516 Y-20.3674
G1 X41.9970 Y-20.3674
G1 X41.9580 Y-20.1726
G1 X42.2500 Y-20.0499
G1 X42.1331 Y-19.5045
G1 X42.9512 Y-19.1149
G1 X42.8733 Y-18.8812
G1 X43.2463 Y-18.5571
G1 X43.5580 Y-18.4792
G1 X44.0255 Y-18.7519
G1 X44.1424 Y-18.9857
G1 X44.1424 Y-19.4142
G1 X43.8697 Y-19.4532
G1 X44.1034 Y-19.4532
G1 X44.2982 Y-19.6090
G1 X44.5320 Y-20.2713
G1 X44.4541 Y-20.3492
G1 Z0.0000 F2500.0
G4 P0.02
G0 X39.3360 Y-19.3439 F15000.0
G1 Z11.9000 F2500.0
G4 P0.02
G1 X39.6866 Y-20.2399 F2200.0
G1 X40.5048 Y-20.3958
G1 X40.6216 Y-20.1620
G1 X40.3100 Y-19.1881
G1 Z0.0000 F2500.0
G4 P0.02
G0 X42.0552 Y-19.4266 F15000.0
G1 Z11.9000 F2500.0
G4 P0.02
G1 X41.7825 Y-18.4916 F2200.0
G1 X42.6785 Y-18.5695
G1 Z0.0000 F2500.0
G4 P0.02
G0 X43.8697 Y-20.3103 F15000.0
G1 Z11.9000 F2500.0
G4 P0.02
G1 X44.3761 Y-20.3882 F2200.0
G1 Z0.0000 F2500.0
G4 P0.02
G0 X44.6058 Y-19.2660 F15000.0
G1 Z11.9000 F2500.0
G4 P0.02
G1 X44.4500 Y-18.6037 F2200.0
G1 X45.0733 Y-18.4868
G1 X45.3070 Y-18.5647
G1 Z0.0000 F2500.0
G4 P0.02
G0 X44.6447 Y-19.3439 F15000.0
G1 Z11.9000 F2500.0
G4 P0.02
G1 X44.9954 Y-20.2399 F2200.0
G1 X45.8135 Y-20.3958
G1 X45.9304 Y-20.1620
G1 X45.6187 Y-19.1881
G1 X46.4178 Y-18.4853
G1 X46.6515 Y-18.5632
G1 Z0.0000 F2500.0
G4 P0.02
G0 X45.9503 Y-19.1865 F15000.0
G1 Z11.9000 F2500.0
G4 P0.02
G1 X46.4178 Y-20.5890 F2200.0
G1 X46.4178 Y-20.3942
G1 X46.6126 Y-20.3942
G1 X46.4568 Y-20.6670
G1 X46.6126 Y-21.0565
G1 X46.8074 Y-20.4332
G1 X47.2749 Y-20.1605
G1 X46.9632 Y-19.1865
G1 X47.2715 Y-19.2707
G1 X47.1157 Y-18.6084
G1 X47.7780 Y-18.5305
G1 X48.4352 Y-18.6864
G1 X48.3573 Y-18.4916
G1 X48.7858 Y-19.5045
G1 X48.9027 Y-20.0499
G1 Z0.0000 F2500.0
G4 P0.02
G0 X46.8463 Y-20.6280 F15000.0
G1 Z11.9000 F2500.0
G4 P0.02
G1 X47.1580 Y-21.0955 F2200.0
G1 X47.0411 Y-21.2513
G1 X46.9243 Y-21.2513
G1 Z0.0000 F2500.0
G4 P0.02
G0 X47.3105 Y-19.3486 F15000.0
G1 Z11.9000 F2500.0
G4 P0.02
G1 X47.6611 Y-20.2447 F2200.0
G1 X48.6351 Y-20.3616
G1 X48.2844 Y-19.1538
G1 Z0.0000 F2500.0
G4 P0.02
G0 X48.8248 Y-19.4655 F15000.0
G1 Z11.9000 F2500.0
G4 P0.02
G1 X49.6819 Y-19.4266 F2200.0
G1 X49.6429 Y-19.2318
G1 X50.0325 Y-20.4005
G1 X50.2544 Y-20.0499
G1 X49.9038 Y-18.9201
G1 X49.9428 Y-18.5305
G1 X51.0725 Y-19.5045
G1 X51.5121 Y-19.5824
G1 X51.7458 Y-20.2837
G1 X52.6808 Y-20.3616
G1 X52.3302 Y-19.2318
G1 X52.3302 Y-19.4266
G1 X51.7458 Y-19.3876
G1 X51.1225 Y-18.5305
G1 X51.2394 Y-18.6864
G1 Z0.0000 F2500.0
G4 P0.02
G0 X51.2673 Y-20.0499 F15000.0
G1 Z11.9000 F2500.0
G4 P0.02
G1 X51.3842 Y-20.4005 F2200.0
G1 Z0.0000 F2500.0
G4 P0.02
G0 X3.5479 Y-23.1880 F15000.0
G1 Z11.9000 F2500.0
G4 P0.02
G1 X3.1194 Y-23.3438 F2200.0
G1 X4.4440 Y-22.9153
G1 X4.4440 Y-23.1101
G1 X4.4829 Y-22.9543
G1 X5.8854 Y-22.3699
G1 Z0.0000 F2500.0
G4 P0.02
G0 X3.7038 Y-24.0061 F15000.0
G1 Z11.9000 F2500.0
G4 P0.02
G1 X3.5479 Y-24.1620 F2200.0
G1 X3.8986 Y-23.7724
G1 X3.8206 Y-23.8503
G1 X4.3271 Y-23.3828
G1 X4.4050 Y-23.1880
G1 Z0.0000 F2500.0
G4 P0.02
G0 X4.3660 Y-23.4218 F15000.0
G1 Z11.9000 F2500.0
G4 P0.02
G1 X5.7296 Y-23.5776 F2200.0
G1 X5.9244 Y-23.4997
G1 Z0.0000 F2500.0
G4 P0.02
G0 X3.2097 Y-25.0604 F15000.0
G1 Z11.9000 F2500.0
G4 P0.02
G1 X3.0928 Y-25.6058 F2200.0
G1 X3.2486 Y-25.8396
G1 X3.5603 Y-25.9175
G1 X3.8550 Y-26.1754
G1 X5.8808 Y-25.4742
G1 X5.7420 Y-24.9825
G1 X5.8588 Y-24.7488
G1 X5.6251 Y-24.0475
G1 X3.4434 Y-24.7877
G1 Z0.0000 F2500.0
G4 P0.02
G0 X4.8070 Y-25.5279 F15000.0
G1 Z11.9000 F2500.0
G4 P0.02
G1 X4.3784 Y-25.6448 F2200.0
G1 Z0.0000 F2500.0
G4 P0.02
G0 X5.3913 Y-25.2942 F15000.0
G1 Z11.9000 F2500.0
G4 P0.02
G1 X5.0018 Y-25.4500 F2200.0
G1 Z0.0000 F2500.0
G4 P0.02
G0 X3.4264 Y-26.4481 F15000.0
G1 Z11.9000 F2500.0
G4 P0.02
G1 X3.1927 Y-26.4481 F2200.0
G1 X3.5433 Y-26.3313
G1 X3.5823 Y-26.5261
G1 X4.3225 Y-26.7208
G1 X4.0108 Y-27.1494
G1 Z0.0000 F2500.0
G4 P0.02
G0 X4.3225 Y-26.7208 F15000.0
G1 Z11.9000 F2500.0
G4 P0.02
G1 X4.4783 Y-26.6429 F2200.0
G1 Z0.0000 F2500.0
G4 P0.02
G0 X3.5043 Y-27.8117 F15000.0
G1 Z11.9000 F2500.0
G4 P0.02
G1 X5.8808 Y-27.0325 F2200.0
G1 X5.8854 Y-27.3476
G1 X5.1063 Y-27.6203
G1 Z0.0000 F2500.0
G4 P0.02
G0 X3.5823 Y-27.6169 F15000.0
G1 Z11.9000 F2500.0
G4 P0.02
G1 X3.5043 Y-27.8117 F2200.0
G1 X3.5479 Y-28.1657
G1 X4.0154 Y-28.0099
G1 Z0.0000 F2500.0
G4 P0.02
G0 X3.4700 Y-28.2047 F15000.0
G1 Z11.9000 F2500.0
G4 P0.02
G1 X3.1194 Y-28.3605 F2200.0
G1 X3.4311 Y-29.4124
G1 X3.9765 Y-29.2176
G1 Z0.0000 F2500.0
G4 P0.02
G0 X5.1063 Y-28.8280 F15000.0
G1 Z11.9000 F2500.0
G4 P0.02
G1 X5.3400 Y-28.7501 F2200.0
G1 X5.5711 Y-29.0689
G1 X5.0257 Y-29.4975
G1 X4.8699 Y-29.4975
G1 X5.0257 Y-29.5364
G1 X5.0647 Y-30.3546
G1 X5.7659 Y-30.3156
G1 Z0.0000 F2500.0
G4 P0.02
G0 X5.8854 Y-28.5163 F15000.0
G1 Z11.9000 F2500.0
G4 P0.02
G1 X5.7686 Y-28.5943 F2200.0
G1 Z0.0000 F2500.0
G4 P0.02
G0 X3.3505 Y-30.5104 F15000.0
G1 Z11.9000 F2500.0
G4 P0.02
G1 X3.1557 Y-30.5494 F2200.0
G1 X3.3895 Y-30.4714
G1 X3.6622 Y-30.1987
G1 X3.4284 Y-30.5104
G1 X4.9867 Y-30.3935
G1 Z0.0000 F2500.0
G4 P0.02
G0 X3.8570 Y-30.0819 F15000.0
G1 Z11.9000 F2500.0
G4 P0.02
G1 X3.7401 Y-30.1598 F2200.0
G1 X4.0517 Y-29.9650
G1 Z0.0000 F2500.0
G4 P0.02
G0 X3.1584 Y-31.9274 F15000.0
G1 Z11.9000 F2500.0
G4 P0.02
G1 X3.1194 Y-32.5117 F2200.0
G1 Z0.0000 F2500.0
G4 P0.02
G0 X3.1973 Y-31.8495 F15000.0
G1 Z11.9000 F2500.0
G4 P0.02
G1 X3.3532 Y-31.5378 F2200.0
G1 X3.5869 Y-31.3820
G1 X5.6127 Y-30.7197
G1 X5.6906 Y-30.7586
G1 X5.8854 Y-31.5378
G1 Z0.0000 F2500.0
G4 P0.02
G0 X5.0645 Y-32.2425 F15000.0
G1 Z11.9000 F2500.0
G4 P0.02
G1 X5.0645 Y-33.2164 F2200.0
G1 Z0.0000 F2500.0
G4 P0.02
G0 X3.1973 Y-34.1352 F15000.0
G1 Z11.9000 F2500.0
G4 P0.02
G1 X3.1584 Y-34.4858 F2200.0
G1 X3.2752 Y-34.8754
G1 X3.5090 Y-34.9533
G1 X4.0934 Y-34.6806
G1 X4.4050 Y-34.4079
G1 X4.4829 Y-34.0962
G1 X4.5998 Y-34.5637
G1 X5.5738 Y-34.3300
G1 X5.8465 Y-33.8625
G1 X5.8854 Y-33.3171
G1 Z0.0000 F2500.0
G4 P0.02
G0 X5.3790 Y-34.7712 F15000.0
G1 Z11.9000 F2500.0
G4 P0.02
G1 X3.2363 Y-36.5243 F2200.0
G1 X3.5479 Y-36.6022
G1 Z0.0000 F2500.0
G4 P0.02
G0 X4.3661 Y-36.3295 F15000.0
G1 Z11.9000 F2500.0
G4 P0.02
G1 X5.4569 Y-35.9399 F2200.0
G1 X5.8465 Y-34.6543
G1 X5.5738 Y-34.6932
G1 Z0.0000 F2500.0
G4 P0.02
G0 X3.3083 Y-78.7739 F15000.0
G1 Z11.9000 F2500.0
G4 P0.02
G1 X3.1136 Y-78.8907 F2200.0
G1 X3.2304 Y-79.2414
G1 X3.5421 Y-79.0466
G1 X3.4642 Y-78.6959
G1 X3.6200 Y-78.5791
G1 Z0.0000 F2500.0
G4 P0.02
G0 X3.3505 Y-80.4394 F15000.0
G1 Z11.9000 F2500.0
G4 P0.02
G1 X3.1557 Y-80.4783 F2200.0
G1 X3.3895 Y-80.4004
G1 X3.6622 Y-80.1277
G1 X3.4284 Y-80.4394
G1 X5.7659 Y-80.2446
G1 Z0.0000 F2500.0
G4 P0.02
G0 X3.8570 Y-80.0108 F15000.0
G1 Z11.9000 F2500.0
G4 P0.02
G1 X3.7401 Y-80.0887 F2200.0
G1 X4.0517 Y-79.8939
G1 Z0.0000 F2500.0
G4 P0.02
G0 X4.8699 Y-79.4265 F15000.0
G1 Z11.9000 F2500.0
G4 P0.02
G1 X5.0257 Y-79.4654 F2200.0
G1 X5.0257 Y-80.2446
G1 Z0.0000 F2500.0
G4 P0.02
G0 X5.0257 Y-79.4265 F15000.0
G1 Z11.9000 F2500.0
G4 P0.02
G1 X5.5711 Y-78.9979 F2200.0
G1 Z0.0000 F2500.0
G4 P0.02
G0 X3.1584 Y-81.8563 F15000.0
G1 Z11.9000 F2500.0
G4 P0.02
G1 X3.1194 Y-82.8151 F2200.0
G1 X4.4440 Y-82.3866
G1 X4.4440 Y-82.5814
G1 X4.4829 Y-82.4255
G1 X5.8854 Y-81.8411
G1 X5.8854 Y-81.4667
G1 X5.6906 Y-80.6876
G1 X5.6127 Y-80.6486
G1 X3.5869 Y-81.3109
G1 X3.3532 Y-81.4667
G1 X3.1973 Y-81.7784
G1 Z0.0000 F2500.0
G4 P0.02
G0 X3.7038 Y-83.4774 F15000.0
G1 Z11.9000 F2500.0
G4 P0.02
G1 X3.5479 Y-83.6332 F2200.0
G1 X3.8986 Y-83.2436
G1 X3.8206 Y-83.3216
G1 X4.3271 Y-82.8541
G1 X4.4050 Y-82.6593
G1 X4.3660 Y-82.8930
G1 X5.7296 Y-83.0488
G1 X5.9244 Y-82.9709
G1 Z0.0000 F2500.0
G4 P0.02
G0 X3.2097 Y-84.5317 F15000.0
G1 Z11.9000 F2500.0
G4 P0.02
G1 X3.0928 Y-85.0771 F2200.0
G1 X3.2486 Y-85.3108
G1 X3.5603 Y-85.3887
G1 X3.6258 Y-85.7164
G1 X4.4050 Y-85.5606
G1 X4.4050 Y-86.5345
G1 X3.9375 Y-86.8072
G1 X4.4439 Y-86.5735
G1 X5.8854 Y-86.1450
G1 Z0.0000 F2500.0
G4 P0.02
G0 X3.4434 Y-84.2590 F15000.0
G1 Z11.9000 F2500.0
G4 P0.02
G1 X5.6251 Y-83.5188 F2200.0
G1 X5.8588 Y-84.2200
G1 X5.7420 Y-84.4537
G1 X5.8854 Y-84.9373
G1 X4.7556 Y-85.3268
G1 X4.8070 Y-84.9992
G1 X4.3784 Y-85.1160
G1 Z0.0000 F2500.0
G4 P0.02
G0 X5.3913 Y-84.7654 F15000.0
G1 Z11.9000 F2500.0
G4 P0.02
G1 X5.0018 Y-84.9212 F2200.0
G1 Z0.0000 F2500.0
G4 P0.02
G0 X3.3141 Y-87.0410 F15000.0
G1 Z11.9000 F2500.0
G4 P0.02
G1 X3.1194 Y-87.1189 F2200.0
G1 X3.6258 Y-86.9241
G1 Z0.0000 F2500.0
G4 P0.02
G0 X3.1194 Y-85.9112 F15000.0
G1 Z11.9000 F2500.0
G4 P0.02
G1 X3.5479 Y-85.7554 F2200.0
G1 Z0.0000 F2500.0
G4 P0.02
G0 X5.0645 Y-86.8082 F15000.0
G1 Z11.9000 F2500.0
G4 P0.02
G1 X5.0645 Y-87.7821 F2200.0
G1 Z0.0000 F2500.0
G4 P0.02
G0 X3.1584 Y-89.1810 F15000.0
G1 Z11.9000 F2500.0
G4 P0.02
G1 X3.1194 Y-89.7654 F2200.0
G1 Z0.0000 F2500.0
G4 P0.02
G0 X3.1973 Y-89.1031 F15000.0
G1 Z11.9000 F2500.0
G4 P0.02
G1 X3.3532 Y-88.7915 F2200.0
G1 X3.5869 Y-88.6356
G1 X5.6127 Y-87.9733
G1 X5.6906 Y-88.0123
G1 X5.8854 Y-88.7915
G1 X5.8012 Y-89.3348
G1 X5.4506 Y-89.3348
G1 X5.8402 Y-89.3737
G1 X5.8792 Y-89.8412
G1 X4.9442 Y-90.5035
G1 Z0.0000 F2500.0
G4 P0.02
G0 X4.2819 Y-90.7373 F15000.0
G1 Z11.9000 F2500.0
G4 P0.02
G1 X3.9702 Y-90.8542 F2200.0
G1 X4.2819 Y-91.0684
G1 X5.4506 Y-90.6788
G1 X5.8402 Y-90.7177
G1 X5.8792 Y-91.8413
G1 X4.7104 Y-92.2699
G1 X4.8273 Y-92.2309
G1 Z0.0000 F2500.0
G4 P0.02
G0 X4.2819 Y-89.7244 F15000.0
G1 Z11.9000 F2500.0
G4 P0.02
G1 X5.1389 Y-89.4517 F2200.0
G1 Z0.0000 F2500.0
G4 P0.02
G0 X4.0871 Y-91.2242 F15000.0
G1 Z11.9000 F2500.0
G4 P0.02
G1 X3.9702 Y-92.1592 F2200.0
G1 Z0.0000 F2500.0
G4 P0.02
G0 X4.0092 Y-93.2438 F15000.0
G1 Z11.9000 F2500.0
G4 P0.02
G1 X4.0481 Y-93.9451 F2200.0
G1 X4.3987 Y-93.9451
G1 X5.5285 Y-93.5944
G1 Z0.0000 F2500.0
G4 P0.02
G0 X4.0092 Y-93.2438 F15000.0
G1 Z11.9000 F2500.0
G4 P0.02
G1 X4.9831 Y-92.9711 F2200.0
G1 Z0.0000 F2500.0
G4 P0.02
G0 X4.5156 Y-92.3478 F15000.0
G1 Z11.9000 F2500.0
G4 P0.02
G1 X4.0092 Y-93.2438 F2200.0
G1 Z0.0000 F2500.0
G4 P0.02
G0 X5.8792 Y-92.6594 F15000.0
G1 Z11.9000 F2500.0
G4 P0.02
G1 X5.5285 Y-92.7763 F2200.0
G1 Z0.0000 F2500.0
G4 P0.02
G0 X4.1306 Y-94.3639 F15000.0
G1 Z11.9000 F2500.0
G4 P0.02
G1 X4.0527 Y-95.2599 F2200.0
G1 X4.9487 Y-94.1302
G1 Z0.0000 F2500.0
G4 P0.02
G0 X4.4423 Y-94.2470 F15000.0
G1 Z11.9000 F2500.0
G4 P0.02
G1 X4.2085 Y-94.3249 F2200.0
G1 X5.4552 Y-93.8964
G1 X5.8448 Y-93.9354
G1 X5.8837 Y-94.7145
G1 X5.8094 Y-95.1009
G1 X4.6406 Y-95.5294
G1 X4.9133 Y-95.9190
G1 X4.7185 Y-96.1527
G1 X4.7575 Y-95.9969
G1 X4.3289 Y-95.8411
G1 X4.3289 Y-95.6463
G1 X4.2510 Y-95.7631
G1 X3.9783 Y-95.7631
G1 Z0.0000 F2500.0
G4 P0.02
G0 X4.2900 Y-96.7761 F15000.0
G1 Z11.9000 F2500.0
G4 P0.02
G1 X3.9783 Y-96.9708 F2200.0
G1 X3.9702 Y-97.3076
G1 X4.9052 Y-97.0739
G1 X4.9442 Y-97.5414
G1 X5.0221 Y-97.6193
G1 X5.3727 Y-97.6193
G1 X5.6844 Y-97.4635
G1 X5.4506 Y-97.5803
G1 X5.7623 Y-97.8920
G1 X5.9181 Y-97.8141
G1 X5.7623 Y-97.4245
G1 X5.8402 Y-96.6843
G1 X5.2948 Y-96.8012
G1 Z0.0000 F2500.0
G4 P0.02
G0 X4.6406 Y-96.2696 F15000.0
G1 Z11.9000 F2500.0
G4 P0.02
G1 X4.3289 Y-96.7371 F2200.0
G1 X4.5237 Y-96.7761
G1 Z0.0000 F2500.0
G4 P0.02
G0 X5.7704 Y-96.3475 F15000.0
G1 Z11.9000 F2500.0
G4 P0.02
G1 X5.9262 Y-96.2696 F2200.0
G1 Z0.0000 F2500.0
G4 P0.02
G0 X4.9831 Y-98.1647 F15000.0
G1 Z11.9000 F2500.0
G4 P0.02
G1 X3.9702 Y-98.5153 F2200.0
G1 Z0.0000 F2500.0
G4 P0.02
G0 X4.3208 Y-99.7286 F15000.0
G1 Z11.9000 F2500.0
G4 P0.02
G1 X4.0481 Y-100.6636 F2200.0
G1 X4.3987 Y-100.6636
G1 X5.7623 Y-100.2351
G1 X5.8792 Y-100.5280
G1 X4.0092 Y-102.0084
G1 X4.8273 Y-101.8915
G1 X5.7233 Y-101.5409
G1 X5.9181 Y-100.5669
G1 X6.7362 Y-100.2163
G1 Z0.0000 F2500.0
G4 P0.02
G0 X5.5285 Y-99.3001 F15000.0
G1 Z11.9000 F2500.0
G4 P0.02
G1 X5.8792 Y-99.1832 F2200.0
G1 Z0.0000 F2500.0
G4 P0.02
G0 X4.0919 Y-102.5334 F15000.0
G1 Z11.9000 F2500.0
G4 P0.02
G1 X4.0529 Y-103.3905 F2200.0
G1 X5.1437 Y-103.1567
G1 X4.9487 Y-103.6053
G1 X4.0527 Y-104.7350
G1 X4.1306 Y-103.8390
G1 X5.4552 Y-103.3715
G1 X5.8448 Y-103.4105
G1 X5.8792 Y-104.5690
G1 X5.5285 Y-104.6859
G1 Z0.0000 F2500.0
G4 P0.02
G0 X4.9879 Y-102.1828 F15000.0
G1 Z11.9000 F2500.0
G4 P0.02
G1 X4.1308 Y-102.4945 F2200.0
G1 Z0.0000 F2500.0
G4 P0.02
G0 X5.0658 Y-102.1438 F15000.0
G1 Z11.9000 F2500.0
G4 P0.02
G1 X5.7671 Y-101.9880 F2200.0
G1 X5.8450 Y-102.0270
G1 X5.8839 Y-102.5334
G1 X5.8060 Y-102.8061
G1 X5.4554 Y-103.0399
G1 X5.6112 Y-102.9620
G1 Z0.0000 F2500.0
G4 P0.02
G0 X4.3208 Y-105.1144 F15000.0
G1 Z11.9000 F2500.0
G4 P0.02
G1 X3.9702 Y-105.2313 F2200.0
G1 Z0.0000 F2500.0
G4 P0.02
G0 X4.2429 Y-105.9715 F15000.0
G1 Z11.9000 F2500.0
G4 P0.02
G1 X4.1650 Y-106.0494 F2200.0
G1 X4.5546 Y-105.5819
G1 Z0.0000 F2500.0
G4 P0.02
G0 X4.6325 Y-104.9976 F15000.0
G1 Z11.9000 F2500.0
G4 P0.02
G1 X4.9052 Y-104.9976 F2200.0
G1 X4.9052 Y-105.3092
G1 X5.9181 Y-105.5430
G1 X5.8792 Y-105.8859
G1 X4.7104 Y-106.3145
G1 X4.8273 Y-106.2755
G1 Z0.0000 F2500.0
G4 P0.02
G0 X5.1000 Y-104.8417 F15000.0
G1 Z11.9000 F2500.0
G4 P0.02
G1 X4.9442 Y-104.9586 F2200.0
G1 Z0.0000 F2500.0
G4 P0.02
G0 X4.0092 Y-107.2884 F15000.0
G1 Z11.9000 F2500.0
G4 P0.02
G1 X4.0481 Y-107.9897 F2200.0
G1 X4.3987 Y-107.9897
G1 X5.5285 Y-107.6391
G1 X5.4506 Y-107.9490
G1 X5.8402 Y-107.9879
G1 X5.8792 Y-108.4554
G1 X4.9442 Y-109.1177
G1 Z0.0000 F2500.0
G4 P0.02
G0 X4.0092 Y-107.2884 F15000.0
G1 Z11.9000 F2500.0
G4 P0.02
G1 X4.9831 Y-107.0157 F2200.0
G1 Z0.0000 F2500.0
G4 P0.02
G0 X4.5156 Y-106.3924 F15000.0
G1 Z11.9000 F2500.0
G4 P0.02
G1 X4.0092 Y-107.2884 F2200.0
G1 Z0.0000 F2500.0
G4 P0.02
G0 X5.8792 Y-106.7041 F15000.0
G1 Z11.9000 F2500.0
G4 P0.02
G1 X5.5285 Y-106.8209 F2200.0
G1 Z0.0000 F2500.0
G4 P0.02
G0 X4.2819 Y-109.3515 F15000.0
G1 Z11.9000 F2500.0
G4 P0.02
G1 X3.9702 Y-109.4683 F2200.0
G1 Z0.0000 F2500.0
G4 P0.02
G0 X4.2819 Y-108.3385 F15000.0
G1 Z11.9000 F2500.0
G4 P0.02
G1 X5.1389 Y-108.0658 F2200.0
G1 Z0.0000 F2500.0
G4 P0.02
G0 X5.8792 Y-109.1295 F15000.0
G1 Z11.9000 F2500.0
G4 P0.02
G1 X4.0092 Y-110.6099 F2200.0
G1 X4.8273 Y-110.4930
G1 X5.7233 Y-110.1424
G1 X5.9181 Y-109.1684
G1 X6.7362 Y-108.8178
G1 Z0.0000 F2500.0
G4 P0.02
G0 X4.0919 Y-111.1349 F15000.0
G1 Z11.9000 F2500.0
G4 P0.02
G1 X4.0529 Y-111.9920 F2200.0
G1 X5.1437 Y-111.7583
G1 X5.6112 Y-111.5635
G1 X5.4554 Y-111.6414
G1 X5.8060 Y-111.4076
G1 X5.8839 Y-111.1349
G1 X5.8450 Y-110.6285
G1 X5.7671 Y-110.5895
G1 X4.1308 Y-111.0960
G1 Z0.0000 F2500.0
G4 P0.02
G0 X3.2753 Y-112.7523 F15000.0
G1 Z11.9000 F2500.0
G4 P0.02
G1 X3.1194 Y-113.1808 F2200.0
G1 X4.0155 Y-113.2977
G1 X3.9375 Y-112.5186
G1 X3.7817 Y-112.5186
G1 X3.7428 Y-112.9471
G1 X3.8986 Y-112.8692
G1 X3.7038 Y-112.5575
G1 X3.3142 Y-112.7133
G1 Z0.0000 F2500.0
G4 P0.02
G0 X3.9765 Y-112.7133 F15000.0
G1 Z11.9000 F2500.0
G4 P0.02
G1 X3.9765 Y-112.5575 F2200.0
G1 X4.2492 Y-112.3627
G1 X4.0934 Y-112.4406
G1 X5.7686 Y-111.9342
G1 X5.8465 Y-111.9731
G1 X5.8855 Y-112.4796
G1 X5.8075 Y-112.7523
G1 X5.4569 Y-112.9861
G1 X5.6127 Y-112.9081
G1 X5.7623 Y-113.2637
G1 X4.0871 Y-113.8091
G1 X4.0092 Y-114.7831
G1 X5.1779 Y-114.4324
G1 X5.4506 Y-114.6689
G1 X4.9052 Y-114.9026
G1 X4.9442 Y-115.7597
G1 X4.4767 Y-115.9934
G1 X4.8662 Y-115.8376
G1 Z0.0000 F2500.0
G4 P0.02
G0 X4.0544 Y-113.3367 F15000.0
G1 Z11.9000 F2500.0
G4 P0.02
G1 X5.1452 Y-113.1029 F2200.0
G1 Z0.0000 F2500.0
G4 P0.02
G0 X5.7234 Y-114.2377 F15000.0
G1 Z11.9000 F2500.0
G4 P0.02
G1 X5.6065 Y-114.2766 F2200.0
G1 X5.7623 Y-114.1987
G1 X5.8792 Y-113.8091
G1 X5.8402 Y-113.3027
G1 Z0.0000 F2500.0
G4 P0.02
G0 X4.1650 Y-116.1103 F15000.0
G1 Z11.9000 F2500.0
G4 P0.02
G1 X3.9702 Y-116.1882 F2200.0
G1 X4.2819 Y-116.4024
G1 X5.4506 Y-116.0128
G1 X5.8402 Y-116.0518
G1 X5.8792 Y-116.5193
G1 X4.9442 Y-117.1816
G1 X4.8273 Y-117.6685
G1 X4.5156 Y-117.6685
G1 X4.9442 Y-117.9023
G1 X4.9831 Y-118.4477
G1 X5.7623 Y-118.2529
G1 Z0.0000 F2500.0
G4 P0.02
G0 X3.9702 Y-115.1753 F15000.0
G1 Z11.9000 F2500.0
G4 P0.02
G1 X4.8662 Y-114.9026 F2200.0
G1 Z0.0000 F2500.0
G4 P0.02
G0 X5.7623 Y-115.5649 F15000.0
G1 Z11.9000 F2500.0
G4 P0.02
G1 X4.9442 Y-115.7597 F2200.0
G1 Z0.0000 F2500.0
G4 P0.02
G0 X5.7623 Y-114.5520 F15000.0
G1 Z11.9000 F2500.0
G4 P0.02
G1 X5.8792 Y-114.5130 F2200.0
G1 Z0.0000 F2500.0
G4 P0.02
G0 X4.2819 Y-117.4153 F15000.0
G1 Z11.9000 F2500.0
G4 P0.02
G1 X3.9702 Y-117.5322 F2200.0
G1 X4.3208 Y-117.7464
G1 X4.0092 Y-118.8373
G1 X4.8662 Y-118.5645
G1 Z0.0000 F2500.0
G4 P0.02
G0 X5.1000 Y-117.8243 F15000.0
G1 Z11.9000 F2500.0
G4 P0.02
G1 X4.9831 Y-117.8633 F2200.0
G1 X5.6064 Y-117.3958
G1 Z0.0000 F2500.0
G4 P0.02
G0 X6.3285 Y-119.1408 F15000.0
G1 Z11.9000 F2500.0
G4 P0.02
G1 X6.0168 Y-119.3356 F2200.0
G1 Z0.0000 F2500.0
G4 P0.02
G0 X4.2163 Y-144.4270 F15000.0
G1 Z11.9000 F2500.0
G4 P0.02
G1 X3.9826 Y-145.0114 F2200.0
G1 X4.0215 Y-145.0893
G1 X4.6059 Y-145.0503
G1 X4.9176 Y-144.7776
G1 X4.9176 Y-144.5049
G1 X4.9565 Y-144.8166
G1 X5.5409 Y-144.7387
G1 X5.7746 Y-144.5439
G1 X5.8915 Y-144.1933
G1 X5.8136 Y-143.8816
G1 Z0.0000 F2500.0
G4 P0.02
G0 X4.0871 Y-145.6615 F15000.0
G1 Z11.9000 F2500.0
G4 P0.02
G1 X4.0092 Y-146.6355 F2200.0
G1 X5.1779 Y-146.2848
G1 X5.5243 Y-146.5076
G1 X3.9270 Y-147.0141
G1 Z0.0000 F2500.0
G4 P0.02
G0 X4.9831 Y-145.3109 F15000.0
G1 Z11.9000 F2500.0
G4 P0.02
G1 X4.1261 Y-145.6225 F2200.0
G1 Z0.0000 F2500.0
G4 P0.02
G0 X5.0611 Y-145.2719 F15000.0
G1 Z11.9000 F2500.0
G4 P0.02
G1 X5.7623 Y-145.1161 F2200.0
G1 X5.8402 Y-145.1550
G1 X5.8792 Y-145.6615
G1 X5.7623 Y-146.0511
G1 X5.6065 Y-146.1290
G1 X5.7234 Y-146.0900
G1 X5.6022 Y-146.4687
G1 X5.8749 Y-146.5855
G1 X5.8360 Y-147.2089
G1 X4.7062 Y-147.5595
G1 Z0.0000 F2500.0
G4 P0.02
G0 X4.3945 Y-148.4945 F15000.0
G1 Z11.9000 F2500.0
G4 P0.02
G1 X3.9660 Y-148.6503 F2200.0
G1 X4.2819 Y-148.9268
G1 X5.4506 Y-148.5372
G1 X5.8402 Y-148.5762
G1 X5.8792 Y-149.0437
G1 X4.9442 Y-149.7060
G1 Z0.0000 F2500.0
G4 P0.02
G0 X3.9660 Y-147.8322 F15000.0
G1 Z11.9000 F2500.0
G4 P0.02
G1 X4.3945 Y-147.6764 F2200.0
G1 Z0.0000 F2500.0
G4 P0.02
G0 X5.8360 Y-148.0270 F15000.0
G1 Z11.9000 F2500.0
G4 P0.02
G1 X4.7062 Y-148.3776 F2200.0
G1 Z0.0000 F2500.0
G4 P0.02
G0 X5.8360 Y-147.2089 F15000.0
G1 Z11.9000 F2500.0
G4 P0.02
G1 X5.8749 Y-148.0659 F2200.0
G1 X6.3035 Y-147.9880
G1 Z0.0000 F2500.0
G4 P0.02
G0 X4.2819 Y-149.9397 F15000.0
G1 Z11.9000 F2500.0
G4 P0.02
G1 X3.9702 Y-150.0566 F2200.0
G1 X3.9270 Y-150.3740
G1 X5.6022 Y-149.8286
G1 X5.8749 Y-149.9455
G1 X5.8360 Y-150.5688
G1 X4.7062 Y-150.9194
G1 Z0.0000 F2500.0
G4 P0.02
G0 X4.3945 Y-151.8544 F15000.0
G1 Z11.9000 F2500.0
G4 P0.02
G1 X3.9660 Y-152.0103 F2200.0
G1 X4.1306 Y-152.3568
G1 X4.0527 Y-153.2528
G1 X4.9487 Y-152.1230
G1 X4.7062 Y-151.7376
G1 X5.8749 Y-151.3480
G1 X5.8360 Y-150.5688
G1 Z0.0000 F2500.0
G4 P0.02
G0 X3.9660 Y-151.1921 F15000.0
G1 Z11.9000 F2500.0
G4 P0.02
G1 X4.3945 Y-151.0363 F2200.0
G1 Z0.0000 F2500.0
G4 P0.02
G0 X6.3035 Y-151.3480 F15000.0
G1 Z11.9000 F2500.0
G4 P0.02
G1 X5.8749 Y-151.4259 F2200.0
G1 Z0.0000 F2500.0
G4 P0.02
G0 X4.4423 Y-152.2399 F15000.0
G1 Z11.9000 F2500.0
G4 P0.02
G1 X4.2085 Y-152.3178 F2200.0
G1 X5.4552 Y-151.8893
G1 X5.8448 Y-151.9282
G1 X5.8792 Y-153.0853
G1 X5.7623 Y-153.1243
G1 Z0.0000 F2500.0
G4 P0.02
G0 X4.1650 Y-154.6826 F15000.0
G1 Z11.9000 F2500.0
G4 P0.02
G1 X3.9702 Y-154.7605 F2200.0
G1 X3.9702 Y-155.0989
G1 X4.9052 Y-154.8651
G1 X4.9442 Y-155.3326
G1 X5.0221 Y-155.4106
G1 X5.3727 Y-155.4106
G1 X5.6844 Y-155.2547
G1 X5.4506 Y-155.3716
G1 X5.7623 Y-155.6833
G1 X5.9181 Y-155.6053
G1 X5.7623 Y-155.2158
G1 X5.8402 Y-154.4756
G1 X5.2948 Y-154.5924
G1 Z0.0000 F2500.0
G4 P0.02
G0 X3.9702 Y-153.7476 F15000.0
G1 Z11.9000 F2500.0
G4 P0.02
G1 X4.8662 Y-153.4749 F2200.0
G1 Z0.0000 F2500.0
G4 P0.02
G0 X4.8662 Y-154.4099 F15000.0
G1 Z11.9000 F2500.0
G4 P0.02
G1 X4.4767 Y-154.5658 F2200.0
G1 X4.9442 Y-154.3320
G1 X4.9052 Y-153.4749
G1 X5.4506 Y-153.2412
G1 Z0.0000 F2500.0
G4 P0.02
G0 X5.7623 Y-154.1372 F15000.0
G1 Z11.9000 F2500.0
G4 P0.02
G1 X4.9442 Y-154.3320 F2200.0
G1 Z0.0000 F2500.0
G4 P0.02
G0 X4.9831 Y-155.9560 F15000.0
G1 Z11.9000 F2500.0
G4 P0.02
G1 X3.9702 Y-156.3066 F2200.0
G1 Z0.0000 F2500.0
G4 P0.02
G0 X5.9588 Y-155.9524 F15000.0
G1 Z11.9000 F2500.0
G4 P0.02
G1 X5.7873 Y-155.9524 F2200.0
G1 Z0.0000 F2500.0
G4 P0.02

G0 Z0.0000 F800.0
G4 P0.06
G0 X0.0000 Y0.0000 F15000.0
M5
G4 P0.10
$1=0
