$X
$1=255
G21
G90
G92 Z4.0000
G0 Z0.0000 F800.0
G4 P0.06
G92 Z0.0000
G0 Z0.0000 F800.0
G0 X0.0000 Y0.0000 F15000.0
G21
G90
G17
G91.1
G0 Z0.0000
G0 X180.0000 Y-74.6459 F15000.0
G1 Z11.9000 F8000.0
G1 X179.7067 Y-74.7559 F12000.0
G1 Z0.0000 F8000.0
G0 X180.0000 Y-76.9770 F15000.0
G1 Z11.9000 F8000.0
G1 X177.7420 Y-77.7656 F12000.0
G1 Z0.0000 F8000.0
G0 X179.6648 Y-76.4698 F15000.0
G1 Z11.9000 F8000.0
G1 X179.2886 Y-76.5952 F12000.0
G1 X179.1632 Y-75.8846
G1 X178.8288 Y-75.6755
G1 X178.2435 Y-75.8846
G1 Z0.0000 F8000.0
G0 X179.2886 Y-73.5436 F15000.0
G1 Z11.9000 F8000.0
G1 X177.9510 Y-74.0870 F12000.0
G1 Z0.0000 F8000.0
G0 X178.8706 Y-75.0485 F15000.0
G1 Z11.9000 F8000.0
G1 X178.6198 Y-75.1321 F12000.0
G1 Z0.0000 F8000.0
G0 X178.1599 Y-75.2993 F15000.0
G1 Z11.9000 F8000.0
G1 X177.9092 Y-75.3411 F12000.0
G1 Z0.0000 F8000.0
G0 X177.9928 Y-76.0100 F15000.0
G1 Z11.9000 F8000.0
G1 X177.6584 Y-77.3058 F12000.0
G1 Z0.0000 F8000.0
G0 X177.7001 Y-74.4633 F15000.0
G1 Z11.9000 F8000.0
G1 X177.7001 Y-75.1740 F12000.0
G1 Z0.0000 F8000.0
G0 X133.8363 Y-87.4654 F15000.0
G1 Z11.9000 F8000.0
G1 X133.7946 Y-86.2949 F12000.0
G1 Z0.0000 F8000.0
G0 X133.3765 Y-88.3014 F15000.0
G1 Z11.9000 F8000.0
G1 X133.7946 Y-88.4268 F12000.0
G1 X133.8781 Y-88.7612
G1 X133.6273 Y-89.4301
G1 X133.5019 Y-89.5554
G1 Z0.0000 F8000.0
G0 X133.7109 Y-90.0989 F15000.0
G1 Z11.9000 F8000.0
G1 X133.3347 Y-90.8513 F12000.0
G1 Z0.0000 F8000.0
G0 X133.4601 Y-90.2661 F15000.0
G1 Z11.9000 F8000.0
G1 X130.9938 Y-91.1022 F12000.0
G1 Z0.0000 F8000.0
G0 X133.2510 Y-89.6809 F15000.0
G1 Z11.9000 F8000.0
G1 X131.6208 Y-90.2661 F12000.0
G1 Z0.0000 F8000.0
G0 X132.9167 Y-87.8416 F15000.0
G1 Z11.9000 F8000.0
G1 X132.5404 Y-87.9670 F12000.0
G1 X132.4151 Y-87.2563
G1 X132.0806 Y-87.0474
G1 X131.4955 Y-87.2563
G1 Z0.0000 F8000.0
G0 X132.5404 Y-88.5940 F15000.0
G1 Z11.9000 F8000.0
G1 X131.2028 Y-89.1374 F12000.0
G1 X130.9102 Y-89.5973
G1 X131.4118 Y-90.3497
G1 Z0.0000 F8000.0
G0 X131.2446 Y-87.3818 F15000.0
G1 Z11.9000 F8000.0
G1 X130.9102 Y-88.6776 F12000.0
G1 Z0.0000 F8000.0
G0 X96.1350 Y-120.3200 F15000.0
G1 Z11.9000 F8000.0
G1 X95.1735 Y-117.7701 F12000.0
G1 Z0.0000 F8000.0
G0 X95.7169 Y-117.8536 F15000.0
G1 Z11.9000 F8000.0
G1 X95.4244 Y-117.6865 F12000.0
G1 Z0.0000 F8000.0
G0 X95.3407 Y-119.8602 F15000.0
G1 Z11.9000 F8000.0
G1 X94.5465 Y-120.3200 F12000.0
G1 X94.4210 Y-120.2782
G1 Z0.0000 F8000.0
G0 X95.2571 Y-119.6512 F15000.0
G1 Z11.9000 F8000.0
G1 X94.6719 Y-118.0209 F12000.0
G1 Z0.0000 F8000.0
G0 X94.5047 Y-117.7283 F15000.0
G1 Z11.9000 F8000.0
G1 X93.5851 Y-117.3521 F12000.0
G1 X93.3342 Y-117.4774
G1 Z0.0000 F8000.0
G0 X94.0449 Y-119.9856 F15000.0
G1 Z11.9000 F8000.0
G1 X93.3761 Y-118.2299 F12000.0
G1 Z0.0000 F8000.0
G0 X93.3761 Y-119.8602 F15000.0
G1 Z11.9000 F8000.0
G1 X92.5818 Y-120.3200 F12000.0
G1 X92.4564 Y-120.2782
G1 Z0.0000 F8000.0
G0 X93.2925 Y-119.6512 F15000.0
G1 Z11.9000 F8000.0
G1 X92.7072 Y-118.0209 F12000.0
G1 Z0.0000 F8000.0
G0 X93.2506 Y-117.8955 F15000.0
G1 Z11.9000 F8000.0
G1 X93.2089 Y-117.6865 F12000.0
G1 Z0.0000 F8000.0
G0 X92.5400 Y-117.7283 F15000.0
G1 Z11.9000 F8000.0
G1 X91.6204 Y-117.3521 F12000.0
G1 X91.3696 Y-117.4774
G1 Z0.0000 F8000.0
G0 X92.0802 Y-119.9856 F15000.0
G1 Z11.9000 F8000.0
G1 X91.2860 Y-117.6029 F12000.0
G1 Z0.0000 F8000.0
G0 X110.5721 Y-101.8422 F15000.0
G1 Z11.9000 F8000.0
G1 X110.4467 Y-101.4242 F12000.0
G1 Z0.0000 F8000.0
G0 X110.3213 Y-101.1316 F15000.0
G1 Z11.9000 F8000.0
G1 X109.4434 Y-98.7908 F12000.0
G1 X108.3566 Y-98.8325
G1 X108.2312 Y-99.0416
G1 X108.5238 Y-99.9612
G1 X108.7746 Y-100.2120
G1 X109.3598 Y-100.3792
G1 X109.1926 Y-101.5078
G1 Z0.0000 F8000.0
G0 X109.9451 Y-100.3792 F15000.0
G1 Z11.9000 F8000.0
G1 X109.4434 Y-100.3792 F12000.0
G1 Z0.0000 F8000.0
G0 X108.3566 Y-100.9644 F15000.0
G1 Z11.9000 F8000.0
G1 X108.1894 Y-100.9226 F12000.0
G1 X107.0607 Y-98.8325
G1 Z0.0000 F8000.0
G0 X108.1894 Y-100.9226 F15000.0
G1 Z11.9000 F8000.0
G1 X106.8518 Y-101.0899 F12000.0
G1 Z0.0000 F8000.0
G0 X107.6878 Y-101.8005 F15000.0
G1 Z11.9000 F8000.0
G1 X107.0607 Y-100.3374 F12000.0
G1 Z0.0000 F8000.0
G0 X10.3129 Y-250.4964 F15000.0
G1 Z11.9000 F8000.0
G1 X8.9334 Y-246.6506 F12000.0
G1 X8.6827 Y-246.3161
G1 Z0.0000 F8000.0
G0 X10.1457 Y-247.3195 F15000.0
G1 Z11.9000 F8000.0
G1 X9.9785 Y-247.1522 F12000.0
G1 Z0.0000 F8000.0
G0 X9.2679 Y-246.6924 F15000.0
G1 Z11.9000 F8000.0
G1 X8.9753 Y-246.6088 F12000.0
G1 Z0.0000 F8000.0
G0 X8.5991 Y-250.5800 F15000.0
G1 Z11.9000 F8000.0
G1 X8.3483 Y-250.4964 F12000.0
G1 X8.2228 Y-250.2037
G1 Z0.0000 F8000.0
G0 X8.5572 Y-247.8210 F15000.0
G1 Z11.9000 F8000.0
G1 X8.3483 Y-247.6956 F12000.0
G1 Z0.0000 F8000.0
G0 X8.2646 Y-250.4964 F15000.0
G1 Z11.9000 F8000.0
G1 X6.7598 Y-250.5382 F12000.0
G1 Z0.0000 F8000.0
G0 X7.3032 Y-247.0268 F15000.0
G1 Z11.9000 F8000.0
G1 X6.9270 Y-246.6088 F12000.0
G1 X6.3836 Y-246.3580
G1 X5.9655 Y-246.2744
G1 X5.5057 Y-246.5252
G1 X5.3803 Y-246.7760
G1 X5.5475 Y-247.4867
G1 Z0.0000 F8000.0
G0 X7.1778 Y-246.8597 F15000.0
G1 Z11.9000 F8000.0
G1 X7.0942 Y-246.7760 F12000.0
G1 Z0.0000 F8000.0
G0 X7.0942 Y-249.0333 F15000.0
G1 Z11.9000 F8000.0
G1 X6.9270 Y-248.8661 F12000.0
G1 Z0.0000 F8000.0
G0 X93.8243 Y-110.6214 F15000.0
G1 Z11.9000 F8000.0
G1 X115.0029 Y-110.6214 F12000.0
G1 Z0.0000 F8000.0
G0 X118.6624 Y-106.9618 F15000.0
G1 Z11.9000 F8000.0
G1 X118.6624 Y-44.4383 F12000.0
G1 Z0.0000 F8000.0
G0 X118.6624 Y-106.9618 F15000.0
G1 Z11.9000 F8000.0
G1 X118.5067 Y-108.0520 F12000.0
G1 X118.0395 Y-108.9863 F12000.0
G1 X117.3388 Y-109.7649 F12000.0
G1 X116.4823 Y-110.3879 F12000.0
G1 X115.3922 Y-110.6214 F12000.0
G1 X115.0029 Y-110.6214 F12000.0
G1 Z0.0000 F8000.0
G0 X93.8243 Y-42.5696 F15000.0
G1 Z11.9000 F8000.0
G1 X120.5311 Y-42.5696 F12000.0
G1 X120.5311 Y-40.7787 F12000.0
G1 X93.8243 Y-40.7787 F12000.0
G1 Z0.0000 F8000.0
G0 X120.5311 Y-42.5696 F15000.0
G1 Z11.9000 F8000.0
G1 X119.7525 Y-42.7253 F12000.0
G1 X119.2075 Y-43.1925 F12000.0
G1 X118.8182 Y-43.8153 F12000.0
G1 X118.6624 Y-44.4383 F12000.0
G1 Z0.0000 F8000.0
G0 X93.8243 Y-110.6214 F15000.0
G1 Z11.9000 F8000.0
G1 X72.7236 Y-110.6214 F12000.0
G1 X71.6335 Y-110.4657 F12000.0
G1 X70.6991 Y-110.0764 F12000.0
G1 X69.8426 Y-109.3756 F12000.0
G1 X69.2976 Y-108.4413 F12000.0
G1 X69.0640 Y-107.4290 F12000.0
G1 X68.9862 Y-106.9618 F12000.0
G1 X68.9862 Y-44.4383 F12000.0
G1 Z0.0000 F8000.0
G0 X93.8243 Y-42.5696 F15000.0
G1 Z11.9000 F8000.0
G1 X67.1953 Y-42.5696 F12000.0
G1 X67.1953 Y-40.7787 F12000.0
G1 X93.8243 Y-40.7787 F12000.0
G1 Z0.0000 F8000.0
G0 X67.1953 Y-42.5696 F15000.0
G1 Z11.9000 F8000.0
G1 X67.8960 Y-42.7253 F12000.0
G1 X68.5190 Y-43.1925 F12000.0
G1 X68.9083 Y-43.8153 F12000.0
G1 X68.9862 Y-44.4383 F12000.0
G1 Z0.0000 F8000.0
G0 X91.5663 Y-77.2963 F15000.0
G1 Z11.9000 F8000.0
G1 X91.5663 Y-109.2977 F12000.0
G1 Z0.0000 F8000.0
G0 X96.1602 Y-77.2963 F15000.0
G1 Z11.9000 F8000.0
G1 X96.1602 Y-109.2977 F12000.0
G1 Z0.0000 F8000.0
G0 X91.5663 Y-109.2977 F15000.0
G1 Z11.9000 F8000.0
G1 X91.4105 Y-109.9207 F12000.0
G1 X90.9433 Y-110.3879 F12000.0
G1 X90.3984 Y-110.6214 F12000.0
G1 Z0.0000 F8000.0
G0 X96.1602 Y-109.2977 F15000.0
G1 Z11.9000 F8000.0
G1 X96.3159 Y-109.9207 F12000.0
G1 X96.7052 Y-110.3879 F12000.0
G1 X97.3281 Y-110.6214 F12000.0
G1 Z0.0000 F8000.0
G0 X88.3739 Y-67.4077 F15000.0
G1 Z11.9000 F8000.0
G1 X88.4518 Y-66.1619 F12000.0
G1 X88.9189 Y-64.9161 F12000.0
G1 X89.6976 Y-63.8260 F12000.0
G1 X90.6320 Y-62.9695 F12000.0
G1 X91.7999 Y-62.3467 F12000.0
G1 X93.0456 Y-61.9573 F12000.0
G1 X94.3694 Y-61.9573 F12000.0
G1 X95.6151 Y-62.1909 F12000.0
G1 X96.8609 Y-62.8138 F12000.0
G1 X97.8732 Y-63.5924 F12000.0
G1 X98.6517 Y-64.6825 F12000.0
G1 X99.1189 Y-65.8505 F12000.0
G1 X99.3525 Y-67.1741 F12000.0
G1 X99.2747 Y-68.4200 F12000.0
G1 X98.8853 Y-69.6657 F12000.0
G1 X98.1846 Y-70.8336 F12000.0
G1 X97.2502 Y-71.7680 F12000.0
G1 X96.1602 Y-72.4687 F12000.0
G1 X94.9143 Y-72.8581 F12000.0
G1 X93.5907 Y-72.9359 F12000.0
G1 X92.3449 Y-72.7023 F12000.0
G1 X91.0991 Y-72.2352 F12000.0
G1 X90.0869 Y-71.4566 F12000.0
G1 X89.2304 Y-70.4444 F12000.0
G1 X88.6854 Y-69.2764 F12000.0
G1 X88.3739 Y-68.0306 F12000.0
G1 X88.3739 Y-67.4077 F12000.0
G1 Z0.0000 F8000.0
G0 X83.7021 Y-67.4077 F15000.0
G1 Z11.9000 F8000.0
G1 X83.8579 Y-65.6947 F12000.0
G1 X84.3251 Y-63.9818 F12000.0
G1 X85.1036 Y-62.3467 F12000.0
G1 X86.1159 Y-60.8673 F12000.0
G1 X87.3617 Y-59.6214 F12000.0
G1 X88.8411 Y-58.6093 F12000.0
G1 X90.4762 Y-57.9085 F12000.0
G1 X92.1892 Y-57.4413 F12000.0
G1 X93.9800 Y-57.2855 F12000.0
G1 X95.6930 Y-57.5191 F12000.0
G1 X97.4060 Y-57.9863 F12000.0
G1 X99.0411 Y-58.7650 F12000.0
G1 X100.4426 Y-59.7772 F12000.0
G1 X101.6884 Y-61.0229 F12000.0
G1 X102.7006 Y-62.5024 F12000.0
G1 X103.4014 Y-64.1375 F12000.0
G1 X103.8686 Y-65.8505 F12000.0
G1 X103.9465 Y-67.6413 F12000.0
G1 X103.7907 Y-69.3543 F12000.0
G1 X103.3235 Y-71.0672 F12000.0
G1 X102.5449 Y-72.7023 F12000.0
G1 X101.4548 Y-74.1039 F12000.0
G1 X100.2090 Y-75.3497 F12000.0
G1 X98.7296 Y-76.2840 F12000.0
G1 X97.0945 Y-76.9848 F12000.0
G1 X95.3815 Y-77.4520 F12000.0
G1 X93.5907 Y-77.5299 F12000.0
G1 X91.7999 Y-77.3741 F12000.0
G1 X90.0869 Y-76.8291 F12000.0
G1 X88.5297 Y-76.0505 F12000.0
G1 X87.1281 Y-74.9604 F12000.0
G1 X85.8823 Y-73.7146 F12000.0
G1 X84.9480 Y-72.2352 F12000.0
G1 X84.2472 Y-70.6000 F12000.0
G1 X83.8579 Y-68.8092 F12000.0
G1 X83.7021 Y-67.4077 F12000.0
G1 Z0.0000 F8000.0
G0 X93.8243 Y-38.9100 F15000.0
G1 Z11.9000 F8000.0
G1 X93.8243 Y-50.2780 F12000.0
G1 Z0.0000 F8000.0
G0 X93.8243 Y-51.6016 F15000.0
G1 Z11.9000 F8000.0
G1 X93.8243 Y-53.0811 F12000.0
G1 Z0.0000 F8000.0
G0 X93.8243 Y-54.4825 F15000.0
G1 Z11.9000 F8000.0
G1 X93.8243 Y-65.8505 F12000.0
G1 Z0.0000 F8000.0
G0 X93.8243 Y-67.1741 F15000.0
G1 Z11.9000 F8000.0
G1 X93.8243 Y-68.6535 F12000.0
G1 Z0.0000 F8000.0
G0 X93.8243 Y-70.0551 F15000.0
G1 Z11.9000 F8000.0
G1 X93.8243 Y-81.3451 F12000.0
G1 Z0.0000 F8000.0
G0 X93.8243 Y-82.7466 F15000.0
G1 Z11.9000 F8000.0
G1 X93.8243 Y-84.2260 F12000.0
G1 Z0.0000 F8000.0
G0 X93.8243 Y-85.6276 F15000.0
G1 Z11.9000 F8000.0
G1 X93.8243 Y-96.9176 F12000.0
G1 Z0.0000 F8000.0
G0 X93.8243 Y-98.3191 F15000.0
G1 Z11.9000 F8000.0
G1 X93.8243 Y-99.7985 F12000.0
G1 Z0.0000 F8000.0
G0 X93.8243 Y-101.2000 F15000.0
G1 Z11.9000 F8000.0
G1 X93.8243 Y-112.4901 F12000.0
G1 Z0.0000 F8000.0
G0 X94.6029 Y-67.4077 F15000.0
G1 Z11.9000 F8000.0
G1 X93.1235 Y-67.4077 F12000.0
G1 Z0.0000 F8000.0
G0 X91.7220 Y-67.4077 F15000.0
G1 Z11.9000 F8000.0
G1 X81.5998 Y-67.4077 F12000.0
G1 Z0.0000 F8000.0
G0 X80.1983 Y-67.4077 F15000.0
G1 Z11.9000 F8000.0
G1 X78.7190 Y-67.4077 F12000.0
G1 Z0.0000 F8000.0
G0 X77.3175 Y-67.4077 F15000.0
G1 Z11.9000 F8000.0
G1 X67.1953 Y-67.4077 F12000.0
G1 Z0.0000 F8000.0
G0 X180.0000 Y-110.6214 F15000.0
G1 Z11.9000 F8000.0
G1 X173.9448 Y-110.6214 F12000.0
G1 Z0.0000 F8000.0
G0 X180.0000 Y-40.7787 F15000.0
G1 Z11.9000 F8000.0
G1 X173.9448 Y-40.7787 F12000.0
G1 Z0.0000 F8000.0
G0 X180.0000 Y-95.9054 F15000.0
G1 Z11.9000 F8000.0
G1 X179.1616 Y-95.9054 F12000.0
G1 Z0.0000 F8000.0
G0 X180.0000 Y-168.9404 F15000.0
G1 Z11.9000 F8000.0
G1 X176.6699 Y-168.9404 F12000.0
G1 Z0.0000 F8000.0
G0 X180.0000 Y-189.1846 F15000.0
G1 Z11.9000 F8000.0
G1 X176.6699 Y-189.1846 F12000.0
G1 Z0.0000 F8000.0
G0 X115.0029 Y-110.6214 F15000.0
G1 Z11.9000 F8000.0
G1 X130.8868 Y-110.6214 F12000.0
G1 Z0.0000 F8000.0
G0 X93.8243 Y-67.4077 F15000.0
G1 Z11.9000 F8000.0
G1 X130.8868 Y-67.4077 F12000.0
G1 Z0.0000 F8000.0
G0 X118.6624 Y-106.9618 F15000.0
G1 Z11.9000 F8000.0
G1 X118.6624 Y-124.0916 F12000.0
G1 Z0.0000 F8000.0
G0 X68.9862 Y-106.9618 F15000.0
G1 Z11.9000 F8000.0
G1 X68.9862 Y-124.0916 F12000.0
G1 Z0.0000 F8000.0
G0 X112.7449 Y-103.7695 F15000.0
G1 Z11.9000 F8000.0
G1 X103.7907 Y-103.7695 F12000.0
G1 Z0.0000 F8000.0
G0 X120.5311 Y-40.7787 F15000.0
G1 Z11.9000 F8000.0
G1 X125.9815 Y-40.7787 F12000.0
G1 Z0.0000 F8000.0
G0 X120.5311 Y-42.5696 F15000.0
G1 Z11.9000 F8000.0
G1 X125.9815 Y-42.5696 F12000.0
G1 Z0.0000 F8000.0
G0 X124.1128 Y-36.1848 F15000.0
G1 Z11.9000 F8000.0
G1 X124.1128 Y-29.4887 F12000.0
G1 Z0.0000 F8000.0
G0 X175.7356 Y-110.6214 F15000.0
G1 Z11.9000 F8000.0
G1 X176.3586 Y-106.0275 F12000.0
G1 X175.7356 Y-106.4947 F12000.0
G1 X175.1906 Y-106.0275 F12000.0
G1 X175.7356 Y-110.6214 F12000.0
G1 Z0.0000 F8000.0
G0 X176.0082 Y-107.5991 F15000.0
G1 Z11.9000 F8000.0
G1 X176.0082 Y-108.4268 F12000.0
G1 Z0.0000 F8000.0
G0 X175.4631 Y-107.8717 F15000.0
G1 Z11.9000 F8000.0
G1 X175.4631 Y-108.6994 F12000.0
G1 Z0.0000 F8000.0
G0 X175.7356 Y-40.7787 F15000.0
G1 Z11.9000 F8000.0
G1 X175.1906 Y-45.3727 F12000.0
G1 X175.7356 Y-44.9055 F12000.0
G1 X176.3586 Y-45.3727 F12000.0
G1 X175.7356 Y-40.7787 F12000.0
G1 Z0.0000 F8000.0
G0 X175.4631 Y-42.6229 F15000.0
G1 Z11.9000 F8000.0
G1 X175.4631 Y-43.4506 F12000.0
G1 Z0.0000 F8000.0
G0 X176.0082 Y-42.8954 F15000.0
G1 Z11.9000 F8000.0
G1 X176.0082 Y-43.7231 F12000.0
G1 Z0.0000 F8000.0
G0 X175.7356 Y-110.6214 F15000.0
G1 Z11.9000 F8000.0
G1 X175.7356 Y-40.7787 F12000.0
G1 Z0.0000 F8000.0
G0 X178.4608 Y-168.9404 F15000.0
G1 Z11.9000 F8000.0
G1 X177.9158 Y-173.5343 F12000.0
G1 X178.4608 Y-173.0672 F12000.0
G1 X179.0837 Y-173.5343 F12000.0
G1 X178.4608 Y-168.9404 F12000.0
G1 Z0.0000 F8000.0
G0 X178.1883 Y-170.7846 F15000.0
G1 Z11.9000 F8000.0
G1 X178.1883 Y-171.6123 F12000.0
G1 Z0.0000 F8000.0
G0 X178.7333 Y-171.0571 F15000.0
G1 Z11.9000 F8000.0
G1 X178.7333 Y-171.8848 F12000.0
G1 Z0.0000 F8000.0
G0 X178.4608 Y-189.1846 F15000.0
G1 Z11.9000 F8000.0
G1 X179.0837 Y-184.5908 F12000.0
G1 X178.4608 Y-184.9801 F12000.0
G1 X177.9158 Y-184.5908 F12000.0
G1 X178.4608 Y-189.1846 F12000.0
G1 Z0.0000 F8000.0
G0 X178.7333 Y-186.1624 F15000.0
G1 Z11.9000 F8000.0
G1 X178.7333 Y-186.9901 F12000.0
G1 Z0.0000 F8000.0
G0 X178.1883 Y-186.4349 F15000.0
G1 Z11.9000 F8000.0
G1 X178.1883 Y-187.2626 F12000.0
G1 Z0.0000 F8000.0
G0 X178.4608 Y-168.9404 F15000.0
G1 Z11.9000 F8000.0
G1 X178.4608 Y-189.1846 F12000.0
G1 Z0.0000 F8000.0
G0 X129.0181 Y-110.6214 F15000.0
G1 Z11.9000 F8000.0
G1 X129.6410 Y-106.0275 F12000.0
G1 X129.0181 Y-106.4947 F12000.0
G1 X128.3953 Y-106.0275 F12000.0
G1 X129.0181 Y-110.6214 F12000.0
G1 Z0.0000 F8000.0
G0 X129.2906 Y-107.5991 F15000.0
G1 Z11.9000 F8000.0
G1 X129.2906 Y-108.4268 F12000.0
G1 Z0.0000 F8000.0
G0 X128.7067 Y-107.8717 F15000.0
G1 Z11.9000 F8000.0
G1 X128.7067 Y-108.6994 F12000.0
G1 Z0.0000 F8000.0
G0 X129.0181 Y-67.4077 F15000.0
G1 Z11.9000 F8000.0
G1 X128.3953 Y-72.0016 F12000.0
G1 X129.0181 Y-71.5344 F12000.0
G1 X129.6410 Y-72.0016 F12000.0
G1 X129.0181 Y-67.4077 F12000.0
G1 Z0.0000 F8000.0
G0 X128.7067 Y-69.2519 F15000.0
G1 Z11.9000 F8000.0
G1 X128.7067 Y-70.0795 F12000.0
G1 Z0.0000 F8000.0
G0 X129.2906 Y-69.5244 F15000.0
G1 Z11.9000 F8000.0
G1 X129.2906 Y-70.3521 F12000.0
G1 Z0.0000 F8000.0
G0 X129.0181 Y-110.6214 F15000.0
G1 Z11.9000 F8000.0
G1 X129.0181 Y-67.4077 F12000.0
G1 Z0.0000 F8000.0
G0 X118.6624 Y-122.2229 F15000.0
G1 Z11.9000 F8000.0
G1 X114.0685 Y-121.6000 F12000.0
G1 X114.5357 Y-122.2229 F12000.0
G1 X114.0685 Y-122.8458 F12000.0
G1 X118.6624 Y-122.2229 F12000.0
G1 Z0.0000 F8000.0
G0 X116.4679 Y-121.9115 F15000.0
G1 Z11.9000 F8000.0
G1 X115.6402 Y-121.9115 F12000.0
G1 Z0.0000 F8000.0
G0 X116.7793 Y-122.4954 F15000.0
G1 Z11.9000 F8000.0
G1 X115.9517 Y-122.4954 F12000.0
G1 Z0.0000 F8000.0
G0 X68.9862 Y-122.2229 F15000.0
G1 Z11.9000 F8000.0
G1 X73.6579 Y-122.8458 F12000.0
G1 X73.1908 Y-122.2229 F12000.0
G1 X73.6579 Y-121.6000 F12000.0
G1 X68.9862 Y-122.2229 F12000.0
G1 Z0.0000 F8000.0
G0 X71.6969 Y-122.4954 F15000.0
G1 Z11.9000 F8000.0
G1 X70.8692 Y-122.4954 F12000.0
G1 Z0.0000 F8000.0
G0 X71.9695 Y-121.9115 F15000.0
G1 Z11.9000 F8000.0
G1 X71.1418 Y-121.9115 F12000.0
G1 Z0.0000 F8000.0
G0 X118.6624 Y-122.2229 F15000.0
G1 Z11.9000 F8000.0
G1 X68.9862 Y-122.2229 F12000.0
G1 Z0.0000 F8000.0
G0 X117.1052 Y-109.9985 F15000.0
G1 Z11.9000 F8000.0
G1 X115.0029 Y-105.8718 F12000.0
G1 X114.7693 Y-106.5726 F12000.0
G1 X113.9906 Y-106.5726 F12000.0
G1 X117.1052 Y-109.9985 F12000.0
G1 Z0.0000 F8000.0
G0 X115.8204 Y-107.3656 F15000.0
G1 Z11.9000 F8000.0
G1 X115.8204 Y-108.1932 F12000.0
G1 Z0.0000 F8000.0
G0 X115.7140 Y-107.7690 F15000.0
G1 Z11.9000 F8000.0
G1 X115.0703 Y-108.4127 F12000.0
G1 Z0.0000 F8000.0
G0 X112.7449 Y-103.7695 F15000.0
G1 Z11.9000 F8000.0
G1 X117.1052 Y-109.9985 F12000.0
G1 Z0.0000 F8000.0
G0 X128.9082 Y-31.6713 F15000.0
G1 Z11.9000 F8000.0
G1 X128.6991 Y-32.9254 F12000.0
G1 X128.3647 Y-33.0507
G1 Z0.0000 F8000.0
G0 X128.0304 Y-33.1762 F15000.0
G1 Z11.9000 F8000.0
G1 X127.6541 Y-33.3016 F12000.0
G1 X127.5287 Y-32.5909
G1 X127.1943 Y-32.3820
G1 X126.4000 Y-32.6745
G1 X126.0239 Y-33.4688
G1 X126.0239 Y-34.0122
G1 Z0.0000 F8000.0
G0 X124.1128 Y-40.7787 F15000.0
G1 Z11.9000 F8000.0
G1 X123.4899 Y-36.1848 F12000.0
G1 X124.1128 Y-36.6520 F12000.0
G1 X124.7357 Y-36.1848 F12000.0
G1 X124.1128 Y-40.7787 F12000.0
G1 X124.1128 Y-34.3161 F12000.0
G1 Z0.0000 F8000.0
G0 X123.8013 Y-38.0290 F15000.0
G1 Z11.9000 F8000.0
G1 X123.8013 Y-38.8567 F12000.0
G1 Z0.0000 F8000.0
G0 X124.3853 Y-37.7565 F15000.0
G1 Z11.9000 F8000.0
G1 X124.3853 Y-38.5842 F12000.0
G1 Z0.0000 F8000.0
G0 X124.1128 Y-42.5696 F15000.0
G1 Z11.9000 F8000.0
G1 X124.7357 Y-47.1635 F12000.0
G1 X124.1128 Y-46.7742 F12000.0
G1 X123.4899 Y-47.1635 F12000.0
G1 X124.1128 Y-42.5696 F12000.0
G1 X124.1128 Y-49.0322 F12000.0
G1 Z0.0000 F8000.0
G0 X124.3853 Y-44.6862 F15000.0
G1 Z11.9000 F8000.0
G1 X124.3853 Y-45.5139 F12000.0
G1 Z0.0000 F8000.0
G0 X123.8013 Y-44.4138 F15000.0
G1 Z11.9000 F8000.0
G1 X123.8013 Y-45.2414 F12000.0
G1 Z0.0000 F8000.0
G0 X124.1128 Y-40.7787 F15000.0
G1 Z11.9000 F8000.0
G1 X124.1128 Y-42.5696 F12000.0
G1 Z0.0000 F8000.0
G0 X0.0000 Y-216.9595 F15000.0
G1 Z11.9000 F8000.0
G1 X0.0000 Y-273.9770 F12000.0
G1 X174.7310 Y-273.9770 F12000.0
G1 Z0.0000 F8000.0
G0 X170.1296 Y-223.3663 F15000.0
G1 Z11.9000 F8000.0
G1 X0.0000 Y-223.3663 F12000.0
G1 Z0.0000 F8000.0
G0 X170.1296 Y-232.5541 F15000.0
G1 Z11.9000 F8000.0
G1 X110.3311 Y-232.5541 F12000.0
G1 Z0.0000 F8000.0
G0 X170.1296 Y-237.1480 F15000.0
G1 Z11.9000 F8000.0
G1 X110.3311 Y-237.1480 F12000.0
G1 Z0.0000 F8000.0
G0 X170.1296 Y-250.9296 F15000.0
G1 Z11.9000 F8000.0
G1 X110.3311 Y-250.9296 F12000.0
G1 Z0.0000 F8000.0
G0 X170.1296 Y-255.6014 F15000.0
G1 Z11.9000 F8000.0
G1 X110.3311 Y-255.6014 F12000.0
G1 Z0.0000 F8000.0
G0 X170.1296 Y-260.1953 F15000.0
G1 Z11.9000 F8000.0
G1 X110.3311 Y-260.1953 F12000.0
G1 Z0.0000 F8000.0
G0 X170.1296 Y-264.7892 F15000.0
G1 Z11.9000 F8000.0
G1 X110.3311 Y-264.7892 F12000.0
G1 Z0.0000 F8000.0
G0 X170.1296 Y-269.3830 F15000.0
G1 Z11.9000 F8000.0
G1 X110.3311 Y-269.3830 F12000.0
G1 Z0.0000 F8000.0
G0 X170.1296 Y-273.9770 F15000.0
G1 Z11.9000 F8000.0
G1 X170.1296 Y-223.3663 F12000.0
G1 Z0.0000 F8000.0
G0 X170.1296 Y-227.9602 F15000.0
G1 Z11.9000 F8000.0
G1 X110.3311 Y-227.9602 F12000.0
G1 Z0.0000 F8000.0
G0 X154.4792 Y-273.9770 F15000.0
G1 Z11.9000 F8000.0
G1 X154.4792 Y-223.3663 F12000.0
G1 Z0.0000 F8000.0
G0 X133.3006 Y-273.9770 F15000.0
G1 Z11.9000 F8000.0
G1 X133.3006 Y-223.3663 F12000.0
G1 Z0.0000 F8000.0
G0 X119.5189 Y-273.9770 F15000.0
G1 Z11.9000 F8000.0
G1 X119.5189 Y-223.3663 F12000.0
G1 Z0.0000 F8000.0
G0 X110.3311 Y-273.9770 F15000.0
G1 Z11.9000 F8000.0
G1 X110.3311 Y-223.3663 F12000.0
G1 Z0.0000 F8000.0
G0 X45.9388 Y-273.9770 F15000.0
G1 Z11.9000 F8000.0
G1 X45.9388 Y-237.1480 F12000.0
G1 Z0.0000 F8000.0
G0 X32.1572 Y-255.6014 F15000.0
G1 Z11.9000 F8000.0
G1 X32.1572 Y-237.1480 F12000.0
G1 Z0.0000 F8000.0
G0 X16.5068 Y-255.6014 F15000.0
G1 Z11.9000 F8000.0
G1 X16.5068 Y-237.1480 F12000.0
G1 Z0.0000 F8000.0
G0 X170.1296 Y-241.7419 F15000.0
G1 Z11.9000 F8000.0
G1 X110.3311 Y-241.7419 F12000.0
G1 Z0.0000 F8000.0
G0 X170.1296 Y-246.3357 F15000.0
G1 Z11.9000 F8000.0
G1 X110.3311 Y-246.3357 F12000.0
G1 Z0.0000 F8000.0
G0 X45.9388 Y-260.1953 F15000.0
G1 Z11.9000 F8000.0
G1 X0.0000 Y-260.1953 F12000.0
G1 Z0.0000 F8000.0
G0 X32.1572 Y-241.7419 F15000.0
G1 Z11.9000 F8000.0
G1 X0.0000 Y-241.7419 F12000.0
G1 Z0.0000 F8000.0
G0 X45.9388 Y-241.7419 F15000.0
G1 Z11.9000 F8000.0
G1 X32.1572 Y-241.7419 F12000.0
G1 Z0.0000 F8000.0
G0 X110.3311 Y-237.1480 F15000.0
G1 Z11.9000 F8000.0
G1 X0.0000 Y-237.1480 F12000.0
G1 Z0.0000 F8000.0
G0 X110.3311 Y-260.1953 F15000.0
G1 Z11.9000 F8000.0
G1 X45.9388 Y-260.1953 F12000.0
G1 Z0.0000 F8000.0
G0 X45.9388 Y-255.6014 F15000.0
G1 Z11.9000 F8000.0
G1 X0.0000 Y-255.6014 F12000.0
G1 Z0.0000 F8000.0
G0 X27.0183 Y-260.1953 F15000.0
G1 Z11.9000 F8000.0
G1 X27.0183 Y-255.6014 F12000.0
G1 Z0.0000 F8000.0
G0 X41.3449 Y-255.6014 F15000.0
G1 Z11.9000 F8000.0
G1 X41.3449 Y-241.7419 F12000.0
G1 Z0.0000 F8000.0
G0 X36.7511 Y-255.6014 F15000.0
G1 Z11.9000 F8000.0
G1 X36.7511 Y-241.7419 F12000.0
G1 Z0.0000 F8000.0
G0 X163.6669 Y-246.3357 F15000.0
G1 Z11.9000 F8000.0
G1 X163.6669 Y-223.3663 F12000.0
G1 Z0.0000 F8000.0
G0 X5.4152 Y-259.1276 F15000.0
G1 Z11.9000 F8000.0
G1 X5.2480 Y-258.8351 F12000.0
G1 X4.4538 Y-256.6196
G1 Z0.0000 F8000.0
G0 X5.0808 Y-256.7449 F15000.0
G1 Z11.9000 F8000.0
G1 X4.8718 Y-256.6196 F12000.0
G1 Z0.0000 F8000.0
G0 X67.2606 Y-226.9589 F15000.0
G1 Z11.9000 F8000.0
G1 X66.1110 Y-230.5455 F12000.0
G1 X66.4789 Y-230.8214
G1 X67.2606 Y-230.8214
G1 X67.7664 Y-230.4075
G1 X67.6744 Y-230.4995
G1 X67.8583 Y-230.1776
G1 X68.0423 Y-229.3040
G1 X67.8124 Y-227.5107
G1 X67.2606 Y-226.9589
G1 X66.5709 Y-226.9589
G1 X66.0651 Y-227.3268
G1 X65.8811 Y-227.7406
G1 X65.7432 Y-229.3959
G1 X65.8811 Y-230.0857
G1 Z0.0000 F8000.0
G0 X69.2838 Y-228.1544 F15000.0
G1 Z11.9000 F8000.0
G1 X69.3037 Y-229.4529 F12000.0
G1 X69.4582 Y-229.5629
G1 X70.1520 Y-229.6967
G1 X70.8896 Y-229.5861
G1 X71.0700 Y-229.4587
G1 X71.2684 Y-229.0112
G1 X71.3530 Y-228.2004
G1 Z0.0000 F8000.0
G0 X71.1690 Y-229.3500 F15000.0
G1 Z11.9000 F8000.0
G1 X70.8931 Y-229.5799 F12000.0
G1 Z0.0000 F8000.0
G0 X69.2838 Y-229.5339 F15000.0
G1 Z11.9000 F8000.0
G1 X69.2838 Y-230.7754 F12000.0
G1 Z0.0000 F8000.0
G0 X67.7664 Y-230.4075 F15000.0
G1 Z11.9000 F8000.0
G1 X67.4999 Y-230.6823 F12000.0
G1 X67.2148 Y-230.8044
G1 X66.5052 Y-230.7698
G1 X66.1110 Y-230.4995
G1 Z0.0000 F8000.0
G0 X64.3637 Y-230.4075 F15000.0
G1 Z11.9000 F8000.0
G1 X63.8579 Y-230.8214 F12000.0
G1 Z0.0000 F8000.0
G0 X63.8579 Y-226.9589 F15000.0
G1 Z11.9000 F8000.0
G1 X62.7084 Y-230.5455 F12000.0
G1 X63.0302 Y-230.7754
G1 X63.7200 Y-230.8674
G1 X64.3637 Y-230.4075
G1 X64.2718 Y-230.4995
G1 X64.4557 Y-230.1776
G1 X64.6396 Y-229.3040
G1 X64.4097 Y-227.5107
G1 X63.8579 Y-226.9589
G1 X63.1682 Y-226.9589
G1 X62.6624 Y-227.3268
G1 X62.4785 Y-227.7406
G1 X62.3405 Y-229.3959
G1 X62.4785 Y-230.0857
G1 Z0.0000 F8000.0
G0 X59.4896 Y-228.7522 F15000.0
G1 Z11.9000 F8000.0
G1 X59.3977 Y-228.5683 F12000.0
G1 Z0.0000 F8000.0
G0 X59.4896 Y-230.1316 F15000.0
G1 Z11.9000 F8000.0
G1 X59.4290 Y-230.3172 F12000.0
G1 X59.0566 Y-230.7142
G1 X59.3928 Y-230.3796
G1 Z0.0000 F8000.0
G0 X59.0258 Y-230.7224 F15000.0
G1 Z11.9000 F8000.0
G1 X58.7069 Y-230.8504 F12000.0
G1 X57.8861 Y-230.7525
G1 X57.5415 Y-230.4409
G1 X57.2977 Y-229.7847
G1 X57.3816 Y-229.0760
G1 X57.6154 Y-228.6860
G1 X57.9079 Y-228.5019
G1 X58.2497 Y-228.4092
G1 X59.3561 Y-228.5049
G1 X59.0507 Y-227.0512
G1 X57.4664 Y-227.0049
G1 Z0.0000 F8000.0
G0 X55.8571 Y-227.2348 F15000.0
G1 Z11.9000 F8000.0
G1 X56.0964 Y-227.7182 F12000.0
G1 X55.7396 Y-227.1923
G1 X55.4575 Y-226.9895
G1 X54.5227 Y-227.0102
G1 X54.1665 Y-227.2609
G1 X53.9543 Y-228.0454
G1 X54.4561 Y-228.9811
G1 X55.7383 Y-230.1230
G1 X56.0123 Y-230.6444
G1 X55.9094 Y-230.3219
G1 X56.2061 Y-230.8121
G1 X53.9258 Y-230.8214
G1 Z0.0000 F8000.0
G0 X50.7991 Y-230.4075 F15000.0
G1 Z11.9000 F8000.0
G1 X50.5326 Y-230.6823 F12000.0
G1 X50.2489 Y-230.7942
G1 X49.3180 Y-230.6148
G1 X49.1437 Y-230.4995
G1 Z0.0000 F8000.0
G0 X47.3964 Y-230.4075 F15000.0
G1 Z11.9000 F8000.0
G1 X47.1299 Y-230.6823 F12000.0
G1 X46.8448 Y-230.8044
G1 X46.1364 Y-230.7681
G1 X45.7871 Y-230.5455
G1 Z0.0000 F8000.0
G0 X42.2924 Y-230.4075 F15000.0
G1 Z11.9000 F8000.0
G1 X41.7866 Y-230.8214 F12000.0
G1 Z0.0000 F8000.0
G0 X41.7866 Y-226.9589 F15000.0
G1 Z11.9000 F8000.0
G1 X41.0969 Y-226.9589 F12000.0
G1 X40.5911 Y-227.3268
G1 X40.4072 Y-227.7406
G1 X40.2692 Y-229.3959
G1 X40.4072 Y-230.0857
G1 X40.6831 Y-230.5915
G1 Z0.0000 F8000.0
G0 X40.4532 Y-230.1776 F15000.0
G1 Z11.9000 F8000.0
G1 X40.5911 Y-230.4535 F12000.0
G1 X41.0049 Y-230.8214
G1 X41.7866 Y-230.8214
G1 Z0.0000 F8000.0
G0 X42.2924 Y-230.4075 F15000.0
G1 Z11.9000 F8000.0
G1 X42.2005 Y-230.4995 F12000.0
G1 X42.3844 Y-230.1776
G1 X42.5683 Y-229.3040
G1 X42.3384 Y-227.5107
G1 X41.7866 Y-226.9589
G1 Z0.0000 F8000.0
G0 X38.8438 Y-227.9705 F15000.0
G1 Z11.9000 F8000.0
G1 X37.7913 Y-227.4217 F12000.0
G1 X37.6294 Y-227.0490
G1 X37.7370 Y-227.6158
G1 X37.6943 Y-230.7754
G1 Z0.0000 F8000.0
G0 X47.3045 Y-227.2808 F15000.0
G1 Z11.9000 F8000.0
G1 X46.8135 Y-226.9697 F12000.0
G1 X46.2250 Y-226.9772
G1 X45.6824 Y-227.3874
G1 X45.4954 Y-227.9376
G1 X45.3947 Y-229.4846
G1 X45.5602 Y-230.1784
G1 X45.8464 Y-230.5967
G1 X46.7536 Y-230.8432
G1 X47.3438 Y-230.4515
G1 X47.5413 Y-229.9264
G1 X47.6571 Y-229.2231
G1 X47.4157 Y-227.4562
G1 X47.3504 Y-227.3727
G1 Z0.0000 F8000.0
G0 X50.2933 Y-226.9589 F15000.0
G1 Z11.9000 F8000.0
G1 X49.1437 Y-230.5455 F12000.0
G1 X49.5116 Y-230.8214
G1 X50.2933 Y-230.8214
G1 X50.7991 Y-230.4075
G1 X50.7071 Y-230.4995
G1 X50.8910 Y-230.1776
G1 X51.0750 Y-229.3040
G1 X50.8451 Y-227.5107
G1 X50.2933 Y-226.9589
G1 X49.6036 Y-226.9589
G1 X49.0978 Y-227.3268
G1 X48.9138 Y-227.7406
G1 X48.7759 Y-229.3959
G1 X48.9138 Y-230.0857
G1 Z0.0000 F8000.0
G0 X72.4565 Y-230.7754 F15000.0
G1 Z11.9000 F8000.0
G1 X72.6724 Y-227.5555 F12000.0
G1 X72.5920 Y-227.2150
G1 X72.9714 Y-227.5721
G1 X74.1024 Y-230.4423
G1 X74.2711 Y-230.5318
G1 X75.8233 Y-227.3658
G1 X75.9363 Y-227.2695
G1 X76.0440 Y-227.5488
G1 X76.0891 Y-230.7754
G1 Z0.0000 F8000.0
G0 X74.2958 Y-230.7294 F15000.0
G1 Z11.9000 F8000.0
G1 X74.2958 Y-230.5455 F12000.0
G1 Z0.0000 F8000.0
G0 X38.2775 Y-238.4241 F15000.0
G1 Z11.9000 F8000.0
G1 X37.1279 Y-238.4241 F12000.0
G1 Z0.0000 F8000.0
G0 X37.7257 Y-238.4241 F15000.0
G1 Z11.9000 F8000.0
G1 X37.6797 Y-239.8495 F12000.0
G1 Z0.0000 F8000.0
G0 X38.8293 Y-239.8955 F15000.0
G1 Z11.9000 F8000.0
G1 X38.8903 Y-238.7437 F12000.0
G1 X39.7869 Y-239.6138
G1 X39.8556 Y-239.4580
G1 X39.9073 Y-238.5533
G1 X39.2715 Y-238.9936
G1 X38.9384 Y-238.6954
G1 X38.8293 Y-238.4701
G1 Z0.0000 F8000.0
G0 X39.3811 Y-239.2058 F15000.0
G1 Z11.9000 F8000.0
G1 X39.7029 Y-239.6196 F12000.0
G1 Z0.0000 F8000.0
G0 X40.6685 Y-239.8495 F15000.0
G1 Z11.9000 F8000.0
G1 X40.7274 Y-237.8693 F12000.0
G1 X41.9560 Y-239.8495
G1 Z0.0000 F8000.0
G0 X27.7533 Y-238.3431 F15000.0
G1 Z11.9000 F8000.0
G1 X27.8256 Y-238.5913 F12000.0
G1 X27.6917 Y-238.2235
G1 X27.3708 Y-237.7959
G1 X27.4299 Y-238.0427
G1 X27.2934 Y-239.4926
G1 Z0.0000 F8000.0
G0 X28.1671 Y-239.3087 F15000.0
G1 Z11.9000 F8000.0
G1 X28.2164 Y-239.3481 F12000.0
G1 X27.8861 Y-238.7401
G1 X28.1362 Y-239.2754
G1 X28.2914 Y-239.2612
G1 X29.0382 Y-237.8464
G1 X29.1109 Y-237.9458
G1 X29.1787 Y-239.5386
G1 Z0.0000 F8000.0
G0 X26.4658 Y-238.2511 F15000.0
G1 Z11.9000 F8000.0
G1 X26.2756 Y-238.1628 F12000.0
G1 X25.6217 Y-238.7009
G1 X26.4695 Y-238.9755
G1 X26.6149 Y-239.2721
G1 X26.4538 Y-239.5511
G1 X26.2418 Y-239.5977
G1 X25.5908 Y-239.4085
G1 X25.5150 Y-239.4551
G1 X25.5647 Y-238.8387
G1 X24.8475 Y-238.5025
G1 X24.8791 Y-239.0440
G1 X24.6992 Y-239.4634
G1 X24.4068 Y-239.6022
G1 X23.8908 Y-239.4466
G1 Z0.0000 F8000.0
G0 X23.8448 Y-238.3431 F15000.0
G1 Z11.9000 F8000.0
G1 X24.0349 Y-238.1689 F12000.0
G1 X24.4844 Y-238.1402
G1 X24.7039 Y-238.2926
G1 X24.3673 Y-238.1484
G1 X23.2839 Y-238.4923
G1 X23.3122 Y-239.0590
G1 X23.1246 Y-239.4715
G1 X22.8286 Y-239.6033
G1 X22.3923 Y-239.4527
G1 X22.2895 Y-239.2711
G1 X22.3103 Y-238.3164
G1 X22.5554 Y-238.1338
G1 X23.0016 Y-238.1848
G1 X23.2011 Y-238.3431
G1 Z0.0000 F8000.0
G0 X21.5917 Y-238.2511 F15000.0
G1 Z11.9000 F8000.0
G1 X21.4015 Y-238.1628 F12000.0
G1 X20.7476 Y-238.7009
G1 X21.5955 Y-238.9755
G1 X21.7409 Y-239.2721
G1 X21.5797 Y-239.5511
G1 X21.3678 Y-239.5977
G1 X20.7167 Y-239.4085
G1 X20.6409 Y-239.4551
G1 X20.6721 Y-238.8029
G1 Z0.0000 F8000.0
G0 X1.8098 Y-237.7661 F15000.0
G1 Z11.9000 F8000.0
G1 X2.8430 Y-238.0469 F12000.0
G1 X3.0502 Y-238.3493
G1 X3.0516 Y-238.6663
G1 X2.0574 Y-238.6421
G1 X1.8153 Y-239.0143
G1 X1.7816 Y-239.2467
G1 X1.8481 Y-239.4518
G1 X2.5293 Y-240.0636
G1 X2.7868 Y-239.8906
G1 X3.0581 Y-238.8767
G1 X2.7663 Y-238.6305
G1 X3.0514 Y-238.8237
G1 Z0.0000 F8000.0
G0 X3.8330 Y-239.0996 F15000.0
G1 Z11.9000 F8000.0
G1 X3.8026 Y-239.6925 F12000.0
G1 X3.8859 Y-239.8972
G1 X4.4752 Y-240.0797
G1 X4.9087 Y-239.8211
G1 X3.9597 Y-239.1769
G1 X3.8434 Y-239.0014
G1 X3.8825 Y-238.6748
G1 X4.5444 Y-238.5233
G1 X4.7967 Y-238.5844
G1 X4.7067 Y-238.5018
G1 Z0.0000 F8000.0
G0 X5.4884 Y-238.5018 F15000.0
G1 Z11.9000 F8000.0
G1 X6.6379 Y-238.5018 F12000.0
G1 Z0.0000 F8000.0
G0 X7.1437 Y-238.5478 F15000.0
G1 Z11.9000 F8000.0
G1 X8.1094 Y-240.0192 F12000.0
G1 Z0.0000 F8000.0
G0 X8.1553 Y-238.5478 F15000.0
G1 Z11.9000 F8000.0
G1 X8.1779 Y-239.9663 F12000.0
G1 X8.3401 Y-240.0478
G1 X8.9307 Y-239.9902
G1 X9.0968 Y-239.9014
G1 X9.1210 Y-238.5478
G1 Z0.0000 F8000.0
G0 X9.7647 Y-238.7777 F15000.0
G1 Z11.9000 F8000.0
G1 X9.9922 Y-238.5281 F12000.0
G1 X10.5576 Y-238.5498
G1 X10.7803 Y-238.8127
G1 X10.8939 Y-239.3892
G1 X10.6642 Y-239.9187
G1 X10.2478 Y-240.0756
G1 X9.9225 Y-239.9561
G1 X9.7596 Y-239.7702
G1 X9.8107 Y-239.8813
G1 Z0.0000 F8000.0
G0 X11.5580 Y-239.8353 F15000.0
G1 Z11.9000 F8000.0
G1 X11.5566 Y-239.1929 F12000.0
G1 X11.6205 Y-239.8944
G1 X12.2132 Y-240.0760
G1 X12.6283 Y-239.8135
G1 X11.6729 Y-239.1687
G1 X11.5650 Y-238.9887
G1 X11.6161 Y-238.6657
G1 X12.2837 Y-238.5220
G1 X12.5187 Y-238.5795
G1 X12.4316 Y-238.5018
G1 Z0.0000 F8000.0
G0 X13.5812 Y-238.1340 F15000.0
G1 Z11.9000 F8000.0
G1 X13.9545 Y-238.7425 F12000.0
G1 X13.5939 Y-238.2271
G1 X13.4892 Y-240.0192
G1 Z0.0000 F8000.0
G0 X14.4089 Y-239.8353 F15000.0
G1 Z11.9000 F8000.0
G1 X14.1747 Y-239.3621 F12000.0
G1 X14.2516 Y-239.6222
G1 X14.0771 Y-239.0877
G1 X14.4480 Y-239.7658
G1 X15.2327 Y-238.3642
G1 X15.4064 Y-238.1868
G1 X15.3862 Y-238.0797
G1 X15.4665 Y-239.9732
G1 Z0.0000 F8000.0
G0 X6.0402 Y-240.0192 F15000.0
G1 Z11.9000 F8000.0
G1 X6.0862 Y-238.5018 F12000.0
G1 Z0.0000 F8000.0
G0 X2.9134 Y-239.8353 F15000.0
G1 Z11.9000 F8000.0
G1 X2.7755 Y-239.9732 F12000.0
G1 Z0.0000 F8000.0
G0 X148.8121 Y-242.5412 F15000.0
G1 Z11.9000 F8000.0
G1 X148.8477 Y-244.1155 F12000.0
G1 X148.9331 Y-244.3234
G1 X149.1930 Y-244.1533
G1 X149.7159 Y-243.3132
G1 X150.1865 Y-242.8707
G1 X150.2817 Y-243.1001
G1 X150.2835 Y-244.5644
G1 Z0.0000 F8000.0
G0 X148.0764 Y-243.9207 F15000.0
G1 Z11.9000 F8000.0
G1 X147.9180 Y-243.9736 F12000.0
G1 X147.5737 Y-243.8718
G1 X147.5584 Y-244.4131
G1 X148.2224 Y-243.7894
G1 X148.2096 Y-243.1493
G1 X147.5600 Y-243.1205
G1 X147.6802 Y-243.0272
G1 X148.0107 Y-243.0059
G1 X147.5471 Y-243.1429
G1 X147.4563 Y-243.6083
G1 X147.5246 Y-243.8287
G1 Z0.0000 F8000.0
G0 X141.1676 Y-243.0010 F15000.0
G1 Z11.9000 F8000.0
G1 X140.7885 Y-243.1772 F12000.0
G1 X140.8094 Y-243.2289
G1 X141.3171 Y-243.1573
G1 Z0.0000 F8000.0
G0 X141.7494 Y-243.6960 F15000.0
G1 Z11.9000 F8000.0
G1 X142.1469 Y-243.8729 F12000.0
G1 X142.1596 Y-244.4932
G1 X141.7388 Y-243.9439
G1 X140.8199 Y-245.1012
G1 X140.6532 Y-245.2054
G1 X140.3775 Y-245.0496
G1 X140.2523 Y-244.4851
G1 X140.0076 Y-244.1381
G1 X139.6043 Y-243.0930
G1 Z0.0000 F8000.0
G0 X140.7538 Y-243.2309 F15000.0
G1 Z11.9000 F8000.0
G1 X140.1891 Y-244.3962 F12000.0
G1 X139.2594 Y-244.5383
G1 X139.0792 Y-244.4997
G1 X138.9851 Y-243.4941
G1 X138.7569 Y-243.5039
G1 X138.8800 Y-243.3762
G1 X138.2850 Y-244.3194
G1 X137.9729 Y-243.8523
G1 X138.1131 Y-244.2317
G1 X138.2611 Y-244.3628
G1 X137.9428 Y-243.7652
G1 X138.0648 Y-244.1589
G1 X137.8505 Y-243.5549
G1 X137.6108 Y-243.3081
G1 X137.6388 Y-243.6477
G1 X137.4891 Y-244.5184
G1 Z0.0000 F8000.0
G0 X141.3516 Y-243.0930 F15000.0
G1 Z11.9000 F8000.0
G1 X141.8371 Y-243.7132 F12000.0
G1 X142.1792 Y-243.1390
G1 Z0.0000 F8000.0
G0 X144.0185 Y-243.4149 F15000.0
G1 Z11.9000 F8000.0
G1 X143.6527 Y-243.0929 F12000.0
G1 X143.3037 Y-243.0673
G1 X143.1159 Y-243.1725
G1 X142.8568 Y-244.0751
G1 X142.9161 Y-244.2860
G1 X143.1346 Y-244.5560
G1 X143.3482 Y-244.6263
G1 X143.9677 Y-244.3410
G1 X144.0539 Y-244.1303
G1 X144.0645 Y-243.5068
G1 Z0.0000 F8000.0
G0 X144.8002 Y-244.5184 F15000.0
G1 Z11.9000 F8000.0
G1 X144.6359 Y-244.6595 F12000.0
G1 X144.5703 Y-245.0702
G1 Z0.0000 F8000.0
G0 X146.1797 Y-245.0702 F15000.0
G1 Z11.9000 F8000.0
G1 X146.1337 Y-244.6104 F12000.0
G1 Z0.0000 F8000.0
G0 X145.6739 Y-243.0930 F15000.0
G1 Z11.9000 F8000.0
G1 X144.8002 Y-244.5184 F12000.0
G1 X146.1337 Y-244.6104
G1 X145.9498 Y-244.3345
G1 Z0.0000 F8000.0
G0 X128.4872 Y-244.1441 F15000.0
G1 Z11.9000 F8000.0
G1 X128.5860 Y-242.3962 F12000.0
G1 X129.8667 Y-244.1441
G1 Z0.0000 F8000.0
G0 X127.1078 Y-242.8567 F15000.0
G1 Z11.9000 F8000.0
G1 X127.6597 Y-242.9957 F12000.0
G1 X127.8652 Y-243.5909
G1 X127.7541 Y-243.9227
G1 X127.6094 Y-244.0852
G1 X127.2826 Y-244.1598
G1 X126.8959 Y-244.0191
G1 X126.9368 Y-244.0880
G1 X126.7701 Y-243.8283
G1 X126.8706 Y-243.1326
G1 X127.0364 Y-242.9058
G1 X126.8319 Y-243.0406
G1 Z0.0000 F8000.0
G0 X126.3721 Y-244.1901 F15000.0
G1 Z11.9000 F8000.0
G1 X126.3980 Y-244.4795 F12000.0
G1 X126.1536 Y-244.0383
G1 X125.3086 Y-242.9379
G1 X125.2529 Y-244.1071
G1 X125.3225 Y-244.1650
G1 X126.1448 Y-244.1455
G1 X125.1543 Y-244.1935
G1 X125.0076 Y-244.5396
G1 X124.4883 Y-244.1306
G1 X123.5961 Y-242.9318
G1 X123.5212 Y-244.1441
G1 Z0.0000 F8000.0
G0 X169.0263 Y-242.5960 F15000.0
G1 Z11.9000 F8000.0
G1 X168.9339 Y-244.2312 F12000.0
G1 X168.6398 Y-243.9424
G1 X167.9762 Y-243.0227
G1 X168.1585 Y-243.2617
G1 X167.6841 Y-242.7546
G1 X167.7652 Y-243.0030
G1 X167.6642 Y-244.1876
G1 X167.5838 Y-244.3618
G1 X166.6639 Y-244.4014
G1 X166.2564 Y-244.2179
G1 X166.3424 Y-243.8310
G1 X166.4897 Y-243.7448
G1 X166.2958 Y-243.6098
G1 X166.3376 Y-243.1915
G1 X166.6626 Y-243.1209
G1 X166.8876 Y-243.2788
G1 X165.6156 Y-243.4653
G1 X165.6167 Y-244.3122
G1 X165.5213 Y-243.3902
G1 X164.8963 Y-244.2986
G1 X164.5484 Y-243.5926
G1 X164.3492 Y-243.4655
G1 X164.2442 Y-244.3893
G1 Z0.0000 F8000.0
G0 X161.7195 Y-242.5501 F15000.0
G1 Z11.9000 F8000.0
G1 X160.8267 Y-242.5745 F12000.0
G1 X160.7702 Y-242.6391
G1 X160.6554 Y-244.3421
G1 X160.1116 Y-244.2132
G1 X159.6093 Y-243.9104
G1 X159.0472 Y-243.2363
G1 X159.1905 Y-243.3777
G1 Z0.0000 F8000.0
G0 X160.0182 Y-243.1478 F15000.0
G1 Z11.9000 F8000.0
G1 X159.9544 Y-244.0736 F12000.0
G1 X159.7737 Y-244.0932
G1 X159.8662 Y-244.1430
G1 Z0.0000 F8000.0
G0 X159.7275 Y-244.0836 F15000.0
G1 Z11.9000 F8000.0
G1 X159.3993 Y-243.6138 F12000.0
G1 X159.1734 Y-243.4456
G1 X159.0066 Y-244.3893
G1 Z0.0000 F8000.0
G0 X157.4892 Y-244.2974 F15000.0
G1 Z11.9000 F8000.0
G1 X157.4553 Y-244.2379 F12000.0
G1 X157.8338 Y-244.3996
G1 X158.3304 Y-244.1326
G1 X158.3929 Y-243.7974
G1 X158.2943 Y-243.3539
G1 X157.7542 Y-243.1407
G1 X156.0637 Y-243.1018
G1 Z0.0000 F8000.0
G0 X156.5695 Y-243.1018 F15000.0
G1 Z11.9000 F8000.0
G1 X156.5236 Y-244.3893 F12000.0
G1 Z0.0000 F8000.0
G0 X162.0414 Y-244.4813 F15000.0
G1 Z11.9000 F8000.0
G1 X161.8884 Y-244.4110 F12000.0
G1 X161.8130 Y-244.2288
G1 X161.7655 Y-242.6420
G1 Z0.0000 F8000.0
G0 X118.2744 Y-242.4275 F15000.0
G1 Z11.9000 F8000.0
G1 X117.2929 Y-242.4834 F12000.0
G1 X117.2026 Y-244.4226
G1 X117.0600 Y-244.5056
G1 X117.0038 Y-244.9058
G1 X117.3248 Y-244.4702
G1 X118.4894 Y-244.4313
G1 X118.7697 Y-244.9136
G1 X118.7664 Y-244.6175
G1 X118.5106 Y-244.2748
G1 X118.4145 Y-243.9334
G1 X118.3204 Y-242.5194
G1 Z0.0000 F8000.0
G0 X116.2512 Y-243.1172 F15000.0
G1 Z11.9000 F8000.0
G1 X116.2910 Y-243.1741 F12000.0
G1 X116.1281 Y-243.0787
G1 X115.6650 Y-243.0490
G1 X115.4640 Y-243.1588
G1 X115.3454 Y-243.3436
G1 X115.4220 Y-243.6247
G1 X116.1027 Y-243.7926
G1 X116.4425 Y-244.2229
G1 X116.2657 Y-244.4853
G1 X116.0430 Y-244.5163
G1 X115.3254 Y-244.3674
G1 X115.3162 Y-243.6841
G1 X114.8796 Y-243.1452
G1 X114.6719 Y-243.0737
G1 X113.7222 Y-243.0712
G1 Z0.0000 F8000.0
G0 X114.3200 Y-243.0712 F15000.0
G1 Z11.9000 F8000.0
G1 X114.2740 Y-244.4507 F12000.0
G1 Z0.0000 F8000.0
G0 X113.0784 Y-243.1172 F15000.0
G1 Z11.9000 F8000.0
G1 X113.1183 Y-243.1741 F12000.0
G1 X112.9554 Y-243.0787
G1 X112.4923 Y-243.0490
G1 X112.2145 Y-243.2410
G1 X112.1841 Y-243.5580
G1 X113.0292 Y-243.8434
G1 X113.2697 Y-244.2229
G1 X113.0929 Y-244.4854
G1 X112.1217 Y-244.4470
G1 X112.1838 Y-243.7424
G1 X112.1831 Y-244.4320
G1 X112.4515 Y-244.4737
G1 X112.3887 Y-244.4047
G1 Z0.0000 F8000.0
G0 X89.8174 Y-244.1246 F15000.0
G1 Z11.9000 F8000.0
G1 X90.3933 Y-244.2725 F12000.0
G1 X90.8572 Y-244.6362
G1 X91.6638 Y-246.2318
G1 X92.2614 Y-246.9648
G1 X92.1798 Y-247.2458
G1 X92.1669 Y-246.8320
G1 X91.7536 Y-246.3895
G1 X92.1356 Y-246.7144
G1 X93.5201 Y-246.9898
G1 X93.5879 Y-249.9643
G1 Z0.0000 F8000.0
G0 X92.1625 Y-247.3433 F15000.0
G1 Z11.9000 F8000.0
G1 X91.8875 Y-247.5373 F12000.0
G1 X91.4302 Y-248.0477
G1 X90.4752 Y-249.5568
G1 X89.4496 Y-250.4241
G1 Z0.0000 F8000.0
G0 X86.0929 Y-250.0562 F15000.0
G1 Z11.9000 F8000.0
G1 X85.6713 Y-249.8416 F12000.0
G1 X85.2072 Y-249.2511
G1 X85.4494 Y-249.6255
G1 X85.3177 Y-249.4702
G1 X85.6552 Y-249.8215
G1 X86.3500 Y-250.1268
G1 X86.8219 Y-250.1769
G1 X87.4062 Y-250.0634
G1 X87.8335 Y-249.8573
G1 X88.1745 Y-249.5489
G1 X88.5142 Y-248.7912
G1 X88.6094 Y-248.2033
G1 X88.5084 Y-247.2564
G1 X88.3423 Y-246.8104
G1 X88.0849 Y-246.4389
G1 X87.4504 Y-245.9978
G1 X86.2672 Y-245.9274
G1 X85.9426 Y-246.0480
G1 X85.4893 Y-246.4101
G1 X85.2025 Y-246.7859
G1 X84.9625 Y-248.2923
G1 X85.0708 Y-249.0678
G1 X83.1787 Y-249.5077
G1 X83.2287 Y-248.4435
G1 X83.0351 Y-246.5561
G1 X82.9414 Y-246.4663
G1 X83.0486 Y-246.4920
G1 X83.1703 Y-246.0505
G1 X82.4433 Y-246.1922
G1 X81.8868 Y-245.9507
G1 X80.3935 Y-246.3397
G1 X80.1696 Y-246.5774
G1 X80.0240 Y-246.8989
G1 X79.8591 Y-248.2018
G1 X80.0894 Y-249.2394
G1 X80.3843 Y-249.6844
G1 X81.8351 Y-250.1199
G1 X82.3492 Y-249.9312
G1 X83.1960 Y-251.8495
G1 Z0.0000 F8000.0
G0 X80.3912 Y-249.7343 F15000.0
G1 Z11.9000 F8000.0
G1 X80.3452 Y-249.6424 F12000.0
G1 Z0.0000 F8000.0
G0 X78.0461 Y-250.0102 F15000.0
G1 Z11.9000 F8000.0
G1 X77.9253 Y-246.0385 F12000.0
G1 X75.0573 Y-250.0102
G1 Z0.0000 F8000.0
G0 X73.0800 Y-251.9415 F15000.0
G1 Z11.9000 F8000.0
G1 X72.3281 Y-251.7884 F12000.0
G1 X72.1484 Y-251.6171
G1 X71.8268 Y-250.9884
G1 X71.5716 Y-249.8247
G1 X71.2702 Y-249.4919
G1 X69.9046 Y-245.9411
G1 X69.7819 Y-245.8270
G1 X70.2292 Y-246.6995
G1 Z0.0000 F8000.0
G0 X67.6082 Y-245.9638 F15000.0
G1 Z11.9000 F8000.0
G1 X68.1270 Y-246.3235 F12000.0
G1 X68.4201 Y-246.7958
G1 X68.6776 Y-248.1900
G1 X68.2120 Y-249.6338
G1 X67.0285 Y-250.1479
G1 X66.2969 Y-250.0713
G1 X65.7872 Y-249.7403
G1 X65.8465 Y-249.8046
G1 X65.4888 Y-249.2661
G1 Z0.0000 F8000.0
G0 X65.7166 Y-249.6130 F15000.0
G1 Z11.9000 F8000.0
G1 X66.2088 Y-250.0149 F12000.0
G1 X65.9529 Y-249.8723
G1 Z0.0000 F8000.0
G0 X65.5850 Y-246.6536 F15000.0
G1 Z11.9000 F8000.0
G1 X65.8072 Y-246.2790 F12000.0
G1 X66.3083 Y-245.9650
G1 X67.4703 Y-245.9179
G1 Z0.0000 F8000.0
G0 X71.5626 Y-249.7343 F15000.0
G1 Z11.9000 F8000.0
G1 X71.7145 Y-249.6385 F12000.0
G1 X72.1220 Y-249.0578
G1 X73.2640 Y-246.0558
G1 Z0.0000 F8000.0
G0 X82.4603 Y-246.2397 F15000.0
G1 Z11.9000 F8000.0
G1 X82.8282 Y-246.4237 F12000.0
G1 Z0.0000 F8000.0
G0 X87.9322 Y-246.2397 F15000.0
G1 Z11.9000 F8000.0
G1 X87.9782 Y-246.3317 F12000.0
G1 Z0.0000 F8000.0
G0 X93.5879 Y-246.9754 F15000.0
G1 Z11.9000 F8000.0
G1 X93.5879 Y-244.2165 F12000.0
G1 Z0.0000 F8000.0
G0 X160.1018 Y-245.5174 F15000.0
G1 Z11.9000 F8000.0
G1 X161.0151 Y-245.6948 F12000.0
G1 X161.1331 Y-245.8280
G1 X161.2212 Y-246.1506
G1 X161.1355 Y-247.1349
G1 X160.9991 Y-247.3170
G1 X160.6812 Y-247.4117
G1 X160.3474 Y-247.2992
G1 X160.1787 Y-247.1525
G1 X160.1274 Y-246.9365
G1 X160.2989 Y-246.2594
G1 X160.4905 Y-246.1531
G1 X160.8373 Y-246.1522
G1 X161.0870 Y-246.2754
G1 X160.4566 Y-246.1894
G1 X160.2707 Y-246.2755
G1 X160.1965 Y-246.4632
G1 X160.2397 Y-247.2648
G1 Z0.0000 F8000.0
G0 X161.8491 Y-247.4027 F15000.0
G1 Z11.9000 F8000.0
G1 X161.9569 Y-247.2334 F12000.0
G1 X161.9122 Y-246.6577
G1 X162.0417 Y-246.2132
G1 X162.2221 Y-246.1555
G1 X162.7565 Y-246.3567
G1 X162.8572 Y-247.1497
G1 X162.7884 Y-247.3507
G1 X162.5889 Y-247.4261
G1 X161.8581 Y-247.3910
G1 X161.9689 Y-246.7651
G1 X162.5654 Y-246.8326
G1 X162.1347 Y-247.3071
G1 X161.9870 Y-247.3107
G1 Z0.0000 F8000.0
G0 X163.4584 Y-247.1268 F15000.0
G1 Z11.9000 F8000.0
G1 X163.5044 Y-247.2188 F12000.0
G1 Z0.0000 F8000.0
G0 X164.4241 Y-247.2648 F15000.0
G1 Z11.9000 F8000.0
G1 X163.8585 Y-247.4184 F12000.0
G1 X163.6540 Y-247.3495
G1 X163.4384 Y-247.0233
G1 X163.5323 Y-246.3288
G1 X163.6861 Y-246.1699
G1 X164.1400 Y-246.1731
G1 X164.4013 Y-246.3588
G1 X164.4700 Y-248.0005
G1 Z0.0000 F8000.0
G0 X165.7575 Y-247.4027 F15000.0
G1 Z11.9000 F8000.0
G1 X165.4230 Y-247.3779 F12000.0
G1 X165.1342 Y-247.2166
G1 X165.2493 Y-246.8268
G1 X165.3891 Y-246.7608
G1 X165.2224 Y-246.6916
G1 X165.1841 Y-246.2642
G1 X165.4650 Y-246.1391
G1 X165.6789 Y-246.1694
G1 X165.8495 Y-246.3451
G1 Z0.0000 F8000.0
G0 X166.5852 Y-246.1612 F15000.0
G1 Z11.9000 F8000.0
G1 X166.4697 Y-246.6232 F12000.0
G1 X166.4692 Y-247.3476
G1 X166.7649 Y-247.2553
G1 X167.1152 Y-246.8391
G1 X166.5253 Y-246.7575
G1 X166.4111 Y-247.3851
G1 X167.2321 Y-247.4065
G1 X167.3581 Y-246.9411
G1 X167.2405 Y-246.8615
G1 X167.4159 Y-247.2351
G1 X167.3363 Y-246.3787
G1 X166.6772 Y-246.1152
G1 Z0.0000 F8000.0
G0 X167.9187 Y-246.2072 F15000.0
G1 Z11.9000 F8000.0
G1 X168.0053 Y-245.8570 F12000.0
G1 X169.1313 Y-245.6032
G1 X169.2122 Y-245.7502
G1 X169.2494 Y-247.3185
G1 X169.1526 Y-246.5938
G1 X167.9647 Y-246.2991
G1 Z0.0000 F8000.0
G0 X152.8560 Y-248.8076 F15000.0
G1 Z11.9000 F8000.0
G1 X153.1422 Y-248.0398 F12000.0
G1 X152.9850 Y-247.4848
G1 X152.7348 Y-247.1952
G1 X152.9163 Y-247.3539
G1 X152.5692 Y-247.1606
G1 X151.8985 Y-247.2487
G1 X151.5915 Y-247.5330
G1 X151.1761 Y-247.7089
G1 X150.7732 Y-248.6216
G1 X150.4295 Y-248.5014
G1 Z0.0000 F8000.0
G0 X150.1519 Y-247.7746 F15000.0
G1 Z11.9000 F8000.0
G1 X150.5085 Y-248.7119 F12000.0
G1 X150.4423 Y-248.5898
G1 X150.6111 Y-248.7910
G1 X150.7354 Y-249.3318
G1 X150.8660 Y-249.5156
G1 X151.0102 Y-249.5713
G1 X150.7114 Y-248.7939
G1 X150.7933 Y-248.6731
G1 Z0.0000 F8000.0
G0 X151.6453 Y-248.5386 F15000.0
G1 Z11.9000 F8000.0
G1 X151.8551 Y-248.8570 F12000.0
G1 X151.7861 Y-248.7883
G1 X152.1852 Y-248.9929
G1 X152.7215 Y-248.8973
G1 Z0.0000 F8000.0
G0 X149.6275 Y-248.2695 F15000.0
G1 Z11.9000 F8000.0
G1 X148.8527 Y-248.3757 F12000.0
G1 X148.7754 Y-248.9422
G1 Z0.0000 F8000.0
G0 X148.7754 Y-247.8211 F15000.0
G1 Z11.9000 F8000.0
G1 X148.8460 Y-247.7449 F12000.0
G1 X148.6898 Y-248.7265
G1 X148.6896 Y-248.6220
G1 X148.7189 Y-248.8515
G1 X148.9355 Y-248.9513
G1 X149.5907 Y-248.3519
G1 X149.5133 Y-248.1803
G1 X148.8699 Y-247.7162
G1 X148.1020 Y-247.8448
G1 X147.5191 Y-247.7023
G1 X147.9976 Y-247.8660
G1 X148.1585 Y-248.2901
G1 X148.1465 Y-248.5109
G1 X148.0028 Y-248.8167
G1 X147.7137 Y-248.9625
G1 X147.2878 Y-248.8338
G1 X147.1007 Y-248.5732
G1 X147.2200 Y-247.9017
G1 X147.3536 Y-247.7333
G1 X147.1253 Y-247.8309
G1 X146.5871 Y-247.7294
G1 X146.4895 Y-247.9961
G1 X146.5283 Y-249.4441
G1 X146.4660 Y-248.8782
G1 X145.9688 Y-248.9584
G1 X145.6752 Y-248.8542
G1 X145.5210 Y-248.4989
G1 X145.6030 Y-247.9274
G1 X145.8359 Y-247.7119
G1 X146.4885 Y-247.8660
G1 Z0.0000 F8000.0
G0 X147.1611 Y-248.7628 F15000.0
G1 Z11.9000 F8000.0
G1 X147.3405 Y-248.9422 F12000.0
G1 Z0.0000 F8000.0
G0 X144.1567 Y-248.9422 F15000.0
G1 Z11.9000 F8000.0
G1 X143.4097 Y-248.3310 F12000.0
G1 X142.7338 Y-248.3081
G1 X142.4615 Y-248.4697
G1 X142.4126 Y-248.6843
G1 X142.4975 Y-248.9422
G1 Z0.0000 F8000.0
G0 X142.4975 Y-247.8211 F15000.0
G1 Z11.9000 F8000.0
G1 X142.3895 Y-248.7384 F12000.0
G1 X142.6004 Y-248.9497
G1 X143.2151 Y-248.4826
G1 X143.3121 Y-248.3104
G1 X142.6321 Y-247.6866
G1 Z0.0000 F8000.0
G0 X143.9773 Y-247.8660 F15000.0
G1 Z11.9000 F8000.0
G1 X144.1835 Y-247.7280 F12000.0
G1 X143.9931 Y-248.0395
G1 X143.9142 Y-248.4968
G1 X143.9669 Y-248.6970
G1 X144.3383 Y-248.9406
G1 X144.5611 Y-248.9554
G1 X144.7606 Y-248.8627
G1 X144.9692 Y-248.4794
G1 X144.8817 Y-247.9387
G1 X144.7703 Y-247.8106
G1 X144.2464 Y-247.6866
G1 Z0.0000 F8000.0
G0 X141.0150 Y-248.9422 F15000.0
G1 Z11.9000 F8000.0
G1 X139.8749 Y-248.9537 F12000.0
G1 X139.8236 Y-248.8796
G1 X139.8712 Y-247.2193
G1 X140.9323 Y-248.8165
G1 X141.1785 Y-249.3522
G1 X141.0860 Y-249.0108
G1 X139.8295 Y-248.9522
G1 X139.6489 Y-249.0348
G1 X139.5800 Y-249.4355
G1 Z0.0000 F8000.0
G0 X138.0105 Y-248.8076 F15000.0
G1 Z11.9000 F8000.0
G1 X138.1131 Y-248.6965 F12000.0
G1 X138.2922 Y-248.1513
G1 X138.0992 Y-247.3747
G1 X137.7530 Y-247.1644
G1 X137.0798 Y-247.2356
G1 X136.8491 Y-247.5769
G1 X136.8456 Y-248.6121
G1 X136.9996 Y-248.8440
G1 X137.4370 Y-249.0039
G1 X137.8760 Y-248.8973
G1 Z0.0000 F8000.0
G0 X167.9177 Y-251.6872 F15000.0
G1 Z11.9000 F8000.0
G1 X168.0165 Y-249.9393 F12000.0
G1 X169.2971 Y-251.6872
G1 Z0.0000 F8000.0
G0 X167.1820 Y-251.5492 F15000.0
G1 Z11.9000 F8000.0
G1 X166.6163 Y-251.7029 F12000.0
G1 X166.2815 Y-251.5142
G1 X166.1928 Y-251.3139
G1 X166.2883 Y-250.6167
G1 X166.4405 Y-250.4562
G1 X166.8938 Y-250.4568
G1 X167.1581 Y-250.6399
G1 X167.2279 Y-252.2850
G1 Z0.0000 F8000.0
G0 X164.8829 Y-250.3997 F15000.0
G1 Z11.9000 F8000.0
G1 X165.4348 Y-250.5388 F12000.0
G1 X165.6403 Y-251.1339
G1 X165.5292 Y-251.4658
G1 X165.3845 Y-251.6283
G1 X165.0577 Y-251.7029
G1 X164.6688 Y-251.5633
G1 X164.7105 Y-251.6312
G1 X164.5397 Y-251.2588
G1 X164.6948 Y-250.5754
G1 X164.8113 Y-250.4490
G1 X164.0253 Y-250.9487
G1 X163.1197 Y-251.1405
G1 X163.0004 Y-251.4481
G1 X163.0045 Y-251.3600
G1 X163.0331 Y-251.5852
G1 X163.3027 Y-251.6754
G1 X163.8303 Y-251.2111
G1 X163.9248 Y-251.0337
G1 X163.2444 Y-250.4508
G1 X163.1588 Y-250.4718
G1 X163.0718 Y-250.6654
G1 X163.0896 Y-251.6872
G1 Z0.0000 F8000.0
G0 X152.2301 Y-251.3258 F15000.0
G1 Z11.9000 F8000.0
G1 X152.2943 Y-249.4731 F12000.0
G1 X153.6556 Y-251.2798
G1 Z0.0000 F8000.0
G0 X151.5864 Y-249.9923 F15000.0
G1 Z11.9000 F8000.0
G1 X151.0964 Y-251.0543 F12000.0
G1 X151.0259 Y-251.0726
G1 X150.8820 Y-250.9332
G1 X150.5318 Y-250.0702
G1 X150.0137 Y-250.1384
G1 X149.4540 Y-250.0297
G1 X149.2352 Y-250.3645
G1 X149.3814 Y-250.0557
G1 X149.3205 Y-250.6435
G1 X149.5175 Y-250.6820
G1 X149.2968 Y-250.7974
G1 X149.2144 Y-251.2208
G1 X149.5065 Y-251.3509
G1 X149.8991 Y-251.2693
G1 X149.7931 Y-251.3258
G1 Z0.0000 F8000.0
G0 X150.9886 Y-251.0959 F15000.0
G1 Z11.9000 F8000.0
G1 X151.1630 Y-251.6772 F12000.0
G1 X151.4239 Y-251.9191
G1 X151.2286 Y-251.7974
G1 X151.2645 Y-251.9235
G1 Z0.0000 F8000.0
G0 X148.4596 Y-251.3258 F15000.0
G1 Z11.9000 F8000.0
G1 X147.5669 Y-251.2093 F12000.0
G1 X147.4801 Y-250.5817
G1 X145.8770 Y-250.7173
G1 X145.7981 Y-251.2268
G1 X145.7611 Y-250.0927
G1 X145.5767 Y-250.0320
G1 X144.3909 Y-250.0215
G1 X144.1395 Y-250.2163
G1 X144.0239 Y-250.5341
G1 X144.1445 Y-251.1069
G1 X144.3233 Y-251.3063
G1 X144.6661 Y-251.3535
G1 X144.8668 Y-251.2602
G1 X145.1513 Y-250.8896
G1 X145.1657 Y-250.4483
G1 X144.9759 Y-250.1325
G1 X145.1344 Y-250.4073
G1 X145.1042 Y-250.9974
G1 X145.0189 Y-251.1908
G1 X144.8271 Y-251.3258
G1 Z0.0000 F8000.0
G0 X143.4476 Y-250.6360 F15000.0
G1 Z11.9000 F8000.0
G1 X142.4556 Y-250.9101 F12000.0
G1 X142.7258 Y-251.3128
G1 X143.4052 Y-250.7273
G1 X143.3337 Y-250.5580
G1 X142.6596 Y-250.0940
G1 X142.5772 Y-250.1052
G1 X142.5049 Y-250.2908
G1 X142.5349 Y-250.7276
G1 X142.4070 Y-250.8039
G1 X141.6550 Y-250.0954
G1 X141.0788 Y-250.0205
G1 X140.8233 Y-250.2291
G1 X140.8389 Y-250.5242
G1 X141.6186 Y-250.7244
G1 X141.8499 Y-251.0160
G1 X141.8016 Y-251.2199
G1 X141.5106 Y-251.3463
G1 X140.8346 Y-251.1930
G1 X140.7807 Y-250.5441
G1 Z0.0000 F8000.0
G0 X146.8503 Y-250.0383 F15000.0
G1 Z11.9000 F8000.0
G1 X146.8503 Y-251.3258 F12000.0
G1 Z0.0000 F8000.0
G0 X148.3677 Y-250.6820 F15000.0
G1 Z11.9000 F8000.0
G1 X148.6003 Y-251.1104 F12000.0
G1 X148.5900 Y-250.9580
G1 X148.2389 Y-250.6753
G1 X147.5765 Y-250.5092
G1 X147.5544 Y-250.3050
G1 X147.6710 Y-250.1156
G1 X147.8689 Y-250.0181
G1 X148.4596 Y-250.0843
G1 Z0.0000 F8000.0
G0 X168.5922 Y-256.3438 F15000.0
G1 Z11.9000 F8000.0
G1 X167.2128 Y-256.3438 F12000.0
G1 Z0.0000 F8000.0
G0 X167.9945 Y-256.3438 F15000.0
G1 Z11.9000 F8000.0
G1 X167.9485 Y-258.2750 F12000.0
G1 Z0.0000 F8000.0
G0 X166.2012 Y-258.2750 F15000.0
G1 Z11.9000 F8000.0
G1 X166.1781 Y-257.6921 F12000.0
G1 X165.7114 Y-257.3878
G1 X165.3368 Y-256.9964
G1 X164.8650 Y-257.2749
G1 X164.8494 Y-257.8276
G1 X164.6396 Y-258.1784
G1 X164.8243 Y-257.9309
G1 X164.4483 Y-258.2760
G1 X164.0024 Y-258.1883
G1 X163.7575 Y-257.9672
G1 X163.8274 Y-257.2710
G1 X163.9183 Y-257.0787
G1 X164.4711 Y-256.9705
G1 X164.7757 Y-257.1714
G1 Z0.0000 F8000.0
G0 X165.3735 Y-258.2750 F15000.0
G1 Z11.9000 F8000.0
G1 X165.7460 Y-257.5386 F12000.0
G1 X165.6779 Y-257.7834
G1 X166.1669 Y-257.4967
G1 X166.2012 Y-256.9875
G1 Z0.0000 F8000.0
G0 X163.1204 Y-256.9875 F15000.0
G1 Z11.9000 F8000.0
G1 X163.1204 Y-258.1864 F12000.0
G1 X163.1002 Y-257.6708
G1 X162.9433 Y-257.5962
G1 X162.1754 Y-257.7004
G1 X162.1116 Y-258.1974
G1 X162.0529 Y-257.0137
G1 X160.5914 Y-256.9415
G1 Z0.0000 F8000.0
G0 X161.1432 Y-256.9415 F15000.0
G1 Z11.9000 F8000.0
G1 X161.0664 Y-258.2187 F12000.0
G1 X160.0505 Y-258.1533
G1 X159.3785 Y-258.2580
G1 X159.0987 Y-258.0485
G1 X159.0040 Y-257.8493
G1 X159.0929 Y-257.1515
G1 X159.3683 Y-257.0056
G1 X159.9346 Y-257.1005
G1 X160.0682 Y-257.8790
G1 X160.0617 Y-258.7839
G1 X159.0740 Y-258.0451
G1 Z0.0000 F8000.0
G0 X42.3541 Y-258.4605 F15000.0
G1 Z11.9000 F8000.0
G1 X42.4159 Y-256.2451 F12000.0
G1 X44.0094 Y-258.5525
G1 Z0.0000 F8000.0
G0 X41.4344 Y-258.2766 F15000.0
G1 Z11.9000 F8000.0
G1 X41.1446 Y-258.1052 F12000.0
G1 X40.2726 Y-257.0133
G1 X40.0879 Y-256.9744
G1 X39.4206 Y-257.1073
G1 X39.5113 Y-257.9965
G1 X39.2039 Y-258.4674
G1 X38.9993 Y-258.5048
G1 X38.2563 Y-258.2319
G1 X37.2484 Y-258.4245
G1 X37.1611 Y-258.2928
G1 X37.2217 Y-256.9209
G1 X37.8019 Y-256.8511
G1 Z0.0000 F8000.0
G0 X38.3536 Y-257.0810 F15000.0
G1 Z11.9000 F8000.0
G1 X38.7554 Y-256.8444 F12000.0
G1 X39.3193 Y-256.9891
G1 Z0.0000 F8000.0
G0 X40.2389 Y-258.4605 F15000.0
G1 Z11.9000 F8000.0
G1 X40.3667 Y-257.2452 F12000.0
G1 X40.8986 Y-257.7824
G1 X41.0598 Y-258.0581
G1 X40.7463 Y-257.5340
G1 Z0.0000 F8000.0
G0 X41.0061 Y-257.9759 F15000.0
G1 Z11.9000 F8000.0
G1 X41.4119 Y-258.1993 F12000.0
G1 X41.4804 Y-256.8971
G1 Z0.0000 F8000.0
G0 X37.1581 Y-256.8971 F15000.0
G1 Z11.9000 F8000.0
G1 X36.5603 Y-256.8511 F12000.0
G1 Z0.0000 F8000.0
G0 X18.7213 Y-256.8671 F15000.0
G1 Z11.9000 F8000.0
G1 X17.6487 Y-256.8775 F12000.0
G1 X17.0692 Y-257.1699
G1 X16.8928 Y-256.9784
G1 X17.0655 Y-257.2970
G1 X17.1137 Y-257.8730
G1 X16.6888 Y-258.3975
G1 X16.0143 Y-258.2188
G1 X15.8771 Y-258.0587
G1 X15.7966 Y-257.7161
G1 X15.9158 Y-257.1462
G1 X16.4090 Y-256.8531
G1 X16.8361 Y-256.9131
G1 Z0.0000 F8000.0
G0 X17.0660 Y-258.0627 F15000.0
G1 Z11.9000 F8000.0
G1 X16.8361 Y-258.3386 F12000.0
G1 Z0.0000 F8000.0
G0 X18.1695 Y-258.3845 F15000.0
G1 Z11.9000 F8000.0
G1 X18.2155 Y-256.8671 F12000.0
G1 Z0.0000 F8000.0
G0 X19.3191 Y-256.9591 F15000.0
G1 Z11.9000 F8000.0
G1 X19.7756 Y-256.8474 F12000.0
G1 X20.0923 Y-256.9797
G1 X20.3302 Y-257.3724
G1 X20.3442 Y-257.9592
G1 X20.1826 Y-258.2646
G1 X19.8894 Y-258.4007
G1 X19.3276 Y-258.2613
G1 X19.1352 Y-258.0167
G1 Z0.0000 F8000.0
G0 X21.0664 Y-258.3386 F15000.0
G1 Z11.9000 F8000.0
G1 X21.4831 Y-257.4934 F12000.0
G1 X21.4605 Y-257.3979
G1 X21.1836 Y-257.1887
G1 X21.4299 Y-257.3454
G1 X21.8199 Y-257.9020
G1 X22.1418 Y-258.0435
G1 X22.1744 Y-256.9729
G1 X21.5397 Y-257.3746
G1 X21.7904 Y-257.8547
G1 X22.1672 Y-258.2288
G1 X22.1700 Y-258.1546
G1 Z0.0000 F8000.0
G0 X23.0436 Y-258.3386 F15000.0
G1 Z11.9000 F8000.0
G1 X23.1070 Y-256.2530 F12000.0
G1 X24.3867 Y-258.3486
G1 X24.5610 Y-258.4305
G1 Z0.0000 F8000.0
G0 X15.0888 Y-257.6488 F15000.0
G1 Z11.9000 F8000.0
G1 X15.0133 Y-258.3306 F12000.0
G1 X14.1290 Y-258.3257
G1 X14.0255 Y-258.2102
G1 X14.1376 Y-257.6603
G1 X14.0821 Y-257.2240
G1 X14.3873 Y-256.9263
G1 X15.0154 Y-257.5133
G1 X14.2151 Y-257.6028
G1 Z0.0000 F8000.0
G0 X103.8636 Y-263.8000 F15000.0
G1 Z11.9000 F8000.0
G1 X103.7328 Y-265.4679 F12000.0
G1 X103.5947 Y-265.7733
G1 X103.3155 Y-266.0332
G1 X103.1023 Y-266.1206
G1 X101.1168 Y-265.9521
G1 X101.0598 Y-266.1273
G1 X101.0587 Y-267.5705
G1 Z0.0000 F8000.0
G0 X101.0587 Y-265.9152 F15000.0
G1 Z11.9000 F8000.0
G1 X101.0587 Y-263.8000 F12000.0
G1 Z0.0000 F8000.0
G0 X104.9212 Y-264.5357 F15000.0
G1 Z11.9000 F8000.0
G1 X105.0796 Y-264.2252 F12000.0
G1 X105.3320 Y-263.9784
G1 X105.8756 Y-263.7447
G1 X107.1585 Y-263.9400
G1 X107.3933 Y-264.1032
G1 X107.2826 Y-263.9850
G1 X107.6640 Y-264.3889
G1 X107.9231 Y-265.0443
G1 X107.9710 Y-266.2334
G1 X107.6016 Y-267.0950
G1 X106.3073 Y-267.6508
G1 X105.7308 Y-267.6365
G1 X105.3254 Y-267.3938
G1 X104.8729 Y-266.7719
G1 X105.2430 Y-267.3866
G1 Z0.0000 F8000.0
G0 X92.4659 Y-263.8920 F15000.0
G1 Z11.9000 F8000.0
G1 X93.9966 Y-263.9251 F12000.0
G1 X94.3330 Y-265.3546
G1 X94.0656 Y-265.4305
G1 X92.9763 Y-265.3057
G1 X92.4120 Y-265.7292
G1 X92.2855 Y-266.0205
G1 X92.3009 Y-267.0152
G1 X92.7364 Y-267.6432
G1 X92.9301 Y-267.7436
G1 X93.5854 Y-267.8267
G1 X94.2676 Y-267.4500
G1 X94.0370 Y-267.6925
G1 X93.8453 Y-267.7544
G1 Z0.0000 F8000.0
G0 X96.5123 Y-267.6625 F15000.0
G1 Z11.9000 F8000.0
G1 X96.5980 Y-264.5492 F12000.0
G1 X96.5445 Y-264.3174
G1 X97.1749 Y-264.6063
G1 X97.0269 Y-264.4887
G1 X97.3400 Y-264.7196
G1 Z0.0000 F8000.0
G0 X86.9351 Y-263.7540 F15000.0
G1 Z11.9000 F8000.0
G1 X89.2342 Y-267.6165 F12000.0
G1 Z0.0000 F8000.0
G0 X86.1534 Y-264.5817 F15000.0
G1 Z11.9000 F8000.0
G1 X86.3638 Y-266.1176 F12000.0
G1 X86.0848 Y-266.8981
G1 X85.7988 Y-267.2659
G1 X85.5102 Y-267.4428
G1 X84.7134 Y-267.6819
G1 X83.5416 Y-267.3829
G1 X83.1214 Y-266.9398
G1 X83.4660 Y-267.3169
G1 X83.0066 Y-266.6898
G1 X82.8129 Y-265.8793
G1 X82.9752 Y-264.8233
G1 X83.1833 Y-264.3964
G1 X83.5950 Y-263.9948
G1 X85.1166 Y-263.7761
G1 X85.7375 Y-264.0954
G1 X86.1074 Y-264.4897
G1 Z0.0000 F8000.0
G0 X81.5092 Y-264.8576 F15000.0
G1 Z11.9000 F8000.0
G1 X81.5806 Y-266.1672 F12000.0
G1 X81.4568 Y-266.6259
G1 X81.1731 Y-267.1321
G1 X79.8577 Y-267.6666
G1 X79.2629 Y-267.6073
G1 X78.8887 Y-267.3615
G1 X78.4687 Y-266.7744
G1 X78.8423 Y-267.3866
G1 Z0.0000 F8000.0
G0 X76.0834 Y-267.6165 F15000.0
G1 Z11.9000 F8000.0
G1 X76.1294 Y-263.7540 F12000.0
G1 Z0.0000 F8000.0
G0 X77.5548 Y-263.7540 F15000.0
G1 Z11.9000 F8000.0
G1 X74.6120 Y-263.7540 F12000.0
G1 Z0.0000 F8000.0
G0 X78.5204 Y-264.5357 F15000.0
G1 Z11.9000 F8000.0
G1 X78.6789 Y-264.2252 F12000.0
G1 X78.9312 Y-263.9784
G1 X79.5885 Y-263.7308
G1 X80.8622 Y-263.9844
G1 X81.0875 Y-264.1611
G1 X81.4576 Y-264.7709
G1 X81.3180 Y-264.4750
G1 X81.3713 Y-264.5817
G1 Z0.0000 F8000.0
G0 X61.4310 Y-264.2598 F15000.0
G1 Z11.9000 F8000.0
G1 X60.8463 Y-263.8203 F12000.0
G1 X59.9752 Y-263.8438
G1 X59.7804 Y-263.9418
G1 X59.4442 Y-264.2978
G1 X59.3546 Y-265.0501
G1 X59.6640 Y-265.6369
G1 X59.9172 Y-265.9434
G1 X59.5383 Y-265.4282
G1 X61.1850 Y-267.0818
G1 X61.3597 Y-267.6411
G1 X59.4078 Y-267.6625
G1 Z0.0000 F8000.0
G0 X58.2123 Y-266.3750 F15000.0
G1 Z11.9000 F8000.0
G1 X57.2007 Y-266.3750 F12000.0
G1 Z0.0000 F8000.0
G0 X55.2694 Y-266.8348 F15000.0
G1 Z11.9000 F8000.0
G1 X55.3147 Y-266.8641 F12000.0
G1 X54.1168 Y-264.0310
G1 X54.3484 Y-263.8934
G1 X56.0971 Y-263.8920
G1 Z0.0000 F8000.0
G0 X59.9596 Y-265.9152 F15000.0
G1 Z11.9000 F8000.0
G1 X60.0722 Y-266.1041 F12000.0
G1 X60.9600 Y-266.8439
G1 X61.0631 Y-267.0187
G1 Z0.0000 F8000.0
G0 X63.5462 Y-267.6625 F15000.0
G1 Z11.9000 F8000.0
G1 X63.6319 Y-264.5492 F12000.0
G1 X63.5784 Y-264.3174
G1 X64.2089 Y-264.6063
G1 X64.0609 Y-264.4887
G1 X64.3738 Y-264.7196
G1 Z0.0000 F8000.0
G0 X66.7649 Y-266.5589 F15000.0
G1 Z11.9000 F8000.0
G1 X66.8483 Y-264.4474 F12000.0
G1 X66.7986 Y-264.2264
G1 X67.2193 Y-264.3806
G1 X68.3791 Y-265.9850
G1 X68.5302 Y-266.5414
G1 X66.8324 Y-266.7090
G1 X66.7669 Y-266.8940
G1 X66.7649 Y-267.6625
G1 Z0.0000 F8000.0
G0 X70.4434 Y-267.6625 F15000.0
G1 Z11.9000 F8000.0
G1 X70.9367 Y-264.5125 F12000.0
G1 X70.4880 Y-264.3213
G1 X71.2043 Y-264.6042
G1 X70.9952 Y-264.4438
G1 Z0.0000 F8000.0
G0 X52.0507 Y-267.7544 F15000.0
G1 Z11.9000 F8000.0
G1 X52.2339 Y-267.6595 F12000.0
G1 X52.4783 Y-267.3687
G1 X52.0572 Y-267.7288
G1 X51.6415 Y-267.8257
G1 X51.2056 Y-267.7555
G1 X50.7145 Y-267.3287
G1 X50.3978 Y-266.6341
G1 X50.4149 Y-265.6353
G1 X50.7160 Y-264.2330
G1 X51.2162 Y-263.8200
G1 X51.8682 Y-263.8288
G1 X52.5096 Y-264.4116
G1 X52.6641 Y-265.3852
G1 X52.4254 Y-265.8596
G1 X52.1458 Y-266.1322
G1 X51.7424 Y-266.2569
G1 X51.2034 Y-266.1794
G1 X50.6623 Y-265.9464
G1 X50.8552 Y-266.0071
G1 Z0.0000 F8000.0
G0 X50.6713 Y-267.2946 F15000.0
G1 Z11.9000 F8000.0
G1 X50.9471 Y-267.6625 F12000.0
G1 Z0.0000 F8000.0
G0 X19.4421 Y-263.7390 F15000.0
G1 Z11.9000 F8000.0
G1 X19.6195 Y-264.2743 F12000.0
G1 X20.5513 Y-264.7535
G1 X19.5659 Y-264.3044
G1 X19.4881 Y-267.6015
G1 Z0.0000 F8000.0
G0 X16.9591 Y-267.6475 F15000.0
G1 Z11.9000 F8000.0
G1 X17.3627 Y-267.3120 F12000.0
G1 X16.9054 Y-267.6505
G1 X16.0973 Y-267.6016
G1 X15.6545 Y-267.2426
G1 X15.4174 Y-266.7586
G1 X15.3225 Y-266.1736
G1 X15.4081 Y-265.6754
G1 X15.7636 Y-265.8542
G1 Z0.0000 F8000.0
G0 X17.0051 Y-266.0381 F15000.0
G1 Z11.9000 F8000.0
G1 X17.3250 Y-265.7828 F12000.0
G1 X17.5623 Y-265.3503
G1 X17.4649 Y-265.5783
G1 Z0.0000 F8000.0
G0 X17.5109 Y-264.4747 F15000.0
G1 Z11.9000 F8000.0
G1 X17.0276 Y-263.8820 F12000.0
G1 X17.4688 Y-264.4443
G1 X17.4148 Y-265.6044
G1 X16.9004 Y-266.0804
G1 X16.0844 Y-266.0324
G1 X15.3898 Y-265.6116
G1 X15.4054 Y-264.6803
G1 X15.6445 Y-264.1605
G1 X15.8918 Y-263.9553
G1 X16.5621 Y-263.7619
G1 X16.9591 Y-263.8310
G1 Z0.0000 F8000.0
G0 X14.2922 Y-266.3140 F15000.0
G1 Z11.9000 F8000.0
G1 X13.2228 Y-266.3393 F12000.0
G1 X12.1954 Y-266.9273
G1 X11.9659 Y-267.3222
G1 X11.7200 Y-267.5488
G1 X10.7951 Y-267.6586
G1 X10.4149 Y-267.5019
G1 X10.5815 Y-267.5999
G1 X10.2282 Y-267.3268
G1 X9.9976 Y-266.8491
G1 X10.2516 Y-265.9459
G1 X10.6136 Y-265.5323
G1 Z0.0000 F8000.0
G0 X11.3033 Y-265.7163 F15000.0
G1 Z11.9000 F8000.0
G1 X10.6336 Y-265.5121 F12000.0
G1 X10.3564 Y-265.1720
G1 X10.1800 Y-264.7494
G1 X10.3292 Y-264.1862
G1 X11.1399 Y-263.7696
G1 X11.8565 Y-264.0352
G1 X12.0850 Y-264.4747
G1 Z0.0000 F8000.0
G0 X22.2470 Y-263.8310 F15000.0
G1 Z11.9000 F8000.0
G1 X23.8681 Y-263.8535 F12000.0
G1 X23.9768 Y-264.1222
G1 X24.1101 Y-265.4258
G1 X23.0944 Y-265.2370
G1 X22.6449 Y-265.3825
G1 X22.3829 Y-265.5693
G1 X22.1300 Y-266.0875
G1 X22.2372 Y-267.0323
G1 X22.4325 Y-267.3810
G1 X22.9457 Y-267.6234
G1 X23.5362 Y-267.6743
G1 X23.7367 Y-267.5712
G1 X24.2676 Y-267.0209
G1 X23.9965 Y-267.4397
G1 X23.7285 Y-267.6085
G1 X22.4824 Y-267.4324
G1 X22.3850 Y-267.3256
G1 Z0.0000 F8000.0
G0 X25.3738 Y-266.3140 F15000.0
G1 Z11.9000 F8000.0
G1 X26.4314 Y-266.3140 F12000.0
G1 Z0.0000 F8000.0
G0 X28.7305 Y-267.5555 F15000.0
G1 Z11.9000 F8000.0
G1 X28.7764 Y-263.7850 F12000.0
G1 Z0.0000 F8000.0
G0 X30.2019 Y-263.7850 F15000.0
G1 Z11.9000 F8000.0
G1 X27.3050 Y-263.7850 F12000.0
G1 Z0.0000 F8000.0
G0 X31.3974 Y-267.6015 F15000.0
G1 Z11.9000 F8000.0
G1 X31.4876 Y-263.8208 F12000.0
G1 X33.4354 Y-263.8362
G1 X33.6206 Y-267.2625
G1 X33.7228 Y-267.5046
G1 X34.2023 Y-267.6935
G1 Z0.0000 F8000.0
G0 X169.2729 Y-265.4462 F15000.0
G1 Z11.9000 F8000.0
G1 X169.2729 Y-267.1888 F12000.0
G1 X169.2214 Y-266.3088
G1 X167.9763 Y-266.2806
G1 X167.8969 Y-265.5398
G1 X167.8934 Y-267.3315
G1 Z0.0000 F8000.0
G0 X166.3300 Y-267.3315 F15000.0
G1 Z11.9000 F8000.0
G1 X166.3069 Y-266.7486 F12000.0
G1 X165.8402 Y-266.4443
G1 X165.5023 Y-265.9980
G1 Z0.0000 F8000.0
G0 X166.3300 Y-266.0440 F15000.0
G1 Z11.9000 F8000.0
G1 X166.2594 Y-266.5805 F12000.0
G1 X165.8216 Y-266.8340
G1 X165.9015 Y-266.6090
G1 X165.9027 Y-266.7109
G1 X165.5287 Y-267.2557
G1 X165.0255 Y-266.9009
G1 X164.9405 Y-266.3301
G1 X164.6958 Y-266.0409
G1 X164.7541 Y-266.0870
G1 X164.3824 Y-265.9993
G1 X164.0668 Y-266.1058
G1 X163.9638 Y-266.2881
G1 X163.8751 Y-266.9879
G1 X163.9940 Y-267.1717
G1 X164.4283 Y-267.3414
G1 X164.6382 Y-267.2961
G1 X164.9539 Y-267.0124
G1 X164.8059 Y-267.2289
G1 X164.6285 Y-267.3177
G1 X163.3494 Y-267.2994
G1 X163.2952 Y-266.1229
G1 X163.2531 Y-266.6071
G1 X162.3687 Y-266.7226
G1 X162.2890 Y-267.2321
G1 X162.2524 Y-266.0975
G1 X161.8318 Y-266.0072
G1 X160.7202 Y-265.9980
G1 Z0.0000 F8000.0
G0 X161.2720 Y-265.9980 F15000.0
G1 Z11.9000 F8000.0
G1 X161.1952 Y-267.2752 F12000.0
G1 X160.1794 Y-267.2098
G1 X159.5074 Y-267.3146
G1 X159.2277 Y-267.1050
G1 X159.1329 Y-266.9058
G1 X159.2218 Y-266.2080
G1 X159.4972 Y-266.0622
G1 X160.0634 Y-266.1570
G1 X160.1971 Y-266.9356
G1 X160.1905 Y-267.8404
G1 X159.2028 Y-267.1016
G1 Z0.0000 F8000.0
G0 X169.0333 Y-268.1729 F15000.0
G1 Z11.9000 F8000.0
G1 X168.2486 Y-269.4713 F12000.0
G1 X168.4091 Y-270.0101
G1 X168.5373 Y-270.1125
G1 X168.7278 Y-270.0833
G1 X168.0499 Y-269.3044
G1 X167.4780 Y-268.2597
G1 X167.0405 Y-268.7510
G1 X166.0904 Y-268.7706
G1 Z0.0000 F8000.0
G0 X166.6422 Y-268.7706 F15000.0
G1 Z11.9000 F8000.0
G1 X166.5709 Y-270.0336 F12000.0
G1 X165.5101 Y-269.4297
G1 X164.9173 Y-269.4537
G1 X164.6249 Y-269.5745
G1 X164.6914 Y-269.4251
G1 X164.6900 Y-268.8840
G1 X164.5742 Y-269.6440
G1 X164.6356 Y-269.8416
G1 X164.8443 Y-270.0862
G1 X165.5309 Y-269.5248
G1 X165.5444 Y-269.4354
G1 X164.7570 Y-268.8166
G1 Z0.0000 F8000.0

G0 Z0.0000 F800.0
G4 P0.06
G0 X0.0000 Y0.0000 F15000.0
M5
G4 P0.10
$1=0
