$X
$1=255
G21
G90
G92 Z4.0000
G0 Z0.0000 F800.0
G4 P0.06
G92 Z0.0000
G0 Z0.0000 F800.0
G0 X0.0000 Y0.0000 F15000.0
G21
G90
G17
G91.1
G0 Z0.0000
G0 X0.0000 Y-5.0000 F15000.0
G1 Z11.9000 F8000.0
G1 X180.0000 Y-5.0000 F12000.0
G1 X180.0000 Y-285.0000
G1 X0.0000 Y-285.0000
G1 X0.0000 Y-5.0000
G1 Z0.0000 F8000.0
G0 X70.8081 Y-180.2364 F15000.0
G1 Z11.9000 F8000.0
G1 X70.4986 Y-179.7057 F12000.0
G1 X70.5428 Y-179.3519
G1 X70.9850 Y-178.5558
G1 Z0.0000 F8000.0
G0 X70.8524 Y-177.0963 F15000.0
G1 Z11.9000 F8000.0
G1 X71.3389 Y-176.7425 F12000.0
G1 Z0.0000 F8000.0
G0 X71.6927 Y-176.5214 F15000.0
G1 Z11.9000 F8000.0
G1 X72.4888 Y-175.9906 F12000.0
G1 Z0.0000 F8000.0
G0 X71.8254 Y-176.3002 F15000.0
G1 Z11.9000 F8000.0
G1 X72.0907 Y-175.2388 F12000.0
G1 Z0.0000 F8000.0
G0 X72.2676 Y-175.0176 F15000.0
G1 Z11.9000 F8000.0
G1 X72.5330 Y-174.7523 F12000.0
G1 X73.5502 Y-174.4869
G1 X73.8598 Y-174.7081
G1 Z0.0000 F8000.0
G0 X74.0367 Y-175.0619 F15000.0
G1 Z11.9000 F8000.0
G1 X73.9482 Y-175.8137 F12000.0
G1 Z0.0000 F8000.0
G0 X73.4618 Y-175.3272 F15000.0
G1 Z11.9000 F8000.0
G1 X73.3733 Y-175.4157 F12000.0
G1 Z0.0000 F8000.0
G0 X73.8156 Y-175.1061 F15000.0
G1 Z11.9000 F8000.0
G1 X75.0097 Y-174.2658 F12000.0
G1 Z0.0000 F8000.0
G0 X73.3291 Y-176.6098 F15000.0
G1 Z11.9000 F8000.0
G1 X72.7541 Y-176.8752 F12000.0
G1 X72.1349 Y-176.7425
G1 Z0.0000 F8000.0
G0 X73.2406 Y-178.7327 F15000.0
G1 Z11.9000 F8000.0
G1 X71.6042 Y-180.2806 F12000.0
G1 X71.0735 Y-180.3691
G1 Z0.0000 F8000.0
G0 X72.4445 Y-181.1652 F15000.0
G1 Z11.9000 F8000.0
G1 X73.2848 Y-180.6787 F12000.0
G1 X73.9040 Y-180.4575
G1 X73.9925 Y-182.2708
G1 Z0.0000 F8000.0
G0 X72.9310 Y-182.0939 F15000.0
G1 Z11.9000 F8000.0
G1 X73.9040 Y-181.7844 F12000.0
G1 X73.9925 Y-181.6074
G1 X75.0097 Y-181.2536
G1 Z0.0000 F8000.0
G0 X75.0097 Y-178.8654 F15000.0
G1 Z11.9000 F8000.0
G1 X74.9212 Y-177.1848 F12000.0
G1 X74.7001 Y-177.2732
G1 Z0.0000 F8000.0
G0 X67.7986 Y-179.0229 F15000.0
G1 Z11.9000 F8000.0
G1 X55.6064 Y-179.0229 F12000.0
G1 Z0.0000 F8000.0
G0 X54.1236 Y-179.0229 F15000.0
G1 Z11.9000 F8000.0
G1 X52.5584 Y-179.0229 F12000.0
G1 Z0.0000 F8000.0
G0 X51.0755 Y-179.0229 F15000.0
G1 Z11.9000 F8000.0
G1 X38.8833 Y-179.0229 F12000.0
G1 Z0.0000 F8000.0
G0 X37.4005 Y-179.0229 F15000.0
G1 Z11.9000 F8000.0
G1 X35.8353 Y-179.0229 F12000.0
G1 Z0.0000 F8000.0
G0 X34.3524 Y-179.0229 F15000.0
G1 Z11.9000 F8000.0
G1 X22.1602 Y-179.0229 F12000.0
G1 Z0.0000 F8000.0
G0 X20.7597 Y-179.0229 F15000.0
G1 Z11.9000 F8000.0
G1 X19.1121 Y-179.0229 F12000.0
G1 X19.1121 Y-155.6270 F12000.0
G1 X26.9382 Y-155.6270 F12000.0
G1 X65.8215 Y-155.6270 F12000.0
G1 X65.8215 Y-202.3364 F12000.0
G1 X26.9382 Y-202.3364 F12000.0
G1 X19.1121 Y-202.3364 F12000.0
G1 X19.1121 Y-206.2082 F12000.0
G1 X11.3684 Y-206.2082 F12000.0
G1 X11.3684 Y-193.6041 F12000.0
G1 X7.4142 Y-193.6041 F12000.0
G1 X7.4142 Y-191.6270 F12000.0
G1 X7.4142 Y-179.0229 F12000.0
G1 X7.4142 Y-166.3364 F12000.0
G1 X7.4142 Y-164.3593 F12000.0
G1 X11.3684 Y-164.3593 F12000.0
G1 X11.3684 Y-151.7551 F12000.0
G1 X19.1121 Y-151.7551 F12000.0
G1 X19.1121 Y-155.6270 F12000.0
G1 Z0.0000 F8000.0
G0 X19.1121 Y-151.7551 F15000.0
G1 Z11.9000 F8000.0
G1 X19.1121 Y-131.1602 F12000.0
G1 Z0.0000 F8000.0
G0 X19.1121 Y-133.0549 F15000.0
G1 Z11.9000 F8000.0
G1 X14.2517 Y-132.4783 F12000.0
G1 X14.7460 Y-133.0549 F12000.0
G1 X14.2517 Y-133.7140 F12000.0
G1 X19.1121 Y-133.0549 F12000.0
G1 X7.4142 Y-133.0549 F12000.0
G1 X12.2746 Y-133.7140 F12000.0
G1 X11.7803 Y-133.0549 F12000.0
G1 X12.2746 Y-132.4783 F12000.0
G1 X7.4142 Y-133.0549 F12000.0
G1 Z0.0000 F8000.0
G0 X9.4066 Y-132.8078 F15000.0
G1 Z11.9000 F8000.0
G1 X10.2823 Y-132.8078 F12000.0
G1 Z0.0000 F8000.0
G0 X10.6118 Y-133.3844 F15000.0
G1 Z11.9000 F8000.0
G1 X9.7361 Y-133.3844 F12000.0
G1 Z0.0000 F8000.0
G0 X11.8608 Y-135.8882 F15000.0
G1 Z11.9000 F8000.0
G1 X11.6838 Y-136.4631 F12000.0
G1 Z0.0000 F8000.0
G0 X11.8165 Y-136.8169 F15000.0
G1 Z11.9000 F8000.0
G1 X11.9492 Y-137.2150 F12000.0
G1 Z0.0000 F8000.0
G0 X12.1261 Y-137.7015 F15000.0
G1 Z11.9000 F8000.0
G1 X12.2146 Y-137.9668 F12000.0
G1 Z0.0000 F8000.0
G0 X12.8337 Y-138.9840 F15000.0
G1 Z11.9000 F8000.0
G1 X12.4357 Y-138.2322 F12000.0
G1 X13.8952 Y-138.0553
G1 Z0.0000 F8000.0
G0 X14.0279 Y-137.9226 F15000.0
G1 Z11.9000 F8000.0
G1 X13.9394 Y-136.9496 F12000.0
G1 X13.6298 Y-136.2420
G1 X13.0991 Y-135.7997
G1 X11.9934 Y-135.7997
G1 Z0.0000 F8000.0
G0 X13.5856 Y-139.7359 F15000.0
G1 Z11.9000 F8000.0
G1 X14.3817 Y-140.1782 F12000.0
G1 Z0.0000 F8000.0
G0 X11.3684 Y-142.6110 F15000.0
G1 Z11.9000 F8000.0
G1 X11.3684 Y-151.7551 F12000.0
G1 Z0.0000 F8000.0
G0 X11.3684 Y-144.5881 F15000.0
G1 Z11.9000 F8000.0
G1 X6.4256 Y-145.2471 F12000.0
G1 X6.9199 Y-144.5881 F12000.0
G1 X6.4256 Y-143.9291 F12000.0
G1 X11.3684 Y-144.5881 F12000.0
G1 X4.5309 Y-144.5881 F12000.0
G1 Z0.0000 F8000.0
G0 X8.2121 Y-144.9176 F15000.0
G1 Z11.9000 F8000.0
G1 X9.0878 Y-144.9176 F12000.0
G1 Z0.0000 F8000.0
G0 X9.3761 Y-144.2998 F15000.0
G1 Z11.9000 F8000.0
G1 X8.5004 Y-144.2998 F12000.0
G1 Z0.0000 F8000.0
G0 X11.3684 Y-144.5881 F15000.0
G1 Z11.9000 F8000.0
G1 X19.1121 Y-144.5881 F12000.0
G1 X23.9726 Y-143.9291 F12000.0
G1 X23.4783 Y-144.5881 F12000.0
G1 X23.9726 Y-145.2471 F12000.0
G1 X19.1121 Y-144.5881 F12000.0
G1 X25.9497 Y-144.5881 F12000.0
G1 Z0.0000 F8000.0
G0 X24.0549 Y-144.5881 F15000.0
G1 Z11.9000 F8000.0
G1 X32.7872 Y-144.5881 F12000.0
G1 Z0.0000 F8000.0
G0 X29.1020 Y-148.3304 F15000.0
G1 Z11.9000 F8000.0
G1 X28.4386 Y-148.2862 F12000.0
G1 X28.7482 Y-149.3034
G1 Z0.0000 F8000.0
G0 X28.1290 Y-150.3649 F15000.0
G1 Z11.9000 F8000.0
G1 X27.1118 Y-148.5958 F12000.0
G1 X27.0676 Y-148.3304
G1 X28.2175 Y-148.2420
G1 X28.1732 Y-147.8882
G1 X27.9521 Y-147.3575
G1 Z0.0000 F8000.0
G0 X28.4386 Y-150.9398 F15000.0
G1 Z11.9000 F8000.0
G1 X28.8809 Y-151.7359 F12000.0
G1 Z0.0000 F8000.0
G0 X34.6819 Y-151.7551 F15000.0
G1 Z11.9000 F8000.0
G1 X34.0229 Y-156.6156 F12000.0
G1 X34.6819 Y-156.1213 F12000.0
G1 X35.2586 Y-156.6156 F12000.0
G1 X34.6819 Y-151.7551 F12000.0
G1 X34.6819 Y-206.2082 F12000.0
G1 X35.2586 Y-201.3478 F12000.0
G1 X34.6819 Y-201.8421 F12000.0
G1 X34.0229 Y-201.3478 F12000.0
G1 X34.6819 Y-206.2082 F12000.0
G1 Z0.0000 F8000.0
G0 X36.5767 Y-206.2082 F15000.0
G1 Z11.9000 F8000.0
G1 X19.1121 Y-206.2082 F12000.0
G1 Z0.0000 F8000.0
G0 X19.1121 Y-203.9840 F15000.0
G1 Z11.9000 F8000.0
G1 X16.8879 Y-206.2082 F12000.0
G1 Z0.0000 F8000.0
G0 X12.7689 Y-206.2082 F15000.0
G1 Z11.9000 F8000.0
G1 X25.4554 Y-193.6041 F12000.0
G1 Z0.0000 F8000.0
G0 X29.5744 Y-193.6041 F15000.0
G1 Z11.9000 F8000.0
G1 X20.7597 Y-202.3364 F12000.0
G1 Z0.0000 F8000.0
G0 X24.8787 Y-202.3364 F15000.0
G1 Z11.9000 F8000.0
G1 X33.6934 Y-193.6041 F12000.0
G1 Z0.0000 F8000.0
G0 X37.8124 Y-193.6041 F15000.0
G1 Z11.9000 F8000.0
G1 X29.0801 Y-202.3364 F12000.0
G1 Z0.0000 F8000.0
G0 X33.1991 Y-202.3364 F15000.0
G1 Z11.9000 F8000.0
G1 X41.9314 Y-193.6041 F12000.0
G1 Z0.0000 F8000.0
G0 X46.0504 Y-193.6041 F15000.0
G1 Z11.9000 F8000.0
G1 X37.3181 Y-202.3364 F12000.0
G1 Z0.0000 F8000.0
G0 X34.9703 Y-203.3814 F15000.0
G1 Z11.9000 F8000.0
G1 X34.9703 Y-204.2571 F12000.0
G1 Z0.0000 F8000.0
G0 X34.3936 Y-203.9687 F15000.0
G1 Z11.9000 F8000.0
G1 X34.3936 Y-203.0930 F12000.0
G1 Z0.0000 F8000.0
G0 X41.4371 Y-202.3364 F15000.0
G1 Z11.9000 F8000.0
G1 X50.1693 Y-193.6041 F12000.0
G1 Z0.0000 F8000.0
G0 X54.2883 Y-193.6041 F15000.0
G1 Z11.9000 F8000.0
G1 X45.5561 Y-202.3364 F12000.0
G1 Z0.0000 F8000.0
G0 X49.6751 Y-202.3364 F15000.0
G1 Z11.9000 F8000.0
G1 X58.4073 Y-193.6041 F12000.0
G1 Z0.0000 F8000.0
G0 X62.6087 Y-193.6041 F15000.0
G1 Z11.9000 F8000.0
G1 X53.7941 Y-202.3364 F12000.0
G1 Z0.0000 F8000.0
G0 X57.9131 Y-202.3364 F15000.0
G1 Z11.9000 F8000.0
G1 X65.4920 Y-194.7574 F12000.0
G1 Z0.0000 F8000.0
G0 X65.8215 Y-195.0869 F15000.0
G1 Z11.9000 F8000.0
G1 X64.3387 Y-193.6041 F12000.0
G1 X11.3684 Y-193.6041 F12000.0
G1 X11.3684 Y-179.0229 F12000.0
G1 Z0.0000 F8000.0
G0 X5.5195 Y-179.0229 F15000.0
G1 Z11.9000 F8000.0
G1 X17.7117 Y-179.0229 F12000.0
G1 Z0.0000 F8000.0
G0 X27.5847 Y-177.8518 F15000.0
G1 Z11.9000 F8000.0
G1 X27.5404 Y-178.5152 F12000.0
G1 X27.6731 Y-178.7363
G1 X28.2923 Y-179.0017
G1 X28.7346 Y-178.8690
G1 Z0.0000 F8000.0
G0 X28.4692 Y-180.0189 F15000.0
G1 Z11.9000 F8000.0
G1 X29.3980 Y-179.9747 F12000.0
G1 Z0.0000 F8000.0
G0 X29.8402 Y-179.6209 F15000.0
G1 Z11.9000 F8000.0
G1 X29.5306 Y-180.0632 F12000.0
G1 X29.3980 Y-181.1246
G1 X29.2653 Y-181.3015
G1 X28.2481 Y-181.8322
G1 X27.5404 Y-181.5226
G1 X27.6289 Y-180.7708
G1 Z0.0000 F8000.0
G0 X27.8500 Y-180.4612 F15000.0
G1 Z11.9000 F8000.0
G1 X27.9385 Y-180.3727 F12000.0
G1 Z0.0000 F8000.0
G0 X29.4422 Y-181.0804 F15000.0
G1 Z11.9000 F8000.0
G1 X29.5306 Y-180.9919 F12000.0
G1 X29.7518 Y-181.1246
G1 X30.8575 Y-181.0804
G1 X31.4324 Y-180.8150
G1 X31.6978 Y-180.5497
G1 Z0.0000 F8000.0
G0 X31.9189 Y-180.1958 F15000.0
G1 Z11.9000 F8000.0
G1 X32.0074 Y-179.7978 F12000.0
G1 X31.8304 Y-179.0017
G1 Z0.0000 F8000.0
G0 X31.7420 Y-178.9133 F15000.0
G1 Z11.9000 F8000.0
G1 X31.6093 Y-178.8248 F12000.0
G1 X30.1941 Y-179.2671
G1 X30.1056 Y-179.3555
G1 Z0.0000 F8000.0
G0 X30.1941 Y-177.4095 F15000.0
G1 Z11.9000 F8000.0
G1 X31.9189 Y-175.8616 F12000.0
G1 X32.0074 Y-177.5422
G1 Z0.0000 F8000.0
G0 X31.9631 Y-175.8174 F15000.0
G1 Z11.9000 F8000.0
G1 X32.0074 Y-175.6847 F12000.0
G1 Z0.0000 F8000.0
G0 X27.9385 Y-177.2769 F15000.0
G1 Z11.9000 F8000.0
G1 X27.7616 Y-177.4980 F12000.0
G1 Z0.0000 F8000.0
G0 X21.2540 Y-193.6041 F15000.0
G1 Z11.9000 F8000.0
G1 X11.3684 Y-203.5721 F12000.0
G1 Z0.0000 F8000.0
G0 X11.3684 Y-199.3707 F15000.0
G1 Z11.9000 F8000.0
G1 X17.1350 Y-193.6041 F12000.0
G1 Z0.0000 F8000.0
G0 X13.0160 Y-193.6041 F15000.0
G1 Z11.9000 F8000.0
G1 X11.3684 Y-195.2517 F12000.0
G1 Z0.0000 F8000.0
G0 X10.8742 Y-171.0320 F15000.0
G1 Z11.9000 F8000.0
G1 X11.2861 Y-170.7025 F12000.0
G1 X11.3684 Y-170.2082 F12000.0
G1 X11.3684 Y-164.3593 F12000.0
G1 Z0.0000 F8000.0
G0 X7.4142 Y-164.3593 F15000.0
G1 Z11.9000 F8000.0
G1 X7.4142 Y-125.6407 F12000.0
G1 Z0.0000 F8000.0
G0 X7.4142 Y-127.5355 F15000.0
G1 Z11.9000 F8000.0
G1 X12.2746 Y-128.1945 F12000.0
G1 X11.7803 Y-127.5355 F12000.0
G1 X12.2746 Y-126.8764 F12000.0
G1 X7.4142 Y-127.5355 F12000.0
G1 X65.8215 Y-127.5355 F12000.0
G1 X60.9611 Y-126.8764 F12000.0
G1 X61.4554 Y-127.5355 F12000.0
G1 X60.9611 Y-128.1945 F12000.0
G1 X65.8215 Y-127.5355 F12000.0
G1 Z0.0000 F8000.0
G0 X65.8215 Y-125.6407 F15000.0
G1 Z11.9000 F8000.0
G1 X65.8215 Y-155.6270 F12000.0
G1 X79.6613 Y-155.6270 F12000.0
G1 Z0.0000 F8000.0
G0 X77.6842 Y-155.6270 F15000.0
G1 Z11.9000 F8000.0
G1 X77.0252 Y-160.4874 F12000.0
G1 X77.6842 Y-159.9931 F12000.0
G1 X78.3433 Y-160.4874 F12000.0
G1 X77.6842 Y-155.6270 F12000.0
G1 X77.6842 Y-202.3364 F12000.0
G1 X78.3433 Y-197.4760 F12000.0
G1 X77.6842 Y-197.9702 F12000.0
G1 X77.0252 Y-197.4760 F12000.0
G1 X77.6842 Y-202.3364 F12000.0
G1 Z0.0000 F8000.0
G0 X79.6613 Y-202.3364 F15000.0
G1 Z11.9000 F8000.0
G1 X65.8215 Y-202.3364 F12000.0
G1 Z0.0000 F8000.0
G0 X65.8215 Y-198.5469 F15000.0
G1 Z11.9000 F8000.0
G1 X62.0320 Y-202.3364 F12000.0
G1 Z0.0000 F8000.0
G0 X64.3387 Y-193.6041 F15000.0
G1 Z11.9000 F8000.0
G1 X64.3387 Y-179.0229 F12000.0
G1 Z0.0000 F8000.0
G0 X83.2037 Y-179.0229 F15000.0
G1 Z11.9000 F8000.0
G1 X93.0892 Y-179.0229 F12000.0
G1 Z0.0000 F8000.0
G0 X94.5721 Y-179.0229 F15000.0
G1 Z11.9000 F8000.0
G1 X95.9725 Y-179.0229 F12000.0
G1 Z0.0000 F8000.0
G0 X97.4554 Y-179.0229 F15000.0
G1 Z11.9000 F8000.0
G1 X107.3410 Y-179.0229 F12000.0
G1 Z0.0000 F8000.0
G0 X106.5172 Y-179.0229 F15000.0
G1 Z11.9000 F8000.0
G1 X106.3524 Y-180.5881 F12000.0
G1 X105.9405 Y-182.0709 F12000.0
G1 X105.1167 Y-183.4714 F12000.0
G1 X104.0458 Y-184.7071 F12000.0
G1 X102.8101 Y-185.6956 F12000.0
G1 X101.3272 Y-186.3547 F12000.0
G1 X99.7620 Y-186.6842 F12000.0
G1 X98.1968 Y-186.7666 F12000.0
G1 X96.6316 Y-186.4371 F12000.0
G1 X95.1487 Y-185.8604 F12000.0
G1 X93.8307 Y-184.9542 F12000.0
G1 X92.6773 Y-183.8009 F12000.0
G1 X91.8535 Y-182.4828 F12000.0
G1 X91.2769 Y-181.0000 F12000.0
G1 X91.0298 Y-179.4348 F12000.0
G1 X91.1121 Y-177.7872 F12000.0
G1 X91.4417 Y-176.2220 F12000.0
G1 X92.1831 Y-174.8215 F12000.0
G1 X93.1716 Y-173.5858 F12000.0
G1 X94.4073 Y-172.5149 F12000.0
G1 X95.8078 Y-171.7735 F12000.0
G1 X97.3730 Y-171.3616 F12000.0
G1 X98.9382 Y-171.1968 F12000.0
G1 X100.5034 Y-171.3616 F12000.0
G1 X102.0687 Y-171.9382 F12000.0
G1 X103.3867 Y-172.7620 F12000.0
G1 X104.6224 Y-173.8329 F12000.0
G1 X105.5286 Y-175.1510 F12000.0
G1 X106.1876 Y-176.5515 F12000.0
G1 X106.5172 Y-178.1167 F12000.0
G1 X106.5172 Y-179.0229 F12000.0
G1 Z0.0000 F8000.0
G0 X105.6110 Y-180.4233 F15000.0
G1 Z11.9000 F8000.0
G1 X105.9405 Y-183.3066 F12000.0
G1 X106.5995 Y-186.1075 F12000.0
G1 X107.5881 Y-188.8261 F12000.0
G1 X108.8238 Y-191.3799 F12000.0
G1 X110.3890 Y-193.8512 F12000.0
G1 X112.2014 Y-196.0755 F12000.0
G1 X114.3432 Y-198.1350 F12000.0
G1 X116.5675 Y-199.8650 F12000.0
G1 X119.0389 Y-201.3478 F12000.0
G1 X121.6751 Y-202.5835 F12000.0
G1 X122.4165 Y-202.8307 F12000.0
G1 X125.1350 Y-203.6545 F12000.0
G1 X128.0183 Y-204.1487 F12000.0
G1 X130.9016 Y-204.3135 F12000.0
G1 X133.7849 Y-204.1487 F12000.0
G1 X136.5858 Y-203.6545 F12000.0
G1 X139.3867 Y-202.8307 F12000.0
G1 X140.0458 Y-202.5835 F12000.0
G1 X167.9725 Y-191.7094 F12000.0
G1 Z0.0000 F8000.0
G0 X167.3959 Y-191.8741 F15000.0
G1 Z11.9000 F8000.0
G1 X169.2906 Y-191.0503 F12000.0
G1 X171.1030 Y-189.8970 F12000.0
G1 X172.6682 Y-188.5789 F12000.0
G1 X174.0686 Y-186.9313 F12000.0
G1 X175.1396 Y-185.1190 F12000.0
G1 X175.9634 Y-183.1419 F12000.0
G1 X176.4577 Y-181.0824 F12000.0
G1 X176.6224 Y-179.0229 F12000.0
G1 X176.6224 Y-125.6407 F12000.0
G1 Z0.0000 F8000.0
G0 X176.6224 Y-127.5355 F15000.0
G1 Z11.9000 F8000.0
G1 X171.7620 Y-126.8764 F12000.0
G1 X172.2563 Y-127.5355 F12000.0
G1 X171.7620 Y-128.1945 F12000.0
G1 X176.6224 Y-127.5355 F12000.0
G1 X85.1808 Y-127.5355 F12000.0
G1 X90.0412 Y-128.1945 F12000.0
G1 X89.5469 Y-127.5355 F12000.0
G1 X90.0412 Y-126.8764 F12000.0
G1 X85.1808 Y-127.5355 F12000.0
G1 Z0.0000 F8000.0
G0 X85.1808 Y-125.6407 F15000.0
G1 Z11.9000 F8000.0
G1 X85.1808 Y-179.0229 F12000.0
G1 Z0.0000 F8000.0
G0 X85.1808 Y-179.4348 F15000.0
G1 Z11.9000 F8000.0
G1 X85.3455 Y-181.4943 F12000.0
G1 X85.9222 Y-183.5538 F12000.0
G1 X86.8284 Y-185.4485 F12000.0
G1 X87.9817 Y-187.2609 F12000.0
G1 X89.3822 Y-188.8261 F12000.0
G1 X91.0298 Y-190.1442 F12000.0
G1 X92.8421 Y-191.2151 F12000.0
G1 X94.8192 Y-192.0389 F12000.0
G1 X96.8787 Y-192.4508 F12000.0
G1 X98.9382 Y-192.6156 F12000.0
G1 X101.0801 Y-192.3684 F12000.0
G1 X103.1396 Y-191.8741 F12000.0
G1 X105.1167 Y-191.0503 F12000.0
G1 X106.8467 Y-189.8970 F12000.0
G1 X108.4943 Y-188.5789 F12000.0
G1 X109.8124 Y-186.9313 F12000.0
G1 X110.9657 Y-185.1190 F12000.0
G1 X111.7071 Y-183.1419 F12000.0
G1 X112.2014 Y-181.0824 F12000.0
G1 X112.3661 Y-179.0229 F12000.0
G1 X112.3661 Y-178.1991 F12000.0
G1 X112.1190 Y-176.0572 F12000.0
G1 X111.4600 Y-174.0801 F12000.0
G1 X110.5538 Y-172.1030 F12000.0
G1 X109.3181 Y-170.3730 F12000.0
G1 X107.9176 Y-168.8902 F12000.0
G1 X106.1876 Y-167.5721 F12000.0
G1 X104.3753 Y-166.5835 F12000.0
G1 X102.3158 Y-165.8421 F12000.0
G1 X100.2563 Y-165.4302 F12000.0
G1 X98.1968 Y-165.3478 F12000.0
G1 X96.0549 Y-165.6773 F12000.0
G1 X93.9954 Y-166.2540 F12000.0
G1 X92.1007 Y-167.0778 F12000.0
G1 X90.3707 Y-168.3135 F12000.0
G1 X88.8055 Y-169.7140 F12000.0
G1 X87.4874 Y-171.3616 F12000.0
G1 X86.4165 Y-173.2563 F12000.0
G1 X85.6751 Y-175.2334 F12000.0
G1 X85.2632 Y-177.2929 F12000.0
G1 X85.1808 Y-179.4348 F12000.0
G1 Z0.0000 F8000.0
G0 X98.7735 Y-179.0229 F15000.0
G1 Z11.9000 F8000.0
G1 X98.7735 Y-136.7620 F12000.0
G1 Z0.0000 F8000.0
G0 X98.7735 Y-138.6568 F15000.0
G1 Z11.9000 F8000.0
G1 X103.6339 Y-139.3158 F12000.0
G1 X103.1396 Y-138.6568 F12000.0
G1 X103.6339 Y-138.0801 F12000.0
G1 X98.7735 Y-138.6568 F12000.0
G1 X163.0297 Y-138.6568 F12000.0
G1 X158.0869 Y-138.0801 F12000.0
G1 X158.5812 Y-138.6568 F12000.0
G1 X158.0869 Y-139.3158 F12000.0
G1 X163.0297 Y-138.6568 F12000.0
G1 Z0.0000 F8000.0
G0 X163.0297 Y-136.7620 F15000.0
G1 Z11.9000 F8000.0
G1 X163.0297 Y-179.0229 F12000.0
G1 Z0.0000 F8000.0
G0 X164.3478 Y-179.0229 F15000.0
G1 Z11.9000 F8000.0
G1 X154.4622 Y-179.0229 F12000.0
G1 Z0.0000 F8000.0
G0 X155.2037 Y-179.4348 F15000.0
G1 Z11.9000 F8000.0
G1 X155.4508 Y-181.0000 F12000.0
G1 X156.0275 Y-182.4828 F12000.0
G1 X156.9336 Y-183.8009 F12000.0
G1 X158.0046 Y-184.9542 F12000.0
G1 X159.3226 Y-185.8604 F12000.0
G1 X160.8055 Y-186.4371 F12000.0
G1 X162.3707 Y-186.7666 F12000.0
G1 X164.0183 Y-186.6842 F12000.0
G1 X165.5835 Y-186.3547 F12000.0
G1 X166.9840 Y-185.6956 F12000.0
G1 X168.3020 Y-184.7071 F12000.0
G1 X169.3730 Y-183.4714 F12000.0
G1 X170.1144 Y-182.0709 F12000.0
G1 X170.6087 Y-180.5881 F12000.0
G1 X170.7734 Y-179.0229 F12000.0
G1 X170.6911 Y-178.1167 F12000.0
G1 X170.3615 Y-176.5515 F12000.0
G1 X169.7849 Y-175.1510 F12000.0
G1 X168.7963 Y-173.8329 F12000.0
G1 X167.6430 Y-172.7620 F12000.0
G1 X166.2426 Y-171.9382 F12000.0
G1 X164.7597 Y-171.3616 F12000.0
G1 X163.1945 Y-171.1968 F12000.0
G1 X161.5469 Y-171.3616 F12000.0
G1 X160.0641 Y-171.7735 F12000.0
G1 X158.6636 Y-172.5149 F12000.0
G1 X157.4279 Y-173.5858 F12000.0
G1 X156.4393 Y-174.8215 F12000.0
G1 X155.6979 Y-176.2220 F12000.0
G1 X155.2860 Y-177.7872 F12000.0
G1 X155.2037 Y-179.4348 F12000.0
G1 Z0.0000 F8000.0
G0 X152.9794 Y-179.0229 F15000.0
G1 Z11.9000 F8000.0
G1 X151.4966 Y-179.0229 F12000.0
G1 Z0.0000 F8000.0
G0 X150.0961 Y-179.0229 F15000.0
G1 Z11.9000 F8000.0
G1 X140.2105 Y-179.0229 F12000.0
G1 Z0.0000 F8000.0
G0 X138.7277 Y-179.0229 F15000.0
G1 Z11.9000 F8000.0
G1 X137.2448 Y-179.0229 F12000.0
G1 Z0.0000 F8000.0
G0 X135.8444 Y-179.0229 F15000.0
G1 Z11.9000 F8000.0
G1 X130.9016 Y-179.0229 F12000.0
G1 X130.9016 Y-175.3158 F12000.0
G1 Z0.0000 F8000.0
G0 X130.9016 Y-173.8329 F15000.0
G1 Z11.9000 F8000.0
G1 X130.9016 Y-172.3501 F12000.0
G1 Z0.0000 F8000.0
G0 X130.9016 Y-170.9497 F15000.0
G1 Z11.9000 F8000.0
G1 X130.9016 Y-163.5355 F12000.0
G1 Z0.0000 F8000.0
G0 X130.9016 Y-162.0526 F15000.0
G1 Z11.9000 F8000.0
G1 X130.9016 Y-160.5698 F12000.0
G1 Z0.0000 F8000.0
G0 X130.9016 Y-159.1693 F15000.0
G1 Z11.9000 F8000.0
G1 X130.9016 Y-151.7551 F12000.0
G1 Z0.0000 F8000.0
G0 X130.9016 Y-153.6499 F15000.0
G1 Z11.9000 F8000.0
G1 X128.0183 Y-153.8146 F12000.0
G1 X125.1350 Y-154.3089 F12000.0
G1 X122.4165 Y-155.1327 F12000.0
G1 X121.6751 Y-155.3799 F12000.0
G1 X93.8307 Y-166.3364 F12000.0
G1 Z0.0000 F8000.0
G0 X98.7735 Y-174.2448 F15000.0
G1 Z11.9000 F8000.0
G1 X98.7735 Y-183.7185 F12000.0
G1 Z0.0000 F8000.0
G0 X98.7735 Y-185.1190 F15000.0
G1 Z11.9000 F8000.0
G1 X98.7735 Y-186.6018 F12000.0
G1 Z0.0000 F8000.0
G0 X98.7735 Y-188.0847 F15000.0
G1 Z11.9000 F8000.0
G1 X98.7735 Y-197.4760 F12000.0
G1 Z0.0000 F8000.0
G0 X93.8307 Y-191.7094 F15000.0
G1 Z11.9000 F8000.0
G1 X121.6751 Y-202.5835 F12000.0
G1 Z0.0000 F8000.0
G0 X130.9016 Y-206.2082 F15000.0
G1 Z11.9000 F8000.0
G1 X130.9016 Y-198.7940 F12000.0
G1 Z0.0000 F8000.0
G0 X130.9016 Y-197.3936 F15000.0
G1 Z11.9000 F8000.0
G1 X130.9016 Y-195.9107 F12000.0
G1 Z0.0000 F8000.0
G0 X130.9016 Y-194.4279 F15000.0
G1 Z11.9000 F8000.0
G1 X130.9016 Y-187.0961 F12000.0
G1 Z0.0000 F8000.0
G0 X130.9016 Y-185.6133 F15000.0
G1 Z11.9000 F8000.0
G1 X130.9016 Y-184.1304 F12000.0
G1 Z0.0000 F8000.0
G0 X130.9016 Y-182.6476 F15000.0
G1 Z11.9000 F8000.0
G1 X130.9016 Y-179.0229 F12000.0
G1 X125.9588 Y-179.0229 F12000.0
G1 Z0.0000 F8000.0
G0 X124.4760 Y-179.0229 F15000.0
G1 Z11.9000 F8000.0
G1 X122.9931 Y-179.0229 F12000.0
G1 Z0.0000 F8000.0
G0 X121.5927 Y-179.0229 F15000.0
G1 Z11.9000 F8000.0
G1 X111.7071 Y-179.0229 F12000.0
G1 Z0.0000 F8000.0
G0 X110.2243 Y-179.0229 F15000.0
G1 Z11.9000 F8000.0
G1 X108.7414 Y-179.0229 F12000.0
G1 Z0.0000 F8000.0
G0 X105.6110 Y-180.4233 F15000.0
G1 Z11.9000 F8000.0
G1 X105.6110 Y-177.5400 F12000.0
G1 X105.9405 Y-174.6567 F12000.0
G1 X106.5995 Y-171.8558 F12000.0
G1 X107.5881 Y-169.1373 F12000.0
G1 X108.8238 Y-166.5835 F12000.0
G1 X110.3890 Y-164.1121 F12000.0
G1 X112.2014 Y-161.8879 F12000.0
G1 X114.2609 Y-159.9108 F12000.0
G1 X116.5675 Y-158.0984 F12000.0
G1 X119.0389 Y-156.6156 F12000.0
G1 X121.6751 Y-155.4622 F12000.0
G1 X122.5812 Y-155.0503 F12000.0
G1 Z0.0000 F8000.0
G0 X120.7689 Y-155.7918 F15000.0
G1 Z11.9000 F8000.0
G1 X114.3432 Y-141.1281 F12000.0
G1 Z0.0000 F8000.0
G0 X112.8395 Y-144.6747 F15000.0
G1 Z11.9000 F8000.0
G1 X112.3972 Y-145.1170 F12000.0
G1 Z0.0000 F8000.0
G0 X111.9107 Y-145.5592 F15000.0
G1 Z11.9000 F8000.0
G1 X111.6011 Y-145.9573 F12000.0
G1 Z0.0000 F8000.0
G0 X111.0262 Y-146.3996 F15000.0
G1 Z11.9000 F8000.0
G1 X111.5569 Y-146.0015 F12000.0
G1 X111.9550 Y-146.6649
G1 X112.0434 Y-147.1514
G1 X112.0434 Y-147.8148
G1 X111.9550 Y-148.1244
G1 X111.6896 Y-148.4340
G1 Z0.0000 F8000.0
G0 X111.4685 Y-148.6551 F15000.0
G1 Z11.9000 F8000.0
G1 X111.2031 Y-148.9205 F12000.0
G1 Z0.0000 F8000.0
G0 X110.9820 Y-149.0974 F15000.0
G1 Z11.9000 F8000.0
G1 X110.4955 Y-149.1416 F12000.0
G1 Z0.0000 F8000.0
G0 X110.2301 Y-148.9205 F15000.0
G1 Z11.9000 F8000.0
G1 X109.8763 Y-148.2129 F12000.0
G1 X109.7436 Y-147.6379
G1 Z0.0000 F8000.0
G0 X110.0974 Y-147.2841 F15000.0
G1 Z11.9000 F8000.0
G1 X110.5397 Y-146.8418 F12000.0
G1 Z0.0000 F8000.0
G0 X112.0434 Y-146.6649 F15000.0
G1 Z11.9000 F8000.0
G1 X113.8125 Y-146.3111 F12000.0
G1 Z0.0000 F8000.0
G0 X114.7855 Y-147.9475 F15000.0
G1 Z11.9000 F8000.0
G1 X114.4759 Y-148.3455 F12000.0
G1 Z0.0000 F8000.0
G0 X114.2548 Y-148.5224 F15000.0
G1 Z11.9000 F8000.0
G1 X113.8567 Y-148.9205 F12000.0
G1 Z0.0000 F8000.0
G0 X113.3702 Y-149.3628 F15000.0
G1 Z11.9000 F8000.0
G1 X113.1933 Y-149.5397 F12000.0
G1 Z0.0000 F8000.0
G0 X112.5741 Y-150.1146 F15000.0
G1 Z11.9000 F8000.0
G1 X112.4857 Y-150.2031 F12000.0
G1 Z0.0000 F8000.0
G0 X111.9550 Y-150.6896 F15000.0
G1 Z11.9000 F8000.0
G1 X111.5569 Y-150.9107 F12000.0
G1 X111.2473 Y-151.4414
G1 Z0.0000 F8000.0
G0 X111.4242 Y-150.6896 F15000.0
G1 Z11.9000 F8000.0
G1 X111.6896 Y-149.5397 F12000.0
G1 Z0.0000 F8000.0
G0 X113.5471 Y-151.1318 F15000.0
G1 Z11.9000 F8000.0
G1 X113.6356 Y-151.7068 F12000.0
G1 Z0.0000 F8000.0
G0 X113.4587 Y-152.3260 F15000.0
G1 Z11.9000 F8000.0
G1 X113.6356 Y-151.7510 F12000.0
G1 X114.6528 Y-151.4856
G1 Z0.0000 F8000.0
G0 X114.9182 Y-151.2203 F15000.0
G1 Z11.9000 F8000.0
G1 X115.1393 Y-150.9991 F12000.0
G1 Z0.0000 F8000.0
G0 X115.3604 Y-150.7780 F15000.0
G1 Z11.9000 F8000.0
G1 X115.5373 Y-150.2915 F12000.0
G1 X115.4489 Y-149.7166
G1 X115.1835 Y-149.1416
G1 X115.1393 Y-148.7436
G1 Z0.0000 F8000.0
G0 X113.2375 Y-152.5913 F15000.0
G1 Z11.9000 F8000.0
G1 X112.8837 Y-152.9009 F12000.0
G1 X112.1319 Y-153.0778
G1 Z0.0000 F8000.0
G0 X111.9992 Y-152.9451 F15000.0
G1 Z11.9000 F8000.0
G1 X111.6896 Y-152.1933 F12000.0
G1 Z0.0000 F8000.0
G0 X120.7689 Y-155.7918 F15000.0
G1 Z11.9000 F8000.0
G1 X122.0870 Y-160.4874 F12000.0
G1 X122.4989 Y-159.8284 F12000.0
G1 X123.3227 Y-159.9931 F12000.0
G1 X120.7689 Y-155.7918 F12000.0
G1 X130.9016 Y-179.0229 F12000.0
G1 Z0.0000 F8000.0
G0 X126.6178 Y-184.2952 F15000.0
G1 Z11.9000 F8000.0
G1 X122.7460 Y-187.4256 F12000.0
G1 X98.7735 Y-212.3043 F12000.0
G1 X84.5217 Y-212.3043 F12000.0
G1 Z0.0000 F8000.0
G0 X87.3556 Y-214.9350 F15000.0
G1 Z11.9000 F8000.0
G1 X87.7536 Y-215.4215 F12000.0
G1 Z0.0000 F8000.0
G0 X87.9747 Y-215.7753 F15000.0
G1 Z11.9000 F8000.0
G1 X88.3286 Y-216.2618 F12000.0
G1 Z0.0000 F8000.0
G0 X88.1959 Y-215.9522 F15000.0
G1 Z11.9000 F8000.0
G1 X88.9477 Y-215.9964 F12000.0
G1 X89.5227 Y-216.3945
G1 X89.8323 Y-216.7483
G1 Z0.0000 F8000.0
G0 X89.9650 Y-217.0579 F15000.0
G1 Z11.9000 F8000.0
G1 X90.0092 Y-217.6770 F12000.0
G1 Z0.0000 F8000.0
G0 X89.9207 Y-217.8097 F15000.0
G1 Z11.9000 F8000.0
G1 X89.8323 Y-217.8982 F12000.0
G1 Z0.0000 F8000.0
G0 X89.6554 Y-218.1635 F15000.0
G1 Z11.9000 F8000.0
G1 X90.2745 Y-219.1365 F12000.0
G1 Z0.0000 F8000.0
G0 X89.5227 Y-218.1193 F15000.0
G1 Z11.9000 F8000.0
G1 X89.4785 Y-218.1635 F12000.0
G1 X88.4170 Y-217.8982
G1 Z0.0000 F8000.0
G0 X87.9305 Y-217.4117 F15000.0
G1 Z11.9000 F8000.0
G1 X87.6652 Y-216.8367 F12000.0
G1 X87.8421 Y-216.1733
G1 Z0.0000 F8000.0
G0 X91.1097 Y-215.0103 F15000.0
G1 Z11.9000 F8000.0
G1 X92.5692 Y-219.0792 F12000.0
G1 X92.8346 Y-219.4330
G1 Z0.0000 F8000.0
G0 X92.5250 Y-219.1234 F15000.0
G1 Z11.9000 F8000.0
G1 X92.2154 Y-219.0349 F12000.0
G1 Z0.0000 F8000.0
G0 X91.4635 Y-218.5484 F15000.0
G1 Z11.9000 F8000.0
G1 X91.2866 Y-218.3715 F12000.0
G1 Z0.0000 F8000.0
G0 X93.7191 Y-219.0349 F15000.0
G1 Z11.9000 F8000.0
G1 X93.9402 Y-219.2118 F12000.0
G1 Z0.0000 F8000.0
G0 X94.2941 Y-219.3887 F15000.0
G1 Z11.9000 F8000.0
G1 X94.9575 Y-219.4330 F12000.0
G1 X95.1786 Y-219.3003
G1 X95.4440 Y-218.8580
G1 X95.2671 Y-218.1946
G1 Z0.0000 F8000.0
G0 X93.8076 Y-216.7351 F15000.0
G1 Z11.9000 F8000.0
G1 X92.3039 Y-215.0545 F12000.0
G1 X91.9943 Y-214.9218
G1 Z0.0000 F8000.0
G0 X92.3039 Y-215.0545 F15000.0
G1 Z11.9000 F8000.0
G1 X93.9845 Y-214.9661 F12000.0
G1 Z0.0000 F8000.0
G0 X78.0137 Y-200.3852 F15000.0
G1 Z11.9000 F8000.0
G1 X78.0137 Y-199.5095 F12000.0
G1 Z0.0000 F8000.0
G0 X77.3959 Y-199.2212 F15000.0
G1 Z11.9000 F8000.0
G1 X77.3959 Y-200.0969 F12000.0
G1 Z0.0000 F8000.0
G0 X77.3959 Y-158.8246 F15000.0
G1 Z11.9000 F8000.0
G1 X77.3959 Y-157.9489 F12000.0
G1 Z0.0000 F8000.0
G0 X78.0137 Y-157.6605 F15000.0
G1 Z11.9000 F8000.0
G1 X78.0137 Y-158.5362 F12000.0
G1 Z0.0000 F8000.0
G0 X101.0953 Y-138.9863 F15000.0
G1 Z11.9000 F8000.0
G1 X101.9710 Y-138.9863 F12000.0
G1 Z0.0000 F8000.0
G0 X101.6415 Y-138.4096 F15000.0
G1 Z11.9000 F8000.0
G1 X100.7658 Y-138.4096 F12000.0
G1 Z0.0000 F8000.0
G0 X88.3784 Y-127.8650 F15000.0
G1 Z11.9000 F8000.0
G1 X87.5027 Y-127.8650 F12000.0
G1 Z0.0000 F8000.0
G0 X87.1731 Y-127.2471 F15000.0
G1 Z11.9000 F8000.0
G1 X88.0488 Y-127.2471 F12000.0
G1 Z0.0000 F8000.0
G0 X63.8703 Y-127.2471 F15000.0
G1 Z11.9000 F8000.0
G1 X62.9947 Y-127.2471 F12000.0
G1 Z0.0000 F8000.0
G0 X62.7063 Y-127.8650 F15000.0
G1 Z11.9000 F8000.0
G1 X63.5820 Y-127.8650 F12000.0
G1 Z0.0000 F8000.0
G0 X39.4492 Y-134.3094 F15000.0
G1 Z11.9000 F8000.0
G1 X39.0954 Y-132.9826 F12000.0
G1 Z0.0000 F8000.0
G0 X38.9627 Y-132.6288 F15000.0
G1 Z11.9000 F8000.0
G1 X38.9185 Y-132.4961 F12000.0
G1 Z0.0000 F8000.0
G0 X38.7858 Y-132.1423 F15000.0
G1 Z11.9000 F8000.0
G1 X38.4320 Y-131.1251 F12000.0
G1 X38.2109 Y-130.7271
G1 Z0.0000 F8000.0
G0 X37.9455 Y-130.4617 F15000.0
G1 Z11.9000 F8000.0
G1 X37.2379 Y-130.1963 F12000.0
G1 X36.3533 Y-131.3020
G1 Z0.0000 F8000.0
G0 X36.4418 Y-131.5231 F15000.0
G1 Z11.9000 F8000.0
G1 X37.4590 Y-134.0883 F12000.0
G1 X37.8570 Y-134.4863
G1 X39.2281 Y-134.6190
G1 Z0.0000 F8000.0
G0 X36.2649 Y-134.4863 F15000.0
G1 Z11.9000 F8000.0
G1 X36.3533 Y-134.3094 F12000.0
G1 X36.0880 Y-133.4691
G1 X35.5572 Y-132.7173
G1 Z0.0000 F8000.0
G0 X35.1592 Y-132.6288 F15000.0
G1 Z11.9000 F8000.0
G1 X35.4688 Y-132.6288 F12000.0
G1 X35.7341 Y-131.7885
G1 X35.6899 Y-131.7001
G1 Z0.0000 F8000.0
G0 X35.5572 Y-131.3905 F15000.0
G1 Z11.9000 F8000.0
G1 X35.2919 Y-130.7713 F12000.0
G1 X35.0265 Y-130.5059
G1 X34.4958 Y-130.2406
G1 X33.3017 Y-130.1079
G1 Z0.0000 F8000.0
G0 X35.1592 Y-134.7075 F15000.0
G1 Z11.9000 F8000.0
G1 X36.0880 Y-134.6190 F12000.0
G1 Z0.0000 F8000.0
G0 X21.9802 Y-144.2998 F15000.0
G1 Z11.9000 F8000.0
G1 X21.1045 Y-144.2998 F12000.0
G1 Z0.0000 F8000.0
G0 X21.4340 Y-144.9176 F15000.0
G1 Z11.9000 F8000.0
G1 X22.3097 Y-144.9176 F12000.0
G1 Z0.0000 F8000.0
G0 X19.1121 Y-151.7551 F15000.0
G1 Z11.9000 F8000.0
G1 X36.5767 Y-151.7551 F12000.0
G1 Z0.0000 F8000.0
G0 X34.9703 Y-153.7887 F15000.0
G1 Z11.9000 F8000.0
G1 X34.9703 Y-154.6644 F12000.0
G1 Z0.0000 F8000.0
G0 X34.3936 Y-154.9527 F15000.0
G1 Z11.9000 F8000.0
G1 X34.3936 Y-154.0770 F12000.0
G1 Z0.0000 F8000.0
G0 X16.8726 Y-133.3844 F15000.0
G1 Z11.9000 F8000.0
G1 X15.9970 Y-133.3844 F12000.0
G1 Z0.0000 F8000.0
G0 X16.2853 Y-132.8078 F15000.0
G1 Z11.9000 F8000.0
G1 X17.1610 Y-132.8078 F12000.0
G1 Z0.0000 F8000.0
G0 X10.6118 Y-127.8650 F15000.0
G1 Z11.9000 F8000.0
G1 X9.7361 Y-127.8650 F12000.0
G1 Z0.0000 F8000.0
G0 X9.4066 Y-127.2471 F15000.0
G1 Z11.9000 F8000.0
G1 X10.2823 Y-127.2471 F12000.0
G1 Z0.0000 F8000.0
G0 X6.8375 Y-58.9131 F15000.0
G1 Z11.9000 F8000.0
G1 X6.8375 Y-34.6110 F12000.0
G1 Z0.0000 F8000.0
G0 X7.0322 Y-33.7740 F15000.0
G1 Z11.9000 F8000.0
G1 X6.9835 Y-33.6767 F12000.0
G1 Z0.0000 F8000.0
G0 X6.0105 Y-33.6281 F15000.0
G1 Z11.9000 F8000.0
G1 X6.6090 Y-33.4656 F12000.0
G1 X6.9537 Y-33.6738
G1 X7.0534 Y-33.8835
G1 X6.9541 Y-34.6183
G1 X6.7913 Y-34.7864
G1 X6.3112 Y-34.7830
G1 X6.0347 Y-34.5866
G1 X5.9619 Y-32.8497
G1 Z0.0000 F8000.0
G0 X4.5997 Y-33.4821 F15000.0
G1 Z11.9000 F8000.0
G1 X4.9537 Y-33.5084 F12000.0
G1 X5.2593 Y-33.6790
G1 X5.1374 Y-34.0914
G1 X4.9895 Y-34.1613
G1 X5.1659 Y-34.2345
G1 X5.2064 Y-34.6867
G1 X4.9093 Y-34.8190
G1 X4.6829 Y-34.7871
G1 X4.5024 Y-34.6011
G1 Z0.0000 F8000.0
G0 X3.7240 Y-34.7957 F15000.0
G1 Z11.9000 F8000.0
G1 X3.8463 Y-34.3069 F12000.0
G1 X3.8469 Y-33.5404
G1 X3.5339 Y-33.6381
G1 X3.1633 Y-34.0785
G1 X3.7874 Y-34.1648
G1 X3.9082 Y-33.5007
G1 X3.0396 Y-33.4782
G1 X2.9063 Y-33.9705
G1 X3.0307 Y-34.0547
G1 X2.8451 Y-33.6594
G1 X2.9294 Y-34.5656
G1 X3.6267 Y-34.8443
G1 Z0.0000 F8000.0
G0 X2.3132 Y-34.7470 F15000.0
G1 Z11.9000 F8000.0
G1 X2.2216 Y-35.1175 F12000.0
G1 X1.0302 Y-35.3861
G1 X0.9447 Y-35.2305
G1 X0.9053 Y-33.5713
G1 X1.0077 Y-34.3380
G1 X2.2645 Y-34.6497
G1 Z0.0000 F8000.0
G0 X0.0000 Y-34.6110 F15000.0
G1 Z11.9000 F8000.0
G1 X63.2677 Y-34.6110 F12000.0
G1 Z0.0000 F8000.0
G0 X61.3329 Y-36.7023 F15000.0
G1 Z11.9000 F8000.0
G1 X61.2824 Y-36.6252 F12000.0
G1 X60.9984 Y-36.5812
G1 X61.0648 Y-36.6541
G1 Z0.0000 F8000.0
G0 X61.2816 Y-37.3549 F15000.0
G1 Z11.9000 F8000.0
G1 X61.3474 Y-36.6094 F12000.0
G1 X60.3198 Y-36.5687
G1 X60.1327 Y-36.8465
G1 X60.3872 Y-37.2479
G1 X61.2813 Y-37.5499
G1 X61.2491 Y-37.8853
G1 X60.9553 Y-38.0884
G1 X60.4653 Y-38.0569
G1 X60.2930 Y-37.9560
G1 X60.3350 Y-38.0163
G1 Z0.0000 F8000.0
G0 X59.6540 Y-38.0650 F15000.0
G1 Z11.9000 F8000.0
G1 X58.6492 Y-38.0623 F12000.0
G1 X58.4294 Y-37.9866
G1 X57.9675 Y-37.4165
G1 X57.9578 Y-36.6936
G1 X57.1985 Y-36.5360
G1 X56.9629 Y-36.5688
G1 X56.7759 Y-36.8465
G1 X57.1354 Y-37.3017
G1 X57.8557 Y-37.4793
G1 X57.9366 Y-37.7767
G1 X57.8111 Y-37.9723
G1 X57.5985 Y-38.0884
G1 X57.1085 Y-38.0569
G1 X56.9361 Y-37.9560
G1 X56.9782 Y-38.0163
G1 Z0.0000 F8000.0
G0 X59.0215 Y-38.0650 F15000.0
G1 Z11.9000 F8000.0
G1 X59.0702 Y-36.6055 F12000.0
G1 Z0.0000 F8000.0
G0 X54.8377 Y-38.7461 F15000.0
G1 Z11.9000 F8000.0
G1 X55.8761 Y-38.6868 F12000.0
G1 X55.9716 Y-36.6351
G1 X56.1225 Y-36.5474
G1 X56.1820 Y-36.1239
G1 X55.8424 Y-36.5848
G1 X54.6102 Y-36.6260
G1 X54.3136 Y-36.1157
G1 X54.3171 Y-36.4289
G1 X54.5878 Y-36.7915
G1 X54.6894 Y-37.1528
G1 X54.7890 Y-38.6488
G1 Z0.0000 F8000.0
G0 X49.2865 Y-36.9298 F15000.0
G1 Z11.9000 F8000.0
G1 X49.2072 Y-38.2124 F12000.0
G1 X48.2633 Y-36.9441
G1 X47.7139 Y-36.5114
G1 X47.5586 Y-36.8775
G1 X46.5107 Y-36.9283
G1 X47.3807 Y-36.9077
G1 X47.4543 Y-36.9689
G1 X47.3954 Y-38.2060
G1 X46.5014 Y-37.0417
G1 X46.2428 Y-36.5750
G1 X46.2703 Y-36.8811
G1 Z0.0000 F8000.0
G0 X45.7838 Y-38.0974 F15000.0
G1 Z11.9000 F8000.0
G1 X45.5674 Y-38.2400 F12000.0
G1 X45.7428 Y-37.9999
G1 X45.8491 Y-37.2640
G1 X45.6728 Y-36.9892
G1 X45.7160 Y-37.0621
G1 X45.3069 Y-36.9132
G1 X44.9611 Y-36.9921
G1 X44.8081 Y-37.1641
G1 X44.6905 Y-37.5151
G1 X44.9079 Y-38.1448
G1 X45.4919 Y-38.2920
G1 Z0.0000 F8000.0
G0 X44.0324 Y-36.9298 F15000.0
G1 Z11.9000 F8000.0
G1 X43.9278 Y-38.7791 F12000.0
G1 X42.5729 Y-36.9298
G1 Z0.0000 F8000.0
G0 X34.5082 Y-36.5338 F15000.0
G1 Z11.9000 F8000.0
G1 X34.3498 Y-37.4550 F12000.0
G1 X34.3794 Y-37.8143
G1 X34.1258 Y-37.5532
G1 X33.8991 Y-36.9142
G1 X34.0281 Y-37.3307
G1 X33.6914 Y-36.6984
G1 X33.8481 Y-36.8372
G1 X33.9963 Y-37.2386
G1 X33.6660 Y-36.7443
G1 X33.0367 Y-37.7423
G1 X33.1669 Y-37.6071
G1 X32.9255 Y-37.6175
G1 X32.8259 Y-36.5536
G1 X32.6352 Y-36.5128
G1 X31.6516 Y-36.6630
G1 X31.0541 Y-37.8960
G1 Z0.0000 F8000.0
G0 X30.6163 Y-38.1392 F15000.0
G1 Z11.9000 F8000.0
G1 X31.0174 Y-37.9527 F12000.0
G1 X30.9953 Y-37.8981
G1 X30.4582 Y-37.9739
G1 Z0.0000 F8000.0
G0 X30.4217 Y-38.0419 F15000.0
G1 Z11.9000 F8000.0
G1 X29.9079 Y-37.3857 F12000.0
G1 X29.5460 Y-37.9933
G1 Z0.0000 F8000.0
G0 X30.0008 Y-37.4039 F15000.0
G1 Z11.9000 F8000.0
G1 X29.5802 Y-37.2167 F12000.0
G1 X29.5668 Y-36.5604
G1 X30.0119 Y-37.1416
G1 X30.9841 Y-35.9171
G1 X31.1605 Y-35.8070
G1 X31.4522 Y-35.9718
G1 X31.5847 Y-36.5690
G1 X31.8436 Y-36.9362
G1 X32.2703 Y-38.0419
G1 Z0.0000 F8000.0
G0 X27.6000 Y-37.7014 F15000.0
G1 Z11.9000 F8000.0
G1 X27.9870 Y-38.0419 F12000.0
G1 X28.3563 Y-38.0691
G1 X28.5549 Y-37.9578
G1 X28.8290 Y-37.0028
G1 X28.7664 Y-36.7797
G1 X28.5353 Y-36.4941
G1 X28.3092 Y-36.4197
G1 X27.6537 Y-36.7215
G1 X27.5625 Y-36.9445
G1 X27.5513 Y-37.6041
G1 Z0.0000 F8000.0
G0 X26.7729 Y-36.5338 F15000.0
G1 Z11.9000 F8000.0
G1 X26.9468 Y-36.3845 F12000.0
G1 X27.0162 Y-35.9500
G1 Z0.0000 F8000.0
G0 X25.3135 Y-35.9500 F15000.0
G1 Z11.9000 F8000.0
G1 X25.3621 Y-36.4365 F12000.0
G1 Z0.0000 F8000.0
G0 X25.8486 Y-38.0419 F15000.0
G1 Z11.9000 F8000.0
G1 X26.7729 Y-36.5338 F12000.0
G1 X25.3621 Y-36.4365
G1 X25.5567 Y-36.7284
G1 X25.8486 Y-38.0419
G1 Z0.0000 F8000.0
G0 X23.8905 Y-37.2635 F15000.0
G1 Z11.9000 F8000.0
G1 X23.9627 Y-37.4967 F12000.0
G1 X23.8667 Y-37.9891
G1 X23.3762 Y-38.1340
G1 X23.7258 Y-38.1115
G1 X23.8531 Y-38.0128
G1 X23.1657 Y-37.9823
G1 X23.1522 Y-37.3051
G1 X23.8548 Y-36.6452
G1 X23.8385 Y-37.2178
G1 X23.4743 Y-37.1102
G1 X23.3067 Y-37.1662
G1 Z0.0000 F8000.0
G0 X22.5283 Y-38.6257 F15000.0
G1 Z11.9000 F8000.0
G1 X22.4906 Y-36.9600 F12000.0
G1 X22.4003 Y-36.7401
G1 X22.1252 Y-36.9200
G1 X21.5721 Y-37.8089
G1 X21.0741 Y-38.2770
G1 X20.9735 Y-38.0344
G1 X20.9715 Y-36.4851
G1 Z0.0000 F8000.0
G0 X21.1107 Y-33.0887 F15000.0
G1 Z11.9000 F8000.0
G1 X20.7335 Y-32.0970 F12000.0
G1 X20.8036 Y-32.2262
G1 X20.6249 Y-32.0133
G1 X20.4934 Y-31.4411
G1 X20.3553 Y-31.2467
G1 X20.2027 Y-31.1878
G1 X20.5189 Y-32.0103
G1 X20.4321 Y-32.1380
G1 Z0.0000 F8000.0
G0 X20.8171 Y-32.3197 F15000.0
G1 Z11.9000 F8000.0
G1 X20.4535 Y-32.1925 F12000.0
G1 X20.0271 Y-33.1581
G1 X19.5877 Y-33.3443
G1 X19.2628 Y-33.6451
G1 X18.5532 Y-33.7383
G1 X18.1860 Y-33.5339
G1 X18.3780 Y-33.7017
G1 X18.1133 Y-33.3952
G1 X17.9470 Y-32.8080
G1 X17.9795 Y-32.5730
G1 X18.2497 Y-31.9957
G1 Z0.0000 F8000.0
G0 X18.3920 Y-31.9008 F15000.0
G1 Z11.9000 F8000.0
G1 X18.9595 Y-31.7996 F12000.0
G1 X19.3817 Y-32.0162
G1 X19.3087 Y-31.9434
G1 X19.5307 Y-32.2804
G1 Z0.0000 F8000.0
G0 X19.5930 Y-30.7423 F15000.0
G1 Z11.9000 F8000.0
G1 X20.1114 Y-29.6187 F12000.0
G1 X20.1860 Y-29.5994
G1 X20.3382 Y-29.7468
G1 X20.7088 Y-30.6599
G1 X21.2570 Y-30.5877
G1 X21.8491 Y-30.7027
G1 X22.0807 Y-30.3485
G1 X21.9260 Y-30.6753
G1 X22.0339 Y-30.1406
G1 X21.9904 Y-30.0534
G1 X21.7820 Y-30.0125
G1 X22.0155 Y-29.8905
G1 X22.1027 Y-29.4425
G1 X21.7937 Y-29.3049
G1 X21.3782 Y-29.3912
G1 X21.4904 Y-29.3314
G1 Z0.0000 F8000.0
G0 X20.2255 Y-29.5747 F15000.0
G1 Z11.9000 F8000.0
G1 X20.0410 Y-28.9597 F12000.0
G1 X19.7650 Y-28.7037
G1 X19.9716 Y-28.8326
G1 X19.9336 Y-28.6990
G1 Z0.0000 F8000.0
G0 X18.9119 Y-29.3314 F15000.0
G1 Z11.9000 F8000.0
G1 X18.8440 Y-31.2917 F12000.0
G1 X17.4038 Y-29.3801
G1 Z0.0000 F8000.0
G0 X21.6657 Y-32.5650 F15000.0
G1 Z11.9000 F8000.0
G1 X22.4854 Y-32.4528 F12000.0
G1 X22.5819 Y-32.1177
G1 X22.5671 Y-31.8534
G1 Z0.0000 F8000.0
G0 X22.5671 Y-33.0395 F15000.0
G1 Z11.9000 F8000.0
G1 X22.4925 Y-33.1201 F12000.0
G1 X22.6576 Y-32.0816
G1 X22.6578 Y-32.1922
G1 X22.6269 Y-31.9493
G1 X22.3977 Y-31.8437
G1 X21.7045 Y-32.4779
G1 X21.7864 Y-32.6594
G1 X22.4672 Y-33.1505
G1 X23.2796 Y-33.0145
G1 X23.8963 Y-33.1651
G1 X23.3901 Y-32.9920
G1 X23.2198 Y-32.5433
G1 X23.2325 Y-32.3097
G1 X23.3846 Y-31.9861
G1 X23.6904 Y-31.8319
G1 X24.1410 Y-31.9680
G1 X24.3390 Y-32.2438
G1 X24.2128 Y-32.9542
G1 X24.0715 Y-33.1323
G1 X24.3129 Y-33.0291
G1 X24.8824 Y-33.1365
G1 X24.9857 Y-32.8543
G1 X24.9446 Y-31.3223
G1 X25.0105 Y-31.9210
G1 X25.5365 Y-31.8362
G1 X25.8473 Y-31.9464
G1 X26.0103 Y-32.3224
G1 X25.9236 Y-32.9270
G1 X25.6772 Y-33.1550
G1 X25.4391 Y-33.1519
G1 X24.9867 Y-32.9920
G1 Z0.0000 F8000.0
G0 X24.2751 Y-32.0431 F15000.0
G1 Z11.9000 F8000.0
G1 X24.0853 Y-31.8534 F12000.0
G1 Z0.0000 F8000.0
G0 X24.6039 Y-30.6936 F15000.0
G1 Z11.9000 F8000.0
G1 X24.6039 Y-29.3314 F12000.0
G1 Z0.0000 F8000.0
G0 X22.9012 Y-29.3314 F15000.0
G1 Z11.9000 F8000.0
G1 X23.8457 Y-29.4547 F12000.0
G1 X23.9376 Y-30.1187
G1 X25.6336 Y-29.9753
G1 X25.7172 Y-29.4362
G1 X25.7562 Y-30.6360
G1 X25.9514 Y-30.7002
G1 X27.2060 Y-30.7115
G1 X27.4720 Y-30.5053
G1 X27.5943 Y-30.1692
G1 X27.4667 Y-29.5630
G1 X27.2775 Y-29.3521
G1 X26.9148 Y-29.3021
G1 X26.7025 Y-29.4008
G1 X26.4015 Y-29.7930
G1 X26.3863 Y-30.2599
G1 X26.5871 Y-30.5939
G1 X26.4194 Y-30.3032
G1 X26.4514 Y-29.6789
G1 X26.5416 Y-29.4743
G1 X26.7445 Y-29.3314
G1 Z0.0000 F8000.0
G0 X28.2040 Y-30.0612 F15000.0
G1 Z11.9000 F8000.0
G1 X29.2536 Y-29.7713 F12000.0
G1 X28.9677 Y-29.3452
G1 X28.2489 Y-29.9647
G1 X28.3245 Y-30.1438
G1 X29.0378 Y-30.6347
G1 X29.1249 Y-30.6229
G1 X29.2014 Y-30.4265
G1 X29.1697 Y-29.9644
G1 X29.3050 Y-29.8837
G1 X30.1007 Y-30.6333
G1 X30.7103 Y-30.7124
G1 X30.9806 Y-30.4917
G1 X30.9641 Y-30.1795
G1 X30.1391 Y-29.9677
G1 X29.8944 Y-29.6591
G1 X29.9456 Y-29.4434
G1 X30.2534 Y-29.3098
G1 X30.9686 Y-29.4719
G1 X31.0257 Y-30.1585
G1 Z0.0000 F8000.0
G0 X30.7778 Y-31.8534 F15000.0
G1 Z11.9000 F8000.0
G1 X31.9840 Y-31.8412 F12000.0
G1 X32.0383 Y-31.9196
G1 X31.9879 Y-33.6762
G1 X30.8652 Y-31.9864
G1 X30.6048 Y-31.4195
G1 X30.7026 Y-31.7808
G1 X32.0320 Y-31.8428
G1 X32.2232 Y-31.7554
G1 X32.2960 Y-31.3315
G1 Z0.0000 F8000.0
G0 X33.9565 Y-31.9957 F15000.0
G1 Z11.9000 F8000.0
G1 X33.8480 Y-32.1132 F12000.0
G1 X33.6585 Y-32.6901
G1 X33.8627 Y-33.5117
G1 X34.2290 Y-33.7343
G1 X34.9413 Y-33.6590
G1 X35.1854 Y-33.2978
G1 X35.1890 Y-32.2026
G1 X35.0261 Y-31.9572
G1 X34.5633 Y-31.7881
G1 X34.0989 Y-31.9008
G1 Z0.0000 F8000.0
G0 X29.2092 Y-31.8534 F15000.0
G1 Z11.9000 F8000.0
G1 X29.2991 Y-32.1262 F12000.0
G1 X29.2474 Y-32.3533
G1 X28.9593 Y-32.5242
G1 X28.2441 Y-32.5000
G1 X27.4538 Y-31.8534
G1 Z0.0000 F8000.0
G0 X27.6436 Y-32.9920 F15000.0
G1 Z11.9000 F8000.0
G1 X27.4254 Y-33.1380 F12000.0
G1 X27.6269 Y-32.8084
G1 X27.7103 Y-32.3246
G1 X27.6546 Y-32.1127
G1 X27.2617 Y-31.8550
G1 X27.0260 Y-31.8394
G1 X26.8149 Y-31.9375
G1 X26.5941 Y-32.3430
G1 X26.6868 Y-32.9151
G1 X26.8046 Y-33.0505
G1 X27.3589 Y-33.1818
G1 Z0.0000 F8000.0
G0 X29.0669 Y-33.1818 F15000.0
G1 Z11.9000 F8000.0
G1 X28.3473 Y-32.5218 F12000.0
G1 X28.4500 Y-32.3396
G1 X28.9960 Y-31.8600
G1 X29.1004 Y-31.8454
G1 X29.3236 Y-32.0690
G1 X29.2092 Y-33.0395
G1 Z0.0000 F8000.0
G0 X22.9012 Y-30.6450 F15000.0
G1 Z11.9000 F8000.0
G1 X23.5261 Y-30.7150 F12000.0
G1 X23.7356 Y-30.6119
G1 X23.8589 Y-30.4115
G1 X23.8355 Y-30.1953
G1 X23.1348 Y-30.0196
G1 X22.7632 Y-29.7205
G1 X22.7524 Y-29.5594
G1 X22.9985 Y-30.0125
G1 Z0.0000 F8000.0
G0 X14.3694 Y-36.6704 F15000.0
G1 Z11.9000 F8000.0
G1 X14.3208 Y-38.0326 F12000.0
G1 Z0.0000 F8000.0
G0 X14.8559 Y-38.0326 F15000.0
G1 Z11.9000 F8000.0
G1 X13.0674 Y-37.9914 F12000.0
G1 X12.4959 Y-37.7658
G1 X12.3917 Y-37.2966
G1 X12.4578 Y-36.9420
G1 X12.9832 Y-36.6595
G1 X13.3836 Y-36.8306
G1 X13.3478 Y-36.7677
G1 Z0.0000 F8000.0
G0 X11.7424 Y-36.6704 F15000.0
G1 Z11.9000 F8000.0
G1 X11.5659 Y-37.6688 F12000.0
G1 X11.3268 Y-37.4909
G1 X10.9797 Y-36.9938
G1 X10.8329 Y-36.9311
G1 X10.9307 Y-36.9836
G1 X10.7395 Y-37.0044
G1 X10.6721 Y-37.9839
G1 Z0.0000 F8000.0
G0 X11.5478 Y-37.7407 F15000.0
G1 Z11.9000 F8000.0
G1 X11.6994 Y-37.8903 F12000.0
G1 X11.1046 Y-37.1771
G1 X10.5732 Y-36.8567
G1 X9.9979 Y-36.7203
G1 X9.8765 Y-38.5222
G1 X9.8166 Y-38.5904
G1 X8.8720 Y-38.6164
G1 Z0.0000 F8000.0
G0 X8.8234 Y-38.5191 F15000.0
G1 Z11.9000 F8000.0
G1 X8.7731 Y-36.8402 F12000.0
G1 X8.6933 Y-36.6474
G1 X8.5315 Y-36.5731
G1 Z0.0000 F8000.0
G0 X10.5836 Y-35.4768 F15000.0
G1 Z11.9000 F8000.0
G1 X9.6173 Y-35.2891 F12000.0
G1 X9.4924 Y-35.1482
G1 X9.3992 Y-34.8069
G1 X9.4899 Y-33.7655
G1 X9.6343 Y-33.5729
G1 X9.9705 Y-33.4726
G1 X10.3237 Y-33.5917
G1 X10.5022 Y-33.7469
G1 X10.5565 Y-33.9754
G1 X10.3751 Y-34.6918
G1 X10.1723 Y-34.8043
G1 X9.8054 Y-34.8052
G1 X9.5413 Y-34.6749
G1 X10.2082 Y-34.7658
G1 X10.4049 Y-34.6748
G1 X10.4834 Y-34.4761
G1 X10.4376 Y-33.6281
G1 Z0.0000 F8000.0
G0 X8.7349 Y-33.4821 F15000.0
G1 Z11.9000 F8000.0
G1 X8.6209 Y-33.6613 F12000.0
G1 X8.6682 Y-34.2704
G1 X8.5311 Y-34.7407
G1 X8.3403 Y-34.8017
G1 X7.7749 Y-34.5888
G1 X7.6683 Y-33.7499
G1 X7.7411 Y-33.5371
G1 X7.9521 Y-33.4574
G1 X8.7254 Y-33.4945
G1 X8.6082 Y-34.1567
G1 X7.9771 Y-34.0853
G1 X8.4327 Y-33.5833
G1 X8.5890 Y-33.5794
G1 Z0.0000 F8000.0
G0 X6.2009 Y-36.6704 F15000.0
G1 Z11.9000 F8000.0
G1 X6.0898 Y-37.6477 F12000.0
G1 X5.8790 Y-37.5132
G1 X5.5110 Y-36.7663
G1 X4.8497 Y-37.7274
G1 X4.7488 Y-36.7520
G1 X4.7498 Y-37.6480
G1 X3.4042 Y-37.8453
G1 X3.6421 Y-38.0124
G1 X3.9859 Y-37.9376
G1 X4.0303 Y-37.4951
G1 X3.8251 Y-37.3522
G1 X3.9809 Y-37.2610
G1 X4.1049 Y-36.9371
G1 X4.0720 Y-36.8517
G1 X3.6407 Y-36.6576
G1 X2.6675 Y-36.6995
G1 X2.5824 Y-36.8839
G1 X2.4756 Y-38.1372
G1 X2.5614 Y-38.4000
G1 X2.0595 Y-37.8634
G1 X2.2524 Y-38.1163
G1 X1.5503 Y-37.1432
G1 X1.2391 Y-36.8376
G1 X1.1413 Y-38.5677
G1 Z0.0000 F8000.0
G0 X0.0000 Y-39.4714 F15000.0
G1 Z11.9000 F8000.0
G1 X63.2677 Y-39.4714 F12000.0
G1 Z0.0000 F8000.0
G0 X63.2677 Y-44.3318 F15000.0
G1 Z11.9000 F8000.0
G1 X0.0000 Y-44.3318 F12000.0
G1 Z0.0000 F8000.0
G0 X0.0000 Y-49.1922 F15000.0
G1 Z11.9000 F8000.0
G1 X63.2677 Y-49.1922 F12000.0
G1 Z0.0000 F8000.0
G0 X63.2677 Y-44.3318 F15000.0
G1 Z11.9000 F8000.0
G1 X180.0000 Y-44.3318 F12000.0
G1 Z0.0000 F8000.0
G0 X178.0591 Y-43.6779 F15000.0
G1 Z11.9000 F8000.0
G1 X176.9660 Y-43.3808 F12000.0
G1 X176.7468 Y-43.0607
G1 X176.7453 Y-42.7254
G1 X177.7972 Y-42.7511
G1 X178.0533 Y-42.3572
G1 X178.0890 Y-42.1113
G1 X178.0186 Y-41.8944
G1 X177.2979 Y-41.2470
G1 X177.0255 Y-41.4300
G1 X176.7385 Y-42.5029
G1 X177.0472 Y-42.7633
G1 X176.7456 Y-42.5589
G1 Z0.0000 F8000.0
G0 X175.9186 Y-42.2670 F15000.0
G1 Z11.9000 F8000.0
G1 X175.9507 Y-41.6397 F12000.0
G1 X175.8626 Y-41.4231
G1 X175.2391 Y-41.2300
G1 X174.7806 Y-41.5036
G1 X175.7846 Y-42.1852
G1 X175.9075 Y-42.3709
G1 X175.8661 Y-42.7165
G1 X175.1660 Y-42.8767
G1 X174.8989 Y-42.8121
G1 X174.9942 Y-42.8995
G1 Z0.0000 F8000.0
G0 X174.1672 Y-42.8995 F15000.0
G1 Z11.9000 F8000.0
G1 X172.9509 Y-42.8995 F12000.0
G1 Z0.0000 F8000.0
G0 X172.4158 Y-42.8508 F15000.0
G1 Z11.9000 F8000.0
G1 X171.3941 Y-41.2940 F12000.0
G1 Z0.0000 F8000.0
G0 X171.3455 Y-42.8508 F15000.0
G1 Z11.9000 F8000.0
G1 X171.3216 Y-41.3499 F12000.0
G1 X171.1500 Y-41.2638
G1 X170.5251 Y-41.3247
G1 X170.3494 Y-41.4187
G1 X170.3239 Y-42.8508
G1 Z0.0000 F8000.0
G0 X169.6428 Y-42.6076 F15000.0
G1 Z11.9000 F8000.0
G1 X169.4021 Y-42.8716 F12000.0
G1 X168.8039 Y-42.8487
G1 X168.5683 Y-42.5704
G1 X168.4480 Y-41.9606
G1 X168.6910 Y-41.4003
G1 X169.1316 Y-41.2344
G1 X169.4757 Y-41.3608
G1 X169.6481 Y-41.5575
G1 X169.5941 Y-41.4400
G1 Z0.0000 F8000.0
G0 X167.7454 Y-41.4886 F15000.0
G1 Z11.9000 F8000.0
G1 X167.7469 Y-42.1683 F12000.0
G1 X167.6793 Y-41.4261
G1 X167.0521 Y-41.2339
G1 X166.6130 Y-41.5116
G1 X167.6239 Y-42.1938
G1 X167.7380 Y-42.3843
G1 X167.6839 Y-42.7261
G1 X166.9777 Y-42.8780
G1 X166.7289 Y-42.8173
G1 X166.8211 Y-42.8995
G1 Z0.0000 F8000.0
G0 X165.6048 Y-43.2887 F15000.0
G1 Z11.9000 F8000.0
G1 X165.2099 Y-42.6448 F12000.0
G1 X165.5914 Y-43.1900
G1 X165.7021 Y-41.2940
G1 Z0.0000 F8000.0
G0 X164.7292 Y-41.4886 F15000.0
G1 Z11.9000 F8000.0
G1 X164.9769 Y-41.9893 F12000.0
G1 X164.8955 Y-41.7140
G1 X165.0802 Y-42.2796
G1 X164.6877 Y-41.5621
G1 X163.8576 Y-43.0450
G1 X163.6737 Y-43.2327
G1 X163.6952 Y-43.3461
G1 X163.6102 Y-41.3427
G1 Z0.0000 F8000.0
G0 X162.5355 Y-44.3318 F15000.0
G1 Z11.9000 F8000.0
G1 X162.5355 Y-24.8078 F12000.0
G1 Z0.0000 F8000.0
G0 X162.1612 Y-23.4200 F15000.0
G1 Z11.9000 F8000.0
G1 X162.6130 Y-23.4835 F12000.0
G1 X163.1348 Y-23.1734
G1 X163.2609 Y-22.5704
G1 X163.1758 Y-22.2080
G1 X163.0306 Y-22.0385
G1 X162.3170 Y-21.8495
G1 X162.2137 Y-21.8951
G1 X161.8674 Y-22.4043
G1 X161.9184 Y-23.0138
G1 X162.1011 Y-23.3509
G1 X161.9145 Y-23.1484
G1 X161.3014 Y-23.4577
G1 X160.1666 Y-23.4687
G1 Z0.0000 F8000.0
G0 X160.7017 Y-23.4687 F15000.0
G1 Z11.9000 F8000.0
G1 X160.7504 Y-21.8632 F12000.0
G1 Z0.0000 F8000.0
G0 X159.7287 Y-22.2524 F15000.0
G1 Z11.9000 F8000.0
G1 X159.5250 Y-21.9935 F12000.0
G1 X158.9307 Y-21.8460
G1 X158.6205 Y-21.9900
G1 X158.4495 Y-22.3132
G1 X158.4643 Y-22.9340
G1 X158.7160 Y-23.3495
G1 X159.0511 Y-23.4895
G1 X159.5341 Y-23.3714
G1 Z0.0000 F8000.0
G0 X157.6854 Y-21.9119 F15000.0
G1 Z11.9000 F8000.0
G1 X157.2445 Y-22.8060 F12000.0
G1 X157.2684 Y-22.9071
G1 X157.5614 Y-23.1283
G1 X157.3008 Y-22.9627
G1 X156.8882 Y-22.3737
G1 X156.5475 Y-22.2240
G1 X156.5131 Y-23.3567
G1 X157.1846 Y-22.9317
G1 X156.9194 Y-22.4237
G1 X156.5207 Y-22.0279
G1 X156.5179 Y-22.1065
G1 Z0.0000 F8000.0
G0 X155.5935 Y-21.9119 F15000.0
G1 Z11.9000 F8000.0
G1 X155.5264 Y-24.1184 F12000.0
G1 X154.1724 Y-21.9013
G1 X153.9881 Y-21.8146
G1 Z0.0000 F8000.0
G0 X151.4142 Y-19.9474 F15000.0
G1 Z11.9000 F8000.0
G1 X151.4142 Y-24.8078 F12000.0
G1 Z0.0000 F8000.0
G0 X145.9771 Y-24.8078 F15000.0
G1 Z11.9000 F8000.0
G1 X145.9771 Y-44.3318 F12000.0
G1 Z0.0000 F8000.0
G0 X149.1025 Y-41.8025 F15000.0
G1 Z11.9000 F8000.0
G1 X149.1742 Y-43.4877 F12000.0
G1 X149.2512 Y-43.5929
G1 X150.0412 Y-42.0961
G1 X150.2055 Y-42.0810
G1 X150.4701 Y-42.6473
G1 X150.1206 Y-42.0041
G1 X150.1728 Y-42.0458
G1 Z0.0000 F8000.0
G0 X151.0971 Y-41.8512 F15000.0
G1 Z11.9000 F8000.0
G1 X150.9527 Y-43.3852 F12000.0
G1 X151.0153 Y-43.6464
G1 X150.6757 Y-43.1939
G1 X150.5340 Y-42.8048
G1 X150.6106 Y-43.0674
G1 Z0.0000 F8000.0
G0 X151.9728 Y-43.1647 F15000.0
G1 Z11.9000 F8000.0
G1 X152.1740 Y-43.2581 F12000.0
G1 X152.8658 Y-42.6887
G1 X151.9688 Y-42.3983
G1 X151.8150 Y-42.0845
G1 X151.9854 Y-41.7893
G1 X152.2098 Y-41.7400
G1 X152.8986 Y-41.9402
G1 X152.9788 Y-41.8908
G1 X152.9261 Y-42.5430
G1 X153.6850 Y-42.8988
G1 X153.6515 Y-42.3258
G1 X153.8419 Y-41.8821
G1 X154.1513 Y-41.7352
G1 X154.6972 Y-41.8998
G1 Z0.0000 F8000.0
G0 X154.7458 Y-43.0674 F15000.0
G1 Z11.9000 F8000.0
G1 X154.5447 Y-43.2517 F12000.0
G1 X154.0692 Y-43.2820
G1 X153.8369 Y-43.1208
G1 X154.1929 Y-43.2734
G1 X155.3393 Y-42.9095
G1 X155.3093 Y-42.3099
G1 X155.5078 Y-41.8735
G1 X155.8210 Y-41.7341
G1 X156.2826 Y-41.8934
G1 X156.3913 Y-42.0855
G1 X156.3694 Y-43.0956
G1 X156.1100 Y-43.2889
G1 X155.6380 Y-43.2349
G1 X155.4269 Y-43.0674
G1 Z0.0000 F8000.0
G0 X157.1296 Y-43.1647 F15000.0
G1 Z11.9000 F8000.0
G1 X157.3309 Y-43.2581 F12000.0
G1 X158.0226 Y-42.6887
G1 X157.1257 Y-42.3983
G1 X156.9718 Y-42.0845
G1 X157.1423 Y-41.7893
G1 X157.3666 Y-41.7400
G1 X158.0554 Y-41.9402
G1 X158.1356 Y-41.8908
G1 X158.1026 Y-42.5809
G1 Z0.0000 F8000.0
G0 X145.9771 Y-39.4714 F15000.0
G1 Z11.9000 F8000.0
G1 X180.0000 Y-39.4714 F12000.0
G1 Z0.0000 F8000.0
G0 X177.0375 Y-41.3427 F15000.0
G1 Z11.9000 F8000.0
G1 X176.8915 Y-41.4886 F12000.0
G1 Z0.0000 F8000.0
G0 X173.5834 Y-41.2940 F15000.0
G1 Z11.9000 F8000.0
G1 X173.5347 Y-42.8995 F12000.0
G1 Z0.0000 F8000.0
G0 X174.1343 Y-34.6217 F15000.0
G1 Z11.9000 F8000.0
G1 X173.8689 Y-34.2679 F12000.0
G1 X172.4094 Y-30.1990
G1 Z0.0000 F8000.0
G0 X170.9487 Y-31.3931 F15000.0
G1 Z11.9000 F8000.0
G1 X170.8160 Y-31.2605 F12000.0
G1 Z0.0000 F8000.0
G0 X169.5776 Y-30.1990 F15000.0
G1 Z11.9000 F8000.0
G1 X171.0371 Y-34.2679 F12000.0
G1 X171.3025 Y-34.6217
G1 Z0.0000 F8000.0
G0 X170.9929 Y-34.3121 F15000.0
G1 Z11.9000 F8000.0
G1 X170.6833 Y-34.2237 F12000.0
G1 Z0.0000 F8000.0
G0 X169.9314 Y-33.7372 F15000.0
G1 Z11.9000 F8000.0
G1 X169.7545 Y-33.5603 F12000.0
G1 Z0.0000 F8000.0
G0 X171.4352 Y-33.0295 F15000.0
G1 Z11.9000 F8000.0
G1 X171.6563 Y-33.1622 F12000.0
G1 Z0.0000 F8000.0
G0 X172.5863 Y-33.5603 F15000.0
G1 Z11.9000 F8000.0
G1 X172.7632 Y-33.7372 F12000.0
G1 Z0.0000 F8000.0
G0 X173.5151 Y-34.2237 F15000.0
G1 Z11.9000 F8000.0
G1 X173.8247 Y-34.3121 F12000.0
G1 Z0.0000 F8000.0
G0 X174.8195 Y-23.7306 F15000.0
G1 Z11.9000 F8000.0
G1 X174.5984 Y-23.5979 F12000.0
G1 Z0.0000 F8000.0
G0 X175.2618 Y-23.7306 F15000.0
G1 Z11.9000 F8000.0
G1 X174.4215 Y-21.3866 F12000.0
G1 X174.2446 Y-21.0770
G1 Z0.0000 F8000.0
G0 X180.0000 Y-19.9474 F15000.0
G1 Z11.9000 F8000.0
G1 X131.3959 Y-19.9474 F12000.0
G1 X63.2677 Y-19.9474 F12000.0
G1 X0.0000 Y-19.9474 F12000.0
G1 Z0.0000 F8000.0
G0 X2.2817 Y-21.9791 F15000.0
G1 Z11.9000 F8000.0
G1 X2.2330 Y-24.0224 F12000.0
G1 Z0.0000 F8000.0
G0 X1.6006 Y-24.0224 F15000.0
G1 Z11.9000 F8000.0
G1 X3.0601 Y-24.0224 F12000.0
G1 Z0.0000 F8000.0
G0 X4.1304 Y-23.3413 F15000.0
G1 Z11.9000 F8000.0
G1 X4.1667 Y-22.8025 F12000.0
G1 X4.6840 Y-22.4992
G1 X4.6119 Y-22.7582
G1 X5.0061 Y-21.9791
G1 Z0.0000 F8000.0
G0 X4.1304 Y-21.9791 F15000.0
G1 Z11.9000 F8000.0
G1 X4.1548 Y-22.5958 F12000.0
G1 X4.6486 Y-22.9177
G1 X5.0449 Y-23.3318
G1 X5.5440 Y-23.0372
G1 X5.5606 Y-22.4524
G1 X5.7825 Y-22.0812
G1 X5.5872 Y-22.3432
G1 X5.9849 Y-21.9780
G1 X6.4567 Y-22.0709
G1 X6.7158 Y-22.3048
G1 X6.6419 Y-23.0414
G1 X6.5458 Y-23.2447
G1 X5.9608 Y-23.3593
G1 X5.6385 Y-23.1467
G1 Z0.0000 F8000.0
G0 X7.3899 Y-23.3413 F15000.0
G1 Z11.9000 F8000.0
G1 X7.3899 Y-22.0729 F12000.0
G1 X7.4113 Y-22.6183
G1 X7.5773 Y-22.6972
G1 X8.3897 Y-22.5870
G1 X8.4571 Y-22.0612
G1 X8.5193 Y-23.3136
G1 X10.0656 Y-23.3899
G1 Z0.0000 F8000.0
G0 X9.4818 Y-23.3899 F15000.0
G1 Z11.9000 F8000.0
G1 X9.5631 Y-22.0387 F12000.0
G1 X10.6378 Y-22.1078
G1 X11.3489 Y-21.9970
G1 X11.6449 Y-22.2187
G1 X11.7451 Y-22.4295
G1 X11.6510 Y-23.1678
G1 X11.3597 Y-23.3221
G1 X10.7605 Y-23.2217
G1 X10.6191 Y-22.3980
G1 X10.6763 Y-21.4231
G1 X11.6710 Y-22.2223
G1 Z0.0000 F8000.0
G0 X7.4225 Y-28.9491 F15000.0
G1 Z11.9000 F8000.0
G1 X7.4412 Y-30.0302 F12000.0
G1 X7.3492 Y-30.2350
G1 X7.2588 Y-30.2572
G1 X6.5388 Y-29.6405
G1 X6.6388 Y-29.4528
G1 X7.1970 Y-28.9615
G1 X7.4823 Y-29.0570
G1 X7.5125 Y-29.2953
G1 X7.5169 Y-29.2020
G1 X7.4835 Y-29.4302
G1 X7.3906 Y-29.5275
G1 X6.4325 Y-29.7304
G1 X5.6009 Y-30.2591
G1 X5.7242 Y-30.1254
G1 X5.8883 Y-29.4023
G1 X5.7075 Y-29.0083
G1 X5.7517 Y-29.0801
G1 X5.3401 Y-28.9325
G1 X4.9944 Y-29.0114
G1 X4.8414 Y-29.1833
G1 X4.7238 Y-29.5344
G1 X4.9412 Y-30.1641
G1 X5.5252 Y-30.3112
G1 Z0.0000 F8000.0
G0 X3.0927 Y-29.0950 F15000.0
G1 Z11.9000 F8000.0
G1 X3.6911 Y-28.9325 F12000.0
G1 X4.0455 Y-29.1321
G1 X4.1392 Y-29.3440
G1 X4.0382 Y-30.0816
G1 X3.8772 Y-30.2516
G1 X3.3975 Y-30.2509
G1 X3.1179 Y-30.0572
G1 X3.0440 Y-28.3166
G1 Z0.0000 F8000.0
G0 X2.3143 Y-28.9491 F15000.0
G1 Z11.9000 F8000.0
G1 X2.2097 Y-30.7984 F12000.0
G1 X0.8548 Y-28.9491
G1 Z0.0000 F8000.0
G0 X0.0000 Y-29.7506 F15000.0
G1 Z11.9000 F8000.0
G1 X63.2677 Y-29.7506 F12000.0
G1 Z0.0000 F8000.0
G0 X63.2677 Y-24.8078 F15000.0
G1 Z11.9000 F8000.0
G1 X0.0000 Y-24.8078 F12000.0
G1 Z0.0000 F8000.0
G0 X0.0000 Y-15.0870 F15000.0
G1 Z11.9000 F8000.0
G1 X63.2677 Y-15.0870 F12000.0
G1 Z0.0000 F8000.0
G0 X67.7229 Y-15.8597 F15000.0
G1 Z11.9000 F8000.0
G1 X68.0148 Y-16.1029 F12000.0
G1 Z0.0000 F8000.0
G0 X70.2526 Y-15.4218 F15000.0
G1 Z11.9000 F8000.0
G1 X69.9925 Y-15.8463 F12000.0
G1 X69.4528 Y-16.1530
G1 X68.0922 Y-16.0766
G1 X67.0683 Y-13.6734
G1 X67.1417 Y-13.3072
G1 X67.4214 Y-12.7454
G1 X68.2224 Y-12.1609
G1 X68.8276 Y-12.1009
G1 X69.9014 Y-12.4704
G1 X70.5711 Y-13.1510
G1 X70.0580 Y-12.5029
G1 Z0.0000 F8000.0
G0 X71.4202 Y-16.1516 F15000.0
G1 Z11.9000 F8000.0
G1 X71.5157 Y-14.5110 F12000.0
G1 X71.8090 Y-13.9732
G1 X72.1300 Y-13.7808
G1 X72.3681 Y-13.7397
G1 X74.1200 Y-13.9791
G1 X74.3083 Y-13.9424
G1 X74.3392 Y-12.1623
G1 Z0.0000 F8000.0
G0 X74.3392 Y-14.0110 F15000.0
G1 Z11.9000 F8000.0
G1 X74.3392 Y-16.1516 F12000.0
G1 Z0.0000 F8000.0
G0 X76.0419 Y-15.1299 F15000.0
G1 Z11.9000 F8000.0
G1 X77.1556 Y-15.7105 F12000.0
G1 X77.3268 Y-16.1048
G1 X77.2307 Y-15.7551
G1 X77.2582 Y-12.1623
G1 Z0.0000 F8000.0
G0 X79.9339 Y-12.1623 F15000.0
G1 Z11.9000 F8000.0
G1 X79.5105 Y-12.5744 F12000.0
G1 X79.9308 Y-12.1855
G1 X80.1566 Y-12.0904
G1 X81.1397 Y-12.2132
G1 X81.4875 Y-12.5610
G1 X81.6922 Y-13.0199
G1 X81.6154 Y-14.0107
G1 X81.3156 Y-14.4296
G1 X80.6582 Y-14.6716
G1 X79.5714 Y-14.5378
G1 X79.5406 Y-14.7062
G1 X79.9001 Y-16.1230
G1 X81.5393 Y-16.1516
G1 Z0.0000 F8000.0
G0 X79.4960 Y-14.4975 F15000.0
G1 Z11.9000 F8000.0
G1 X79.3987 Y-14.3029 F12000.0
G1 Z0.0000 F8000.0
G0 X84.8186 Y-12.2110 F15000.0
G1 Z11.9000 F8000.0
G1 X84.8875 Y-16.1105 F12000.0
G1 X84.9493 Y-16.1760
G1 X87.2024 Y-16.2002
G1 Z0.0000 F8000.0
G0 X87.8835 Y-14.8867 F15000.0
G1 Z11.9000 F8000.0
G1 X88.3283 Y-15.6458 F12000.0
G1 X88.5791 Y-15.8983
G1 X88.3378 Y-15.6812
G1 X88.7319 Y-15.9973
G1 X88.3366 Y-15.6958
G1 X87.8817 Y-14.8023
G1 X87.8014 Y-14.0492
G1 X87.9084 Y-13.4327
G1 X88.1775 Y-12.8201
G1 X88.6688 Y-12.3865
G1 X89.2366 Y-12.1198
G1 X89.7329 Y-12.0971
G1 X90.8208 Y-12.4145
G1 X91.1816 Y-12.7524
G1 X91.3416 Y-13.0802
G1 X91.5607 Y-13.9320
G1 X91.2031 Y-15.5232
G1 X90.8577 Y-15.8846
G1 X90.1730 Y-16.1883
G1 X89.2905 Y-16.1985
G1 X88.8079 Y-16.0543
G1 Z0.0000 F8000.0
G0 X88.0295 Y-13.0867 F15000.0
G1 Z11.9000 F8000.0
G1 X88.4929 Y-12.4959 F12000.0
G1 X89.1579 Y-12.1481
G1 X90.2835 Y-12.1752
G1 X90.8512 Y-12.4542
G1 Z0.0000 F8000.0
G0 X93.5269 Y-15.8597 F15000.0
G1 Z11.9000 F8000.0
G1 X93.8188 Y-16.1029 F12000.0
G1 Z0.0000 F8000.0
G0 X96.0567 Y-15.4218 F15000.0
G1 Z11.9000 F8000.0
G1 X95.7965 Y-15.8463 F12000.0
G1 X95.2568 Y-16.1530
G1 X93.8896 Y-16.0813
G1 X93.2310 Y-15.5060
G1 X93.0981 Y-15.3014
G1 X92.8647 Y-13.8052
G1 X92.9441 Y-13.3127
G1 X93.2223 Y-12.7500
G1 X94.0210 Y-12.1621
G1 X94.6262 Y-12.0997
G1 X95.7006 Y-12.4679
G1 X96.3768 Y-13.1529
G1 X95.8621 Y-12.5029
G1 Z0.0000 F8000.0
G0 X98.6351 Y-12.2110 F15000.0
G1 Z11.9000 F8000.0
G1 X98.5864 Y-16.2002 F12000.0
G1 Z0.0000 F8000.0
G0 X97.0783 Y-16.2002 F15000.0
G1 Z11.9000 F8000.0
G1 X100.1919 Y-16.2002 F12000.0
G1 Z0.0000 F8000.0
G0 X103.3541 Y-15.1299 F15000.0
G1 Z11.9000 F8000.0
G1 X103.5487 Y-15.3245 F12000.0
G1 Z0.0000 F8000.0
G0 X104.3271 Y-15.6164 F15000.0
G1 Z11.9000 F8000.0
G1 X104.3875 Y-15.6434 F12000.0
G1 X103.6153 Y-15.2775
G1 X103.8886 Y-15.4873
G1 X104.3936 Y-15.5583
G1 X104.4244 Y-12.1137
G1 Z0.0000 F8000.0
G0 X108.2190 Y-12.1137 F15000.0
G1 Z11.9000 F8000.0
G1 X108.2911 Y-13.1071 F12000.0
G1 X106.4270 Y-13.3293
G1 X106.9715 Y-14.4280
G1 X107.7912 Y-15.5148
G1 X108.1767 Y-15.6423
G1 X108.2190 Y-13.2813
G1 Z0.0000 F8000.0
G0 X110.5542 Y-15.2272 F15000.0
G1 Z11.9000 F8000.0
G1 X110.6515 Y-15.3245 F12000.0
G1 Z0.0000 F8000.0
G0 X111.4299 Y-15.6164 F15000.0
G1 Z11.9000 F8000.0
G1 X111.4884 Y-15.6356 F12000.0
G1 X110.5412 Y-15.1830
G1 X111.0956 Y-15.5214
G1 X111.4965 Y-15.5583
G1 X111.5272 Y-12.1137
G1 Z0.0000 F8000.0
G0 X114.2516 Y-13.0867 F15000.0
G1 Z11.9000 F8000.0
G1 X113.9752 Y-12.6421 F12000.0
G1 X113.9221 Y-12.1423
G1 X115.9057 Y-12.1137
G1 Z0.0000 F8000.0
G0 X114.9752 Y-13.6157 F15000.0
G1 Z11.9000 F8000.0
G1 X114.3223 Y-13.0556 F12000.0
G1 X114.6609 Y-13.3199
G1 X114.9327 Y-13.6705
G1 Z0.0000 F8000.0
G0 X114.4206 Y-13.1295 F15000.0
G1 Z11.9000 F8000.0
G1 X115.3500 Y-13.9336 F12000.0
G1 X115.0984 Y-13.7267
G1 X115.4944 Y-14.1377
G1 X115.8530 Y-14.6827
G1 X115.7111 Y-15.8110
G1 Z0.0000 F8000.0
G0 X115.6138 Y-16.0056 F15000.0
G1 Z11.9000 F8000.0
G1 X115.2295 Y-16.1802 F12000.0
G1 X114.3257 Y-16.1520
G1 X113.8096 Y-15.6760
G1 X113.8624 Y-15.7137
G1 Z0.0000 F8000.0
G0 X117.1706 Y-13.4759 F15000.0
G1 Z11.9000 F8000.0
G1 X118.2408 Y-13.4759 F12000.0
G1 Z0.0000 F8000.0
G0 X120.1868 Y-12.9894 F15000.0
G1 Z11.9000 F8000.0
G1 X121.4318 Y-15.6060 F12000.0
G1 X121.4905 Y-16.0232
G1 X121.3108 Y-16.1003
G1 X119.4084 Y-16.1029
G1 Z0.0000 F8000.0
G0 X120.9652 Y-14.8380 F15000.0
G1 Z11.9000 F8000.0
G1 X121.2571 Y-15.3245 F12000.0
G1 Z0.0000 F8000.0
G0 X123.4950 Y-16.1029 F15000.0
G1 Z11.9000 F8000.0
G1 X123.1969 Y-15.6619 F12000.0
G1 X122.9288 Y-14.6616
G1 X122.9990 Y-14.3276
G1 X123.4095 Y-13.8127
G1 X123.5773 Y-13.7086
G1 X124.1252 Y-13.5946
G1 X124.7959 Y-13.8150
G1 X124.5653 Y-13.6705
G1 Z0.0000 F8000.0
G0 X123.3004 Y-12.2110 F15000.0
G1 Z11.9000 F8000.0
G1 X123.1717 Y-12.3396 F12000.0
G1 X123.6003 Y-12.0218
G1 X124.1666 Y-11.9381
G1 X124.7730 Y-12.1662
G1 X125.3101 Y-13.1581
G1 X125.1322 Y-13.9016
G1 X124.9331 Y-13.8973
G1 X125.1797 Y-14.0141
G1 X125.3086 Y-14.1753
G1 X125.0805 Y-15.6396
G1 X124.4807 Y-16.1647
G1 X123.6896 Y-16.2002
G1 Z0.0000 F8000.0
G0 X120.1868 Y-12.7948 F15000.0
G1 Z11.9000 F8000.0
G1 X120.1349 Y-12.6603 F12000.0
G1 X120.1868 Y-12.6975
G1 Z0.0000 F8000.0
G0 X131.3959 Y-5.3662 F15000.0
G1 Z11.9000 F8000.0
G1 X131.3959 Y-44.3318 F12000.0
G1 Z0.0000 F8000.0
G0 X131.3959 Y-39.4714 F15000.0
G1 Z11.9000 F8000.0
G1 X145.9771 Y-39.4714 F12000.0
G1 Z0.0000 F8000.0
G0 X141.1167 Y-39.4714 F15000.0
G1 Z11.9000 F8000.0
G1 X141.1167 Y-24.8078 F12000.0
G1 Z0.0000 F8000.0
G0 X141.2925 Y-23.4855 F15000.0
G1 Z11.9000 F8000.0
G1 X140.6601 Y-23.4369 F12000.0
G1 Z0.0000 F8000.0
G0 X139.9790 Y-23.4855 F15000.0
G1 Z11.9000 F8000.0
G1 X140.5928 Y-23.4117 F12000.0
G1 X140.6570 Y-21.9602
G1 X140.5645 Y-21.8209
G1 X139.4981 Y-22.0247
G1 X138.7120 Y-21.7359
G1 X138.4955 Y-21.7756
G1 X138.3273 Y-21.9380
G1 X138.1704 Y-22.2738
G1 X138.2664 Y-23.2146
G1 X137.5604 Y-23.3552
G1 X137.3648 Y-23.3140
G1 X136.4423 Y-22.1587
G1 X136.1357 Y-21.9774
G1 Z0.0000 F8000.0
G0 X136.5888 Y-22.2956 F15000.0
G1 Z11.9000 F8000.0
G1 X136.1595 Y-22.0592 F12000.0
G1 X136.0870 Y-23.4369
G1 Z0.0000 F8000.0
G0 X136.8638 Y-22.7631 F15000.0
G1 Z11.9000 F8000.0
G1 X136.5321 Y-22.2086 F12000.0
G1 X136.7025 Y-22.5003
G1 X137.2654 Y-23.0686
G1 X137.4006 Y-21.7828
G1 Z0.0000 F8000.0
G0 X138.3735 Y-23.3396 F15000.0
G1 Z11.9000 F8000.0
G1 X138.9701 Y-23.4926 F12000.0
G1 X139.3952 Y-23.2423
G1 Z0.0000 F8000.0
G0 X136.1739 Y-24.8078 F15000.0
G1 Z11.9000 F8000.0
G1 X136.1739 Y-39.4714 F12000.0
G1 Z0.0000 F8000.0
G0 X135.5838 Y-41.4736 F15000.0
G1 Z11.9000 F8000.0
G1 X136.8838 Y-43.5687 F12000.0
G1 X136.9460 Y-41.4736
G1 Z0.0000 F8000.0
G0 X137.9677 Y-41.7168 F15000.0
G1 Z11.9000 F8000.0
G1 X138.3082 Y-42.1547 F12000.0
G1 Z0.0000 F8000.0
G0 X138.8920 Y-41.4249 F15000.0
G1 Z11.9000 F8000.0
G1 X138.8274 Y-42.6435 F12000.0
G1 X138.4344 Y-42.3235
G1 X138.0462 Y-41.8260
G1 X137.8788 Y-41.7230
G1 X137.8062 Y-41.8878
G1 X137.7514 Y-42.8450
G1 X138.4241 Y-42.3791
G1 X138.7765 Y-42.6946
G1 X138.8920 Y-42.9330
G1 Z0.0000 F8000.0
G0 X139.4758 Y-42.9817 F15000.0
G1 Z11.9000 F8000.0
G1 X140.6920 Y-42.9817 F12000.0
G1 Z0.0000 F8000.0
G0 X140.0596 Y-42.9817 F15000.0
G1 Z11.9000 F8000.0
G1 X140.1082 Y-41.4736 F12000.0
G1 Z0.0000 F8000.0
G0 X132.8693 Y-51.7026 F15000.0
G1 Z11.9000 F8000.0
G1 X132.8207 Y-51.7999 F12000.0
G1 Z0.0000 F8000.0
G0 X132.8207 Y-54.3783 F15000.0
G1 Z11.9000 F8000.0
G1 X133.1971 Y-54.9022 F12000.0
G1 X132.8271 Y-54.3284
G1 X132.6609 Y-52.8324
G1 X132.8924 Y-51.7301
G1 X133.8308 Y-51.1233
G1 X134.2908 Y-51.2016
G1 X134.7093 Y-51.6472
G1 X134.9423 Y-52.7473
G1 X134.7582 Y-54.3776
G1 X134.5006 Y-54.8030
G1 X134.2049 Y-55.0221
G1 X133.9713 Y-55.0820
G1 X133.2585 Y-54.9621
G1 Z0.0000 F8000.0
G0 X137.7343 Y-54.6215 F15000.0
G1 Z11.9000 F8000.0
G1 X137.8558 Y-51.2935 F12000.0
G1 X138.3967 Y-52.1693
G1 X136.0706 Y-52.3082
G1 X136.5635 Y-53.3560
G1 X137.1225 Y-54.1841
G1 X137.7161 Y-54.6412
G1 X137.8802 Y-55.0594
G1 Z0.0000 F8000.0
G0 X127.7125 Y-51.7026 F15000.0
G1 Z11.9000 F8000.0
G1 X128.7315 Y-51.1064 F12000.0
G1 X129.2208 Y-51.2578
G1 X129.5970 Y-51.7461
G1 X129.7906 Y-52.6053
G1 X129.6283 Y-54.2395
G1 X129.3536 Y-54.7895
G1 X129.0630 Y-55.0148
G1 X128.8306 Y-55.0821
G1 X128.1036 Y-54.9371
G1 X127.8826 Y-54.7407
G1 X127.6942 Y-54.4189
G1 X127.4832 Y-53.0490
G1 X127.6638 Y-51.7999
G1 Z0.0000 F8000.0
G0 X124.3070 Y-51.7026 F15000.0
G1 Z11.9000 F8000.0
G1 X124.2583 Y-51.7999 F12000.0
G1 Z0.0000 F8000.0
G0 X124.2583 Y-54.3783 F15000.0
G1 Z11.9000 F8000.0
G1 X124.6348 Y-54.9022 F12000.0
G1 X124.2647 Y-54.3284
G1 X124.0986 Y-52.8324
G1 X124.3301 Y-51.7301
G1 X125.2685 Y-51.1233
G1 X125.7285 Y-51.2016
G1 X126.1470 Y-51.6472
G1 X126.3800 Y-52.7473
G1 X126.1959 Y-54.3776
G1 X125.9382 Y-54.8030
G1 X125.6426 Y-55.0221
G1 X125.4090 Y-55.0820
G1 X124.6962 Y-54.9621
G1 Z0.0000 F8000.0
G0 X120.8529 Y-53.2593 F15000.0
G1 Z11.9000 F8000.0
G1 X120.3664 Y-52.7242 F12000.0
G1 Z0.0000 F8000.0
G0 X121.1934 Y-51.1674 F15000.0
G1 Z11.9000 F8000.0
G1 X119.0918 Y-51.2101 F12000.0
G1 X120.9867 Y-53.4637
G1 X121.1664 Y-54.0501
G1 X121.0119 Y-54.6513
G1 X120.4026 Y-55.0690
G1 X119.9087 Y-55.1049
G1 X119.2635 Y-54.7456
G1 X119.0042 Y-54.3296
G1 Z0.0000 F8000.0
G0 X117.5933 Y-55.0107 F15000.0
G1 Z11.9000 F8000.0
G1 X116.0108 Y-54.9618 F12000.0
G1 X115.7547 Y-54.1425
G1 X115.7438 Y-53.4641
G1 X116.8185 Y-53.6230
G1 X117.0541 Y-53.5869
G1 X117.4755 Y-53.3289
G1 X117.6152 Y-53.1552
G1 X117.8014 Y-52.4347
G1 X117.7942 Y-52.1921
G1 X117.5051 Y-51.5044
G1 X117.0992 Y-51.2129
G1 X116.4999 Y-51.0888
G1 X115.8306 Y-51.4184
G1 X115.5855 Y-51.7667
G1 X115.7926 Y-51.4478
G1 X116.3285 Y-51.1188
G1 Z0.0000 F8000.0
G0 X119.0042 Y-51.1674 F15000.0
G1 Z11.9000 F8000.0
G1 X119.0042 Y-51.2161 F12000.0
G1 Z0.0000 F8000.0
G0 X112.0473 Y-51.2161 F15000.0
G1 Z11.9000 F8000.0
G1 X112.0473 Y-51.2647 F12000.0
G1 Z0.0000 F8000.0
G0 X110.5392 Y-51.7026 F15000.0
G1 Z11.9000 F8000.0
G1 X110.4905 Y-51.7999 F12000.0
G1 Z0.0000 F8000.0
G0 X110.4905 Y-54.3783 F15000.0
G1 Z11.9000 F8000.0
G1 X110.8614 Y-54.8903 F12000.0
G1 X110.4894 Y-54.3023
G1 X110.3203 Y-53.1791
G1 X110.5259 Y-51.8144
G1 X110.6644 Y-51.6289
G1 X111.4147 Y-51.1631
G1 X111.6415 Y-51.1004
G1 X112.3306 Y-51.5720
G1 X112.1605 Y-51.3520
G1 X112.4110 Y-51.7366
G1 X112.6020 Y-52.4667
G1 X112.4355 Y-54.3476
G1 X112.1080 Y-54.8713
G1 X111.7891 Y-55.0572
G1 X110.9284 Y-54.9621
G1 Z0.0000 F8000.0
G0 X107.5229 Y-54.9621 F15000.0
G1 Z11.9000 F8000.0
G1 X108.1599 Y-55.0788 F12000.0
G1 X108.3984 Y-55.0528
G1 X108.7132 Y-54.8598
G1 X109.0339 Y-54.3324
G1 X109.2107 Y-52.6998
G1 X109.0472 Y-51.8365
G1 X108.7177 Y-51.3107
G1 X108.2834 Y-51.1021
G1 X108.0528 Y-51.1388
G1 X107.1392 Y-51.7710
G1 X106.9172 Y-52.8794
G1 X107.1022 Y-54.3748
G1 X107.3801 Y-54.8460
G1 X107.0850 Y-54.3783
G1 Z0.0000 F8000.0
G0 X105.6742 Y-53.8431 F15000.0
G1 Z11.9000 F8000.0
G1 X105.6742 Y-52.4323 F12000.0
G1 Z0.0000 F8000.0
G0 X105.6742 Y-51.2161 F15000.0
G1 Z11.9000 F8000.0
G1 X105.6557 Y-52.3329 F12000.0
G1 X105.5996 Y-52.3940
G1 X104.3794 Y-52.2638
G1 X103.9396 Y-52.4642
G1 X103.7269 Y-52.7499
G1 X103.5823 Y-53.8431
G1 Z0.0000 F8000.0
G0 X101.9768 Y-54.5729 F15000.0
G1 Z11.9000 F8000.0
G1 X101.7776 Y-54.1282 F12000.0
G1 X102.0769 Y-54.6061
G1 X102.2591 Y-54.6733
G1 X102.3251 Y-54.4997
G1 X102.4633 Y-51.2161
G1 Z0.0000 F8000.0
G0 X100.8093 Y-51.5566 F15000.0
G1 Z11.9000 F8000.0
G1 X100.6351 Y-51.3092 F12000.0
G1 X101.2159 Y-52.4577
G1 X101.0908 Y-52.1214
G1 X101.7121 Y-53.9585
G1 X100.8367 Y-51.5699
G1 X100.6401 Y-51.4624
G1 X100.3622 Y-51.6480
G1 X99.3713 Y-54.4408
G1 X99.0768 Y-54.7192
G1 X99.2680 Y-54.5736
G1 X98.9183 Y-54.7436
G1 X98.8130 Y-54.4219
G1 X98.7660 Y-51.2161
G1 Z0.0000 F8000.0
G0 X107.0850 Y-51.7999 F15000.0
G1 Z11.9000 F8000.0
G1 X107.1337 Y-51.7026 F12000.0
G1 Z0.0000 F8000.0
G0 X108.3787 Y-35.1569 F15000.0
G1 Z11.9000 F8000.0
G1 X111.2974 Y-31.1802 F12000.0
G1 X112.0274 Y-29.7568
G1 Z0.0000 F8000.0
G0 X111.3950 Y-31.1190 F15000.0
G1 Z11.9000 F8000.0
G1 X111.4436 Y-35.1569 F12000.0
G1 Z0.0000 F8000.0
G0 X106.1895 Y-31.6055 F15000.0
G1 Z11.9000 F8000.0
G1 X105.7268 Y-31.1804 F12000.0
G1 X106.6904 Y-32.0236
G1 X105.9262 Y-31.3056
G1 X105.2025 Y-31.0368
G1 X104.1996 Y-31.1502
G1 X103.8528 Y-31.2747
G1 X103.4974 Y-31.6012
G1 X103.2440 Y-32.0328
G1 X103.0797 Y-33.2897
G1 X106.4600 Y-33.3879
G1 X106.4745 Y-33.5742
G1 X106.2288 Y-34.5527
G1 X106.0368 Y-34.8347
G1 X105.2790 Y-35.2716
G1 X104.4041 Y-35.2311
G1 X103.8889 Y-35.0737
G1 X103.3359 Y-34.4722
G1 X103.4133 Y-34.5961
G1 X103.0522 Y-33.4087
G1 X101.3513 Y-33.3371
G1 X101.2778 Y-33.5145
G1 X101.2759 Y-35.1569
G1 Z0.0000 F8000.0
G0 X103.4651 Y-34.6704 F15000.0
G1 Z11.9000 F8000.0
G1 X103.7083 Y-34.9623 F12000.0
G1 Z0.0000 F8000.0
G0 X101.2759 Y-31.2163 F15000.0
G1 Z11.9000 F8000.0
G1 X101.2238 Y-33.2008 F12000.0
G1 X101.0134 Y-33.2550
G1 X98.2662 Y-33.2465
G1 X98.2109 Y-35.1569
G1 Z0.0000 F8000.0
G0 X98.2109 Y-33.2596 F15000.0
G1 Z11.9000 F8000.0
G1 X98.2109 Y-31.1676 F12000.0
G1 Z0.0000 F8000.0
G0 X96.1190 Y-33.5028 F15000.0
G1 Z11.9000 F8000.0
G1 X96.1622 Y-32.1672 F12000.0
G1 X96.0787 Y-31.7137
G1 X96.6784 Y-30.8521
G1 X95.1414 Y-31.1659
G1 X95.7476 Y-31.5704
G1 X95.0216 Y-31.1480
G1 X93.9718 Y-31.0124
G1 X93.2659 Y-31.2594
G1 X93.0422 Y-31.5197
G1 X92.9313 Y-31.8735
G1 X93.0309 Y-32.4924
G1 X93.2000 Y-32.8217
G1 Z0.0000 F8000.0
G0 X93.2973 Y-32.9190 F15000.0
G1 Z11.9000 F8000.0
G1 X96.1258 Y-33.6021 F12000.0
G1 X95.9625 Y-34.8172
G1 X95.7255 Y-35.0945
G1 X95.5017 Y-35.2016
G1 X94.6359 Y-35.3210
G1 X93.2530 Y-34.7112
G1 X92.8595 Y-34.3785
G1 Z0.0000 F8000.0
G0 X91.0595 Y-31.2163 F15000.0
G1 Z11.9000 F8000.0
G1 X90.9271 Y-35.1762 F12000.0
G1 X88.2227 Y-31.9102
G1 X87.8486 Y-31.2649
G1 Z0.0000 F8000.0
G0 X85.0756 Y-32.2866 F15000.0
G1 Z11.9000 F8000.0
G1 X85.8047 Y-32.8584 F12000.0
G1 X86.0241 Y-33.2252
G1 X86.1446 Y-33.6970
G1 X86.1381 Y-34.0618
G1 X85.7188 Y-35.3646
G1 X84.8635 Y-35.9820
G1 X83.5370 Y-36.2011
G1 X83.5188 Y-36.8505
G1 X83.4866 Y-36.2846
G1 X82.1988 Y-35.9872
G1 X81.4511 Y-35.5236
G1 X81.1717 Y-35.2104
G1 X81.0211 Y-34.8670
G1 X80.8689 Y-34.1258
G1 X81.1415 Y-33.0342
G1 X81.4310 Y-32.6446
G1 X82.0651 Y-32.2521
G1 X83.5067 Y-31.9554
G1 X83.5849 Y-31.2882
G1 X84.8436 Y-32.1921
G1 X83.7212 Y-32.0733
G1 X83.5439 Y-32.1239
G1 X83.4701 Y-36.1785
G1 Z0.0000 F8000.0
G0 X81.0376 Y-34.9623 F15000.0
G1 Z11.9000 F8000.0
G1 X80.9403 Y-34.6704 F12000.0
G1 Z0.0000 F8000.0
G0 X63.2677 Y-54.0526 F15000.0
G1 Z11.9000 F8000.0
G1 X0.0000 Y-54.0526 F12000.0
G1 Z0.0000 F8000.0
G0 X0.0000 Y-58.9131 F15000.0
G1 Z11.9000 F8000.0
G1 X180.0000 Y-58.9131 F12000.0
G1 Z0.0000 F8000.0
G0 X180.0000 Y-24.8078 F15000.0
G1 Z11.9000 F8000.0
G1 X131.3959 Y-24.8078 F12000.0
G1 Z0.0000 F8000.0
G0 X133.4113 Y-21.6855 F15000.0
G1 Z11.9000 F8000.0
G1 X135.0973 Y-24.1267 F12000.0
G1 X135.1627 Y-21.7828
G1 Z0.0000 F8000.0
G0 X143.7874 Y-12.0142 F15000.0
G1 Z11.9000 F8000.0
G1 X144.1097 Y-12.0845 F12000.0
G1 X144.2947 Y-12.2141
G1 X144.4028 Y-12.4702
G1 X144.5988 Y-16.0952
G1 X144.8003 Y-16.1486
G1 X146.6596 Y-16.1116
G1 X146.7550 Y-12.1115
G1 Z0.0000 F8000.0
G0 X149.5767 Y-12.1601 F15000.0
G1 Z11.9000 F8000.0
G1 X149.5280 Y-16.1494 F12000.0
G1 Z0.0000 F8000.0
G0 X148.0199 Y-16.1494 F15000.0
G1 Z11.9000 F8000.0
G1 X151.0848 Y-16.1494 F12000.0
G1 Z0.0000 F8000.0
G0 X152.0092 Y-13.4737 F15000.0
G1 Z11.9000 F8000.0
G1 X153.1281 Y-13.4737 F12000.0
G1 Z0.0000 F8000.0
G0 X155.0723 Y-12.0344 F15000.0
G1 Z11.9000 F8000.0
G1 X154.8602 Y-12.1436 F12000.0
G1 X154.2986 Y-12.7258
G1 X154.5852 Y-12.2827
G1 X154.8688 Y-12.1041
G1 X156.1873 Y-12.2905
G1 X156.2903 Y-12.4034
G1 Z0.0000 F8000.0
G0 X155.9366 Y-12.1499 F15000.0
G1 Z11.9000 F8000.0
G1 X156.3617 Y-12.4952 F12000.0
G1 X156.5601 Y-13.7133
G1 X156.2924 Y-14.2616
G1 X156.0153 Y-14.4592
G1 X155.5398 Y-14.6132
G1 X154.4651 Y-14.4134
G1 X154.6062 Y-15.7926
G1 X154.7212 Y-16.0769
G1 X156.4363 Y-16.1007
G1 Z0.0000 F8000.0
G0 X159.4039 Y-16.1980 F15000.0
G1 Z11.9000 F8000.0
G1 X159.3335 Y-15.8266 F12000.0
G1 X159.2162 Y-15.6317
G1 X158.2303 Y-15.1248
G1 X159.2729 Y-15.5999
G1 X159.3553 Y-12.1115
G1 Z0.0000 F8000.0
G0 X162.0310 Y-12.0628 F15000.0
G1 Z11.9000 F8000.0
G1 X161.6040 Y-12.4178 F12000.0
G1 X162.0878 Y-12.0596
G1 X162.9427 Y-12.1114
G1 X163.4113 Y-12.4912
G1 X163.6620 Y-13.0033
G1 X163.7625 Y-13.6223
G1 X163.6720 Y-14.1493
G1 X163.2959 Y-13.9602
G1 Z0.0000 F8000.0
G0 X161.9823 Y-13.7656 F15000.0
G1 Z11.9000 F8000.0
G1 X161.6438 Y-14.0357 F12000.0
G1 X161.3928 Y-14.4933
G1 X161.4958 Y-14.2521
G1 Z0.0000 F8000.0
G0 X161.4472 Y-15.4197 F15000.0
G1 Z11.9000 F8000.0
G1 X161.9585 Y-16.0468 F12000.0
G1 X161.4917 Y-15.4518
G1 X161.5488 Y-14.2244
G1 X162.0931 Y-13.7208
G1 X162.9565 Y-13.7716
G1 X163.6913 Y-14.2168
G1 X163.6748 Y-15.2022
G1 X163.4219 Y-15.7522
G1 X163.1602 Y-15.9692
G1 X162.4510 Y-16.1738
G1 X162.0310 Y-16.1007
G1 Z0.0000 F8000.0
G0 X164.8527 Y-13.4737 F15000.0
G1 Z11.9000 F8000.0
G1 X165.9840 Y-13.4469 F12000.0
G1 X167.0710 Y-12.8247
G1 X167.3138 Y-12.4070
G1 X167.5740 Y-12.1673
G1 X168.5527 Y-12.0510
G1 X168.9549 Y-12.2169
G1 X168.7786 Y-12.1132
G1 X169.1524 Y-12.4021
G1 X169.3964 Y-12.9076
G1 X169.1277 Y-13.8632
G1 X168.7446 Y-14.3007
G1 Z0.0000 F8000.0
G0 X168.0149 Y-14.1061 F15000.0
G1 Z11.9000 F8000.0
G1 X168.7235 Y-14.3221 F12000.0
G1 X169.0168 Y-14.6820
G1 X169.2034 Y-15.1290
G1 X169.0456 Y-15.7250
G1 X168.1878 Y-16.1657
G1 X167.4296 Y-15.8847
G1 X167.2822 Y-15.7107
G1 X167.1878 Y-15.4197
G1 Z0.0000 F8000.0
G0 X164.9342 Y-22.6903 F15000.0
G1 Z11.9000 F8000.0
G1 X164.0875 Y-22.7850 F12000.0
G1 X164.7519 Y-23.4060
G1 X165.0749 Y-23.0911
G1 X165.0162 Y-22.6294
G1 X165.1348 Y-22.0476
G1 X165.0252 Y-21.9254
G1 X164.0896 Y-21.9203
G1 X164.0099 Y-22.6416
G1 Z0.0000 F8000.0
G0 X162.1612 Y-21.9119 F15000.0
G1 Z11.9000 F8000.0
G1 X161.9180 Y-22.2038 F12000.0
G1 Z0.0000 F8000.0
G0 X63.2677 Y-10.2266 F15000.0
G1 Z11.9000 F8000.0
G1 X0.0000 Y-10.2266 F12000.0
G1 Z0.0000 F8000.0
G0 X1.6976 Y-11.5119 F15000.0
G1 Z11.9000 F8000.0
G1 X2.3541 Y-10.4452 F12000.0
G1 X2.6934 Y-10.5286
G1 X2.5338 Y-10.3534
G1 X2.7057 Y-10.5165
G1 X2.6180 Y-10.3647
G1 Z0.0000 F8000.0
G0 X3.1495 Y-11.3979 F15000.0
G1 Z11.9000 F8000.0
G1 X2.2465 Y-9.6252 F12000.0
G1 X1.9708 Y-9.5745
G1 X2.7968 Y-10.5750
G1 X3.4736 Y-10.8999
G1 X4.5593 Y-10.9767
G1 X4.1650 Y-10.9163
G1 X4.2436 Y-9.6863
G1 X5.2698 Y-10.3262
G1 X5.8956 Y-10.3001
G1 X6.2002 Y-10.1560
G1 X6.1367 Y-10.7353
G1 X6.2159 Y-9.7344
G1 X5.8958 Y-9.6287
G1 X5.3379 Y-10.1214
G1 X5.2411 Y-10.3096
G1 X5.9788 Y-10.9767
G1 Z0.0000 F8000.0
G0 X3.9940 Y-12.3971 F15000.0
G1 Z11.9000 F8000.0
G1 X4.0185 Y-13.0138 F12000.0
G1 X4.5122 Y-13.3358
G1 X4.8697 Y-13.8080
G1 Z0.0000 F8000.0
G0 X3.9940 Y-13.7593 F15000.0
G1 Z11.9000 F8000.0
G1 X4.0688 Y-13.1917 F12000.0
G1 X4.5320 Y-12.9236
G1 X4.4475 Y-13.1616
G1 X4.4462 Y-13.0537
G1 X4.8419 Y-12.4773
G1 X5.3742 Y-12.8527
G1 X5.4642 Y-13.4566
G1 X5.7231 Y-13.7626
G1 X5.6613 Y-13.7138
G1 X6.0546 Y-13.8066
G1 X6.3885 Y-13.6940
G1 X6.4976 Y-13.5011
G1 X6.5914 Y-12.7606
G1 X6.4655 Y-12.5662
G1 X6.0061 Y-12.3867
G1 X5.7840 Y-12.4346
G1 X5.4501 Y-12.7348
G1 X5.6066 Y-12.5057
G1 X5.7943 Y-12.4117
G1 X7.1476 Y-12.4311
G1 X7.2049 Y-13.6758
G1 X7.2495 Y-13.1636
G1 X8.1852 Y-13.0414
G1 X8.2694 Y-12.5023
G1 X8.3082 Y-13.7027
G1 X8.7533 Y-13.7983
G1 X9.9293 Y-13.8080
G1 Z0.0000 F8000.0
G0 X9.3455 Y-13.8080 F15000.0
G1 Z11.9000 F8000.0
G1 X9.4267 Y-12.4567 F12000.0
G1 X10.5015 Y-12.5258
G1 X11.2125 Y-12.4151
G1 X11.5085 Y-12.6368
G1 X11.6087 Y-12.8475
G1 X11.5147 Y-13.5858
G1 X11.2233 Y-13.7401
G1 X10.6242 Y-13.6397
G1 X10.4828 Y-12.8160
G1 X10.5400 Y-11.8412
G1 X11.5347 Y-12.6404
G1 Z0.0000 F8000.0
G0 X16.5584 Y-5.3662 F15000.0
G1 Z11.9000 F8000.0
G1 X16.5584 Y-58.9131 F12000.0
G1 Z0.0000 F8000.0
G0 X2.3399 Y-12.3971 F15000.0
G1 Z11.9000 F8000.0
G1 X2.3362 Y-14.2929 F12000.0
G1 X2.2523 Y-13.5090
G1 X0.9349 Y-13.4792
G1 X0.8804 Y-12.5481
G1 X0.8804 Y-14.3918
G1 Z0.0000 F8000.0
G0 X38.9657 Y-5.3662 F15000.0
G1 Z11.9000 F8000.0
G1 X38.9657 Y-58.9131 F12000.0
G1 Z0.0000 F8000.0
G0 X53.5469 Y-58.9131 F15000.0
G1 Z11.9000 F8000.0
G1 X53.5469 Y-5.3662 F12000.0
G1 Z0.0000 F8000.0
G0 X63.2677 Y-5.3662 F15000.0
G1 Z11.9000 F8000.0
G1 X63.2677 Y-58.9131 F12000.0
G1 Z0.0000 F8000.0
G0 X128.8952 Y-130.3385 F15000.0
G1 Z11.9000 F8000.0
G1 X129.1164 Y-130.8692 F12000.0
G1 X129.1606 Y-131.2230
G1 X128.0107 Y-131.3115
G1 X128.0549 Y-131.5768
G1 X129.0721 Y-133.3459
G1 Z0.0000 F8000.0
G0 X129.3817 Y-133.9209 F15000.0
G1 Z11.9000 F8000.0
G1 X129.8240 Y-134.7170 F12000.0
G1 Z0.0000 F8000.0
G0 X131.9226 Y-134.2660 F15000.0
G1 Z11.9000 F8000.0
G1 X134.0013 Y-134.7083 F12000.0
G1 X134.0455 Y-134.6640
G1 X133.8686 Y-134.1775
G1 X132.6303 Y-132.0989
G1 Z0.0000 F8000.0
G0 X131.6130 Y-130.3740 F15000.0
G1 Z11.9000 F8000.0
G1 X131.5246 Y-130.2414 F12000.0
G1 Z0.0000 F8000.0
G0 X130.0451 Y-131.3115 F15000.0
G1 Z11.9000 F8000.0
G1 X129.3817 Y-131.2673 F12000.0
G1 X129.6913 Y-132.2845
G1 Z0.0000 F8000.0
G0 X130.3137 Y-141.2396 F15000.0
G1 Z11.9000 F8000.0
G1 X131.9501 Y-141.5492 F12000.0
G1 X132.3039 Y-141.9030
G1 X132.5693 Y-142.5222
G1 Z0.0000 F8000.0
G0 X132.7020 Y-142.8318 F15000.0
G1 Z11.9000 F8000.0
G1 X132.7462 Y-142.9202 F12000.0
G1 X132.4808 Y-143.7605
G1 X132.1712 Y-143.7605
G1 Z0.0000 F8000.0
G0 X132.5693 Y-143.8490 F15000.0
G1 Z11.9000 F8000.0
G1 X132.9231 Y-144.2028 F12000.0
G1 Z0.0000 F8000.0
G0 X133.1000 Y-144.5124 F15000.0
G1 Z11.9000 F8000.0
G1 X133.3654 Y-145.4411 F12000.0
G1 Z0.0000 F8000.0
G0 X133.1000 Y-145.7507 F15000.0
G1 Z11.9000 F8000.0
G1 X132.1712 Y-145.8392 F12000.0
G1 Z0.0000 F8000.0
G0 X130.7118 Y-145.6181 F15000.0
G1 Z11.9000 F8000.0
G1 X130.8002 Y-145.4411 F12000.0
G1 X130.5348 Y-144.6008
G1 X130.0041 Y-143.8490
G1 Z0.0000 F8000.0
G0 X129.6061 Y-143.7605 F15000.0
G1 Z11.9000 F8000.0
G1 X129.9157 Y-143.7605 F12000.0
G1 X130.1810 Y-142.9202
G1 X130.1368 Y-142.8318
G1 Z0.0000 F8000.0
G0 X130.0041 Y-142.5222 F15000.0
G1 Z11.9000 F8000.0
G1 X129.7388 Y-141.9030 F12000.0
G1 X129.4734 Y-141.6376
G1 X128.9427 Y-141.3723
G1 X127.7486 Y-141.2396
G1 Z0.0000 F8000.0
G0 X129.6061 Y-145.8392 F15000.0
G1 Z11.9000 F8000.0
G1 X130.5348 Y-145.7507 F12000.0
G1 Z0.0000 F8000.0
G0 X130.9016 Y-153.6499 F15000.0
G1 Z11.9000 F8000.0
G1 X133.7849 Y-153.8146 F12000.0
G1 X136.5858 Y-154.3089 F12000.0
G1 X139.3867 Y-155.1327 F12000.0
G1 X140.0458 Y-155.3799 F12000.0
G1 X167.9725 Y-166.3364 F12000.0
G1 Z0.0000 F8000.0
G0 X168.5492 Y-166.5835 F15000.0
G1 Z11.9000 F8000.0
G1 X166.5721 Y-165.8421 F12000.0
G1 X164.5126 Y-165.4302 F12000.0
G1 X162.3707 Y-165.3478 F12000.0
G1 X160.3112 Y-165.6773 F12000.0
G1 X158.2517 Y-166.2540 F12000.0
G1 X156.3570 Y-167.0778 F12000.0
G1 X154.5446 Y-168.3135 F12000.0
G1 X152.9794 Y-169.7140 F12000.0
G1 X151.6613 Y-171.3616 F12000.0
G1 X150.6728 Y-173.2563 F12000.0
G1 X149.9313 Y-175.2334 F12000.0
G1 X149.4371 Y-177.2929 F12000.0
G1 X149.3547 Y-179.4348 F12000.0
G1 X149.6018 Y-181.4943 F12000.0
G1 X150.1785 Y-183.5538 F12000.0
G1 X151.0023 Y-185.4485 F12000.0
G1 X152.1556 Y-187.2609 F12000.0
G1 X153.5561 Y-188.8261 F12000.0
G1 X155.2037 Y-190.1442 F12000.0
G1 X157.0160 Y-191.2151 F12000.0
G1 X158.9931 Y-192.0389 F12000.0
G1 X161.0526 Y-192.4508 F12000.0
G1 X163.1945 Y-192.6156 F12000.0
G1 X165.3364 Y-192.3684 F12000.0
G1 X167.3959 Y-191.8741 F12000.0
G1 Z0.0000 F8000.0
G0 X163.0297 Y-187.7551 F15000.0
G1 Z11.9000 F8000.0
G1 X163.0297 Y-197.4760 F12000.0
G1 Z0.0000 F8000.0
G0 X161.7117 Y-186.6842 F15000.0
G1 Z11.9000 F8000.0
G1 X157.5103 Y-212.3043 F12000.0
G1 X138.3982 Y-212.3043 F12000.0
G1 Z0.0000 F8000.0
G0 X141.3036 Y-214.9218 F15000.0
G1 Z11.9000 F8000.0
G1 X141.7017 Y-215.4083 F12000.0
G1 Z0.0000 F8000.0
G0 X141.9228 Y-215.7621 F15000.0
G1 Z11.9000 F8000.0
G1 X141.9671 Y-215.8948 F12000.0
G1 X142.1440 Y-215.9391
G1 X142.2766 Y-216.2486
G1 Z0.0000 F8000.0
G0 X142.2324 Y-215.9391 F15000.0
G1 Z11.9000 F8000.0
G1 X143.6477 Y-216.5582 F12000.0
G1 X144.0015 Y-217.5754
G1 X143.6034 Y-218.0619
G1 X143.7361 Y-218.4158
G1 X144.2226 Y-219.1234
G1 Z0.0000 F8000.0
G0 X143.4708 Y-218.1062 F15000.0
G1 Z11.9000 F8000.0
G1 X143.4265 Y-218.1504 F12000.0
G1 X142.3651 Y-217.8850
G1 Z0.0000 F8000.0
G0 X142.0997 Y-217.6639 F15000.0
G1 Z11.9000 F8000.0
G1 X141.8344 Y-217.3543 F12000.0
G1 X141.6132 Y-216.8678
G1 X141.7901 Y-216.1602
G1 Z0.0000 F8000.0
G0 X144.7091 Y-216.6909 F15000.0
G1 Z11.9000 F8000.0
G1 X144.3111 Y-215.8064 F12000.0
G1 X145.2841 Y-214.9661
G1 X145.8590 Y-215.1430
G1 X146.0801 Y-215.3199
G1 X146.5666 Y-216.2044
G1 X146.7436 Y-217.0005
G1 X146.5224 Y-217.3985
G1 X145.5494 Y-217.4428
G1 X145.3725 Y-218.1062
G1 X145.5937 Y-218.7253
G1 Z0.0000 F8000.0
G0 X146.4340 Y-219.4330 F15000.0
G1 Z11.9000 F8000.0
G1 X147.0974 Y-219.3887 F12000.0
G1 Z0.0000 F8000.0
G0 X147.2743 Y-219.1676 F15000.0
G1 Z11.9000 F8000.0
G1 X147.3627 Y-219.0792 F12000.0
G1 X147.0531 Y-218.0177
G1 Z0.0000 F8000.0
G0 X146.8762 Y-217.7966 F15000.0
G1 Z11.9000 F8000.0
G1 X146.6109 Y-217.5754 F12000.0
G1 Z0.0000 F8000.0
G0 X145.2841 Y-217.2659 F15000.0
G1 Z11.9000 F8000.0
G1 X145.0629 Y-217.0890 F12000.0
G1 Z0.0000 F8000.0
G0 X143.8966 Y-210.4924 F15000.0
G1 Z11.9000 F8000.0
G1 X143.1448 Y-210.4040 F12000.0
G1 X142.6583 Y-210.1386
G1 X142.3929 Y-209.8733
G1 Z0.0000 F8000.0
G0 X144.3389 Y-210.0059 F15000.0
G1 Z11.9000 F8000.0
G1 X144.2062 Y-209.2983 F12000.0
G1 X141.2430 Y-206.1140
G1 X140.9334 Y-205.9813
G1 Z0.0000 F8000.0
G0 X141.2430 Y-206.1140 F15000.0
G1 Z11.9000 F8000.0
G1 X142.8794 Y-206.0255 F12000.0
G1 Z0.0000 F8000.0
G0 X146.0462 Y-206.5544 F15000.0
G1 Z11.9000 F8000.0
G1 X147.1518 Y-206.0237 F12000.0
G1 X147.4172 Y-206.1122
G1 Z0.0000 F8000.0
G0 X147.7710 Y-206.5544 F15000.0
G1 Z11.9000 F8000.0
G1 X148.5671 Y-208.9427 F12000.0
G1 X148.4344 Y-209.0754
G1 X147.1961 Y-209.0311
G1 Z0.0000 F8000.0
G0 X146.9307 Y-208.8542 F15000.0
G1 Z11.9000 F8000.0
G1 X146.1346 Y-206.7756 F12000.0
G1 Z0.0000 F8000.0
G0 X148.5229 Y-206.2448 F15000.0
G1 Z11.9000 F8000.0
G1 X149.5401 Y-209.0311 F12000.0
G1 Z0.0000 F8000.0
G0 X149.6285 Y-209.1196 F15000.0
G1 Z11.9000 F8000.0
G1 X150.8669 Y-209.1638 F12000.0
G1 X152.0168 Y-209.0754
G1 Z0.0000 F8000.0
G0 X152.1495 Y-208.9427 F15000.0
G1 Z11.9000 F8000.0
G1 X151.1765 Y-205.9795 F12000.0
G1 Z0.0000 F8000.0
G0 X150.0708 Y-206.6871 F15000.0
G1 Z11.9000 F8000.0
G1 X149.8054 Y-205.9795 F12000.0
G1 Z0.0000 F8000.0
G0 X150.2035 Y-207.0409 F15000.0
G1 Z11.9000 F8000.0
G1 X150.4688 Y-207.8370 F12000.0
G1 Z0.0000 F8000.0
G0 X150.6900 Y-208.4120 F15000.0
G1 Z11.9000 F8000.0
G1 X150.9111 Y-209.1196 F12000.0
G1 Z0.0000 F8000.0
G0 X152.9898 Y-208.7215 F15000.0
G1 Z11.9000 F8000.0
G1 X152.2379 Y-206.2006 F12000.0
G1 X153.5647 Y-206.1122
G1 X153.7416 Y-206.2448
G1 X154.0070 Y-206.6871
G1 X154.7588 Y-208.8542
G1 X154.6704 Y-209.0311
G1 X153.8743 Y-209.2080
G1 X153.2551 Y-209.1196
G1 X153.2551 Y-209.4734
G1 Z0.0000 F8000.0
G0 X153.3878 Y-209.8272 F15000.0
G1 Z11.9000 F8000.0
G1 X153.6089 Y-210.2253 F12000.0
G1 X153.8301 Y-210.4022
G1 Z0.0000 F8000.0
G0 X154.0954 Y-210.5348 F15000.0
G1 Z11.9000 F8000.0
G1 X154.5819 Y-210.3137 F12000.0
G1 X153.8743 Y-209.2523
G1 Z0.0000 F8000.0
G0 X154.5377 Y-206.1564 F15000.0
G1 Z11.9000 F8000.0
G1 X154.4493 Y-206.0679 F12000.0
G1 Z0.0000 F8000.0
G0 X161.7117 Y-186.6842 F15000.0
G1 Z11.9000 F8000.0
G1 X163.1121 Y-181.9886 F12000.0
G1 X162.4531 Y-182.3181 F12000.0
G1 X161.8764 Y-181.7414 F12000.0
G1 X161.7117 Y-186.6842 F12000.0
G1 X164.2654 Y-171.2792 F12000.0
G1 X162.8650 Y-175.9748 F12000.0
G1 X163.5240 Y-175.6453 F12000.0
G1 X164.1007 Y-176.2220 F12000.0
G1 X164.2654 Y-171.2792 F12000.0
G1 Z0.0000 F8000.0
G0 X163.6064 Y-173.3539 F15000.0
G1 Z11.9000 F8000.0
G1 X163.6064 Y-174.2296 F12000.0
G1 Z0.0000 F8000.0
G0 X163.8947 Y-174.4356 F15000.0
G1 Z11.9000 F8000.0
G1 X163.8947 Y-173.5599 F12000.0
G1 Z0.0000 F8000.0
G0 X163.0297 Y-173.6682 F15000.0
G1 Z11.9000 F8000.0
G1 X163.0297 Y-183.3890 F12000.0
G1 Z0.0000 F8000.0
G0 X162.4531 Y-183.8162 F15000.0
G1 Z11.9000 F8000.0
G1 X162.4531 Y-184.6918 F12000.0
G1 Z0.0000 F8000.0
G0 X162.1236 Y-184.4859 F15000.0
G1 Z11.9000 F8000.0
G1 X162.1236 Y-183.6102 F12000.0
G1 Z0.0000 F8000.0
G0 X163.0297 Y-184.8718 F15000.0
G1 Z11.9000 F8000.0
G1 X163.0297 Y-186.2723 F12000.0
G1 Z0.0000 F8000.0
G0 X165.7483 Y-179.0229 F15000.0
G1 Z11.9000 F8000.0
G1 X167.2311 Y-179.0229 F12000.0
G1 Z0.0000 F8000.0
G0 X168.7139 Y-179.0229 F15000.0
G1 Z11.9000 F8000.0
G1 X178.5995 Y-179.0229 F12000.0
G1 Z0.0000 F8000.0
G0 X176.6224 Y-178.1991 F15000.0
G1 Z11.9000 F8000.0
G1 X176.2929 Y-176.0572 F12000.0
G1 X175.7162 Y-174.0801 F12000.0
G1 X174.7277 Y-172.1030 F12000.0
G1 X173.5744 Y-170.3730 F12000.0
G1 X172.0915 Y-168.8902 F12000.0
G1 X170.4439 Y-167.5721 F12000.0
G1 X168.5492 Y-166.5835 F12000.0
G1 Z0.0000 F8000.0
G0 X142.2700 Y-176.3043 F15000.0
G1 Z11.9000 F8000.0
G1 X141.6110 Y-174.4096 F12000.0
G1 X140.7048 Y-172.6796 F12000.0
G1 X139.5515 Y-171.1144 F12000.0
G1 X138.0686 Y-169.7963 F12000.0
G1 X136.4210 Y-168.7254 F12000.0
G1 X134.6911 Y-167.9016 F12000.0
G1 X132.7140 Y-167.4897 F12000.0
G1 X130.8192 Y-167.3249 F12000.0
G1 X128.8421 Y-167.4897 F12000.0
G1 X126.9474 Y-167.9840 F12000.0
G1 X125.1350 Y-168.8078 F12000.0
G1 X123.5698 Y-169.8787 F12000.0
G1 X122.1693 Y-171.2792 F12000.0
G1 X120.9336 Y-172.8444 F12000.0
G1 X120.1098 Y-174.5744 F12000.0
G1 X119.4508 Y-176.4691 F12000.0
G1 X119.2037 Y-178.3638 F12000.0
G1 X119.2860 Y-180.3410 F12000.0
G1 X119.6979 Y-182.2357 F12000.0
G1 X120.3570 Y-184.1304 F12000.0
G1 X121.3455 Y-185.7780 F12000.0
G1 X122.6636 Y-187.2609 F12000.0
G1 X124.1464 Y-188.4966 F12000.0
G1 X125.8764 Y-189.4851 F12000.0
G1 X127.6888 Y-190.2265 F12000.0
G1 X129.5835 Y-190.5561 F12000.0
G1 X131.5606 Y-190.6384 F12000.0
G1 X133.5378 Y-190.3913 F12000.0
G1 X135.3501 Y-189.7323 F12000.0
G1 X137.0801 Y-188.8261 F12000.0
G1 X138.6453 Y-187.6728 F12000.0
G1 X140.0458 Y-186.2723 F12000.0
G1 X141.1167 Y-184.6247 F12000.0
G1 X141.9405 Y-182.8123 F12000.0
G1 X142.4348 Y-180.9176 F12000.0
G1 X142.5995 Y-179.0229 F12000.0
G1 X142.5172 Y-178.1991 F12000.0
G1 X142.2700 Y-176.3043 F12000.0
G1 Z0.0000 F8000.0
G0 X137.6678 Y-172.3803 F15000.0
G1 Z11.9000 F8000.0
G1 X136.9867 Y-173.0614 F12000.0
G1 Z0.0000 F8000.0
G0 X136.6983 Y-172.5671 F15000.0
G1 Z11.9000 F8000.0
G1 X137.3794 Y-171.8860 F12000.0
G1 Z0.0000 F8000.0
G0 X138.9748 Y-170.6201 F15000.0
G1 Z11.9000 F8000.0
G1 X135.1853 Y-173.6682 F12000.0
G1 X135.9268 Y-173.7506 F12000.0
G1 X136.0915 Y-174.4920 F12000.0
G1 X138.9748 Y-170.6201 F12000.0
G1 X122.7460 Y-187.4256 F12000.0
G1 X125.7117 Y-183.4714 F12000.0
G1 X125.7940 Y-184.2128 F12000.0
G1 X126.6178 Y-184.2952 F12000.0
G1 Z0.0000 F8000.0
G0 X125.0637 Y-185.4787 F15000.0
G1 Z11.9000 F8000.0
G1 X124.3826 Y-186.1598 F12000.0
G1 Z0.0000 F8000.0
G0 X124.0530 Y-185.7067 F15000.0
G1 Z11.9000 F8000.0
G1 X124.7341 Y-185.0256 F12000.0
G1 Z0.0000 F8000.0
G0 X121.7162 Y-158.7422 F15000.0
G1 Z11.9000 F8000.0
G1 X121.7162 Y-157.8665 F12000.0
G1 Z0.0000 F8000.0
G0 X121.7876 Y-158.3566 F15000.0
G1 Z11.9000 F8000.0
G1 X122.4687 Y-157.6755 F12000.0
G1 Z0.0000 F8000.0
G0 X159.8734 Y-138.9863 F15000.0
G1 Z11.9000 F8000.0
G1 X160.7490 Y-138.9863 F12000.0
G1 Z0.0000 F8000.0
G0 X161.0374 Y-138.4096 F15000.0
G1 Z11.9000 F8000.0
G1 X160.1617 Y-138.4096 F12000.0
G1 Z0.0000 F8000.0
G0 X173.5072 Y-127.8650 F15000.0
G1 Z11.9000 F8000.0
G1 X174.3829 Y-127.8650 F12000.0
G1 Z0.0000 F8000.0
G0 X174.6712 Y-127.2471 F15000.0
G1 Z11.9000 F8000.0
G1 X173.7956 Y-127.2471 F12000.0
G1 Z0.0000 F8000.0
G0 X68.1282 Y-271.0412 F15000.0
G1 Z11.9000 F8000.0
G1 X0.0000 Y-271.0412 F12000.0
G1 Z0.0000 F8000.0
G0 X12.8706 Y-276.5645 F15000.0
G1 Z11.9000 F8000.0
G1 X12.9180 Y-279.8273 F12000.0
G1 X13.0236 Y-280.1527
G1 X13.1742 Y-280.0128
G1 X14.4129 Y-277.1076
G1 X14.5557 Y-276.9112
G1 X14.7591 Y-276.8066
G1 X15.0209 Y-276.9392
G1 X15.2801 Y-277.6944
G1 Z0.0000 F8000.0
G0 X15.1572 Y-277.3429 F15000.0
G1 Z11.9000 F8000.0
G1 X15.7409 Y-279.0457 F12000.0
G1 Z0.0000 F8000.0
G0 X16.1788 Y-279.9213 F15000.0
G1 Z11.9000 F8000.0
G1 X15.8357 Y-279.2447 F12000.0
G1 X16.0779 Y-279.7800
G1 X16.4330 Y-280.2185
G1 X16.3408 Y-279.7670
G1 X16.5680 Y-276.5645
G1 Z0.0000 F8000.0
G0 X15.0282 Y-276.9610 F15000.0
G1 Z11.9000 F8000.0
G1 X14.8653 Y-276.8078 F12000.0
G1 Z0.0000 F8000.0
G0 X17.8815 Y-278.0727 F15000.0
G1 Z11.9000 F8000.0
G1 X18.3194 Y-277.7321 F12000.0
G1 Z0.0000 F8000.0
G0 X19.8275 Y-277.8294 F15000.0
G1 Z11.9000 F8000.0
G1 X19.8275 Y-276.5645 F12000.0
G1 Z0.0000 F8000.0
G0 X21.3356 Y-276.9537 F15000.0
G1 Z11.9000 F8000.0
G1 X21.1897 Y-277.3429 F12000.0
G1 Z0.0000 F8000.0
G0 X21.6762 Y-280.3592 F15000.0
G1 Z11.9000 F8000.0
G1 X21.1899 Y-279.5100 F12000.0
G1 X21.0599 Y-278.3842
G1 X21.3359 Y-277.0282
G1 X21.4886 Y-276.8467
G1 X21.9982 Y-276.5230
G1 X23.3393 Y-277.7823
G1 X23.1865 Y-279.7800
G1 X23.0785 Y-279.9879
G1 X22.3327 Y-280.4473
G1 X22.0990 Y-280.4623
G1 X21.5544 Y-280.2048
G1 X21.2027 Y-279.6446
G1 X19.8962 Y-279.2333
G1 X19.8292 Y-279.0297
G1 X19.8048 Y-277.9130
G1 X19.6362 Y-277.8121
G1 X18.3978 Y-277.7261
G1 X18.2538 Y-277.9011
G1 X17.7356 Y-279.1916
G1 Z0.0000 F8000.0
G0 X24.6925 Y-279.6781 F15000.0
G1 Z11.9000 F8000.0
G1 X25.0754 Y-280.2772 F12000.0
G1 X25.6486 Y-280.4724
G1 X25.8744 Y-280.4050
G1 X26.5916 Y-279.9152
G1 X26.8018 Y-277.8040
G1 X25.4724 Y-276.5212
G1 X24.7995 Y-277.0058
G1 X24.5168 Y-278.3589
G1 X24.6738 Y-279.6038
G1 X25.1303 Y-280.3592
G1 Z0.0000 F8000.0
G0 X24.6438 Y-277.3429 F15000.0
G1 Z11.9000 F8000.0
G1 X24.7898 Y-276.9537 F12000.0
G1 Z0.0000 F8000.0
G0 X30.1899 Y-276.6618 F15000.0
G1 Z11.9000 F8000.0
G1 X29.8526 Y-277.1588 F12000.0
G1 X30.1890 Y-276.6937
G1 X30.5101 Y-276.5166
G1 X30.7444 Y-276.5268
G1 X31.8034 Y-276.9157
G1 X32.0663 Y-277.4635
G1 X32.0385 Y-278.2186
G1 Z0.0000 F8000.0
G0 X31.9899 Y-278.3159 F15000.0
G1 Z11.9000 F8000.0
G1 X31.6072 Y-278.8091 F12000.0
G1 X30.9146 Y-278.9790
G1 X29.9891 Y-278.9196
G1 X30.2586 Y-280.3459
G1 X30.4612 Y-280.4066
G1 X31.8926 Y-280.4078
G1 Z0.0000 F8000.0
G0 X33.2548 Y-279.6781 F15000.0
G1 Z11.9000 F8000.0
G1 X33.5086 Y-280.1515 F12000.0
G1 X34.3158 Y-280.4749
G1 X35.0335 Y-280.2671
G1 X35.2959 Y-280.0769
G1 X35.4781 Y-279.4541
G1 X35.4362 Y-279.2093
G1 X35.1930 Y-278.7307
G1 X35.3579 Y-279.0193
G1 X34.9687 Y-278.4188
G1 X33.3272 Y-276.5772
G1 X35.4440 Y-276.5159
G1 Z0.0000 F8000.0
G0 X38.5089 Y-277.3429 F15000.0
G1 Z11.9000 F8000.0
G1 X38.6549 Y-276.9537 F12000.0
G1 Z0.0000 F8000.0
G0 X38.5576 Y-279.6781 F15000.0
G1 Z11.9000 F8000.0
G1 X38.6669 Y-279.9400 F12000.0
G1 X38.9895 Y-280.3200
G1 X39.5772 Y-280.4733
G1 X40.3354 Y-280.0401
G1 X40.4871 Y-279.8593
G1 X40.6748 Y-277.8574
G1 X40.5646 Y-277.6551
G1 X39.3812 Y-276.5410
G1 X39.1833 Y-276.5794
G1 X38.6909 Y-276.9579
G1 X38.3817 Y-278.5509
G1 X38.5192 Y-279.5501
G1 X38.9954 Y-280.3592
G1 Z0.0000 F8000.0
G0 X42.0117 Y-279.6781 F15000.0
G1 Z11.9000 F8000.0
G1 X42.1210 Y-279.9400 F12000.0
G1 X42.4436 Y-280.3200
G1 X43.0314 Y-280.4733
G1 X43.7895 Y-280.0401
G1 X43.9412 Y-279.8593
G1 X44.1289 Y-277.8574
G1 X44.0188 Y-277.6551
G1 X42.8353 Y-276.5410
G1 X42.6374 Y-276.5794
G1 X42.1451 Y-276.9579
G1 X41.8358 Y-278.5509
G1 X41.9733 Y-279.5501
G1 X42.4495 Y-280.3592
G1 Z0.0000 F8000.0
G0 X41.9631 Y-277.3429 F15000.0
G1 Z11.9000 F8000.0
G1 X42.1090 Y-276.9537 F12000.0
G1 Z0.0000 F8000.0
G0 X47.1686 Y-277.3429 F15000.0
G1 Z11.9000 F8000.0
G1 X47.3145 Y-276.9537 F12000.0
G1 Z0.0000 F8000.0
G0 X47.2172 Y-279.6781 F15000.0
G1 Z11.9000 F8000.0
G1 X47.3265 Y-279.9400 F12000.0
G1 X47.6491 Y-280.3200
G1 X48.2369 Y-280.4733
G1 X48.9950 Y-280.0401
G1 X49.1467 Y-279.8593
G1 X49.3344 Y-277.8574
G1 X49.2243 Y-277.6551
G1 X48.0408 Y-276.5410
G1 X47.8429 Y-276.5794
G1 X47.3506 Y-276.9579
G1 X47.0413 Y-278.5509
G1 X47.1788 Y-279.5501
G1 X47.6550 Y-280.3592
G1 Z0.0000 F8000.0
G0 X51.8876 Y-279.9213 F15000.0
G1 Z11.9000 F8000.0
G1 X51.5415 Y-279.5702 F12000.0
G1 X50.4500 Y-277.6643
G1 X52.2382 Y-277.5355
G1 X52.2530 Y-276.6409
G1 X52.7930 Y-277.5160
G1 X52.2387 Y-277.6253
G1 X51.9225 Y-279.8245
G1 X52.1525 Y-280.0794
G1 X52.2768 Y-280.4078
G1 Z0.0000 F8000.0
G0 X68.1282 Y-284.6338 F15000.0
G1 Z11.9000 F8000.0
G1 X68.1282 Y-271.0412 F12000.0
G1 Z0.0000 F8000.0
G0 X29.9466 Y-278.8024 F15000.0
G1 Z11.9000 F8000.0
G1 X29.9466 Y-278.8511 F12000.0
G1 Z0.0000 F8000.0

G0 Z0.0000 F800.0
G4 P0.06
G0 X0.0000 Y0.0000 F15000.0
M5
G4 P0.10
$1=0
