$X
$1=255
G21
G90
G92 Z4.0000
G0 Z0.0000 F800.0
G4 P0.06
G92 Z0.0000
G0 Z0.0000 F800.0
G0 X0.0000 Y0.0000 F15000.0
G21
G90
G17
G91.1
G0 Z0.0000
G0 X40.8862 Y-89.1323 F15000.0
G1 Z11.9000 F8000.0
G1 X36.8315 Y-90.5117 F12000.0
G1 Z0.0000 F8000.0
G0 X40.6353 Y-89.6758 F15000.0
G1 Z11.9000 F8000.0
G1 X40.5518 Y-89.8847 F12000.0
G1 Z0.0000 F8000.0
G0 X40.4264 Y-90.1356 F15000.0
G1 Z11.9000 F8000.0
G1 X40.3010 Y-90.3864 F12000.0
G1 Z0.0000 F8000.0
G0 X40.1755 Y-88.0873 F15000.0
G1 Z11.9000 F8000.0
G1 X39.1723 Y-88.8397 F12000.0
G1 X38.8797 Y-87.9201
G1 Z0.0000 F8000.0
G0 X39.0469 Y-89.0069 F15000.0
G1 Z11.9000 F8000.0
G1 X38.1691 Y-88.9651 F12000.0
G1 X38.0019 Y-88.4635
G1 Z0.0000 F8000.0
G0 X37.7092 Y-87.7946 F15000.0
G1 Z11.9000 F8000.0
G1 X38.2945 Y-87.2512 F12000.0
G1 Z0.0000 F8000.0
G0 X37.7928 Y-89.2577 F15000.0
G1 Z11.9000 F8000.0
G1 X37.5421 Y-89.4667 F12000.0
G1 Z0.0000 F8000.0
G0 X81.7755 Y-158.4990 F15000.0
G1 Z11.9000 F8000.0
G1 X80.4378 Y-154.4861 F12000.0
G1 Z0.0000 F8000.0
G0 X81.5664 Y-154.9876 F15000.0
G1 Z11.9000 F8000.0
G1 X81.3157 Y-154.8623 F12000.0
G1 Z0.0000 F8000.0
G0 X81.0648 Y-154.7369 F15000.0
G1 Z11.9000 F8000.0
G1 X80.8558 Y-154.6533 F12000.0
G1 Z0.0000 F8000.0
G0 X80.8976 Y-157.9974 F15000.0
G1 Z11.9000 F8000.0
G1 X79.3510 Y-157.2867 F12000.0
G1 Z0.0000 F8000.0
G0 X78.0551 Y-157.4539 F15000.0
G1 Z11.9000 F8000.0
G1 X76.5084 Y-157.2450 F12000.0
G1 X76.1741 Y-156.5761
G1 Z0.0000 F8000.0
G0 X77.8043 Y-157.3703 F15000.0
G1 Z11.9000 F8000.0
G1 X77.5535 Y-156.8688 F12000.0
G1 Z0.0000 F8000.0
G0 X77.3862 Y-156.5761 F15000.0
G1 Z11.9000 F8000.0
G1 X77.1355 Y-156.1999 F12000.0
G1 Z0.0000 F8000.0
G0 X77.1355 Y-158.4572 F15000.0
G1 Z11.9000 F8000.0
G1 X76.9264 Y-158.1646 F12000.0
G1 Z0.0000 F8000.0
G0 X76.8428 Y-155.6983 F15000.0
G1 Z11.9000 F8000.0
G1 X76.6339 Y-155.3639 F12000.0
G1 Z0.0000 F8000.0
G0 X76.7592 Y-157.9137 F15000.0
G1 Z11.9000 F8000.0
G1 X76.3830 Y-157.7048 F12000.0
G1 Z0.0000 F8000.0
G0 X76.4666 Y-155.0712 F15000.0
G1 Z11.9000 F8000.0
G1 X76.2158 Y-154.6950 F12000.0
G1 Z0.0000 F8000.0
G0 X76.0486 Y-154.4025 F15000.0
G1 Z11.9000 F8000.0
G1 X75.9650 Y-154.2770 F12000.0
G1 Z0.0000 F8000.0
G0 X123.2091 Y-107.5184 F15000.0
G1 Z11.9000 F8000.0
G1 X121.7879 Y-107.7274 F12000.0
G1 Z0.0000 F8000.0
G0 X123.0419 Y-104.9266 F15000.0
G1 Z11.9000 F8000.0
G1 X122.9164 Y-105.0102 F12000.0
G1 Z0.0000 F8000.0
G0 X122.6238 Y-105.1774 F15000.0
G1 Z11.9000 F8000.0
G1 X122.2894 Y-105.3865 F12000.0
G1 Z0.0000 F8000.0
G0 X121.9968 Y-105.5537 F15000.0
G1 Z11.9000 F8000.0
G1 X121.6206 Y-105.8045 F12000.0
G1 Z0.0000 F8000.0
G0 X121.4952 Y-107.9363 F15000.0
G1 Z11.9000 F8000.0
G1 X120.3247 Y-108.8978 F12000.0
G1 Z0.0000 F8000.0
G0 X121.1190 Y-106.0971 F15000.0
G1 Z11.9000 F8000.0
G1 X120.7845 Y-106.3061 F12000.0
G1 Z0.0000 F8000.0
G0 X120.7428 Y-105.1357 F15000.0
G1 Z11.9000 F8000.0
G1 X120.4502 Y-105.2611 F12000.0
G1 Z0.0000 F8000.0
G0 X120.4920 Y-106.4733 F15000.0
G1 Z11.9000 F8000.0
G1 X119.9486 Y-106.7659 F12000.0
G1 X119.6560 Y-105.1774
G1 Z0.0000 F8000.0
G0 X120.1994 Y-105.3865 F15000.0
G1 Z11.9000 F8000.0
G1 X118.8617 Y-106.1389 F12000.0
G1 Z0.0000 F8000.0
G0 X120.0322 Y-109.1069 F15000.0
G1 Z11.9000 F8000.0
G1 X118.9035 Y-110.1518 F12000.0
G1 Z0.0000 F8000.0
G0 X119.9067 Y-106.8078 F15000.0
G1 Z11.9000 F8000.0
G1 X119.8232 Y-107.0167 F12000.0
G1 Z0.0000 F8000.0
G0 X118.9453 Y-109.7339 F15000.0
G1 Z11.9000 F8000.0
G1 X118.6945 Y-108.3544 F12000.0
G1 Z0.0000 F8000.0
G0 X34.0048 Y-124.1052 F15000.0
G1 Z11.9000 F8000.0
G1 X33.0434 Y-121.8897 F12000.0
G1 Z0.0000 F8000.0
G0 X29.4902 Y-124.1888 F15000.0
G1 Z11.9000 F8000.0
G1 X30.3681 Y-121.5971 F12000.0
G1 X32.7925 Y-121.5971
G1 X31.4966 Y-116.9153
G1 Z0.0000 F8000.0
G0 X30.1590 Y-121.3881 F15000.0
G1 Z11.9000 F8000.0
G1 X31.1204 Y-115.6612 F12000.0
G1 Z0.0000 F8000.0
G0 X23.0554 Y-124.1052 F15000.0
G1 Z11.9000 F8000.0
G1 X22.0939 Y-121.8897 F12000.0
G1 Z0.0000 F8000.0
G0 X18.5408 Y-124.1888 F15000.0
G1 Z11.9000 F8000.0
G1 X19.4186 Y-121.5971 F12000.0
G1 X21.8431 Y-121.5971
G1 X20.5473 Y-116.9153
G1 Z0.0000 F8000.0
G0 X19.2096 Y-121.3881 F15000.0
G1 Z11.9000 F8000.0
G1 X20.1710 Y-115.6612 F12000.0
G1 Z0.0000 F8000.0
G0 X10.0933 Y-252.5382 F15000.0
G1 Z11.9000 F8000.0
G1 X8.7557 Y-248.5252 F12000.0
G1 Z0.0000 F8000.0
G0 X9.7171 Y-248.9432 F15000.0
G1 Z11.9000 F8000.0
G1 X9.2572 Y-248.6924 F12000.0
G1 Z0.0000 F8000.0
G0 X8.5048 Y-252.3709 F15000.0
G1 Z11.9000 F8000.0
G1 X7.2925 Y-250.9079 F12000.0
G1 Z0.0000 F8000.0
G0 X8.2959 Y-252.3292 F15000.0
G1 Z11.9000 F8000.0
G1 X6.8327 Y-252.6635 F12000.0
G1 Z0.0000 F8000.0
G0 X7.0000 Y-250.5316 F15000.0
G1 Z11.9000 F8000.0
G1 X6.0385 Y-248.1490 F12000.0
G1 Z0.0000 F8000.0
G0 X180.0000 Y-104.0291 F15000.0
G1 Z11.9000 F8000.0
G1 X177.3707 Y-104.0291 F12000.0
G1 Z0.0000 F8000.0
G0 X175.9692 Y-104.0291 F15000.0
G1 Z11.9000 F8000.0
G1 X174.5677 Y-104.0291 F12000.0
G1 Z0.0000 F8000.0
G0 X173.1662 Y-104.0291 F15000.0
G1 Z11.9000 F8000.0
G1 X154.9464 Y-104.0291 F12000.0
G1 Z0.0000 F8000.0
G0 X180.0000 Y-110.5875 F15000.0
G1 Z11.9000 F8000.0
G1 X178.5387 Y-112.0489 F12000.0
G1 Z0.0000 F8000.0
G0 X180.0000 Y-107.9629 F15000.0
G1 Z11.9000 F8000.0
G1 X175.9692 Y-112.0489 F12000.0
G1 Z0.0000 F8000.0
G0 X179.0837 Y-106.2871 F15000.0
G1 Z11.9000 F8000.0
G1 X173.3219 Y-112.0489 F12000.0
G1 Z0.0000 F8000.0
G0 X176.5143 Y-106.2871 F15000.0
G1 Z11.9000 F8000.0
G1 X170.7525 Y-112.0489 F12000.0
G1 Z0.0000 F8000.0
G0 X170.1296 Y-112.6718 F15000.0
G1 Z11.9000 F8000.0
G1 X168.1830 Y-114.5405 F12000.0
G1 Z0.0000 F8000.0
G0 X173.8669 Y-106.2871 F15000.0
G1 Z11.9000 F8000.0
G1 X165.6135 Y-114.5405 F12000.0
G1 Z0.0000 F8000.0
G0 X180.0000 Y-100.1541 F15000.0
G1 Z11.9000 F8000.0
G1 X178.4608 Y-101.6932 F12000.0
G1 Z0.0000 F8000.0
G0 X180.0000 Y-97.5846 F15000.0
G1 Z11.9000 F8000.0
G1 X175.8914 Y-101.6932 F12000.0
G1 Z0.0000 F8000.0
G0 X171.2975 Y-106.2871 F15000.0
G1 Z11.9000 F8000.0
G1 X165.5356 Y-112.0489 F12000.0
G1 Z0.0000 F8000.0
G0 X168.6502 Y-106.2871 F15000.0
G1 Z11.9000 F8000.0
G1 X165.5356 Y-109.4794 F12000.0
G1 Z0.0000 F8000.0
G0 X179.0058 Y-95.9314 F15000.0
G1 Z11.9000 F8000.0
G1 X173.2440 Y-101.6932 F12000.0
G1 Z0.0000 F8000.0
G0 X176.4364 Y-95.9314 F15000.0
G1 Z11.9000 F8000.0
G1 X170.6746 Y-101.6932 F12000.0
G1 Z0.0000 F8000.0
G0 X166.0807 Y-106.2871 F15000.0
G1 Z11.9000 F8000.0
G1 X165.5356 Y-106.8321 F12000.0
G1 Z0.0000 F8000.0
G0 X173.7891 Y-95.9314 F15000.0
G1 Z11.9000 F8000.0
G1 X168.1051 Y-101.6932 F12000.0
G1 Z0.0000 F8000.0
G0 X171.2196 Y-95.9314 F15000.0
G1 Z11.9000 F8000.0
G1 X165.5356 Y-101.6932 F12000.0
G1 Z0.0000 F8000.0
G0 X170.1296 Y-94.4520 F15000.0
G1 Z11.9000 F8000.0
G1 X165.5356 Y-99.0458 F12000.0
G1 Z0.0000 F8000.0
G0 X168.5723 Y-93.4397 F15000.0
G1 Z11.9000 F8000.0
G1 X165.5356 Y-96.4764 F12000.0
G1 Z0.0000 F8000.0
G0 X165.9250 Y-93.4397 F15000.0
G1 Z11.9000 F8000.0
G1 X165.5356 Y-93.8291 F12000.0
G1 Z0.0000 F8000.0
G0 X158.8395 Y-122.0153 F15000.0
G1 Z11.9000 F8000.0
G1 X156.7372 Y-119.9908 F12000.0
G1 Z0.0000 F8000.0
G0 X161.4089 Y-122.0153 F15000.0
G1 Z11.9000 F8000.0
G1 X156.9708 Y-117.5772 F12000.0
G1 Z0.0000 F8000.0
G0 X164.0563 Y-122.0153 F15000.0
G1 Z11.9000 F8000.0
G1 X158.6059 Y-116.6428 F12000.0
G1 Z0.0000 F8000.0
G0 X166.6258 Y-122.0153 F15000.0
G1 Z11.9000 F8000.0
G1 X161.2533 Y-116.6428 F12000.0
G1 Z0.0000 F8000.0
G0 X169.2730 Y-122.0153 F15000.0
G1 Z11.9000 F8000.0
G1 X163.8227 Y-116.6428 F12000.0
G1 Z0.0000 F8000.0
G0 X171.8425 Y-122.0153 F15000.0
G1 Z11.9000 F8000.0
G1 X167.4822 Y-117.6550 F12000.0
G1 Z0.0000 F8000.0
G0 X173.0883 Y-120.6916 F15000.0
G1 Z11.9000 F8000.0
G1 X169.8960 Y-117.4993 F12000.0
G1 Z0.0000 F8000.0
G0 X174.0227 Y-119.0565 F15000.0
G1 Z11.9000 F8000.0
G1 X170.1296 Y-115.0855 F12000.0
G1 Z0.0000 F8000.0
G0 X174.2563 Y-116.6428 F15000.0
G1 Z11.9000 F8000.0
G1 X171.2196 Y-113.6840 F12000.0
G1 Z0.0000 F8000.0
G0 X174.2563 Y-114.0734 F15000.0
G1 Z11.9000 F8000.0
G1 X173.8669 Y-113.6840 F12000.0
G1 Z0.0000 F8000.0
G0 X159.3845 Y-91.3374 F15000.0
G1 Z11.9000 F8000.0
G1 X156.7372 Y-88.7680 F12000.0
G1 Z0.0000 F8000.0
G0 X161.9540 Y-91.3374 F15000.0
G1 Z11.9000 F8000.0
G1 X156.7372 Y-86.1985 F12000.0
G1 Z0.0000 F8000.0
G0 X164.5235 Y-91.3374 F15000.0
G1 Z11.9000 F8000.0
G1 X159.1510 Y-85.9649 F12000.0
G1 Z0.0000 F8000.0
G0 X166.7036 Y-90.9482 F15000.0
G1 Z11.9000 F8000.0
G1 X161.7204 Y-85.9649 F12000.0
G1 Z0.0000 F8000.0
G0 X172.7769 Y-94.3741 F15000.0
G1 Z11.9000 F8000.0
G1 X170.1296 Y-91.7268 F12000.0
G1 Z0.0000 F8000.0
G0 X168.7281 Y-90.3253 F15000.0
G1 Z11.9000 F8000.0
G1 X164.3677 Y-85.9649 F12000.0
G1 Z0.0000 F8000.0
G0 X174.2563 Y-93.2062 F15000.0
G1 Z11.9000 F8000.0
G1 X166.9372 Y-85.9649 F12000.0
G1 Z0.0000 F8000.0
G0 X174.2563 Y-90.6367 F15000.0
G1 Z11.9000 F8000.0
G1 X169.5845 Y-85.9649 F12000.0
G1 Z0.0000 F8000.0
G0 X172.5433 Y-86.3543 F15000.0
G1 Z11.9000 F8000.0
G1 X172.1540 Y-85.9649 F12000.0
G1 Z0.0000 F8000.0
G0 X165.5356 Y-101.6932 F15000.0
G1 Z11.9000 F8000.0
G1 X165.5356 Y-106.2871 F12000.0
G1 X180.0000 Y-106.2871 F12000.0
G1 Z0.0000 F8000.0
G0 X170.1296 Y-114.5405 F15000.0
G1 Z11.9000 F8000.0
G1 X170.1296 Y-112.0489 F12000.0
G1 Z0.0000 F8000.0
G0 X165.5356 Y-114.5405 F15000.0
G1 Z11.9000 F8000.0
G1 X170.1296 Y-114.5405 F12000.0
G1 Z0.0000 F8000.0
G0 X165.5356 Y-101.6932 F15000.0
G1 Z11.9000 F8000.0
G1 X165.5356 Y-93.4397 F12000.0
G1 Z0.0000 F8000.0
G0 X170.1296 Y-95.9314 F15000.0
G1 Z11.9000 F8000.0
G1 X180.0000 Y-95.9314 F12000.0
G1 Z0.0000 F8000.0
G0 X165.5356 Y-93.4397 F15000.0
G1 Z11.9000 F8000.0
G1 X170.1296 Y-93.4397 F12000.0
G1 Z0.0000 F8000.0
G0 X170.1296 Y-112.0489 F15000.0
G1 Z11.9000 F8000.0
G1 X180.0000 Y-112.0489 F12000.0
G1 Z0.0000 F8000.0
G0 X165.5356 Y-101.6932 F15000.0
G1 Z11.9000 F8000.0
G1 X180.0000 Y-101.6932 F12000.0
G1 Z0.0000 F8000.0
G0 X170.1296 Y-95.9314 F15000.0
G1 Z11.9000 F8000.0
G1 X170.1296 Y-93.4397 F12000.0
G1 Z0.0000 F8000.0
G0 X165.5356 Y-114.5405 F15000.0
G1 Z11.9000 F8000.0
G1 X165.5356 Y-106.2871 F12000.0
G1 Z0.0000 F8000.0
G0 X174.2563 Y-113.6840 F15000.0
G1 Z11.9000 F8000.0
G1 X174.2563 Y-112.0489 F12000.0
G1 Z0.0000 F8000.0
G0 X174.2563 Y-95.9314 F15000.0
G1 Z11.9000 F8000.0
G1 X174.2563 Y-94.3741 F12000.0
G1 Z0.0000 F8000.0
G0 X157.9051 Y-116.6428 F15000.0
G1 Z11.9000 F8000.0
G1 X157.9051 Y-91.3374 F12000.0
G1 Z0.0000 F8000.0
G0 X156.7372 Y-117.8108 F15000.0
G1 Z11.9000 F8000.0
G1 X156.7372 Y-90.1695 F12000.0
G1 Z0.0000 F8000.0
G0 X166.3143 Y-116.6428 F15000.0
G1 Z11.9000 F8000.0
G1 X166.3143 Y-114.5405 F12000.0
G1 Z0.0000 F8000.0
G0 X166.3143 Y-93.4397 F15000.0
G1 Z11.9000 F8000.0
G1 X166.3143 Y-91.3374 F12000.0
G1 Z0.0000 F8000.0
G0 X166.3143 Y-116.6428 F15000.0
G1 Z11.9000 F8000.0
G1 X157.9051 Y-116.6428 F12000.0
G1 Z0.0000 F8000.0
G0 X169.3509 Y-117.6550 F15000.0
G1 Z11.9000 F8000.0
G1 X167.5601 Y-117.6550 F12000.0
G1 Z0.0000 F8000.0
G0 X169.3509 Y-90.3253 F15000.0
G1 Z11.9000 F8000.0
G1 X169.8181 Y-90.4810 F12000.0
G1 X170.0517 Y-90.8703 F12000.0
G1 Z0.0000 F8000.0
G0 X174.2563 Y-94.3741 F15000.0
G1 Z11.9000 F8000.0
G1 X170.1296 Y-94.3741 F12000.0
G1 Z0.0000 F8000.0
G0 X156.7372 Y-122.0153 F15000.0
G1 Z11.9000 F8000.0
G1 X156.7372 Y-117.8108 F12000.0
G1 Z0.0000 F8000.0
G0 X174.2563 Y-94.3741 F15000.0
G1 Z11.9000 F8000.0
G1 X174.2563 Y-89.3131 F12000.0
G1 X172.3097 Y-85.9649 F12000.0
G1 Z0.0000 F8000.0
G0 X156.7372 Y-90.1695 F15000.0
G1 Z11.9000 F8000.0
G1 X156.7372 Y-85.9649 F12000.0
G1 Z0.0000 F8000.0
G0 X166.3143 Y-91.3374 F15000.0
G1 Z11.9000 F8000.0
G1 X157.9051 Y-91.3374 F12000.0
G1 Z0.0000 F8000.0
G0 X167.2486 Y-90.4810 F15000.0
G1 Z11.9000 F8000.0
G1 X166.3143 Y-91.3374 F12000.0
G1 Z0.0000 F8000.0
G0 X167.2486 Y-117.5772 F15000.0
G1 Z11.9000 F8000.0
G1 X166.3143 Y-116.6428 F12000.0
G1 Z0.0000 F8000.0
G0 X174.2563 Y-118.7451 F15000.0
G1 Z11.9000 F8000.0
G1 X172.3097 Y-122.0153 F12000.0
G1 Z0.0000 F8000.0
G0 X174.2563 Y-113.6840 F15000.0
G1 Z11.9000 F8000.0
G1 X170.1296 Y-113.6840 F12000.0
G1 Z0.0000 F8000.0
G0 X156.7372 Y-117.8108 F15000.0
G1 Z11.9000 F8000.0
G1 X157.9051 Y-116.6428 F12000.0
G1 Z0.0000 F8000.0
G0 X169.3509 Y-117.6550 F15000.0
G1 Z11.9000 F8000.0
G1 X169.8181 Y-117.4993 F12000.0
G1 X170.0517 Y-117.1100 F12000.0
G1 Z0.0000 F8000.0
G0 X156.7372 Y-90.1695 F15000.0
G1 Z11.9000 F8000.0
G1 X157.9051 Y-91.3374 F12000.0
G1 Z0.0000 F8000.0
G0 X170.1296 Y-91.0261 F15000.0
G1 Z11.9000 F8000.0
G1 X170.1296 Y-94.3741 F12000.0
G1 Z0.0000 F8000.0
G0 X172.3097 Y-85.9649 F15000.0
G1 Z11.9000 F8000.0
G1 X156.7372 Y-85.9649 F12000.0
G1 Z0.0000 F8000.0
G0 X156.7372 Y-122.0153 F15000.0
G1 Z11.9000 F8000.0
G1 X172.3097 Y-122.0153 F12000.0
G1 Z0.0000 F8000.0
G0 X174.2563 Y-118.7451 F15000.0
G1 Z11.9000 F8000.0
G1 X174.2563 Y-113.6840 F12000.0
G1 Z0.0000 F8000.0
G0 X169.3509 Y-90.3253 F15000.0
G1 Z11.9000 F8000.0
G1 X167.5601 Y-90.3253 F12000.0
G1 Z0.0000 F8000.0
G0 X170.1296 Y-113.6840 F15000.0
G1 Z11.9000 F8000.0
G1 X170.1296 Y-116.9542 F12000.0
G1 Z0.0000 F8000.0
G0 X164.8317 Y-87.7590 F15000.0
G1 Z11.9000 F8000.0
G1 X164.2151 Y-88.3756 F12000.0
G1 Z0.0000 F8000.0
G0 X135.4029 Y-50.8490 F15000.0
G1 Z11.9000 F8000.0
G1 X164.5235 Y-88.0672 F12000.0
G1 Z0.0000 F8000.0
G0 X135.4029 Y-50.8490 F15000.0
G1 Z11.9000 F8000.0
G1 X125.2807 Y-50.8490 F12000.0
G1 Z0.0000 F8000.0
G0 X132.7337 Y-49.5040 F15000.0
G1 Z11.9000 F8000.0
G1 X131.4795 Y-48.0409 F12000.0
G1 Z0.0000 F8000.0
G0 X132.3992 Y-49.3786 F15000.0
G1 Z11.9000 F8000.0
G1 X130.2255 Y-49.9220 F12000.0
G1 Z0.0000 F8000.0
G0 X131.3124 Y-47.7901 F15000.0
G1 Z11.9000 F8000.0
G1 X131.0197 Y-47.4139 F12000.0
G1 Z0.0000 F8000.0
G0 X131.0197 Y-44.6132 F15000.0
G1 Z11.9000 F8000.0
G1 X130.5182 Y-44.4042 F12000.0
G1 Z0.0000 F8000.0
G0 X130.8525 Y-47.1631 F15000.0
G1 Z11.9000 F8000.0
G1 X130.7689 Y-47.0795 F12000.0
G1 Z0.0000 F8000.0
G0 X130.6018 Y-46.8287 F15000.0
G1 Z11.9000 F8000.0
G1 X129.3895 Y-44.8640 F12000.0
G1 X129.9747 Y-44.2788
G1 Z0.0000 F8000.0
G0 X129.0969 Y-44.4460 F15000.0
G1 Z11.9000 F8000.0
G1 X128.9714 Y-44.2370 F12000.0
G1 Z0.0000 F8000.0
G0 X170.4378 Y-99.0879 F15000.0
G1 Z11.9000 F8000.0
G1 X169.8212 Y-99.7046 F12000.0
G1 Z0.0000 F8000.0
G0 X135.4029 Y-68.1345 F15000.0
G1 Z11.9000 F8000.0
G1 X170.1296 Y-99.3573 F12000.0
G1 Z0.0000 F8000.0
G0 X135.4029 Y-68.1345 F15000.0
G1 Z11.9000 F8000.0
G1 X125.9036 Y-68.1345 F12000.0
G1 Z0.0000 F8000.0
G0 X132.6699 Y-66.7594 F15000.0
G1 Z11.9000 F8000.0
G1 X130.7470 Y-66.3832 F12000.0
G1 Z0.0000 F8000.0
G0 X130.5798 Y-66.1742 F15000.0
G1 Z11.9000 F8000.0
G1 X130.4962 Y-66.0906 F12000.0
G1 Z0.0000 F8000.0
G0 X130.2871 Y-65.8398 F15000.0
G1 Z11.9000 F8000.0
G1 X129.4512 Y-61.9522 F12000.0
G1 Z0.0000 F8000.0
G0 X130.2454 Y-60.8654 F15000.0
G1 Z11.9000 F8000.0
G1 X129.2422 Y-61.7850 F12000.0
G1 Z0.0000 F8000.0
G0 X78.7968 Y-47.8902 F15000.0
G1 Z11.9000 F8000.0
G1 X78.7968 Y-63.0734 F12000.0
G1 Z0.0000 F8000.0
G0 X78.7968 Y-64.4750 F15000.0
G1 Z11.9000 F8000.0
G1 X78.7968 Y-65.8765 F12000.0
G1 Z0.0000 F8000.0
G0 X78.7968 Y-67.2780 F15000.0
G1 Z11.9000 F8000.0
G1 X78.7968 Y-82.4611 F12000.0
G1 Z0.0000 F8000.0
G0 X78.7968 Y-83.8626 F15000.0
G1 Z11.9000 F8000.0
G1 X78.7968 Y-85.3421 F12000.0
G1 Z0.0000 F8000.0
G0 X78.7968 Y-86.6657 F15000.0
G1 Z11.9000 F8000.0
G1 X78.7968 Y-101.9268 F12000.0
G1 Z0.0000 F8000.0
G0 X78.7968 Y-103.2504 F15000.0
G1 Z11.9000 F8000.0
G1 X78.7968 Y-104.7298 F12000.0
G1 Z0.0000 F8000.0
G0 X78.7968 Y-106.0535 F15000.0
G1 Z11.9000 F8000.0
G1 X78.7968 Y-121.3146 F12000.0
G1 Z0.0000 F8000.0
G0 X78.7968 Y-122.6382 F15000.0
G1 Z11.9000 F8000.0
G1 X78.7968 Y-124.1176 F12000.0
G1 Z0.0000 F8000.0
G0 X78.7968 Y-125.5192 F15000.0
G1 Z11.9000 F8000.0
G1 X78.7968 Y-125.7023 F12000.0
G1 Z0.0000 F8000.0
G0 X78.7968 Y-127.1038 F15000.0
G1 Z11.9000 F8000.0
G1 X78.7968 Y-128.5053 F12000.0
G1 Z0.0000 F8000.0
G0 X78.7968 Y-129.9068 F15000.0
G1 Z11.9000 F8000.0
G1 X78.7968 Y-145.0900 F12000.0
G1 Z0.0000 F8000.0
G0 X78.7968 Y-122.4046 F15000.0
G1 Z11.9000 F8000.0
G1 X78.7968 Y-112.9054 F12000.0
G1 Z0.0000 F8000.0
G0 X78.7968 Y-108.7786 F15000.0
G1 Z11.9000 F8000.0
G1 X78.7968 Y-104.0291 F12000.0
G1 Z0.0000 F8000.0
G0 X78.7968 Y-85.5756 F15000.0
G1 Z11.9000 F8000.0
G1 X78.7968 Y-95.0749 F12000.0
G1 Z0.0000 F8000.0
G0 X78.7968 Y-99.2794 F15000.0
G1 Z11.9000 F8000.0
G1 X78.7968 Y-104.0291 F12000.0
G1 Z0.0000 F8000.0
G0 X60.3434 Y-104.0291 F15000.0
G1 Z11.9000 F8000.0
G1 X69.8426 Y-104.0291 F12000.0
G1 Z0.0000 F8000.0
G0 X71.2442 Y-104.0291 F15000.0
G1 Z11.9000 F8000.0
G1 X72.6457 Y-104.0291 F12000.0
G1 Z0.0000 F8000.0
G0 X74.0472 Y-104.0291 F15000.0
G1 Z11.9000 F8000.0
G1 X78.7968 Y-104.0291 F12000.0
G1 Z0.0000 F8000.0
G0 X97.1724 Y-104.0291 F15000.0
G1 Z11.9000 F8000.0
G1 X87.6731 Y-104.0291 F12000.0
G1 Z0.0000 F8000.0
G0 X86.2716 Y-104.0291 F15000.0
G1 Z11.9000 F8000.0
G1 X84.8701 Y-104.0291 F12000.0
G1 Z0.0000 F8000.0
G0 X83.5464 Y-104.0291 F15000.0
G1 Z11.9000 F8000.0
G1 X78.7968 Y-104.0291 F12000.0
G1 Z0.0000 F8000.0
G0 X72.3342 Y-138.6275 F15000.0
G1 Z11.9000 F8000.0
G1 X78.7968 Y-138.6275 F12000.0
G1 Z0.0000 F8000.0
G0 X85.1815 Y-138.6275 F15000.0
G1 Z11.9000 F8000.0
G1 X78.7968 Y-138.6275 F12000.0
G1 Z0.0000 F8000.0
G0 X71.0106 Y-138.0046 F15000.0
G1 Z11.9000 F8000.0
G1 X74.0472 Y-114.1512 F12000.0
G1 Z0.0000 F8000.0
G0 X86.5831 Y-138.0046 F15000.0
G1 Z11.9000 F8000.0
G1 X86.5052 Y-139.5618 F12000.0
G1 X86.1938 Y-141.1191 F12000.0
G1 X85.5708 Y-142.5206 F12000.0
G1 X84.6365 Y-143.7664 F12000.0
G1 X83.5464 Y-144.8565 F12000.0
G1 X82.1449 Y-145.7130 F12000.0
G1 X80.7434 Y-146.2580 F12000.0
G1 X79.1862 Y-146.4916 F12000.0
G1 X77.6288 Y-146.4138 F12000.0
G1 X76.1495 Y-146.0244 F12000.0
G1 X74.6701 Y-145.3236 F12000.0
G1 X73.4244 Y-144.3893 F12000.0
G1 X72.4121 Y-143.2213 F12000.0
G1 X71.6335 Y-141.8977 F12000.0
G1 X71.1663 Y-140.4183 F12000.0
G1 X70.9327 Y-138.8611 F12000.0
G1 X71.0106 Y-138.0046 F12000.0
G1 Z0.0000 F8000.0
G0 X83.4685 Y-114.1512 F15000.0
G1 Z11.9000 F8000.0
G1 X86.5831 Y-138.0046 F12000.0
G1 Z0.0000 F8000.0
G0 X78.7968 Y-93.9069 F15000.0
G1 Z11.9000 F8000.0
G1 X80.5098 Y-94.0627 F12000.0
G1 X82.2228 Y-94.5299 F12000.0
G1 X83.8579 Y-95.2306 F12000.0
G1 X85.3372 Y-96.2428 F12000.0
G1 X86.5831 Y-97.5665 F12000.0
G1 X87.5174 Y-98.9680 F12000.0
G1 X88.2961 Y-100.6032 F12000.0
G1 X88.7632 Y-102.3161 F12000.0
G1 X88.9189 Y-104.1069 F12000.0
G1 X88.6854 Y-105.8199 F12000.0
G1 X88.2182 Y-107.5329 F12000.0
G1 X87.4395 Y-109.1680 F12000.0
G1 X86.4274 Y-110.5695 F12000.0
G1 X85.1815 Y-111.8153 F12000.0
G1 X83.7021 Y-112.8275 F12000.0
G1 X82.0670 Y-113.5283 F12000.0
G1 X80.3541 Y-113.9955 F12000.0
G1 X78.5632 Y-114.0734 F12000.0
G1 X76.8503 Y-113.9176 F12000.0
G1 X75.1373 Y-113.4504 F12000.0
G1 X73.5022 Y-112.6718 F12000.0
G1 X72.1006 Y-111.5817 F12000.0
G1 X70.8549 Y-110.3359 F12000.0
G1 X69.9205 Y-108.8565 F12000.0
G1 X69.1419 Y-107.2214 F12000.0
G1 X68.7526 Y-105.5084 F12000.0
G1 X68.6747 Y-103.7176 F12000.0
G1 X68.8304 Y-101.9268 F12000.0
G1 X69.3755 Y-100.2917 F12000.0
G1 X70.1541 Y-98.6566 F12000.0
G1 X71.2442 Y-97.2550 F12000.0
G1 X72.4900 Y-96.0092 F12000.0
G1 X73.9693 Y-95.0749 F12000.0
G1 X75.6044 Y-94.3741 F12000.0
G1 X77.3175 Y-93.9848 F12000.0
G1 X78.7968 Y-93.9069 F12000.0
G1 Z0.0000 F8000.0
G0 X84.2472 Y-112.4382 F15000.0
G1 Z11.9000 F8000.0
G1 X83.7800 Y-112.9832 F12000.0
G1 X83.4685 Y-113.6840 F12000.0
G1 X83.4685 Y-114.1512 F12000.0
G1 Z0.0000 F8000.0
G0 X73.2686 Y-112.4382 F15000.0
G1 Z11.9000 F8000.0
G1 X73.8136 Y-112.9832 F12000.0
G1 X74.0472 Y-113.6840 F12000.0
G1 X74.0472 Y-114.1512 F12000.0
G1 Z0.0000 F8000.0
G0 X78.7968 Y-134.0336 F15000.0
G1 Z11.9000 F8000.0
G1 X79.9647 Y-134.1893 F12000.0
G1 X81.0549 Y-134.6565 F12000.0
G1 X81.9892 Y-135.3573 F12000.0
G1 X82.7678 Y-136.3695 F12000.0
G1 X83.2349 Y-137.4595 F12000.0
G1 X83.3907 Y-138.6275 F12000.0
G1 X83.2349 Y-139.7954 F12000.0
G1 X82.7678 Y-140.8855 F12000.0
G1 X82.0670 Y-141.8977 F12000.0
G1 X81.1327 Y-142.5985 F12000.0
G1 X80.0426 Y-143.0656 F12000.0
G1 X78.8747 Y-143.2213 F12000.0
G1 X77.6288 Y-143.1435 F12000.0
G1 X76.5388 Y-142.6764 F12000.0
G1 X75.6044 Y-141.9756 F12000.0
G1 X74.8259 Y-141.0413 F12000.0
G1 X74.3587 Y-139.9511 F12000.0
G1 X74.2029 Y-138.7832 F12000.0
G1 X74.2808 Y-137.6152 F12000.0
G1 X74.7480 Y-136.4473 F12000.0
G1 X75.4487 Y-135.5129 F12000.0
G1 X76.3831 Y-134.7344 F12000.0
G1 X77.4731 Y-134.2672 F12000.0
G1 X78.6411 Y-134.0336 F12000.0
G1 Z0.0000 F8000.0
G0 X96.2381 Y-114.0734 F15000.0
G1 Z11.9000 F8000.0
G1 X96.2381 Y-93.9069 F12000.0
G1 Z0.0000 F8000.0
G0 X78.7968 Y-83.7848 F15000.0
G1 Z11.9000 F8000.0
G1 X61.2778 Y-93.9069 F12000.0
G1 X61.2778 Y-114.0734 F12000.0
G1 Z0.0000 F8000.0
G0 X78.7968 Y-87.4444 F15000.0
G1 Z11.9000 F8000.0
G1 X76.5388 Y-87.6000 F12000.0
G1 X74.2808 Y-88.0672 F12000.0
G1 X72.1785 Y-88.8459 F12000.0
G1 X70.1541 Y-89.8581 F12000.0
G1 X68.2854 Y-91.1818 F12000.0
G1 X66.6503 Y-92.7390 F12000.0
G1 X65.1709 Y-94.5299 F12000.0
G1 X64.0029 Y-96.4764 F12000.0
G1 X63.1465 Y-98.5009 F12000.0
G1 X62.5235 Y-100.7589 F12000.0
G1 X62.2121 Y-102.9389 F12000.0
G1 X62.2899 Y-105.2748 F12000.0
G1 X62.6014 Y-107.4550 F12000.0
G1 X63.2243 Y-109.6352 F12000.0
G1 X64.1586 Y-111.7375 F12000.0
G1 X65.3266 Y-113.6840 F12000.0
G1 X66.8060 Y-115.3970 F12000.0
G1 X68.4411 Y-116.9542 F12000.0
G1 X70.3098 Y-118.2000 F12000.0
G1 X72.3342 Y-119.2901 F12000.0
G1 X73.6579 Y-119.7573 F12000.0
G1 Z0.0000 F8000.0
G0 X83.9357 Y-119.7573 F15000.0
G1 Z11.9000 F8000.0
G1 X86.0380 Y-118.9008 F12000.0
G1 X87.9846 Y-117.7329 F12000.0
G1 X89.7754 Y-116.3313 F12000.0
G1 X91.3327 Y-114.7741 F12000.0
G1 X92.7342 Y-112.9054 F12000.0
G1 X93.8243 Y-110.9588 F12000.0
G1 X94.6029 Y-108.7786 F12000.0
G1 X95.1479 Y-106.5985 F12000.0
G1 X95.3037 Y-104.3405 F12000.0
G1 X95.2258 Y-102.0825 F12000.0
G1 X94.7586 Y-99.8245 F12000.0
G1 X94.0579 Y-97.7222 F12000.0
G1 X93.0456 Y-95.6199 F12000.0
G1 X91.7999 Y-93.7512 F12000.0
G1 X90.2426 Y-92.1161 F12000.0
G1 X88.5297 Y-90.6367 F12000.0
G1 X86.5831 Y-89.3909 F12000.0
G1 X84.5587 Y-88.4566 F12000.0
G1 X82.3785 Y-87.8336 F12000.0
G1 X80.1205 Y-87.5222 F12000.0
G1 X78.7968 Y-87.4444 F12000.0
G1 Z0.0000 F8000.0
G0 X61.2778 Y-114.0734 F15000.0
G1 Z11.9000 F8000.0
G1 X73.5022 Y-121.1588 F12000.0
G1 Z0.0000 F8000.0
G0 X96.2381 Y-93.9069 F15000.0
G1 Z11.9000 F8000.0
G1 X78.7968 Y-83.7848 F12000.0
G1 Z0.0000 F8000.0
G0 X78.7968 Y-111.9711 F15000.0
G1 Z11.9000 F8000.0
G1 X85.6487 Y-108.0001 F12000.0
G1 X85.6487 Y-99.9802 F12000.0
G1 Z0.0000 F8000.0
G0 X78.7968 Y-96.0092 F15000.0
G1 Z11.9000 F8000.0
G1 X71.8670 Y-99.9802 F12000.0
G1 Z0.0000 F8000.0
G0 X78.7968 Y-97.4107 F15000.0
G1 Z11.9000 F8000.0
G1 X80.1983 Y-97.5665 F12000.0
G1 X81.5220 Y-98.0337 F12000.0
G1 X82.7678 Y-98.8123 F12000.0
G1 X83.7800 Y-99.7466 F12000.0
G1 X84.5587 Y-100.9924 F12000.0
G1 X85.1036 Y-102.3161 F12000.0
G1 X85.3372 Y-103.7176 F12000.0
G1 X85.1815 Y-105.1191 F12000.0
G1 X84.7923 Y-106.5207 F12000.0
G1 X84.1693 Y-107.7665 F12000.0
G1 X83.1571 Y-108.8565 F12000.0
G1 X82.0670 Y-109.6352 F12000.0
G1 X80.7434 Y-110.2581 F12000.0
G1 X79.3418 Y-110.4916 F12000.0
G1 X77.9403 Y-110.4916 F12000.0
G1 X76.5388 Y-110.1802 F12000.0
G1 X75.2152 Y-109.5573 F12000.0
G1 X74.1251 Y-108.6229 F12000.0
G1 X73.2686 Y-107.5329 F12000.0
G1 X72.6457 Y-106.2092 F12000.0
G1 X72.2564 Y-104.8855 F12000.0
G1 X72.2564 Y-103.4061 F12000.0
G1 X72.4900 Y-102.0047 F12000.0
G1 X73.1129 Y-100.7589 F12000.0
G1 X73.8915 Y-99.5909 F12000.0
G1 X74.9816 Y-98.6566 F12000.0
G1 X76.2274 Y-97.9558 F12000.0
G1 X77.6288 Y-97.5665 F12000.0
G1 X78.7968 Y-97.4107 F12000.0
G1 Z0.0000 F8000.0
G0 X85.6487 Y-99.9802 F15000.0
G1 Z11.9000 F8000.0
G1 X78.7968 Y-96.0092 F12000.0
G1 Z0.0000 F8000.0
G0 X71.8670 Y-99.9802 F15000.0
G1 Z11.9000 F8000.0
G1 X71.8670 Y-108.0001 F12000.0
G1 X78.7968 Y-111.9711 F12000.0
G1 Z0.0000 F8000.0
G0 X78.7968 Y-99.3573 F15000.0
G1 Z11.9000 F8000.0
G1 X79.9647 Y-99.5130 F12000.0
G1 X81.0549 Y-99.9802 F12000.0
G1 X81.9892 Y-100.7589 F12000.0
G1 X82.7678 Y-101.6932 F12000.0
G1 X83.2349 Y-102.7832 F12000.0
G1 X83.3907 Y-103.9512 F12000.0
G1 X83.2349 Y-105.1191 F12000.0
G1 X82.7678 Y-106.2871 F12000.0
G1 X82.0670 Y-107.2214 F12000.0
G1 X81.1327 Y-107.9222 F12000.0
G1 X80.0426 Y-108.3894 F12000.0
G1 X78.8747 Y-108.6229 F12000.0
G1 X77.6288 Y-108.4672 F12000.0
G1 X76.5388 Y-108.0001 F12000.0
G1 X75.6044 Y-107.2993 F12000.0
G1 X74.8259 Y-106.3650 F12000.0
G1 X74.3587 Y-105.2748 F12000.0
G1 X74.2029 Y-104.1069 F12000.0
G1 X74.2808 Y-102.9389 F12000.0
G1 X74.7480 Y-101.7711 F12000.0
G1 X75.4487 Y-100.8367 F12000.0
G1 X76.3831 Y-100.0581 F12000.0
G1 X77.4731 Y-99.5909 F12000.0
G1 X78.6411 Y-99.4352 F12000.0
G1 Z0.0000 F8000.0
G0 X83.0793 Y-102.3940 F15000.0
G1 Z11.9000 F8000.0
G1 X83.3128 Y-103.5619 F12000.0
G1 X83.3128 Y-104.8076 F12000.0
G1 X82.9236 Y-105.8978 F12000.0
G1 X82.3006 Y-106.9099 F12000.0
G1 X81.4441 Y-107.7665 F12000.0
G1 X80.3541 Y-108.3115 F12000.0
G1 X79.1862 Y-108.5450 F12000.0
G1 X78.0182 Y-108.5450 F12000.0
G1 X76.8503 Y-108.1558 F12000.0
G1 X75.8380 Y-107.5329 F12000.0
G1 X75.0595 Y-106.6763 F12000.0
G1 X74.4365 Y-105.6642 F12000.0
G1 X74.2029 Y-104.4963 F12000.0
G1 X74.2029 Y-103.2504 F12000.0
G1 X74.5923 Y-102.1604 F12000.0
G1 X75.2152 Y-101.1481 F12000.0
G1 X76.0716 Y-100.2917 F12000.0
G1 X77.0839 Y-99.7466 F12000.0
G1 Z0.0000 F8000.0
G0 X97.1724 Y-125.5970 F15000.0
G1 Z11.9000 F8000.0
G1 X84.4029 Y-125.5970 F12000.0
G1 Z0.0000 F8000.0
G0 X73.1908 Y-125.5970 F15000.0
G1 Z11.9000 F8000.0
G1 X60.3434 Y-125.5970 F12000.0
G1 Z0.0000 F8000.0
G0 X97.1724 Y-81.4490 F15000.0
G1 Z11.9000 F8000.0
G1 X60.3434 Y-81.4490 F12000.0
G1 Z0.0000 F8000.0
G0 X60.3434 Y-104.0291 F15000.0
G1 Z11.9000 F8000.0
G1 X60.4991 Y-101.6153 F12000.0
G1 X60.9663 Y-99.2794 F12000.0
G1 X61.2778 Y-98.2673 F12000.0
G1 Z0.0000 F8000.0
G0 X65.0930 Y-91.7268 F15000.0
G1 Z11.9000 F8000.0
G1 X66.7281 Y-90.0917 F12000.0
G1 X68.6747 Y-88.6123 F12000.0
G1 X70.7770 Y-87.4444 F12000.0
G1 X72.9572 Y-86.5100 F12000.0
G1 X74.9816 Y-85.9649 F12000.0
G1 Z0.0000 F8000.0
G0 X82.5342 Y-85.9649 F15000.0
G1 Z11.9000 F8000.0
G1 X84.8701 Y-86.6657 F12000.0
G1 X87.0502 Y-87.6000 F12000.0
G1 X89.0746 Y-88.7680 F12000.0
G1 X91.0212 Y-90.2474 F12000.0
G1 X92.5007 Y-91.7268 F12000.0
G1 Z0.0000 F8000.0
G0 X96.2381 Y-98.2673 F15000.0
G1 Z11.9000 F8000.0
G1 X96.8609 Y-100.6032 F12000.0
G1 X97.0945 Y-102.9389 F12000.0
G1 X97.0945 Y-105.3527 F12000.0
G1 X96.7830 Y-107.6886 F12000.0
G1 X96.2381 Y-109.7130 F12000.0
G1 Z0.0000 F8000.0
G0 X92.5007 Y-116.2534 F15000.0
G1 Z11.9000 F8000.0
G1 X90.7876 Y-117.9665 F12000.0
G1 X88.8411 Y-119.3680 F12000.0
G1 X86.7388 Y-120.5359 F12000.0
G1 X84.5587 Y-121.4703 F12000.0
G1 X84.0136 Y-121.6260 F12000.0
G1 Z0.0000 F8000.0
G0 X73.5022 Y-121.6260 F15000.0
G1 Z11.9000 F8000.0
G1 X71.2442 Y-120.7695 F12000.0
G1 X69.1419 Y-119.6795 F12000.0
G1 X67.1953 Y-118.2779 F12000.0
G1 X65.4045 Y-116.6428 F12000.0
G1 X65.0930 Y-116.2534 F12000.0
G1 Z0.0000 F8000.0
G0 X61.2778 Y-109.7130 F15000.0
G1 Z11.9000 F8000.0
G1 X60.7327 Y-107.4550 F12000.0
G1 X60.4212 Y-105.0412 F12000.0
G1 X60.3434 Y-104.0291 F12000.0
G1 Z0.0000 F8000.0
G0 X60.3434 Y-125.5970 F15000.0
G1 Z11.9000 F8000.0
G1 X60.3434 Y-104.0291 F12000.0
G1 Z0.0000 F8000.0
G0 X97.1724 Y-104.0291 F15000.0
G1 Z11.9000 F8000.0
G1 X97.1724 Y-81.4490 F12000.0
G1 Z0.0000 F8000.0
G0 X102.7006 Y-125.5970 F15000.0
G1 Z11.9000 F8000.0
G1 X102.7006 Y-81.4490 F12000.0
G1 Z0.0000 F8000.0
G0 X97.1724 Y-125.5970 F15000.0
G1 Z11.9000 F8000.0
G1 X102.7006 Y-125.5970 F12000.0
G1 Z0.0000 F8000.0
G0 X60.3434 Y-81.4490 F15000.0
G1 Z11.9000 F8000.0
G1 X54.8930 Y-81.4490 F12000.0
G1 Z0.0000 F8000.0
G0 X60.3434 Y-104.0291 F15000.0
G1 Z11.9000 F8000.0
G1 X60.3434 Y-81.4490 F12000.0
G1 Z0.0000 F8000.0
G0 X102.7006 Y-81.4490 F15000.0
G1 Z11.9000 F8000.0
G1 X97.1724 Y-81.4490 F12000.0
G1 Z0.0000 F8000.0
G0 X97.1724 Y-125.5970 F15000.0
G1 Z11.9000 F8000.0
G1 X97.1724 Y-104.0291 F12000.0
G1 Z0.0000 F8000.0
G0 X54.8930 Y-125.5970 F15000.0
G1 Z11.9000 F8000.0
G1 X54.8930 Y-81.4490 F12000.0
G1 Z0.0000 F8000.0
G0 X98.1068 Y-81.4490 F15000.0
G1 Z11.9000 F8000.0
G1 X98.1068 Y-77.7894 F12000.0
G1 X59.4869 Y-77.7894 F12000.0
G1 Z0.0000 F8000.0
G0 X59.4869 Y-81.4490 F15000.0
G1 Z11.9000 F8000.0
G1 X59.4869 Y-77.7894 F12000.0
G1 Z0.0000 F8000.0
G0 X65.8717 Y-77.7894 F15000.0
G1 Z11.9000 F8000.0
G1 X65.8717 Y-50.8490 F12000.0
G1 Z0.0000 F8000.0
G0 X91.6441 Y-77.7894 F15000.0
G1 Z11.9000 F8000.0
G1 X91.6441 Y-50.8490 F12000.0
G1 X90.4762 Y-49.7589 F12000.0
G1 Z0.0000 F8000.0
G0 X91.6441 Y-50.8490 F15000.0
G1 Z11.9000 F8000.0
G1 X65.8717 Y-50.8490 F12000.0
G1 X67.0396 Y-49.7589 F12000.0
G1 Z0.0000 F8000.0
G0 X90.4762 Y-49.7589 F15000.0
G1 Z11.9000 F8000.0
G1 X67.0396 Y-49.7589 F12000.0
G1 Z0.0000 F8000.0
G0 X73.2686 Y-109.4794 F15000.0
G1 Z11.9000 F8000.0
G1 X73.2686 Y-108.7786 F12000.0
G1 Z0.0000 F8000.0
G0 X73.2686 Y-99.2016 F15000.0
G1 Z11.9000 F8000.0
G1 X73.2686 Y-98.5009 F12000.0
G1 Z0.0000 F8000.0
G0 X84.2472 Y-98.5009 F15000.0
G1 Z11.9000 F8000.0
G1 X84.2472 Y-99.2016 F12000.0
G1 Z0.0000 F8000.0
G0 X84.2472 Y-108.7786 F15000.0
G1 Z11.9000 F8000.0
G1 X84.2472 Y-109.4794 F12000.0
G1 X83.0014 Y-109.4794 F12000.0
G1 Z0.0000 F8000.0
G0 X74.5144 Y-109.4794 F15000.0
G1 Z11.9000 F8000.0
G1 X73.2686 Y-109.4794 F12000.0
G1 Z0.0000 F8000.0
G0 X73.2686 Y-98.5009 F15000.0
G1 Z11.9000 F8000.0
G1 X74.5144 Y-98.5009 F12000.0
G1 Z0.0000 F8000.0
G0 X83.0014 Y-98.5009 F15000.0
G1 Z11.9000 F8000.0
G1 X84.2472 Y-98.5009 F12000.0
G1 Z0.0000 F8000.0
G0 X78.7968 Y-100.2917 F15000.0
G1 Z11.9000 F8000.0
G1 X79.8090 Y-100.4474 F12000.0
G1 X80.8213 Y-100.9145 F12000.0
G1 X81.5998 Y-101.6153 F12000.0
G1 X82.1449 Y-102.5497 F12000.0
G1 X82.4564 Y-103.5619 F12000.0
G1 X82.3785 Y-104.6519 F12000.0
G1 X82.0670 Y-105.6642 F12000.0
G1 X81.4441 Y-106.5207 F12000.0
G1 X80.5877 Y-107.2214 F12000.0
G1 X79.5754 Y-107.6107 F12000.0
G1 X78.5632 Y-107.6886 F12000.0
G1 X77.4731 Y-107.4550 F12000.0
G1 X76.5388 Y-106.9099 F12000.0
G1 X75.8380 Y-106.2092 F12000.0
G1 X75.2931 Y-105.1970 F12000.0
G1 X75.0595 Y-104.1848 F12000.0
G1 X75.2152 Y-103.0947 F12000.0
G1 X75.6044 Y-102.1604 F12000.0
G1 X76.2274 Y-101.3039 F12000.0
G1 X77.1617 Y-100.6810 F12000.0
G1 X78.1739 Y-100.3696 F12000.0
G1 X78.7968 Y-100.2917 F12000.0
G1 Z0.0000 F8000.0
G0 X84.0136 Y-121.1588 F15000.0
G1 Z11.9000 F8000.0
G1 X96.2381 Y-114.0734 F12000.0
G1 Z0.0000 F8000.0
G0 X90.8655 Y-64.4750 F15000.0
G1 Z11.9000 F8000.0
G1 X90.8655 Y-50.8490 F12000.0
G1 X90.8655 Y-50.1482 F12000.0
G1 Z0.0000 F8000.0
G0 X66.6503 Y-64.4750 F15000.0
G1 Z11.9000 F8000.0
G1 X66.6503 Y-50.8490 F12000.0
G1 X66.6503 Y-50.1482 F12000.0
G1 Z0.0000 F8000.0
G0 X91.6441 Y-64.4750 F15000.0
G1 Z11.9000 F8000.0
G1 X65.8717 Y-64.4750 F12000.0
G1 Z0.0000 F8000.0
G0 X67.0396 Y-49.7589 F15000.0
G1 Z11.9000 F8000.0
G1 X32.7022 Y-49.7589 F12000.0
G1 Z0.0000 F8000.0
G0 X60.3434 Y-125.5970 F15000.0
G1 Z11.9000 F8000.0
G1 X32.7022 Y-125.5970 F12000.0
G1 Z0.0000 F8000.0
G0 X102.7006 Y-125.5970 F15000.0
G1 Z11.9000 F8000.0
G1 X102.7006 Y-162.6870 F12000.0
G1 Z0.0000 F8000.0
G0 X54.8930 Y-125.5970 F15000.0
G1 Z11.9000 F8000.0
G1 X54.8930 Y-162.6870 F12000.0
G1 Z0.0000 F8000.0
G0 X90.4762 Y-49.7589 F15000.0
G1 Z11.9000 F8000.0
G1 X118.3510 Y-49.7589 F12000.0
G1 Z0.0000 F8000.0
G0 X78.7968 Y-146.4916 F15000.0
G1 Z11.9000 F8000.0
G1 X118.3510 Y-146.4916 F12000.0
G1 Z0.0000 F8000.0
G0 X41.0037 Y-85.3687 F15000.0
G1 Z11.9000 F8000.0
G1 X40.9201 Y-83.9057 F12000.0
G1 Z0.0000 F8000.0
G0 X40.8365 Y-85.4942 F15000.0
G1 Z11.9000 F8000.0
G1 X39.2480 Y-86.1212 F12000.0
G1 Z0.0000 F8000.0
G0 X39.1226 Y-85.9121 F15000.0
G1 Z11.9000 F8000.0
G1 X38.3702 Y-85.2015 F12000.0
G1 X36.9907 Y-86.9991
G1 Z0.0000 F8000.0
G0 X34.4931 Y-49.7589 F15000.0
G1 Z11.9000 F8000.0
G1 X33.9480 Y-54.3528 F12000.0
G1 X34.4931 Y-53.8856 F12000.0
G1 X35.1160 Y-54.3528 F12000.0
G1 X34.4931 Y-49.7589 F12000.0
G1 Z0.0000 F8000.0
G0 X34.2205 Y-51.6031 F15000.0
G1 Z11.9000 F8000.0
G1 X34.2205 Y-52.4307 F12000.0
G1 Z0.0000 F8000.0
G0 X34.7656 Y-51.8756 F15000.0
G1 Z11.9000 F8000.0
G1 X34.7656 Y-52.7032 F12000.0
G1 Z0.0000 F8000.0
G0 X34.4931 Y-125.5970 F15000.0
G1 Z11.9000 F8000.0
G1 X35.1160 Y-121.0031 F12000.0
G1 X34.4931 Y-121.4703 F12000.0
G1 X33.9480 Y-121.0031 F12000.0
G1 X34.4931 Y-125.5970 F12000.0
G1 Z0.0000 F8000.0
G0 X34.7656 Y-122.5748 F15000.0
G1 Z11.9000 F8000.0
G1 X34.7656 Y-123.4024 F12000.0
G1 Z0.0000 F8000.0
G0 X34.2205 Y-122.8472 F15000.0
G1 Z11.9000 F8000.0
G1 X34.2205 Y-123.6749 F12000.0
G1 Z0.0000 F8000.0
G0 X34.4931 Y-49.7589 F15000.0
G1 Z11.9000 F8000.0
G1 X34.4931 Y-125.5970 F12000.0
G1 Z0.0000 F8000.0
G0 X102.7006 Y-160.8183 F15000.0
G1 Z11.9000 F8000.0
G1 X98.1068 Y-160.1954 F12000.0
G1 X98.5739 Y-160.8183 F12000.0
G1 X98.1068 Y-161.4412 F12000.0
G1 X102.7006 Y-160.8183 F12000.0
G1 Z0.0000 F8000.0
G0 X100.5061 Y-160.5068 F15000.0
G1 Z11.9000 F8000.0
G1 X99.6784 Y-160.5068 F12000.0
G1 Z0.0000 F8000.0
G0 X100.8175 Y-161.0908 F15000.0
G1 Z11.9000 F8000.0
G1 X99.9898 Y-161.0908 F12000.0
G1 Z0.0000 F8000.0
G0 X54.8930 Y-160.8183 F15000.0
G1 Z11.9000 F8000.0
G1 X59.4869 Y-161.4412 F12000.0
G1 X59.0197 Y-160.8183 F12000.0
G1 X59.4869 Y-160.1954 F12000.0
G1 X54.8930 Y-160.8183 F12000.0
G1 Z0.0000 F8000.0
G0 X57.5648 Y-161.0908 F15000.0
G1 Z11.9000 F8000.0
G1 X56.7372 Y-161.0908 F12000.0
G1 Z0.0000 F8000.0
G0 X57.8374 Y-160.5068 F15000.0
G1 Z11.9000 F8000.0
G1 X57.0098 Y-160.5068 F12000.0
G1 Z0.0000 F8000.0
G0 X102.7006 Y-160.8183 F15000.0
G1 Z11.9000 F8000.0
G1 X54.8930 Y-160.8183 F12000.0
G1 Z0.0000 F8000.0
G0 X123.2091 Y-102.8806 F15000.0
G1 Z11.9000 F8000.0
G1 X119.7396 Y-102.9225 F12000.0
G1 Z0.0000 F8000.0
G0 X119.5305 Y-103.1733 F15000.0
G1 Z11.9000 F8000.0
G1 X118.9871 Y-104.4273 F12000.0
G1 Z0.0000 F8000.0
G0 X116.4823 Y-49.7589 F15000.0
G1 Z11.9000 F8000.0
G1 X115.9372 Y-54.3528 F12000.0
G1 X116.4823 Y-53.8856 F12000.0
G1 X117.1052 Y-54.3528 F12000.0
G1 X116.4823 Y-49.7589 F12000.0
G1 Z0.0000 F8000.0
G0 X116.2097 Y-51.6031 F15000.0
G1 Z11.9000 F8000.0
G1 X116.2097 Y-52.4307 F12000.0
G1 Z0.0000 F8000.0
G0 X116.7548 Y-51.8756 F15000.0
G1 Z11.9000 F8000.0
G1 X116.7548 Y-52.7032 F12000.0
G1 Z0.0000 F8000.0
G0 X116.4823 Y-146.4916 F15000.0
G1 Z11.9000 F8000.0
G1 X117.1052 Y-141.8977 F12000.0
G1 X116.4823 Y-142.3649 F12000.0
G1 X115.9372 Y-141.8977 F12000.0
G1 X116.4823 Y-146.4916 F12000.0
G1 Z0.0000 F8000.0
G0 X116.7548 Y-143.4694 F15000.0
G1 Z11.9000 F8000.0
G1 X116.7548 Y-144.2970 F12000.0
G1 Z0.0000 F8000.0
G0 X116.2097 Y-143.7419 F15000.0
G1 Z11.9000 F8000.0
G1 X116.2097 Y-144.5695 F12000.0
G1 Z0.0000 F8000.0
G0 X116.4823 Y-49.7589 F15000.0
G1 Z11.9000 F8000.0
G1 X116.4823 Y-146.4916 F12000.0
G1 Z0.0000 F8000.0
G0 X180.0000 Y-179.7389 F15000.0
G1 Z11.9000 F8000.0
G1 X177.3707 Y-179.7389 F12000.0
G1 Z0.0000 F8000.0
G0 X175.9692 Y-179.7389 F15000.0
G1 Z11.9000 F8000.0
G1 X174.5677 Y-179.7389 F12000.0
G1 Z0.0000 F8000.0
G0 X173.1662 Y-179.7389 F15000.0
G1 Z11.9000 F8000.0
G1 X154.9464 Y-179.7389 F12000.0
G1 Z0.0000 F8000.0
G0 X174.2563 Y-171.7190 F15000.0
G1 Z11.9000 F8000.0
G1 X180.0000 Y-171.7190 F12000.0
G1 Z0.0000 F8000.0
G0 X174.2563 Y-187.8366 F15000.0
G1 Z11.9000 F8000.0
G1 X180.0000 Y-187.8366 F12000.0
G1 Z0.0000 F8000.0
G0 X156.7372 Y-164.0885 F15000.0
G1 Z11.9000 F8000.0
G1 X172.3097 Y-164.0885 F12000.0
G1 Z0.0000 F8000.0
G0 X156.7372 Y-179.7389 F15000.0
G1 Z11.9000 F8000.0
G1 X156.7372 Y-164.0885 F12000.0
G1 Z0.0000 F8000.0
G0 X156.7372 Y-195.3892 F15000.0
G1 Z11.9000 F8000.0
G1 X172.3097 Y-195.3892 F12000.0
G1 Z0.0000 F8000.0
G0 X174.2563 Y-165.0229 F15000.0
G1 Z11.9000 F8000.0
G1 X173.7112 Y-164.0885 F12000.0
G1 Z0.0000 F8000.0
G0 X174.2563 Y-194.4549 F15000.0
G1 Z11.9000 F8000.0
G1 X174.2563 Y-165.0229 F12000.0
G1 Z0.0000 F8000.0
G0 X174.2563 Y-194.4549 F15000.0
G1 Z11.9000 F8000.0
G1 X173.7112 Y-195.3892 F12000.0
G1 Z0.0000 F8000.0
G0 X172.3097 Y-164.0885 F15000.0
G1 Z11.9000 F8000.0
G1 X172.7769 Y-165.4901 F12000.0
G1 X173.3219 Y-168.0595 F12000.0
G1 X173.7112 Y-170.7068 F12000.0
G1 X173.7112 Y-173.0427 F12000.0
G1 X173.3998 Y-175.3008 F12000.0
G1 X172.8547 Y-177.8702 F12000.0
G1 X172.3097 Y-179.7389 F12000.0
G1 X172.7769 Y-181.1405 F12000.0
G1 X173.3219 Y-183.7098 F12000.0
G1 X173.7112 Y-186.3572 F12000.0
G1 X173.7112 Y-188.6931 F12000.0
G1 X173.3998 Y-190.9510 F12000.0
G1 X172.8547 Y-193.5205 F12000.0
G1 X172.3097 Y-195.3892 F12000.0
G1 Z0.0000 F8000.0
G0 X173.7112 Y-164.0885 F15000.0
G1 Z11.9000 F8000.0
G1 X172.3097 Y-164.0885 F12000.0
G1 Z0.0000 F8000.0
G0 X172.3097 Y-195.3892 F15000.0
G1 Z11.9000 F8000.0
G1 X173.7112 Y-195.3892 F12000.0
G1 Z0.0000 F8000.0
G0 X156.7372 Y-179.7389 F15000.0
G1 Z11.9000 F8000.0
G1 X156.7372 Y-216.2564 F12000.0
G1 Z0.0000 F8000.0
G0 X156.7372 Y-214.3877 F15000.0
G1 Z11.9000 F8000.0
G1 X161.4089 Y-215.0106 F12000.0
G1 X160.9418 Y-214.3877 F12000.0
G1 X161.4089 Y-213.8426 F12000.0
G1 X156.7372 Y-214.3877 F12000.0
G1 Z0.0000 F8000.0
G0 X159.4480 Y-214.6602 F15000.0
G1 Z11.9000 F8000.0
G1 X158.6203 Y-214.6602 F12000.0
G1 Z0.0000 F8000.0
G0 X159.7594 Y-214.1152 F15000.0
G1 Z11.9000 F8000.0
G1 X158.9317 Y-214.1152 F12000.0
G1 Z0.0000 F8000.0
G0 X180.0000 Y-214.3877 F15000.0
G1 Z11.9000 F8000.0
G1 X156.7372 Y-214.3877 F12000.0
G1 Z0.0000 F8000.0
G0 X26.1617 Y-134.9680 F15000.0
G1 Z11.9000 F8000.0
G1 X26.1617 Y-147.5038 F12000.0
G1 Z0.0000 F8000.0
G0 X26.1617 Y-148.9053 F15000.0
G1 Z11.9000 F8000.0
G1 X26.1617 Y-150.3848 F12000.0
G1 Z0.0000 F8000.0
G0 X26.1617 Y-151.7084 F15000.0
G1 Z11.9000 F8000.0
G1 X26.1617 Y-164.2442 F12000.0
G1 Z0.0000 F8000.0
G0 X26.1617 Y-165.6458 F15000.0
G1 Z11.9000 F8000.0
G1 X26.1617 Y-167.1252 F12000.0
G1 Z0.0000 F8000.0
G0 X26.1617 Y-168.4488 F15000.0
G1 Z11.9000 F8000.0
G1 X26.1617 Y-180.9847 F12000.0
G1 Z0.0000 F8000.0
G0 X26.1617 Y-185.2671 F15000.0
G1 Z11.9000 F8000.0
G1 X26.1617 Y-197.8030 F12000.0
G1 Z0.0000 F8000.0
G0 X26.1617 Y-202.0076 F15000.0
G1 Z11.9000 F8000.0
G1 X26.1617 Y-214.5434 F12000.0
G1 Z0.0000 F8000.0
G0 X26.1617 Y-202.5526 F15000.0
G1 Z11.9000 F8000.0
G1 X26.1617 Y-191.1068 F12000.0
G1 Z0.0000 F8000.0
G0 X26.1617 Y-179.5831 F15000.0
G1 Z11.9000 F8000.0
G1 X26.1617 Y-191.1068 F12000.0
G1 Z0.0000 F8000.0
G0 X14.7159 Y-191.1068 F15000.0
G1 Z11.9000 F8000.0
G1 X26.1617 Y-191.1068 F12000.0
G1 Z0.0000 F8000.0
G0 X37.6854 Y-191.1068 F15000.0
G1 Z11.9000 F8000.0
G1 X26.1617 Y-191.1068 F12000.0
G1 Z0.0000 F8000.0
G0 X32.0793 Y-216.3342 F15000.0
G1 Z11.9000 F8000.0
G1 X31.7678 Y-212.6747 F12000.0
G1 Z0.0000 F8000.0
G0 X20.5556 Y-212.6747 F15000.0
G1 Z11.9000 F8000.0
G1 X20.3220 Y-216.3342 F12000.0
G1 Z0.0000 F8000.0
G0 X18.6091 Y-189.2381 F15000.0
G1 Z11.9000 F8000.0
G1 X19.0763 Y-187.7587 F12000.0
G1 X19.9328 Y-186.4351 F12000.0
G1 X20.9450 Y-185.2671 F12000.0
G1 X22.1907 Y-184.3328 F12000.0
G1 X23.5923 Y-183.7098 F12000.0
G1 X25.1496 Y-183.3205 F12000.0
G1 X26.7068 Y-183.2427 F12000.0
G1 X28.2640 Y-183.5541 F12000.0
G1 X29.6656 Y-184.0992 F12000.0
G1 X30.9893 Y-184.8778 F12000.0
G1 X32.1572 Y-185.9679 F12000.0
G1 X33.0137 Y-187.2915 F12000.0
G1 X33.6365 Y-188.6931 F12000.0
G1 X33.7923 Y-189.2381 F12000.0
G1 Z0.0000 F8000.0
G0 X15.1831 Y-189.2381 F15000.0
G1 Z11.9000 F8000.0
G1 X18.6091 Y-189.2381 F12000.0
G1 Z0.0000 F8000.0
G0 X37.2183 Y-189.2381 F15000.0
G1 Z11.9000 F8000.0
G1 X37.2183 Y-192.8976 F12000.0
G1 X33.7923 Y-192.8976 F12000.0
G1 Z0.0000 F8000.0
G0 X15.1831 Y-192.8976 F15000.0
G1 Z11.9000 F8000.0
G1 X15.1831 Y-189.2381 F12000.0
G1 Z0.0000 F8000.0
G0 X33.7923 Y-189.2381 F15000.0
G1 Z11.9000 F8000.0
G1 X37.2183 Y-189.2381 F12000.0
G1 Z0.0000 F8000.0
G0 X33.7923 Y-192.8976 F15000.0
G1 Z11.9000 F8000.0
G1 X33.2473 Y-194.3771 F12000.0
G1 X32.4686 Y-195.7007 F12000.0
G1 X31.4565 Y-196.8686 F12000.0
G1 X30.1327 Y-197.8030 F12000.0
G1 X28.7312 Y-198.4259 F12000.0
G1 X27.2519 Y-198.8152 F12000.0
G1 X25.6946 Y-198.8930 F12000.0
G1 X24.1373 Y-198.5816 F12000.0
G1 X22.6579 Y-198.0366 F12000.0
G1 X21.3343 Y-197.2579 F12000.0
G1 X20.2442 Y-196.1679 F12000.0
G1 X19.3877 Y-194.8442 F12000.0
G1 X18.7648 Y-193.4427 F12000.0
G1 X18.6091 Y-192.8976 F12000.0
G1 X15.1831 Y-192.8976 F12000.0
G1 Z0.0000 F8000.0
G0 X28.0304 Y-181.6076 F15000.0
G1 Z11.9000 F8000.0
G1 X26.3175 Y-181.4518 F12000.0
G1 X24.6045 Y-181.5297 F12000.0
G1 Z0.0000 F8000.0
G0 X17.9084 Y-136.8367 F15000.0
G1 Z11.9000 F8000.0
G1 X34.4931 Y-136.8367 F12000.0
G1 Z0.0000 F8000.0
G0 X17.9084 Y-155.2122 F15000.0
G1 Z11.9000 F8000.0
G1 X34.4931 Y-155.2122 F12000.0
G1 Z0.0000 F8000.0
G0 X24.3709 Y-161.6748 F15000.0
G1 Z11.9000 F8000.0
G1 X28.0304 Y-161.6748 F12000.0
G1 Z0.0000 F8000.0
G0 X6.8518 Y-168.5267 F15000.0
G1 Z11.9000 F8000.0
G1 X6.8518 Y-164.8671 F12000.0
G1 Z0.0000 F8000.0
G0 X45.4716 Y-168.5267 F15000.0
G1 Z11.9000 F8000.0
G1 X50.0656 Y-168.5267 F12000.0
G1 Z0.0000 F8000.0
G0 X24.3709 Y-181.6076 F15000.0
G1 Z11.9000 F8000.0
G1 X22.6579 Y-182.0748 F12000.0
G1 X21.1007 Y-182.8534 F12000.0
G1 X19.7771 Y-183.8656 F12000.0
G1 X18.5312 Y-185.1114 F12000.0
G1 X17.5969 Y-186.5908 F12000.0
G1 X17.0518 Y-187.8366 F12000.0
G1 Z0.0000 F8000.0
G0 X35.2717 Y-187.8366 F15000.0
G1 Z11.9000 F8000.0
G1 X34.5709 Y-186.2793 F12000.0
G1 X33.5587 Y-184.8778 F12000.0
G1 X32.3129 Y-183.6320 F12000.0
G1 X30.9114 Y-182.6198 F12000.0
G1 X29.3542 Y-181.9190 F12000.0
G1 X28.0304 Y-181.6076 F12000.0
G1 Z0.0000 F8000.0
G0 X17.9084 Y-155.2122 F15000.0
G1 Z11.9000 F8000.0
G1 X17.9084 Y-136.8367 F12000.0
G1 Z0.0000 F8000.0
G0 X34.4931 Y-155.2122 F15000.0
G1 Z11.9000 F8000.0
G1 X34.4931 Y-136.8367 F12000.0
G1 Z0.0000 F8000.0
G0 X17.0518 Y-194.2992 F15000.0
G1 Z11.9000 F8000.0
G1 X13.7816 Y-194.2992 F12000.0
G1 Z0.0000 F8000.0
G0 X6.8518 Y-164.8671 F15000.0
G1 Z11.9000 F8000.0
G1 X13.3144 Y-164.8671 F12000.0
G1 Z0.0000 F8000.0
G0 X45.4716 Y-168.5267 F15000.0
G1 Z11.9000 F8000.0
G1 X45.4716 Y-164.8671 F12000.0
G1 Z0.0000 F8000.0
G0 X13.3144 Y-164.8671 F15000.0
G1 Z11.9000 F8000.0
G1 X13.3144 Y-137.9267 F12000.0
G1 Z0.0000 F8000.0
G0 X38.6198 Y-187.8366 F15000.0
G1 Z11.9000 F8000.0
G1 X38.6198 Y-194.2992 F12000.0
G1 Z0.0000 F8000.0
G0 X24.3709 Y-181.6076 F15000.0
G1 Z11.9000 F8000.0
G1 X24.3709 Y-161.6748 F12000.0
G1 Z0.0000 F8000.0
G0 X2.2580 Y-212.6747 F15000.0
G1 Z11.9000 F8000.0
G1 X2.2580 Y-168.5267 F12000.0
G1 Z0.0000 F8000.0
G0 X39.0870 Y-164.8671 F15000.0
G1 Z11.9000 F8000.0
G1 X39.0870 Y-137.9267 F12000.0
G1 Z0.0000 F8000.0
G0 X28.0304 Y-181.6076 F15000.0
G1 Z11.9000 F8000.0
G1 X28.0304 Y-161.6748 F12000.0
G1 Z0.0000 F8000.0
G0 X13.7816 Y-187.8366 F15000.0
G1 Z11.9000 F8000.0
G1 X17.0518 Y-187.8366 F12000.0
G1 Z0.0000 F8000.0
G0 X17.0518 Y-194.2992 F15000.0
G1 Z11.9000 F8000.0
G1 X17.8305 Y-195.8564 F12000.0
G1 X18.7648 Y-197.2579 F12000.0
G1 X20.0107 Y-198.5037 F12000.0
G1 X21.4900 Y-199.5160 F12000.0
G1 X23.0473 Y-200.2168 F12000.0
G1 X24.6824 Y-200.6060 F12000.0
G1 X26.4732 Y-200.7617 F12000.0
G1 X28.1862 Y-200.5281 F12000.0
G1 X29.8213 Y-199.9832 F12000.0
G1 X31.3786 Y-199.2045 F12000.0
G1 X32.7022 Y-198.1923 F12000.0
G1 X33.8701 Y-196.8686 F12000.0
G1 X34.8045 Y-195.3892 F12000.0
G1 X35.2717 Y-194.2992 F12000.0
G1 Z0.0000 F8000.0
G0 X37.9190 Y-136.8367 F15000.0
G1 Z11.9000 F8000.0
G1 X34.4931 Y-136.8367 F12000.0
G1 Z0.0000 F8000.0
G0 X50.0656 Y-168.5267 F15000.0
G1 Z11.9000 F8000.0
G1 X50.0656 Y-212.6747 F12000.0
G1 Z0.0000 F8000.0
G0 X39.0870 Y-137.9267 F15000.0
G1 Z11.9000 F8000.0
G1 X37.9190 Y-136.8367 F12000.0
G1 Z0.0000 F8000.0
G0 X2.2580 Y-168.5267 F15000.0
G1 Z11.9000 F8000.0
G1 X6.8518 Y-168.5267 F12000.0
G1 Z0.0000 F8000.0
G0 X28.0304 Y-161.6748 F15000.0
G1 Z11.9000 F8000.0
G1 X34.4931 Y-155.2122 F12000.0
G1 Z0.0000 F8000.0
G0 X13.3144 Y-137.9267 F15000.0
G1 Z11.9000 F8000.0
G1 X14.4823 Y-136.8367 F12000.0
G1 Z0.0000 F8000.0
G0 X38.6198 Y-194.2992 F15000.0
G1 Z11.9000 F8000.0
G1 X35.2717 Y-194.2992 F12000.0
G1 Z0.0000 F8000.0
G0 X17.9084 Y-136.8367 F15000.0
G1 Z11.9000 F8000.0
G1 X14.4823 Y-136.8367 F12000.0
G1 Z0.0000 F8000.0
G0 X24.3709 Y-161.6748 F15000.0
G1 Z11.9000 F8000.0
G1 X17.9084 Y-155.2122 F12000.0
G1 Z0.0000 F8000.0
G0 X35.2717 Y-187.8366 F15000.0
G1 Z11.9000 F8000.0
G1 X38.6198 Y-187.8366 F12000.0
G1 Z0.0000 F8000.0
G0 X13.7816 Y-194.2992 F15000.0
G1 Z11.9000 F8000.0
G1 X13.7816 Y-187.8366 F12000.0
G1 Z0.0000 F8000.0
G0 X2.2580 Y-212.6747 F15000.0
G1 Z11.9000 F8000.0
G1 X50.0656 Y-212.6747 F12000.0
G1 Z0.0000 F8000.0
G0 X39.0870 Y-164.8671 F15000.0
G1 Z11.9000 F8000.0
G1 X45.4716 Y-164.8671 F12000.0
G1 Z0.0000 F8000.0
G0 X34.4931 Y-151.5526 F15000.0
G1 Z11.9000 F8000.0
G1 X39.0870 Y-151.5526 F12000.0
G1 Z0.0000 F8000.0
G0 X38.3083 Y-151.5526 F15000.0
G1 Z11.9000 F8000.0
G1 X38.3083 Y-137.2260 F12000.0
G1 Z0.0000 F8000.0
G0 X17.9084 Y-151.5526 F15000.0
G1 Z11.9000 F8000.0
G1 X20.6335 Y-151.5526 F12000.0
G1 Z0.0000 F8000.0
G0 X22.5022 Y-151.5526 F15000.0
G1 Z11.9000 F8000.0
G1 X25.3053 Y-151.5526 F12000.0
G1 Z0.0000 F8000.0
G0 X27.0961 Y-151.5526 F15000.0
G1 Z11.9000 F8000.0
G1 X29.8991 Y-151.5526 F12000.0
G1 Z0.0000 F8000.0
G0 X31.6900 Y-151.5526 F15000.0
G1 Z11.9000 F8000.0
G1 X34.4931 Y-151.5526 F12000.0
G1 Z0.0000 F8000.0
G0 X14.0931 Y-151.5526 F15000.0
G1 Z11.9000 F8000.0
G1 X14.0931 Y-137.2260 F12000.0
G1 Z0.0000 F8000.0
G0 X13.3144 Y-151.5526 F15000.0
G1 Z11.9000 F8000.0
G1 X17.9084 Y-151.5526 F12000.0
G1 Z0.0000 F8000.0
G0 X37.2183 Y-191.7297 F15000.0
G1 Z11.9000 F8000.0
G1 X36.0503 Y-192.8976 F12000.0
G1 Z0.0000 F8000.0
G0 X33.6365 Y-193.3648 F15000.0
G1 Z11.9000 F8000.0
G1 X28.4976 Y-198.5816 F12000.0
G1 Z0.0000 F8000.0
G0 X37.2183 Y-189.7831 F15000.0
G1 Z11.9000 F8000.0
G1 X34.1037 Y-192.8976 F12000.0
G1 Z0.0000 F8000.0
G0 X35.8167 Y-189.2381 F15000.0
G1 Z11.9000 F8000.0
G1 X26.1617 Y-198.8930 F12000.0
G1 Z0.0000 F8000.0
G0 X33.8701 Y-189.2381 F15000.0
G1 Z11.9000 F8000.0
G1 X24.4488 Y-198.6594 F12000.0
G1 Z0.0000 F8000.0
G0 X33.3252 Y-187.8366 F15000.0
G1 Z11.9000 F8000.0
G1 X22.9694 Y-198.1923 F12000.0
G1 Z0.0000 F8000.0
G0 X32.6244 Y-186.5908 F15000.0
G1 Z11.9000 F8000.0
G1 X21.7236 Y-197.4915 F12000.0
G1 Z0.0000 F8000.0
G0 X31.6900 Y-185.5785 F15000.0
G1 Z11.9000 F8000.0
G1 X20.6335 Y-196.6350 F12000.0
G1 Z0.0000 F8000.0
G0 X30.6778 Y-184.6442 F15000.0
G1 Z11.9000 F8000.0
G1 X19.7771 Y-195.5450 F12000.0
G1 Z0.0000 F8000.0
G0 X29.4320 Y-183.9434 F15000.0
G1 Z11.9000 F8000.0
G1 X19.0763 Y-194.2992 F12000.0
G1 Z0.0000 F8000.0
G0 X27.9526 Y-183.4763 F15000.0
G1 Z11.9000 F8000.0
G1 X18.5312 Y-192.8976 F12000.0
G1 Z0.0000 F8000.0
G0 X26.2396 Y-183.2427 F15000.0
G1 Z11.9000 F8000.0
G1 X16.5846 Y-192.8976 F12000.0
G1 Z0.0000 F8000.0
G0 X18.2976 Y-189.2381 F15000.0
G1 Z11.9000 F8000.0
G1 X15.1831 Y-192.3526 F12000.0
G1 Z0.0000 F8000.0
G0 X23.9038 Y-183.5541 F15000.0
G1 Z11.9000 F8000.0
G1 X18.6869 Y-188.8488 F12000.0
G1 Z0.0000 F8000.0
G0 X16.3510 Y-189.2381 F15000.0
G1 Z11.9000 F8000.0
G1 X15.1831 Y-190.4061 F12000.0
G1 Z0.0000 F8000.0
G0 X4.5939 Y-212.6747 F15000.0
G1 Z11.9000 F8000.0
G1 X2.2580 Y-210.3388 F12000.0
G1 Z0.0000 F8000.0
G0 X8.4870 Y-212.6747 F15000.0
G1 Z11.9000 F8000.0
G1 X2.2580 Y-206.4457 F12000.0
G1 Z0.0000 F8000.0
G0 X12.4580 Y-212.6747 F15000.0
G1 Z11.9000 F8000.0
G1 X2.2580 Y-202.5526 F12000.0
G1 Z0.0000 F8000.0
G0 X16.3510 Y-212.6747 F15000.0
G1 Z11.9000 F8000.0
G1 X2.2580 Y-198.6594 F12000.0
G1 Z0.0000 F8000.0
G0 X20.2442 Y-212.6747 F15000.0
G1 Z11.9000 F8000.0
G1 X2.2580 Y-194.7663 F12000.0
G1 Z0.0000 F8000.0
G0 X24.1373 Y-212.6747 F15000.0
G1 Z11.9000 F8000.0
G1 X2.2580 Y-190.8732 F12000.0
G1 Z0.0000 F8000.0
G0 X28.0304 Y-212.6747 F15000.0
G1 Z11.9000 F8000.0
G1 X2.2580 Y-186.9023 F12000.0
G1 Z0.0000 F8000.0
G0 X31.9236 Y-212.6747 F15000.0
G1 Z11.9000 F8000.0
G1 X2.2580 Y-183.0092 F12000.0
G1 Z0.0000 F8000.0
G0 X35.8167 Y-212.6747 F15000.0
G1 Z11.9000 F8000.0
G1 X23.5145 Y-200.3724 F12000.0
G1 Z0.0000 F8000.0
G0 X13.7816 Y-190.6397 F15000.0
G1 Z11.9000 F8000.0
G1 X2.2580 Y-179.1160 F12000.0
G1 Z0.0000 F8000.0
G0 X14.8717 Y-187.8366 F15000.0
G1 Z11.9000 F8000.0
G1 X2.2580 Y-175.2229 F12000.0
G1 Z0.0000 F8000.0
G0 X39.7098 Y-212.6747 F15000.0
G1 Z11.9000 F8000.0
G1 X27.6412 Y-200.6060 F12000.0
G1 Z0.0000 F8000.0
G0 X43.6030 Y-212.6747 F15000.0
G1 Z11.9000 F8000.0
G1 X30.5999 Y-199.6717 F12000.0
G1 Z0.0000 F8000.0
G0 X17.5969 Y-186.6687 F15000.0
G1 Z11.9000 F8000.0
G1 X2.2580 Y-171.3298 F12000.0
G1 Z0.0000 F8000.0
G0 X19.2320 Y-184.4106 F15000.0
G1 Z11.9000 F8000.0
G1 X3.4259 Y-168.5267 F12000.0
G1 Z0.0000 F8000.0
G0 X47.4961 Y-212.6747 F15000.0
G1 Z11.9000 F8000.0
G1 X32.8580 Y-198.0366 F12000.0
G1 Z0.0000 F8000.0
G0 X50.0656 Y-211.3511 F15000.0
G1 Z11.9000 F8000.0
G1 X34.5709 Y-195.8564 F12000.0
G1 Z0.0000 F8000.0
G0 X21.4122 Y-182.6977 F15000.0
G1 Z11.9000 F8000.0
G1 X6.8518 Y-168.1373 F12000.0
G1 Z0.0000 F8000.0
G0 X24.2930 Y-181.6076 F15000.0
G1 Z11.9000 F8000.0
G1 X7.5526 Y-164.8671 F12000.0
G1 Z0.0000 F8000.0
G0 X50.0656 Y-207.4580 F15000.0
G1 Z11.9000 F8000.0
G1 X36.9068 Y-194.2992 F12000.0
G1 Z0.0000 F8000.0
G0 X50.0656 Y-203.5648 F15000.0
G1 Z11.9000 F8000.0
G1 X38.6198 Y-192.0412 F12000.0
G1 Z0.0000 F8000.0
G0 X24.3709 Y-177.7923 F15000.0
G1 Z11.9000 F8000.0
G1 X11.4458 Y-164.8671 F12000.0
G1 Z0.0000 F8000.0
G0 X24.3709 Y-173.8992 F15000.0
G1 Z11.9000 F8000.0
G1 X13.3144 Y-162.8427 F12000.0
G1 Z0.0000 F8000.0
G0 X38.3083 Y-187.8366 F15000.0
G1 Z11.9000 F8000.0
G1 X28.0304 Y-177.5587 F12000.0
G1 Z0.0000 F8000.0
G0 X50.0656 Y-199.6717 F15000.0
G1 Z11.9000 F8000.0
G1 X38.6198 Y-188.1480 F12000.0
G1 Z0.0000 F8000.0
G0 X50.0656 Y-195.7007 F15000.0
G1 Z11.9000 F8000.0
G1 X28.0304 Y-173.6656 F12000.0
G1 Z0.0000 F8000.0
G0 X24.3709 Y-170.0060 F15000.0
G1 Z11.9000 F8000.0
G1 X13.3144 Y-158.9496 F12000.0
G1 Z0.0000 F8000.0
G0 X24.3709 Y-166.1129 F15000.0
G1 Z11.9000 F8000.0
G1 X13.3144 Y-155.0564 F12000.0
G1 Z0.0000 F8000.0
G0 X50.0656 Y-191.8076 F15000.0
G1 Z11.9000 F8000.0
G1 X28.0304 Y-169.7725 F12000.0
G1 Z0.0000 F8000.0
G0 X50.0656 Y-187.9144 F15000.0
G1 Z11.9000 F8000.0
G1 X28.0304 Y-165.8794 F12000.0
G1 Z0.0000 F8000.0
G0 X24.3709 Y-162.2198 F15000.0
G1 Z11.9000 F8000.0
G1 X13.3144 Y-151.1633 F12000.0
G1 Z0.0000 F8000.0
G0 X17.9084 Y-151.8641 F15000.0
G1 Z11.9000 F8000.0
G1 X13.3144 Y-147.2702 F12000.0
G1 Z0.0000 F8000.0
G0 X50.0656 Y-184.0213 F15000.0
G1 Z11.9000 F8000.0
G1 X28.0304 Y-161.9863 F12000.0
G1 Z0.0000 F8000.0
G0 X50.0656 Y-180.1282 F15000.0
G1 Z11.9000 F8000.0
G1 X29.8213 Y-159.8840 F12000.0
G1 Z0.0000 F8000.0
G0 X17.9084 Y-147.9710 F15000.0
G1 Z11.9000 F8000.0
G1 X13.3144 Y-143.3771 F12000.0
G1 Z0.0000 F8000.0
G0 X17.9084 Y-144.0779 F15000.0
G1 Z11.9000 F8000.0
G1 X13.3144 Y-139.4839 F12000.0
G1 Z0.0000 F8000.0
G0 X50.0656 Y-176.2351 F15000.0
G1 Z11.9000 F8000.0
G1 X31.7678 Y-157.9374 F12000.0
G1 Z0.0000 F8000.0
G0 X50.0656 Y-172.3419 F15000.0
G1 Z11.9000 F8000.0
G1 X46.3282 Y-168.5267 F12000.0
G1 Z0.0000 F8000.0
G0 X45.4716 Y-167.7481 F15000.0
G1 Z11.9000 F8000.0
G1 X42.6687 Y-164.8671 F12000.0
G1 Z0.0000 F8000.0
G0 X39.0870 Y-161.2855 F15000.0
G1 Z11.9000 F8000.0
G1 X33.7144 Y-155.9130 F12000.0
G1 Z0.0000 F8000.0
G0 X17.9084 Y-140.1069 F15000.0
G1 Z11.9000 F8000.0
G1 X14.5602 Y-136.8367 F12000.0
G1 Z0.0000 F8000.0
G0 X39.0870 Y-157.3923 F15000.0
G1 Z11.9000 F8000.0
G1 X34.4931 Y-152.7984 F12000.0
G1 Z0.0000 F8000.0
G0 X39.0870 Y-153.4992 F15000.0
G1 Z11.9000 F8000.0
G1 X34.4931 Y-148.9053 F12000.0
G1 Z0.0000 F8000.0
G0 X39.0870 Y-149.6061 F15000.0
G1 Z11.9000 F8000.0
G1 X34.4931 Y-145.0122 F12000.0
G1 Z0.0000 F8000.0
G0 X39.0870 Y-145.7130 F15000.0
G1 Z11.9000 F8000.0
G1 X34.4931 Y-141.1191 F12000.0
G1 Z0.0000 F8000.0
G0 X39.0870 Y-141.8198 F15000.0
G1 Z11.9000 F8000.0
G1 X34.4931 Y-137.1481 F12000.0
G1 Z0.0000 F8000.0
G0 X26.4069 Y-121.2706 F15000.0
G1 Z11.9000 F8000.0
G1 X25.5792 Y-121.2706 F12000.0
G1 Z0.0000 F8000.0
G0 X0.0000 Y-218.9595 F15000.0
G1 Z11.9000 F8000.0
G1 X0.0000 Y-275.9770 F12000.0
G1 X174.7310 Y-275.9770 F12000.0
G1 Z0.0000 F8000.0
G0 X170.1296 Y-225.3663 F15000.0
G1 Z11.9000 F8000.0
G1 X0.0000 Y-225.3663 F12000.0
G1 Z0.0000 F8000.0
G0 X170.1296 Y-234.5541 F15000.0
G1 Z11.9000 F8000.0
G1 X110.3311 Y-234.5541 F12000.0
G1 Z0.0000 F8000.0
G0 X170.1296 Y-239.1480 F15000.0
G1 Z11.9000 F8000.0
G1 X110.3311 Y-239.1480 F12000.0
G1 Z0.0000 F8000.0
G0 X170.1296 Y-252.9296 F15000.0
G1 Z11.9000 F8000.0
G1 X110.3311 Y-252.9296 F12000.0
G1 Z0.0000 F8000.0
G0 X170.1296 Y-257.6014 F15000.0
G1 Z11.9000 F8000.0
G1 X110.3311 Y-257.6014 F12000.0
G1 Z0.0000 F8000.0
G0 X170.1296 Y-262.1953 F15000.0
G1 Z11.9000 F8000.0
G1 X110.3311 Y-262.1953 F12000.0
G1 Z0.0000 F8000.0
G0 X170.1296 Y-266.7892 F15000.0
G1 Z11.9000 F8000.0
G1 X110.3311 Y-266.7892 F12000.0
G1 Z0.0000 F8000.0
G0 X170.1296 Y-271.3830 F15000.0
G1 Z11.9000 F8000.0
G1 X110.3311 Y-271.3830 F12000.0
G1 Z0.0000 F8000.0
G0 X170.1296 Y-275.9770 F15000.0
G1 Z11.9000 F8000.0
G1 X170.1296 Y-225.3663 F12000.0
G1 Z0.0000 F8000.0
G0 X170.1296 Y-229.9602 F15000.0
G1 Z11.9000 F8000.0
G1 X110.3311 Y-229.9602 F12000.0
G1 Z0.0000 F8000.0
G0 X154.4792 Y-275.9770 F15000.0
G1 Z11.9000 F8000.0
G1 X154.4792 Y-225.3663 F12000.0
G1 Z0.0000 F8000.0
G0 X133.3006 Y-275.9770 F15000.0
G1 Z11.9000 F8000.0
G1 X133.3006 Y-225.3663 F12000.0
G1 Z0.0000 F8000.0
G0 X119.5189 Y-275.9770 F15000.0
G1 Z11.9000 F8000.0
G1 X119.5189 Y-225.3663 F12000.0
G1 Z0.0000 F8000.0
G0 X110.3311 Y-275.9770 F15000.0
G1 Z11.9000 F8000.0
G1 X110.3311 Y-225.3663 F12000.0
G1 Z0.0000 F8000.0
G0 X45.9388 Y-275.9770 F15000.0
G1 Z11.9000 F8000.0
G1 X45.9388 Y-239.1480 F12000.0
G1 Z0.0000 F8000.0
G0 X32.1572 Y-257.6014 F15000.0
G1 Z11.9000 F8000.0
G1 X32.1572 Y-239.1480 F12000.0
G1 Z0.0000 F8000.0
G0 X16.5068 Y-257.6014 F15000.0
G1 Z11.9000 F8000.0
G1 X16.5068 Y-239.1480 F12000.0
G1 Z0.0000 F8000.0
G0 X170.1296 Y-243.7419 F15000.0
G1 Z11.9000 F8000.0
G1 X110.3311 Y-243.7419 F12000.0
G1 Z0.0000 F8000.0
G0 X170.1296 Y-248.3357 F15000.0
G1 Z11.9000 F8000.0
G1 X110.3311 Y-248.3357 F12000.0
G1 Z0.0000 F8000.0
G0 X45.9388 Y-262.1953 F15000.0
G1 Z11.9000 F8000.0
G1 X0.0000 Y-262.1953 F12000.0
G1 Z0.0000 F8000.0
G0 X32.1572 Y-243.7419 F15000.0
G1 Z11.9000 F8000.0
G1 X0.0000 Y-243.7419 F12000.0
G1 Z0.0000 F8000.0
G0 X45.9388 Y-243.7419 F15000.0
G1 Z11.9000 F8000.0
G1 X32.1572 Y-243.7419 F12000.0
G1 Z0.0000 F8000.0
G0 X110.3311 Y-239.1480 F15000.0
G1 Z11.9000 F8000.0
G1 X0.0000 Y-239.1480 F12000.0
G1 Z0.0000 F8000.0
G0 X110.3311 Y-262.1953 F15000.0
G1 Z11.9000 F8000.0
G1 X45.9388 Y-262.1953 F12000.0
G1 Z0.0000 F8000.0
G0 X45.9388 Y-257.6014 F15000.0
G1 Z11.9000 F8000.0
G1 X0.0000 Y-257.6014 F12000.0
G1 Z0.0000 F8000.0
G0 X27.0183 Y-262.1953 F15000.0
G1 Z11.9000 F8000.0
G1 X27.0183 Y-257.6014 F12000.0
G1 Z0.0000 F8000.0
G0 X41.3449 Y-257.6014 F15000.0
G1 Z11.9000 F8000.0
G1 X41.3449 Y-243.7419 F12000.0
G1 Z0.0000 F8000.0
G0 X36.7511 Y-257.6014 F15000.0
G1 Z11.9000 F8000.0
G1 X36.7511 Y-243.7419 F12000.0
G1 Z0.0000 F8000.0
G0 X163.6669 Y-248.3357 F15000.0
G1 Z11.9000 F8000.0
G1 X163.6669 Y-225.3663 F12000.0
G1 Z0.0000 F8000.0
G0 X5.2780 Y-261.1730 F15000.0
G1 Z11.9000 F8000.0
G1 X4.4838 Y-258.6231 F12000.0
G1 Z0.0000 F8000.0
G0 X4.9436 Y-258.6649 F15000.0
G1 Z11.9000 F8000.0
G1 X4.6510 Y-258.4977 F12000.0
G1 Z0.0000 F8000.0
G0 X73.2331 Y-229.0921 F15000.0
G1 Z11.9000 F8000.0
G1 X71.8536 Y-232.2188 F12000.0
G1 X72.1295 Y-232.7246
G1 X73.2331 Y-232.9545
G1 X73.7389 Y-232.5407
G1 X73.6929 Y-232.6327
G1 X73.8308 Y-232.3108
G1 X73.7848 Y-229.6438
G1 X73.2331 Y-229.0921
G1 X72.5433 Y-229.0921
G1 X72.0375 Y-229.4599
G1 X71.8536 Y-229.8738
G1 Z0.0000 F8000.0
G0 X75.2103 Y-230.2876 F15000.0
G1 Z11.9000 F8000.0
G1 X75.2302 Y-231.5860 F12000.0
G1 X75.3847 Y-231.6962
G1 X76.7764 Y-231.7181
G1 X76.9721 Y-231.6217
G1 X77.1742 Y-231.2343
G1 X77.2795 Y-230.3336
G1 Z0.0000 F8000.0
G0 X77.0955 Y-231.4831 F15000.0
G1 Z11.9000 F8000.0
G1 X76.8197 Y-231.7130 F12000.0
G1 Z0.0000 F8000.0
G0 X75.2103 Y-231.6670 F15000.0
G1 Z11.9000 F8000.0
G1 X75.2103 Y-232.9086 F12000.0
G1 Z0.0000 F8000.0
G0 X73.7389 Y-232.5407 F15000.0
G1 Z11.9000 F8000.0
G1 X73.4724 Y-232.8156 F12000.0
G1 X73.1873 Y-232.9376
G1 X72.4789 Y-232.9014
G1 X72.1295 Y-232.6786
G1 Z0.0000 F8000.0
G0 X70.3362 Y-232.5407 F15000.0
G1 Z11.9000 F8000.0
G1 X70.0697 Y-232.8156 F12000.0
G1 X69.7846 Y-232.9376
G1 X69.0762 Y-232.9014
G1 X68.7268 Y-232.6786
G1 Z0.0000 F8000.0
G0 X65.3702 Y-231.0233 F15000.0
G1 Z11.9000 F8000.0
G1 X64.7000 Y-230.7021 F12000.0
G1 X63.8840 Y-230.6584
G1 X63.5367 Y-230.8602
G1 X63.4308 Y-232.5214
G1 X63.5596 Y-232.7257
G1 X63.4566 Y-232.5729
G1 X63.6848 Y-232.7663
G1 X64.6168 Y-232.9302
G1 X64.9379 Y-232.8095
G1 X65.1862 Y-232.5957
G1 X65.3477 Y-232.2869
G1 X65.5017 Y-231.1053
G1 X65.4093 Y-230.0393
G1 X65.1095 Y-229.4585
G1 X63.8905 Y-229.1283
G1 X63.5620 Y-229.3063
G1 X63.3470 Y-229.6898
G1 Z0.0000 F8000.0
G0 X61.3238 Y-229.0921 F15000.0
G1 Z11.9000 F8000.0
G1 X59.9443 Y-232.2188 F12000.0
G1 X60.1742 Y-232.6786
G1 X60.4961 Y-232.9086
G1 X61.3238 Y-232.9545
G1 X61.8296 Y-232.5407
G1 X61.7836 Y-232.6327
G1 X61.9215 Y-232.3108
G1 X61.8756 Y-229.6438
G1 X61.3238 Y-229.0921
G1 X60.6340 Y-229.0921
G1 X60.1282 Y-229.4599
G1 X59.9443 Y-229.8738
G1 Z0.0000 F8000.0
G0 X56.7256 Y-232.5407 F15000.0
G1 Z11.9000 F8000.0
G1 X56.4591 Y-232.8156 F12000.0
G1 X56.1740 Y-232.9376
G1 X55.4656 Y-232.9014
G1 X55.1162 Y-232.6786
G1 Z0.0000 F8000.0
G0 X53.3229 Y-232.5407 F15000.0
G1 Z11.9000 F8000.0
G1 X52.8171 Y-232.9545 F12000.0
G1 Z0.0000 F8000.0
G0 X52.8171 Y-229.0921 F15000.0
G1 Z11.9000 F8000.0
G1 X52.1274 Y-229.0921 F12000.0
G1 X51.6216 Y-229.4599
G1 X51.4377 Y-229.8738
G1 X51.4377 Y-232.2188
G1 X51.7136 Y-232.7246
G1 X51.4837 Y-232.3108
G1 X51.6216 Y-232.5867
G1 X51.9895 Y-232.9086
G1 X52.8171 Y-232.9545
G1 Z0.0000 F8000.0
G0 X53.3229 Y-232.5407 F15000.0
G1 Z11.9000 F8000.0
G1 X53.2769 Y-232.6327 F12000.0
G1 X53.4149 Y-232.3108
G1 X53.3689 Y-229.6438
G1 X52.8171 Y-229.0921
G1 Z0.0000 F8000.0
G0 X56.2198 Y-229.0921 F15000.0
G1 Z11.9000 F8000.0
G1 X54.8403 Y-232.2188 F12000.0
G1 X55.1162 Y-232.7246
G1 X56.2198 Y-232.9545
G1 X56.7256 Y-232.5407
G1 X56.6796 Y-232.6327
G1 X56.8176 Y-232.3108
G1 X56.7716 Y-229.6438
G1 X56.2198 Y-229.0921
G1 X55.5301 Y-229.0921
G1 X55.0243 Y-229.4599
G1 X54.8403 Y-229.8738
G1 Z0.0000 F8000.0
G0 X47.7131 Y-229.0921 F15000.0
G1 Z11.9000 F8000.0
G1 X46.3337 Y-232.2188 F12000.0
G1 X46.6096 Y-232.7246
G1 X47.7131 Y-232.9545
G1 X48.2189 Y-232.5407
G1 X48.1730 Y-232.6327
G1 X48.3109 Y-232.3108
G1 X48.2649 Y-229.6438
G1 X47.7131 Y-229.0921
G1 X47.0234 Y-229.0921
G1 X46.5176 Y-229.4599
G1 X46.3337 Y-229.8738
G1 Z0.0000 F8000.0
G0 X48.2189 Y-232.5407 F15000.0
G1 Z11.9000 F8000.0
G1 X47.9524 Y-232.8156 F12000.0
G1 X47.6673 Y-232.9376
G1 X46.9590 Y-232.9014
G1 X46.6096 Y-232.6786
G1 Z0.0000 F8000.0
G0 X44.7703 Y-232.6327 F15000.0
G1 Z11.9000 F8000.0
G1 X44.9438 Y-232.1459 F12000.0
G1 X44.8419 Y-229.6443
G1 X44.7277 Y-229.4418
G1 X44.3614 Y-229.1463
G1 X43.6672 Y-229.1068
G1 X43.1826 Y-229.4164
G1 X42.9656 Y-229.8161
G1 X42.9457 Y-232.1963
G1 X43.1631 Y-232.6559
G1 X43.0283 Y-232.3952
G1 X43.2877 Y-232.7309
G1 X43.5911 Y-232.9006
G1 X44.2984 Y-232.9340
G1 X44.6783 Y-232.6786
G1 Z0.0000 F8000.0
G0 X69.8304 Y-229.0921 F15000.0
G1 Z11.9000 F8000.0
G1 X68.4510 Y-232.2188 F12000.0
G1 X68.7268 Y-232.7246
G1 X69.8304 Y-232.9545
G1 X70.3362 Y-232.5407
G1 X70.2902 Y-232.6327
G1 X70.4282 Y-232.3108
G1 X70.3822 Y-229.6438
G1 X69.8304 Y-229.0921
G1 X69.1407 Y-229.0921
G1 X68.6349 Y-229.4599
G1 X68.4510 Y-229.8738
G1 Z0.0000 F8000.0
G0 X78.4750 Y-232.9086 F15000.0
G1 Z11.9000 F8000.0
G1 X78.6908 Y-229.6886 F12000.0
G1 X78.6105 Y-229.3482
G1 X78.9899 Y-229.7054
G1 X80.0557 Y-232.4907
G1 X80.2927 Y-232.6695
G1 X81.8994 Y-229.4149
G1 X82.0153 Y-229.4702
G1 X82.1076 Y-232.9086
G1 Z0.0000 F8000.0
G0 X80.3143 Y-232.8626 F15000.0
G1 Z11.9000 F8000.0
G1 X80.3143 Y-232.6786 F12000.0
G1 Z0.0000 F8000.0
G0 X32.9085 Y-228.9081 F15000.0
G1 Z11.9000 F8000.0
G1 X33.0316 Y-229.0328 F12000.0
G1 X34.7606 Y-229.3374
G1 X35.0931 Y-229.6639
G1 X35.2392 Y-229.9717
G1 X35.2123 Y-230.7395
G1 X34.6850 Y-230.6108
G1 X33.2621 Y-230.6273
G1 X33.1135 Y-230.7687
G1 X32.9318 Y-231.2035
G1 X33.1125 Y-232.4942
G1 X33.4033 Y-232.8576
G1 X33.7329 Y-232.9533
G1 X34.4437 Y-232.9357
G1 X34.9209 Y-232.6060
G1 X35.1775 Y-230.8736
G1 X34.7531 Y-230.5670
G1 X34.7937 Y-230.6095
G1 Z0.0000 F8000.0
G0 X35.0696 Y-232.4028 F15000.0
G1 Z11.9000 F8000.0
G1 X34.7805 Y-232.7733 F12000.0
G1 X34.4704 Y-232.9310
G1 X33.2607 Y-232.7284
G1 X33.1844 Y-232.6327
G1 Z0.0000 F8000.0
G0 X36.2192 Y-231.8970 F15000.0
G1 Z11.9000 F8000.0
G1 X36.8679 Y-232.5825 F12000.0
G1 X38.3696 Y-232.9239
G1 X38.6834 Y-232.8185
G1 X39.3106 Y-232.2849
G1 X39.5068 Y-231.8549
G1 X39.3548 Y-229.9555
G1 X39.2676 Y-229.7458
G1 X38.9225 Y-229.3542
G1 X38.5016 Y-229.1742
G1 X37.4326 Y-229.1110
G1 X36.9020 Y-229.3635
G1 X36.5870 Y-229.8278
G1 Z0.0000 F8000.0
G0 X38.7022 Y-229.1840 F15000.0
G1 Z11.9000 F8000.0
G1 X38.7941 Y-229.2760 F12000.0
G1 Z0.0000 F8000.0
G0 X39.3459 Y-229.8278 F15000.0
G1 Z11.9000 F8000.0
G1 X39.3919 Y-229.9197 F12000.0
G1 Z0.0000 F8000.0
G0 X36.5870 Y-232.3108 F15000.0
G1 Z11.9000 F8000.0
G1 X36.7709 Y-232.5867 F12000.0
G1 Z0.0000 F8000.0
G0 X41.7161 Y-239.8838 F15000.0
G1 Z11.9000 F8000.0
G1 X40.7346 Y-239.9397 F12000.0
G1 X40.6331 Y-241.7922
G1 X39.8977 Y-241.7713
G1 X39.9228 Y-240.5276
G1 Z0.0000 F8000.0
G0 X39.8308 Y-241.6771 F15000.0
G1 Z11.9000 F8000.0
G1 X38.9334 Y-240.8303 F12000.0
G1 X38.8330 Y-241.8127
G1 X37.8307 Y-241.8344
G1 X37.7699 Y-241.6619
G1 X37.8540 Y-240.5162
G1 X38.2304 Y-240.4816
G1 X37.2559 Y-240.4816
G1 Z0.0000 F8000.0
G0 X41.7621 Y-239.9758 F15000.0
G1 Z11.9000 F8000.0
G1 X41.8245 Y-241.7422 F12000.0
G1 X42.0840 Y-241.9070
G1 Z0.0000 F8000.0
G0 X29.2225 Y-241.6705 F15000.0
G1 Z11.9000 F8000.0
G1 X29.1821 Y-240.2366 F12000.0
G1 X29.1101 Y-239.9738
G1 X28.2656 Y-241.4142
G1 X28.1891 Y-241.4135
G1 X28.0166 Y-241.1650
G1 X27.7967 Y-240.5303
G1 X27.4244 Y-239.8308
G1 X27.4990 Y-240.2379
G1 X27.3372 Y-241.6705
G1 Z0.0000 F8000.0
G0 X28.2109 Y-241.4406 F15000.0
G1 Z11.9000 F8000.0
G1 X28.2569 Y-241.6245 F12000.0
G1 Z0.0000 F8000.0
G0 X26.3256 Y-240.2450 F15000.0
G1 Z11.9000 F8000.0
G1 X25.6426 Y-240.8888 F12000.0
G1 X26.3945 Y-241.0699
G1 X26.5174 Y-241.6110
G1 X26.4665 Y-241.6785
G1 X26.0156 Y-241.6766
G1 X25.5946 Y-241.5175
G1 X25.5606 Y-240.9927
G1 X24.9194 Y-240.6295
G1 X24.8202 Y-241.4524
G1 X24.6943 Y-241.6139
G1 X24.4998 Y-241.7019
G1 X24.1526 Y-241.6992
G1 X23.8480 Y-241.4313
G1 X23.9346 Y-241.6245
G1 Z0.0000 F8000.0
G0 X23.9805 Y-240.3830 F15000.0
G1 Z11.9000 F8000.0
G1 X24.1586 Y-240.2671 F12000.0
G1 X24.6530 Y-240.3316
G1 X24.5977 Y-240.2871
G1 X24.8082 Y-240.4750
G1 Z0.0000 F8000.0
G0 X23.2448 Y-240.5669 F15000.0
G1 Z11.9000 F8000.0
G1 X23.2308 Y-241.3987 F12000.0
G1 X22.9499 Y-241.6865
G1 X22.6072 Y-241.7092
G1 X22.3415 Y-241.5954
G1 X22.3848 Y-241.6548
G1 X22.2792 Y-241.5325
G1 Z0.0000 F8000.0
G0 X22.3712 Y-240.3830 F15000.0
G1 Z11.9000 F8000.0
G1 X22.5492 Y-240.2671 F12000.0
G1 X22.9773 Y-240.3020
G1 X23.1988 Y-240.4750
G1 Z0.0000 F8000.0
G0 X21.3596 Y-240.2450 F15000.0
G1 Z11.9000 F8000.0
G1 X20.6766 Y-240.8888 F12000.0
G1 X21.4285 Y-241.0699
G1 X21.5513 Y-241.6110
G1 X21.5005 Y-241.6785
G1 X20.9329 Y-241.6558
G1 X20.6286 Y-241.5175
G1 X20.5779 Y-240.9808
G1 Z0.0000 F8000.0
G0 X1.8090 Y-239.7985 F15000.0
G1 Z11.9000 F8000.0
G1 X2.9738 Y-240.1911 F12000.0
G1 X3.0220 Y-240.6952
G1 X2.1511 Y-240.6370
G1 X1.9763 Y-240.7474
G1 X1.8756 Y-241.0316
G1 X2.7551 Y-241.9429
G1 X2.8494 Y-241.9464
G1 X3.0669 Y-240.9601
G1 X2.9735 Y-240.7773
G1 X2.6827 Y-240.5802
G1 Z0.0000 F8000.0
G0 X3.8322 Y-241.2239 F15000.0
G1 Z11.9000 F8000.0
G1 X3.9324 Y-241.9020 F12000.0
G1 X3.8504 Y-240.7754
G1 X4.1037 Y-240.6066
G1 X4.6837 Y-240.5619
G1 X4.7978 Y-240.6261
G1 Z0.0000 F8000.0
G0 X5.4876 Y-240.5342 F15000.0
G1 Z11.9000 F8000.0
G1 X6.5404 Y-240.5342 F12000.0
G1 X6.1425 Y-240.5647
G1 X6.0393 Y-242.0516
G1 Z0.0000 F8000.0
G0 X7.1889 Y-240.5802 F15000.0
G1 Z11.9000 F8000.0
G1 X8.1545 Y-242.0516 F12000.0
G1 Z0.0000 F8000.0
G0 X8.2005 Y-240.5802 F15000.0
G1 Z11.9000 F8000.0
G1 X8.2285 Y-241.9856 F12000.0
G1 X8.4041 Y-242.0405
G1 X9.0941 Y-241.9840
G1 X9.1482 Y-241.9160
G1 X9.1661 Y-240.5802
G1 Z0.0000 F8000.0
G0 X9.8099 Y-240.8101 F15000.0
G1 Z11.9000 F8000.0
G1 X10.0374 Y-240.5606 F12000.0
G1 X10.6028 Y-240.5823
G1 X10.8224 Y-240.8455
G1 X10.8557 Y-241.6658
G1 X10.6918 Y-241.9647
G1 X10.4874 Y-242.0389
G1 X9.9272 Y-241.9422
G1 X9.8124 Y-241.8087
G1 X9.8558 Y-241.9136
G1 Z0.0000 F8000.0
G0 X11.6491 Y-241.2239 F15000.0
G1 Z11.9000 F8000.0
G1 X11.7493 Y-241.9020 F12000.0
G1 X11.6673 Y-240.7754
G1 X11.9206 Y-240.6066
G1 X12.5006 Y-240.5619
G1 X12.6147 Y-240.6261
G1 Z0.0000 F8000.0
G0 X13.6264 Y-240.1663 F15000.0
G1 Z11.9000 F8000.0
G1 X13.9997 Y-240.7749 F12000.0
G1 X13.6390 Y-240.2596
G1 X13.5344 Y-242.0516
G1 Z0.0000 F8000.0
G0 X14.4540 Y-241.8677 F15000.0
G1 Z11.9000 F8000.0
G1 X14.2199 Y-241.3945 F12000.0
G1 X14.2981 Y-241.6529
G1 X14.1120 Y-241.0310
G1 X14.2484 Y-241.5037
G1 X14.5076 Y-241.7932
G1 X15.4492 Y-240.2039
G1 X15.4323 Y-240.1057
G1 X15.5116 Y-242.0056
G1 Z0.0000 F8000.0
G0 X89.1764 Y-243.0000 F15000.0
G1 Z11.9000 F8000.0
G1 X91.2912 Y-244.7400 F12000.0
G1 X91.2940 Y-246.8238
G1 X88.9547 Y-246.7029
G1 X88.8748 Y-246.6394
G1 X88.6517 Y-245.4853
G1 X88.7316 Y-245.2882
G1 X89.2180 Y-244.7490
G1 X89.0554 Y-244.5357
G1 X89.2050 Y-244.6837
G1 X88.8679 Y-244.2221
G1 X88.9005 Y-243.2299
G1 Z0.0000 F8000.0
G0 X88.6246 Y-245.3911 F15000.0
G1 Z11.9000 F8000.0
G1 X88.8597 Y-245.1279 F12000.0
G1 X89.3529 Y-244.8089
G1 X91.3375 Y-244.7473
G1 Z0.0000 F8000.0
G0 X88.7625 Y-246.5866 F15000.0
G1 Z11.9000 F8000.0
G1 X88.8085 Y-246.6785 F12000.0
G1 Z0.0000 F8000.0
G0 X87.2911 Y-245.4830 F15000.0
G1 Z11.9000 F8000.0
G1 X87.0850 Y-246.4132 F12000.0
G1 X86.8716 Y-246.6715
G1 X85.3546 Y-246.7911
G1 X84.8733 Y-246.3425
G1 X85.2219 Y-246.7705
G1 Z0.0000 F8000.0
G0 X83.6125 Y-246.9085 F15000.0
G1 Z11.9000 F8000.0
G1 X83.6125 Y-244.1495 F12000.0
G1 Z0.0000 F8000.0
G0 X83.5666 Y-245.4830 F15000.0
G1 Z11.9000 F8000.0
G1 X81.5505 Y-245.3808 F12000.0
G1 X81.4547 Y-245.2334
G1 X81.4164 Y-244.1930
G1 X80.3902 Y-244.0645
G1 X79.3465 Y-244.1324
G1 X79.2913 Y-244.3184
G1 X79.2903 Y-246.9085
G1 Z0.0000 F8000.0
G0 X81.4514 Y-246.8625 F15000.0
G1 Z11.9000 F8000.0
G1 X81.4514 Y-245.3911 F12000.0
G1 Z0.0000 F8000.0
G0 X79.2443 Y-244.1036 F15000.0
G1 Z11.9000 F8000.0
G1 X78.1694 Y-244.0635 F12000.0
G1 X77.1561 Y-244.2081
G1 X77.0611 Y-246.7384
G1 X76.3019 Y-246.0149
G1 X75.6543 Y-244.9346
G1 X75.0219 Y-244.2796
G1 X74.9419 Y-246.8461
G1 X73.9287 Y-246.9456
G1 X73.2292 Y-246.8233
G1 X71.1975 Y-246.9085
G1 Z0.0000 F8000.0
G0 X69.8180 Y-245.2991 F15000.0
G1 Z11.9000 F8000.0
G1 X68.5075 Y-245.3932 F12000.0
G1 X68.0599 Y-245.5120
G1 X67.7828 Y-245.8313
G1 X68.1283 Y-246.8230
G1 X68.2936 Y-246.8215
G1 X69.7577 Y-245.4271
G1 X69.8180 Y-244.1495
G1 Z0.0000 F8000.0
G0 X75.5657 Y-244.7933 F15000.0
G1 Z11.9000 F8000.0
G1 X76.5516 Y-246.3703 F12000.0
G1 X76.6693 Y-246.4486
G1 Z0.0000 F8000.0
G0 X85.0840 Y-244.5174 F15000.0
G1 Z11.9000 F8000.0
G1 X85.5133 Y-244.1586 F12000.0
G1 Z0.0000 F8000.0
G0 X85.1165 Y-244.5204 F15000.0
G1 Z11.9000 F8000.0
G1 X84.9982 Y-245.4026 F12000.0
G1 X87.2484 Y-245.4039
G1 X87.0461 Y-244.6342
G1 X86.7581 Y-244.2696
G1 X86.4402 Y-244.1438
G1 X85.5898 Y-244.1036
G1 Z0.0000 F8000.0
G0 X86.6473 Y-244.1495 F15000.0
G1 Z11.9000 F8000.0
G1 X86.9692 Y-244.4714 F12000.0
G1 Z0.0000 F8000.0
G0 X148.8574 Y-244.4708 F15000.0
G1 Z11.9000 F8000.0
G1 X148.8928 Y-246.0396 F12000.0
G1 X148.9462 Y-246.0772
G1 X150.2415 Y-244.7171
G1 X150.3273 Y-244.9569
G1 X150.3288 Y-246.4940
G1 Z0.0000 F8000.0
G0 X148.2136 Y-246.4020 F15000.0
G1 Z11.9000 F8000.0
G1 X147.4779 Y-246.4020 F12000.0
G1 Z0.0000 F8000.0
G0 X139.5231 Y-245.2985 F15000.0
G1 Z11.9000 F8000.0
G1 X139.4168 Y-245.0503 F12000.0
G1 X139.6240 Y-245.3909
G1 X140.2230 Y-245.9183
G1 X140.6288 Y-245.0450
G1 X141.1660 Y-245.1005
G1 X141.4762 Y-245.5318
G1 X141.3494 Y-245.2813
G1 X141.5624 Y-245.5800
G1 X141.9661 Y-245.7803
G1 X142.0061 Y-246.4940
G1 Z0.0000 F8000.0
G0 X142.8338 Y-246.4020 F15000.0
G1 Z11.9000 F8000.0
G1 X142.6965 Y-245.9619 F12000.0
G1 X142.7139 Y-245.3697
G1 X142.8996 Y-245.0863
G1 X143.1137 Y-245.0485
G1 X143.7908 Y-245.2037
G1 X143.8902 Y-245.5195
G1 X143.8513 Y-246.2245
G1 X143.6961 Y-246.3577
G1 X142.9257 Y-246.4480
G1 Z0.0000 F8000.0
G0 X144.4431 Y-246.9998 F15000.0
G1 Z11.9000 F8000.0
G1 X144.4862 Y-246.6480 F12000.0
G1 X144.6147 Y-246.4840
G1 X145.7237 Y-246.1270
G1 X145.8422 Y-246.2722
G1 X146.0639 Y-246.9050
G1 X145.7921 Y-246.4702
G1 X144.7190 Y-246.4940
G1 Z0.0000 F8000.0
G0 X142.0061 Y-245.0226 F15000.0
G1 Z11.9000 F8000.0
G1 X141.9809 Y-245.5981 F12000.0
G1 X141.4637 Y-245.9162
G1 X141.5407 Y-245.6974
G1 X141.2223 Y-246.2903
G1 X140.5291 Y-247.1823
G1 X140.2366 Y-247.0618
G1 X140.0420 Y-246.3887
G1 X139.9161 Y-246.2116
G1 X140.0290 Y-246.2448
G1 X140.2128 Y-246.0801
G1 Z0.0000 F8000.0
G0 X138.8333 Y-246.4940 F15000.0
G1 Z11.9000 F8000.0
G1 X138.7916 Y-245.4196 F12000.0
G1 X138.7219 Y-245.2353
G1 X138.4889 Y-245.3691
G1 X138.0053 Y-246.2601
G1 X137.8573 Y-246.1493
G1 X137.6416 Y-245.6128
G1 X137.4697 Y-245.3957
G1 X137.6010 Y-245.4798
G1 X137.3750 Y-245.3199
G1 X137.2240 Y-246.4480
G1 Z0.0000 F8000.0
G0 X128.5317 Y-246.1055 F15000.0
G1 Z11.9000 F8000.0
G1 X128.6305 Y-244.3576 F12000.0
G1 X129.9111 Y-246.1055
G1 Z0.0000 F8000.0
G0 X126.9223 Y-246.0136 F15000.0
G1 Z11.9000 F8000.0
G1 X126.9793 Y-246.0531 F12000.0
G1 X126.9474 Y-245.9835
G1 X127.4684 Y-246.0894
G1 X127.7506 Y-245.9504
G1 X127.7950 Y-245.2568
G1 X127.7348 Y-244.9780
G1 X127.1974 Y-244.8430
G1 X127.0105 Y-244.9152
G1 X126.9284 Y-245.0616
G1 X126.8506 Y-245.8692
G1 X126.2115 Y-246.0906
G1 X125.3781 Y-246.1040
G1 X125.2051 Y-246.0402
G1 X125.2710 Y-244.9059
G1 X126.3295 Y-246.2599
G1 X126.3346 Y-246.4509
G1 X125.1586 Y-246.1361
G1 X125.0724 Y-246.1775
G1 X124.9348 Y-246.4897
G1 X124.4345 Y-246.0297
G1 X123.5746 Y-244.9183
G1 X123.5196 Y-246.1055
G1 Z0.0000 F8000.0
G0 X169.2682 Y-244.6674 F15000.0
G1 Z11.9000 F8000.0
G1 X169.1903 Y-246.2825 F12000.0
G1 X168.1513 Y-245.0499
G1 X167.9780 Y-244.9547
G1 X167.8547 Y-246.4151
G1 X167.0872 Y-246.4249
G1 X166.7791 Y-245.8443
G1 X166.5471 Y-245.7000
G1 X166.5651 Y-245.2904
G1 X166.5165 Y-245.5496
G1 X166.6571 Y-245.2654
G1 X167.1990 Y-245.4031
G1 Z0.0000 F8000.0
G0 X168.2566 Y-245.1272 F15000.0
G1 Z11.9000 F8000.0
G1 X168.4405 Y-245.4031 F12000.0
G1 Z0.0000 F8000.0
G0 X165.8195 Y-245.4951 F15000.0
G1 Z11.9000 F8000.0
G1 X165.8585 Y-246.3800 F12000.0
G1 X165.7643 Y-245.4623
G1 X165.1404 Y-246.3736
G1 X164.7946 Y-245.6707
G1 X164.5934 Y-245.5325
G1 X164.4860 Y-246.4607
G1 Z0.0000 F8000.0
G0 X161.9111 Y-244.6214 F15000.0
G1 Z11.9000 F8000.0
G1 X161.0184 Y-244.6460 F12000.0
G1 X160.9617 Y-244.7104
G1 X160.8472 Y-246.4124
G1 X160.0857 Y-246.1908
G1 X159.6276 Y-245.7130
G1 X159.7008 Y-245.8688
G1 X159.3542 Y-245.4754
G1 X158.6534 Y-245.4795
G1 X157.8452 Y-245.2184
G1 X158.3315 Y-245.3414
G1 X158.5093 Y-245.4656
G1 X158.5526 Y-246.0419
G1 X158.4862 Y-246.2411
G1 X156.7655 Y-246.4217
G1 X156.8062 Y-245.2082
G1 X157.1314 Y-245.1732
G1 X156.2553 Y-245.1732
G1 Z0.0000 F8000.0
G0 X159.1981 Y-246.4607 F15000.0
G1 Z11.9000 F8000.0
G1 X159.2416 Y-245.3151 F12000.0
G1 X159.9578 Y-246.1777
G1 X160.1521 Y-246.1321
G1 X160.2097 Y-245.2192
G1 Z0.0000 F8000.0
G0 X161.9570 Y-244.7134 F15000.0
G1 Z11.9000 F8000.0
G1 X162.0581 Y-246.4597 F12000.0
G1 X162.2329 Y-246.5527
G1 Z0.0000 F8000.0
G0 X117.9186 Y-244.4616 F15000.0
G1 Z11.9000 F8000.0
G1 X117.0259 Y-244.4861 F12000.0
G1 X116.9692 Y-244.5507
G1 X116.8959 Y-246.3225
G1 X116.7132 Y-246.8205
G1 X116.9726 Y-246.4251
G1 X118.1240 Y-246.3833
G1 X118.3633 Y-246.8246
G1 X118.3620 Y-246.5486
G1 X118.1367 Y-246.1987
G1 X117.9646 Y-244.5535
G1 Z0.0000 F8000.0
G0 X115.9414 Y-245.1053 F15000.0
G1 Z11.9000 F8000.0
G1 X115.1547 Y-245.6205 F12000.0
G1 X115.1445 Y-246.1762
G1 X115.4289 Y-246.3393
G1 X116.0001 Y-246.3509
G1 X116.0855 Y-246.2916
G1 X116.0352 Y-245.8827
G1 X116.1175 Y-246.0813
G1 X116.0219 Y-246.3297
G1 X115.7928 Y-245.7651
G1 X115.1477 Y-245.6591
G1 X114.9890 Y-246.3708
G1 X114.0950 Y-246.3526
G1 X114.1340 Y-245.1094
G1 X114.4845 Y-245.0593
G1 X112.8921 Y-245.1175
G1 X112.1404 Y-245.6185
G1 X112.9037 Y-245.8638
G1 X113.0382 Y-246.1709
G1 X112.8976 Y-245.8168
G1 X112.1148 Y-245.6438
G1 X112.0329 Y-245.9080
G1 X112.1044 Y-246.2225
G1 X112.4173 Y-246.3522
G1 X112.9880 Y-246.3197
G1 X112.8408 Y-246.3650
G1 X112.0579 Y-246.2569
G1 X111.9869 Y-246.3928
G1 Z0.0000 F8000.0
G0 X159.9212 Y-249.1738 F15000.0
G1 Z11.9000 F8000.0
G1 X160.8344 Y-249.3512 F12000.0
G1 X160.9492 Y-249.4849
G1 X161.0103 Y-249.8170
G1 X160.9161 Y-250.8704
G1 X160.6364 Y-251.0315
G1 X160.0812 Y-250.8901
G1 X160.0149 Y-250.6872
G1 X160.0380 Y-249.9813
G1 X160.3071 Y-249.8415
G1 X160.9787 Y-249.9555
G1 Z0.0000 F8000.0
G0 X161.7144 Y-250.3233 F15000.0
G1 Z11.9000 F8000.0
G1 X161.7300 Y-251.0081 F12000.0
G1 X162.5567 Y-251.0308
G1 X162.6703 Y-250.8731
G1 X162.6036 Y-250.0624
G1 X161.9982 Y-249.8079
G1 X161.8401 Y-249.9071
G1 X161.7856 Y-250.3084
G1 X162.4502 Y-250.4613
G1 Z0.0000 F8000.0
G0 X164.2894 Y-250.9211 F15000.0
G1 Z11.9000 F8000.0
G1 X163.4230 Y-250.9187 F12000.0
G1 X163.3407 Y-250.7379
G1 X163.4367 Y-249.9440
G1 X163.9963 Y-249.8403
G1 X164.2642 Y-250.0071
G1 X164.3354 Y-251.6568
G1 Z0.0000 F8000.0
G0 X165.5309 Y-251.0591 F15000.0
G1 Z11.9000 F8000.0
G1 X165.2482 Y-250.4424 F12000.0
G1 X165.0166 Y-250.2977
G1 X165.0349 Y-249.8884
G1 X164.9864 Y-250.1484
G1 X165.1277 Y-249.8638
G1 X165.6689 Y-250.0015
G1 Z0.0000 F8000.0
G0 X166.3586 Y-250.3233 F15000.0
G1 Z11.9000 F8000.0
G1 X166.3715 Y-250.7959 F12000.0
G1 X166.5110 Y-251.0079
G1 X166.3897 Y-251.0276
G1 X166.3948 Y-250.9351
G1 X167.2338 Y-251.0150
G1 X167.3198 Y-250.8337
G1 X167.2388 Y-250.0277
G1 X166.6041 Y-249.8052
G1 X166.5182 Y-249.8486
G1 X166.4029 Y-250.2641
G1 X167.0943 Y-250.4613
G1 Z0.0000 F8000.0
G0 X167.9220 Y-249.8635 F15000.0
G1 Z11.9000 F8000.0
G1 X168.1032 Y-249.9823 F12000.0
G1 X169.1315 Y-250.2353
G1 X169.2173 Y-250.4126
G1 X169.2513 Y-250.9599
G1 X169.2019 Y-250.1862
G1 X167.9952 Y-249.5547
G1 X167.9273 Y-249.7843
G1 X167.9680 Y-249.4957
G1 Z0.0000 F8000.0
G0 X151.5070 Y-249.1209 F15000.0
G1 Z11.9000 F8000.0
G1 X151.5782 Y-249.3058 F12000.0
G1 X152.0151 Y-249.5005
G1 X151.5592 Y-249.3697
G1 X151.9189 Y-249.4401
G1 X151.0107 Y-249.4272
G1 X150.7726 Y-249.6308
G1 X150.6753 Y-249.9417
G1 X150.8563 Y-250.5131
G1 X151.5021 Y-250.7273
G1 X151.5097 Y-250.8429
G1 X151.5520 Y-249.3456
G1 Z0.0000 F8000.0
G0 X152.0913 Y-249.5254 F15000.0
G1 Z11.9000 F8000.0
G1 X152.1642 Y-250.3362 F12000.0
G1 X151.9565 Y-250.6040
G1 Z0.0000 F8000.0
G0 X150.0688 Y-250.2445 F15000.0
G1 Z11.9000 F8000.0
G1 X149.1356 Y-249.9343 F12000.0
G1 X149.2405 Y-249.8220
G1 X150.0103 Y-249.9285
G1 X150.0886 Y-250.1257
G1 X150.0290 Y-250.6850
G1 X149.8823 Y-250.8310
G1 X149.4354 Y-250.9052
G1 X149.1090 Y-250.8499
G1 X147.5146 Y-250.8867
G1 X147.5313 Y-249.7295
G1 X148.5714 Y-251.0236
G1 X148.5696 Y-251.2752
G1 X147.4019 Y-250.9676
G1 X147.2514 Y-251.3179
G1 X145.9142 Y-250.8197
G1 X146.5273 Y-250.8883
G1 X146.6965 Y-250.7713
G1 X146.7378 Y-249.9819
G1 X146.6096 Y-249.7688
G1 X146.0601 Y-249.7072
G1 X145.9262 Y-249.8068
G1 X145.8197 Y-250.6780
G1 X144.3051 Y-250.8034
G1 X144.2271 Y-250.5345
G1 X144.2722 Y-249.8591
G1 X144.7979 Y-249.7267
G1 X145.0871 Y-249.8564
G1 X145.1701 Y-251.5029
G1 Z0.0000 F8000.0
G0 X142.7880 Y-250.9186 F15000.0
G1 Z11.9000 F8000.0
G1 X142.6654 Y-250.8033 F12000.0
G1 X143.2300 Y-250.8994
G1 X143.4832 Y-250.7326
G1 X143.4689 Y-249.8540
G1 X142.8806 Y-249.6865
G1 X142.7128 Y-249.7797
G1 X142.5707 Y-250.6771
G1 X141.9291 Y-250.2698
G1 X141.1556 Y-250.3485
G1 X141.0246 Y-250.7596
G1 X141.0802 Y-250.9186
G1 Z0.0000 F8000.0
G0 X141.0802 Y-249.7951 F15000.0
G1 Z11.9000 F8000.0
G1 X141.1509 Y-249.7186 F12000.0
G1 X140.9945 Y-250.7024
G1 X141.0004 Y-250.5963
G1 X141.1575 Y-250.8580
G1 X141.8759 Y-250.3502
G1 X141.8951 Y-250.2653
G1 X141.2151 Y-249.6602
G1 Z0.0000 F8000.0
G0 X138.5199 Y-249.1209 F15000.0
G1 Z11.9000 F8000.0
G1 X139.1930 Y-250.0486 F12000.0
G1 X139.4981 Y-250.0951
G1 X139.5445 Y-250.8191
G1 X138.9693 Y-249.7951
G1 Z0.0000 F8000.0
G0 X139.5536 Y-249.1659 F15000.0
G1 Z11.9000 F8000.0
G1 X139.5100 Y-249.9448 F12000.0
G1 X139.1057 Y-250.0801
G1 X138.2952 Y-251.0534
G1 Z0.0000 F8000.0
G0 X137.0817 Y-249.9299 F15000.0
G1 Z11.9000 F8000.0
G1 X136.0726 Y-249.9277 F12000.0
G1 X136.0031 Y-250.1720
G1 X137.0375 Y-249.9677
G1 X136.1222 Y-249.2144
G1 X135.9873 Y-249.3443
G1 X135.9581 Y-250.1096
G1 Z0.0000 F8000.0
G0 X98.9837 Y-251.8374 F15000.0
G1 Z11.9000 F8000.0
G1 X100.8431 Y-252.2562 F12000.0
G1 X101.0684 Y-252.4475
G1 X101.3180 Y-252.9553
G1 X101.3060 Y-253.6408
G1 X101.2128 Y-253.7174
G1 X99.7604 Y-253.2526
G1 X99.2691 Y-253.5277
G1 X99.0472 Y-253.9250
G1 X98.9913 Y-254.9937
G1 X99.0752 Y-255.3268
G1 X99.3114 Y-255.6668
G1 X100.4433 Y-255.9033
G1 X100.6503 Y-255.8396
G1 X101.0128 Y-255.5337
G1 X101.1138 Y-255.3351
G1 X101.3288 Y-253.7227
G1 Z0.0000 F8000.0
G0 X102.6623 Y-252.8031 F15000.0
G1 Z11.9000 F8000.0
G1 X102.8987 Y-252.4024 F12000.0
G1 X103.1809 Y-252.2164
G1 X104.9602 Y-252.2347
G1 X105.2065 Y-252.4154
G1 X105.0213 Y-252.2536
G1 X105.3322 Y-252.5765
G1 X105.6413 Y-253.1940
G1 X105.6392 Y-254.7430
G1 X105.3328 Y-255.3681
G1 X103.5386 Y-255.9009
G1 X103.0281 Y-255.6240
G1 X102.6112 Y-255.0437
G1 X102.9841 Y-255.6539
G1 Z0.0000 F8000.0
G0 X101.1449 Y-255.3780 F15000.0
G1 Z11.9000 F8000.0
G1 X100.8561 Y-255.7389 F12000.0
G1 X100.5556 Y-255.9121
G1 X99.6068 Y-255.8718
G1 X99.3056 Y-255.6539
G1 Z0.0000 F8000.0
G0 X97.5583 Y-255.6539 F15000.0
G1 Z11.9000 F8000.0
G1 X97.1904 Y-255.8838 F12000.0
G1 Z0.0000 F8000.0
G0 X97.6043 Y-253.5847 F15000.0
G1 Z11.9000 F8000.0
G1 X97.1275 Y-253.2043 F12000.0
G1 X97.5293 Y-253.5313
G1 X97.6094 Y-253.7374
G1 X97.6871 Y-255.2879
G1 X97.6012 Y-255.5758
G1 X97.1405 Y-255.8587
G1 X95.8742 Y-255.6947
G1 X95.6005 Y-255.2675
G1 X95.7483 Y-253.6133
G1 X95.8685 Y-253.4229
G1 X96.1553 Y-253.2295
G1 X97.0525 Y-253.1709
G1 Z0.0000 F8000.0
G0 X94.2476 Y-253.2169 F15000.0
G1 Z11.9000 F8000.0
G1 X94.2016 Y-253.5388 F12000.0
G1 Z0.0000 F8000.0
G0 X92.4083 Y-253.4468 F15000.0
G1 Z11.9000 F8000.0
G1 X92.6181 Y-253.2737 F12000.0
G1 X92.9428 Y-253.1526
G1 X93.9627 Y-253.4521
G1 X94.1295 Y-253.5848
G1 X94.2476 Y-257.1253
G1 Z0.0000 F8000.0
G0 X94.2016 Y-255.6079 F15000.0
G1 Z11.9000 F8000.0
G1 X92.3469 Y-255.5983 F12000.0
G1 X92.2352 Y-255.2137
G1 X92.3164 Y-253.4928
G1 Z0.0000 F8000.0
G0 X90.7070 Y-253.5847 F15000.0
G1 Z11.9000 F8000.0
G1 X90.3646 Y-253.2752 F12000.0
G1 X90.6586 Y-253.5678
G1 X90.7868 Y-255.3346
G1 X90.6856 Y-255.6012
G1 X90.1983 Y-255.8624
G1 X88.9492 Y-255.6802
G1 X88.6979 Y-255.2222
G1 X88.8679 Y-253.5702
G1 X89.0957 Y-253.3193
G1 X89.4141 Y-253.1868
G1 X90.2472 Y-253.2169
G1 Z0.0000 F8000.0
G0 X90.6610 Y-255.6539 F15000.0
G1 Z11.9000 F8000.0
G1 X90.2932 Y-255.8838 F12000.0
G1 Z0.0000 F8000.0
G0 X87.5342 Y-253.2169 F15000.0
G1 Z11.9000 F8000.0
G1 X87.4297 Y-254.2833 F12000.0
G1 X87.1946 Y-254.6192
G1 X86.9926 Y-254.6773
G1 X85.5857 Y-254.6248
G1 X85.5300 Y-254.6852
G1 X85.5110 Y-255.8838
G1 Z0.0000 F8000.0
G0 X85.5110 Y-254.5963 F15000.0
G1 Z11.9000 F8000.0
G1 X85.4779 Y-253.3144 F12000.0
G1 X84.1595 Y-253.3276
G1 X84.1316 Y-255.8838
G1 Z0.0000 F8000.0
G0 X84.1316 Y-254.4584 F15000.0
G1 Z11.9000 F8000.0
G1 X82.1544 Y-254.5044 F12000.0
G1 Z0.0000 F8000.0
G0 X82.1084 Y-253.2629 F15000.0
G1 Z11.9000 F8000.0
G1 X82.1084 Y-255.8838 F12000.0
G1 Z0.0000 F8000.0
G0 X80.7289 Y-254.4124 F15000.0
G1 Z11.9000 F8000.0
G1 X79.2025 Y-254.5607 F12000.0
G1 X78.7678 Y-255.3931
G1 X78.7703 Y-255.5987
G1 X78.9295 Y-255.6883
G1 X80.6836 Y-254.5031
G1 X80.7289 Y-253.2629
G1 Z0.0000 F8000.0
G0 X77.6941 Y-253.2629 F15000.0
G1 Z11.9000 F8000.0
G1 X77.6941 Y-255.8838 F12000.0
G1 Z0.0000 F8000.0
G0 X75.6709 Y-255.1941 F15000.0
G1 Z11.9000 F8000.0
G1 X75.6272 Y-255.1667 F12000.0
G1 X75.7071 Y-255.2590
G1 X74.9124 Y-254.0144
G1 X74.3626 Y-253.5729
G1 X74.2455 Y-253.3089
G1 Z0.0000 F8000.0
G0 X74.4754 Y-251.9294 F15000.0
G1 Z11.9000 F8000.0
G1 X74.8235 Y-252.2837 F12000.0
G1 X75.5288 Y-252.2897
G1 X75.7871 Y-252.1712
G1 X75.6250 Y-252.2973
G1 Z0.0000 F8000.0
G0 X76.3147 Y-253.2629 F15000.0
G1 Z11.9000 F8000.0
G1 X76.2313 Y-255.6734 F12000.0
G1 X75.8367 Y-255.4107
G1 X75.9256 Y-255.4330
G1 X75.6509 Y-255.2241
G1 X74.7879 Y-253.8299
G1 X74.3228 Y-253.5987
G1 X74.2455 Y-255.8838
G1 Z0.0000 F8000.0
G0 X62.8895 Y-253.4468 F15000.0
G1 Z11.9000 F8000.0
G1 X63.0991 Y-253.2737 F12000.0
G1 X63.4239 Y-253.1526
G1 X64.4438 Y-253.4521
G1 X64.6106 Y-253.5848
G1 X64.7287 Y-257.1253
G1 Z0.0000 F8000.0
G0 X64.6827 Y-255.6079 F15000.0
G1 Z11.9000 F8000.0
G1 X62.8279 Y-255.5983 F12000.0
G1 X62.7181 Y-255.3308
G1 X62.7865 Y-253.6636
G1 X62.7109 Y-253.4883
G1 X61.5734 Y-253.1813
G1 X60.7401 Y-253.2102
G1 X60.5699 Y-253.2864
G1 X60.5444 Y-255.8838
G1 Z0.0000 F8000.0
G0 X58.6131 Y-254.4124 F15000.0
G1 Z11.9000 F8000.0
G1 X58.4383 Y-253.7212 F12000.0
G1 X58.2086 Y-253.4140
G1 X58.3682 Y-253.5960
G1 X57.8326 Y-253.2056
G1 X56.5035 Y-253.6323
G1 X56.3708 Y-254.3795
G1 X58.5602 Y-254.4470
G1 X58.3893 Y-255.4520
G1 X58.2034 Y-255.7106
G1 X57.7940 Y-255.9123
G1 X56.8654 Y-255.8254
G1 X56.4617 Y-255.4857
G1 X56.9118 Y-255.9298
G1 Z0.0000 F8000.0
G0 X55.3024 Y-255.9758 F15000.0
G1 Z11.9000 F8000.0
G1 X55.2197 Y-255.8499 F12000.0
G1 X55.4719 Y-256.0661
G1 X54.3241 Y-254.5025
G1 X54.9572 Y-253.3957
G1 X55.1238 Y-253.2638
G1 X55.3484 Y-253.2169
G1 Z0.0000 F8000.0
G0 X54.2908 Y-254.4584 F15000.0
G1 Z11.9000 F8000.0
G1 X53.6931 Y-254.5044 F12000.0
G1 Z0.0000 F8000.0
G0 X53.6471 Y-253.2629 F15000.0
G1 Z11.9000 F8000.0
G1 X53.5978 Y-254.4983 F12000.0
G1 X53.0518 Y-254.5265
G1 X52.8236 Y-254.7034
G1 X52.8825 Y-254.5925
G1 X51.9959 Y-255.9148
G1 X51.6239 Y-256.1597
G1 Z0.0000 F8000.0
G0 X53.6471 Y-255.8838 F15000.0
G1 Z11.9000 F8000.0
G1 X53.0365 Y-254.5865 F12000.0
G1 X52.6654 Y-254.1278
G1 X52.2845 Y-253.3928
G1 X51.9790 Y-253.1951
G1 X52.2676 Y-253.3548
G1 Z0.0000 F8000.0
G0 X59.4868 Y-253.1709 F15000.0
G1 Z11.9000 F8000.0
G1 X60.4984 Y-253.2169 F12000.0
G1 Z0.0000 F8000.0
G0 X64.6827 Y-253.5388 F15000.0
G1 Z11.9000 F8000.0
G1 X64.7287 Y-253.2169 F12000.0
G1 Z0.0000 F8000.0
G0 X66.5220 Y-255.8379 F15000.0
G1 Z11.9000 F8000.0
G1 X66.3690 Y-255.7452 F12000.0
G1 X66.6944 Y-255.8804
G1 X67.4082 Y-255.9211
G1 X67.9264 Y-255.6920
G1 X68.0995 Y-255.4252
G1 X68.2436 Y-254.4393
G1 X66.0599 Y-254.3670
G1 X66.2203 Y-253.6110
G1 X67.5584 Y-253.2157
G1 X67.9475 Y-253.4715
G1 X68.1943 Y-253.8665
G1 X68.3153 Y-254.4124
G1 Z0.0000 F8000.0
G0 X69.5568 Y-254.5963 F15000.0
G1 Z11.9000 F8000.0
G1 X69.5568 Y-253.2629 F12000.0
G1 Z0.0000 F8000.0
G0 X71.5800 Y-253.2169 F15000.0
G1 Z11.9000 F8000.0
G1 X71.4754 Y-254.2833 F12000.0
G1 X71.2404 Y-254.6192
G1 X71.0384 Y-254.6773
G1 X69.6315 Y-254.6248
G1 X69.5758 Y-254.6852
G1 X69.5568 Y-255.8838
G1 Z0.0000 F8000.0
G0 X167.9633 Y-255.7697 F15000.0
G1 Z11.9000 F8000.0
G1 X168.0621 Y-254.0218 F12000.0
G1 X169.3427 Y-255.7697
G1 Z0.0000 F8000.0
G0 X167.2276 Y-255.6318 F15000.0
G1 Z11.9000 F8000.0
G1 X166.3612 Y-255.6294 F12000.0
G1 X166.2789 Y-255.4487
G1 X166.3748 Y-254.6547
G1 X166.9344 Y-254.5509
G1 X167.2024 Y-254.7177
G1 X167.2736 Y-256.3675
G1 Z0.0000 F8000.0
G0 X164.7446 Y-255.7237 F15000.0
G1 Z11.9000 F8000.0
G1 X164.7066 Y-255.6446 F12000.0
G1 X165.1896 Y-255.7537
G1 X165.5010 Y-255.6583
G1 X165.5702 Y-255.4547
G1 X165.5365 Y-254.6734
G1 X164.9171 Y-254.5138
G1 X164.7543 Y-254.6045
G1 X164.6042 Y-255.5202
G1 X163.9422 Y-255.1032
G1 X163.3528 Y-255.1178
G1 X163.1556 Y-255.1967
G1 X163.0432 Y-255.7237
G1 Z0.0000 F8000.0
G0 X163.0892 Y-254.6202 F15000.0
G1 Z11.9000 F8000.0
G1 X163.1615 Y-254.5420 F12000.0
G1 X163.0015 Y-255.5485
G1 X163.0075 Y-255.4399
G1 X163.1683 Y-255.7077
G1 X163.9033 Y-255.1881
G1 X163.9229 Y-255.1013
G1 X163.2272 Y-254.4822
G1 Z0.0000 F8000.0
G0 X152.2712 Y-253.0107 F15000.0
G1 Z11.9000 F8000.0
G1 X152.3353 Y-251.1580 F12000.0
G1 X153.6966 Y-252.9647
G1 Z0.0000 F8000.0
G0 X151.6274 Y-251.6772 F15000.0
G1 Z11.9000 F8000.0
G1 X151.1374 Y-252.7392 F12000.0
G1 X151.0669 Y-252.7575
G1 X150.9231 Y-252.6181
G1 X150.5729 Y-251.7551
G1 X150.0546 Y-251.8235
G1 X149.4839 Y-251.7024
G1 X149.3989 Y-251.7539
G1 X149.3398 Y-252.2892
G1 X149.5640 Y-252.3670
G1 X149.3756 Y-252.4466
G1 X149.2729 Y-252.8798
G1 X149.4135 Y-252.9991
G1 X149.8341 Y-253.0107
G1 Z0.0000 F8000.0
G0 X151.0296 Y-252.7808 F15000.0
G1 Z11.9000 F8000.0
G1 X151.2450 Y-253.4271 F12000.0
G1 X151.4679 Y-253.6063
G1 X151.2864 Y-253.4890
G1 X151.3055 Y-253.6085
G1 Z0.0000 F8000.0
G0 X148.4547 Y-253.0107 F15000.0
G1 Z11.9000 F8000.0
G1 X148.5328 Y-252.9382 F12000.0
G1 X148.2593 Y-252.9801
G1 X147.5857 Y-252.8784
G1 X147.4997 Y-252.2790
G1 X145.9146 Y-252.4045
G1 X145.8388 Y-252.9141
G1 X145.8006 Y-251.7738
G1 X144.4269 Y-251.7081
G1 X144.1778 Y-251.9059
G1 X144.0651 Y-252.2241
G1 X144.1874 Y-252.7966
G1 X144.3692 Y-252.9890
G1 X144.8302 Y-252.9919
G1 X145.1160 Y-252.8182
G1 X145.1957 Y-252.1064
G1 X145.0263 Y-251.8226
G1 X145.1571 Y-252.0243
G1 X145.2175 Y-252.4871
G1 X145.0377 Y-252.8892
G1 X144.8681 Y-253.0107
G1 Z0.0000 F8000.0
G0 X143.4886 Y-252.3210 F15000.0
G1 Z11.9000 F8000.0
G1 X142.6807 Y-252.3793 F12000.0
G1 X142.6014 Y-252.2142
G1 X142.5986 Y-251.7914
G1 X142.5976 Y-252.3242
G1 X142.5191 Y-252.5170
G1 X143.4293 Y-252.3911
G1 X143.4438 Y-252.3240
G1 X142.5975 Y-251.7398
G1 X140.8433 Y-251.8977
G1 X140.7774 Y-252.0974
G1 X140.8148 Y-252.8660
G1 X141.6798 Y-252.9558
G1 X141.8081 Y-252.6946
G1 X141.8262 Y-252.7856
G1 X141.7535 Y-252.5112
G1 X141.8284 Y-252.7184
G1 X141.7209 Y-252.9508
G1 X141.4906 Y-252.3785
G1 X140.8333 Y-252.2649
G1 X140.7757 Y-252.3210
G1 Z0.0000 F8000.0
G0 X146.8913 Y-251.7232 F15000.0
G1 Z11.9000 F8000.0
G1 X146.8913 Y-253.0107 F12000.0
G1 Z0.0000 F8000.0
G0 X148.5006 Y-252.5049 F15000.0
G1 Z11.9000 F8000.0
G1 X148.5866 Y-252.7905 F12000.0
G1 X148.5252 Y-252.5597
G1 X148.3509 Y-252.4110
G1 X147.5784 Y-252.2008
G1 X147.5928 Y-251.9123
G1 X148.4547 Y-251.7692
G1 Z0.0000 F8000.0
G0 X168.6369 Y-259.1495 F15000.0
G1 Z11.9000 F8000.0
G1 X167.2115 Y-259.1495 F12000.0
G1 Z0.0000 F8000.0
G0 X167.9472 Y-259.1495 F15000.0
G1 Z11.9000 F8000.0
G1 X167.9012 Y-260.9887 F12000.0
G1 Z0.0000 F8000.0
G0 X165.8780 Y-260.9887 F15000.0
G1 Z11.9000 F8000.0
G1 X165.8444 Y-260.4109 F12000.0
G1 X165.3674 Y-260.0880
G1 X165.0536 Y-259.7502
G1 X163.9005 Y-259.7287
G1 X163.7307 Y-259.8236
G1 X163.6635 Y-260.8090
G1 X163.7502 Y-260.9406
G1 X163.6835 Y-260.8713
G1 X164.2596 Y-260.9692
G1 X164.5193 Y-260.7995
G1 X164.5429 Y-260.0954
G1 X164.4526 Y-259.7932
G1 Z0.0000 F8000.0
G0 X165.4182 Y-260.2071 F15000.0
G1 Z11.9000 F8000.0
G1 X165.3734 Y-260.5411 F12000.0
G1 X165.8581 Y-260.2170
G1 X165.8593 Y-259.8224
G1 X165.1423 Y-260.9428
G1 Z0.0000 F8000.0
G0 X162.9352 Y-260.9887 F15000.0
G1 Z11.9000 F8000.0
G1 X162.9352 Y-259.8440 F12000.0
G1 X162.8969 Y-260.2627
G1 X162.2201 Y-260.3334
G1 X162.0389 Y-260.2799
G1 X161.9718 Y-259.8386
G1 X161.9347 Y-260.9418
G1 X161.0453 Y-260.9693
G1 X160.9669 Y-260.8144
G1 X161.0284 Y-259.7687
G1 X161.3775 Y-259.7012
G1 X160.1727 Y-259.7036
G1 X159.9948 Y-259.7809
G1 X159.9865 Y-261.4933
G1 X159.9294 Y-260.9320
G1 X159.8654 Y-260.8762
G1 X159.1074 Y-260.8716
G1 X159.0276 Y-260.5985
G1 X159.0724 Y-259.9068
G1 X159.6088 Y-259.7692
G1 X159.9464 Y-259.8852
G1 Z0.0000 F8000.0
G0 X42.4821 Y-260.4799 F15000.0
G1 Z11.9000 F8000.0
G1 X42.5439 Y-258.2644 F12000.0
G1 X44.1374 Y-260.5719
G1 Z0.0000 F8000.0
G0 X41.5624 Y-260.2960 F15000.0
G1 Z11.9000 F8000.0
G1 X41.2716 Y-260.1229 F12000.0
G1 X40.4054 Y-259.0392
G1 X40.2258 Y-258.9913
G1 X39.6377 Y-259.0752
G1 X39.4716 Y-259.1703
G1 X39.4238 Y-260.3295
G1 X39.3625 Y-260.3947
G1 X38.3897 Y-260.2500
G1 Z0.0000 F8000.0
G0 X38.4357 Y-259.1005 F15000.0
G1 Z11.9000 F8000.0
G1 X39.4013 Y-259.0085 F12000.0
G1 Z0.0000 F8000.0
G0 X37.8839 Y-258.8705 F15000.0
G1 Z11.9000 F8000.0
G1 X37.3125 Y-258.9363 F12000.0
G1 X37.2583 Y-259.0053
G1 X37.2401 Y-260.4799
G1 Z0.0000 F8000.0
G0 X37.2401 Y-258.9165 F15000.0
G1 Z11.9000 F8000.0
G1 X36.6424 Y-258.8705 F12000.0
G1 Z0.0000 F8000.0
G0 X40.3669 Y-260.4799 F15000.0
G1 Z11.9000 F8000.0
G1 X40.5013 Y-259.2572 F12000.0
G1 X40.8444 Y-259.5045
G1 X41.1893 Y-260.0727
G1 X41.5199 Y-260.2356
G1 X41.6084 Y-258.9165
G1 Z0.0000 F8000.0
G0 X24.6878 Y-260.4771 F15000.0
G1 Z11.9000 F8000.0
G1 X24.5938 Y-260.2741 F12000.0
G1 X24.4061 Y-258.3021
G1 X23.3834 Y-258.2937
G1 X23.3259 Y-258.3570
G1 X23.2435 Y-260.3445
G1 X23.1844 Y-260.3935
G1 X22.3367 Y-260.3059
G1 X21.9593 Y-259.9325
G1 X21.6124 Y-259.4106
G1 X21.7910 Y-259.6955
G1 Z0.0000 F8000.0
G0 X22.3887 Y-258.9597 F15000.0
G1 Z11.9000 F8000.0
G1 X22.3234 Y-260.1171 F12000.0
G1 X21.9504 Y-259.9732
G1 X21.6504 Y-259.4750
G1 X21.4262 Y-259.2806
G1 X21.3046 Y-259.2683
G1 X21.1932 Y-260.4312
G1 Z0.0000 F8000.0
G0 X19.3080 Y-260.2013 F15000.0
G1 Z11.9000 F8000.0
G1 X20.3471 Y-260.2453 F12000.0
G1 X20.4100 Y-260.0502
G1 X20.3788 Y-259.2327
G1 X20.2057 Y-259.1393
G1 X19.3732 Y-259.0895
G1 X18.8017 Y-258.9291
G1 X18.2449 Y-258.9940
G1 X18.2044 Y-260.4312
G1 Z0.0000 F8000.0
G0 X18.2044 Y-258.9597 F15000.0
G1 Z11.9000 F8000.0
G1 X17.6066 Y-258.9138 F12000.0
G1 Z0.0000 F8000.0
G0 X15.8593 Y-259.1897 F15000.0
G1 Z11.9000 F8000.0
G1 X16.1342 Y-259.0276 F12000.0
G1 X16.9358 Y-259.1721
G1 X17.0069 Y-259.3694
G1 X16.9845 Y-260.1934
G1 X16.9223 Y-260.2718
G1 X16.2331 Y-260.4012
G1 X15.9144 Y-260.3153
G1 X15.9831 Y-260.3895
G1 X15.8643 Y-260.1642
G1 X15.7944 Y-259.3649
G1 X15.0840 Y-259.5741
G1 X14.2552 Y-259.6450
G1 X14.0006 Y-259.7563
G1 X14.0568 Y-259.0908
G1 X13.9478 Y-260.1733
G1 X14.0035 Y-260.3741
G1 X14.3143 Y-260.4661
G1 X14.9926 Y-260.3952
G1 X14.9962 Y-259.6134
G1 X14.1580 Y-258.9597
G1 Z0.0000 F8000.0
G0 X33.0810 Y-265.5991 F15000.0
G1 Z11.9000 F8000.0
G1 X31.5500 Y-265.6655 F12000.0
G1 X31.4919 Y-265.7286
G1 X31.4716 Y-269.7834
G1 Z0.0000 F8000.0
G0 X34.3685 Y-269.7834 F15000.0
G1 Z11.9000 F8000.0
G1 X36.7471 Y-269.6170 F12000.0
G1 X37.0578 Y-269.7917
G1 X37.5412 Y-269.9214
G1 Z0.0000 F8000.0
G0 X31.4716 Y-265.6450 F15000.0
G1 Z11.9000 F8000.0
G1 X29.8623 Y-265.5991 F12000.0
G1 Z0.0000 F8000.0
G0 X28.8966 Y-268.4040 F15000.0
G1 Z11.9000 F8000.0
G1 X27.7471 Y-268.4040 F12000.0
G1 Z0.0000 F8000.0
G0 X25.8159 Y-269.9214 F15000.0
G1 Z11.9000 F8000.0
G1 X26.4219 Y-269.4545 F12000.0
G1 Z0.0000 F8000.0
G0 X25.8000 Y-269.8894 F15000.0
G1 Z11.9000 F8000.0
G1 X24.4480 Y-269.5190 F12000.0
G1 X24.2154 Y-269.0031
G1 X24.2564 Y-267.9307
G1 X24.3342 Y-267.7197
G1 X24.6523 Y-267.4086
G1 X24.8648 Y-267.3202
G1 X26.3707 Y-267.4100
G1 X24.2985 Y-265.6450
G1 Z0.0000 F8000.0
G0 X22.6431 Y-266.8406 F15000.0
G1 Z11.9000 F8000.0
G1 X22.0798 Y-266.4170 F12000.0
G1 X21.4364 Y-266.1208
G1 X21.2378 Y-265.6731
G1 X21.3527 Y-266.2975
G1 X21.3096 Y-269.7834
G1 Z0.0000 F8000.0
G0 X19.0565 Y-269.2316 F15000.0
G1 Z11.9000 F8000.0
G1 X18.7417 Y-269.7099 F12000.0
G1 X17.5639 Y-269.8135
G1 X17.1888 Y-269.6324
G1 X17.3179 Y-269.7418
G1 X16.9802 Y-269.3270
G1 X16.7574 Y-268.7718
G1 Z0.0000 F8000.0
G0 X16.7115 Y-267.6682 F15000.0
G1 Z11.9000 F8000.0
G1 X17.0680 Y-267.9136 F12000.0
G1 X16.7740 Y-268.3828
G1 X16.7433 Y-268.6727
G1 X16.6574 Y-267.7300
G1 X15.5581 Y-268.3637
G1 X14.3664 Y-268.4040
G1 Z0.0000 F8000.0
G0 X13.2628 Y-266.3808 F15000.0
G1 Z11.9000 F8000.0
G1 X12.7271 Y-265.7712 F12000.0
G1 X11.5468 Y-265.7030
G1 X11.3430 Y-265.7916
G1 X11.1316 Y-266.0648
G1 X11.1740 Y-266.8887
G1 X11.2663 Y-267.1980
G1 X11.5544 Y-267.4944
G1 X11.9680 Y-267.5673
G1 X11.5391 Y-267.5745
G1 X10.9285 Y-268.1188
G1 X10.8859 Y-268.3392
G1 X10.9816 Y-269.4027
G1 X11.1391 Y-269.5418
G1 X12.3962 Y-269.8878
G1 X12.8982 Y-269.6069
G1 X13.1789 Y-269.1695
G1 X13.0004 Y-269.4902
G1 X12.4351 Y-269.9214
G1 Z0.0000 F8000.0
G0 X18.3668 Y-268.2200 F15000.0
G1 Z11.9000 F8000.0
G1 X18.8667 Y-267.8606 F12000.0
G1 Z0.0000 F8000.0
G0 X18.3356 Y-268.1954 F15000.0
G1 Z11.9000 F8000.0
G1 X17.4044 Y-268.0793 F12000.0
G1 X16.7799 Y-267.6836
G1 X16.7320 Y-267.4823
G1 X16.8617 Y-266.2974
G1 X17.2080 Y-265.8258
G1 X17.4801 Y-265.6606
G1 X18.3060 Y-265.6154
G1 X18.5777 Y-265.7294
G1 X18.4453 Y-265.6383
G1 X18.8215 Y-265.9471
G1 X18.9167 Y-266.2119
G1 X18.9186 Y-267.8062
G1 Z0.0000 F8000.0
G0 X21.9994 Y-266.3348 F15000.0
G1 Z11.9000 F8000.0
G1 X22.3437 Y-266.5762 F12000.0
G1 X22.1833 Y-266.5187
G1 Z0.0000 F8000.0
G0 X168.7385 Y-267.4894 F15000.0
G1 Z11.9000 F8000.0
G1 X168.7385 Y-269.2062 F12000.0
G1 X168.7157 Y-268.3498
G1 X168.6540 Y-268.2942
G1 X167.4958 Y-268.2965
G1 X167.3987 Y-268.1495
G1 X167.3604 Y-267.5893
G1 X167.3591 Y-269.2827
G1 Z0.0000 F8000.0
G0 X165.8417 Y-269.2827 F15000.0
G1 Z11.9000 F8000.0
G1 X165.8081 Y-268.7049 F12000.0
G1 X165.3311 Y-268.3820
G1 X165.0173 Y-268.0440
G1 X163.8642 Y-268.0225
G1 X163.6944 Y-268.1174
G1 X163.6272 Y-269.1030
G1 X163.7139 Y-269.2345
G1 X163.6472 Y-269.1652
G1 X164.2233 Y-269.2631
G1 X164.4830 Y-269.0934
G1 X164.5066 Y-268.3893
G1 X164.4162 Y-268.0871
G1 Z0.0000 F8000.0
G0 X165.3819 Y-268.5010 F15000.0
G1 Z11.9000 F8000.0
G1 X165.4164 Y-268.7416 F12000.0
G1 X165.7732 Y-268.5765
G1 X165.8209 Y-268.1133
G1 X165.1060 Y-269.2367
G1 Z0.0000 F8000.0
G0 X162.8988 Y-269.2827 F15000.0
G1 Z11.9000 F8000.0
G1 X162.8988 Y-268.1379 F12000.0
G1 X162.8607 Y-268.5566
G1 X162.1837 Y-268.6272
G1 X162.0026 Y-268.5738
G1 X161.9354 Y-268.1325
G1 X161.8984 Y-269.2357
G1 X161.0091 Y-269.2633
G1 X160.9305 Y-269.1083
G1 X160.9922 Y-268.0626
G1 X161.3412 Y-267.9952
G1 X160.1364 Y-267.9976
G1 X159.9585 Y-268.0748
G1 X159.9502 Y-269.7872
G1 X159.8931 Y-269.2259
G1 X159.8291 Y-269.1701
G1 X159.0696 Y-269.1658
G1 X158.9556 Y-268.9026
G1 X159.0287 Y-268.2094
G1 X159.5608 Y-268.0630
G1 X159.9100 Y-268.1791
G1 Z0.0000 F8000.0
G0 X167.6805 Y-269.6672 F15000.0
G1 Z11.9000 F8000.0
G1 X168.2362 Y-270.7133 F12000.0
G1 X168.9928 Y-271.5707
G1 X168.4871 Y-271.0000
G1 X169.1899 Y-269.8145
G1 X168.3789 Y-270.5869
G1 X168.2404 Y-270.8433
G1 X167.3492 Y-270.3239
G1 X166.3930 Y-270.3109
G1 Z0.0000 F8000.0
G0 X166.9448 Y-270.3109 F15000.0
G1 Z11.9000 F8000.0
G1 X166.8524 Y-271.5352 F12000.0
G1 X165.8824 Y-270.9332
G1 X165.1788 Y-270.9631
G1 X164.9690 Y-271.0757
G1 X165.0937 Y-270.3877
G1 X165.1662 Y-270.3609
G1 X165.8471 Y-270.9388
G1 X165.7438 Y-271.1015
G1 X165.0136 Y-271.5984
G1 Z0.0000 F8000.0

G0 Z0.0000 F800.0
G4 P0.06
G0 X0.0000 Y0.0000 F15000.0
M5
G4 P0.10
$1=0
