$X
$1=255
G21
G90
G92 Z4.0000
G0 Z0.0000 F800.0
G4 P0.06
G92 Z0.0000
G0 Z0.0000 F800.0
G0 X0.0000 Y0.0000 F15000.0
G21
G90
G17
G91.1
G0 Z0.0000
G0 X41.1196 Y-79.9542 F15000.0
G1 Z11.9000 F8000.0
G1 X40.3672 Y-81.1246 F12000.0
G1 Z0.0000 F8000.0
G0 X41.0779 Y-76.9444 F15000.0
G1 Z11.9000 F8000.0
G1 X40.9524 Y-78.4911 F12000.0
G1 X39.1968 Y-79.1181
G1 X38.5698 Y-77.8223
G1 X37.3156 Y-78.3239
G1 X37.1485 Y-78.4911
G1 Z0.0000 F8000.0
G0 X40.9524 Y-82.1697 F15000.0
G1 Z11.9000 F8000.0
G1 X40.7434 Y-82.2950 F12000.0
G1 X40.6598 Y-82.6713
G1 Z0.0000 F8000.0
G0 X40.7017 Y-82.2950 F15000.0
G1 Z11.9000 F8000.0
G1 X36.8977 Y-83.6745 F12000.0
G1 Z0.0000 F8000.0
G0 X40.2836 Y-83.2565 F15000.0
G1 Z11.9000 F8000.0
G1 X39.9910 Y-83.5909 F12000.0
G1 Z0.0000 F8000.0
G0 X39.8656 Y-81.5426 F15000.0
G1 Z11.9000 F8000.0
G1 X39.1968 Y-81.8771 F12000.0
G1 X39.0713 Y-80.5812
G1 Z0.0000 F8000.0
G0 X39.1549 Y-81.9188 F15000.0
G1 Z11.9000 F8000.0
G1 X38.4443 Y-82.2533 F12000.0
G1 X37.1903 Y-82.5877
G1 X37.0649 Y-82.5041
G1 Z0.0000 F8000.0
G0 X38.8624 Y-80.3304 F15000.0
G1 Z11.9000 F8000.0
G1 X38.4443 Y-80.2886 F12000.0
G1 X37.3993 Y-80.7065
G1 X36.9395 Y-81.2082
G1 X36.8141 Y-81.6680
G1 X36.9813 Y-82.4205
G1 Z0.0000 F8000.0
G0 X36.9813 Y-78.7419 F15000.0
G1 Z11.9000 F8000.0
G1 X36.8141 Y-79.5361 F12000.0
G1 X36.8558 Y-79.9123
G1 Z0.0000 F8000.0
G0 X81.9951 Y-166.4652 F15000.0
G1 Z11.9000 F8000.0
G1 X80.6156 Y-162.6193 F12000.0
G1 X80.3649 Y-162.2849
G1 Z0.0000 F8000.0
G0 X81.8279 Y-163.2882 F15000.0
G1 Z11.9000 F8000.0
G1 X81.6607 Y-163.1210 F12000.0
G1 Z0.0000 F8000.0
G0 X80.9500 Y-162.6612 F15000.0
G1 Z11.9000 F8000.0
G1 X80.6574 Y-162.5776 F12000.0
G1 Z0.0000 F8000.0
G0 X78.1494 Y-162.2849 F15000.0
G1 Z11.9000 F8000.0
G1 X79.2362 Y-162.3685 F12000.0
G1 X79.7378 Y-162.8284
G1 X80.7828 Y-165.4619
G1 X80.7828 Y-166.2561
G1 Z0.0000 F8000.0
G0 X80.6992 Y-166.3397 F15000.0
G1 Z11.9000 F8000.0
G1 X79.9468 Y-166.5069 F12000.0
G1 X79.2779 Y-166.2561
G1 Z0.0000 F8000.0
G0 X79.0690 Y-166.0471 F15000.0
G1 Z11.9000 F8000.0
G1 X78.7345 Y-165.3365 F12000.0
G1 Z0.0000 F8000.0
G0 X78.6092 Y-165.0021 F15000.0
G1 Z11.9000 F8000.0
G1 X77.8567 Y-162.6193 F12000.0
G1 Z0.0000 F8000.0
G0 X77.7731 Y-165.2110 F15000.0
G1 Z11.9000 F8000.0
G1 X76.7699 Y-165.5037 F12000.0
G1 X76.0592 Y-165.5037
G1 Z0.0000 F8000.0
G0 X77.6895 Y-165.0439 F15000.0
G1 Z11.9000 F8000.0
G1 X76.6445 Y-163.2046 F12000.0
G1 Z0.0000 F8000.0
G0 X76.9371 Y-166.2561 F15000.0
G1 Z11.9000 F8000.0
G1 X76.7281 Y-165.5455 F12000.0
G1 X76.3101 Y-164.6676
G1 Z0.0000 F8000.0
G0 X76.5190 Y-162.9538 F15000.0
G1 Z11.9000 F8000.0
G1 X76.4354 Y-162.8284 F12000.0
G1 Z0.0000 F8000.0
G0 X123.0836 Y-98.0766 F15000.0
G1 Z11.9000 F8000.0
G1 X122.1222 Y-98.6201 F12000.0
G1 Z0.0000 F8000.0
G0 X121.9132 Y-99.9995 F15000.0
G1 Z11.9000 F8000.0
G1 X122.4985 Y-99.8323 F12000.0
G1 X122.8747 Y-100.0413
G1 X123.0836 Y-100.4593
G1 X123.0000 Y-100.9610
G1 Z0.0000 F8000.0
G0 X123.0000 Y-94.9833 F15000.0
G1 Z11.9000 F8000.0
G1 X122.9583 Y-96.0702 F12000.0
G1 Z0.0000 F8000.0
G0 X122.8747 Y-94.8162 F15000.0
G1 Z11.9000 F8000.0
G1 X122.7493 Y-94.7326 F12000.0
G1 X122.0804 Y-94.8579
G1 Z0.0000 F8000.0
G0 X122.8328 Y-101.2954 F15000.0
G1 Z11.9000 F8000.0
G1 X122.2894 Y-101.8388 F12000.0
G1 Z0.0000 F8000.0
G0 X121.5788 Y-95.0669 F15000.0
G1 Z11.9000 F8000.0
G1 X121.1608 Y-95.5268 F12000.0
G1 X120.9936 Y-96.1120
G1 Z0.0000 F8000.0
G0 X121.2862 Y-99.0799 F15000.0
G1 Z11.9000 F8000.0
G1 X119.9067 Y-99.7906 F12000.0
G1 X119.7813 Y-98.7036
G1 X119.3215 Y-98.7872
G1 X118.9453 Y-98.9545
G1 Z0.0000 F8000.0
G0 X120.9518 Y-95.4432 F15000.0
G1 Z11.9000 F8000.0
G1 X120.4084 Y-95.2760 F12000.0
G1 X119.2797 Y-95.7775
G1 Z0.0000 F8000.0
G0 X120.7845 Y-98.2021 F15000.0
G1 Z11.9000 F8000.0
G1 X120.4920 Y-98.3274 F12000.0
G1 Z0.0000 F8000.0
G0 X120.5338 Y-101.3790 F15000.0
G1 Z11.9000 F8000.0
G1 X120.3666 Y-101.5462 F12000.0
G1 Z0.0000 F8000.0
G0 X120.1994 Y-98.4529 F15000.0
G1 Z11.9000 F8000.0
G1 X119.8649 Y-98.5365 F12000.0
G1 X119.7813 Y-98.2438
G1 X119.8649 Y-97.9513
G1 Z0.0000 F8000.0
G0 X119.1126 Y-95.9866 F15000.0
G1 Z11.9000 F8000.0
G1 X118.6945 Y-97.6168 F12000.0
G1 Z0.0000 F8000.0
G0 X119.1126 Y-102.7584 F15000.0
G1 Z11.9000 F8000.0
G1 X118.9035 Y-102.8420 F12000.0
G1 X118.8199 Y-101.2536
G1 Z0.0000 F8000.0
G0 X33.7121 Y-132.1440 F15000.0
G1 Z11.9000 F8000.0
G1 X33.6704 Y-131.9350 F12000.0
G1 Z0.0000 F8000.0
G0 X33.5868 Y-131.6842 F15000.0
G1 Z11.9000 F8000.0
G1 X33.5449 Y-131.4752 F12000.0
G1 Z0.0000 F8000.0
G0 X33.4614 Y-131.2244 F15000.0
G1 Z11.9000 F8000.0
G1 X33.3778 Y-130.8482 F12000.0
G1 Z0.0000 F8000.0
G0 X33.2942 Y-130.5974 F15000.0
G1 Z11.9000 F8000.0
G1 X33.2523 Y-130.3884 F12000.0
G1 Z0.0000 F8000.0
G0 X33.1687 Y-130.1376 F15000.0
G1 Z11.9000 F8000.0
G1 X33.1270 Y-129.9285 F12000.0
G1 Z0.0000 F8000.0
G0 X31.0787 Y-124.9541 F15000.0
G1 Z11.9000 F8000.0
G1 X29.9918 Y-129.5942 F12000.0
G1 X32.9597 Y-129.5523
G1 X32.3745 Y-127.1278
G1 Z0.0000 F8000.0
G0 X32.2909 Y-126.8770 F15000.0
G1 Z11.9000 F8000.0
G1 X31.8311 Y-125.1213 F12000.0
G1 Z0.0000 F8000.0
G0 X31.7475 Y-124.8705 F15000.0
G1 Z11.9000 F8000.0
G1 X31.7057 Y-124.7033 F12000.0
G1 Z0.0000 F8000.0
G0 X31.4549 Y-123.8255 F15000.0
G1 Z11.9000 F8000.0
G1 X31.4549 Y-124.4943 F12000.0
G1 X31.1623 Y-124.7033
G1 Z0.0000 F8000.0
G0 X29.9500 Y-129.5942 F15000.0
G1 Z11.9000 F8000.0
G1 X29.6992 Y-130.1793 F12000.0
G1 Z0.0000 F8000.0
G0 X29.6156 Y-130.4301 F15000.0
G1 Z11.9000 F8000.0
G1 X29.5320 Y-130.8063 F12000.0
G1 Z0.0000 F8000.0
G0 X29.4066 Y-131.2244 F15000.0
G1 Z11.9000 F8000.0
G1 X29.3648 Y-131.4334 F12000.0
G1 Z0.0000 F8000.0
G0 X29.2394 Y-131.8514 F15000.0
G1 Z11.9000 F8000.0
G1 X29.1140 Y-132.1858 F12000.0
G1 Z0.0000 F8000.0
G0 X22.7628 Y-132.1440 F15000.0
G1 Z11.9000 F8000.0
G1 X22.7209 Y-131.9350 F12000.0
G1 Z0.0000 F8000.0
G0 X22.6373 Y-131.6842 F15000.0
G1 Z11.9000 F8000.0
G1 X22.5956 Y-131.4752 F12000.0
G1 Z0.0000 F8000.0
G0 X22.5120 Y-131.2244 F15000.0
G1 Z11.9000 F8000.0
G1 X22.4284 Y-130.8482 F12000.0
G1 Z0.0000 F8000.0
G0 X22.3447 Y-130.5974 F15000.0
G1 Z11.9000 F8000.0
G1 X22.3029 Y-130.3884 F12000.0
G1 Z0.0000 F8000.0
G0 X22.2193 Y-130.1376 F15000.0
G1 Z11.9000 F8000.0
G1 X22.1775 Y-129.9285 F12000.0
G1 Z0.0000 F8000.0
G0 X20.1293 Y-124.9541 F15000.0
G1 Z11.9000 F8000.0
G1 X19.0424 Y-129.5942 F12000.0
G1 X22.0103 Y-129.5523
G1 X21.4251 Y-127.1278
G1 Z0.0000 F8000.0
G0 X21.3415 Y-126.8770 F15000.0
G1 Z11.9000 F8000.0
G1 X20.8816 Y-125.1213 F12000.0
G1 Z0.0000 F8000.0
G0 X20.7980 Y-124.8705 F15000.0
G1 Z11.9000 F8000.0
G1 X20.7563 Y-124.7033 F12000.0
G1 Z0.0000 F8000.0
G0 X20.5054 Y-123.8255 F15000.0
G1 Z11.9000 F8000.0
G1 X20.5054 Y-124.4943 F12000.0
G1 X20.2129 Y-124.7033
G1 Z0.0000 F8000.0
G0 X19.0006 Y-129.5942 F15000.0
G1 Z11.9000 F8000.0
G1 X18.7498 Y-130.1793 F12000.0
G1 Z0.0000 F8000.0
G0 X18.6661 Y-130.4301 F15000.0
G1 Z11.9000 F8000.0
G1 X18.5825 Y-130.8063 F12000.0
G1 Z0.0000 F8000.0
G0 X18.4572 Y-131.2244 F15000.0
G1 Z11.9000 F8000.0
G1 X18.4154 Y-131.4334 F12000.0
G1 Z0.0000 F8000.0
G0 X18.2900 Y-131.8514 F15000.0
G1 Z11.9000 F8000.0
G1 X18.1646 Y-132.1858 F12000.0
G1 Z0.0000 F8000.0
G0 X180.0000 Y-97.0291 F15000.0
G1 Z11.9000 F8000.0
G1 X177.3707 Y-97.0291 F12000.0
G1 Z0.0000 F8000.0
G0 X175.9692 Y-97.0291 F15000.0
G1 Z11.9000 F8000.0
G1 X174.5677 Y-97.0291 F12000.0
G1 Z0.0000 F8000.0
G0 X173.1662 Y-97.0291 F15000.0
G1 Z11.9000 F8000.0
G1 X154.9464 Y-97.0291 F12000.0
G1 Z0.0000 F8000.0
G0 X180.0000 Y-103.5875 F15000.0
G1 Z11.9000 F8000.0
G1 X178.5387 Y-105.0489 F12000.0
G1 Z0.0000 F8000.0
G0 X180.0000 Y-100.9629 F15000.0
G1 Z11.9000 F8000.0
G1 X175.9692 Y-105.0489 F12000.0
G1 Z0.0000 F8000.0
G0 X179.0837 Y-99.2871 F15000.0
G1 Z11.9000 F8000.0
G1 X173.3219 Y-105.0489 F12000.0
G1 Z0.0000 F8000.0
G0 X176.5143 Y-99.2871 F15000.0
G1 Z11.9000 F8000.0
G1 X170.7525 Y-105.0489 F12000.0
G1 Z0.0000 F8000.0
G0 X170.1296 Y-105.6718 F15000.0
G1 Z11.9000 F8000.0
G1 X168.1830 Y-107.5405 F12000.0
G1 Z0.0000 F8000.0
G0 X173.8669 Y-99.2871 F15000.0
G1 Z11.9000 F8000.0
G1 X165.6135 Y-107.5405 F12000.0
G1 Z0.0000 F8000.0
G0 X180.0000 Y-93.1541 F15000.0
G1 Z11.9000 F8000.0
G1 X178.4608 Y-94.6932 F12000.0
G1 Z0.0000 F8000.0
G0 X180.0000 Y-90.5846 F15000.0
G1 Z11.9000 F8000.0
G1 X175.8914 Y-94.6932 F12000.0
G1 Z0.0000 F8000.0
G0 X171.2975 Y-99.2871 F15000.0
G1 Z11.9000 F8000.0
G1 X165.5356 Y-105.0489 F12000.0
G1 Z0.0000 F8000.0
G0 X168.6502 Y-99.2871 F15000.0
G1 Z11.9000 F8000.0
G1 X165.5356 Y-102.4794 F12000.0
G1 Z0.0000 F8000.0
G0 X179.0058 Y-88.9314 F15000.0
G1 Z11.9000 F8000.0
G1 X173.2440 Y-94.6932 F12000.0
G1 Z0.0000 F8000.0
G0 X176.4364 Y-88.9314 F15000.0
G1 Z11.9000 F8000.0
G1 X170.6746 Y-94.6932 F12000.0
G1 Z0.0000 F8000.0
G0 X166.0807 Y-99.2871 F15000.0
G1 Z11.9000 F8000.0
G1 X165.5356 Y-99.8321 F12000.0
G1 Z0.0000 F8000.0
G0 X173.7891 Y-88.9314 F15000.0
G1 Z11.9000 F8000.0
G1 X168.1051 Y-94.6932 F12000.0
G1 Z0.0000 F8000.0
G0 X171.2196 Y-88.9314 F15000.0
G1 Z11.9000 F8000.0
G1 X165.5356 Y-94.6932 F12000.0
G1 Z0.0000 F8000.0
G0 X170.1296 Y-87.4520 F15000.0
G1 Z11.9000 F8000.0
G1 X165.5356 Y-92.0458 F12000.0
G1 Z0.0000 F8000.0
G0 X168.5723 Y-86.4397 F15000.0
G1 Z11.9000 F8000.0
G1 X165.5356 Y-89.4764 F12000.0
G1 Z0.0000 F8000.0
G0 X165.9250 Y-86.4397 F15000.0
G1 Z11.9000 F8000.0
G1 X165.5356 Y-86.8291 F12000.0
G1 Z0.0000 F8000.0
G0 X158.8395 Y-115.0153 F15000.0
G1 Z11.9000 F8000.0
G1 X156.7372 Y-112.9908 F12000.0
G1 Z0.0000 F8000.0
G0 X161.4089 Y-115.0153 F15000.0
G1 Z11.9000 F8000.0
G1 X156.9708 Y-110.5772 F12000.0
G1 Z0.0000 F8000.0
G0 X164.0563 Y-115.0153 F15000.0
G1 Z11.9000 F8000.0
G1 X158.6059 Y-109.6428 F12000.0
G1 Z0.0000 F8000.0
G0 X166.6258 Y-115.0153 F15000.0
G1 Z11.9000 F8000.0
G1 X161.2533 Y-109.6428 F12000.0
G1 Z0.0000 F8000.0
G0 X169.2730 Y-115.0153 F15000.0
G1 Z11.9000 F8000.0
G1 X163.8227 Y-109.6428 F12000.0
G1 Z0.0000 F8000.0
G0 X171.8425 Y-115.0153 F15000.0
G1 Z11.9000 F8000.0
G1 X167.4822 Y-110.6550 F12000.0
G1 Z0.0000 F8000.0
G0 X173.0883 Y-113.6916 F15000.0
G1 Z11.9000 F8000.0
G1 X169.8960 Y-110.4993 F12000.0
G1 Z0.0000 F8000.0
G0 X174.0227 Y-112.0565 F15000.0
G1 Z11.9000 F8000.0
G1 X170.1296 Y-108.0855 F12000.0
G1 Z0.0000 F8000.0
G0 X174.2563 Y-109.6428 F15000.0
G1 Z11.9000 F8000.0
G1 X171.2196 Y-106.6840 F12000.0
G1 Z0.0000 F8000.0
G0 X174.2563 Y-107.0734 F15000.0
G1 Z11.9000 F8000.0
G1 X173.8669 Y-106.6840 F12000.0
G1 Z0.0000 F8000.0
G0 X159.3845 Y-84.3374 F15000.0
G1 Z11.9000 F8000.0
G1 X156.7372 Y-81.7680 F12000.0
G1 Z0.0000 F8000.0
G0 X161.9540 Y-84.3374 F15000.0
G1 Z11.9000 F8000.0
G1 X156.7372 Y-79.1985 F12000.0
G1 Z0.0000 F8000.0
G0 X164.5235 Y-84.3374 F15000.0
G1 Z11.9000 F8000.0
G1 X159.1510 Y-78.9649 F12000.0
G1 Z0.0000 F8000.0
G0 X166.7036 Y-83.9482 F15000.0
G1 Z11.9000 F8000.0
G1 X161.7204 Y-78.9649 F12000.0
G1 Z0.0000 F8000.0
G0 X172.7769 Y-87.3741 F15000.0
G1 Z11.9000 F8000.0
G1 X170.1296 Y-84.7268 F12000.0
G1 Z0.0000 F8000.0
G0 X168.7281 Y-83.3253 F15000.0
G1 Z11.9000 F8000.0
G1 X164.3677 Y-78.9649 F12000.0
G1 Z0.0000 F8000.0
G0 X174.2563 Y-86.2062 F15000.0
G1 Z11.9000 F8000.0
G1 X166.9372 Y-78.9649 F12000.0
G1 Z0.0000 F8000.0
G0 X174.2563 Y-83.6367 F15000.0
G1 Z11.9000 F8000.0
G1 X169.5845 Y-78.9649 F12000.0
G1 Z0.0000 F8000.0
G0 X172.5433 Y-79.3543 F15000.0
G1 Z11.9000 F8000.0
G1 X172.1540 Y-78.9649 F12000.0
G1 Z0.0000 F8000.0
G0 X165.5356 Y-94.6932 F15000.0
G1 Z11.9000 F8000.0
G1 X165.5356 Y-99.2871 F12000.0
G1 X180.0000 Y-99.2871 F12000.0
G1 Z0.0000 F8000.0
G0 X170.1296 Y-107.5405 F15000.0
G1 Z11.9000 F8000.0
G1 X170.1296 Y-105.0489 F12000.0
G1 Z0.0000 F8000.0
G0 X165.5356 Y-107.5405 F15000.0
G1 Z11.9000 F8000.0
G1 X170.1296 Y-107.5405 F12000.0
G1 Z0.0000 F8000.0
G0 X165.5356 Y-94.6932 F15000.0
G1 Z11.9000 F8000.0
G1 X165.5356 Y-86.4397 F12000.0
G1 Z0.0000 F8000.0
G0 X170.1296 Y-88.9314 F15000.0
G1 Z11.9000 F8000.0
G1 X180.0000 Y-88.9314 F12000.0
G1 Z0.0000 F8000.0
G0 X165.5356 Y-86.4397 F15000.0
G1 Z11.9000 F8000.0
G1 X170.1296 Y-86.4397 F12000.0
G1 Z0.0000 F8000.0
G0 X170.1296 Y-105.0489 F15000.0
G1 Z11.9000 F8000.0
G1 X180.0000 Y-105.0489 F12000.0
G1 Z0.0000 F8000.0
G0 X165.5356 Y-94.6932 F15000.0
G1 Z11.9000 F8000.0
G1 X180.0000 Y-94.6932 F12000.0
G1 Z0.0000 F8000.0
G0 X170.1296 Y-88.9314 F15000.0
G1 Z11.9000 F8000.0
G1 X170.1296 Y-86.4397 F12000.0
G1 Z0.0000 F8000.0
G0 X165.5356 Y-107.5405 F15000.0
G1 Z11.9000 F8000.0
G1 X165.5356 Y-99.2871 F12000.0
G1 Z0.0000 F8000.0
G0 X174.2563 Y-106.6840 F15000.0
G1 Z11.9000 F8000.0
G1 X174.2563 Y-105.0489 F12000.0
G1 Z0.0000 F8000.0
G0 X174.2563 Y-88.9314 F15000.0
G1 Z11.9000 F8000.0
G1 X174.2563 Y-87.3741 F12000.0
G1 Z0.0000 F8000.0
G0 X157.9051 Y-109.6428 F15000.0
G1 Z11.9000 F8000.0
G1 X157.9051 Y-84.3374 F12000.0
G1 Z0.0000 F8000.0
G0 X156.7372 Y-110.8108 F15000.0
G1 Z11.9000 F8000.0
G1 X156.7372 Y-83.1695 F12000.0
G1 Z0.0000 F8000.0
G0 X166.3143 Y-109.6428 F15000.0
G1 Z11.9000 F8000.0
G1 X166.3143 Y-107.5405 F12000.0
G1 Z0.0000 F8000.0
G0 X166.3143 Y-86.4397 F15000.0
G1 Z11.9000 F8000.0
G1 X166.3143 Y-84.3374 F12000.0
G1 Z0.0000 F8000.0
G0 X166.3143 Y-109.6428 F15000.0
G1 Z11.9000 F8000.0
G1 X157.9051 Y-109.6428 F12000.0
G1 Z0.0000 F8000.0
G0 X167.2486 Y-83.4810 F15000.0
G1 Z11.9000 F8000.0
G1 X167.5601 Y-83.3253 F12000.0
G1 Z0.0000 F8000.0
G0 X169.3509 Y-110.6550 F15000.0
G1 Z11.9000 F8000.0
G1 X167.5601 Y-110.6550 F12000.0
G1 Z0.0000 F8000.0
G0 X169.3509 Y-83.3253 F15000.0
G1 Z11.9000 F8000.0
G1 X169.8181 Y-83.4810 F12000.0
G1 X170.0517 Y-83.8703 F12000.0
G1 Z0.0000 F8000.0
G0 X174.2563 Y-87.3741 F15000.0
G1 Z11.9000 F8000.0
G1 X170.1296 Y-87.3741 F12000.0
G1 Z0.0000 F8000.0
G0 X156.7372 Y-115.0153 F15000.0
G1 Z11.9000 F8000.0
G1 X156.7372 Y-110.8108 F12000.0
G1 Z0.0000 F8000.0
G0 X174.2563 Y-87.3741 F15000.0
G1 Z11.9000 F8000.0
G1 X174.2563 Y-82.3131 F12000.0
G1 X172.3097 Y-78.9649 F12000.0
G1 Z0.0000 F8000.0
G0 X156.7372 Y-83.1695 F15000.0
G1 Z11.9000 F8000.0
G1 X156.7372 Y-78.9649 F12000.0
G1 Z0.0000 F8000.0
G0 X166.3143 Y-84.3374 F15000.0
G1 Z11.9000 F8000.0
G1 X157.9051 Y-84.3374 F12000.0
G1 Z0.0000 F8000.0
G0 X167.2486 Y-83.4810 F15000.0
G1 Z11.9000 F8000.0
G1 X166.3143 Y-84.3374 F12000.0
G1 Z0.0000 F8000.0
G0 X167.2486 Y-110.5772 F15000.0
G1 Z11.9000 F8000.0
G1 X166.3143 Y-109.6428 F12000.0
G1 Z0.0000 F8000.0
G0 X174.2563 Y-111.7451 F15000.0
G1 Z11.9000 F8000.0
G1 X172.3097 Y-115.0153 F12000.0
G1 Z0.0000 F8000.0
G0 X174.2563 Y-106.6840 F15000.0
G1 Z11.9000 F8000.0
G1 X170.1296 Y-106.6840 F12000.0
G1 Z0.0000 F8000.0
G0 X156.7372 Y-110.8108 F15000.0
G1 Z11.9000 F8000.0
G1 X157.9051 Y-109.6428 F12000.0
G1 Z0.0000 F8000.0
G0 X169.3509 Y-110.6550 F15000.0
G1 Z11.9000 F8000.0
G1 X169.8181 Y-110.4993 F12000.0
G1 X170.0517 Y-110.1100 F12000.0
G1 Z0.0000 F8000.0
G0 X156.7372 Y-83.1695 F15000.0
G1 Z11.9000 F8000.0
G1 X157.9051 Y-84.3374 F12000.0
G1 Z0.0000 F8000.0
G0 X170.1296 Y-84.0261 F15000.0
G1 Z11.9000 F8000.0
G1 X170.1296 Y-87.3741 F12000.0
G1 Z0.0000 F8000.0
G0 X172.3097 Y-78.9649 F15000.0
G1 Z11.9000 F8000.0
G1 X156.7372 Y-78.9649 F12000.0
G1 Z0.0000 F8000.0
G0 X156.7372 Y-115.0153 F15000.0
G1 Z11.9000 F8000.0
G1 X172.3097 Y-115.0153 F12000.0
G1 Z0.0000 F8000.0
G0 X174.2563 Y-111.7451 F15000.0
G1 Z11.9000 F8000.0
G1 X174.2563 Y-106.6840 F12000.0
G1 Z0.0000 F8000.0
G0 X167.2486 Y-110.5772 F15000.0
G1 Z11.9000 F8000.0
G1 X167.5601 Y-110.6550 F12000.0
G1 Z0.0000 F8000.0
G0 X169.3509 Y-83.3253 F15000.0
G1 Z11.9000 F8000.0
G1 X167.5601 Y-83.3253 F12000.0
G1 Z0.0000 F8000.0
G0 X170.1296 Y-106.6840 F15000.0
G1 Z11.9000 F8000.0
G1 X170.1296 Y-109.9542 F12000.0
G1 Z0.0000 F8000.0
G0 X164.8317 Y-80.7590 F15000.0
G1 Z11.9000 F8000.0
G1 X164.2151 Y-81.3756 F12000.0
G1 Z0.0000 F8000.0
G0 X135.4029 Y-43.8490 F15000.0
G1 Z11.9000 F8000.0
G1 X164.5235 Y-81.0672 F12000.0
G1 Z0.0000 F8000.0
G0 X135.4029 Y-43.8490 F15000.0
G1 Z11.9000 F8000.0
G1 X125.2807 Y-43.8490 F12000.0
G1 Z0.0000 F8000.0
G0 X170.4378 Y-92.0879 F15000.0
G1 Z11.9000 F8000.0
G1 X169.8212 Y-92.7046 F12000.0
G1 Z0.0000 F8000.0
G0 X135.4029 Y-61.1345 F15000.0
G1 Z11.9000 F8000.0
G1 X170.1296 Y-92.3573 F12000.0
G1 Z0.0000 F8000.0
G0 X135.4029 Y-61.1345 F15000.0
G1 Z11.9000 F8000.0
G1 X125.9036 Y-61.1345 F12000.0
G1 Z0.0000 F8000.0
G0 X132.6928 Y-59.9685 F15000.0
G1 Z11.9000 F8000.0
G1 X131.1044 Y-59.8430 F12000.0
G1 X130.6864 Y-59.6340
G1 Z0.0000 F8000.0
G0 X130.5609 Y-56.7497 F15000.0
G1 Z11.9000 F8000.0
G1 X130.0175 Y-56.7497 F12000.0
G1 X129.6831 Y-57.2095
G1 X129.6831 Y-57.7530
G1 X130.1848 Y-59.0488
G1 Z0.0000 F8000.0
G0 X130.5192 Y-53.9908 F15000.0
G1 Z11.9000 F8000.0
G1 X129.4323 Y-53.9908 F12000.0
G1 X129.2233 Y-54.0744
G1 Z0.0000 F8000.0
G0 X130.4773 Y-59.4668 F15000.0
G1 Z11.9000 F8000.0
G1 X130.3101 Y-59.2996 F12000.0
G1 Z0.0000 F8000.0
G0 X129.8086 Y-56.4571 F15000.0
G1 Z11.9000 F8000.0
G1 X129.3905 Y-56.0809 F12000.0
G1 Z0.0000 F8000.0
G0 X129.1815 Y-55.6629 F15000.0
G1 Z11.9000 F8000.0
G1 X128.8889 Y-54.6597 F12000.0
G1 X129.0143 Y-54.2834
G1 Z0.0000 F8000.0
G0 X78.7968 Y-40.8902 F15000.0
G1 Z11.9000 F8000.0
G1 X78.7968 Y-56.0734 F12000.0
G1 Z0.0000 F8000.0
G0 X78.7968 Y-57.4750 F15000.0
G1 Z11.9000 F8000.0
G1 X78.7968 Y-58.8765 F12000.0
G1 Z0.0000 F8000.0
G0 X78.7968 Y-60.2780 F15000.0
G1 Z11.9000 F8000.0
G1 X78.7968 Y-75.4611 F12000.0
G1 Z0.0000 F8000.0
G0 X78.7968 Y-76.8626 F15000.0
G1 Z11.9000 F8000.0
G1 X78.7968 Y-78.3421 F12000.0
G1 Z0.0000 F8000.0
G0 X78.7968 Y-79.6657 F15000.0
G1 Z11.9000 F8000.0
G1 X78.7968 Y-94.9268 F12000.0
G1 Z0.0000 F8000.0
G0 X78.7968 Y-96.2504 F15000.0
G1 Z11.9000 F8000.0
G1 X78.7968 Y-97.7298 F12000.0
G1 Z0.0000 F8000.0
G0 X78.7968 Y-99.0535 F15000.0
G1 Z11.9000 F8000.0
G1 X78.7968 Y-114.3146 F12000.0
G1 Z0.0000 F8000.0
G0 X78.7968 Y-115.6382 F15000.0
G1 Z11.9000 F8000.0
G1 X78.7968 Y-117.1176 F12000.0
G1 Z0.0000 F8000.0
G0 X78.7968 Y-118.5192 F15000.0
G1 Z11.9000 F8000.0
G1 X78.7968 Y-133.7023 F12000.0
G1 Z0.0000 F8000.0
G0 X78.7968 Y-135.1038 F15000.0
G1 Z11.9000 F8000.0
G1 X78.7968 Y-136.5053 F12000.0
G1 Z0.0000 F8000.0
G0 X78.7968 Y-137.9068 F15000.0
G1 Z11.9000 F8000.0
G1 X78.7968 Y-153.0900 F12000.0
G1 Z0.0000 F8000.0
G0 X78.7968 Y-115.4046 F15000.0
G1 Z11.9000 F8000.0
G1 X78.7968 Y-105.9054 F12000.0
G1 Z0.0000 F8000.0
G0 X78.7968 Y-101.7786 F15000.0
G1 Z11.9000 F8000.0
G1 X78.7968 Y-97.0291 F12000.0
G1 Z0.0000 F8000.0
G0 X78.7968 Y-78.5756 F15000.0
G1 Z11.9000 F8000.0
G1 X78.7968 Y-88.0749 F12000.0
G1 Z0.0000 F8000.0
G0 X78.7968 Y-92.2794 F15000.0
G1 Z11.9000 F8000.0
G1 X78.7968 Y-97.0291 F12000.0
G1 Z0.0000 F8000.0
G0 X60.3434 Y-97.0291 F15000.0
G1 Z11.9000 F8000.0
G1 X69.8426 Y-97.0291 F12000.0
G1 Z0.0000 F8000.0
G0 X71.2442 Y-97.0291 F15000.0
G1 Z11.9000 F8000.0
G1 X72.6457 Y-97.0291 F12000.0
G1 Z0.0000 F8000.0
G0 X74.0472 Y-97.0291 F15000.0
G1 Z11.9000 F8000.0
G1 X78.7968 Y-97.0291 F12000.0
G1 Z0.0000 F8000.0
G0 X97.1724 Y-97.0291 F15000.0
G1 Z11.9000 F8000.0
G1 X87.6731 Y-97.0291 F12000.0
G1 Z0.0000 F8000.0
G0 X86.2716 Y-97.0291 F15000.0
G1 Z11.9000 F8000.0
G1 X84.8701 Y-97.0291 F12000.0
G1 Z0.0000 F8000.0
G0 X83.5464 Y-97.0291 F15000.0
G1 Z11.9000 F8000.0
G1 X78.7968 Y-97.0291 F12000.0
G1 Z0.0000 F8000.0
G0 X72.3342 Y-146.6275 F15000.0
G1 Z11.9000 F8000.0
G1 X78.7968 Y-146.6275 F12000.0
G1 Z0.0000 F8000.0
G0 X85.1815 Y-146.6275 F15000.0
G1 Z11.9000 F8000.0
G1 X78.7968 Y-146.6275 F12000.0
G1 Z0.0000 F8000.0
G0 X71.0106 Y-146.0046 F15000.0
G1 Z11.9000 F8000.0
G1 X74.0472 Y-107.1512 F12000.0
G1 Z0.0000 F8000.0
G0 X86.5831 Y-146.0046 F15000.0
G1 Z11.9000 F8000.0
G1 X86.5052 Y-147.5618 F12000.0
G1 X86.1938 Y-149.1191 F12000.0
G1 X85.5708 Y-150.5206 F12000.0
G1 X84.6365 Y-151.7664 F12000.0
G1 X83.5464 Y-152.8565 F12000.0
G1 X82.1449 Y-153.7130 F12000.0
G1 X80.7434 Y-154.2580 F12000.0
G1 X79.1862 Y-154.4916 F12000.0
G1 X77.6288 Y-154.4138 F12000.0
G1 X76.1495 Y-154.0244 F12000.0
G1 X74.6701 Y-153.3236 F12000.0
G1 X73.4244 Y-152.3893 F12000.0
G1 X72.4121 Y-151.2213 F12000.0
G1 X71.6335 Y-149.8977 F12000.0
G1 X71.1663 Y-148.4183 F12000.0
G1 X70.9327 Y-146.8611 F12000.0
G1 X71.0106 Y-146.0046 F12000.0
G1 Z0.0000 F8000.0
G0 X83.4685 Y-107.1512 F15000.0
G1 Z11.9000 F8000.0
G1 X86.5831 Y-146.0046 F12000.0
G1 Z0.0000 F8000.0
G0 X78.7968 Y-86.9069 F15000.0
G1 Z11.9000 F8000.0
G1 X80.5098 Y-87.0627 F12000.0
G1 X82.2228 Y-87.5299 F12000.0
G1 X83.8579 Y-88.2306 F12000.0
G1 X85.3372 Y-89.2428 F12000.0
G1 X86.5831 Y-90.5665 F12000.0
G1 X87.5174 Y-91.9680 F12000.0
G1 X88.2961 Y-93.6032 F12000.0
G1 X88.7632 Y-95.3161 F12000.0
G1 X88.9189 Y-97.1069 F12000.0
G1 X88.6854 Y-98.8199 F12000.0
G1 X88.2182 Y-100.5329 F12000.0
G1 X87.4395 Y-102.1680 F12000.0
G1 X86.4274 Y-103.5695 F12000.0
G1 X85.1815 Y-104.8153 F12000.0
G1 X83.7021 Y-105.8275 F12000.0
G1 X82.0670 Y-106.5283 F12000.0
G1 X80.3541 Y-106.9955 F12000.0
G1 X78.5632 Y-107.0734 F12000.0
G1 X76.8503 Y-106.9176 F12000.0
G1 X75.1373 Y-106.4504 F12000.0
G1 X73.5022 Y-105.6718 F12000.0
G1 X72.1006 Y-104.5817 F12000.0
G1 X70.8549 Y-103.3359 F12000.0
G1 X69.9205 Y-101.8565 F12000.0
G1 X69.1419 Y-100.2214 F12000.0
G1 X68.7526 Y-98.5084 F12000.0
G1 X68.6747 Y-96.7176 F12000.0
G1 X68.8304 Y-94.9268 F12000.0
G1 X69.3755 Y-93.2917 F12000.0
G1 X70.1541 Y-91.6566 F12000.0
G1 X71.2442 Y-90.2550 F12000.0
G1 X72.4900 Y-89.0092 F12000.0
G1 X73.9693 Y-88.0749 F12000.0
G1 X75.6044 Y-87.3741 F12000.0
G1 X77.3175 Y-86.9848 F12000.0
G1 X78.7968 Y-86.9069 F12000.0
G1 Z0.0000 F8000.0
G0 X84.2472 Y-105.4382 F15000.0
G1 Z11.9000 F8000.0
G1 X83.7800 Y-105.9832 F12000.0
G1 X83.4685 Y-106.6840 F12000.0
G1 X83.4685 Y-107.1512 F12000.0
G1 Z0.0000 F8000.0
G0 X73.2686 Y-105.4382 F15000.0
G1 Z11.9000 F8000.0
G1 X73.8136 Y-105.9832 F12000.0
G1 X74.0472 Y-106.6840 F12000.0
G1 X74.0472 Y-107.1512 F12000.0
G1 Z0.0000 F8000.0
G0 X78.7968 Y-142.0336 F15000.0
G1 Z11.9000 F8000.0
G1 X79.9647 Y-142.1893 F12000.0
G1 X81.0549 Y-142.6565 F12000.0
G1 X81.9892 Y-143.3573 F12000.0
G1 X82.7678 Y-144.3695 F12000.0
G1 X83.2349 Y-145.4595 F12000.0
G1 X83.3907 Y-146.6275 F12000.0
G1 X83.2349 Y-147.7954 F12000.0
G1 X82.7678 Y-148.8855 F12000.0
G1 X82.0670 Y-149.8977 F12000.0
G1 X81.1327 Y-150.5985 F12000.0
G1 X80.0426 Y-151.0656 F12000.0
G1 X78.8747 Y-151.2213 F12000.0
G1 X77.6288 Y-151.1435 F12000.0
G1 X76.5388 Y-150.6764 F12000.0
G1 X75.6044 Y-149.9756 F12000.0
G1 X74.8259 Y-149.0413 F12000.0
G1 X74.3587 Y-147.9511 F12000.0
G1 X74.2029 Y-146.7832 F12000.0
G1 X74.2808 Y-145.6152 F12000.0
G1 X74.7480 Y-144.4473 F12000.0
G1 X75.4487 Y-143.5129 F12000.0
G1 X76.3831 Y-142.7344 F12000.0
G1 X77.4731 Y-142.2672 F12000.0
G1 X78.6411 Y-142.0336 F12000.0
G1 Z0.0000 F8000.0
G0 X96.2381 Y-107.0734 F15000.0
G1 Z11.9000 F8000.0
G1 X96.2381 Y-86.9069 F12000.0
G1 Z0.0000 F8000.0
G0 X78.7968 Y-76.7848 F15000.0
G1 Z11.9000 F8000.0
G1 X61.2778 Y-86.9069 F12000.0
G1 X61.2778 Y-107.0734 F12000.0
G1 Z0.0000 F8000.0
G0 X78.7968 Y-80.4444 F15000.0
G1 Z11.9000 F8000.0
G1 X76.5388 Y-80.6000 F12000.0
G1 X74.2808 Y-81.0672 F12000.0
G1 X72.1785 Y-81.8459 F12000.0
G1 X70.1541 Y-82.8581 F12000.0
G1 X68.2854 Y-84.1818 F12000.0
G1 X66.6503 Y-85.7390 F12000.0
G1 X65.1709 Y-87.5299 F12000.0
G1 X64.0029 Y-89.4764 F12000.0
G1 X63.1465 Y-91.5009 F12000.0
G1 X62.5235 Y-93.7589 F12000.0
G1 X62.2121 Y-95.9389 F12000.0
G1 X62.2899 Y-98.2748 F12000.0
G1 X62.6014 Y-100.4550 F12000.0
G1 X63.2243 Y-102.6352 F12000.0
G1 X64.1586 Y-104.7375 F12000.0
G1 X65.3266 Y-106.6840 F12000.0
G1 X66.8060 Y-108.3970 F12000.0
G1 X68.4411 Y-109.9542 F12000.0
G1 X70.3098 Y-111.2000 F12000.0
G1 X72.3342 Y-112.2901 F12000.0
G1 X73.6579 Y-112.7573 F12000.0
G1 Z0.0000 F8000.0
G0 X83.9357 Y-112.7573 F15000.0
G1 Z11.9000 F8000.0
G1 X86.0380 Y-111.9008 F12000.0
G1 X87.9846 Y-110.7329 F12000.0
G1 X89.7754 Y-109.3313 F12000.0
G1 X91.3327 Y-107.7741 F12000.0
G1 X92.7342 Y-105.9054 F12000.0
G1 X93.8243 Y-103.9588 F12000.0
G1 X94.6029 Y-101.7786 F12000.0
G1 X95.1479 Y-99.5985 F12000.0
G1 X95.3037 Y-97.3405 F12000.0
G1 X95.2258 Y-95.0825 F12000.0
G1 X94.7586 Y-92.8245 F12000.0
G1 X94.0579 Y-90.7222 F12000.0
G1 X93.0456 Y-88.6199 F12000.0
G1 X91.7999 Y-86.7512 F12000.0
G1 X90.2426 Y-85.1161 F12000.0
G1 X88.5297 Y-83.6367 F12000.0
G1 X86.5831 Y-82.3909 F12000.0
G1 X84.5587 Y-81.4566 F12000.0
G1 X82.3785 Y-80.8336 F12000.0
G1 X80.1205 Y-80.5222 F12000.0
G1 X78.7968 Y-80.4444 F12000.0
G1 Z0.0000 F8000.0
G0 X61.2778 Y-107.0734 F15000.0
G1 Z11.9000 F8000.0
G1 X73.5022 Y-114.1588 F12000.0
G1 Z0.0000 F8000.0
G0 X96.2381 Y-86.9069 F15000.0
G1 Z11.9000 F8000.0
G1 X78.7968 Y-76.7848 F12000.0
G1 Z0.0000 F8000.0
G0 X78.7968 Y-104.9711 F15000.0
G1 Z11.9000 F8000.0
G1 X85.6487 Y-101.0001 F12000.0
G1 X85.6487 Y-92.9802 F12000.0
G1 Z0.0000 F8000.0
G0 X78.7968 Y-89.0092 F15000.0
G1 Z11.9000 F8000.0
G1 X71.8670 Y-92.9802 F12000.0
G1 Z0.0000 F8000.0
G0 X78.7968 Y-90.4107 F15000.0
G1 Z11.9000 F8000.0
G1 X80.1983 Y-90.5665 F12000.0
G1 X81.5220 Y-91.0337 F12000.0
G1 X82.7678 Y-91.8123 F12000.0
G1 X83.7800 Y-92.7466 F12000.0
G1 X84.5587 Y-93.9924 F12000.0
G1 X85.1036 Y-95.3161 F12000.0
G1 X85.3372 Y-96.7176 F12000.0
G1 X85.1815 Y-98.1191 F12000.0
G1 X84.7923 Y-99.5207 F12000.0
G1 X84.1693 Y-100.7665 F12000.0
G1 X83.1571 Y-101.8565 F12000.0
G1 X82.0670 Y-102.6352 F12000.0
G1 X80.7434 Y-103.2581 F12000.0
G1 X79.3418 Y-103.4916 F12000.0
G1 X77.9403 Y-103.4916 F12000.0
G1 X76.5388 Y-103.1802 F12000.0
G1 X75.2152 Y-102.5573 F12000.0
G1 X74.1251 Y-101.6229 F12000.0
G1 X73.2686 Y-100.5329 F12000.0
G1 X72.6457 Y-99.2092 F12000.0
G1 X72.2564 Y-97.8855 F12000.0
G1 X72.2564 Y-96.4061 F12000.0
G1 X72.4900 Y-95.0047 F12000.0
G1 X73.1129 Y-93.7589 F12000.0
G1 X73.8915 Y-92.5909 F12000.0
G1 X74.9816 Y-91.6566 F12000.0
G1 X76.2274 Y-90.9558 F12000.0
G1 X77.6288 Y-90.5665 F12000.0
G1 X78.7968 Y-90.4107 F12000.0
G1 Z0.0000 F8000.0
G0 X85.6487 Y-92.9802 F15000.0
G1 Z11.9000 F8000.0
G1 X78.7968 Y-89.0092 F12000.0
G1 Z0.0000 F8000.0
G0 X71.8670 Y-92.9802 F15000.0
G1 Z11.9000 F8000.0
G1 X71.8670 Y-101.0001 F12000.0
G1 X78.7968 Y-104.9711 F12000.0
G1 Z0.0000 F8000.0
G0 X78.7968 Y-92.3573 F15000.0
G1 Z11.9000 F8000.0
G1 X79.9647 Y-92.5130 F12000.0
G1 X81.0549 Y-92.9802 F12000.0
G1 X81.9892 Y-93.7589 F12000.0
G1 X82.7678 Y-94.6932 F12000.0
G1 X83.2349 Y-95.7832 F12000.0
G1 X83.3907 Y-96.9512 F12000.0
G1 X83.2349 Y-98.1191 F12000.0
G1 X82.7678 Y-99.2871 F12000.0
G1 X82.0670 Y-100.2214 F12000.0
G1 X81.1327 Y-100.9222 F12000.0
G1 X80.0426 Y-101.3894 F12000.0
G1 X78.8747 Y-101.6229 F12000.0
G1 X77.6288 Y-101.4672 F12000.0
G1 X76.5388 Y-101.0001 F12000.0
G1 X75.6044 Y-100.2993 F12000.0
G1 X74.8259 Y-99.3650 F12000.0
G1 X74.3587 Y-98.2748 F12000.0
G1 X74.2029 Y-97.1069 F12000.0
G1 X74.2808 Y-95.9389 F12000.0
G1 X74.7480 Y-94.7711 F12000.0
G1 X75.4487 Y-93.8367 F12000.0
G1 X76.3831 Y-93.0581 F12000.0
G1 X77.4731 Y-92.5909 F12000.0
G1 X78.6411 Y-92.4352 F12000.0
G1 Z0.0000 F8000.0
G0 X83.0793 Y-95.3940 F15000.0
G1 Z11.9000 F8000.0
G1 X83.3128 Y-96.5619 F12000.0
G1 X83.3128 Y-97.8076 F12000.0
G1 X82.9236 Y-98.8978 F12000.0
G1 X82.3006 Y-99.9099 F12000.0
G1 X81.4441 Y-100.7665 F12000.0
G1 X80.3541 Y-101.3115 F12000.0
G1 X79.1862 Y-101.5450 F12000.0
G1 X78.0182 Y-101.5450 F12000.0
G1 X76.8503 Y-101.1558 F12000.0
G1 X75.8380 Y-100.5329 F12000.0
G1 X75.0595 Y-99.6763 F12000.0
G1 X74.4365 Y-98.6642 F12000.0
G1 X74.2029 Y-97.4963 F12000.0
G1 X74.2029 Y-96.2504 F12000.0
G1 X74.5923 Y-95.1604 F12000.0
G1 X75.2152 Y-94.1481 F12000.0
G1 X76.0716 Y-93.2917 F12000.0
G1 X77.0839 Y-92.7466 F12000.0
G1 Z0.0000 F8000.0
G0 X97.1724 Y-118.5970 F15000.0
G1 Z11.9000 F8000.0
G1 X84.4029 Y-118.5970 F12000.0
G1 Z0.0000 F8000.0
G0 X73.1908 Y-118.5970 F15000.0
G1 Z11.9000 F8000.0
G1 X60.3434 Y-118.5970 F12000.0
G1 Z0.0000 F8000.0
G0 X97.1724 Y-74.4490 F15000.0
G1 Z11.9000 F8000.0
G1 X60.3434 Y-74.4490 F12000.0
G1 Z0.0000 F8000.0
G0 X60.3434 Y-97.0291 F15000.0
G1 Z11.9000 F8000.0
G1 X60.4991 Y-94.6153 F12000.0
G1 X60.9663 Y-92.2794 F12000.0
G1 X61.2778 Y-91.2673 F12000.0
G1 Z0.0000 F8000.0
G0 X65.0930 Y-84.7268 F15000.0
G1 Z11.9000 F8000.0
G1 X66.7281 Y-83.0917 F12000.0
G1 X68.6747 Y-81.6123 F12000.0
G1 X70.7770 Y-80.4444 F12000.0
G1 X72.9572 Y-79.5100 F12000.0
G1 X74.9816 Y-78.9649 F12000.0
G1 Z0.0000 F8000.0
G0 X82.5342 Y-78.9649 F15000.0
G1 Z11.9000 F8000.0
G1 X84.8701 Y-79.6657 F12000.0
G1 X87.0502 Y-80.6000 F12000.0
G1 X89.0746 Y-81.7680 F12000.0
G1 X91.0212 Y-83.2474 F12000.0
G1 X92.5007 Y-84.7268 F12000.0
G1 Z0.0000 F8000.0
G0 X96.2381 Y-91.2673 F15000.0
G1 Z11.9000 F8000.0
G1 X96.8609 Y-93.6032 F12000.0
G1 X97.0945 Y-95.9389 F12000.0
G1 X97.0945 Y-98.3527 F12000.0
G1 X96.7830 Y-100.6886 F12000.0
G1 X96.2381 Y-102.7130 F12000.0
G1 Z0.0000 F8000.0
G0 X92.5007 Y-109.2534 F15000.0
G1 Z11.9000 F8000.0
G1 X90.7876 Y-110.9665 F12000.0
G1 X88.8411 Y-112.3680 F12000.0
G1 X86.7388 Y-113.5359 F12000.0
G1 X84.5587 Y-114.4703 F12000.0
G1 X84.0136 Y-114.6260 F12000.0
G1 Z0.0000 F8000.0
G0 X73.5022 Y-114.6260 F15000.0
G1 Z11.9000 F8000.0
G1 X71.2442 Y-113.7695 F12000.0
G1 X69.1419 Y-112.6795 F12000.0
G1 X67.1953 Y-111.2779 F12000.0
G1 X65.4045 Y-109.6428 F12000.0
G1 X65.0930 Y-109.2534 F12000.0
G1 Z0.0000 F8000.0
G0 X61.2778 Y-102.7130 F15000.0
G1 Z11.9000 F8000.0
G1 X60.7327 Y-100.4550 F12000.0
G1 X60.4212 Y-98.0412 F12000.0
G1 X60.3434 Y-97.0291 F12000.0
G1 Z0.0000 F8000.0
G0 X60.3434 Y-118.5970 F15000.0
G1 Z11.9000 F8000.0
G1 X60.3434 Y-97.0291 F12000.0
G1 Z0.0000 F8000.0
G0 X97.1724 Y-97.0291 F15000.0
G1 Z11.9000 F8000.0
G1 X97.1724 Y-74.4490 F12000.0
G1 Z0.0000 F8000.0
G0 X102.7006 Y-118.5970 F15000.0
G1 Z11.9000 F8000.0
G1 X102.7006 Y-74.4490 F12000.0
G1 Z0.0000 F8000.0
G0 X97.1724 Y-118.5970 F15000.0
G1 Z11.9000 F8000.0
G1 X102.7006 Y-118.5970 F12000.0
G1 Z0.0000 F8000.0
G0 X60.3434 Y-74.4490 F15000.0
G1 Z11.9000 F8000.0
G1 X54.8930 Y-74.4490 F12000.0
G1 Z0.0000 F8000.0
G0 X60.3434 Y-97.0291 F15000.0
G1 Z11.9000 F8000.0
G1 X60.3434 Y-74.4490 F12000.0
G1 Z0.0000 F8000.0
G0 X102.7006 Y-74.4490 F15000.0
G1 Z11.9000 F8000.0
G1 X97.1724 Y-74.4490 F12000.0
G1 Z0.0000 F8000.0
G0 X97.1724 Y-118.5970 F15000.0
G1 Z11.9000 F8000.0
G1 X97.1724 Y-97.0291 F12000.0
G1 Z0.0000 F8000.0
G0 X54.8930 Y-118.5970 F15000.0
G1 Z11.9000 F8000.0
G1 X54.8930 Y-74.4490 F12000.0
G1 Z0.0000 F8000.0
G0 X98.1068 Y-74.4490 F15000.0
G1 Z11.9000 F8000.0
G1 X98.1068 Y-70.7894 F12000.0
G1 X59.4869 Y-70.7894 F12000.0
G1 Z0.0000 F8000.0
G0 X59.4869 Y-74.4490 F15000.0
G1 Z11.9000 F8000.0
G1 X59.4869 Y-70.7894 F12000.0
G1 Z0.0000 F8000.0
G0 X65.8717 Y-70.7894 F15000.0
G1 Z11.9000 F8000.0
G1 X65.8717 Y-43.8490 F12000.0
G1 Z0.0000 F8000.0
G0 X91.6441 Y-70.7894 F15000.0
G1 Z11.9000 F8000.0
G1 X91.6441 Y-43.8490 F12000.0
G1 X90.4762 Y-42.7589 F12000.0
G1 Z0.0000 F8000.0
G0 X91.6441 Y-43.8490 F15000.0
G1 Z11.9000 F8000.0
G1 X65.8717 Y-43.8490 F12000.0
G1 X67.0396 Y-42.7589 F12000.0
G1 Z0.0000 F8000.0
G0 X90.4762 Y-42.7589 F15000.0
G1 Z11.9000 F8000.0
G1 X67.0396 Y-42.7589 F12000.0
G1 Z0.0000 F8000.0
G0 X73.2686 Y-102.4794 F15000.0
G1 Z11.9000 F8000.0
G1 X73.2686 Y-101.7786 F12000.0
G1 Z0.0000 F8000.0
G0 X73.2686 Y-92.2016 F15000.0
G1 Z11.9000 F8000.0
G1 X73.2686 Y-91.5009 F12000.0
G1 Z0.0000 F8000.0
G0 X84.2472 Y-91.5009 F15000.0
G1 Z11.9000 F8000.0
G1 X84.2472 Y-92.2016 F12000.0
G1 Z0.0000 F8000.0
G0 X84.2472 Y-101.7786 F15000.0
G1 Z11.9000 F8000.0
G1 X84.2472 Y-102.4794 F12000.0
G1 X83.0014 Y-102.4794 F12000.0
G1 Z0.0000 F8000.0
G0 X74.5144 Y-102.4794 F15000.0
G1 Z11.9000 F8000.0
G1 X73.2686 Y-102.4794 F12000.0
G1 Z0.0000 F8000.0
G0 X73.2686 Y-91.5009 F15000.0
G1 Z11.9000 F8000.0
G1 X74.5144 Y-91.5009 F12000.0
G1 Z0.0000 F8000.0
G0 X83.0014 Y-91.5009 F15000.0
G1 Z11.9000 F8000.0
G1 X84.2472 Y-91.5009 F12000.0
G1 Z0.0000 F8000.0
G0 X78.7968 Y-93.2917 F15000.0
G1 Z11.9000 F8000.0
G1 X79.8090 Y-93.4474 F12000.0
G1 X80.8213 Y-93.9145 F12000.0
G1 X81.5998 Y-94.6153 F12000.0
G1 X82.1449 Y-95.5497 F12000.0
G1 X82.4564 Y-96.5619 F12000.0
G1 X82.3785 Y-97.6519 F12000.0
G1 X82.0670 Y-98.6642 F12000.0
G1 X81.4441 Y-99.5207 F12000.0
G1 X80.5877 Y-100.2214 F12000.0
G1 X79.5754 Y-100.6107 F12000.0
G1 X78.5632 Y-100.6886 F12000.0
G1 X77.4731 Y-100.4550 F12000.0
G1 X76.5388 Y-99.9099 F12000.0
G1 X75.8380 Y-99.2092 F12000.0
G1 X75.2931 Y-98.1970 F12000.0
G1 X75.0595 Y-97.1848 F12000.0
G1 X75.2152 Y-96.0947 F12000.0
G1 X75.6044 Y-95.1604 F12000.0
G1 X76.2274 Y-94.3039 F12000.0
G1 X77.1617 Y-93.6810 F12000.0
G1 X78.1739 Y-93.3696 F12000.0
G1 X78.7968 Y-93.2917 F12000.0
G1 Z0.0000 F8000.0
G0 X84.0136 Y-114.1588 F15000.0
G1 Z11.9000 F8000.0
G1 X96.2381 Y-107.0734 F12000.0
G1 Z0.0000 F8000.0
G0 X90.8655 Y-57.4750 F15000.0
G1 Z11.9000 F8000.0
G1 X90.8655 Y-43.8490 F12000.0
G1 X90.8655 Y-43.1482 F12000.0
G1 Z0.0000 F8000.0
G0 X66.6503 Y-57.4750 F15000.0
G1 Z11.9000 F8000.0
G1 X66.6503 Y-43.8490 F12000.0
G1 X66.6503 Y-43.1482 F12000.0
G1 Z0.0000 F8000.0
G0 X91.6441 Y-57.4750 F15000.0
G1 Z11.9000 F8000.0
G1 X65.8717 Y-57.4750 F12000.0
G1 Z0.0000 F8000.0
G0 X67.0396 Y-42.7589 F15000.0
G1 Z11.9000 F8000.0
G1 X32.7022 Y-42.7589 F12000.0
G1 Z0.0000 F8000.0
G0 X60.3434 Y-118.5970 F15000.0
G1 Z11.9000 F8000.0
G1 X32.7022 Y-118.5970 F12000.0
G1 Z0.0000 F8000.0
G0 X102.7006 Y-118.5970 F15000.0
G1 Z11.9000 F8000.0
G1 X102.7006 Y-170.6870 F12000.0
G1 Z0.0000 F8000.0
G0 X54.8930 Y-118.5970 F15000.0
G1 Z11.9000 F8000.0
G1 X54.8930 Y-170.6870 F12000.0
G1 Z0.0000 F8000.0
G0 X90.4762 Y-42.7589 F15000.0
G1 Z11.9000 F8000.0
G1 X118.3510 Y-42.7589 F12000.0
G1 Z0.0000 F8000.0
G0 X78.7968 Y-154.4916 F15000.0
G1 Z11.9000 F8000.0
G1 X118.3510 Y-154.4916 F12000.0
G1 Z0.0000 F8000.0
G0 X34.4931 Y-42.7589 F15000.0
G1 Z11.9000 F8000.0
G1 X33.9480 Y-47.3528 F12000.0
G1 X34.4931 Y-46.8856 F12000.0
G1 X35.1160 Y-47.3528 F12000.0
G1 X34.4931 Y-42.7589 F12000.0
G1 Z0.0000 F8000.0
G0 X34.2205 Y-44.6031 F15000.0
G1 Z11.9000 F8000.0
G1 X34.2205 Y-45.4307 F12000.0
G1 Z0.0000 F8000.0
G0 X34.7656 Y-44.8756 F15000.0
G1 Z11.9000 F8000.0
G1 X34.7656 Y-45.7032 F12000.0
G1 Z0.0000 F8000.0
G0 X34.4931 Y-118.5970 F15000.0
G1 Z11.9000 F8000.0
G1 X35.1160 Y-114.0031 F12000.0
G1 X34.4931 Y-114.4703 F12000.0
G1 X33.9480 Y-114.0031 F12000.0
G1 X34.4931 Y-118.5970 F12000.0
G1 Z0.0000 F8000.0
G0 X34.7656 Y-115.5748 F15000.0
G1 Z11.9000 F8000.0
G1 X34.7656 Y-116.4024 F12000.0
G1 Z0.0000 F8000.0
G0 X34.2205 Y-115.8472 F15000.0
G1 Z11.9000 F8000.0
G1 X34.2205 Y-116.6749 F12000.0
G1 Z0.0000 F8000.0
G0 X34.4931 Y-42.7589 F15000.0
G1 Z11.9000 F8000.0
G1 X34.4931 Y-118.5970 F12000.0
G1 Z0.0000 F8000.0
G0 X102.7006 Y-168.8183 F15000.0
G1 Z11.9000 F8000.0
G1 X98.1068 Y-168.1954 F12000.0
G1 X98.5739 Y-168.8183 F12000.0
G1 X98.1068 Y-169.4412 F12000.0
G1 X102.7006 Y-168.8183 F12000.0
G1 Z0.0000 F8000.0
G0 X100.5061 Y-168.5068 F15000.0
G1 Z11.9000 F8000.0
G1 X99.6784 Y-168.5068 F12000.0
G1 Z0.0000 F8000.0
G0 X100.8175 Y-169.0908 F15000.0
G1 Z11.9000 F8000.0
G1 X99.9898 Y-169.0908 F12000.0
G1 Z0.0000 F8000.0
G0 X54.8930 Y-168.8183 F15000.0
G1 Z11.9000 F8000.0
G1 X59.4869 Y-169.4412 F12000.0
G1 X59.0197 Y-168.8183 F12000.0
G1 X59.4869 Y-168.1954 F12000.0
G1 X54.8930 Y-168.8183 F12000.0
G1 Z0.0000 F8000.0
G0 X57.5648 Y-169.0908 F15000.0
G1 Z11.9000 F8000.0
G1 X56.7372 Y-169.0908 F12000.0
G1 Z0.0000 F8000.0
G0 X57.8374 Y-168.5068 F15000.0
G1 Z11.9000 F8000.0
G1 X57.0098 Y-168.5068 F12000.0
G1 Z0.0000 F8000.0
G0 X102.7006 Y-168.8183 F15000.0
G1 Z11.9000 F8000.0
G1 X54.8930 Y-168.8183 F12000.0
G1 Z0.0000 F8000.0
G0 X116.4823 Y-42.7589 F15000.0
G1 Z11.9000 F8000.0
G1 X115.9372 Y-47.3528 F12000.0
G1 X116.4823 Y-46.8856 F12000.0
G1 X117.1052 Y-47.3528 F12000.0
G1 X116.4823 Y-42.7589 F12000.0
G1 Z0.0000 F8000.0
G0 X116.2097 Y-44.6031 F15000.0
G1 Z11.9000 F8000.0
G1 X116.2097 Y-45.4307 F12000.0
G1 Z0.0000 F8000.0
G0 X116.7548 Y-44.8756 F15000.0
G1 Z11.9000 F8000.0
G1 X116.7548 Y-45.7032 F12000.0
G1 Z0.0000 F8000.0
G0 X116.4823 Y-154.4916 F15000.0
G1 Z11.9000 F8000.0
G1 X117.1052 Y-149.8977 F12000.0
G1 X116.4823 Y-150.3649 F12000.0
G1 X115.9372 Y-149.8977 F12000.0
G1 X116.4823 Y-154.4916 F12000.0
G1 Z0.0000 F8000.0
G0 X116.7548 Y-151.4694 F15000.0
G1 Z11.9000 F8000.0
G1 X116.7548 Y-152.2970 F12000.0
G1 Z0.0000 F8000.0
G0 X116.2097 Y-151.7419 F15000.0
G1 Z11.9000 F8000.0
G1 X116.2097 Y-152.5695 F12000.0
G1 Z0.0000 F8000.0
G0 X116.4823 Y-42.7589 F15000.0
G1 Z11.9000 F8000.0
G1 X116.4823 Y-154.4916 F12000.0
G1 Z0.0000 F8000.0
G0 X180.0000 Y-187.7389 F15000.0
G1 Z11.9000 F8000.0
G1 X177.3707 Y-187.7389 F12000.0
G1 Z0.0000 F8000.0
G0 X175.9692 Y-187.7389 F15000.0
G1 Z11.9000 F8000.0
G1 X174.5677 Y-187.7389 F12000.0
G1 Z0.0000 F8000.0
G0 X173.1662 Y-187.7389 F15000.0
G1 Z11.9000 F8000.0
G1 X154.9464 Y-187.7389 F12000.0
G1 Z0.0000 F8000.0
G0 X174.2563 Y-179.7190 F15000.0
G1 Z11.9000 F8000.0
G1 X180.0000 Y-179.7190 F12000.0
G1 Z0.0000 F8000.0
G0 X174.2563 Y-195.8366 F15000.0
G1 Z11.9000 F8000.0
G1 X180.0000 Y-195.8366 F12000.0
G1 Z0.0000 F8000.0
G0 X156.7372 Y-172.0885 F15000.0
G1 Z11.9000 F8000.0
G1 X172.3097 Y-172.0885 F12000.0
G1 Z0.0000 F8000.0
G0 X156.7372 Y-187.7389 F15000.0
G1 Z11.9000 F8000.0
G1 X156.7372 Y-172.0885 F12000.0
G1 Z0.0000 F8000.0
G0 X156.7372 Y-203.3892 F15000.0
G1 Z11.9000 F8000.0
G1 X172.3097 Y-203.3892 F12000.0
G1 Z0.0000 F8000.0
G0 X174.2563 Y-173.0229 F15000.0
G1 Z11.9000 F8000.0
G1 X173.7112 Y-172.0885 F12000.0
G1 Z0.0000 F8000.0
G0 X174.2563 Y-202.4549 F15000.0
G1 Z11.9000 F8000.0
G1 X174.2563 Y-173.0229 F12000.0
G1 Z0.0000 F8000.0
G0 X174.2563 Y-202.4549 F15000.0
G1 Z11.9000 F8000.0
G1 X173.7112 Y-203.3892 F12000.0
G1 Z0.0000 F8000.0
G0 X172.3097 Y-172.0885 F15000.0
G1 Z11.9000 F8000.0
G1 X172.7769 Y-173.4901 F12000.0
G1 X173.3219 Y-176.0595 F12000.0
G1 X173.7112 Y-178.7068 F12000.0
G1 X173.7112 Y-181.0427 F12000.0
G1 X173.3998 Y-183.3008 F12000.0
G1 X172.8547 Y-185.8702 F12000.0
G1 X172.3097 Y-187.7389 F12000.0
G1 X172.7769 Y-189.1405 F12000.0
G1 X173.3219 Y-191.7098 F12000.0
G1 X173.7112 Y-194.3572 F12000.0
G1 X173.7112 Y-196.6931 F12000.0
G1 X173.3998 Y-198.9510 F12000.0
G1 X172.8547 Y-201.5205 F12000.0
G1 X172.3097 Y-203.3892 F12000.0
G1 Z0.0000 F8000.0
G0 X173.7112 Y-172.0885 F15000.0
G1 Z11.9000 F8000.0
G1 X172.3097 Y-172.0885 F12000.0
G1 Z0.0000 F8000.0
G0 X172.3097 Y-203.3892 F15000.0
G1 Z11.9000 F8000.0
G1 X173.7112 Y-203.3892 F12000.0
G1 Z0.0000 F8000.0
G0 X156.7372 Y-187.7389 F15000.0
G1 Z11.9000 F8000.0
G1 X156.7372 Y-224.2564 F12000.0
G1 Z0.0000 F8000.0
G0 X156.7372 Y-222.3877 F15000.0
G1 Z11.9000 F8000.0
G1 X161.4089 Y-223.0106 F12000.0
G1 X160.9418 Y-222.3877 F12000.0
G1 X161.4089 Y-221.8426 F12000.0
G1 X156.7372 Y-222.3877 F12000.0
G1 Z0.0000 F8000.0
G0 X159.4480 Y-222.6602 F15000.0
G1 Z11.9000 F8000.0
G1 X158.6203 Y-222.6602 F12000.0
G1 Z0.0000 F8000.0
G0 X159.7594 Y-222.1152 F15000.0
G1 Z11.9000 F8000.0
G1 X158.9317 Y-222.1152 F12000.0
G1 Z0.0000 F8000.0
G0 X180.0000 Y-222.3877 F15000.0
G1 Z11.9000 F8000.0
G1 X156.7372 Y-222.3877 F12000.0
G1 Z0.0000 F8000.0
G0 X26.1617 Y-142.9680 F15000.0
G1 Z11.9000 F8000.0
G1 X26.1617 Y-155.5038 F12000.0
G1 Z0.0000 F8000.0
G0 X26.1617 Y-156.9053 F15000.0
G1 Z11.9000 F8000.0
G1 X26.1617 Y-158.3848 F12000.0
G1 Z0.0000 F8000.0
G0 X26.1617 Y-159.7084 F15000.0
G1 Z11.9000 F8000.0
G1 X26.1617 Y-172.2442 F12000.0
G1 Z0.0000 F8000.0
G0 X26.1617 Y-173.6458 F15000.0
G1 Z11.9000 F8000.0
G1 X26.1617 Y-175.1252 F12000.0
G1 Z0.0000 F8000.0
G0 X26.1617 Y-176.4488 F15000.0
G1 Z11.9000 F8000.0
G1 X26.1617 Y-188.9847 F12000.0
G1 Z0.0000 F8000.0
G0 X26.1617 Y-193.2671 F15000.0
G1 Z11.9000 F8000.0
G1 X26.1617 Y-205.8030 F12000.0
G1 Z0.0000 F8000.0
G0 X26.1617 Y-210.0076 F15000.0
G1 Z11.9000 F8000.0
G1 X26.1617 Y-222.5434 F12000.0
G1 Z0.0000 F8000.0
G0 X26.1617 Y-210.5526 F15000.0
G1 Z11.9000 F8000.0
G1 X26.1617 Y-199.1068 F12000.0
G1 Z0.0000 F8000.0
G0 X26.1617 Y-187.5831 F15000.0
G1 Z11.9000 F8000.0
G1 X26.1617 Y-199.1068 F12000.0
G1 Z0.0000 F8000.0
G0 X14.7159 Y-199.1068 F15000.0
G1 Z11.9000 F8000.0
G1 X26.1617 Y-199.1068 F12000.0
G1 Z0.0000 F8000.0
G0 X37.6854 Y-199.1068 F15000.0
G1 Z11.9000 F8000.0
G1 X26.1617 Y-199.1068 F12000.0
G1 Z0.0000 F8000.0
G0 X32.0793 Y-224.3342 F15000.0
G1 Z11.9000 F8000.0
G1 X31.7678 Y-220.6747 F12000.0
G1 Z0.0000 F8000.0
G0 X20.5556 Y-220.6747 F15000.0
G1 Z11.9000 F8000.0
G1 X20.3220 Y-224.3342 F12000.0
G1 Z0.0000 F8000.0
G0 X18.6091 Y-197.2381 F15000.0
G1 Z11.9000 F8000.0
G1 X19.0763 Y-195.7587 F12000.0
G1 X19.9328 Y-194.4351 F12000.0
G1 X20.9450 Y-193.2671 F12000.0
G1 X22.1907 Y-192.3328 F12000.0
G1 X23.5923 Y-191.7098 F12000.0
G1 X25.1496 Y-191.3205 F12000.0
G1 X26.7068 Y-191.2427 F12000.0
G1 X28.2640 Y-191.5541 F12000.0
G1 X29.6656 Y-192.0992 F12000.0
G1 X30.9893 Y-192.8778 F12000.0
G1 X32.1572 Y-193.9679 F12000.0
G1 X33.0137 Y-195.2915 F12000.0
G1 X33.6365 Y-196.6931 F12000.0
G1 X33.7923 Y-197.2381 F12000.0
G1 Z0.0000 F8000.0
G0 X15.1831 Y-197.2381 F15000.0
G1 Z11.9000 F8000.0
G1 X18.6091 Y-197.2381 F12000.0
G1 Z0.0000 F8000.0
G0 X37.2183 Y-197.2381 F15000.0
G1 Z11.9000 F8000.0
G1 X37.2183 Y-200.8976 F12000.0
G1 X33.7923 Y-200.8976 F12000.0
G1 Z0.0000 F8000.0
G0 X15.1831 Y-200.8976 F15000.0
G1 Z11.9000 F8000.0
G1 X15.1831 Y-197.2381 F12000.0
G1 Z0.0000 F8000.0
G0 X33.7923 Y-197.2381 F15000.0
G1 Z11.9000 F8000.0
G1 X37.2183 Y-197.2381 F12000.0
G1 Z0.0000 F8000.0
G0 X33.7923 Y-200.8976 F15000.0
G1 Z11.9000 F8000.0
G1 X33.2473 Y-202.3771 F12000.0
G1 X32.4686 Y-203.7007 F12000.0
G1 X31.4565 Y-204.8686 F12000.0
G1 X30.1327 Y-205.8030 F12000.0
G1 X28.7312 Y-206.4259 F12000.0
G1 X27.2519 Y-206.8152 F12000.0
G1 X25.6946 Y-206.8930 F12000.0
G1 X24.1373 Y-206.5816 F12000.0
G1 X22.6579 Y-206.0366 F12000.0
G1 X21.3343 Y-205.2579 F12000.0
G1 X20.2442 Y-204.1679 F12000.0
G1 X19.3877 Y-202.8442 F12000.0
G1 X18.7648 Y-201.4427 F12000.0
G1 X18.6091 Y-200.8976 F12000.0
G1 X15.1831 Y-200.8976 F12000.0
G1 Z0.0000 F8000.0
G0 X28.0304 Y-189.6076 F15000.0
G1 Z11.9000 F8000.0
G1 X26.3175 Y-189.4518 F12000.0
G1 X24.6045 Y-189.5297 F12000.0
G1 Z0.0000 F8000.0
G0 X17.9084 Y-144.8367 F15000.0
G1 Z11.9000 F8000.0
G1 X34.4931 Y-144.8367 F12000.0
G1 Z0.0000 F8000.0
G0 X17.9084 Y-163.2122 F15000.0
G1 Z11.9000 F8000.0
G1 X34.4931 Y-163.2122 F12000.0
G1 Z0.0000 F8000.0
G0 X24.3709 Y-169.6748 F15000.0
G1 Z11.9000 F8000.0
G1 X28.0304 Y-169.6748 F12000.0
G1 Z0.0000 F8000.0
G0 X6.8518 Y-176.5267 F15000.0
G1 Z11.9000 F8000.0
G1 X6.8518 Y-172.8671 F12000.0
G1 Z0.0000 F8000.0
G0 X45.4716 Y-176.5267 F15000.0
G1 Z11.9000 F8000.0
G1 X50.0656 Y-176.5267 F12000.0
G1 Z0.0000 F8000.0
G0 X24.3709 Y-189.6076 F15000.0
G1 Z11.9000 F8000.0
G1 X22.6579 Y-190.0748 F12000.0
G1 X21.1007 Y-190.8534 F12000.0
G1 X19.7771 Y-191.8656 F12000.0
G1 X18.5312 Y-193.1114 F12000.0
G1 X17.5969 Y-194.5908 F12000.0
G1 X17.0518 Y-195.8366 F12000.0
G1 Z0.0000 F8000.0
G0 X35.2717 Y-195.8366 F15000.0
G1 Z11.9000 F8000.0
G1 X34.5709 Y-194.2793 F12000.0
G1 X33.5587 Y-192.8778 F12000.0
G1 X32.3129 Y-191.6320 F12000.0
G1 X30.9114 Y-190.6198 F12000.0
G1 X29.3542 Y-189.9190 F12000.0
G1 X28.0304 Y-189.6076 F12000.0
G1 Z0.0000 F8000.0
G0 X17.9084 Y-163.2122 F15000.0
G1 Z11.9000 F8000.0
G1 X17.9084 Y-144.8367 F12000.0
G1 Z0.0000 F8000.0
G0 X34.4931 Y-163.2122 F15000.0
G1 Z11.9000 F8000.0
G1 X34.4931 Y-144.8367 F12000.0
G1 Z0.0000 F8000.0
G0 X17.0518 Y-202.2992 F15000.0
G1 Z11.9000 F8000.0
G1 X13.7816 Y-202.2992 F12000.0
G1 Z0.0000 F8000.0
G0 X6.8518 Y-172.8671 F15000.0
G1 Z11.9000 F8000.0
G1 X13.3144 Y-172.8671 F12000.0
G1 Z0.0000 F8000.0
G0 X45.4716 Y-176.5267 F15000.0
G1 Z11.9000 F8000.0
G1 X45.4716 Y-172.8671 F12000.0
G1 Z0.0000 F8000.0
G0 X13.3144 Y-172.8671 F15000.0
G1 Z11.9000 F8000.0
G1 X13.3144 Y-145.9267 F12000.0
G1 Z0.0000 F8000.0
G0 X38.6198 Y-195.8366 F15000.0
G1 Z11.9000 F8000.0
G1 X38.6198 Y-202.2992 F12000.0
G1 Z0.0000 F8000.0
G0 X24.3709 Y-189.6076 F15000.0
G1 Z11.9000 F8000.0
G1 X24.3709 Y-169.6748 F12000.0
G1 Z0.0000 F8000.0
G0 X2.2580 Y-220.6747 F15000.0
G1 Z11.9000 F8000.0
G1 X2.2580 Y-176.5267 F12000.0
G1 Z0.0000 F8000.0
G0 X39.0870 Y-172.8671 F15000.0
G1 Z11.9000 F8000.0
G1 X39.0870 Y-145.9267 F12000.0
G1 Z0.0000 F8000.0
G0 X28.0304 Y-189.6076 F15000.0
G1 Z11.9000 F8000.0
G1 X28.0304 Y-169.6748 F12000.0
G1 Z0.0000 F8000.0
G0 X13.7816 Y-195.8366 F15000.0
G1 Z11.9000 F8000.0
G1 X17.0518 Y-195.8366 F12000.0
G1 Z0.0000 F8000.0
G0 X17.0518 Y-202.2992 F15000.0
G1 Z11.9000 F8000.0
G1 X17.8305 Y-203.8564 F12000.0
G1 X18.7648 Y-205.2579 F12000.0
G1 X20.0107 Y-206.5037 F12000.0
G1 X21.4900 Y-207.5160 F12000.0
G1 X23.0473 Y-208.2168 F12000.0
G1 X24.6824 Y-208.6060 F12000.0
G1 X26.4732 Y-208.7617 F12000.0
G1 X28.1862 Y-208.5281 F12000.0
G1 X29.8213 Y-207.9832 F12000.0
G1 X31.3786 Y-207.2045 F12000.0
G1 X32.7022 Y-206.1923 F12000.0
G1 X33.8701 Y-204.8686 F12000.0
G1 X34.8045 Y-203.3892 F12000.0
G1 X35.2717 Y-202.2992 F12000.0
G1 Z0.0000 F8000.0
G0 X37.9190 Y-144.8367 F15000.0
G1 Z11.9000 F8000.0
G1 X34.4931 Y-144.8367 F12000.0
G1 Z0.0000 F8000.0
G0 X50.0656 Y-176.5267 F15000.0
G1 Z11.9000 F8000.0
G1 X50.0656 Y-220.6747 F12000.0
G1 Z0.0000 F8000.0
G0 X39.0870 Y-145.9267 F15000.0
G1 Z11.9000 F8000.0
G1 X37.9190 Y-144.8367 F12000.0
G1 Z0.0000 F8000.0
G0 X2.2580 Y-176.5267 F15000.0
G1 Z11.9000 F8000.0
G1 X6.8518 Y-176.5267 F12000.0
G1 Z0.0000 F8000.0
G0 X28.0304 Y-169.6748 F15000.0
G1 Z11.9000 F8000.0
G1 X34.4931 Y-163.2122 F12000.0
G1 Z0.0000 F8000.0
G0 X13.3144 Y-145.9267 F15000.0
G1 Z11.9000 F8000.0
G1 X14.4823 Y-144.8367 F12000.0
G1 Z0.0000 F8000.0
G0 X38.6198 Y-202.2992 F15000.0
G1 Z11.9000 F8000.0
G1 X35.2717 Y-202.2992 F12000.0
G1 Z0.0000 F8000.0
G0 X17.9084 Y-144.8367 F15000.0
G1 Z11.9000 F8000.0
G1 X14.4823 Y-144.8367 F12000.0
G1 Z0.0000 F8000.0
G0 X24.3709 Y-169.6748 F15000.0
G1 Z11.9000 F8000.0
G1 X17.9084 Y-163.2122 F12000.0
G1 Z0.0000 F8000.0
G0 X35.2717 Y-195.8366 F15000.0
G1 Z11.9000 F8000.0
G1 X38.6198 Y-195.8366 F12000.0
G1 Z0.0000 F8000.0
G0 X13.7816 Y-202.2992 F15000.0
G1 Z11.9000 F8000.0
G1 X13.7816 Y-195.8366 F12000.0
G1 Z0.0000 F8000.0
G0 X2.2580 Y-220.6747 F15000.0
G1 Z11.9000 F8000.0
G1 X50.0656 Y-220.6747 F12000.0
G1 Z0.0000 F8000.0
G0 X39.0870 Y-172.8671 F15000.0
G1 Z11.9000 F8000.0
G1 X45.4716 Y-172.8671 F12000.0
G1 Z0.0000 F8000.0
G0 X34.4931 Y-159.5526 F15000.0
G1 Z11.9000 F8000.0
G1 X39.0870 Y-159.5526 F12000.0
G1 Z0.0000 F8000.0
G0 X38.3083 Y-159.5526 F15000.0
G1 Z11.9000 F8000.0
G1 X38.3083 Y-145.2260 F12000.0
G1 Z0.0000 F8000.0
G0 X17.9084 Y-159.5526 F15000.0
G1 Z11.9000 F8000.0
G1 X20.6335 Y-159.5526 F12000.0
G1 Z0.0000 F8000.0
G0 X22.5022 Y-159.5526 F15000.0
G1 Z11.9000 F8000.0
G1 X25.3053 Y-159.5526 F12000.0
G1 Z0.0000 F8000.0
G0 X27.0961 Y-159.5526 F15000.0
G1 Z11.9000 F8000.0
G1 X29.8991 Y-159.5526 F12000.0
G1 Z0.0000 F8000.0
G0 X31.6900 Y-159.5526 F15000.0
G1 Z11.9000 F8000.0
G1 X34.4931 Y-159.5526 F12000.0
G1 Z0.0000 F8000.0
G0 X14.0931 Y-159.5526 F15000.0
G1 Z11.9000 F8000.0
G1 X14.0931 Y-145.2260 F12000.0
G1 Z0.0000 F8000.0
G0 X13.3144 Y-159.5526 F15000.0
G1 Z11.9000 F8000.0
G1 X17.9084 Y-159.5526 F12000.0
G1 Z0.0000 F8000.0
G0 X37.2183 Y-199.7297 F15000.0
G1 Z11.9000 F8000.0
G1 X36.0503 Y-200.8976 F12000.0
G1 Z0.0000 F8000.0
G0 X33.6365 Y-201.3648 F15000.0
G1 Z11.9000 F8000.0
G1 X28.4976 Y-206.5816 F12000.0
G1 Z0.0000 F8000.0
G0 X37.2183 Y-197.7831 F15000.0
G1 Z11.9000 F8000.0
G1 X34.1037 Y-200.8976 F12000.0
G1 Z0.0000 F8000.0
G0 X35.8167 Y-197.2381 F15000.0
G1 Z11.9000 F8000.0
G1 X26.1617 Y-206.8930 F12000.0
G1 Z0.0000 F8000.0
G0 X33.8701 Y-197.2381 F15000.0
G1 Z11.9000 F8000.0
G1 X24.4488 Y-206.6594 F12000.0
G1 Z0.0000 F8000.0
G0 X33.3252 Y-195.8366 F15000.0
G1 Z11.9000 F8000.0
G1 X22.9694 Y-206.1923 F12000.0
G1 Z0.0000 F8000.0
G0 X32.6244 Y-194.5908 F15000.0
G1 Z11.9000 F8000.0
G1 X21.7236 Y-205.4915 F12000.0
G1 Z0.0000 F8000.0
G0 X31.6900 Y-193.5785 F15000.0
G1 Z11.9000 F8000.0
G1 X20.6335 Y-204.6350 F12000.0
G1 Z0.0000 F8000.0
G0 X30.6778 Y-192.6442 F15000.0
G1 Z11.9000 F8000.0
G1 X19.7771 Y-203.5450 F12000.0
G1 Z0.0000 F8000.0
G0 X29.4320 Y-191.9434 F15000.0
G1 Z11.9000 F8000.0
G1 X19.0763 Y-202.2992 F12000.0
G1 Z0.0000 F8000.0
G0 X27.9526 Y-191.4763 F15000.0
G1 Z11.9000 F8000.0
G1 X18.5312 Y-200.8976 F12000.0
G1 Z0.0000 F8000.0
G0 X26.2396 Y-191.2427 F15000.0
G1 Z11.9000 F8000.0
G1 X16.5846 Y-200.8976 F12000.0
G1 Z0.0000 F8000.0
G0 X18.2976 Y-197.2381 F15000.0
G1 Z11.9000 F8000.0
G1 X15.1831 Y-200.3526 F12000.0
G1 Z0.0000 F8000.0
G0 X23.9038 Y-191.5541 F15000.0
G1 Z11.9000 F8000.0
G1 X18.6869 Y-196.8488 F12000.0
G1 Z0.0000 F8000.0
G0 X16.3510 Y-197.2381 F15000.0
G1 Z11.9000 F8000.0
G1 X15.1831 Y-198.4061 F12000.0
G1 Z0.0000 F8000.0
G0 X4.5939 Y-220.6747 F15000.0
G1 Z11.9000 F8000.0
G1 X2.2580 Y-218.3388 F12000.0
G1 Z0.0000 F8000.0
G0 X8.4870 Y-220.6747 F15000.0
G1 Z11.9000 F8000.0
G1 X2.2580 Y-214.4457 F12000.0
G1 Z0.0000 F8000.0
G0 X12.4580 Y-220.6747 F15000.0
G1 Z11.9000 F8000.0
G1 X2.2580 Y-210.5526 F12000.0
G1 Z0.0000 F8000.0
G0 X16.3510 Y-220.6747 F15000.0
G1 Z11.9000 F8000.0
G1 X2.2580 Y-206.6594 F12000.0
G1 Z0.0000 F8000.0
G0 X20.2442 Y-220.6747 F15000.0
G1 Z11.9000 F8000.0
G1 X2.2580 Y-202.7663 F12000.0
G1 Z0.0000 F8000.0
G0 X24.1373 Y-220.6747 F15000.0
G1 Z11.9000 F8000.0
G1 X2.2580 Y-198.8732 F12000.0
G1 Z0.0000 F8000.0
G0 X28.0304 Y-220.6747 F15000.0
G1 Z11.9000 F8000.0
G1 X2.2580 Y-194.9023 F12000.0
G1 Z0.0000 F8000.0
G0 X31.9236 Y-220.6747 F15000.0
G1 Z11.9000 F8000.0
G1 X2.2580 Y-191.0092 F12000.0
G1 Z0.0000 F8000.0
G0 X35.8167 Y-220.6747 F15000.0
G1 Z11.9000 F8000.0
G1 X23.5145 Y-208.3724 F12000.0
G1 Z0.0000 F8000.0
G0 X13.7816 Y-198.6397 F15000.0
G1 Z11.9000 F8000.0
G1 X2.2580 Y-187.1160 F12000.0
G1 Z0.0000 F8000.0
G0 X14.8717 Y-195.8366 F15000.0
G1 Z11.9000 F8000.0
G1 X2.2580 Y-183.2229 F12000.0
G1 Z0.0000 F8000.0
G0 X39.7098 Y-220.6747 F15000.0
G1 Z11.9000 F8000.0
G1 X27.6412 Y-208.6060 F12000.0
G1 Z0.0000 F8000.0
G0 X43.6030 Y-220.6747 F15000.0
G1 Z11.9000 F8000.0
G1 X30.5999 Y-207.6717 F12000.0
G1 Z0.0000 F8000.0
G0 X17.5969 Y-194.6687 F15000.0
G1 Z11.9000 F8000.0
G1 X2.2580 Y-179.3298 F12000.0
G1 Z0.0000 F8000.0
G0 X19.2320 Y-192.4106 F15000.0
G1 Z11.9000 F8000.0
G1 X3.4259 Y-176.5267 F12000.0
G1 Z0.0000 F8000.0
G0 X47.4961 Y-220.6747 F15000.0
G1 Z11.9000 F8000.0
G1 X32.8580 Y-206.0366 F12000.0
G1 Z0.0000 F8000.0
G0 X50.0656 Y-219.3511 F15000.0
G1 Z11.9000 F8000.0
G1 X34.5709 Y-203.8564 F12000.0
G1 Z0.0000 F8000.0
G0 X21.4122 Y-190.6977 F15000.0
G1 Z11.9000 F8000.0
G1 X6.8518 Y-176.1373 F12000.0
G1 Z0.0000 F8000.0
G0 X24.2930 Y-189.6076 F15000.0
G1 Z11.9000 F8000.0
G1 X7.5526 Y-172.8671 F12000.0
G1 Z0.0000 F8000.0
G0 X50.0656 Y-215.4580 F15000.0
G1 Z11.9000 F8000.0
G1 X36.9068 Y-202.2992 F12000.0
G1 Z0.0000 F8000.0
G0 X50.0656 Y-211.5648 F15000.0
G1 Z11.9000 F8000.0
G1 X38.6198 Y-200.0412 F12000.0
G1 Z0.0000 F8000.0
G0 X24.3709 Y-185.7923 F15000.0
G1 Z11.9000 F8000.0
G1 X11.4458 Y-172.8671 F12000.0
G1 Z0.0000 F8000.0
G0 X24.3709 Y-181.8992 F15000.0
G1 Z11.9000 F8000.0
G1 X13.3144 Y-170.8427 F12000.0
G1 Z0.0000 F8000.0
G0 X38.3083 Y-195.8366 F15000.0
G1 Z11.9000 F8000.0
G1 X28.0304 Y-185.5587 F12000.0
G1 Z0.0000 F8000.0
G0 X50.0656 Y-207.6717 F15000.0
G1 Z11.9000 F8000.0
G1 X38.6198 Y-196.1480 F12000.0
G1 Z0.0000 F8000.0
G0 X50.0656 Y-203.7007 F15000.0
G1 Z11.9000 F8000.0
G1 X28.0304 Y-181.6656 F12000.0
G1 Z0.0000 F8000.0
G0 X24.3709 Y-178.0060 F15000.0
G1 Z11.9000 F8000.0
G1 X13.3144 Y-166.9496 F12000.0
G1 Z0.0000 F8000.0
G0 X24.3709 Y-174.1129 F15000.0
G1 Z11.9000 F8000.0
G1 X13.3144 Y-163.0564 F12000.0
G1 Z0.0000 F8000.0
G0 X50.0656 Y-199.8076 F15000.0
G1 Z11.9000 F8000.0
G1 X28.0304 Y-177.7725 F12000.0
G1 Z0.0000 F8000.0
G0 X50.0656 Y-195.9144 F15000.0
G1 Z11.9000 F8000.0
G1 X28.0304 Y-173.8794 F12000.0
G1 Z0.0000 F8000.0
G0 X24.3709 Y-170.2198 F15000.0
G1 Z11.9000 F8000.0
G1 X13.3144 Y-159.1633 F12000.0
G1 Z0.0000 F8000.0
G0 X17.9084 Y-159.8641 F15000.0
G1 Z11.9000 F8000.0
G1 X13.3144 Y-155.2702 F12000.0
G1 Z0.0000 F8000.0
G0 X50.0656 Y-192.0213 F15000.0
G1 Z11.9000 F8000.0
G1 X28.0304 Y-169.9863 F12000.0
G1 Z0.0000 F8000.0
G0 X50.0656 Y-188.1282 F15000.0
G1 Z11.9000 F8000.0
G1 X29.8213 Y-167.8840 F12000.0
G1 Z0.0000 F8000.0
G0 X17.9084 Y-155.9710 F15000.0
G1 Z11.9000 F8000.0
G1 X13.3144 Y-151.3771 F12000.0
G1 Z0.0000 F8000.0
G0 X17.9084 Y-152.0779 F15000.0
G1 Z11.9000 F8000.0
G1 X13.3144 Y-147.4839 F12000.0
G1 Z0.0000 F8000.0
G0 X50.0656 Y-184.2351 F15000.0
G1 Z11.9000 F8000.0
G1 X31.7678 Y-165.9374 F12000.0
G1 Z0.0000 F8000.0
G0 X50.0656 Y-180.3419 F15000.0
G1 Z11.9000 F8000.0
G1 X46.3282 Y-176.5267 F12000.0
G1 Z0.0000 F8000.0
G0 X45.4716 Y-175.7481 F15000.0
G1 Z11.9000 F8000.0
G1 X42.6687 Y-172.8671 F12000.0
G1 Z0.0000 F8000.0
G0 X39.0870 Y-169.2855 F15000.0
G1 Z11.9000 F8000.0
G1 X33.7144 Y-163.9130 F12000.0
G1 Z0.0000 F8000.0
G0 X17.9084 Y-148.1069 F15000.0
G1 Z11.9000 F8000.0
G1 X14.5602 Y-144.8367 F12000.0
G1 Z0.0000 F8000.0
G0 X39.0870 Y-165.3923 F15000.0
G1 Z11.9000 F8000.0
G1 X34.4931 Y-160.7984 F12000.0
G1 Z0.0000 F8000.0
G0 X39.0870 Y-161.4992 F15000.0
G1 Z11.9000 F8000.0
G1 X34.4931 Y-156.9053 F12000.0
G1 Z0.0000 F8000.0
G0 X39.0870 Y-157.6061 F15000.0
G1 Z11.9000 F8000.0
G1 X34.4931 Y-153.0122 F12000.0
G1 Z0.0000 F8000.0
G0 X39.0870 Y-153.7130 F15000.0
G1 Z11.9000 F8000.0
G1 X34.4931 Y-149.1191 F12000.0
G1 Z0.0000 F8000.0
G0 X39.0870 Y-149.8198 F15000.0
G1 Z11.9000 F8000.0
G1 X34.4931 Y-145.1481 F12000.0
G1 Z0.0000 F8000.0
G0 X27.8526 Y-129.2767 F15000.0
G1 Z11.9000 F8000.0
G1 X24.2577 Y-129.2767 F12000.0
G1 Z0.0000 F8000.0
G0 X0.0000 Y-226.9595 F15000.0
G1 Z11.9000 F8000.0
G1 X0.0000 Y-283.9770 F12000.0
G1 X174.7310 Y-283.9770 F12000.0
G1 Z0.0000 F8000.0
G0 X170.1296 Y-233.3663 F15000.0
G1 Z11.9000 F8000.0
G1 X0.0000 Y-233.3663 F12000.0
G1 Z0.0000 F8000.0
G0 X170.1296 Y-242.5541 F15000.0
G1 Z11.9000 F8000.0
G1 X110.3311 Y-242.5541 F12000.0
G1 Z0.0000 F8000.0
G0 X170.1296 Y-247.1480 F15000.0
G1 Z11.9000 F8000.0
G1 X110.3311 Y-247.1480 F12000.0
G1 Z0.0000 F8000.0
G0 X170.1296 Y-260.9296 F15000.0
G1 Z11.9000 F8000.0
G1 X110.3311 Y-260.9296 F12000.0
G1 Z0.0000 F8000.0
G0 X170.1296 Y-265.6014 F15000.0
G1 Z11.9000 F8000.0
G1 X110.3311 Y-265.6014 F12000.0
G1 Z0.0000 F8000.0
G0 X170.1296 Y-270.1953 F15000.0
G1 Z11.9000 F8000.0
G1 X110.3311 Y-270.1953 F12000.0
G1 Z0.0000 F8000.0
G0 X170.1296 Y-274.7892 F15000.0
G1 Z11.9000 F8000.0
G1 X110.3311 Y-274.7892 F12000.0
G1 Z0.0000 F8000.0
G0 X170.1296 Y-279.3830 F15000.0
G1 Z11.9000 F8000.0
G1 X110.3311 Y-279.3830 F12000.0
G1 Z0.0000 F8000.0
G0 X170.1296 Y-283.9770 F15000.0
G1 Z11.9000 F8000.0
G1 X170.1296 Y-233.3663 F12000.0
G1 Z0.0000 F8000.0
G0 X170.1296 Y-237.9602 F15000.0
G1 Z11.9000 F8000.0
G1 X110.3311 Y-237.9602 F12000.0
G1 Z0.0000 F8000.0
G0 X154.4792 Y-283.9770 F15000.0
G1 Z11.9000 F8000.0
G1 X154.4792 Y-233.3663 F12000.0
G1 Z0.0000 F8000.0
G0 X133.3006 Y-283.9770 F15000.0
G1 Z11.9000 F8000.0
G1 X133.3006 Y-233.3663 F12000.0
G1 Z0.0000 F8000.0
G0 X119.5189 Y-283.9770 F15000.0
G1 Z11.9000 F8000.0
G1 X119.5189 Y-233.3663 F12000.0
G1 Z0.0000 F8000.0
G0 X110.3311 Y-283.9770 F15000.0
G1 Z11.9000 F8000.0
G1 X110.3311 Y-233.3663 F12000.0
G1 Z0.0000 F8000.0
G0 X45.9388 Y-283.9770 F15000.0
G1 Z11.9000 F8000.0
G1 X45.9388 Y-247.1480 F12000.0
G1 Z0.0000 F8000.0
G0 X32.1572 Y-265.6014 F15000.0
G1 Z11.9000 F8000.0
G1 X32.1572 Y-247.1480 F12000.0
G1 Z0.0000 F8000.0
G0 X16.5068 Y-265.6014 F15000.0
G1 Z11.9000 F8000.0
G1 X16.5068 Y-247.1480 F12000.0
G1 Z0.0000 F8000.0
G0 X170.1296 Y-251.7419 F15000.0
G1 Z11.9000 F8000.0
G1 X110.3311 Y-251.7419 F12000.0
G1 Z0.0000 F8000.0
G0 X170.1296 Y-256.3357 F15000.0
G1 Z11.9000 F8000.0
G1 X110.3311 Y-256.3357 F12000.0
G1 Z0.0000 F8000.0
G0 X45.9388 Y-270.1953 F15000.0
G1 Z11.9000 F8000.0
G1 X0.0000 Y-270.1953 F12000.0
G1 Z0.0000 F8000.0
G0 X32.1572 Y-251.7419 F15000.0
G1 Z11.9000 F8000.0
G1 X0.0000 Y-251.7419 F12000.0
G1 Z0.0000 F8000.0
G0 X45.9388 Y-251.7419 F15000.0
G1 Z11.9000 F8000.0
G1 X32.1572 Y-251.7419 F12000.0
G1 Z0.0000 F8000.0
G0 X110.3311 Y-247.1480 F15000.0
G1 Z11.9000 F8000.0
G1 X0.0000 Y-247.1480 F12000.0
G1 Z0.0000 F8000.0
G0 X110.3311 Y-270.1953 F15000.0
G1 Z11.9000 F8000.0
G1 X45.9388 Y-270.1953 F12000.0
G1 Z0.0000 F8000.0
G0 X45.9388 Y-265.6014 F15000.0
G1 Z11.9000 F8000.0
G1 X0.0000 Y-265.6014 F12000.0
G1 Z0.0000 F8000.0
G0 X27.0183 Y-270.1953 F15000.0
G1 Z11.9000 F8000.0
G1 X27.0183 Y-265.6014 F12000.0
G1 Z0.0000 F8000.0
G0 X41.3449 Y-265.6014 F15000.0
G1 Z11.9000 F8000.0
G1 X41.3449 Y-251.7419 F12000.0
G1 Z0.0000 F8000.0
G0 X36.7511 Y-265.6014 F15000.0
G1 Z11.9000 F8000.0
G1 X36.7511 Y-251.7419 F12000.0
G1 Z0.0000 F8000.0
G0 X163.6669 Y-256.3357 F15000.0
G1 Z11.9000 F8000.0
G1 X163.6669 Y-233.3663 F12000.0
G1 Z0.0000 F8000.0
G0 X132.7043 Y-37.1555 F15000.0
G1 Z11.9000 F8000.0
G1 X131.2439 Y-36.8760 F12000.0
G1 X132.3386 Y-41.2040
G1 X132.1907 Y-41.2933
G1 X130.6811 Y-41.4778
G1 Z0.0000 F8000.0
G0 X63.4849 Y-236.8272 F15000.0
G1 Z11.9000 F8000.0
G1 X65.0270 Y-240.4100 F12000.0
G1 X64.9665 Y-238.9220
G1 Z0.0000 F8000.0
G0 X60.7770 Y-236.9116 F15000.0
G1 Z11.9000 F8000.0
G1 X59.8703 Y-241.4211 F12000.0
G1 X60.9127 Y-236.9656
G1 X60.7770 Y-236.9116
G1 Z0.0000 F8000.0
G0 X55.6169 Y-236.9116 F15000.0
G1 Z11.9000 F8000.0
G1 X54.7101 Y-241.4211 F12000.0
G1 X55.7525 Y-236.9656
G1 X55.6169 Y-236.9116
G1 Z0.0000 F8000.0
G0 X51.9895 Y-236.9116 F15000.0
G1 Z11.9000 F8000.0
G1 X51.0827 Y-241.4211 F12000.0
G1 X52.1250 Y-236.9656
G1 X51.9895 Y-236.9116
G1 Z0.0000 F8000.0
G0 X46.8292 Y-236.9116 F15000.0
G1 Z11.9000 F8000.0
G1 X45.9225 Y-241.4211 F12000.0
G1 X46.9648 Y-236.9656
G1 X46.8292 Y-236.9116
G1 Z0.0000 F8000.0
G0 X43.2018 Y-236.9116 F15000.0
G1 Z11.9000 F8000.0
G1 X42.2950 Y-241.4211 F12000.0
G1 X43.3374 Y-236.9656
G1 X43.2018 Y-236.9116
G1 Z0.0000 F8000.0
G0 X35.0783 Y-236.8782 F15000.0
G1 Z11.9000 F8000.0
G1 X35.0783 Y-241.5276 F12000.0
G1 Z0.0000 F8000.0
G0 X32.2173 Y-238.3088 F15000.0
G1 Z11.9000 F8000.0
G1 X31.8827 Y-241.3436 F12000.0
G1 X33.3450 Y-236.9554
G1 X33.3042 Y-236.8987
G1 X31.4508 Y-236.8782
G1 Z0.0000 F8000.0
G0 X69.5647 Y-236.9116 F15000.0
G1 Z11.9000 F8000.0
G1 X68.6580 Y-241.4211 F12000.0
G1 X69.7003 Y-236.9656
G1 X69.5647 Y-236.9116
G1 Z0.0000 F8000.0
G0 X73.1921 Y-236.9116 F15000.0
G1 Z11.9000 F8000.0
G1 X72.2854 Y-241.4211 F12000.0
G1 X73.3278 Y-236.9656
G1 X73.1921 Y-236.9116
G1 Z0.0000 F8000.0
G0 X75.3379 Y-238.5643 F15000.0
G1 Z11.9000 F8000.0
G1 X75.3206 Y-239.4786 F12000.0
G1 X77.4327 Y-238.5643
G1 Z0.0000 F8000.0
G0 X79.1187 Y-237.6447 F15000.0
G1 Z11.9000 F8000.0
G1 X78.9700 Y-238.8305 F12000.0
G1 X78.9654 Y-241.3743
G1 Z0.0000 F8000.0
G0 X82.0820 Y-241.3743 F15000.0
G1 Z11.9000 F8000.0
G1 X82.0798 Y-238.8637 F12000.0
G1 X81.9903 Y-237.6723
G1 X82.0370 Y-237.0450
G1 X80.0238 Y-238.5501
G1 X78.9654 Y-236.9804
G1 Z0.0000 F8000.0
G0 X75.3379 Y-240.0459 F15000.0
G1 Z11.9000 F8000.0
G1 X75.3379 Y-241.3232 F12000.0
G1 Z0.0000 F8000.0
G0 X41.9981 Y-249.1600 F15000.0
G1 Z11.9000 F8000.0
G1 X40.9092 Y-247.8053 F12000.0
G1 X40.8741 Y-249.1600
G1 Z0.0000 F8000.0
G0 X40.2098 Y-247.9849 F15000.0
G1 Z11.9000 F8000.0
G1 X39.7125 Y-249.1763 F12000.0
G1 X39.2902 Y-247.9338
G1 Z0.0000 F8000.0
G0 X38.6260 Y-249.1090 F15000.0
G1 Z11.9000 F8000.0
G1 X38.0456 Y-247.9372 F12000.0
G1 X37.2466 Y-249.1090
G1 Z0.0000 F8000.0
G0 X37.9107 Y-249.1600 F15000.0
G1 Z11.9000 F8000.0
G1 X37.9107 Y-247.9338 F12000.0
G1 Z0.0000 F8000.0
G0 X29.2047 Y-247.7137 F15000.0
G1 Z11.9000 F8000.0
G1 X28.2069 Y-248.5091 F12000.0
G1 X27.7021 Y-247.8386
G1 X27.6209 Y-249.8595
G1 Z0.0000 F8000.0
G0 X29.2047 Y-249.8084 F15000.0
G1 Z11.9000 F8000.0
G1 X29.2047 Y-248.1735 F12000.0
G1 Z0.0000 F8000.0
G0 X25.9805 Y-249.8002 F15000.0
G1 Z11.9000 F8000.0
G1 X26.5458 Y-248.4158 F12000.0
G1 X26.5005 Y-248.5265
G1 Z0.0000 F8000.0
G0 X25.6795 Y-249.8595 F15000.0
G1 Z11.9000 F8000.0
G1 X25.3445 Y-249.9597 F12000.0
G1 X24.2873 Y-249.9433
G1 X24.2225 Y-249.8885
G1 X24.1979 Y-248.3778
G1 Z0.0000 F8000.0
G0 X22.6140 Y-248.3778 F15000.0
G1 Z11.9000 F8000.0
G1 X22.6140 Y-249.9616 F12000.0
G1 Z0.0000 F8000.0
G0 X20.9735 Y-249.8002 F15000.0
G1 Z11.9000 F8000.0
G1 X21.5388 Y-248.4158 F12000.0
G1 X21.4937 Y-248.5265
G1 Z0.0000 F8000.0
G0 X20.6725 Y-249.8595 F15000.0
G1 Z11.9000 F8000.0
G1 X20.4682 Y-249.9616 F12000.0
G1 Z0.0000 F8000.0
G0 X2.4674 Y-248.5406 F15000.0
G1 Z11.9000 F8000.0
G1 X2.4118 Y-250.0371 F12000.0
G1 X2.5666 Y-247.7980
G1 X2.4224 Y-247.7137
G1 X1.9054 Y-247.7232
G1 Z0.0000 F8000.0
G0 X3.8468 Y-249.9201 F15000.0
G1 Z11.9000 F8000.0
G1 X4.5550 Y-248.6763 F12000.0
G1 X3.5914 Y-250.1244
G1 Z0.0000 F8000.0
G0 X5.6861 Y-250.0733 F15000.0
G1 Z11.9000 F8000.0
G1 X6.8621 Y-248.6117 F12000.0
G1 X7.2206 Y-249.8696
G1 X7.2026 Y-250.0405
G1 X6.5559 Y-249.9929
G1 X6.5036 Y-248.5917
G1 Z0.0000 F8000.0
G0 X8.0874 Y-248.5917 F15000.0
G1 Z11.9000 F8000.0
G1 X8.0676 Y-249.6151 F12000.0
G1 X9.5778 Y-248.6103
G1 X8.9448 Y-248.6776
G1 X8.9048 Y-250.0733
G1 Z0.0000 F8000.0
G0 X10.5398 Y-250.1244 F15000.0
G1 Z11.9000 F8000.0
G1 X10.5398 Y-248.5406 F12000.0
G1 Z0.0000 F8000.0
G0 X11.8171 Y-250.1244 F15000.0
G1 Z11.9000 F8000.0
G1 X12.7795 Y-248.6778 F12000.0
G1 X12.0724 Y-249.9201
G1 Z0.0000 F8000.0
G0 X13.9117 Y-250.0733 F15000.0
G1 Z11.9000 F8000.0
G1 X13.9846 Y-247.8537 F12000.0
G1 X14.9298 Y-248.6674
G1 X15.4813 Y-247.9669
G1 X15.4956 Y-250.0733
G1 Z0.0000 F8000.0
G0 X89.4852 Y-251.3941 F15000.0
G1 Z11.9000 F8000.0
G1 X91.3293 Y-250.7054 F12000.0
G1 X89.5771 Y-251.3692
G1 X91.3244 Y-251.3941
G1 Z0.0000 F8000.0
G0 X87.4415 Y-252.2626 F15000.0
G1 Z11.9000 F8000.0
G1 X85.6518 Y-251.7351 F12000.0
G1 X87.3656 Y-252.9084
G1 X85.5970 Y-253.7125
G1 X84.1959 Y-253.6236
G1 X84.1227 Y-253.4527
G1 X84.1206 Y-250.9853
G1 Z0.0000 F8000.0
G0 X84.0695 Y-252.3137 F15000.0
G1 Z11.9000 F8000.0
G1 X82.2813 Y-252.3137 F12000.0
G1 Z0.0000 F8000.0
G0 X82.2302 Y-253.6420 F15000.0
G1 Z11.9000 F8000.0
G1 X82.2302 Y-250.9853 F12000.0
G1 Z0.0000 F8000.0
G0 X79.4202 Y-250.9342 F15000.0
G1 Z11.9000 F8000.0
G1 X79.4202 Y-253.7442 F12000.0
G1 Z0.0000 F8000.0
G0 X80.7997 Y-253.6420 F15000.0
G1 Z11.9000 F8000.0
G1 X77.9479 Y-252.0819 F12000.0
G1 X77.9897 Y-253.6420
G1 Z0.0000 F8000.0
G0 X76.5591 Y-250.9853 F15000.0
G1 Z11.9000 F8000.0
G1 X74.6822 Y-253.2345 F12000.0
G1 X74.6688 Y-250.9853
G1 Z0.0000 F8000.0
G0 X73.2382 Y-253.6932 F15000.0
G1 Z11.9000 F8000.0
G1 X71.3514 Y-251.3558 F12000.0
G1 X71.3478 Y-253.6420
G1 Z0.0000 F8000.0
G0 X69.8662 Y-252.3137 F15000.0
G1 Z11.9000 F8000.0
G1 X69.9173 Y-250.9853 F12000.0
G1 Z0.0000 F8000.0
G0 X146.1549 Y-252.3417 F15000.0
G1 Z11.9000 F8000.0
G1 X145.6686 Y-254.2923 F12000.0
G1 X145.7844 Y-253.0845
G1 X144.5292 Y-253.1165
G1 X144.4146 Y-253.2816
G1 X144.1373 Y-254.2969
G1 X144.4031 Y-253.1273
G1 X143.1758 Y-253.1537
G1 X143.1348 Y-254.2494
G1 X143.0123 Y-253.7799
G1 X142.3431 Y-253.1763
G1 X142.6824 Y-253.7379
G1 X142.2296 Y-254.4116
G1 X141.4013 Y-255.0666
G1 X141.3169 Y-255.0488
G1 X140.6246 Y-253.0674
G1 X139.1371 Y-253.2811
G1 X138.9357 Y-253.2439
G1 X138.8201 Y-253.1303
G1 X138.7978 Y-254.3342
G1 Z0.0000 F8000.0
G0 X139.9218 Y-254.3342 F15000.0
G1 Z11.9000 F8000.0
G1 X139.9218 Y-253.4146 F12000.0
G1 Z0.0000 F8000.0
G0 X140.6881 Y-254.4364 F15000.0
G1 Z11.9000 F8000.0
G1 X140.8808 Y-254.3558 F12000.0
G1 X141.5056 Y-253.1081
G1 Z0.0000 F8000.0
G0 X148.6884 Y-252.5654 F15000.0
G1 Z11.9000 F8000.0
G1 X148.7245 Y-253.0066 F12000.0
G1 X148.6787 Y-252.4463
G1 X148.6884 Y-252.5654
G1 Z0.0000 F8000.0
G0 X149.2204 Y-252.3928 F15000.0
G1 Z11.9000 F8000.0
G1 X149.2287 Y-254.2463 F12000.0
G1 X149.4324 Y-253.8127
G1 X150.3276 Y-252.5280
G1 X150.3443 Y-254.3342
G1 Z0.0000 F8000.0
G0 X129.8895 Y-254.2321 F15000.0
G1 Z11.9000 F8000.0
G1 X129.5422 Y-252.3999 F12000.0
G1 X128.7857 Y-253.0094
G1 X128.7655 Y-254.2831
G1 Z0.0000 F8000.0
G0 X127.5129 Y-254.2167 F15000.0
G1 Z11.9000 F8000.0
G1 X127.8428 Y-253.0438 F12000.0
G1 X127.7781 Y-253.2740
G1 Z0.0000 F8000.0
G0 X126.4664 Y-252.3417 F15000.0
G1 Z11.9000 F8000.0
G1 X126.0068 Y-254.2330 F12000.0
G1 X125.7511 Y-253.0059
G1 Z0.0000 F8000.0
G0 X125.0358 Y-254.2321 F15000.0
G1 Z11.9000 F8000.0
G1 X124.6649 Y-253.0644 F12000.0
G1 X124.1673 Y-254.1809
G1 Z0.0000 F8000.0
G0 X162.1930 Y-254.1763 F15000.0
G1 Z11.9000 F8000.0
G1 X161.2444 Y-252.3389 F12000.0
G1 X161.1307 Y-252.7397
G1 X161.0885 Y-253.9422
G1 X160.4682 Y-253.0228
G1 X159.5952 Y-253.6438
G1 X159.5088 Y-252.9670
G1 X158.3711 Y-252.8577
G1 X158.4750 Y-253.0315
G1 X158.2092 Y-254.1321
G1 X157.6727 Y-254.0011
G1 X157.0750 Y-252.9244
G1 X156.3176 Y-254.0742
G1 Z0.0000 F8000.0
G0 X156.9817 Y-254.0742 F15000.0
G1 Z11.9000 F8000.0
G1 X156.9817 Y-252.8991 F12000.0
G1 Z0.0000 F8000.0
G0 X164.7986 Y-253.2567 F15000.0
G1 Z11.9000 F8000.0
G1 X164.8000 Y-253.9250 F12000.0
G1 X164.8815 Y-253.1497
G1 X165.7685 Y-253.0845
G1 X165.8613 Y-253.2582
G1 X165.8716 Y-254.0230
G1 Z0.0000 F8000.0
G0 X166.6890 Y-253.5122 F15000.0
G1 Z11.9000 F8000.0
G1 X167.0082 Y-253.4456 F12000.0
G1 X167.2734 Y-253.0250
G1 X167.0335 Y-254.0743
G1 X167.3022 Y-254.0742
G1 Z0.0000 F8000.0
G0 X167.9663 Y-254.0230 F15000.0
G1 Z11.9000 F8000.0
G1 X168.0539 Y-252.8308 F12000.0
G1 X168.0084 Y-252.3683
G1 X169.0072 Y-253.9406
G1 X168.9489 Y-253.5306
G1 X169.0393 Y-252.3371
G1 Z0.0000 F8000.0
G0 X118.6241 Y-254.2075 F15000.0
G1 Z11.9000 F8000.0
G1 X118.3113 Y-252.3835 F12000.0
G1 X118.3495 Y-254.2556
G1 X118.7898 Y-254.3514
G1 X117.7794 Y-254.2764
G1 X117.5512 Y-254.3608
G1 Z0.0000 F8000.0
G0 X116.0184 Y-254.0542 F15000.0
G1 Z11.9000 F8000.0
G1 X115.7411 Y-254.2262 F12000.0
G1 X115.4106 Y-254.1475
G1 X114.7626 Y-253.0197
G1 X114.0259 Y-254.1053
G1 Z0.0000 F8000.0
G0 X114.6901 Y-254.1053 F15000.0
G1 Z11.9000 F8000.0
G1 X114.6901 Y-252.9814 F12000.0
G1 Z0.0000 F8000.0
G0 X113.1500 Y-252.9827 F15000.0
G1 Z11.9000 F8000.0
G1 X112.7280 Y-254.1190 F12000.0
G1 X113.1065 Y-253.0641
G1 X112.2888 Y-254.2586
G1 Z0.0000 F8000.0
G0 X116.2533 Y-254.1190 F15000.0
G1 Z11.9000 F8000.0
G1 X116.6753 Y-252.9827 F12000.0
G1 X116.6337 Y-253.0948
G1 Z0.0000 F8000.0
G0 X7.6460 Y-256.4613 F15000.0
G1 Z11.9000 F8000.0
G1 X6.7350 Y-256.2789 F12000.0
G1 X7.4239 Y-258.9022
G1 X6.2665 Y-259.1282
G1 Z0.0000 F8000.0
G0 X8.5656 Y-258.3925 F15000.0
G1 Z11.9000 F8000.0
G1 X8.7495 Y-258.3925 F12000.0
G1 Z0.0000 F8000.0
G0 X9.6692 Y-259.1282 F15000.0
G1 Z11.9000 F8000.0
G1 X9.7945 Y-256.5122 F12000.0
G1 X10.3129 Y-256.8291
G1 Z0.0000 F8000.0
G0 X8.7495 Y-257.0130 F15000.0
G1 Z11.9000 F8000.0
G1 X8.5656 Y-257.0130 F12000.0
G1 Z0.0000 F8000.0
G0 X169.2900 Y-256.3361 F15000.0
G1 Z11.9000 F8000.0
G1 X168.2525 Y-255.8727 F12000.0
G1 X169.2900 Y-257.1536
G1 Z0.0000 F8000.0
G0 X166.6333 Y-257.2046 F15000.0
G1 Z11.9000 F8000.0
G1 X167.1249 Y-256.0323 F12000.0
G1 X166.4781 Y-257.1305
G1 X166.2198 Y-257.2936
G1 X165.6656 Y-257.2286
G1 X165.8810 Y-256.1095
G1 X165.5115 Y-256.6077
G1 X165.1921 Y-256.6560
G1 X164.4627 Y-257.1927
G1 X164.0177 Y-255.9957
G1 X164.4364 Y-257.8177
G1 Z0.0000 F8000.0
G0 X161.9840 Y-257.2046 F15000.0
G1 Z11.9000 F8000.0
G1 X162.4757 Y-256.0323 F12000.0
G1 X161.7286 Y-257.3068
G1 Z0.0000 F8000.0
G0 X160.7578 Y-255.8252 F15000.0
G1 Z11.9000 F8000.0
G1 X161.0007 Y-257.1796 F12000.0
G1 X161.0442 Y-255.4041
G1 X160.8962 Y-255.3052
G1 X160.3492 Y-255.2632
G1 Z0.0000 F8000.0
G0 X149.2096 Y-256.9398 F15000.0
G1 Z11.9000 F8000.0
G1 X148.6938 Y-259.0084 F12000.0
G1 X148.3610 Y-257.6942
G1 X147.4581 Y-257.7359
G1 X146.9912 Y-258.9883
G1 X147.4158 Y-257.7076
G1 Z0.0000 F8000.0
G0 X145.9398 Y-259.0857 F15000.0
G1 Z11.9000 F8000.0
G1 X145.2688 Y-257.8729 F12000.0
G1 X145.9398 Y-259.7499
G1 Z0.0000 F8000.0
G0 X143.6165 Y-258.9965 F15000.0
G1 Z11.9000 F8000.0
G1 X144.0439 Y-257.7076 F12000.0
G1 X144.0063 Y-257.8211
G1 Z0.0000 F8000.0
G0 X142.5168 Y-257.7063 F15000.0
G1 Z11.9000 F8000.0
G1 X142.2120 Y-257.6257 F12000.0
G1 X142.3830 Y-257.0696
G1 X141.8799 Y-258.9802
G1 X142.4070 Y-256.9934
G1 Z0.0000 F8000.0
G0 X139.4512 Y-256.9910 F15000.0
G1 Z11.9000 F8000.0
G1 X139.4512 Y-259.0346 F12000.0
G1 Z0.0000 F8000.0
G0 X139.3491 Y-257.9106 F15000.0
G1 Z11.9000 F8000.0
G1 X138.3273 Y-256.9910 F12000.0
G1 Z0.0000 F8000.0
G0 X139.0426 Y-257.8084 F15000.0
G1 Z11.9000 F8000.0
G1 X138.2761 Y-259.0857 F12000.0
G1 Z0.0000 F8000.0
G0 X136.8456 Y-257.9106 F15000.0
G1 Z11.9000 F8000.0
G1 X135.9770 Y-257.9106 F12000.0
G1 Z0.0000 F8000.0
G0 X135.7602 Y-258.7587 F15000.0
G1 Z11.9000 F8000.0
G1 X136.8148 Y-256.9924 F12000.0
G1 X136.6310 Y-257.3003
G1 Z0.0000 F8000.0
G0 X150.0782 Y-259.1368 F15000.0
G1 Z11.9000 F8000.0
G1 X150.9978 Y-258.3704 F12000.0
G1 Z0.0000 F8000.0
G0 X152.5816 Y-259.0346 F15000.0
G1 Z11.9000 F8000.0
G1 X152.6082 Y-257.0602 F12000.0
G1 X152.9805 Y-257.3773
G1 X152.1514 Y-258.4525
G1 X153.0413 Y-257.3865
G1 Z0.0000 F8000.0
G0 X106.3627 Y-264.3148 F15000.0
G1 Z11.9000 F8000.0
G1 X106.3627 Y-259.8188 F12000.0
G1 Z0.0000 F8000.0
G0 X103.6038 Y-261.1982 F15000.0
G1 Z11.9000 F8000.0
G1 X102.7986 Y-263.4835 F12000.0
G1 X104.0746 Y-259.8705
G1 X102.8375 Y-259.8188
G1 Z0.0000 F8000.0
G0 X100.6405 Y-261.3338 F15000.0
G1 Z11.9000 F8000.0
G1 X99.7382 Y-264.1972 F12000.0
G1 X100.7764 Y-261.3888
G1 X100.6405 Y-261.3338
G1 Z0.0000 F8000.0
G0 X97.6773 Y-264.2636 F15000.0
G1 Z11.9000 F8000.0
G1 X97.3211 Y-261.3581 F12000.0
G1 X95.8182 Y-263.6864
G1 X95.8204 Y-263.7792
G1 X97.6773 Y-265.5921
G1 Z0.0000 F8000.0
G0 X93.5900 Y-261.3338 F15000.0
G1 Z11.9000 F8000.0
G1 X92.6876 Y-264.1972 F12000.0
G1 X93.7258 Y-261.3888
G1 X93.5900 Y-261.3338
G1 Z0.0000 F8000.0
G0 X90.6267 Y-261.4537 F15000.0
G1 Z11.9000 F8000.0
G1 X88.6853 Y-262.8332 F12000.0
G1 Z0.0000 F8000.0
G0 X88.6341 Y-264.1615 F15000.0
G1 Z11.9000 F8000.0
G1 X88.5985 Y-261.4486 F12000.0
G1 X87.1365 Y-261.4990
G1 X87.1015 Y-264.1104
G1 Z0.0000 F8000.0
G0 X87.0503 Y-262.8332 F15000.0
G1 Z11.9000 F8000.0
G1 X85.1600 Y-262.8332 F12000.0
G1 Z0.0000 F8000.0
G0 X85.1089 Y-264.1615 F15000.0
G1 Z11.9000 F8000.0
G1 X85.0732 Y-261.4486 F12000.0
G1 X83.5822 Y-261.4888
G1 X82.4149 Y-262.9844
G1 X83.5251 Y-262.8332
G1 Z0.0000 F8000.0
G0 X81.0727 Y-264.1104 F15000.0
G1 Z11.9000 F8000.0
G1 X81.0419 Y-261.5111 F12000.0
G1 X79.7848 Y-261.4551
G1 X79.5708 Y-261.5086
G1 X77.6040 Y-263.8053
G1 X77.5985 Y-261.4537
G1 Z0.0000 F8000.0
G0 X78.2116 Y-259.8188 F15000.0
G1 Z11.9000 F8000.0
G1 X79.0802 Y-259.8188 F12000.0
G1 Z0.0000 F8000.0
G0 X73.0514 Y-261.4537 F15000.0
G1 Z11.9000 F8000.0
G1 X71.1100 Y-262.8332 F12000.0
G1 Z0.0000 F8000.0
G0 X71.0589 Y-264.1615 F15000.0
G1 Z11.9000 F8000.0
G1 X71.0589 Y-261.4026 F12000.0
G1 Z0.0000 F8000.0
G0 X69.5262 Y-262.7820 F15000.0
G1 Z11.9000 F8000.0
G1 X67.6309 Y-262.2037 F12000.0
G1 X69.4547 Y-263.4352
G1 X67.6884 Y-264.2801
G1 X66.0513 Y-264.2335
G1 X65.6062 Y-261.3799
G1 X64.1358 Y-263.7630
G1 X66.0009 Y-265.5921
G1 Z0.0000 F8000.0
G0 X62.4756 Y-264.1104 F15000.0
G1 Z11.9000 F8000.0
G1 X62.0950 Y-261.3384 F12000.0
G1 X59.5124 Y-264.2636
G1 Z0.0000 F8000.0
G0 X60.9940 Y-264.1615 F15000.0
G1 Z11.9000 F8000.0
G1 X60.9940 Y-261.3515 F12000.0
G1 Z0.0000 F8000.0
G0 X57.9796 Y-262.7820 F15000.0
G1 Z11.9000 F8000.0
G1 X56.0844 Y-262.2037 F12000.0
G1 X57.9083 Y-263.4351
G1 X56.1422 Y-264.2799
G1 X54.5357 Y-264.2058
G1 X54.4855 Y-261.3871
G1 X54.4283 Y-261.3288
G1 X53.0609 Y-261.4410
G1 X53.0238 Y-264.1615
G1 Z0.0000 F8000.0
G0 X53.5347 Y-262.7820 F15000.0
G1 Z11.9000 F8000.0
G1 X52.5129 Y-262.7820 F12000.0
G1 Z0.0000 F8000.0
G0 X51.5421 Y-261.3004 F15000.0
G1 Z11.9000 F8000.0
G1 X51.5421 Y-264.2636 F12000.0
G1 Z0.0000 F8000.0
G0 X169.3227 Y-261.5176 F15000.0
G1 Z11.9000 F8000.0
G1 X168.9754 Y-259.6854 F12000.0
G1 X168.3525 Y-260.1206
G1 X168.2189 Y-260.2950
G1 X168.1377 Y-261.5393
G1 X167.5902 Y-261.5412
G1 X167.1946 Y-260.3688
G1 X167.5345 Y-262.1819
G1 Z0.0000 F8000.0
G0 X165.7433 Y-260.3294 F15000.0
G1 Z11.9000 F8000.0
G1 X165.4133 Y-261.5023 F12000.0
G1 X165.6767 Y-260.3574
G1 X164.0215 Y-260.3371
G1 X163.9715 Y-261.5283
G1 X164.2771 Y-259.7720
G1 X164.0092 Y-260.2403
G1 Z0.0000 F8000.0
G0 X153.6889 Y-261.7727 F15000.0
G1 Z11.9000 F8000.0
G1 X153.3654 Y-259.6988 F12000.0
G1 X152.5197 Y-261.6769
G1 X151.6718 Y-262.4765
G1 X150.8331 Y-261.8991
G1 X150.2586 Y-261.7545
G1 X149.8331 Y-261.7517
G1 X150.1125 Y-260.4444
G1 Z0.0000 F8000.0
G0 X150.7767 Y-260.3421 F15000.0
G1 Z11.9000 F8000.0
G1 X150.7935 Y-261.2517 F12000.0
G1 X151.7474 Y-260.3421
G1 Z0.0000 F8000.0
G0 X149.7548 Y-261.0574 F15000.0
G1 Z11.9000 F8000.0
G1 X149.4039 Y-260.9942 F12000.0
G1 X148.2742 Y-260.4640
G1 X147.7911 Y-261.6901
G1 X148.2676 Y-260.3946
G1 Z0.0000 F8000.0
G0 X147.5068 Y-261.6194 F15000.0
G1 Z11.9000 F8000.0
G1 X147.3088 Y-261.7427 F12000.0
G1 X146.8652 Y-261.7482
G1 X146.8101 Y-261.6837
G1 X146.7898 Y-260.4384
G1 X146.7198 Y-260.9872
G1 X145.9751 Y-261.0883
G1 X145.8294 Y-261.6833
G1 X145.7900 Y-260.4009
G1 X144.9105 Y-260.4076
G1 X144.4737 Y-261.6897
G1 X144.8473 Y-260.3860
G1 Z0.0000 F8000.0
G0 X143.4196 Y-260.2911 F15000.0
G1 Z11.9000 F8000.0
G1 X142.8616 Y-260.0735 F12000.0
G1 X143.0028 Y-261.7377
G1 X142.8375 Y-260.4101
G1 X142.6574 Y-260.3517
G1 X141.7047 Y-260.3898
G1 X141.5172 Y-260.4699
G1 X141.0519 Y-261.6771
G1 X141.5236 Y-260.3946
G1 Z0.0000 F8000.0
G0 X140.7628 Y-261.6194 F15000.0
G1 Z11.9000 F8000.0
G1 X140.5585 Y-261.7727 F12000.0
G1 Z0.0000 F8000.0
G0 X168.6379 Y-266.2617 F15000.0
G1 Z11.9000 F8000.0
G1 X167.5651 Y-266.2617 F12000.0
G1 Z0.0000 F8000.0
G0 X168.0759 Y-266.3127 F15000.0
G1 Z11.9000 F8000.0
G1 X168.0759 Y-268.1009 F12000.0
G1 Z0.0000 F8000.0
G0 X166.2367 Y-268.1009 F15000.0
G1 Z11.9000 F8000.0
G1 X166.2280 Y-267.0106 F12000.0
G1 X166.1129 Y-267.4745
G1 X165.4752 Y-266.9844
G1 X165.8326 Y-267.4914
G1 X165.4192 Y-268.1520
G1 Z0.0000 F8000.0
G0 X164.4941 Y-266.9272 F15000.0
G1 Z11.9000 F8000.0
G1 X164.1220 Y-268.0552 F12000.0
G1 X164.4465 Y-266.9971
G1 X164.3992 Y-266.9447
G1 X163.2503 Y-266.9483
G1 X163.1919 Y-267.0093
G1 X163.1687 Y-268.0085
G1 X163.0864 Y-267.5790
G1 X162.4273 Y-267.5625
G1 X162.3073 Y-268.0164
G1 X162.2630 Y-266.9635
G1 X161.0208 Y-266.9609
G1 X160.9743 Y-268.1009
G1 Z0.0000 F8000.0
G0 X161.6385 Y-268.1009 F15000.0
G1 Z11.9000 F8000.0
G1 X161.0850 Y-266.9596 F12000.0
G1 X160.3153 Y-268.0497
G1 X159.7656 Y-268.1231
G1 X159.6429 Y-267.9713
G1 X159.3161 Y-266.9484
G1 X159.6970 Y-268.7651
G1 Z0.0000 F8000.0
G0 X44.0229 Y-267.9397 F15000.0
G1 Z11.9000 F8000.0
G1 X42.8307 Y-266.1979 F12000.0
G1 X42.7968 Y-267.9908
G1 Z0.0000 F8000.0
G0 X42.0815 Y-266.5603 F15000.0
G1 Z11.9000 F8000.0
G1 X41.0318 Y-267.5021 F12000.0
G1 X41.0597 Y-266.5603
G1 Z0.0000 F8000.0
G0 X39.5780 Y-266.5091 F15000.0
G1 Z11.9000 F8000.0
G1 X39.5483 Y-268.0297 F12000.0
G1 X39.3690 Y-268.0657
G1 X38.8024 Y-267.9644
G1 X38.3813 Y-266.5643
G1 X37.2279 Y-267.9908
G1 Z0.0000 F8000.0
G0 X37.9942 Y-267.9908 F15000.0
G1 Z11.9000 F8000.0
G1 X37.9942 Y-266.5603 F12000.0
G1 Z0.0000 F8000.0
G0 X24.5861 Y-267.9579 F15000.0
G1 Z11.9000 F8000.0
G1 X23.3938 Y-266.2161 F12000.0
G1 X23.3599 Y-268.0090
G1 Z0.0000 F8000.0
G0 X22.6446 Y-266.5785 F15000.0
G1 Z11.9000 F8000.0
G1 X21.5949 Y-267.5203 F12000.0
G1 X21.6228 Y-266.5785
G1 Z0.0000 F8000.0
G0 X20.1411 Y-266.5273 F15000.0
G1 Z11.9000 F8000.0
G1 X20.1114 Y-268.0479 F12000.0
G1 X19.9321 Y-268.0838
G1 X19.3655 Y-267.9826
G1 X18.9444 Y-266.5825
G1 X17.7910 Y-268.0090
G1 Z0.0000 F8000.0
G0 X18.5574 Y-268.0090 F15000.0
G1 Z11.9000 F8000.0
G1 X18.5574 Y-266.5785 F12000.0
G1 Z0.0000 F8000.0
G0 X16.3428 Y-267.9254 F15000.0
G1 Z11.9000 F8000.0
G1 X16.8180 Y-266.5798 F12000.0
G1 X16.7782 Y-266.6926
G1 Z0.0000 F8000.0
G0 X15.2875 Y-266.6295 F15000.0
G1 Z11.9000 F8000.0
G1 X14.6958 Y-266.1979 F12000.0
G1 X14.9183 Y-267.9896
G1 X14.7766 Y-266.5273
G1 Z0.0000 F8000.0
G0 X5.4152 Y-266.7570 F15000.0
G1 Z11.9000 F8000.0
G1 X5.0831 Y-266.6196 F12000.0
G1 X4.9554 Y-268.1364
G1 Z0.0000 F8000.0
G0 X34.2408 Y-277.6839 F15000.0
G1 Z11.9000 F8000.0
G1 X32.0020 Y-274.0869 F12000.0
G1 X31.9928 Y-277.6329
G1 Z0.0000 F8000.0
G0 X29.5404 Y-277.6329 F15000.0
G1 Z11.9000 F8000.0
G1 X29.5409 Y-274.8832 F12000.0
G1 X29.6862 Y-273.7518
G1 X30.5662 Y-273.6547
G1 X28.4675 Y-273.6478
G1 Z0.0000 F8000.0
G0 X27.0881 Y-276.3556 F15000.0
G1 Z11.9000 F8000.0
G1 X25.3510 Y-276.3556 F12000.0
G1 Z0.0000 F8000.0
G0 X23.9715 Y-277.6839 F15000.0
G1 Z11.9000 F8000.0
G1 X22.4682 Y-275.8393 F12000.0
G1 X22.4797 Y-275.6311
G1 X23.2586 Y-273.6126
G1 X22.2344 Y-273.6478
G1 Z0.0000 F8000.0
G0 X20.8550 Y-274.5674 F15000.0
G1 Z11.9000 F8000.0
G1 X20.1064 Y-274.1357 F12000.0
G1 X19.9910 Y-275.1634
G1 X19.9865 Y-277.5817
G1 Z0.0000 F8000.0
G0 X18.0961 Y-277.6839 F15000.0
G1 Z11.9000 F8000.0
G1 X17.0234 Y-276.1019 F12000.0
G1 X16.8591 Y-275.9872
G1 X15.4874 Y-276.3452
G1 X13.7534 Y-276.3556
G1 Z0.0000 F8000.0
G0 X12.3739 Y-277.6839 F15000.0
G1 Z11.9000 F8000.0
G1 X10.6865 Y-274.5678 F12000.0
G1 X12.3739 Y-273.6478
G1 Z0.0000 F8000.0
G0 X11.9141 Y-275.4359 F15000.0
G1 Z11.9000 F8000.0
G1 X11.0966 Y-275.4359 F12000.0
G1 Z0.0000 F8000.0
G0 X169.3226 Y-275.3552 F15000.0
G1 Z11.9000 F8000.0
G1 X169.3211 Y-277.2076 F12000.0
G1 X169.2174 Y-276.3063
G1 X168.3161 Y-276.2482
G1 X168.2403 Y-276.0756
G1 X168.2010 Y-275.4342
G1 X168.1700 Y-277.2337
G1 X167.9925 Y-277.2953
G1 X166.9429 Y-277.2717
G1 X166.8599 Y-276.1643
G1 X166.7556 Y-276.6544
G1 X166.0599 Y-276.1374
G1 X166.4113 Y-276.6682
G1 X166.0017 Y-277.3478
G1 Z0.0000 F8000.0
G0 X165.0254 Y-276.0573 F15000.0
G1 Z11.9000 F8000.0
G1 X164.6972 Y-277.2671 F12000.0
G1 X164.9820 Y-276.1317
G1 X164.9345 Y-276.0772
G1 X163.6878 Y-276.1134
G1 X163.6489 Y-277.2098
G1 X163.5793 Y-276.7511
G1 X162.8599 Y-276.6242
G1 X162.7851 Y-276.0578
G1 X162.7817 Y-277.1920
G1 X162.7211 Y-277.3612
G1 X162.0739 Y-277.2472
G1 X161.5212 Y-276.1122
G1 X160.7394 Y-277.2455
G1 Z0.0000 F8000.0
G0 X161.4035 Y-277.2966 F15000.0
G1 Z11.9000 F8000.0
G1 X161.4035 Y-276.0705 F12000.0
G1 Z0.0000 F8000.0
G0 X160.0241 Y-277.3478 F15000.0
G1 Z11.9000 F8000.0
G1 X159.6427 Y-276.0948 F12000.0
G1 X160.0241 Y-277.9608
G1 Z0.0000 F8000.0
G0 X165.2315 Y-277.9868 F15000.0
G1 Z11.9000 F8000.0
G1 X164.7628 Y-279.7303 F12000.0
G1 X165.1973 Y-278.0757
G1 X165.0628 Y-278.5286
G1 X165.2969 Y-278.5963
G1 Z0.0000 F8000.0
G0 X166.0121 Y-279.7713 F15000.0
G1 Z11.9000 F8000.0
G1 X166.7710 Y-278.6205 F12000.0
G1 X167.2855 Y-279.7139
G1 X166.7095 Y-279.7198
G1 X166.6763 Y-278.5963
G1 Z0.0000 F8000.0
G0 X168.0047 Y-279.0561 F15000.0
G1 Z11.9000 F8000.0
G1 X168.8732 Y-279.8736 F12000.0
G1 Z0.0000 F8000.0
G0 X169.0776 Y-277.9832 F15000.0
G1 Z11.9000 F8000.0
G1 X168.5078 Y-278.9222 F12000.0
G1 X168.0047 Y-277.9832
G1 Z0.0000 F8000.0

G0 Z0.0000 F800.0
G4 P0.06
G0 X0.0000 Y0.0000 F15000.0
M5
G4 P0.10
$1=0
