$X
$1=255
G21
G90
G92 Z4.0000
G0 Z0.0000 F800.0
G4 P0.06
G92 Z0.0000
G0 Z0.0000 F800.0
G0 X0.0000 Y0.0000 F15000.0
G21
G90
G17
G91.1
G0 Z0.0000
G0 X63.6181 Y-139.8168 F15000.0
G1 Z11.9000 F8000.0
G1 X63.7853 Y-139.9004 F12000.0
G1 Z0.0000 F8000.0
G0 X64.3705 Y-139.2734 F15000.0
G1 Z11.9000 F8000.0
G1 X63.9525 Y-140.0258 F12000.0
G1 X65.0811 Y-143.0355
G1 Z0.0000 F8000.0
G0 X64.4959 Y-139.2316 F15000.0
G1 Z11.9000 F8000.0
G1 X65.1647 Y-139.2734 F12000.0
G1 Z0.0000 F8000.0
G0 X64.6213 Y-142.2831 F15000.0
G1 Z11.9000 F8000.0
G1 X66.7950 Y-142.0323 F12000.0
G1 Z0.0000 F8000.0
G0 X65.3319 Y-143.3282 F15000.0
G1 Z11.9000 F8000.0
G1 X65.6245 Y-143.6208 F12000.0
G1 Z0.0000 F8000.0
G0 X65.6664 Y-139.8168 F15000.0
G1 Z11.9000 F8000.0
G1 X66.2934 Y-141.8233 F12000.0
G1 Z0.0000 F8000.0
G0 X65.8336 Y-143.8298 F15000.0
G1 Z11.9000 F8000.0
G1 X65.9172 Y-143.9134 F12000.0
G1 Z0.0000 F8000.0
G0 X66.2098 Y-144.2478 F15000.0
G1 Z11.9000 F8000.0
G1 X66.3351 Y-144.3732 F12000.0
G1 Z0.0000 F8000.0
G0 X90.4583 Y-256.4419 F15000.0
G1 Z11.9000 F8000.0
G1 X89.9568 Y-256.9853 F12000.0
G1 X90.1239 Y-258.3648
G1 Z0.0000 F8000.0
G0 X90.3747 Y-258.6156 F15000.0
G1 Z11.9000 F8000.0
G1 X90.5420 Y-258.7829 F12000.0
G1 Z0.0000 F8000.0
G0 X90.6256 Y-256.5255 F15000.0
G1 Z11.9000 F8000.0
G1 X91.0436 Y-256.7346 F12000.0
G1 Z0.0000 F8000.0
G0 X90.7510 Y-258.9501 F15000.0
G1 Z11.9000 F8000.0
G1 X90.9181 Y-259.1172 F12000.0
G1 Z0.0000 F8000.0
G0 X91.3780 Y-256.9017 F15000.0
G1 Z11.9000 F8000.0
G1 X91.7542 Y-257.0689 F12000.0
G1 Z0.0000 F8000.0
G0 X92.3813 Y-257.5706 F15000.0
G1 Z11.9000 F8000.0
G1 X92.2976 Y-259.4516 F12000.0
G1 X91.5034 Y-259.6189
G1 X92.0887 Y-261.2491
G1 Z0.0000 F8000.0
G0 X92.2976 Y-261.7507 F15000.0
G1 Z11.9000 F8000.0
G1 X92.3394 Y-261.9180 F12000.0
G1 Z0.0000 F8000.0
G0 X92.3813 Y-259.4935 F15000.0
G1 Z11.9000 F8000.0
G1 X92.7157 Y-260.2041 F12000.0
G1 Z0.0000 F8000.0
G0 X92.8829 Y-260.5385 F15000.0
G1 Z11.9000 F8000.0
G1 X92.8829 Y-262.4614 F12000.0
G1 Z0.0000 F8000.0
G0 X73.5308 Y-256.9232 F15000.0
G1 Z11.9000 F8000.0
G1 X73.6979 Y-257.0905 F12000.0
G1 Z0.0000 F8000.0
G0 X75.2028 Y-258.6789 F15000.0
G1 Z11.9000 F8000.0
G1 X73.5726 Y-259.5149 F12000.0
G1 X74.1996 Y-261.4796
G1 Z0.0000 F8000.0
G0 X74.3668 Y-257.8011 F15000.0
G1 Z11.9000 F8000.0
G1 X74.7430 Y-258.1773 F12000.0
G1 Z0.0000 F8000.0
G0 X74.7012 Y-261.9812 F15000.0
G1 Z11.9000 F8000.0
G1 X75.1192 Y-261.9394 F12000.0
G1 Z0.0000 F8000.0
G0 X75.3282 Y-259.0551 F15000.0
G1 Z11.9000 F8000.0
G1 X75.5372 Y-261.6050 F12000.0
G1 Z0.0000 F8000.0
G0 X39.9057 Y-256.4216 F15000.0
G1 Z11.9000 F8000.0
G1 X40.5745 Y-258.1773 F12000.0
G1 Z0.0000 F8000.0
G0 X40.3237 Y-261.1870 F15000.0
G1 Z11.9000 F8000.0
G1 X40.6581 Y-261.3542 F12000.0
G1 Z0.0000 F8000.0
G0 X40.6999 Y-258.5117 F15000.0
G1 Z11.9000 F8000.0
G1 X40.7835 Y-258.7624 F12000.0
G1 Z0.0000 F8000.0
G0 X40.9089 Y-259.0969 F15000.0
G1 Z11.9000 F8000.0
G1 X40.9507 Y-259.2223 F12000.0
G1 Z0.0000 F8000.0
G0 X40.9925 Y-261.5214 F15000.0
G1 Z11.9000 F8000.0
G1 X41.2852 Y-261.6468 F12000.0
G1 Z0.0000 F8000.0
G0 X41.2852 Y-260.1419 F15000.0
G1 Z11.9000 F8000.0
G1 X41.3269 Y-260.2673 F12000.0
G1 Z0.0000 F8000.0
G0 X41.6614 Y-261.1870 F15000.0
G1 Z11.9000 F8000.0
G1 X41.9122 Y-261.8140 F12000.0
G1 Z0.0000 F8000.0
G0 X41.7867 Y-256.4216 F15000.0
G1 Z11.9000 F8000.0
G1 X43.5007 Y-257.0486 F12000.0
G1 Z0.0000 F8000.0
G0 X42.8736 Y-260.4345 F15000.0
G1 Z11.9000 F8000.0
G1 X41.9122 Y-256.7560 F12000.0
G1 Z0.0000 F8000.0
G0 X43.0408 Y-260.9362 F15000.0
G1 Z11.9000 F8000.0
G1 X44.0858 Y-262.0648 F12000.0
G1 X45.1309 Y-261.5214
G1 X43.8350 Y-257.2158
G1 Z0.0000 F8000.0
G0 X54.1699 Y-256.4268 F15000.0
G1 Z11.9000 F8000.0
G1 X54.8388 Y-258.1825 F12000.0
G1 Z0.0000 F8000.0
G0 X54.5880 Y-261.1922 F15000.0
G1 Z11.9000 F8000.0
G1 X54.9224 Y-261.3595 F12000.0
G1 Z0.0000 F8000.0
G0 X54.9642 Y-258.5170 F15000.0
G1 Z11.9000 F8000.0
G1 X55.0478 Y-258.7678 F12000.0
G1 Z0.0000 F8000.0
G0 X55.1731 Y-259.1022 F15000.0
G1 Z11.9000 F8000.0
G1 X55.2150 Y-259.2276 F12000.0
G1 Z0.0000 F8000.0
G0 X55.2567 Y-261.5267 F15000.0
G1 Z11.9000 F8000.0
G1 X55.5494 Y-261.6520 F12000.0
G1 Z0.0000 F8000.0
G0 X55.5494 Y-260.1472 F15000.0
G1 Z11.9000 F8000.0
G1 X55.5912 Y-260.2726 F12000.0
G1 Z0.0000 F8000.0
G0 X55.6330 Y-257.7227 F15000.0
G1 Z11.9000 F8000.0
G1 X56.3437 Y-258.5170 F12000.0
G1 Z0.0000 F8000.0
G0 X55.9256 Y-261.1922 F15000.0
G1 Z11.9000 F8000.0
G1 X56.1764 Y-261.8193 F12000.0
G1 Z0.0000 F8000.0
G0 X56.0092 Y-257.8481 F15000.0
G1 Z11.9000 F8000.0
G1 X57.7231 Y-257.6810 F12000.0
G1 X57.8903 Y-258.1408
G1 Z0.0000 F8000.0
G0 X56.5109 Y-258.8095 F15000.0
G1 Z11.9000 F8000.0
G1 X56.7616 Y-259.1858 F12000.0
G1 Z0.0000 F8000.0
G0 X56.9707 Y-256.3015 F15000.0
G1 Z11.9000 F8000.0
G1 X57.5558 Y-257.6391 F12000.0
G1 Z0.0000 F8000.0
G0 X57.0124 Y-259.6038 F15000.0
G1 Z11.9000 F8000.0
G1 X57.5141 Y-260.3980 F12000.0
G1 Z0.0000 F8000.0
G0 X57.7231 Y-257.6810 F15000.0
G1 Z11.9000 F8000.0
G1 X58.4755 Y-257.4301 F12000.0
G1 Z0.0000 F8000.0
G0 X57.7649 Y-260.8161 F15000.0
G1 Z11.9000 F8000.0
G1 X57.9739 Y-261.1505 F12000.0
G1 Z0.0000 F8000.0
G0 X58.0993 Y-258.5170 F15000.0
G1 Z11.9000 F8000.0
G1 X58.3501 Y-259.0186 F12000.0
G1 Z0.0000 F8000.0
G0 X58.1411 Y-261.4431 F15000.0
G1 Z11.9000 F8000.0
G1 X58.3919 Y-261.8193 F12000.0
G1 Z0.0000 F8000.0
G0 X58.5592 Y-262.1119 F15000.0
G1 Z11.9000 F8000.0
G1 X58.6428 Y-262.2373 F12000.0
G1 Z0.0000 F8000.0
G0 X20.0413 Y-227.7033 F15000.0
G1 Z11.9000 F8000.0
G1 X22.0477 Y-233.0958 F12000.0
G1 Z0.0000 F8000.0
G0 X20.4593 Y-232.4269 F15000.0
G1 Z11.9000 F8000.0
G1 X21.6298 Y-233.0122 F12000.0
G1 Z0.0000 F8000.0
G0 X21.2535 Y-227.7451 F15000.0
G1 Z11.9000 F8000.0
G1 X23.1764 Y-228.1213 F12000.0
G1 Z0.0000 F8000.0
G0 X23.3436 Y-228.3304 F15000.0
G1 Z11.9000 F8000.0
G1 X23.4272 Y-228.4140 F12000.0
G1 Z0.0000 F8000.0
G0 X23.6362 Y-228.6648 F15000.0
G1 Z11.9000 F8000.0
G1 X24.8067 Y-232.7613 F12000.0
G1 Z0.0000 F8000.0
G0 X23.7198 Y-233.6392 F15000.0
G1 Z11.9000 F8000.0
G1 X24.5559 Y-232.6777 F12000.0
G1 Z0.0000 F8000.0
G0 X134.8844 Y-267.4245 F15000.0
G1 Z11.9000 F8000.0
G1 X135.8458 Y-269.6400 F12000.0
G1 Z0.0000 F8000.0
G0 X139.3989 Y-267.3409 F15000.0
G1 Z11.9000 F8000.0
G1 X138.5211 Y-269.9326 F12000.0
G1 X136.0966 Y-269.9326
G1 X137.3924 Y-274.6144
G1 Z0.0000 F8000.0
G0 X138.7302 Y-270.1416 F15000.0
G1 Z11.9000 F8000.0
G1 X137.7687 Y-275.8684 F12000.0
G1 Z0.0000 F8000.0
G0 X134.8844 Y-160.0082 F15000.0
G1 Z11.9000 F8000.0
G1 X135.8458 Y-162.2237 F12000.0
G1 Z0.0000 F8000.0
G0 X139.3989 Y-159.9246 F15000.0
G1 Z11.9000 F8000.0
G1 X138.5211 Y-162.5162 F12000.0
G1 X136.0966 Y-162.5162
G1 X137.3924 Y-167.1981
G1 Z0.0000 F8000.0
G0 X138.7302 Y-162.7252 F15000.0
G1 Z11.9000 F8000.0
G1 X137.7687 Y-168.4521 F12000.0
G1 Z0.0000 F8000.0
G0 X116.3121 Y-93.9198 F15000.0
G1 Z11.9000 F8000.0
G1 X116.3957 Y-94.0452 F12000.0
G1 Z0.0000 F8000.0
G0 X116.6465 Y-94.4633 F15000.0
G1 Z11.9000 F8000.0
G1 X116.8972 Y-94.8395 F12000.0
G1 Z0.0000 F8000.0
G0 X116.7300 Y-97.6820 F15000.0
G1 Z11.9000 F8000.0
G1 X116.8972 Y-97.7656 F12000.0
G1 Z0.0000 F8000.0
G0 X117.2317 Y-95.3829 F15000.0
G1 Z11.9000 F8000.0
G1 X117.4407 Y-95.6754 F12000.0
G1 Z0.0000 F8000.0
G0 X117.3153 Y-98.0164 F15000.0
G1 Z11.9000 F8000.0
G1 X119.0710 Y-98.0582 F12000.0
G1 Z0.0000 F8000.0
G0 X117.6915 Y-96.0935 F15000.0
G1 Z11.9000 F8000.0
G1 X117.9841 Y-96.5533 F12000.0
G1 Z0.0000 F8000.0
G0 X118.1931 Y-96.8877 F15000.0
G1 Z11.9000 F8000.0
G1 X118.5276 Y-97.3894 F12000.0
G1 Z0.0000 F8000.0
G0 X118.3185 Y-94.0452 F15000.0
G1 Z11.9000 F8000.0
G1 X119.9906 Y-93.7526 F12000.0
G1 Z0.0000 F8000.0
G0 X118.5693 Y-94.2542 F15000.0
G1 Z11.9000 F8000.0
G1 X118.5693 Y-94.1288 F12000.0
G1 Z0.0000 F8000.0
G0 X118.6529 Y-94.3797 F15000.0
G1 Z11.9000 F8000.0
G1 X119.3635 Y-95.2575 F12000.0
G1 Z0.0000 F8000.0
G0 X118.7365 Y-97.7237 F15000.0
G1 Z11.9000 F8000.0
G1 X118.8201 Y-97.9328 F12000.0
G1 Z0.0000 F8000.0
G0 X119.8233 Y-95.8427 F15000.0
G1 Z11.9000 F8000.0
G1 X120.8267 Y-98.2671 F12000.0
G1 Z0.0000 F8000.0
G0 X30.0187 Y-201.9709 F15000.0
G1 Z11.9000 F8000.0
G1 X48.2385 Y-201.9709 F12000.0
G1 Z0.0000 F8000.0
G0 X49.5623 Y-201.9709 F15000.0
G1 Z11.9000 F8000.0
G1 X51.0416 Y-201.9709 F12000.0
G1 Z0.0000 F8000.0
G0 X52.3653 Y-201.9709 F15000.0
G1 Z11.9000 F8000.0
G1 X70.5851 Y-201.9709 F12000.0
G1 Z0.0000 F8000.0
G0 X71.9866 Y-201.9709 F15000.0
G1 Z11.9000 F8000.0
G1 X73.3881 Y-201.9709 F12000.0
G1 Z0.0000 F8000.0
G0 X74.7896 Y-201.9709 F15000.0
G1 Z11.9000 F8000.0
G1 X93.0095 Y-201.9709 F12000.0
G1 Z0.0000 F8000.0
G0 X94.4110 Y-201.9709 F15000.0
G1 Z11.9000 F8000.0
G1 X95.8125 Y-201.9709 F12000.0
G1 Z0.0000 F8000.0
G0 X97.2141 Y-201.9709 F15000.0
G1 Z11.9000 F8000.0
G1 X115.4339 Y-201.9709 F12000.0
G1 Z0.0000 F8000.0
G0 X116.8354 Y-201.9709 F15000.0
G1 Z11.9000 F8000.0
G1 X118.2370 Y-201.9709 F12000.0
G1 Z0.0000 F8000.0
G0 X119.6385 Y-201.9709 F15000.0
G1 Z11.9000 F8000.0
G1 X137.8583 Y-201.9709 F12000.0
G1 Z0.0000 F8000.0
G0 X139.2599 Y-201.9709 F15000.0
G1 Z11.9000 F8000.0
G1 X140.6614 Y-201.9709 F12000.0
G1 Z0.0000 F8000.0
G0 X141.9850 Y-201.9709 F15000.0
G1 Z11.9000 F8000.0
G1 X160.2827 Y-201.9709 F12000.0
G1 Z0.0000 F8000.0
G0 X161.6064 Y-201.9709 F15000.0
G1 Z11.9000 F8000.0
G1 X163.0079 Y-201.9709 F12000.0
G1 Z0.0000 F8000.0
G0 X164.4094 Y-201.9709 F15000.0
G1 Z11.9000 F8000.0
G1 X180.0000 Y-201.9709 F12000.0
G1 Z0.0000 F8000.0
G0 X62.1759 Y-215.8305 F15000.0
G1 Z11.9000 F8000.0
G1 X98.0705 Y-215.8305 F12000.0
G1 X98.0705 Y-214.8961 F12000.0
G1 Z0.0000 F8000.0
G0 X62.9546 Y-188.1892 F15000.0
G1 Z11.9000 F8000.0
G1 X98.3041 Y-188.1892 F12000.0
G1 X98.3041 Y-189.1236 F12000.0
G1 Z0.0000 F8000.0
G0 X127.1133 Y-256.2411 F15000.0
G1 Z11.9000 F8000.0
G1 X127.1133 Y-247.7541 F12000.0
G1 Z0.0000 F8000.0
G0 X127.1133 Y-246.3526 F15000.0
G1 Z11.9000 F8000.0
G1 X127.1133 Y-244.9511 F12000.0
G1 Z0.0000 F8000.0
G0 X127.1133 Y-243.5495 F15000.0
G1 Z11.9000 F8000.0
G1 X127.1133 Y-235.0625 F12000.0
G1 Z0.0000 F8000.0
G0 X127.0354 Y-233.6610 F15000.0
G1 Z11.9000 F8000.0
G1 X127.0354 Y-232.2594 F12000.0
G1 Z0.0000 F8000.0
G0 X127.0354 Y-230.8579 F15000.0
G1 Z11.9000 F8000.0
G1 X127.0354 Y-222.3709 F12000.0
G1 Z0.0000 F8000.0
G0 X127.0354 Y-220.9694 F15000.0
G1 Z11.9000 F8000.0
G1 X127.0354 Y-219.4900 F12000.0
G1 Z0.0000 F8000.0
G0 X127.0354 Y-218.1664 F15000.0
G1 Z11.9000 F8000.0
G1 X127.0354 Y-209.6793 F12000.0
G1 Z0.0000 F8000.0
G0 X42.8660 Y-145.9100 F15000.0
G1 Z11.9000 F8000.0
G1 X44.2675 Y-144.5084 F12000.0
G1 Z0.0000 F8000.0
G0 X43.0218 Y-147.7787 F15000.0
G1 Z11.9000 F8000.0
G1 X46.2141 Y-144.5084 F12000.0
G1 Z0.0000 F8000.0
G0 X44.9683 Y-147.7787 F15000.0
G1 Z11.9000 F8000.0
G1 X48.1607 Y-144.5084 F12000.0
G1 Z0.0000 F8000.0
G0 X46.9149 Y-147.7787 F15000.0
G1 Z11.9000 F8000.0
G1 X48.3943 Y-146.2992 F12000.0
G1 Z0.0000 F8000.0
G0 X42.8660 Y-157.6671 F15000.0
G1 Z11.9000 F8000.0
G1 X43.5668 Y-156.9664 F12000.0
G1 Z0.0000 F8000.0
G0 X42.8660 Y-159.6137 F15000.0
G1 Z11.9000 F8000.0
G1 X45.5134 Y-156.9664 F12000.0
G1 Z0.0000 F8000.0
G0 X42.8660 Y-161.5603 F15000.0
G1 Z11.9000 F8000.0
G1 X47.4600 Y-156.9664 F12000.0
G1 Z0.0000 F8000.0
G0 X42.8660 Y-163.5068 F15000.0
G1 Z11.9000 F8000.0
G1 X48.3943 Y-157.9786 F12000.0
G1 Z0.0000 F8000.0
G0 X42.8660 Y-165.4534 F15000.0
G1 Z11.9000 F8000.0
G1 X48.3943 Y-159.9252 F12000.0
G1 Z0.0000 F8000.0
G0 X42.8660 Y-167.4000 F15000.0
G1 Z11.9000 F8000.0
G1 X48.3943 Y-161.8717 F12000.0
G1 Z0.0000 F8000.0
G0 X42.8660 Y-169.3465 F15000.0
G1 Z11.9000 F8000.0
G1 X48.3943 Y-163.8183 F12000.0
G1 Z0.0000 F8000.0
G0 X42.8660 Y-171.2931 F15000.0
G1 Z11.9000 F8000.0
G1 X48.3943 Y-165.7649 F12000.0
G1 Z0.0000 F8000.0
G0 X42.8660 Y-173.2396 F15000.0
G1 Z11.9000 F8000.0
G1 X48.3943 Y-167.7114 F12000.0
G1 Z0.0000 F8000.0
G0 X42.8660 Y-175.1862 F15000.0
G1 Z11.9000 F8000.0
G1 X48.3943 Y-169.6580 F12000.0
G1 Z0.0000 F8000.0
G0 X42.8660 Y-177.1328 F15000.0
G1 Z11.9000 F8000.0
G1 X48.3943 Y-171.6046 F12000.0
G1 Z0.0000 F8000.0
G0 X42.8660 Y-179.0793 F15000.0
G1 Z11.9000 F8000.0
G1 X48.3943 Y-173.5511 F12000.0
G1 Z0.0000 F8000.0
G0 X42.8660 Y-181.0259 F15000.0
G1 Z11.9000 F8000.0
G1 X48.3943 Y-175.4977 F12000.0
G1 Z0.0000 F8000.0
G0 X42.8660 Y-182.9725 F15000.0
G1 Z11.9000 F8000.0
G1 X48.3943 Y-177.4442 F12000.0
G1 Z0.0000 F8000.0
G0 X42.8660 Y-184.9190 F15000.0
G1 Z11.9000 F8000.0
G1 X48.3943 Y-179.4687 F12000.0
G1 Z0.0000 F8000.0
G0 X42.8660 Y-186.8656 F15000.0
G1 Z11.9000 F8000.0
G1 X48.3943 Y-181.4152 F12000.0
G1 Z0.0000 F8000.0
G0 X42.8660 Y-188.8122 F15000.0
G1 Z11.9000 F8000.0
G1 X48.3943 Y-183.3618 F12000.0
G1 Z0.0000 F8000.0
G0 X42.8660 Y-190.8366 F15000.0
G1 Z11.9000 F8000.0
G1 X48.3943 Y-185.3084 F12000.0
G1 Z0.0000 F8000.0
G0 X40.9973 Y-192.6274 F15000.0
G1 Z11.9000 F8000.0
G1 X41.7760 Y-191.9266 F12000.0
G1 Z0.0000 F8000.0
G0 X40.9973 Y-194.5740 F15000.0
G1 Z11.9000 F8000.0
G1 X48.3943 Y-187.2549 F12000.0
G1 Z0.0000 F8000.0
G0 X41.0752 Y-196.5206 F15000.0
G1 Z11.9000 F8000.0
G1 X48.3943 Y-189.2015 F12000.0
G1 Z0.0000 F8000.0
G0 X43.0218 Y-196.5206 F15000.0
G1 Z11.9000 F8000.0
G1 X48.3943 Y-191.1481 F12000.0
G1 Z0.0000 F8000.0
G0 X44.9683 Y-196.5206 F15000.0
G1 Z11.9000 F8000.0
G1 X48.3943 Y-193.0946 F12000.0
G1 Z0.0000 F8000.0
G0 X46.9149 Y-196.5206 F15000.0
G1 Z11.9000 F8000.0
G1 X48.3943 Y-195.0412 F12000.0
G1 Z0.0000 F8000.0
G0 X40.9973 Y-208.2778 F15000.0
G1 Z11.9000 F8000.0
G1 X41.7760 Y-207.4991 F12000.0
G1 Z0.0000 F8000.0
G0 X40.9973 Y-210.2244 F15000.0
G1 Z11.9000 F8000.0
G1 X43.7226 Y-207.4991 F12000.0
G1 Z0.0000 F8000.0
G0 X41.0752 Y-212.0931 F15000.0
G1 Z11.9000 F8000.0
G1 X45.6691 Y-207.4991 F12000.0
G1 Z0.0000 F8000.0
G0 X43.0218 Y-212.0931 F15000.0
G1 Z11.9000 F8000.0
G1 X47.6157 Y-207.4991 F12000.0
G1 Z0.0000 F8000.0
G0 X44.9683 Y-212.0931 F15000.0
G1 Z11.9000 F8000.0
G1 X48.3943 Y-208.6671 F12000.0
G1 Z0.0000 F8000.0
G0 X46.9149 Y-212.0931 F15000.0
G1 Z11.9000 F8000.0
G1 X48.3943 Y-210.6137 F12000.0
G1 Z0.0000 F8000.0
G0 X114.9667 Y-190.9145 F15000.0
G1 Z11.9000 F8000.0
G1 X116.6797 Y-189.1236 F12000.0
G1 Z0.0000 F8000.0
G0 X114.9667 Y-192.8610 F15000.0
G1 Z11.9000 F8000.0
G1 X118.6262 Y-189.1236 F12000.0
G1 Z0.0000 F8000.0
G0 X114.9667 Y-194.8076 F15000.0
G1 Z11.9000 F8000.0
G1 X120.0278 Y-189.7466 F12000.0
G1 Z0.0000 F8000.0
G0 X115.2003 Y-196.5206 F15000.0
G1 Z11.9000 F8000.0
G1 X120.0278 Y-191.6931 F12000.0
G1 Z0.0000 F8000.0
G0 X117.1469 Y-196.5206 F15000.0
G1 Z11.9000 F8000.0
G1 X120.0278 Y-193.6397 F12000.0
G1 Z0.0000 F8000.0
G0 X119.0934 Y-196.5206 F15000.0
G1 Z11.9000 F8000.0
G1 X120.0278 Y-195.5863 F12000.0
G1 Z0.0000 F8000.0
G0 X114.9667 Y-208.4335 F15000.0
G1 Z11.9000 F8000.0
G1 X115.9011 Y-207.4991 F12000.0
G1 Z0.0000 F8000.0
G0 X114.9667 Y-210.3801 F15000.0
G1 Z11.9000 F8000.0
G1 X117.8477 Y-207.4991 F12000.0
G1 Z0.0000 F8000.0
G0 X114.9667 Y-212.3267 F15000.0
G1 Z11.9000 F8000.0
G1 X119.7942 Y-207.4991 F12000.0
G1 Z0.0000 F8000.0
G0 X114.9667 Y-214.2732 F15000.0
G1 Z11.9000 F8000.0
G1 X120.0278 Y-209.2900 F12000.0
G1 Z0.0000 F8000.0
G0 X116.2904 Y-214.8961 F15000.0
G1 Z11.9000 F8000.0
G1 X120.0278 Y-211.2365 F12000.0
G1 Z0.0000 F8000.0
G0 X118.2370 Y-214.8961 F15000.0
G1 Z11.9000 F8000.0
G1 X120.0278 Y-213.1831 F12000.0
G1 Z0.0000 F8000.0
G0 X106.8691 Y-189.1236 F15000.0
G1 Z11.9000 F8000.0
G1 X108.5820 Y-190.9145 F12000.0
G1 Z0.0000 F8000.0
G0 X104.9225 Y-189.1236 F15000.0
G1 Z11.9000 F8000.0
G1 X111.2293 Y-195.5084 F12000.0
G1 Z0.0000 F8000.0
G0 X102.9759 Y-189.1236 F15000.0
G1 Z11.9000 F8000.0
G1 X110.2950 Y-196.5206 F12000.0
G1 Z0.0000 F8000.0
G0 X102.6645 Y-190.7587 F15000.0
G1 Z11.9000 F8000.0
G1 X108.3484 Y-196.5206 F12000.0
G1 Z0.0000 F8000.0
G0 X102.6645 Y-192.7053 F15000.0
G1 Z11.9000 F8000.0
G1 X106.4019 Y-196.5206 F12000.0
G1 Z0.0000 F8000.0
G0 X102.6645 Y-194.6519 F15000.0
G1 Z11.9000 F8000.0
G1 X104.4553 Y-196.5206 F12000.0
G1 Z0.0000 F8000.0
G0 X109.5942 Y-207.4991 F15000.0
G1 Z11.9000 F8000.0
G1 X110.9957 Y-208.9007 F12000.0
G1 Z0.0000 F8000.0
G0 X107.6476 Y-207.4991 F15000.0
G1 Z11.9000 F8000.0
G1 X110.2950 Y-210.1465 F12000.0
G1 Z0.0000 F8000.0
G0 X105.7011 Y-207.4991 F15000.0
G1 Z11.9000 F8000.0
G1 X109.5942 Y-211.3923 F12000.0
G1 Z0.0000 F8000.0
G0 X103.7545 Y-207.4991 F15000.0
G1 Z11.9000 F8000.0
G1 X108.8935 Y-212.6381 F12000.0
G1 Z0.0000 F8000.0
G0 X102.6645 Y-208.3557 F15000.0
G1 Z11.9000 F8000.0
G1 X108.1927 Y-213.8839 F12000.0
G1 Z0.0000 F8000.0
G0 X102.6645 Y-210.3022 F15000.0
G1 Z11.9000 F8000.0
G1 X107.2583 Y-214.8961 F12000.0
G1 Z0.0000 F8000.0
G0 X102.6645 Y-212.2488 F15000.0
G1 Z11.9000 F8000.0
G1 X105.3117 Y-214.8961 F12000.0
G1 Z0.0000 F8000.0
G0 X102.6645 Y-214.1954 F15000.0
G1 Z11.9000 F8000.0
G1 X103.3652 Y-214.8961 F12000.0
G1 Z0.0000 F8000.0
G0 X108.9713 Y-212.4824 F15000.0
G1 Z11.9000 F8000.0
G1 X106.5576 Y-214.8961 F12000.0
G1 Z0.0000 F8000.0
G0 X111.6186 Y-207.8885 F15000.0
G1 Z11.9000 F8000.0
G1 X104.6110 Y-214.8961 F12000.0
G1 Z0.0000 F8000.0
G0 X109.9835 Y-207.4991 F15000.0
G1 Z11.9000 F8000.0
G1 X102.6645 Y-214.8961 F12000.0
G1 Z0.0000 F8000.0
G0 X108.0370 Y-207.4991 F15000.0
G1 Z11.9000 F8000.0
G1 X102.6645 Y-212.9495 F12000.0
G1 Z0.0000 F8000.0
G0 X106.0904 Y-207.4991 F15000.0
G1 Z11.9000 F8000.0
G1 X102.6645 Y-211.0029 F12000.0
G1 Z0.0000 F8000.0
G0 X104.1438 Y-207.4991 F15000.0
G1 Z11.9000 F8000.0
G1 X102.6645 Y-209.0564 F12000.0
G1 Z0.0000 F8000.0
G0 X111.6186 Y-196.1312 F15000.0
G1 Z11.9000 F8000.0
G1 X111.3072 Y-196.5206 F12000.0
G1 Z0.0000 F8000.0
G0 X110.9179 Y-194.8855 F15000.0
G1 Z11.9000 F8000.0
G1 X109.3606 Y-196.5206 F12000.0
G1 Z0.0000 F8000.0
G0 X110.2171 Y-193.7175 F15000.0
G1 Z11.9000 F8000.0
G1 X107.4140 Y-196.5206 F12000.0
G1 Z0.0000 F8000.0
G0 X109.5163 Y-192.4717 F15000.0
G1 Z11.9000 F8000.0
G1 X105.4675 Y-196.5206 F12000.0
G1 Z0.0000 F8000.0
G0 X108.8156 Y-191.2259 F15000.0
G1 Z11.9000 F8000.0
G1 X103.5209 Y-196.5206 F12000.0
G1 Z0.0000 F8000.0
G0 X108.0370 Y-189.9801 F15000.0
G1 Z11.9000 F8000.0
G1 X102.6645 Y-195.4305 F12000.0
G1 Z0.0000 F8000.0
G0 X106.9469 Y-189.1236 F15000.0
G1 Z11.9000 F8000.0
G1 X102.6645 Y-193.4840 F12000.0
G1 Z0.0000 F8000.0
G0 X105.0004 Y-189.1236 F15000.0
G1 Z11.9000 F8000.0
G1 X102.6645 Y-191.5374 F12000.0
G1 Z0.0000 F8000.0
G0 X103.0538 Y-189.1236 F15000.0
G1 Z11.9000 F8000.0
G1 X102.6645 Y-189.5130 F12000.0
G1 Z0.0000 F8000.0
G0 X48.8615 Y-186.0870 F15000.0
G1 Z11.9000 F8000.0
G1 X53.1439 Y-181.8046 F12000.0
G1 Z0.0000 F8000.0
G0 X48.8615 Y-188.7343 F15000.0
G1 Z11.9000 F8000.0
G1 X55.7133 Y-181.8046 F12000.0
G1 Z0.0000 F8000.0
G0 X48.8615 Y-191.3038 F15000.0
G1 Z11.9000 F8000.0
G1 X58.3607 Y-181.8046 F12000.0
G1 Z0.0000 F8000.0
G0 X49.4844 Y-193.2504 F15000.0
G1 Z11.9000 F8000.0
G1 X59.3729 Y-183.3618 F12000.0
G1 Z0.0000 F8000.0
G0 X52.1317 Y-193.2504 F15000.0
G1 Z11.9000 F8000.0
G1 X59.3729 Y-185.9313 F12000.0
G1 Z0.0000 F8000.0
G0 X54.7012 Y-193.2504 F15000.0
G1 Z11.9000 F8000.0
G1 X59.3729 Y-188.5786 F12000.0
G1 Z0.0000 F8000.0
G0 X57.2707 Y-193.2504 F15000.0
G1 Z11.9000 F8000.0
G1 X62.3317 Y-188.1892 F12000.0
G1 Z0.0000 F8000.0
G0 X59.9179 Y-193.2504 F15000.0
G1 Z11.9000 F8000.0
G1 X64.9790 Y-188.1892 F12000.0
G1 Z0.0000 F8000.0
G0 X62.4874 Y-193.2504 F15000.0
G1 Z11.9000 F8000.0
G1 X67.5484 Y-188.1892 F12000.0
G1 Z0.0000 F8000.0
G0 X65.1347 Y-193.2504 F15000.0
G1 Z11.9000 F8000.0
G1 X70.1958 Y-188.1892 F12000.0
G1 Z0.0000 F8000.0
G0 X48.8615 Y-212.1709 F15000.0
G1 Z11.9000 F8000.0
G1 X50.2630 Y-210.7694 F12000.0
G1 Z0.0000 F8000.0
G0 X67.7042 Y-193.2504 F15000.0
G1 Z11.9000 F8000.0
G1 X72.7652 Y-188.1892 F12000.0
G1 Z0.0000 F8000.0
G0 X70.2737 Y-193.2504 F15000.0
G1 Z11.9000 F8000.0
G1 X75.3347 Y-188.1892 F12000.0
G1 Z0.0000 F8000.0
G0 X48.8615 Y-214.7404 F15000.0
G1 Z11.9000 F8000.0
G1 X52.8325 Y-210.7694 F12000.0
G1 Z0.0000 F8000.0
G0 X48.8615 Y-217.3098 F15000.0
G1 Z11.9000 F8000.0
G1 X55.4020 Y-210.7694 F12000.0
G1 Z0.0000 F8000.0
G0 X72.9209 Y-193.2504 F15000.0
G1 Z11.9000 F8000.0
G1 X77.9821 Y-188.1892 F12000.0
G1 Z0.0000 F8000.0
G0 X75.4904 Y-193.2504 F15000.0
G1 Z11.9000 F8000.0
G1 X80.5515 Y-188.1892 F12000.0
G1 Z0.0000 F8000.0
G0 X49.3287 Y-219.4121 F15000.0
G1 Z11.9000 F8000.0
G1 X58.0492 Y-210.7694 F12000.0
G1 Z0.0000 F8000.0
G0 X50.2630 Y-221.0472 F15000.0
G1 Z11.9000 F8000.0
G1 X60.6187 Y-210.7694 F12000.0
G1 Z0.0000 F8000.0
G0 X78.1378 Y-193.2504 F15000.0
G1 Z11.9000 F8000.0
G1 X83.1988 Y-188.1892 F12000.0
G1 Z0.0000 F8000.0
G0 X80.7072 Y-193.2504 F15000.0
G1 Z11.9000 F8000.0
G1 X85.7683 Y-188.1892 F12000.0
G1 Z0.0000 F8000.0
G0 X51.8202 Y-222.2152 F15000.0
G1 Z11.9000 F8000.0
G1 X63.2660 Y-210.7694 F12000.0
G1 Z0.0000 F8000.0
G0 X54.3897 Y-222.2152 F15000.0
G1 Z11.9000 F8000.0
G1 X59.3729 Y-217.1541 F12000.0
G1 Z0.0000 F8000.0
G0 X61.4751 Y-215.1297 F15000.0
G1 Z11.9000 F8000.0
G1 X65.8355 Y-210.7694 F12000.0
G1 Z0.0000 F8000.0
G0 X83.2767 Y-193.2504 F15000.0
G1 Z11.9000 F8000.0
G1 X88.3377 Y-188.1892 F12000.0
G1 Z0.0000 F8000.0
G0 X85.9241 Y-193.2504 F15000.0
G1 Z11.9000 F8000.0
G1 X90.9851 Y-188.1892 F12000.0
G1 Z0.0000 F8000.0
G0 X63.3438 Y-215.8305 F15000.0
G1 Z11.9000 F8000.0
G1 X68.4050 Y-210.7694 F12000.0
G1 Z0.0000 F8000.0
G0 X56.9592 Y-222.2152 F15000.0
G1 Z11.9000 F8000.0
G1 X59.3729 Y-219.8015 F12000.0
G1 Z0.0000 F8000.0
G0 X65.9912 Y-215.8305 F15000.0
G1 Z11.9000 F8000.0
G1 X71.0522 Y-210.7694 F12000.0
G1 Z0.0000 F8000.0
G0 X88.4935 Y-193.2504 F15000.0
G1 Z11.9000 F8000.0
G1 X93.5546 Y-188.1892 F12000.0
G1 Z0.0000 F8000.0
G0 X91.1408 Y-193.2504 F15000.0
G1 Z11.9000 F8000.0
G1 X96.0461 Y-188.3450 F12000.0
G1 Z0.0000 F8000.0
G0 X68.5607 Y-215.8305 F15000.0
G1 Z11.9000 F8000.0
G1 X73.6217 Y-210.7694 F12000.0
G1 Z0.0000 F8000.0
G0 X71.2080 Y-215.8305 F15000.0
G1 Z11.9000 F8000.0
G1 X76.2691 Y-210.7694 F12000.0
G1 Z0.0000 F8000.0
G0 X95.5790 Y-191.4595 F15000.0
G1 Z11.9000 F8000.0
G1 X97.8369 Y-189.1236 F12000.0
G1 Z0.0000 F8000.0
G0 X98.1484 Y-191.4595 F15000.0
G1 Z11.9000 F8000.0
G1 X99.3943 Y-190.1358 F12000.0
G1 Z0.0000 F8000.0
G0 X73.7775 Y-215.8305 F15000.0
G1 Z11.9000 F8000.0
G1 X78.8385 Y-210.7694 F12000.0
G1 Z0.0000 F8000.0
G0 X76.3470 Y-215.8305 F15000.0
G1 Z11.9000 F8000.0
G1 X81.4080 Y-210.7694 F12000.0
G1 Z0.0000 F8000.0
G0 X78.9942 Y-215.8305 F15000.0
G1 Z11.9000 F8000.0
G1 X84.0554 Y-210.7694 F12000.0
G1 Z0.0000 F8000.0
G0 X81.5637 Y-215.8305 F15000.0
G1 Z11.9000 F8000.0
G1 X86.6248 Y-210.7694 F12000.0
G1 Z0.0000 F8000.0
G0 X84.2110 Y-215.8305 F15000.0
G1 Z11.9000 F8000.0
G1 X89.2721 Y-210.7694 F12000.0
G1 Z0.0000 F8000.0
G0 X86.7805 Y-215.8305 F15000.0
G1 Z11.9000 F8000.0
G1 X91.8415 Y-210.7694 F12000.0
G1 Z0.0000 F8000.0
G0 X89.3500 Y-215.8305 F15000.0
G1 Z11.9000 F8000.0
G1 X93.0095 Y-212.2488 F12000.0
G1 Z0.0000 F8000.0
G0 X91.9972 Y-215.8305 F15000.0
G1 Z11.9000 F8000.0
G1 X95.1897 Y-212.5603 F12000.0
G1 Z0.0000 F8000.0
G0 X94.5667 Y-215.8305 F15000.0
G1 Z11.9000 F8000.0
G1 X97.8369 Y-212.5603 F12000.0
G1 Z0.0000 F8000.0
G0 X98.1484 Y-214.8961 F15000.0
G1 Z11.9000 F8000.0
G1 X99.3943 Y-213.5724 F12000.0
G1 Z0.0000 F8000.0
G0 X100.9515 Y-189.1236 F15000.0
G1 Z11.9000 F8000.0
G1 X102.6645 Y-190.7587 F12000.0
G1 Z0.0000 F8000.0
G0 X99.3943 Y-189.5130 F15000.0
G1 Z11.9000 F8000.0
G1 X102.6645 Y-192.7053 F12000.0
G1 Z0.0000 F8000.0
G0 X99.3943 Y-191.4595 F15000.0
G1 Z11.9000 F8000.0
G1 X102.6645 Y-194.6519 F12000.0
G1 Z0.0000 F8000.0
G0 X98.9271 Y-192.9389 F15000.0
G1 Z11.9000 F8000.0
G1 X102.5087 Y-196.5206 F12000.0
G1 Z0.0000 F8000.0
G0 X98.0705 Y-194.0289 F15000.0
G1 Z11.9000 F8000.0
G1 X100.5622 Y-196.5206 F12000.0
G1 Z0.0000 F8000.0
G0 X97.1362 Y-195.0412 F15000.0
G1 Z11.9000 F8000.0
G1 X98.6156 Y-196.5206 F12000.0
G1 Z0.0000 F8000.0
G0 X101.8079 Y-207.4991 F15000.0
G1 Z11.9000 F8000.0
G1 X102.6645 Y-208.3557 F12000.0
G1 Z0.0000 F8000.0
G0 X99.8614 Y-207.4991 F15000.0
G1 Z11.9000 F8000.0
G1 X102.6645 Y-210.3022 F12000.0
G1 Z0.0000 F8000.0
G0 X97.9148 Y-207.4991 F15000.0
G1 Z11.9000 F8000.0
G1 X102.6645 Y-212.2488 F12000.0
G1 Z0.0000 F8000.0
G0 X97.1362 Y-208.6671 F15000.0
G1 Z11.9000 F8000.0
G1 X102.6645 Y-214.1954 F12000.0
G1 Z0.0000 F8000.0
G0 X99.3943 Y-212.9495 F15000.0
G1 Z11.9000 F8000.0
G1 X101.3408 Y-214.8961 F12000.0
G1 Z0.0000 F8000.0
G0 X165.9667 Y-196.4427 F15000.0
G1 Z11.9000 F8000.0
G1 X168.4582 Y-193.9511 F12000.0
G1 Z0.0000 F8000.0
G0 X165.9667 Y-199.0122 F15000.0
G1 Z11.9000 F8000.0
G1 X171.0277 Y-193.9511 F12000.0
G1 Z0.0000 F8000.0
G0 X167.9133 Y-199.7129 F15000.0
G1 Z11.9000 F8000.0
G1 X173.6751 Y-193.9511 F12000.0
G1 Z0.0000 F8000.0
G0 X170.4827 Y-199.7129 F15000.0
G1 Z11.9000 F8000.0
G1 X176.2445 Y-193.9511 F12000.0
G1 Z0.0000 F8000.0
G0 X165.9667 Y-206.8763 F15000.0
G1 Z11.9000 F8000.0
G1 X168.5361 Y-204.3068 F12000.0
G1 Z0.0000 F8000.0
G0 X173.1300 Y-199.7129 F15000.0
G1 Z11.9000 F8000.0
G1 X178.8919 Y-193.9511 F12000.0
G1 Z0.0000 F8000.0
G0 X175.6995 Y-199.7129 F15000.0
G1 Z11.9000 F8000.0
G1 X180.0000 Y-195.4125 F12000.0
G1 Z0.0000 F8000.0
G0 X166.2781 Y-209.1342 F15000.0
G1 Z11.9000 F8000.0
G1 X171.1056 Y-204.3068 F12000.0
G1 Z0.0000 F8000.0
G0 X167.9911 Y-210.0686 F15000.0
G1 Z11.9000 F8000.0
G1 X173.7530 Y-204.3068 F12000.0
G1 Z0.0000 F8000.0
G0 X178.3468 Y-199.7129 F15000.0
G1 Z11.9000 F8000.0
G1 X180.0000 Y-198.0371 F12000.0
G1 Z0.0000 F8000.0
G0 X170.5605 Y-210.0686 F15000.0
G1 Z11.9000 F8000.0
G1 X176.3224 Y-204.3068 F12000.0
G1 Z0.0000 F8000.0
G0 X173.2079 Y-210.0686 F15000.0
G1 Z11.9000 F8000.0
G1 X178.8919 Y-204.3068 F12000.0
G1 Z0.0000 F8000.0
G0 X175.7773 Y-210.0686 F15000.0
G1 Z11.9000 F8000.0
G1 X180.0000 Y-205.8459 F12000.0
G1 Z0.0000 F8000.0
G0 X178.3468 Y-210.0686 F15000.0
G1 Z11.9000 F8000.0
G1 X180.0000 Y-208.4154 F12000.0
G1 Z0.0000 F8000.0
G0 X114.6553 Y-189.1236 F15000.0
G1 Z11.9000 F8000.0
G1 X114.9667 Y-189.4351 F12000.0
G1 Z0.0000 F8000.0
G0 X112.7088 Y-189.1236 F15000.0
G1 Z11.9000 F8000.0
G1 X114.9667 Y-191.3817 F12000.0
G1 Z0.0000 F8000.0
G0 X110.7622 Y-189.1236 F15000.0
G1 Z11.9000 F8000.0
G1 X114.9667 Y-193.3282 F12000.0
G1 Z0.0000 F8000.0
G0 X108.8156 Y-189.1236 F15000.0
G1 Z11.9000 F8000.0
G1 X114.9667 Y-195.2748 F12000.0
G1 Z0.0000 F8000.0
G0 X108.5820 Y-190.9145 F15000.0
G1 Z11.9000 F8000.0
G1 X114.1881 Y-196.5206 F12000.0
G1 Z0.0000 F8000.0
G0 X111.2293 Y-195.5084 F15000.0
G1 Z11.9000 F8000.0
G1 X112.2416 Y-196.5206 F12000.0
G1 Z0.0000 F8000.0
G0 X113.5652 Y-207.4991 F15000.0
G1 Z11.9000 F8000.0
G1 X114.9667 Y-208.9007 F12000.0
G1 Z0.0000 F8000.0
G0 X111.7744 Y-207.6549 F15000.0
G1 Z11.9000 F8000.0
G1 X114.9667 Y-210.8473 F12000.0
G1 Z0.0000 F8000.0
G0 X110.9957 Y-208.9007 F15000.0
G1 Z11.9000 F8000.0
G1 X114.9667 Y-212.8717 F12000.0
G1 Z0.0000 F8000.0
G0 X110.2950 Y-210.1465 F15000.0
G1 Z11.9000 F8000.0
G1 X114.9667 Y-214.8182 F12000.0
G1 Z0.0000 F8000.0
G0 X109.5942 Y-211.3923 F15000.0
G1 Z11.9000 F8000.0
G1 X113.0980 Y-214.8961 F12000.0
G1 Z0.0000 F8000.0
G0 X108.8935 Y-212.6381 F15000.0
G1 Z11.9000 F8000.0
G1 X111.1514 Y-214.8961 F12000.0
G1 Z0.0000 F8000.0
G0 X108.1927 Y-213.8839 F15000.0
G1 Z11.9000 F8000.0
G1 X109.2049 Y-214.8961 F12000.0
G1 Z0.0000 F8000.0
G0 X172.1178 Y-190.0579 F15000.0
G1 Z11.9000 F8000.0
G1 X176.0109 Y-193.9511 F12000.0
G1 Z0.0000 F8000.0
G0 X167.4461 Y-189.2794 F15000.0
G1 Z11.9000 F8000.0
G1 X172.8186 Y-194.6519 F12000.0
G1 Z0.0000 F8000.0
G0 X160.3606 Y-186.0870 F15000.0
G1 Z11.9000 F8000.0
G1 X168.9254 Y-194.6519 F12000.0
G1 Z0.0000 F8000.0
G0 X153.2751 Y-182.8946 F15000.0
G1 Z11.9000 F8000.0
G1 X165.0323 Y-194.6519 F12000.0
G1 Z0.0000 F8000.0
G0 X146.8904 Y-180.4030 F15000.0
G1 Z11.9000 F8000.0
G1 X161.1392 Y-194.6519 F12000.0
G1 Z0.0000 F8000.0
G0 X142.9973 Y-180.4030 F15000.0
G1 Z11.9000 F8000.0
G1 X158.2583 Y-195.6641 F12000.0
G1 Z0.0000 F8000.0
G0 X171.9621 Y-209.3678 F15000.0
G1 Z11.9000 F8000.0
G1 X176.0888 Y-213.4946 F12000.0
G1 Z0.0000 F8000.0
G0 X168.0690 Y-209.3678 F15000.0
G1 Z11.9000 F8000.0
G1 X172.6628 Y-213.9618 F12000.0
G1 Z0.0000 F8000.0
G0 X139.1041 Y-180.4030 F15000.0
G1 Z11.9000 F8000.0
G1 X156.7788 Y-198.1557 F12000.0
G1 Z0.0000 F8000.0
G0 X135.1331 Y-180.4030 F15000.0
G1 Z11.9000 F8000.0
G1 X154.5209 Y-199.7129 F12000.0
G1 Z0.0000 F8000.0
G0 X164.1759 Y-209.3678 F15000.0
G1 Z11.9000 F8000.0
G1 X168.9254 Y-214.1175 F12000.0
G1 Z0.0000 F8000.0
G0 X160.2049 Y-209.3678 F15000.0
G1 Z11.9000 F8000.0
G1 X166.2781 Y-215.4411 F12000.0
G1 Z0.0000 F8000.0
G0 X155.1437 Y-204.3068 F15000.0
G1 Z11.9000 F8000.0
G1 X156.8567 Y-206.0198 F12000.0
G1 Z0.0000 F8000.0
G0 X143.9316 Y-193.0168 F15000.0
G1 Z11.9000 F8000.0
G1 X150.5499 Y-199.7129 F12000.0
G1 Z0.0000 F8000.0
G0 X131.2400 Y-180.4030 F15000.0
G1 Z11.9000 F8000.0
G1 X143.2309 Y-192.3160 F12000.0
G1 Z0.0000 F8000.0
G0 X127.3469 Y-180.4030 F15000.0
G1 Z11.9000 F8000.0
G1 X139.3377 Y-192.3160 F12000.0
G1 Z0.0000 F8000.0
G0 X143.9316 Y-196.9099 F15000.0
G1 Z11.9000 F8000.0
G1 X146.6568 Y-199.7129 F12000.0
G1 Z0.0000 F8000.0
G0 X151.2506 Y-204.3068 F15000.0
G1 Z11.9000 F8000.0
G1 X163.7087 Y-216.6869 F12000.0
G1 Z0.0000 F8000.0
G0 X147.3575 Y-204.3068 F15000.0
G1 Z11.9000 F8000.0
G1 X161.0613 Y-218.0106 F12000.0
G1 Z0.0000 F8000.0
G0 X123.4537 Y-180.4030 F15000.0
G1 Z11.9000 F8000.0
G1 X135.4446 Y-192.3160 F12000.0
G1 Z0.0000 F8000.0
G0 X119.5606 Y-180.4030 F15000.0
G1 Z11.9000 F8000.0
G1 X131.5515 Y-192.3160 F12000.0
G1 Z0.0000 F8000.0
G0 X144.6324 Y-205.4747 F15000.0
G1 Z11.9000 F8000.0
G1 X158.4919 Y-219.3343 F12000.0
G1 Z0.0000 F8000.0
G0 X143.9316 Y-208.6671 F15000.0
G1 Z11.9000 F8000.0
G1 X155.9224 Y-220.5800 F12000.0
G1 Z0.0000 F8000.0
G0 X115.6675 Y-180.4030 F15000.0
G1 Z11.9000 F8000.0
G1 X127.5805 Y-192.3160 F12000.0
G1 Z0.0000 F8000.0
G0 X111.7744 Y-180.4030 F15000.0
G1 Z11.9000 F8000.0
G1 X123.6873 Y-192.3160 F12000.0
G1 Z0.0000 F8000.0
G0 X142.9973 Y-211.6259 F15000.0
G1 Z11.9000 F8000.0
G1 X153.2751 Y-221.9038 F12000.0
G1 Z0.0000 F8000.0
G0 X139.1041 Y-211.6259 F15000.0
G1 Z11.9000 F8000.0
G1 X150.7835 Y-223.3053 F12000.0
G1 Z0.0000 F8000.0
G0 X107.8812 Y-180.4030 F15000.0
G1 Z11.9000 F8000.0
G1 X116.3683 Y-188.8900 F12000.0
G1 Z0.0000 F8000.0
G0 X103.9881 Y-180.4030 F15000.0
G1 Z11.9000 F8000.0
G1 X112.4752 Y-188.8900 F12000.0
G1 Z0.0000 F8000.0
G0 X135.2110 Y-211.6259 F15000.0
G1 Z11.9000 F8000.0
G1 X148.1362 Y-224.5510 F12000.0
G1 Z0.0000 F8000.0
G0 X131.3179 Y-211.6259 F15000.0
G1 Z11.9000 F8000.0
G1 X146.4232 Y-226.8091 F12000.0
G1 Z0.0000 F8000.0
G0 X103.2873 Y-183.5954 F15000.0
G1 Z11.9000 F8000.0
G1 X108.5820 Y-188.8900 F12000.0
G1 Z0.0000 F8000.0
G0 X99.3943 Y-183.5954 F15000.0
G1 Z11.9000 F8000.0
G1 X104.6889 Y-188.8900 F12000.0
G1 Z0.0000 F8000.0
G0 X128.9820 Y-213.1831 F15000.0
G1 Z11.9000 F8000.0
G1 X144.0094 Y-228.2106 F12000.0
G1 Z0.0000 F8000.0
G0 X128.9820 Y-217.0762 F15000.0
G1 Z11.9000 F8000.0
G1 X140.0384 Y-228.2106 F12000.0
G1 Z0.0000 F8000.0
G0 X123.5316 Y-211.6259 F15000.0
G1 Z11.9000 F8000.0
G1 X125.3224 Y-213.4167 F12000.0
G1 Z0.0000 F8000.0
G0 X95.5011 Y-183.5954 F15000.0
G1 Z11.9000 F8000.0
G1 X100.7958 Y-188.8900 F12000.0
G1 Z0.0000 F8000.0
G0 X91.6080 Y-183.5954 F15000.0
G1 Z11.9000 F8000.0
G1 X96.8248 Y-188.8900 F12000.0
G1 Z0.0000 F8000.0
G0 X120.0278 Y-212.0152 F15000.0
G1 Z11.9000 F8000.0
G1 X125.3224 Y-217.3098 F12000.0
G1 Z0.0000 F8000.0
G0 X128.9820 Y-220.9694 F15000.0
G1 Z11.9000 F8000.0
G1 X140.0384 Y-232.0258 F12000.0
G1 Z0.0000 F8000.0
G0 X128.9820 Y-224.9404 F15000.0
G1 Z11.9000 F8000.0
G1 X140.0384 Y-235.9189 F12000.0
G1 Z0.0000 F8000.0
G0 X119.1713 Y-215.1297 F15000.0
G1 Z11.9000 F8000.0
G1 X125.3224 Y-221.2030 F12000.0
G1 Z0.0000 F8000.0
G0 X87.6370 Y-183.5954 F15000.0
G1 Z11.9000 F8000.0
G1 X92.9316 Y-188.8900 F12000.0
G1 Z0.0000 F8000.0
G0 X83.7439 Y-183.5954 F15000.0
G1 Z11.9000 F8000.0
G1 X89.0385 Y-188.8900 F12000.0
G1 Z0.0000 F8000.0
G0 X115.2782 Y-215.1297 F15000.0
G1 Z11.9000 F8000.0
G1 X125.3224 Y-225.0961 F12000.0
G1 Z0.0000 F8000.0
G0 X128.9820 Y-228.8335 F15000.0
G1 Z11.9000 F8000.0
G1 X140.0384 Y-239.8121 F12000.0
G1 Z0.0000 F8000.0
G0 X135.3667 Y-239.1114 F15000.0
G1 Z11.9000 F8000.0
G1 X140.0384 Y-243.7831 F12000.0
G1 Z0.0000 F8000.0
G0 X111.3850 Y-215.1297 F15000.0
G1 Z11.9000 F8000.0
G1 X125.3224 Y-229.0671 F12000.0
G1 Z0.0000 F8000.0
G0 X79.8508 Y-183.5954 F15000.0
G1 Z11.9000 F8000.0
G1 X85.1454 Y-188.8900 F12000.0
G1 Z0.0000 F8000.0
G0 X75.9576 Y-183.5954 F15000.0
G1 Z11.9000 F8000.0
G1 X81.2523 Y-188.8900 F12000.0
G1 Z0.0000 F8000.0
G0 X107.4919 Y-215.1297 F15000.0
G1 Z11.9000 F8000.0
G1 X124.5438 Y-232.1816 F12000.0
G1 Z0.0000 F8000.0
G0 X135.3667 Y-243.0824 F15000.0
G1 Z11.9000 F8000.0
G1 X140.0384 Y-247.6762 F12000.0
G1 Z0.0000 F8000.0
G0 X135.3667 Y-246.9755 F15000.0
G1 Z11.9000 F8000.0
G1 X140.0384 Y-251.5693 F12000.0
G1 Z0.0000 F8000.0
G0 X103.5209 Y-215.1297 F15000.0
G1 Z11.9000 F8000.0
G1 X122.5972 Y-234.1281 F12000.0
G1 Z0.0000 F8000.0
G0 X72.0645 Y-183.5954 F15000.0
G1 Z11.9000 F8000.0
G1 X77.3591 Y-188.8900 F12000.0
G1 Z0.0000 F8000.0
G0 X68.1714 Y-183.5954 F15000.0
G1 Z11.9000 F8000.0
G1 X73.4660 Y-188.8900 F12000.0
G1 Z0.0000 F8000.0
G0 X99.6278 Y-215.1297 F15000.0
G1 Z11.9000 F8000.0
G1 X112.7866 Y-228.2106 F12000.0
G1 Z0.0000 F8000.0
G0 X114.2660 Y-229.6900 F15000.0
G1 Z11.9000 F8000.0
G1 X120.6507 Y-236.0747 F12000.0
G1 Z0.0000 F8000.0
G0 X135.3667 Y-250.8686 F15000.0
G1 Z11.9000 F8000.0
G1 X139.8048 Y-255.3067 F12000.0
G1 Z0.0000 F8000.0
G0 X135.3667 Y-254.7617 F15000.0
G1 Z11.9000 F8000.0
G1 X136.9240 Y-256.2411 F12000.0
G1 Z0.0000 F8000.0
G0 X114.2660 Y-233.5832 F15000.0
G1 Z11.9000 F8000.0
G1 X118.8598 Y-238.1770 F12000.0
G1 Z0.0000 F8000.0
G0 X107.8034 Y-227.1984 F15000.0
G1 Z11.9000 F8000.0
G1 X108.8935 Y-228.2106 F12000.0
G1 Z0.0000 F8000.0
G0 X103.4430 Y-222.8381 F15000.0
G1 Z11.9000 F8000.0
G1 X105.1561 Y-224.5510 F12000.0
G1 Z0.0000 F8000.0
G0 X95.7346 Y-215.1297 F15000.0
G1 Z11.9000 F8000.0
G1 X101.0294 Y-220.4244 F12000.0
G1 Z0.0000 F8000.0
G0 X64.2782 Y-183.5954 F15000.0
G1 Z11.9000 F8000.0
G1 X69.5729 Y-188.8900 F12000.0
G1 Z0.0000 F8000.0
G0 X62.9546 Y-186.2427 F15000.0
G1 Z11.9000 F8000.0
G1 X65.6797 Y-188.8900 F12000.0
G1 Z0.0000 F8000.0
G0 X91.8415 Y-215.1297 F15000.0
G1 Z11.9000 F8000.0
G1 X97.1362 Y-220.4244 F12000.0
G1 Z0.0000 F8000.0
G0 X114.2660 Y-237.4763 F15000.0
G1 Z11.9000 F8000.0
G1 X118.8598 Y-242.0701 F12000.0
G1 Z0.0000 F8000.0
G0 X114.2660 Y-241.4472 F15000.0
G1 Z11.9000 F8000.0
G1 X118.8598 Y-246.0411 F12000.0
G1 Z0.0000 F8000.0
G0 X87.9485 Y-215.1297 F15000.0
G1 Z11.9000 F8000.0
G1 X93.2431 Y-220.4244 F12000.0
G1 Z0.0000 F8000.0
G0 X84.0554 Y-215.1297 F15000.0
G1 Z11.9000 F8000.0
G1 X89.3500 Y-220.4244 F12000.0
G1 Z0.0000 F8000.0
G0 X114.2660 Y-245.3403 F15000.0
G1 Z11.9000 F8000.0
G1 X118.8598 Y-249.9342 F12000.0
G1 Z0.0000 F8000.0
G0 X114.2660 Y-249.2334 F15000.0
G1 Z11.9000 F8000.0
G1 X118.8598 Y-253.8274 F12000.0
G1 Z0.0000 F8000.0
G0 X80.1622 Y-215.1297 F15000.0
G1 Z11.9000 F8000.0
G1 X85.4569 Y-220.4244 F12000.0
G1 Z0.0000 F8000.0
G0 X76.2691 Y-215.1297 F15000.0
G1 Z11.9000 F8000.0
G1 X81.5637 Y-220.4244 F12000.0
G1 Z0.0000 F8000.0
G0 X114.2660 Y-253.1266 F15000.0
G1 Z11.9000 F8000.0
G1 X117.3805 Y-256.2411 F12000.0
G1 Z0.0000 F8000.0
G0 X72.3760 Y-215.1297 F15000.0
G1 Z11.9000 F8000.0
G1 X77.6706 Y-220.4244 F12000.0
G1 Z0.0000 F8000.0
G0 X68.4828 Y-215.1297 F15000.0
G1 Z11.9000 F8000.0
G1 X73.6996 Y-220.4244 F12000.0
G1 Z0.0000 F8000.0
G0 X64.5118 Y-215.1297 F15000.0
G1 Z11.9000 F8000.0
G1 X69.8065 Y-220.4244 F12000.0
G1 Z0.0000 F8000.0
G0 X62.9546 Y-217.4656 F15000.0
G1 Z11.9000 F8000.0
G1 X65.9133 Y-220.4244 F12000.0
G1 Z0.0000 F8000.0
G0 X96.4354 Y-192.3160 F15000.0
G1 Z11.9000 F8000.0
G1 X98.0705 Y-193.9511 F12000.0
G1 Z0.0000 F8000.0
G0 X93.0095 Y-192.8610 F15000.0
G1 Z11.9000 F8000.0
G1 X95.7346 Y-195.5863 F12000.0
G1 Z0.0000 F8000.0
G0 X89.5057 Y-193.2504 F15000.0
G1 Z11.9000 F8000.0
G1 X91.8415 Y-195.5863 F12000.0
G1 Z0.0000 F8000.0
G0 X85.6126 Y-193.2504 F15000.0
G1 Z11.9000 F8000.0
G1 X88.8049 Y-196.5206 F12000.0
G1 Z0.0000 F8000.0
G0 X81.7195 Y-193.2504 F15000.0
G1 Z11.9000 F8000.0
G1 X84.9118 Y-196.5206 F12000.0
G1 Z0.0000 F8000.0
G0 X93.0095 Y-208.4335 F15000.0
G1 Z11.9000 F8000.0
G1 X96.2018 Y-211.6259 F12000.0
G1 Z0.0000 F8000.0
G0 X77.8263 Y-193.2504 F15000.0
G1 Z11.9000 F8000.0
G1 X81.0187 Y-196.5206 F12000.0
G1 Z0.0000 F8000.0
G0 X73.9332 Y-193.2504 F15000.0
G1 Z11.9000 F8000.0
G1 X77.1255 Y-196.5206 F12000.0
G1 Z0.0000 F8000.0
G0 X88.1820 Y-207.4991 F15000.0
G1 Z11.9000 F8000.0
G1 X91.3744 Y-210.7694 F12000.0
G1 Z0.0000 F8000.0
G0 X84.2889 Y-207.4991 F15000.0
G1 Z11.9000 F8000.0
G1 X87.4813 Y-210.7694 F12000.0
G1 Z0.0000 F8000.0
G0 X70.0401 Y-193.2504 F15000.0
G1 Z11.9000 F8000.0
G1 X73.2324 Y-196.5206 F12000.0
G1 Z0.0000 F8000.0
G0 X66.1469 Y-193.2504 F15000.0
G1 Z11.9000 F8000.0
G1 X70.0401 Y-197.1435 F12000.0
G1 Z0.0000 F8000.0
G0 X80.3958 Y-207.4991 F15000.0
G1 Z11.9000 F8000.0
G1 X83.5882 Y-210.7694 F12000.0
G1 Z0.0000 F8000.0
G0 X76.4248 Y-207.4991 F15000.0
G1 Z11.9000 F8000.0
G1 X79.6950 Y-210.7694 F12000.0
G1 Z0.0000 F8000.0
G0 X62.1759 Y-193.2504 F15000.0
G1 Z11.9000 F8000.0
G1 X66.1469 Y-197.1435 F12000.0
G1 Z0.0000 F8000.0
G0 X58.2828 Y-193.2504 F15000.0
G1 Z11.9000 F8000.0
G1 X62.2538 Y-197.1435 F12000.0
G1 Z0.0000 F8000.0
G0 X72.5317 Y-207.4991 F15000.0
G1 Z11.9000 F8000.0
G1 X75.8019 Y-210.7694 F12000.0
G1 Z0.0000 F8000.0
G0 X67.9378 Y-206.7984 F15000.0
G1 Z11.9000 F8000.0
G1 X71.9088 Y-210.7694 F12000.0
G1 Z0.0000 F8000.0
G0 X54.3897 Y-193.2504 F15000.0
G1 Z11.9000 F8000.0
G1 X60.3851 Y-199.2458 F12000.0
G1 Z0.0000 F8000.0
G0 X50.4966 Y-193.2504 F15000.0
G1 Z11.9000 F8000.0
G1 X58.9836 Y-201.7373 F12000.0
G1 Z0.0000 F8000.0
G0 X64.0446 Y-206.7984 F15000.0
G1 Z11.9000 F8000.0
G1 X68.0156 Y-210.7694 F12000.0
G1 Z0.0000 F8000.0
G0 X48.3943 Y-195.0412 F15000.0
G1 Z11.9000 F8000.0
G1 X64.0446 Y-210.7694 F12000.0
G1 Z0.0000 F8000.0
G0 X45.9027 Y-196.5206 F15000.0
G1 Z11.9000 F8000.0
G1 X60.1515 Y-210.7694 F12000.0
G1 Z0.0000 F8000.0
G0 X42.0096 Y-196.5206 F15000.0
G1 Z11.9000 F8000.0
G1 X56.2584 Y-210.7694 F12000.0
G1 Z0.0000 F8000.0
G0 X40.5301 Y-198.9343 F15000.0
G1 Z11.9000 F8000.0
G1 X52.3653 Y-210.7694 F12000.0
G1 Z0.0000 F8000.0
G0 X40.5301 Y-202.8275 F15000.0
G1 Z11.9000 F8000.0
G1 X45.2798 Y-207.4991 F12000.0
G1 Z0.0000 F8000.0
G0 X31.9653 Y-198.1557 F15000.0
G1 Z11.9000 F8000.0
G1 X32.2768 Y-198.4671 F12000.0
G1 Z0.0000 F8000.0
G0 X40.5301 Y-206.7206 F15000.0
G1 Z11.9000 F8000.0
G1 X41.3867 Y-207.4991 F12000.0
G1 Z0.0000 F8000.0
G0 X31.8096 Y-201.8931 F15000.0
G1 Z11.9000 F8000.0
G1 X32.2768 Y-202.3603 F12000.0
G1 Z0.0000 F8000.0
G0 X48.3943 Y-147.7787 F15000.0
G1 Z11.9000 F8000.0
G1 X48.3943 Y-156.9664 F12000.0
G1 Z0.0000 F8000.0
G0 X42.8660 Y-147.7787 F15000.0
G1 Z11.9000 F8000.0
G1 X42.8660 Y-156.9664 F12000.0
G1 Z0.0000 F8000.0
G0 X48.3943 Y-207.4991 F15000.0
G1 Z11.9000 F8000.0
G1 X48.3943 Y-212.0931 F12000.0
G1 Z0.0000 F8000.0
G0 X40.9973 Y-191.9266 F15000.0
G1 Z11.9000 F8000.0
G1 X40.9973 Y-196.5206 F12000.0
G1 Z0.0000 F8000.0
G0 X48.3943 Y-156.9664 F15000.0
G1 Z11.9000 F8000.0
G1 X48.3943 Y-196.5206 F12000.0
G1 Z0.0000 F8000.0
G0 X48.3943 Y-144.5084 F15000.0
G1 Z11.9000 F8000.0
G1 X42.8660 Y-144.5084 F12000.0
G1 Z0.0000 F8000.0
G0 X40.9973 Y-207.4991 F15000.0
G1 Z11.9000 F8000.0
G1 X40.9973 Y-212.0931 F12000.0
G1 Z0.0000 F8000.0
G0 X48.3943 Y-212.0931 F15000.0
G1 Z11.9000 F8000.0
G1 X40.9973 Y-212.0931 F12000.0
G1 Z0.0000 F8000.0
G0 X42.8660 Y-156.9664 F15000.0
G1 Z11.9000 F8000.0
G1 X48.3943 Y-156.9664 F12000.0
G1 Z0.0000 F8000.0
G0 X42.8660 Y-191.9266 F15000.0
G1 Z11.9000 F8000.0
G1 X40.9973 Y-191.9266 F12000.0
G1 Z0.0000 F8000.0
G0 X42.8660 Y-144.5084 F15000.0
G1 Z11.9000 F8000.0
G1 X42.8660 Y-147.7787 F12000.0
G1 Z0.0000 F8000.0
G0 X48.3943 Y-144.5084 F15000.0
G1 Z11.9000 F8000.0
G1 X48.3943 Y-147.7787 F12000.0
G1 Z0.0000 F8000.0
G0 X42.8660 Y-156.9664 F15000.0
G1 Z11.9000 F8000.0
G1 X42.8660 Y-191.9266 F12000.0
G1 Z0.0000 F8000.0
G0 X42.8660 Y-147.7787 F15000.0
G1 Z11.9000 F8000.0
G1 X48.3943 Y-147.7787 F12000.0
G1 Z0.0000 F8000.0
G0 X120.0278 Y-196.5206 F15000.0
G1 Z11.9000 F8000.0
G1 X120.0278 Y-189.1236 F12000.0
G1 Z0.0000 F8000.0
G0 X114.9667 Y-189.1236 F15000.0
G1 Z11.9000 F8000.0
G1 X120.0278 Y-189.1236 F12000.0
G1 Z0.0000 F8000.0
G0 X120.0278 Y-214.8961 F15000.0
G1 Z11.9000 F8000.0
G1 X120.0278 Y-207.4991 F12000.0
G1 Z0.0000 F8000.0
G0 X114.9667 Y-214.8961 F15000.0
G1 Z11.9000 F8000.0
G1 X114.9667 Y-207.4991 F12000.0
G1 Z0.0000 F8000.0
G0 X114.9667 Y-214.8961 F15000.0
G1 Z11.9000 F8000.0
G1 X120.0278 Y-214.8961 F12000.0
G1 Z0.0000 F8000.0
G0 X114.9667 Y-196.5206 F15000.0
G1 Z11.9000 F8000.0
G1 X114.9667 Y-189.1236 F12000.0
G1 Z0.0000 F8000.0
G0 X102.6645 Y-214.8961 F15000.0
G1 Z11.9000 F8000.0
G1 X107.5698 Y-214.8961 F12000.0
G1 Z0.0000 F8000.0
G0 X102.6645 Y-214.8961 F15000.0
G1 Z11.9000 F8000.0
G1 X102.6645 Y-207.4991 F12000.0
G1 Z0.0000 F8000.0
G0 X107.5698 Y-189.1236 F15000.0
G1 Z11.9000 F8000.0
G1 X111.8522 Y-196.5206 F12000.0
G1 Z0.0000 F8000.0
G0 X107.5698 Y-214.8961 F15000.0
G1 Z11.9000 F8000.0
G1 X111.8522 Y-207.4991 F12000.0
G1 Z0.0000 F8000.0
G0 X102.6645 Y-189.1236 F15000.0
G1 Z11.9000 F8000.0
G1 X107.5698 Y-189.1236 F12000.0
G1 Z0.0000 F8000.0
G0 X102.6645 Y-196.5206 F15000.0
G1 Z11.9000 F8000.0
G1 X102.6645 Y-189.1236 F12000.0
G1 Z0.0000 F8000.0
G0 X93.0095 Y-191.4595 F15000.0
G1 Z11.9000 F8000.0
G1 X99.3943 Y-191.4595 F12000.0
G1 Z0.0000 F8000.0
G0 X95.9682 Y-215.8305 F15000.0
G1 Z11.9000 F8000.0
G1 X96.9026 Y-214.8961 F12000.0
G1 Z0.0000 F8000.0
G0 X95.9682 Y-188.1892 F15000.0
G1 Z11.9000 F8000.0
G1 X96.9026 Y-189.1236 F12000.0
G1 Z0.0000 F8000.0
G0 X93.0095 Y-193.2504 F15000.0
G1 Z11.9000 F8000.0
G1 X93.0095 Y-191.4595 F12000.0
G1 Z0.0000 F8000.0
G0 X96.9026 Y-214.8961 F15000.0
G1 Z11.9000 F8000.0
G1 X99.3943 Y-214.8961 F12000.0
G1 Z0.0000 F8000.0
G0 X50.9638 Y-222.2152 F15000.0
G1 Z11.9000 F8000.0
G1 X59.3729 Y-222.2152 F12000.0
G1 Z0.0000 F8000.0
G0 X59.3729 Y-215.3633 F15000.0
G1 Z11.9000 F8000.0
G1 X59.3729 Y-222.2152 F12000.0
G1 Z0.0000 F8000.0
G0 X50.9638 Y-181.8046 F15000.0
G1 Z11.9000 F8000.0
G1 X48.8615 Y-185.4641 F12000.0
G1 Z0.0000 F8000.0
G0 X93.0095 Y-212.5603 F15000.0
G1 Z11.9000 F8000.0
G1 X93.0095 Y-210.7694 F12000.0
G1 Z0.0000 F8000.0
G0 X61.3973 Y-215.0518 F15000.0
G1 Z11.9000 F8000.0
G1 X62.1759 Y-215.8305 F12000.0
G1 Z0.0000 F8000.0
G0 X96.9026 Y-189.1236 F15000.0
G1 Z11.9000 F8000.0
G1 X99.3943 Y-189.1236 F12000.0
G1 Z0.0000 F8000.0
G0 X48.8615 Y-210.7694 F15000.0
G1 Z11.9000 F8000.0
G1 X48.8615 Y-218.5556 F12000.0
G1 Z0.0000 F8000.0
G0 X59.3729 Y-181.8046 F15000.0
G1 Z11.9000 F8000.0
G1 X59.3729 Y-188.6564 F12000.0
G1 Z0.0000 F8000.0
G0 X61.3973 Y-188.9679 F15000.0
G1 Z11.9000 F8000.0
G1 X62.1759 Y-188.1892 F12000.0
G1 Z0.0000 F8000.0
G0 X93.0095 Y-212.5603 F15000.0
G1 Z11.9000 F8000.0
G1 X99.3943 Y-212.5603 F12000.0
G1 Z0.0000 F8000.0
G0 X59.8400 Y-214.8961 F15000.0
G1 Z11.9000 F8000.0
G1 X61.0859 Y-214.8961 F12000.0
G1 Z0.0000 F8000.0
G0 X59.8400 Y-189.1236 F15000.0
G1 Z11.9000 F8000.0
G1 X61.0859 Y-189.1236 F12000.0
G1 Z0.0000 F8000.0
G0 X59.3729 Y-181.8046 F15000.0
G1 Z11.9000 F8000.0
G1 X50.9638 Y-181.8046 F12000.0
G1 Z0.0000 F8000.0
G0 X48.8615 Y-185.4641 F15000.0
G1 Z11.9000 F8000.0
G1 X48.8615 Y-193.2504 F12000.0
G1 Z0.0000 F8000.0
G0 X50.9638 Y-222.2152 F15000.0
G1 Z11.9000 F8000.0
G1 X48.8615 Y-218.5556 F12000.0
G1 Z0.0000 F8000.0
G0 X97.1362 Y-207.4991 F15000.0
G1 Z11.9000 F8000.0
G1 X97.1362 Y-208.9007 F12000.0
G1 Z0.0000 F8000.0
G0 X97.1362 Y-195.1191 F15000.0
G1 Z11.9000 F8000.0
G1 X99.3943 Y-192.3938 F12000.0
G1 Z0.0000 F8000.0
G0 X99.3943 Y-189.1236 F15000.0
G1 Z11.9000 F8000.0
G1 X99.3943 Y-192.3938 F12000.0
G1 Z0.0000 F8000.0
G0 X102.6645 Y-189.1236 F15000.0
G1 Z11.9000 F8000.0
G1 X99.3943 Y-189.1236 F12000.0
G1 Z0.0000 F8000.0
G0 X97.1362 Y-208.9007 F15000.0
G1 Z11.9000 F8000.0
G1 X99.3943 Y-211.6259 F12000.0
G1 Z0.0000 F8000.0
G0 X97.1362 Y-195.1191 F15000.0
G1 Z11.9000 F8000.0
G1 X97.1362 Y-196.5206 F12000.0
G1 Z0.0000 F8000.0
G0 X102.6645 Y-214.8961 F15000.0
G1 Z11.9000 F8000.0
G1 X99.3943 Y-214.8961 F12000.0
G1 Z0.0000 F8000.0
G0 X99.3943 Y-211.6259 F15000.0
G1 Z11.9000 F8000.0
G1 X99.3943 Y-214.8961 F12000.0
G1 Z0.0000 F8000.0
G0 X124.8552 Y-196.5206 F15000.0
G1 Z11.9000 F8000.0
G1 X71.5194 Y-196.5206 F12000.0
G1 Z0.0000 F8000.0
G0 X124.8552 Y-207.4991 F15000.0
G1 Z11.9000 F8000.0
G1 X71.5194 Y-207.4991 F12000.0
G1 Z0.0000 F8000.0
G0 X124.8552 Y-209.8350 F15000.0
G1 Z11.9000 F8000.0
G1 X138.6369 Y-209.8350 F12000.0
G1 Z0.0000 F8000.0
G0 X138.6369 Y-201.9709 F15000.0
G1 Z11.9000 F8000.0
G1 X138.6369 Y-194.1847 F12000.0
G1 Z0.0000 F8000.0
G0 X138.6369 Y-209.8350 F15000.0
G1 Z11.9000 F8000.0
G1 X138.6369 Y-201.9709 F12000.0
G1 Z0.0000 F8000.0
G0 X124.8552 Y-201.9709 F15000.0
G1 Z11.9000 F8000.0
G1 X124.8552 Y-194.1847 F12000.0
G1 Z0.0000 F8000.0
G0 X124.8552 Y-209.8350 F15000.0
G1 Z11.9000 F8000.0
G1 X124.8552 Y-201.9709 F12000.0
G1 Z0.0000 F8000.0
G0 X124.8552 Y-194.1847 F15000.0
G1 Z11.9000 F8000.0
G1 X138.6369 Y-194.1847 F12000.0
G1 Z0.0000 F8000.0
G0 X138.6369 Y-197.1435 F15000.0
G1 Z11.9000 F8000.0
G1 X146.8904 Y-201.9709 F12000.0
G1 Z0.0000 F8000.0
G0 X138.6369 Y-206.7984 F15000.0
G1 Z11.9000 F8000.0
G1 X146.8904 Y-201.9709 F12000.0
G1 Z0.0000 F8000.0
G0 X71.5194 Y-196.5206 F15000.0
G1 Z11.9000 F8000.0
G1 X71.5194 Y-207.4991 F12000.0
G1 X70.1179 Y-206.1755 F12000.0
G1 Z0.0000 F8000.0
G0 X70.1179 Y-197.8442 F15000.0
G1 Z11.9000 F8000.0
G1 X70.1179 Y-206.1755 F12000.0
G1 Z0.0000 F8000.0
G0 X71.5194 Y-196.5206 F15000.0
G1 Z11.9000 F8000.0
G1 X70.1179 Y-197.8442 F12000.0
G1 Z0.0000 F8000.0
G0 X126.8797 Y-200.1801 F15000.0
G1 Z11.9000 F8000.0
G1 X126.8797 Y-203.8396 F12000.0
G1 Z0.0000 F8000.0
G0 X136.5346 Y-203.8396 F15000.0
G1 Z11.9000 F8000.0
G1 X126.8797 Y-203.8396 F12000.0
G1 Z0.0000 F8000.0
G0 X136.5346 Y-200.1801 F15000.0
G1 Z11.9000 F8000.0
G1 X126.8797 Y-200.1801 F12000.0
G1 Z0.0000 F8000.0
G0 X136.5346 Y-200.1801 F15000.0
G1 Z11.9000 F8000.0
G1 X136.5346 Y-203.8396 F12000.0
G1 Z0.0000 F8000.0
G0 X165.9667 Y-204.3068 F15000.0
G1 Z11.9000 F8000.0
G1 X165.9667 Y-199.7129 F12000.0
G1 Z0.0000 F8000.0
G0 X167.1346 Y-193.9511 F15000.0
G1 Z11.9000 F8000.0
G1 X165.9667 Y-195.1191 F12000.0
G1 Z0.0000 F8000.0
G0 X180.0000 Y-199.7129 F15000.0
G1 Z11.9000 F8000.0
G1 X165.9667 Y-199.7129 F12000.0
G1 Z0.0000 F8000.0
G0 X165.9667 Y-204.3068 F15000.0
G1 Z11.9000 F8000.0
G1 X165.9667 Y-208.9007 F12000.0
G1 Z0.0000 F8000.0
G0 X180.0000 Y-210.0686 F15000.0
G1 Z11.9000 F8000.0
G1 X167.1346 Y-210.0686 F12000.0
G1 Z0.0000 F8000.0
G0 X180.0000 Y-193.9511 F15000.0
G1 Z11.9000 F8000.0
G1 X167.1346 Y-193.9511 F12000.0
G1 Z0.0000 F8000.0
G0 X180.0000 Y-204.3068 F15000.0
G1 Z11.9000 F8000.0
G1 X165.9667 Y-204.3068 F12000.0
G1 Z0.0000 F8000.0
G0 X167.1346 Y-210.0686 F15000.0
G1 Z11.9000 F8000.0
G1 X165.9667 Y-208.9007 F12000.0
G1 Z0.0000 F8000.0
G0 X165.9667 Y-195.1191 F15000.0
G1 Z11.9000 F8000.0
G1 X165.9667 Y-199.7129 F12000.0
G1 Z0.0000 F8000.0
G0 X39.7516 Y-194.0289 F15000.0
G1 Z11.9000 F8000.0
G1 X33.1332 Y-194.0289 F12000.0
G1 Z0.0000 F8000.0
G0 X39.7516 Y-197.9999 F15000.0
G1 Z11.9000 F8000.0
G1 X33.1332 Y-197.9999 F12000.0
G1 Z0.0000 F8000.0
G0 X39.7516 Y-206.0198 F15000.0
G1 Z11.9000 F8000.0
G1 X33.1332 Y-206.0198 F12000.0
G1 Z0.0000 F8000.0
G0 X39.7516 Y-209.9908 F15000.0
G1 Z11.9000 F8000.0
G1 X33.1332 Y-209.9908 F12000.0
G1 X32.7439 Y-209.2900 F12000.0
G1 X32.5104 Y-208.2778 F12000.0
G1 X32.5104 Y-207.3434 F12000.0
G1 X32.8217 Y-206.4870 F12000.0
G1 X33.1332 Y-206.0198 F12000.0
G1 Z0.0000 F8000.0
G0 X32.2768 Y-208.5893 F15000.0
G1 Z11.9000 F8000.0
G1 X32.2768 Y-195.4305 F12000.0
G1 Z0.0000 F8000.0
G0 X33.1332 Y-209.9908 F15000.0
G1 Z11.9000 F8000.0
G1 X32.2768 Y-208.5893 F12000.0
G1 Z0.0000 F8000.0
G0 X33.1332 Y-206.0198 F15000.0
G1 Z11.9000 F8000.0
G1 X32.9775 Y-205.4747 F12000.0
G1 X32.8217 Y-204.7740 F12000.0
G1 X32.6660 Y-203.9175 F12000.0
G1 X32.5104 Y-203.2168 F12000.0
G1 X32.5104 Y-202.8275 F12000.0
G1 X32.5104 Y-202.4381 F12000.0
G1 X32.5104 Y-201.9709 F12000.0
G1 Z0.0000 F8000.0
G0 X32.5104 Y-201.7373 F15000.0
G1 Z11.9000 F8000.0
G1 X32.5104 Y-201.3481 F12000.0
G1 X32.5104 Y-200.9588 F12000.0
G1 Z0.0000 F8000.0
G0 X32.5882 Y-200.7252 F15000.0
G1 Z11.9000 F8000.0
G1 X32.5882 Y-200.1801 F12000.0
G1 X32.7439 Y-199.6350 F12000.0
G1 X32.8996 Y-198.7786 F12000.0
G1 X33.1332 Y-197.9999 F12000.0
G1 Z0.0000 F8000.0
G0 X33.1332 Y-194.0289 F15000.0
G1 Z11.9000 F8000.0
G1 X32.2768 Y-195.4305 F12000.0
G1 Z0.0000 F8000.0
G0 X33.1332 Y-197.9999 F15000.0
G1 Z11.9000 F8000.0
G1 X32.7439 Y-197.3771 F12000.0
G1 X32.5104 Y-196.3648 F12000.0
G1 X32.5104 Y-195.4305 F12000.0
G1 X32.8217 Y-194.4961 F12000.0
G1 X33.1332 Y-194.0289 F12000.0
G1 Z0.0000 F8000.0
G0 X40.5301 Y-208.5893 F15000.0
G1 Z11.9000 F8000.0
G1 X39.7516 Y-209.9908 F12000.0
G1 Z0.0000 F8000.0
G0 X40.5301 Y-195.4305 F15000.0
G1 Z11.9000 F8000.0
G1 X39.7516 Y-194.0289 F12000.0
G1 Z0.0000 F8000.0
G0 X39.7516 Y-206.0198 F15000.0
G1 Z11.9000 F8000.0
G1 X40.0630 Y-206.6427 F12000.0
G1 X40.3744 Y-207.6549 F12000.0
G1 X40.2966 Y-208.5893 F12000.0
G1 X39.9852 Y-209.5236 F12000.0
G1 X39.7516 Y-209.9908 F12000.0
G1 Z0.0000 F8000.0
G0 X39.7516 Y-194.0289 F15000.0
G1 Z11.9000 F8000.0
G1 X40.0630 Y-194.7297 F12000.0
G1 X40.3744 Y-195.7419 F12000.0
G1 X40.2966 Y-196.5984 F12000.0
G1 X39.9852 Y-197.5328 F12000.0
G1 X39.7516 Y-197.9999 F12000.0
G1 Z0.0000 F8000.0
G0 X40.5301 Y-208.5893 F15000.0
G1 Z11.9000 F8000.0
G1 X40.5301 Y-195.4305 F12000.0
G1 Z0.0000 F8000.0
G0 X39.7516 Y-197.9999 F15000.0
G1 Z11.9000 F8000.0
G1 X39.9073 Y-198.5450 F12000.0
G1 X40.0630 Y-199.2458 F12000.0
G1 X40.2188 Y-200.1022 F12000.0
G1 X40.2966 Y-200.8030 F12000.0
G1 X40.2966 Y-201.1924 F12000.0
G1 X40.3744 Y-201.5816 F12000.0
G1 X40.3744 Y-201.9709 F12000.0
G1 Z0.0000 F8000.0
G0 X40.3744 Y-202.2824 F15000.0
G1 Z11.9000 F8000.0
G1 X40.3744 Y-202.6717 F12000.0
G1 X40.2966 Y-203.0611 F12000.0
G1 Z0.0000 F8000.0
G0 X40.2966 Y-203.2946 F15000.0
G1 Z11.9000 F8000.0
G1 X40.2188 Y-203.8396 F12000.0
G1 X40.1409 Y-204.3847 F12000.0
G1 X39.9852 Y-205.2411 F12000.0
G1 X39.7516 Y-206.0198 F12000.0
G1 Z0.0000 F8000.0
G0 X114.9667 Y-214.8961 F15000.0
G1 Z11.9000 F8000.0
G1 X107.5698 Y-214.8961 F12000.0
G1 Z0.0000 F8000.0
G0 X114.9667 Y-189.1236 F15000.0
G1 Z11.9000 F8000.0
G1 X107.5698 Y-189.1236 F12000.0
G1 Z0.0000 F8000.0
G0 X62.9546 Y-216.2977 F15000.0
G1 Z11.9000 F8000.0
G1 X62.9546 Y-215.8305 F12000.0
G1 Z0.0000 F8000.0
G0 X62.9546 Y-188.1892 F15000.0
G1 Z11.9000 F8000.0
G1 X62.9546 Y-187.7221 F12000.0
G1 Z0.0000 F8000.0
G0 X128.6705 Y-211.6259 F15000.0
G1 Z11.9000 F8000.0
G1 X128.1255 Y-211.5480 F12000.0
G1 X127.2690 Y-211.4701 F12000.0
G1 X126.1011 Y-211.5480 F12000.0
G1 X125.4782 Y-211.6259 F12000.0
G1 Z0.0000 F8000.0
G0 X135.3667 Y-256.2411 F15000.0
G1 Z11.9000 F8000.0
G1 X118.8598 Y-256.2411 F12000.0
G1 Z0.0000 F8000.0
G0 X135.3667 Y-237.8655 F15000.0
G1 Z11.9000 F8000.0
G1 X118.8598 Y-237.8655 F12000.0
G1 Z0.0000 F8000.0
G0 X128.9820 Y-231.4030 F15000.0
G1 Z11.9000 F8000.0
G1 X125.3224 Y-231.4030 F12000.0
G1 Z0.0000 F8000.0
G0 X143.9316 Y-197.8442 F15000.0
G1 Z11.9000 F8000.0
G1 X143.9316 Y-200.2580 F12000.0
G1 Z0.0000 F8000.0
G0 X143.9316 Y-203.7618 F15000.0
G1 Z11.9000 F8000.0
G1 X143.9316 Y-206.1755 F12000.0
G1 Z0.0000 F8000.0
G0 X145.7224 Y-199.7129 F15000.0
G1 Z11.9000 F8000.0
G1 X145.7224 Y-201.3481 F12000.0
G1 Z0.0000 F8000.0
G0 X145.7224 Y-202.6717 F15000.0
G1 Z11.9000 F8000.0
G1 X145.7224 Y-204.3068 F12000.0
G1 Z0.0000 F8000.0
G0 X155.9224 Y-199.7129 F15000.0
G1 Z11.9000 F8000.0
G1 X155.9224 Y-204.3068 F12000.0
G1 Z0.0000 F8000.0
G0 X158.8033 Y-194.6519 F15000.0
G1 Z11.9000 F8000.0
G1 X158.8033 Y-209.3678 F12000.0
G1 Z0.0000 F8000.0
G0 X143.9316 Y-205.2411 F15000.0
G1 Z11.9000 F8000.0
G1 X141.3622 Y-205.2411 F12000.0
G1 Z0.0000 F8000.0
G0 X143.9316 Y-198.7786 F15000.0
G1 Z11.9000 F8000.0
G1 X141.3622 Y-198.7786 F12000.0
G1 Z0.0000 F8000.0
G0 X103.4430 Y-224.5510 F15000.0
G1 Z11.9000 F8000.0
G1 X107.8034 Y-224.5510 F12000.0
G1 Z0.0000 F8000.0
G0 X158.8033 Y-209.3678 F15000.0
G1 Z11.9000 F8000.0
G1 X155.9224 Y-204.3068 F12000.0
G1 Z0.0000 F8000.0
G0 X158.8033 Y-194.6519 F15000.0
G1 Z11.9000 F8000.0
G1 X155.9224 Y-199.7129 F12000.0
G1 Z0.0000 F8000.0
G0 X169.2369 Y-190.0579 F15000.0
G1 Z11.9000 F8000.0
G1 X176.0888 Y-190.0579 F12000.0
G1 Z0.0000 F8000.0
G0 X176.0888 Y-193.9511 F15000.0
G1 Z11.9000 F8000.0
G1 X176.0888 Y-190.0579 F12000.0
G1 Z0.0000 F8000.0
G0 X120.0278 Y-188.8900 F15000.0
G1 Z11.9000 F8000.0
G1 X64.1225 Y-188.8900 F12000.0
G1 Z0.0000 F8000.0
G0 X150.7835 Y-223.1495 F15000.0
G1 Z11.9000 F8000.0
G1 X169.2369 Y-213.9618 F12000.0
G1 Z0.0000 F8000.0
G0 X125.3224 Y-211.6259 F15000.0
G1 Z11.9000 F8000.0
G1 X125.3224 Y-231.4030 F12000.0
G1 Z0.0000 F8000.0
G0 X143.9316 Y-192.3160 F15000.0
G1 Z11.9000 F8000.0
G1 X143.9316 Y-197.8442 F12000.0
G1 Z0.0000 F8000.0
G0 X103.4430 Y-220.4244 F15000.0
G1 Z11.9000 F8000.0
G1 X62.9546 Y-220.4244 F12000.0
G1 Z0.0000 F8000.0
G0 X107.8034 Y-228.2106 F15000.0
G1 Z11.9000 F8000.0
G1 X114.2660 Y-228.2106 F12000.0
G1 Z0.0000 F8000.0
G0 X103.4430 Y-183.5954 F15000.0
G1 Z11.9000 F8000.0
G1 X62.9546 Y-183.5954 F12000.0
G1 Z0.0000 F8000.0
G0 X176.0888 Y-210.0686 F15000.0
G1 Z11.9000 F8000.0
G1 X175.3881 Y-209.3678 F12000.0
G1 Z0.0000 F8000.0
G0 X169.2369 Y-213.9618 F15000.0
G1 Z11.9000 F8000.0
G1 X176.0888 Y-213.9618 F12000.0
G1 Z0.0000 F8000.0
G0 X135.3667 Y-237.8655 F15000.0
G1 Z11.9000 F8000.0
G1 X135.3667 Y-256.2411 F12000.0
G1 Z0.0000 F8000.0
G0 X140.0384 Y-255.1510 F15000.0
G1 Z11.9000 F8000.0
G1 X138.8705 Y-256.2411 F12000.0
G1 Z0.0000 F8000.0
G0 X62.9546 Y-183.5954 F15000.0
G1 Z11.9000 F8000.0
G1 X62.9546 Y-187.7221 F12000.0
G1 Z0.0000 F8000.0
G0 X146.4232 Y-224.5510 F15000.0
G1 Z11.9000 F8000.0
G1 X146.4232 Y-228.2106 F12000.0
G1 Z0.0000 F8000.0
G0 X150.7835 Y-181.8046 F15000.0
G1 Z11.9000 F8000.0
G1 X150.7835 Y-180.4030 F12000.0
G1 Z0.0000 F8000.0
G0 X103.4430 Y-180.4030 F15000.0
G1 Z11.9000 F8000.0
G1 X150.7835 Y-180.4030 F12000.0
G1 Z0.0000 F8000.0
G0 X125.3224 Y-211.6259 F15000.0
G1 Z11.9000 F8000.0
G1 X120.0278 Y-211.6259 F12000.0
G1 Z0.0000 F8000.0
G0 X114.2660 Y-228.2106 F15000.0
G1 Z11.9000 F8000.0
G1 X114.2660 Y-255.1510 F12000.0
G1 Z0.0000 F8000.0
G0 X118.8598 Y-237.8655 F15000.0
G1 Z11.9000 F8000.0
G1 X118.8598 Y-256.2411 F12000.0
G1 Z0.0000 F8000.0
G0 X62.9546 Y-216.2977 F15000.0
G1 Z11.9000 F8000.0
G1 X64.1225 Y-215.1297 F12000.0
G1 Z0.0000 F8000.0
G0 X62.9546 Y-187.7221 F15000.0
G1 Z11.9000 F8000.0
G1 X64.1225 Y-188.8900 F12000.0
G1 Z0.0000 F8000.0
G0 X143.9316 Y-206.1755 F15000.0
G1 Z11.9000 F8000.0
G1 X143.9316 Y-211.6259 F12000.0
G1 Z0.0000 F8000.0
G0 X158.8033 Y-209.3678 F15000.0
G1 Z11.9000 F8000.0
G1 X175.3881 Y-209.3678 F12000.0
G1 Z0.0000 F8000.0
G0 X103.4430 Y-180.4030 F15000.0
G1 Z11.9000 F8000.0
G1 X103.4430 Y-183.5954 F12000.0
G1 Z0.0000 F8000.0
G0 X146.4232 Y-224.5510 F15000.0
G1 Z11.9000 F8000.0
G1 X150.7835 Y-224.5510 F12000.0
G1 Z0.0000 F8000.0
G0 X140.0384 Y-228.2106 F15000.0
G1 Z11.9000 F8000.0
G1 X140.0384 Y-255.1510 F12000.0
G1 Z0.0000 F8000.0
G0 X128.9820 Y-231.4030 F15000.0
G1 Z11.9000 F8000.0
G1 X135.3667 Y-237.8655 F12000.0
G1 Z0.0000 F8000.0
G0 X135.3667 Y-256.2411 F15000.0
G1 Z11.9000 F8000.0
G1 X138.8705 Y-256.2411 F12000.0
G1 Z0.0000 F8000.0
G0 X114.2660 Y-255.1510 F15000.0
G1 Z11.9000 F8000.0
G1 X115.4339 Y-256.2411 F12000.0
G1 Z0.0000 F8000.0
G0 X176.0888 Y-193.9511 F15000.0
G1 Z11.9000 F8000.0
G1 X175.3881 Y-194.6519 F12000.0
G1 Z0.0000 F8000.0
G0 X140.0384 Y-228.2106 F15000.0
G1 Z11.9000 F8000.0
G1 X146.4232 Y-228.2106 F12000.0
G1 Z0.0000 F8000.0
G0 X115.4339 Y-256.2411 F15000.0
G1 Z11.9000 F8000.0
G1 X118.8598 Y-256.2411 F12000.0
G1 Z0.0000 F8000.0
G0 X158.8033 Y-194.6519 F15000.0
G1 Z11.9000 F8000.0
G1 X175.3881 Y-194.6519 F12000.0
G1 Z0.0000 F8000.0
G0 X120.0278 Y-215.1297 F15000.0
G1 Z11.9000 F8000.0
G1 X64.1225 Y-215.1297 F12000.0
G1 Z0.0000 F8000.0
G0 X176.0888 Y-213.9618 F15000.0
G1 Z11.9000 F8000.0
G1 X176.0888 Y-210.0686 F12000.0
G1 Z0.0000 F8000.0
G0 X145.7224 Y-204.3068 F15000.0
G1 Z11.9000 F8000.0
G1 X155.9224 Y-204.3068 F12000.0
G1 Z0.0000 F8000.0
G0 X125.3224 Y-231.4030 F15000.0
G1 Z11.9000 F8000.0
G1 X118.8598 Y-237.8655 F12000.0
G1 Z0.0000 F8000.0
G0 X143.9316 Y-197.8442 F15000.0
G1 Z11.9000 F8000.0
G1 X145.7224 Y-199.7129 F12000.0
G1 Z0.0000 F8000.0
G0 X103.4430 Y-220.4244 F15000.0
G1 Z11.9000 F8000.0
G1 X103.4430 Y-224.5510 F12000.0
G1 Z0.0000 F8000.0
G0 X62.9546 Y-216.2977 F15000.0
G1 Z11.9000 F8000.0
G1 X62.9546 Y-220.4244 F12000.0
G1 Z0.0000 F8000.0
G0 X150.7835 Y-224.5510 F15000.0
G1 Z11.9000 F8000.0
G1 X150.7835 Y-223.1495 F12000.0
G1 Z0.0000 F8000.0
G0 X143.9316 Y-206.1755 F15000.0
G1 Z11.9000 F8000.0
G1 X145.7224 Y-204.3068 F12000.0
G1 Z0.0000 F8000.0
G0 X143.9316 Y-211.6259 F15000.0
G1 Z11.9000 F8000.0
G1 X128.9820 Y-211.6259 F12000.0
G1 Z0.0000 F8000.0
G0 X169.2369 Y-190.0579 F15000.0
G1 Z11.9000 F8000.0
G1 X150.7835 Y-181.8046 F12000.0
G1 Z0.0000 F8000.0
G0 X145.7224 Y-199.7129 F15000.0
G1 Z11.9000 F8000.0
G1 X155.9224 Y-199.7129 F12000.0
G1 Z0.0000 F8000.0
G0 X128.9820 Y-211.6259 F15000.0
G1 Z11.9000 F8000.0
G1 X128.9820 Y-231.4030 F12000.0
G1 Z0.0000 F8000.0
G0 X107.8034 Y-224.5510 F15000.0
G1 Z11.9000 F8000.0
G1 X107.8034 Y-228.2106 F12000.0
G1 Z0.0000 F8000.0
G0 X143.9316 Y-192.3160 F15000.0
G1 Z11.9000 F8000.0
G1 X120.0278 Y-192.3160 F12000.0
G1 Z0.0000 F8000.0
G0 X114.2660 Y-241.5250 F15000.0
G1 Z11.9000 F8000.0
G1 X118.8598 Y-241.5250 F12000.0
G1 Z0.0000 F8000.0
G0 X114.9667 Y-255.8518 F15000.0
G1 Z11.9000 F8000.0
G1 X114.9667 Y-241.5250 F12000.0
G1 Z0.0000 F8000.0
G0 X135.3667 Y-241.5250 F15000.0
G1 Z11.9000 F8000.0
G1 X132.6415 Y-241.5250 F12000.0
G1 Z0.0000 F8000.0
G0 X130.7728 Y-241.5250 F15000.0
G1 Z11.9000 F8000.0
G1 X128.0476 Y-241.5250 F12000.0
G1 Z0.0000 F8000.0
G0 X126.1789 Y-241.5250 F15000.0
G1 Z11.9000 F8000.0
G1 X123.4537 Y-241.5250 F12000.0
G1 Z0.0000 F8000.0
G0 X121.5851 Y-241.5250 F15000.0
G1 Z11.9000 F8000.0
G1 X118.8598 Y-241.5250 F12000.0
G1 Z0.0000 F8000.0
G0 X139.2599 Y-255.8518 F15000.0
G1 Z11.9000 F8000.0
G1 X139.2599 Y-241.5250 F12000.0
G1 Z0.0000 F8000.0
G0 X135.3667 Y-241.5250 F15000.0
G1 Z11.9000 F8000.0
G1 X140.0384 Y-241.5250 F12000.0
G1 Z0.0000 F8000.0
G0 X96.5133 Y-215.1297 F15000.0
G1 Z11.9000 F8000.0
G1 X96.5133 Y-220.4244 F12000.0
G1 Z0.0000 F8000.0
G0 X96.5133 Y-183.5954 F15000.0
G1 Z11.9000 F8000.0
G1 X96.5133 Y-188.8900 F12000.0
G1 Z0.0000 F8000.0
G0 X90.6736 Y-196.0534 F15000.0
G1 Z11.9000 F8000.0
G1 X90.6736 Y-196.5206 F12000.0
G1 Z0.0000 F8000.0
G0 X90.6736 Y-207.4991 F15000.0
G1 Z11.9000 F8000.0
G1 X90.6736 Y-207.9663 F12000.0
G1 Z0.0000 F8000.0
G0 X61.6309 Y-197.1435 F15000.0
G1 Z11.9000 F8000.0
G1 X61.6309 Y-206.7984 F12000.0
G1 Z0.0000 F8000.0
G0 X96.7469 Y-195.5863 F15000.0
G1 Z11.9000 F8000.0
G1 X96.7469 Y-196.5206 F12000.0
G1 Z0.0000 F8000.0
G0 X96.7469 Y-207.4991 F15000.0
G1 Z11.9000 F8000.0
G1 X96.7469 Y-208.4335 F12000.0
G1 Z0.0000 F8000.0
G0 X32.2768 Y-197.8442 F15000.0
G1 Z11.9000 F8000.0
G1 X31.8096 Y-198.3114 F12000.0
G1 Z0.0000 F8000.0
G0 X32.2768 Y-206.1755 F15000.0
G1 Z11.9000 F8000.0
G1 X31.8096 Y-205.7083 F12000.0
G1 Z0.0000 F8000.0
G0 X99.3943 Y-211.6259 F15000.0
G1 Z11.9000 F8000.0
G1 X93.0095 Y-211.6259 F12000.0
G1 Z0.0000 F8000.0
G0 X99.3943 Y-211.6259 F15000.0
G1 Z11.9000 F8000.0
G1 X96.7469 Y-208.4335 F12000.0
G1 Z0.0000 F8000.0
G0 X61.6309 Y-197.1435 F15000.0
G1 Z11.9000 F8000.0
G1 X70.8187 Y-197.1435 F12000.0
G1 Z0.0000 F8000.0
G0 X61.6309 Y-206.7984 F15000.0
G1 Z11.9000 F8000.0
G1 X70.8187 Y-206.7984 F12000.0
G1 Z0.0000 F8000.0
G0 X90.6736 Y-196.0534 F15000.0
G1 Z11.9000 F8000.0
G1 X90.2064 Y-196.5206 F12000.0
G1 Z0.0000 F8000.0
G0 X31.8096 Y-198.3114 F15000.0
G1 Z11.9000 F8000.0
G1 X31.8096 Y-205.7083 F12000.0
G1 Z0.0000 F8000.0
G0 X48.3943 Y-196.5206 F15000.0
G1 Z11.9000 F8000.0
G1 X40.5301 Y-196.5206 F12000.0
G1 Z0.0000 F8000.0
G0 X90.6736 Y-196.0534 F15000.0
G1 Z11.9000 F8000.0
G1 X90.6736 Y-195.5863 F12000.0
G1 Z0.0000 F8000.0
G0 X93.0095 Y-210.7694 F15000.0
G1 Z11.9000 F8000.0
G1 X48.3943 Y-210.7694 F12000.0
G1 Z0.0000 F8000.0
G0 X99.3943 Y-192.3160 F15000.0
G1 Z11.9000 F8000.0
G1 X96.7469 Y-195.5863 F12000.0
G1 Z0.0000 F8000.0
G0 X99.3943 Y-192.3160 F15000.0
G1 Z11.9000 F8000.0
G1 X93.0095 Y-192.3160 F12000.0
G1 Z0.0000 F8000.0
G0 X61.6309 Y-206.7984 F15000.0
G1 Z11.9000 F8000.0
G1 X58.9836 Y-202.2045 F12000.0
G1 X58.9836 Y-201.8152 F12000.0
G1 Z0.0000 F8000.0
G0 X90.6736 Y-208.4335 F15000.0
G1 Z11.9000 F8000.0
G1 X96.7469 Y-208.4335 F12000.0
G1 Z0.0000 F8000.0
G0 X40.5301 Y-207.4991 F15000.0
G1 Z11.9000 F8000.0
G1 X48.3943 Y-207.4991 F12000.0
G1 Z0.0000 F8000.0
G0 X93.0095 Y-193.2504 F15000.0
G1 Z11.9000 F8000.0
G1 X48.3943 Y-193.2504 F12000.0
G1 Z0.0000 F8000.0
G0 X90.6736 Y-195.5863 F15000.0
G1 Z11.9000 F8000.0
G1 X96.7469 Y-195.5863 F12000.0
G1 Z0.0000 F8000.0
G0 X90.6736 Y-207.9663 F15000.0
G1 Z11.9000 F8000.0
G1 X90.2064 Y-207.4991 F12000.0
G1 Z0.0000 F8000.0
G0 X90.6736 Y-208.4335 F15000.0
G1 Z11.9000 F8000.0
G1 X90.6736 Y-207.9663 F12000.0
G1 Z0.0000 F8000.0
G0 X61.6309 Y-197.1435 F15000.0
G1 Z11.9000 F8000.0
G1 X58.9836 Y-201.8152 F12000.0
G1 Z0.0000 F8000.0
G0 X127.1133 Y-267.2976 F15000.0
G1 Z11.9000 F8000.0
G1 X127.1133 Y-256.2411 F12000.0
G1 Z0.0000 F8000.0
G0 X127.1133 Y-176.7434 F15000.0
G1 Z11.9000 F8000.0
G1 X127.1133 Y-165.6870 F12000.0
G1 Z0.0000 F8000.0
G0 X139.6777 Y-224.8340 F15000.0
G1 Z11.9000 F8000.0
G1 X140.3214 Y-224.1903 F12000.0
G1 Z0.0000 F8000.0
G0 X169.2369 Y-255.1510 F15000.0
G1 Z11.9000 F8000.0
G1 X140.0384 Y-224.5510 F12000.0
G1 Z0.0000 F8000.0
G0 X169.2369 Y-255.1510 F15000.0
G1 Z11.9000 F8000.0
G1 X177.9575 Y-255.1510 F12000.0
G1 Z0.0000 F8000.0
G0 X173.2226 Y-256.4268 F15000.0
G1 Z11.9000 F8000.0
G1 X173.8915 Y-258.1825 F12000.0
G1 Z0.0000 F8000.0
G0 X173.6407 Y-261.1922 F15000.0
G1 Z11.9000 F8000.0
G1 X173.9750 Y-261.3595 F12000.0
G1 Z0.0000 F8000.0
G0 X174.0169 Y-258.5170 F15000.0
G1 Z11.9000 F8000.0
G1 X174.1005 Y-258.7678 F12000.0
G1 Z0.0000 F8000.0
G0 X174.2259 Y-259.1022 F15000.0
G1 Z11.9000 F8000.0
G1 X174.2677 Y-259.2276 F12000.0
G1 Z0.0000 F8000.0
G0 X174.3095 Y-261.5267 F15000.0
G1 Z11.9000 F8000.0
G1 X174.6021 Y-261.6520 F12000.0
G1 Z0.0000 F8000.0
G0 X174.6021 Y-260.1472 F15000.0
G1 Z11.9000 F8000.0
G1 X174.6439 Y-260.2726 F12000.0
G1 Z0.0000 F8000.0
G0 X174.9783 Y-261.1922 F15000.0
G1 Z11.9000 F8000.0
G1 X175.2292 Y-261.8193 F12000.0
G1 Z0.0000 F8000.0
G0 X53.2249 Y-219.2144 F15000.0
G1 Z11.9000 F8000.0
G1 X53.8415 Y-218.5977 F12000.0
G1 Z0.0000 F8000.0
G0 X27.9943 Y-253.3602 F15000.0
G1 Z11.9000 F8000.0
G1 X53.5333 Y-218.8671 F12000.0
G1 Z0.0000 F8000.0
G0 X27.9943 Y-253.3602 F15000.0
G1 Z11.9000 F8000.0
G1 X18.0279 Y-253.3602 F12000.0
G1 Z0.0000 F8000.0
G0 X21.0137 Y-255.9592 F15000.0
G1 Z11.9000 F8000.0
G1 X21.5153 Y-256.3772 F12000.0
G1 Z0.0000 F8000.0
G0 X21.3899 Y-256.0846 F15000.0
G1 Z11.9000 F8000.0
G1 X23.1038 Y-255.8756 F12000.0
G1 X23.2709 Y-256.3354
G1 Z0.0000 F8000.0
G0 X21.6825 Y-256.6698 F15000.0
G1 Z11.9000 F8000.0
G1 X21.8079 Y-256.8788 F12000.0
G1 Z0.0000 F8000.0
G0 X21.9751 Y-257.1715 F15000.0
G1 Z11.9000 F8000.0
G1 X22.2260 Y-257.5476 F12000.0
G1 Z0.0000 F8000.0
G0 X22.3513 Y-254.5379 F15000.0
G1 Z11.9000 F8000.0
G1 X22.9366 Y-255.8338 F12000.0
G1 Z0.0000 F8000.0
G0 X22.3932 Y-257.8402 F15000.0
G1 Z11.9000 F8000.0
G1 X22.6021 Y-258.1747 F12000.0
G1 Z0.0000 F8000.0
G0 X22.7694 Y-258.4672 F15000.0
G1 Z11.9000 F8000.0
G1 X23.0202 Y-258.8435 F12000.0
G1 Z0.0000 F8000.0
G0 X23.1038 Y-255.8756 F15000.0
G1 Z11.9000 F8000.0
G1 X23.8144 Y-255.6247 F12000.0
G1 Z0.0000 F8000.0
G0 X23.1874 Y-259.1361 F15000.0
G1 Z11.9000 F8000.0
G1 X23.3128 Y-259.3451 F12000.0
G1 Z0.0000 F8000.0
G0 X23.4800 Y-256.7117 F15000.0
G1 Z11.9000 F8000.0
G1 X23.7308 Y-257.2132 F12000.0
G1 Z0.0000 F8000.0
G0 X23.5636 Y-259.7631 F15000.0
G1 Z11.9000 F8000.0
G1 X23.7308 Y-260.0140 F12000.0
G1 Z0.0000 F8000.0
G0 X23.8980 Y-260.3065 F15000.0
G1 Z11.9000 F8000.0
G1 X23.9816 Y-260.4320 F12000.0
G1 Z0.0000 F8000.0
G0 X46.2426 Y-171.4203 F15000.0
G1 Z11.9000 F8000.0
G1 X46.8864 Y-170.7766 F12000.0
G1 Z0.0000 F8000.0
G0 X27.9943 Y-137.8901 F15000.0
G1 Z11.9000 F8000.0
G1 X46.5256 Y-171.0595 F12000.0
G1 Z0.0000 F8000.0
G0 X27.9943 Y-137.8901 F15000.0
G1 Z11.9000 F8000.0
G1 X18.5730 Y-137.8901 F12000.0
G1 Z0.0000 F8000.0
G0 X21.2719 Y-139.2302 F15000.0
G1 Z11.9000 F8000.0
G1 X22.9440 Y-139.6064 F12000.0
G1 Z0.0000 F8000.0
G0 X23.3202 Y-139.8154 F15000.0
G1 Z11.9000 F8000.0
G1 X23.4457 Y-142.0727 F12000.0
G1 X22.6514 Y-142.3235
G1 X23.4038 Y-144.8316
G1 Z0.0000 F8000.0
G0 X23.4874 Y-144.9152 F15000.0
G1 Z11.9000 F8000.0
G1 X25.6193 Y-144.7897 F12000.0
G1 Z0.0000 F8000.0
G0 X82.8904 Y-199.7877 F15000.0
G1 Z11.9000 F8000.0
G1 X83.5072 Y-199.1710 F12000.0
G1 Z0.0000 F8000.0
G0 X70.6630 Y-137.8901 F15000.0
G1 Z11.9000 F8000.0
G1 X83.1988 Y-199.4793 F12000.0
G1 Z0.0000 F8000.0
G0 X70.6630 Y-137.8901 F15000.0
G1 Z11.9000 F8000.0
G1 X60.5408 Y-137.8901 F12000.0
G1 Z0.0000 F8000.0
G0 X54.8600 Y-207.3014 F15000.0
G1 Z11.9000 F8000.0
G1 X55.4766 Y-206.6847 F12000.0
G1 Z0.0000 F8000.0
G0 X27.9943 Y-234.6732 F15000.0
G1 Z11.9000 F8000.0
G1 X55.1684 Y-206.9542 F12000.0
G1 Z0.0000 F8000.0
G0 X27.9943 Y-234.6732 F15000.0
G1 Z11.9000 F8000.0
G1 X17.8722 Y-234.6732 F12000.0
G1 Z0.0000 F8000.0
G0 X21.6848 Y-235.8547 F15000.0
G1 Z11.9000 F8000.0
G1 X21.7684 Y-235.9800 F12000.0
G1 Z0.0000 F8000.0
G0 X22.0191 Y-236.3981 F15000.0
G1 Z11.9000 F8000.0
G1 X22.2700 Y-236.7743 F12000.0
G1 Z0.0000 F8000.0
G0 X22.5626 Y-241.4978 F15000.0
G1 Z11.9000 F8000.0
G1 X22.6461 Y-241.5814 F12000.0
G1 Z0.0000 F8000.0
G0 X22.6044 Y-237.3177 F15000.0
G1 Z11.9000 F8000.0
G1 X22.8134 Y-237.6103 F12000.0
G1 Z0.0000 F8000.0
G0 X22.9388 Y-241.7905 F15000.0
G1 Z11.9000 F8000.0
G1 X25.6141 Y-241.7069 F12000.0
G1 Z0.0000 F8000.0
G0 X23.1478 Y-238.1538 F15000.0
G1 Z11.9000 F8000.0
G1 X23.3150 Y-238.4045 F12000.0
G1 Z0.0000 F8000.0
G0 X23.5658 Y-238.8225 F15000.0
G1 Z11.9000 F8000.0
G1 X23.9003 Y-239.3242 F12000.0
G1 Z0.0000 F8000.0
G0 X24.1093 Y-239.6586 F15000.0
G1 Z11.9000 F8000.0
G1 X24.4018 Y-240.1184 F12000.0
G1 Z0.0000 F8000.0
G0 X24.6109 Y-240.4528 F15000.0
G1 Z11.9000 F8000.0
G1 X24.9452 Y-240.9544 F12000.0
G1 Z0.0000 F8000.0
G0 X25.1961 Y-241.3725 F15000.0
G1 Z11.9000 F8000.0
G1 X25.2379 Y-241.5814 F12000.0
G1 Z0.0000 F8000.0
G0 X117.1500 Y-211.5449 F15000.0
G1 Z11.9000 F8000.0
G1 X117.7667 Y-210.9283 F12000.0
G1 Z0.0000 F8000.0
G0 X96.5133 Y-255.1510 F15000.0
G1 Z11.9000 F8000.0
G1 X117.4583 Y-211.2365 F12000.0
G1 Z0.0000 F8000.0
G0 X96.5133 Y-255.1510 F15000.0
G1 Z11.9000 F8000.0
G1 X86.6248 Y-255.1510 F12000.0
G1 Z0.0000 F8000.0
G0 X110.9464 Y-211.5195 F15000.0
G1 Z11.9000 F8000.0
G1 X111.5901 Y-210.8758 F12000.0
G1 Z0.0000 F8000.0
G0 X79.0721 Y-255.1510 F15000.0
G1 Z11.9000 F8000.0
G1 X111.2293 Y-211.2365 F12000.0
G1 Z0.0000 F8000.0
G0 X79.0721 Y-255.1510 F15000.0
G1 Z11.9000 F8000.0
G1 X69.1057 Y-255.1510 F12000.0
G1 Z0.0000 F8000.0
G0 X99.5785 Y-210.6241 F15000.0
G1 Z11.9000 F8000.0
G1 X100.2222 Y-209.9803 F12000.0
G1 Z0.0000 F8000.0
G0 X48.3943 Y-255.1510 F15000.0
G1 Z11.9000 F8000.0
G1 X99.8614 Y-210.3022 F12000.0
G1 Z0.0000 F8000.0
G0 X48.3943 Y-255.1510 F15000.0
G1 Z11.9000 F8000.0
G1 X35.8584 Y-255.1510 F12000.0
G1 Z0.0000 F8000.0
G0 X104.7953 Y-211.5195 F15000.0
G1 Z11.9000 F8000.0
G1 X105.4390 Y-210.8758 F12000.0
G1 Z0.0000 F8000.0
G0 X62.9546 Y-255.1510 F15000.0
G1 Z11.9000 F8000.0
G1 X105.0782 Y-211.2365 F12000.0
G1 Z0.0000 F8000.0
G0 X62.9546 Y-255.1510 F15000.0
G1 Z11.9000 F8000.0
G1 X50.1072 Y-255.1510 F12000.0
G1 Z0.0000 F8000.0
G0 X36.0951 Y-205.6663 F15000.0
G1 Z11.9000 F8000.0
G1 X36.7118 Y-205.0496 F12000.0
G1 Z0.0000 F8000.0
G0 X27.9943 Y-226.3419 F15000.0
G1 Z11.9000 F8000.0
G1 X36.4035 Y-205.3190 F12000.0
G1 Z0.0000 F8000.0
G0 X27.9943 Y-226.3419 F15000.0
G1 Z11.9000 F8000.0
G1 X16.0035 Y-226.3419 F12000.0
G1 Z0.0000 F8000.0
G0 X127.1133 Y-264.5724 F15000.0
G1 Z11.9000 F8000.0
G1 X134.0430 Y-265.4289 F12000.0
G1 X133.3423 Y-264.5724 F12000.0
G1 X134.0430 Y-263.6381 F12000.0
G1 X127.1133 Y-264.5724 F12000.0
G1 Z0.0000 F8000.0
G0 X133.4202 Y-265.3510 F15000.0
G1 Z11.9000 F8000.0
G1 X134.0430 Y-265.3510 F12000.0
G1 Z0.0000 F8000.0
G0 X132.1743 Y-265.1953 F15000.0
G1 Z11.9000 F8000.0
G1 X133.8873 Y-265.1953 F12000.0
G1 Z0.0000 F8000.0
G0 X130.9285 Y-265.0396 F15000.0
G1 Z11.9000 F8000.0
G1 X133.7316 Y-265.0396 F12000.0
G1 Z0.0000 F8000.0
G0 X129.6828 Y-264.8838 F15000.0
G1 Z11.9000 F8000.0
G1 X133.6538 Y-264.8838 F12000.0
G1 Z0.0000 F8000.0
G0 X128.4369 Y-264.7281 F15000.0
G1 Z11.9000 F8000.0
G1 X133.4980 Y-264.7281 F12000.0
G1 Z0.0000 F8000.0
G0 X128.2812 Y-264.4166 F15000.0
G1 Z11.9000 F8000.0
G1 X133.4980 Y-264.4166 F12000.0
G1 Z0.0000 F8000.0
G0 X129.4492 Y-264.2610 F15000.0
G1 Z11.9000 F8000.0
G1 X133.5759 Y-264.2610 F12000.0
G1 Z0.0000 F8000.0
G0 X130.6171 Y-264.1053 F15000.0
G1 Z11.9000 F8000.0
G1 X133.7316 Y-264.1053 F12000.0
G1 Z0.0000 F8000.0
G0 X131.7851 Y-263.9495 F15000.0
G1 Z11.9000 F8000.0
G1 X133.8094 Y-263.9495 F12000.0
G1 Z0.0000 F8000.0
G0 X132.9530 Y-263.7938 F15000.0
G1 Z11.9000 F8000.0
G1 X133.9651 Y-263.7938 F12000.0
G1 Z0.0000 F8000.0
G0 X133.4980 Y-263.7159 F15000.0
G1 Z11.9000 F8000.0
G1 X134.0430 Y-263.7159 F12000.0
G1 Z0.0000 F8000.0
G0 X140.8950 Y-264.5724 F15000.0
G1 Z11.9000 F8000.0
G1 X127.1133 Y-264.5724 F12000.0
G1 Z0.0000 F8000.0
G0 X127.1133 Y-168.4122 F15000.0
G1 Z11.9000 F8000.0
G1 X134.0430 Y-169.3465 F12000.0
G1 X133.3423 Y-168.4122 F12000.0
G1 X134.0430 Y-167.5557 F12000.0
G1 X127.1133 Y-168.4122 F12000.0
G1 Z0.0000 F8000.0
G0 X133.4980 Y-169.2687 F15000.0
G1 Z11.9000 F8000.0
G1 X134.0430 Y-169.2687 F12000.0
G1 Z0.0000 F8000.0
G0 X132.9530 Y-169.1908 F15000.0
G1 Z11.9000 F8000.0
G1 X133.9651 Y-169.1908 F12000.0
G1 Z0.0000 F8000.0
G0 X131.7851 Y-169.0351 F15000.0
G1 Z11.9000 F8000.0
G1 X133.8094 Y-169.0351 F12000.0
G1 Z0.0000 F8000.0
G0 X130.6171 Y-168.8794 F15000.0
G1 Z11.9000 F8000.0
G1 X133.7316 Y-168.8794 F12000.0
G1 Z0.0000 F8000.0
G0 X129.4492 Y-168.7237 F15000.0
G1 Z11.9000 F8000.0
G1 X133.5759 Y-168.7237 F12000.0
G1 Z0.0000 F8000.0
G0 X128.2812 Y-168.5680 F15000.0
G1 Z11.9000 F8000.0
G1 X133.4980 Y-168.5680 F12000.0
G1 Z0.0000 F8000.0
G0 X128.4369 Y-168.2565 F15000.0
G1 Z11.9000 F8000.0
G1 X133.4980 Y-168.2565 F12000.0
G1 Z0.0000 F8000.0
G0 X129.6828 Y-168.1008 F15000.0
G1 Z11.9000 F8000.0
G1 X133.6538 Y-168.1008 F12000.0
G1 Z0.0000 F8000.0
G0 X130.9285 Y-167.9450 F15000.0
G1 Z11.9000 F8000.0
G1 X133.7316 Y-167.9450 F12000.0
G1 Z0.0000 F8000.0
G0 X132.1743 Y-167.7893 F15000.0
G1 Z11.9000 F8000.0
G1 X133.8873 Y-167.7893 F12000.0
G1 Z0.0000 F8000.0
G0 X133.4202 Y-167.6336 F15000.0
G1 Z11.9000 F8000.0
G1 X134.0430 Y-167.6336 F12000.0
G1 Z0.0000 F8000.0
G0 X140.8950 Y-168.4122 F15000.0
G1 Z11.9000 F8000.0
G1 X127.1133 Y-168.4122 F12000.0
G1 Z0.0000 F8000.0
G0 X30.0187 Y-126.2611 F15000.0
G1 Z11.9000 F8000.0
G1 X48.2385 Y-126.2611 F12000.0
G1 Z0.0000 F8000.0
G0 X49.5623 Y-126.2611 F15000.0
G1 Z11.9000 F8000.0
G1 X51.0416 Y-126.2611 F12000.0
G1 Z0.0000 F8000.0
G0 X52.3653 Y-126.2611 F15000.0
G1 Z11.9000 F8000.0
G1 X70.5851 Y-126.2611 F12000.0
G1 Z0.0000 F8000.0
G0 X71.9866 Y-126.2611 F15000.0
G1 Z11.9000 F8000.0
G1 X73.3881 Y-126.2611 F12000.0
G1 Z0.0000 F8000.0
G0 X74.7896 Y-126.2611 F15000.0
G1 Z11.9000 F8000.0
G1 X93.0095 Y-126.2611 F12000.0
G1 Z0.0000 F8000.0
G0 X94.4110 Y-126.2611 F15000.0
G1 Z11.9000 F8000.0
G1 X95.8125 Y-126.2611 F12000.0
G1 Z0.0000 F8000.0
G0 X97.2141 Y-126.2611 F15000.0
G1 Z11.9000 F8000.0
G1 X115.4339 Y-126.2611 F12000.0
G1 Z0.0000 F8000.0
G0 X116.8354 Y-126.2611 F15000.0
G1 Z11.9000 F8000.0
G1 X118.2370 Y-126.2611 F12000.0
G1 Z0.0000 F8000.0
G0 X119.6385 Y-126.2611 F15000.0
G1 Z11.9000 F8000.0
G1 X137.8583 Y-126.2611 F12000.0
G1 Z0.0000 F8000.0
G0 X141.9850 Y-126.2611 F15000.0
G1 Z11.9000 F8000.0
G1 X160.2827 Y-126.2611 F12000.0
G1 Z0.0000 F8000.0
G0 X161.6064 Y-126.2611 F15000.0
G1 Z11.9000 F8000.0
G1 X163.0079 Y-126.2611 F12000.0
G1 Z0.0000 F8000.0
G0 X164.4094 Y-126.2611 F15000.0
G1 Z11.9000 F8000.0
G1 X180.0000 Y-126.2611 F12000.0
G1 Z0.0000 F8000.0
G0 X127.1133 Y-105.0825 F15000.0
G1 Z11.9000 F8000.0
G1 X127.1133 Y-116.4505 F12000.0
G1 Z0.0000 F8000.0
G0 X127.1133 Y-117.8520 F15000.0
G1 Z11.9000 F8000.0
G1 X127.1133 Y-119.1756 F12000.0
G1 Z0.0000 F8000.0
G0 X127.1133 Y-120.5772 F15000.0
G1 Z11.9000 F8000.0
G1 X127.1133 Y-126.2611 F12000.0
G1 Z0.0000 F8000.0
G0 X127.1133 Y-132.3619 F15000.0
G1 Z11.9000 F8000.0
G1 X127.1133 Y-121.0718 F12000.0
G1 Z0.0000 F8000.0
G0 X127.1133 Y-119.6702 F15000.0
G1 Z11.9000 F8000.0
G1 X127.1133 Y-118.2687 F12000.0
G1 Z0.0000 F8000.0
G0 X127.1133 Y-116.9451 F15000.0
G1 Z11.9000 F8000.0
G1 X127.1133 Y-126.2611 F12000.0
G1 Z0.0000 F8000.0
G0 X148.2919 Y-126.2611 F15000.0
G1 Z11.9000 F8000.0
G1 X136.9240 Y-126.2611 F12000.0
G1 Z0.0000 F8000.0
G0 X105.9347 Y-126.2611 F15000.0
G1 Z11.9000 F8000.0
G1 X117.3026 Y-126.2611 F12000.0
G1 Z0.0000 F8000.0
G0 X118.7041 Y-126.2611 F15000.0
G1 Z11.9000 F8000.0
G1 X120.1057 Y-126.2611 F12000.0
G1 Z0.0000 F8000.0
G0 X48.3943 Y-121.3832 F15000.0
G1 Z11.9000 F8000.0
G1 X40.9973 Y-121.3832 F12000.0
G1 Z0.0000 F8000.0
G0 X48.3943 Y-116.1390 F15000.0
G1 Z11.9000 F8000.0
G1 X48.3943 Y-121.3832 F12000.0
G1 Z0.0000 F8000.0
G0 X48.3943 Y-116.1390 F15000.0
G1 Z11.9000 F8000.0
G1 X40.9973 Y-116.1390 F12000.0
G1 X40.9973 Y-121.3832 F12000.0
G1 Z0.0000 F8000.0
G0 X59.3729 Y-108.7421 F15000.0
G1 Z11.9000 F8000.0
G1 X59.3729 Y-126.2611 F12000.0
G1 X59.3729 Y-128.7024 F12000.0
G1 Z0.0000 F8000.0
G0 X59.3729 Y-108.7421 F15000.0
G1 Z11.9000 F8000.0
G1 X50.9638 Y-108.7421 F12000.0
G1 Z0.0000 F8000.0
G0 X59.3729 Y-128.7024 F15000.0
G1 Z11.9000 F8000.0
G1 X50.9638 Y-128.7024 F12000.0
G1 Z0.0000 F8000.0
G0 X59.3729 Y-126.2611 F15000.0
G1 Z11.9000 F8000.0
G1 X50.9638 Y-126.2611 F12000.0
G1 Z0.0000 F8000.0
G0 X62.1759 Y-112.4795 F15000.0
G1 Z11.9000 F8000.0
G1 X62.9546 Y-112.4795 F12000.0
G1 Z0.0000 F8000.0
G0 X62.1759 Y-125.0428 F15000.0
G1 Z11.9000 F8000.0
G1 X62.9546 Y-125.0428 F12000.0
G1 Z0.0000 F8000.0
G0 X50.9638 Y-126.2611 F15000.0
G1 Z11.9000 F8000.0
G1 X50.4187 Y-124.7039 F12000.0
G1 X49.7958 Y-121.8230 F12000.0
G1 X49.4065 Y-119.0199 F12000.0
G1 X49.4065 Y-116.3726 F12000.0
G1 X49.6401 Y-113.8810 F12000.0
G1 X50.1851 Y-111.2337 F12000.0
G1 X50.9638 Y-108.7421 F12000.0
G1 Z0.0000 F8000.0
G0 X49.3287 Y-128.7024 F15000.0
G1 Z11.9000 F8000.0
G1 X48.8615 Y-127.7680 F12000.0
G1 Z0.0000 F8000.0
G0 X49.3287 Y-108.7421 F15000.0
G1 Z11.9000 F8000.0
G1 X48.8615 Y-109.6764 F12000.0
G1 Z0.0000 F8000.0
G0 X48.8615 Y-126.2611 F15000.0
G1 Z11.9000 F8000.0
G1 X48.8615 Y-109.6764 F12000.0
G1 Z0.0000 F8000.0
G0 X48.8615 Y-127.7680 F15000.0
G1 Z11.9000 F8000.0
G1 X48.8615 Y-126.2611 F12000.0
G1 Z0.0000 F8000.0
G0 X50.9638 Y-128.7024 F15000.0
G1 Z11.9000 F8000.0
G1 X50.4187 Y-127.2229 F12000.0
G1 X49.7958 Y-124.2642 F12000.0
G1 X49.4065 Y-121.5389 F12000.0
G1 X49.4065 Y-118.8138 F12000.0
G1 X49.6401 Y-116.4000 F12000.0
G1 X50.1851 Y-113.7527 F12000.0
G1 X50.9638 Y-126.2611 F12000.0
G1 Z0.0000 F8000.0
G0 X59.8400 Y-124.1084 F15000.0
G1 Z11.9000 F8000.0
G1 X61.0859 Y-124.1084 F12000.0
G1 Z0.0000 F8000.0
G0 X61.3973 Y-113.2581 F15000.0
G1 Z11.9000 F8000.0
G1 X62.1759 Y-112.4795 F12000.0
G1 Z0.0000 F8000.0
G0 X61.3973 Y-124.2642 F15000.0
G1 Z11.9000 F8000.0
G1 X62.1759 Y-125.0428 F12000.0
G1 Z0.0000 F8000.0
G0 X62.1759 Y-112.4795 F15000.0
G1 Z11.9000 F8000.0
G1 X62.1759 Y-125.0428 F12000.0
G1 Z0.0000 F8000.0
G0 X59.8400 Y-113.3359 F15000.0
G1 Z11.9000 F8000.0
G1 X61.0859 Y-113.3359 F12000.0
G1 Z0.0000 F8000.0
G0 X180.0000 Y-119.2810 F15000.0
G1 Z11.9000 F8000.0
G1 X176.0888 Y-119.2810 F12000.0
G1 Z0.0000 F8000.0
G0 X180.0000 Y-118.1634 F15000.0
G1 Z11.9000 F8000.0
G1 X176.0888 Y-118.1634 F12000.0
G1 Z0.0000 F8000.0
G0 X39.7516 Y-118.1130 F15000.0
G1 Z11.9000 F8000.0
G1 X33.1332 Y-118.1130 F12000.0
G1 Z0.0000 F8000.0
G0 X39.7516 Y-119.3313 F15000.0
G1 Z11.9000 F8000.0
G1 X33.1332 Y-119.3313 F12000.0
G1 Z0.0000 F8000.0
G0 X32.5104 Y-118.1130 F15000.0
G1 Z11.9000 F8000.0
G1 X33.1332 Y-118.1130 F12000.0
G1 Z0.0000 F8000.0
G0 X33.1332 Y-126.2611 F15000.0
G1 Z11.9000 F8000.0
G1 X32.8217 Y-125.1710 F12000.0
G1 X32.5104 Y-123.5359 F12000.0
G1 X32.5104 Y-121.9008 F12000.0
G1 X32.8217 Y-120.1879 F12000.0
G1 X33.1332 Y-119.3313 F12000.0
G1 Z0.0000 F8000.0
G0 X32.2768 Y-126.2611 F15000.0
G1 Z11.9000 F8000.0
G1 X32.2768 Y-119.7207 F12000.0
G1 Z0.0000 F8000.0
G0 X32.2768 Y-117.8015 F15000.0
G1 Z11.9000 F8000.0
G1 X32.2768 Y-126.2611 F12000.0
G1 Z0.0000 F8000.0
G0 X32.5104 Y-118.1130 F15000.0
G1 Z11.9000 F8000.0
G1 X32.2768 Y-117.8015 F12000.0
G1 Z0.0000 F8000.0
G0 X33.1332 Y-118.1130 F15000.0
G1 Z11.9000 F8000.0
G1 X32.8217 Y-117.1008 F12000.0
G1 X32.5104 Y-115.4657 F12000.0
G1 X32.5104 Y-113.7527 F12000.0
G1 X32.8217 Y-112.1176 F12000.0
G1 X33.1332 Y-126.2611 F12000.0
G1 Z0.0000 F8000.0
G0 X33.1332 Y-119.3313 F15000.0
G1 Z11.9000 F8000.0
G1 X32.5104 Y-119.3313 F12000.0
G1 X32.2768 Y-119.7207 F12000.0
G1 Z0.0000 F8000.0
G0 X40.5301 Y-119.7207 F15000.0
G1 Z11.9000 F8000.0
G1 X40.3744 Y-119.3313 F12000.0
G1 Z0.0000 F8000.0
G0 X39.7516 Y-119.3313 F15000.0
G1 Z11.9000 F8000.0
G1 X40.0630 Y-120.4215 F12000.0
G1 X40.2966 Y-122.0566 F12000.0
G1 X40.2966 Y-123.6916 F12000.0
G1 X39.9852 Y-125.4046 F12000.0
G1 X39.7516 Y-126.2611 F12000.0
G1 X40.0630 Y-112.2733 F12000.0
G1 X40.2966 Y-113.9084 F12000.0
G1 X40.2966 Y-115.6214 F12000.0
G1 X39.9852 Y-117.2566 F12000.0
G1 X39.7516 Y-118.1130 F12000.0
G1 X40.3744 Y-118.1130 F12000.0
G1 Z0.0000 F8000.0
G0 X40.5301 Y-126.2611 F15000.0
G1 Z11.9000 F8000.0
G1 X40.5301 Y-122.6795 F12000.0
G1 Z0.0000 F8000.0
G0 X40.5301 Y-120.7329 F15000.0
G1 Z11.9000 F8000.0
G1 X40.5301 Y-119.7207 F12000.0
G1 Z0.0000 F8000.0
G0 X40.5301 Y-117.8015 F15000.0
G1 Z11.9000 F8000.0
G1 X40.5301 Y-116.7894 F12000.0
G1 Z0.0000 F8000.0
G0 X40.5301 Y-114.7649 F15000.0
G1 Z11.9000 F8000.0
G1 X40.5301 Y-126.2611 F12000.0
G1 Z0.0000 F8000.0
G0 X40.3744 Y-119.3313 F15000.0
G1 Z11.9000 F8000.0
G1 X39.7516 Y-119.3313 F12000.0
G1 Z0.0000 F8000.0
G0 X150.7835 Y-107.8855 F15000.0
G1 Z11.9000 F8000.0
G1 X150.7835 Y-129.6367 F12000.0
G1 Z0.0000 F8000.0
G0 X145.2552 Y-135.1649 F15000.0
G1 Z11.9000 F8000.0
G1 X108.9713 Y-135.1649 F12000.0
G1 Z0.0000 F8000.0
G0 X108.9713 Y-102.3573 F15000.0
G1 Z11.9000 F8000.0
G1 X145.2552 Y-102.3573 F12000.0
G1 Z0.0000 F8000.0
G0 X103.4430 Y-129.6367 F15000.0
G1 Z11.9000 F8000.0
G1 X103.4430 Y-107.8855 F12000.0
G1 X62.9546 Y-107.8855 F12000.0
G1 Z0.0000 F8000.0
G0 X103.4430 Y-129.6367 F15000.0
G1 Z11.9000 F8000.0
G1 X62.9546 Y-129.6367 F12000.0
G1 Z0.0000 F8000.0
G0 X62.9546 Y-107.8855 F15000.0
G1 Z11.9000 F8000.0
G1 X62.9546 Y-129.6367 F12000.0
G1 Z0.0000 F8000.0
G0 X145.2552 Y-102.3573 F15000.0
G1 Z11.9000 F8000.0
G1 X150.7835 Y-107.8855 F12000.0
G1 Z0.0000 F8000.0
G0 X103.4430 Y-107.8855 F15000.0
G1 Z11.9000 F8000.0
G1 X108.9713 Y-102.3573 F12000.0
G1 Z0.0000 F8000.0
G0 X108.9713 Y-135.1649 F15000.0
G1 Z11.9000 F8000.0
G1 X103.4430 Y-129.6367 F12000.0
G1 Z0.0000 F8000.0
G0 X150.7835 Y-129.6367 F15000.0
G1 Z11.9000 F8000.0
G1 X145.2552 Y-135.1649 F12000.0
G1 Z0.0000 F8000.0
G0 X127.1133 Y-130.5711 F15000.0
G1 Z11.9000 F8000.0
G1 X124.6995 Y-130.4153 F12000.0
G1 X122.2858 Y-129.9481 F12000.0
G1 X119.9500 Y-129.1695 F12000.0
G1 X117.6919 Y-128.1573 F12000.0
G1 X115.6675 Y-126.8337 F12000.0
G1 X113.7988 Y-125.1985 F12000.0
G1 X112.1637 Y-123.4076 F12000.0
G1 X110.6843 Y-121.3832 F12000.0
G1 X109.5163 Y-119.2810 F12000.0
G1 X108.6599 Y-116.9451 F12000.0
G1 X108.1148 Y-114.6092 F12000.0
G1 X107.8034 Y-112.1176 F12000.0
G1 X107.8812 Y-124.7039 F12000.0
G1 X108.1927 Y-122.2902 F12000.0
G1 X108.8935 Y-119.8764 F12000.0
G1 X109.8278 Y-117.6184 F12000.0
G1 X111.0736 Y-115.5161 F12000.0
G1 X112.5530 Y-113.5695 F12000.0
G1 X114.2660 Y-111.8565 F12000.0
G1 X116.2126 Y-110.2993 F12000.0
G1 X118.3149 Y-109.0535 F12000.0
G1 X120.5728 Y-108.1191 F12000.0
G1 X122.9087 Y-107.4184 F12000.0
G1 X125.3224 Y-107.0291 F12000.0
G1 X127.8141 Y-106.9512 F12000.0
G1 X130.2277 Y-107.1848 F12000.0
G1 X132.6415 Y-107.7298 F12000.0
G1 X134.8995 Y-108.5863 F12000.0
G1 X137.0797 Y-109.6764 F12000.0
G1 X139.1041 Y-111.0780 F12000.0
G1 X140.8950 Y-112.7131 F12000.0
G1 X142.5301 Y-114.5818 F12000.0
G1 X143.8537 Y-116.6062 F12000.0
G1 X144.9438 Y-118.8642 F12000.0
G1 X145.7224 Y-121.1222 F12000.0
G1 X146.2675 Y-123.5359 F12000.0
G1 X146.4232 Y-126.0275 F12000.0
G1 X146.3453 Y-113.4413 F12000.0
G1 X145.8781 Y-115.8550 F12000.0
G1 X145.1774 Y-118.1909 F12000.0
G1 X144.0873 Y-120.4489 F12000.0
G1 X142.8415 Y-122.4733 F12000.0
G1 X141.2843 Y-124.4199 F12000.0
G1 X139.4934 Y-126.0550 F12000.0
G1 X137.4690 Y-127.5344 F12000.0
G1 X135.3667 Y-128.7024 F12000.0
G1 X133.1087 Y-129.6367 F12000.0
G1 X130.6949 Y-130.2596 F12000.0
G1 X128.2812 Y-130.4932 F12000.0
G1 X127.1133 Y-130.5711 F12000.0
G1 Z0.0000 F8000.0
G0 X127.1133 Y-124.1084 F15000.0
G1 Z11.9000 F8000.0
G1 X125.1667 Y-123.9527 F12000.0
G1 X123.2201 Y-123.4855 F12000.0
G1 X121.3515 Y-122.7848 F12000.0
G1 X119.6385 Y-121.6947 F12000.0
G1 X118.0813 Y-120.4489 F12000.0
G1 X116.7575 Y-118.8917 F12000.0
G1 X115.7454 Y-117.1787 F12000.0
G1 X114.9667 Y-115.3879 F12000.0
G1 X114.4217 Y-113.4413 F12000.0
G1 X114.2660 Y-126.4169 F12000.0
G1 X114.3439 Y-124.4703 F12000.0
G1 X114.8110 Y-122.5237 F12000.0
G1 X115.5118 Y-120.6551 F12000.0
G1 X116.5240 Y-118.8642 F12000.0
G1 X117.8477 Y-117.3848 F12000.0
G1 X119.3270 Y-115.9833 F12000.0
G1 X120.9621 Y-114.8932 F12000.0
G1 X122.8308 Y-114.1146 F12000.0
G1 X124.7774 Y-113.5695 F12000.0
G1 X126.7239 Y-113.4138 F12000.0
G1 X128.7484 Y-113.4916 F12000.0
G1 X130.6949 Y-113.8810 F12000.0
G1 X132.5636 Y-114.5818 F12000.0
G1 X134.2766 Y-115.5939 F12000.0
G1 X135.9117 Y-116.8398 F12000.0
G1 X137.2354 Y-118.2413 F12000.0
G1 X138.3255 Y-119.9543 F12000.0
G1 X139.1820 Y-121.7451 F12000.0
G1 X139.7270 Y-123.6916 F12000.0
G1 X139.9606 Y-125.6382 F12000.0
G1 X139.8827 Y-112.6626 F12000.0
G1 X139.5713 Y-114.6092 F12000.0
G1 X138.8705 Y-116.4779 F12000.0
G1 X137.9361 Y-118.2687 F12000.0
G1 X136.6904 Y-119.8260 F12000.0
G1 X135.2110 Y-121.2275 F12000.0
G1 X133.5759 Y-122.3955 F12000.0
G1 X131.7851 Y-123.2519 F12000.0
G1 X129.9164 Y-123.7970 F12000.0
G1 X127.8919 Y-124.1084 F12000.0
G1 X127.1133 Y-124.1084 F12000.0
G1 Z0.0000 F8000.0
G0 X127.1133 Y-122.9405 F15000.0
G1 Z11.9000 F8000.0
G1 X125.2446 Y-122.7848 F12000.0
G1 X123.3759 Y-122.3176 F12000.0
G1 X121.5851 Y-121.6168 F12000.0
G1 X120.0278 Y-120.6046 F12000.0
G1 X118.6262 Y-119.2810 F12000.0
G1 X117.3805 Y-117.8015 F12000.0
G1 X116.4462 Y-116.1664 F12000.0
G1 X115.8232 Y-114.3756 F12000.0
G1 X115.4339 Y-112.4290 F12000.0
G1 X115.4339 Y-125.5603 F12000.0
G1 X115.6675 Y-123.6916 F12000.0
G1 X116.2904 Y-121.8230 F12000.0
G1 X117.1469 Y-120.1100 F12000.0
G1 X118.2370 Y-118.5528 F12000.0
G1 X119.6385 Y-117.2290 F12000.0
G1 X121.1957 Y-116.1390 F12000.0
G1 X122.9087 Y-115.2825 F12000.0
G1 X124.6995 Y-114.7375 F12000.0
G1 X126.6461 Y-114.5039 F12000.0
G1 X128.5148 Y-114.5818 F12000.0
G1 X130.3835 Y-114.9711 F12000.0
G1 X132.1743 Y-115.6718 F12000.0
G1 X133.8094 Y-116.6062 F12000.0
G1 X135.2889 Y-117.8520 F12000.0
G1 X136.5346 Y-119.2535 F12000.0
G1 X137.5469 Y-120.8886 F12000.0
G1 X138.3255 Y-122.6795 F12000.0
G1 X138.7148 Y-124.5482 F12000.0
G1 X138.8705 Y-126.4169 F12000.0
G1 X138.6369 Y-113.3634 F12000.0
G1 X138.1697 Y-115.1543 F12000.0
G1 X137.3912 Y-116.9451 F12000.0
G1 X136.3010 Y-118.5023 F12000.0
G1 X135.0553 Y-119.9038 F12000.0
G1 X133.4980 Y-121.0718 F12000.0
G1 X131.8629 Y-122.0061 F12000.0
G1 X130.0720 Y-122.6291 F12000.0
G1 X128.1255 Y-122.9405 F12000.0
G1 X127.1133 Y-122.9405 F12000.0
G1 Z0.0000 F8000.0
G0 X127.1133 Y-119.5145 F15000.0
G1 Z11.9000 F8000.0
G1 X125.5560 Y-119.3588 F12000.0
G1 X123.9988 Y-118.8917 F12000.0
G1 X122.5972 Y-118.1909 F12000.0
G1 X121.3515 Y-117.1787 F12000.0
G1 X120.2614 Y-115.9328 F12000.0
G1 X119.5606 Y-114.5313 F12000.0
G1 X119.0156 Y-112.9741 F12000.0
G1 X118.8598 Y-126.4169 F12000.0
G1 X118.9377 Y-124.7817 F12000.0
G1 X119.4049 Y-123.2244 F12000.0
G1 X120.1057 Y-121.8230 F12000.0
G1 X121.1179 Y-120.5772 F12000.0
G1 X122.2858 Y-119.4871 F12000.0
G1 X123.6873 Y-118.7085 F12000.0
G1 X125.2446 Y-118.1634 F12000.0
G1 X126.8018 Y-118.0077 F12000.0
G1 X128.4369 Y-118.0856 F12000.0
G1 X129.9942 Y-118.4749 F12000.0
G1 X131.3957 Y-119.1756 F12000.0
G1 X132.7194 Y-120.1100 F12000.0
G1 X133.8094 Y-121.3558 F12000.0
G1 X134.5881 Y-122.6795 F12000.0
G1 X135.1331 Y-124.2367 F12000.0
G1 X135.3667 Y-125.7939 F12000.0
G1 X135.2889 Y-112.4290 F12000.0
G1 X134.9774 Y-113.9863 F12000.0
G1 X134.2766 Y-115.3879 F12000.0
G1 X133.3423 Y-116.7115 F12000.0
G1 X132.1743 Y-117.8015 F12000.0
G1 X130.7728 Y-118.6581 F12000.0
G1 X129.2934 Y-119.2031 F12000.0
G1 X127.7362 Y-119.5145 F12000.0
G1 X127.1133 Y-119.5145 F12000.0
G1 Z0.0000 F8000.0
G0 X127.1133 Y-113.0520 F15000.0
G1 Z11.9000 F8000.0
G1 X126.4125 Y-112.8962 F12000.0
G1 X125.7896 Y-112.5069 F12000.0
G1 X125.4003 Y-126.8840 F12000.0
G1 X125.3224 Y-126.1054 F12000.0
G1 X125.4782 Y-125.4046 F12000.0
G1 X126.0232 Y-124.7817 F12000.0
G1 X126.6461 Y-124.4703 F12000.0
G1 X127.4247 Y-124.3924 F12000.0
G1 X128.1255 Y-124.7039 F12000.0
G1 X128.6705 Y-125.2489 F12000.0
G1 X128.9041 Y-125.9497 F12000.0
G1 X128.9041 Y-126.6504 F12000.0
G1 X128.5926 Y-112.3512 F12000.0
G1 X128.0476 Y-112.8184 F12000.0
G1 X127.2690 Y-113.0520 F12000.0
G1 Z0.0000 F8000.0
G0 X150.7835 Y-123.1741 F15000.0
G1 Z11.9000 F8000.0
G1 X176.0888 Y-123.1741 F12000.0
G1 X176.0888 Y-114.2703 F12000.0
G1 Z0.0000 F8000.0
G0 X150.7835 Y-114.2703 F15000.0
G1 Z11.9000 F8000.0
G1 X176.0888 Y-114.2703 F12000.0
G1 Z0.0000 F8000.0
G0 X169.2369 Y-124.1588 F15000.0
G1 Z11.9000 F8000.0
G1 X150.7835 Y-124.1588 F12000.0
G1 Z0.0000 F8000.0
G0 X169.2369 Y-112.8962 F15000.0
G1 Z11.9000 F8000.0
G1 X169.2369 Y-126.2611 F12000.0
G1 X169.2369 Y-124.1588 F12000.0
G1 Z0.0000 F8000.0
G0 X169.2369 Y-112.8962 F15000.0
G1 Z11.9000 F8000.0
G1 X150.7835 Y-112.8962 F12000.0
G1 Z0.0000 F8000.0
G0 X48.8615 Y-119.9817 F15000.0
G1 Z11.9000 F8000.0
G1 X48.3943 Y-119.9817 F12000.0
G1 Z0.0000 F8000.0
G0 X48.8615 Y-117.5405 F15000.0
G1 Z11.9000 F8000.0
G1 X48.3943 Y-117.5405 F12000.0
G1 Z0.0000 F8000.0
G0 X40.9973 Y-116.7894 F15000.0
G1 Z11.9000 F8000.0
G1 X40.5301 Y-116.7894 F12000.0
G1 Z0.0000 F8000.0
G0 X40.9973 Y-120.7329 F15000.0
G1 Z11.9000 F8000.0
G1 X40.5301 Y-120.7329 F12000.0
G1 X40.5301 Y-122.6795 F12000.0
G1 Z0.0000 F8000.0
G0 X40.5301 Y-114.7649 F15000.0
G1 Z11.9000 F8000.0
G1 X40.5301 Y-116.7894 F12000.0
G1 Z0.0000 F8000.0
G0 X32.2768 Y-122.1344 F15000.0
G1 Z11.9000 F8000.0
G1 X31.8096 Y-122.6016 F12000.0
G1 X31.8096 Y-114.9207 F12000.0
G1 Z0.0000 F8000.0
G0 X32.2768 Y-115.3879 F15000.0
G1 Z11.9000 F8000.0
G1 X31.8096 Y-114.9207 F12000.0
G1 Z0.0000 F8000.0
G0 X49.3287 Y-128.7024 F15000.0
G1 Z11.9000 F8000.0
G1 X50.9638 Y-128.7024 F12000.0
G1 Z0.0000 F8000.0
G0 X50.9638 Y-108.7421 F15000.0
G1 Z11.9000 F8000.0
G1 X49.3287 Y-108.7421 F12000.0
G1 Z0.0000 F8000.0
G0 X61.3973 Y-113.1803 F15000.0
G1 Z11.9000 F8000.0
G1 X62.1759 Y-113.1803 F12000.0
G1 X62.9546 Y-113.1803 F12000.0
G1 Z0.0000 F8000.0
G0 X62.1759 Y-124.2642 F15000.0
G1 Z11.9000 F8000.0
G1 X62.9546 Y-124.2642 F12000.0
G1 Z0.0000 F8000.0
G0 X61.3973 Y-124.2642 F15000.0
G1 Z11.9000 F8000.0
G1 X62.1759 Y-124.2642 F12000.0
G1 Z0.0000 F8000.0
G0 X115.7454 Y-115.3879 F15000.0
G1 Z11.9000 F8000.0
G1 X115.2003 Y-113.5192 F12000.0
G1 X114.9667 Y-126.5726 F12000.0
G1 X115.1224 Y-124.6260 F12000.0
G1 X115.5118 Y-122.7573 F12000.0
G1 X116.2126 Y-120.9665 F12000.0
G1 X117.2247 Y-119.2535 F12000.0
G1 X118.4706 Y-117.7741 F12000.0
G1 X119.8721 Y-116.5283 F12000.0
G1 X121.5851 Y-115.4382 F12000.0
G1 X123.3759 Y-114.7375 F12000.0
G1 X125.2446 Y-114.2703 F12000.0
G1 X127.1911 Y-114.1146 F12000.0
G1 X129.1377 Y-114.2703 F12000.0
G1 X131.0064 Y-114.7375 F12000.0
G1 X132.7972 Y-115.5161 F12000.0
G1 X134.4323 Y-116.5283 F12000.0
G1 X135.8338 Y-117.8520 F12000.0
G1 X137.0797 Y-119.3313 F12000.0
G1 X138.0919 Y-121.0443 F12000.0
G1 X138.7927 Y-122.8352 F12000.0
G1 X139.1820 Y-124.7039 F12000.0
G1 X139.2599 Y-126.6504 F12000.0
G1 X139.0263 Y-113.5970 F12000.0
G1 X138.4812 Y-115.4657 F12000.0
G1 X137.7025 Y-117.2566 F12000.0
G1 X136.6125 Y-118.8138 F12000.0
G1 X135.2110 Y-120.2932 F12000.0
G1 X133.7316 Y-121.4611 F12000.0
G1 X132.0186 Y-122.3955 F12000.0
G1 Z0.0000 F8000.0
G0 X96.5133 Y-113.1803 F15000.0
G1 Z11.9000 F8000.0
G1 X62.9546 Y-113.1803 F12000.0
G1 Z0.0000 F8000.0
G0 X96.5133 Y-124.2642 F15000.0
G1 Z11.9000 F8000.0
G1 X62.9546 Y-124.2642 F12000.0
G1 Z0.0000 F8000.0
G0 X96.5133 Y-107.8855 F15000.0
G1 Z11.9000 F8000.0
G1 X96.5133 Y-129.6367 F12000.0
G1 Z0.0000 F8000.0
G0 X31.8096 Y-122.6016 F15000.0
G1 Z11.9000 F8000.0
G1 X31.8096 Y-89.7436 F12000.0
G1 Z0.0000 F8000.0
G0 X113.1012 Y-94.0452 F15000.0
G1 Z11.9000 F8000.0
G1 X114.1880 Y-94.4633 F12000.0
G1 Z0.0000 F8000.0
G0 X114.3970 Y-94.6304 F15000.0
G1 Z11.9000 F8000.0
G1 X114.4806 Y-94.7140 F12000.0
G1 Z0.0000 F8000.0
G0 X114.6896 Y-98.2671 F15000.0
G1 Z11.9000 F8000.0
G1 X114.6896 Y-94.9231 F12000.0
G1 Z0.0000 F8000.0
G0 X31.8096 Y-91.6123 F15000.0
G1 Z11.9000 F8000.0
G1 X36.4035 Y-92.1574 F12000.0
G1 X35.9363 Y-91.6123 F12000.0
G1 X36.4035 Y-90.9894 F12000.0
G1 X31.8096 Y-91.6123 F12000.0
G1 Z0.0000 F8000.0
G0 X34.0430 Y-91.8848 F15000.0
G1 Z11.9000 F8000.0
G1 X34.8707 Y-91.8848 F12000.0
G1 Z0.0000 F8000.0
G0 X33.6926 Y-91.3398 F15000.0
G1 Z11.9000 F8000.0
G1 X34.5203 Y-91.3398 F12000.0
G1 Z0.0000 F8000.0
G0 X31.8096 Y-91.6123 F15000.0
G1 Z11.9000 F8000.0
G1 X180.0000 Y-91.6123 F12000.0
G1 Z0.0000 F8000.0
G0 X177.3346 Y-210.0686 F15000.0
G1 Z11.9000 F8000.0
G1 X163.5529 Y-210.0686 F12000.0
G1 Z0.0000 F8000.0
G0 X177.1789 Y-193.9511 F15000.0
G1 Z11.9000 F8000.0
G1 X163.5529 Y-193.9511 F12000.0
G1 X163.5529 Y-210.0686 F12000.0
G1 Z0.0000 F8000.0
G0 X61.1638 Y-266.1297 F15000.0
G1 Z11.9000 F8000.0
G1 X0.0000 Y-266.1297 F12000.0
G1 Z0.0000 F8000.0
G0 X61.1638 Y-278.9770 F15000.0
G1 Z11.9000 F8000.0
G1 X61.1638 Y-266.1297 F12000.0
G1 Z0.0000 F8000.0
G0 X21.2118 Y-274.2960 F15000.0
G1 Z11.9000 F8000.0
G1 X20.7157 Y-274.8599 F12000.0
G1 X20.3478 Y-275.0441
G1 X19.1223 Y-274.6572
G1 X19.0044 Y-274.4635
G1 X18.8027 Y-273.2919
G1 X18.9218 Y-271.9511
G1 X19.1951 Y-271.4653
G1 X19.5916 Y-271.2424
G1 X20.4097 Y-271.2953
G1 X20.7768 Y-271.5688
G1 X20.9268 Y-272.9580
G1 X20.4550 Y-273.4517
G1 X19.6268 Y-273.4653
G1 X18.8667 Y-273.1465
G1 Z0.0000 F8000.0
G0 X20.4301 Y-273.5143 F15000.0
G1 Z11.9000 F8000.0
G1 X20.6964 Y-273.3271 F12000.0
G1 X20.9819 Y-272.9166
G1 Z0.0000 F8000.0
G0 X20.8439 Y-271.6291 F15000.0
G1 Z11.9000 F8000.0
G1 X20.7980 Y-271.5371 F12000.0
G1 Z0.0000 F8000.0
G0 X23.7408 Y-271.2612 F15000.0
G1 Z11.9000 F8000.0
G1 X23.9975 Y-271.5055 F12000.0
G1 X24.2519 Y-271.9203
G1 X24.0994 Y-271.6105
G1 X24.3386 Y-272.2728
G1 Z0.0000 F8000.0
G0 X24.3386 Y-273.9742 F15000.0
G1 Z11.9000 F8000.0
G1 X24.2140 Y-274.4249 F12000.0
G1 X24.0163 Y-274.7795
G1 X24.3306 Y-273.8292
G1 X24.1956 Y-271.8110
G1 X24.0853 Y-271.6020
G1 X23.6195 Y-271.2668
G1 X23.0271 Y-271.2252
G1 X22.6999 Y-271.3321
G1 X22.3988 Y-271.6652
G1 X22.1495 Y-273.4341
G1 X22.3999 Y-274.5812
G1 X22.5600 Y-274.7152
G1 X23.8787 Y-274.8938
G1 Z0.0000 F8000.0
G0 X28.9367 Y-274.8938 F15000.0
G1 Z11.9000 F8000.0
G1 X27.6352 Y-274.7218 F12000.0
G1 X27.4670 Y-274.5987
G1 X27.2109 Y-273.5699
G1 X27.4159 Y-271.7955
G1 X27.5037 Y-271.5860
G1 X27.7413 Y-271.3433
G1 X28.0653 Y-271.2268
G1 X28.6586 Y-271.2620
G1 X29.0324 Y-271.4372
G1 X29.2703 Y-271.8568
G1 X29.3879 Y-273.8783
G1 X29.0814 Y-274.7612
G1 X29.2914 Y-274.3793
G1 X29.3966 Y-273.9742
G1 Z0.0000 F8000.0
G0 X29.3966 Y-272.2728 F15000.0
G1 Z11.9000 F8000.0
G1 X29.2640 Y-271.8259 F12000.0
G1 Z0.0000 F8000.0
G0 X32.1555 Y-271.2612 F15000.0
G1 Z11.9000 F8000.0
G1 X32.4706 Y-271.5481 F12000.0
G1 X32.0885 Y-271.2790
G1 X31.3817 Y-271.2303
G1 X31.0641 Y-271.3657
G1 X30.7908 Y-271.7218
G1 X30.5647 Y-273.4941
G1 X30.7004 Y-274.3107
G1 X30.8298 Y-274.6219
G1 X30.7693 Y-274.4796
G1 X30.9412 Y-274.7009
G1 X32.3359 Y-274.8460
G1 X32.4763 Y-274.7179
G1 X32.6903 Y-274.2617
G1 X32.7476 Y-272.3588
G1 X32.6613 Y-271.9050
G1 Z0.0000 F8000.0
G0 X37.2135 Y-271.2612 F15000.0
G1 Z11.9000 F8000.0
G1 X37.5524 Y-271.5913 F12000.0
G1 X37.8112 Y-272.2728
G1 Z0.0000 F8000.0
G0 X37.8112 Y-273.9742 F15000.0
G1 Z11.9000 F8000.0
G1 X37.6867 Y-274.4249 F12000.0
G1 X37.4890 Y-274.7795
G1 X37.8033 Y-273.8292
G1 X37.7234 Y-272.0383
G1 X37.4885 Y-271.4720
G1 X37.1473 Y-271.2792
G1 X36.5577 Y-271.2267
G1 X36.2204 Y-271.3014
G1 X35.8983 Y-271.6201
G1 X35.6227 Y-273.4933
G1 X35.8474 Y-274.5295
G1 X35.9842 Y-274.6949
G1 X37.3514 Y-274.8938
G1 Z0.0000 F8000.0
G0 X40.7081 Y-274.8938 F15000.0
G1 Z11.9000 F8000.0
G1 X39.4065 Y-274.7218 F12000.0
G1 X39.2383 Y-274.5987
G1 X38.9823 Y-273.5699
G1 X39.1873 Y-271.7955
G1 X39.2750 Y-271.5860
G1 X39.5127 Y-271.3433
G1 X39.8366 Y-271.2268
G1 X40.4300 Y-271.2620
G1 X40.8037 Y-271.4372
G1 X41.0416 Y-271.8568
G1 X41.1593 Y-273.8783
G1 X40.8527 Y-274.7612
G1 X41.0627 Y-274.3793
G1 X41.1679 Y-273.9742
G1 Z0.0000 F8000.0
G0 X41.1679 Y-272.2728 F15000.0
G1 Z11.9000 F8000.0
G1 X41.0354 Y-271.8259 F12000.0
G1 Z0.0000 F8000.0
G0 X15.9239 Y-272.2728 F15000.0
G1 Z11.9000 F8000.0
G1 X15.6806 Y-271.6155 F12000.0
G1 X15.3261 Y-271.2612
G1 Z0.0000 F8000.0
G0 X15.9239 Y-273.9742 F15000.0
G1 Z11.9000 F8000.0
G1 X15.7994 Y-274.4249 F12000.0
G1 X15.6016 Y-274.7795
G1 X15.9160 Y-273.8292
G1 X15.8361 Y-272.0383
G1 X15.6012 Y-271.4720
G1 X15.2600 Y-271.2792
G1 X14.6703 Y-271.2267
G1 X14.3330 Y-271.3014
G1 X14.0109 Y-271.6201
G1 X13.7353 Y-273.4933
G1 X13.9601 Y-274.5295
G1 X14.0968 Y-274.6949
G1 X15.4641 Y-274.8938
G1 Z0.0000 F8000.0
G0 X12.5672 Y-273.9742 F15000.0
G1 Z11.9000 F8000.0
G1 X12.4427 Y-274.4249 F12000.0
G1 X12.2450 Y-274.7795
G1 X12.5593 Y-273.8292
G1 X12.4794 Y-272.0383
G1 X12.3126 Y-271.5837
G1 X11.8959 Y-271.2758
G1 X11.3048 Y-271.2264
G1 X10.9689 Y-271.3059
G1 X10.6494 Y-271.6262
G1 X10.3789 Y-273.5020
G1 X10.6073 Y-274.5374
G1 X10.7475 Y-274.6980
G1 X12.1074 Y-274.8938
G1 Z0.0000 F8000.0
G0 X12.5672 Y-272.2728 F15000.0
G1 Z11.9000 F8000.0
G1 X12.4347 Y-271.8259 F12000.0
G1 X12.1993 Y-271.4452
G1 Z0.0000 F8000.0
G0 X9.1186 Y-271.2612 F15000.0
G1 Z11.9000 F8000.0
G1 X9.0932 Y-272.4298 F12000.0
G1 X8.9240 Y-272.4891
G1 X7.6194 Y-272.4285
G1 X7.4284 Y-272.5192
G1 X7.2662 Y-272.7913
G1 X7.0954 Y-273.8362
G1 Z0.0000 F8000.0
G0 X9.1186 Y-273.8362 F15000.0
G1 Z11.9000 F8000.0
G1 X9.1186 Y-272.5027 F12000.0
G1 Z0.0000 F8000.0
G0 X5.8998 Y-271.2612 F15000.0
G1 Z11.9000 F8000.0
G1 X5.6840 Y-274.4812 F12000.0
G1 X5.7768 Y-274.8597
G1 X5.3949 Y-274.4024
G1 X4.2482 Y-271.5335
G1 X4.1726 Y-271.5033
G1 X2.5134 Y-274.7176
G1 X2.3973 Y-274.6385
G1 X2.3133 Y-271.2612
G1 Z0.0000 F8000.0
G0 X4.1065 Y-271.2612 F15000.0
G1 Z11.9000 F8000.0
G1 X4.1525 Y-271.4911 F12000.0
G1 Z0.0000 F8000.0
G0 X50.8686 Y-275.2616 F15000.0
G1 Z11.9000 F8000.0
G1 X49.4616 Y-274.9992 F12000.0
G1 X49.2961 Y-274.8644
G1 X48.6052 Y-273.3769
G1 X48.6620 Y-272.0927
G1 X48.8131 Y-271.6517
G1 X49.4938 Y-271.1939
G1 X50.1871 Y-271.2648
G1 X50.6312 Y-271.5673
G1 X50.7722 Y-271.8570
G1 X50.7754 Y-273.2723
G1 X50.3882 Y-273.6917
G1 X49.3418 Y-273.7873
G1 X49.1012 Y-273.6379
G1 X50.1756 Y-273.8398
G1 X50.5694 Y-273.6043
G1 X50.8226 Y-273.2384
G1 Z0.0000 F8000.0
G0 X50.6847 Y-271.6291 F15000.0
G1 Z11.9000 F8000.0
G1 X50.6387 Y-271.5371 F12000.0
G1 Z0.0000 F8000.0
G0 X47.2360 Y-271.8130 F15000.0
G1 Z11.9000 F8000.0
G1 X46.3966 Y-271.2360 F12000.0
G1 X45.4522 Y-271.2295
G1 X45.1429 Y-271.3726
G1 X44.6028 Y-271.8419
G1 X44.3782 Y-272.2538
G1 X44.3089 Y-272.5951
G1 X44.4844 Y-274.2566
G1 X44.9862 Y-274.8642
G1 X45.1539 Y-274.9485
G1 X47.0204 Y-274.6376
G1 X47.1901 Y-274.5259
G1 Z0.0000 F8000.0
G0 X46.5923 Y-271.3072 F15000.0
G1 Z11.9000 F8000.0
G1 X46.5003 Y-271.2612 F12000.0
G1 Z0.0000 F8000.0

G0 Z0.0000 F800.0
G4 P0.06
G0 X0.0000 Y0.0000 F15000.0
M5
G4 P0.10
$1=0
