$X
$1=255
G21
G90
G92 Z4.0000
G0 Z0.0000 F800.0
G4 P0.06
G92 Z0.0000
G0 Z0.0000 F800.0
G0 X0.0000 Y0.0000 F15000.0
G21
G90
G17
G91.1
G0 Z0.0000
G0 X0.0000 Y-5.0000 F15000.0
G1 Z11.9000 F8000.0
G1 X180.0000 Y-5.0000 F12000.0
G1 X180.0000 Y-285.0000
G1 X0.0000 Y-285.0000
G1 X0.0000 Y-5.0000
G1 Z0.0000 F8000.0
G0 X131.7911 Y-190.2815 F15000.0
G1 Z11.9000 F8000.0
G1 X131.9237 Y-190.1931 F12000.0
G1 Z0.0000 F8000.0
G0 X132.4987 Y-189.6181 F15000.0
G1 Z11.9000 F8000.0
G1 X132.4102 Y-189.8835 F12000.0
G1 X132.8083 Y-189.8835
G1 Z0.0000 F8000.0
G0 X133.2948 Y-189.7066 F15000.0
G1 Z11.9000 F8000.0
G1 X133.4274 Y-189.6623 F12000.0
G1 Z0.0000 F8000.0
G0 X133.7813 Y-189.5296 F15000.0
G1 Z11.9000 F8000.0
G1 X136.2137 Y-188.6451 F12000.0
G1 Z0.0000 F8000.0
G0 X136.0368 Y-189.7508 F15000.0
G1 Z11.9000 F8000.0
G1 X136.2580 Y-189.6623 F12000.0
G1 X136.3906 Y-191.3872
G1 Z0.0000 F8000.0
G0 X134.7100 Y-191.0334 F15000.0
G1 Z11.9000 F8000.0
G1 X134.5331 Y-191.2103 F12000.0
G1 Z0.0000 F8000.0
G0 X132.6756 Y-190.7238 F15000.0
G1 Z11.9000 F8000.0
G1 X132.4545 Y-190.9007 F12000.0
G1 Z0.0000 F8000.0
G0 X131.8795 Y-191.8294 F15000.0
G1 Z11.9000 F8000.0
G1 X131.8353 Y-192.1833 F12000.0
G1 X132.1006 Y-192.6698
G1 Z0.0000 F8000.0
G0 X132.3218 Y-192.8024 F15000.0
G1 Z11.9000 F8000.0
G1 X133.0736 Y-192.6698 F12000.0
G1 Z0.0000 F8000.0
G0 X132.4987 Y-193.8197 F15000.0
G1 Z11.9000 F8000.0
G1 X135.0196 Y-192.8467 F12000.0
G1 X135.9484 Y-192.6255
G1 X136.3022 Y-193.1120
G1 X136.1695 Y-194.2177
G1 X135.9484 Y-194.4831
G1 X135.3292 Y-194.8811
G1 X134.8427 Y-195.0580
G1 Z0.0000 F8000.0
G0 X134.0908 Y-195.3234 F15000.0
G1 Z11.9000 F8000.0
G1 X133.9582 Y-195.3676 F12000.0
G1 Z0.0000 F8000.0
G0 X132.5871 Y-195.8541 F15000.0
G1 Z11.9000 F8000.0
G1 X132.2775 Y-195.8541 F12000.0
G1 Z0.0000 F8000.0
G0 X131.9680 Y-195.6330 F15000.0
G1 Z11.9000 F8000.0
G1 X131.9237 Y-194.4388 F12000.0
G1 X132.2333 Y-194.0408
G1 Z0.0000 F8000.0
G0 X132.8083 Y-189.3085 F15000.0
G1 Z11.9000 F8000.0
G1 X133.2948 Y-188.8220 F12000.0
G1 Z0.0000 F8000.0
G0 X133.7813 Y-188.2913 F15000.0
G1 Z11.9000 F8000.0
G1 X133.8697 Y-188.0259 F12000.0
G1 Z0.0000 F8000.0
G0 X134.0908 Y-187.9375 F15000.0
G1 Z11.9000 F8000.0
G1 X133.8255 Y-187.9817 F12000.0
G1 X132.9410 Y-187.7606
G1 Z0.0000 F8000.0
G0 X132.4987 Y-187.6279 F15000.0
G1 Z11.9000 F8000.0
G1 X132.2775 Y-187.5394 F12000.0
G1 X131.9680 Y-187.5394
G1 Z0.0000 F8000.0
G0 X132.3218 Y-187.4952 F15000.0
G1 Z11.9000 F8000.0
G1 X132.4987 Y-187.2741 F12000.0
G1 Z0.0000 F8000.0
G0 X123.9817 Y-191.0503 F15000.0
G1 Z11.9000 F8000.0
G1 X114.2609 Y-191.0503 F12000.0
G1 Z0.0000 F8000.0
G0 X112.7780 Y-191.0503 F15000.0
G1 Z11.9000 F8000.0
G1 X111.2128 Y-191.0503 F12000.0
G1 Z0.0000 F8000.0
G0 X109.7300 Y-191.0503 F15000.0
G1 Z11.9000 F8000.0
G1 X100.0092 Y-191.0503 F12000.0
G1 Z0.0000 F8000.0
G0 X98.5263 Y-191.0503 F15000.0
G1 Z11.9000 F8000.0
G1 X96.9611 Y-191.0503 F12000.0
G1 Z0.0000 F8000.0
G0 X95.4783 Y-191.0503 F15000.0
G1 Z11.9000 F8000.0
G1 X85.7574 Y-191.0503 F12000.0
G1 Z0.0000 F8000.0
G0 X84.2746 Y-191.0503 F15000.0
G1 Z11.9000 F8000.0
G1 X82.6270 Y-191.0503 F12000.0
G1 Z0.0000 F8000.0
G0 X81.2265 Y-191.0503 F15000.0
G1 Z11.9000 F8000.0
G1 X71.4233 Y-191.0503 F12000.0
G1 Z0.0000 F8000.0
G0 X65.7799 Y-191.5281 F15000.0
G1 Z11.9000 F8000.0
G1 X65.3376 Y-193.2529 F12000.0
G1 Z0.0000 F8000.0
G0 X65.1607 Y-193.4741 F15000.0
G1 Z11.9000 F8000.0
G1 X63.9666 Y-194.0048 F12000.0
G1 X63.3916 Y-193.8279
G1 Z0.0000 F8000.0
G0 X63.3474 Y-193.1203 F15000.0
G1 Z11.9000 F8000.0
G1 X63.1705 Y-193.7394 F12000.0
G1 X62.7282 Y-194.2259
G1 Z0.0000 F8000.0
G0 X62.1975 Y-194.4471 F15000.0
G1 Z11.9000 F8000.0
G1 X61.4899 Y-194.5798 F12000.0
G1 X61.3572 Y-194.4913
G1 Z0.0000 F8000.0
G0 X61.2245 Y-194.3144 F15000.0
G1 Z11.9000 F8000.0
G1 X61.2687 Y-193.1645 F12000.0
G1 Z0.0000 F8000.0
G0 X61.2687 Y-192.3684 F15000.0
G1 Z11.9000 F8000.0
G1 X61.4899 Y-192.2357 F12000.0
G1 X61.5783 Y-191.8377
G1 Z0.0000 F8000.0
G0 X61.5341 Y-192.2357 F15000.0
G1 Z11.9000 F8000.0
G1 X65.5145 Y-190.8205 F12000.0
G1 Z0.0000 F8000.0
G0 X64.1746 Y-189.2237 F15000.0
G1 Z11.9000 F8000.0
G1 X63.9092 Y-189.4449 F12000.0
G1 X63.4227 Y-189.6660
G1 X62.8920 Y-189.6218
G1 X62.6709 Y-189.4449
G1 Z0.0000 F8000.0
G0 X62.3171 Y-189.3122 F15000.0
G1 Z11.9000 F8000.0
G1 X63.0247 Y-188.8257 F12000.0
G1 Z0.0000 F8000.0
G0 X62.4940 Y-189.0468 F15000.0
G1 Z11.9000 F8000.0
G1 X62.7151 Y-188.0296 F12000.0
G1 Z0.0000 F8000.0
G0 X63.1574 Y-187.5873 F15000.0
G1 Z11.9000 F8000.0
G1 X63.6439 Y-187.3662 F12000.0
G1 X64.9707 Y-187.4989
G1 Z0.0000 F8000.0
G0 X65.1918 Y-187.3662 F15000.0
G1 Z11.9000 F8000.0
G1 X65.6341 Y-187.0566 F12000.0
G1 Z0.0000 F8000.0
G0 X64.4399 Y-187.8969 F15000.0
G1 Z11.9000 F8000.0
G1 X64.6611 Y-187.8085 F12000.0
G1 X64.7053 Y-187.8527
G1 X64.3957 Y-188.9584
G1 Z0.0000 F8000.0
G0 X61.9632 Y-189.5333 F15000.0
G1 Z11.9000 F8000.0
G1 X61.4767 Y-189.8871 F12000.0
G1 Z0.0000 F8000.0
G0 X62.2860 Y-190.8647 F15000.0
G1 Z11.9000 F8000.0
G1 X61.9764 Y-191.2185 F12000.0
G1 Z0.0000 F8000.0
G0 X54.5118 Y-190.6343 F15000.0
G1 Z11.9000 F8000.0
G1 X50.5314 Y-192.0496 F12000.0
G1 Z0.0000 F8000.0
G0 X50.2661 Y-192.1822 F15000.0
G1 Z11.9000 F8000.0
G1 X50.4872 Y-192.0496 F12000.0
G1 X50.5756 Y-191.6515
G1 Z0.0000 F8000.0
G0 X50.9737 Y-191.0323 F15000.0
G1 Z11.9000 F8000.0
G1 X51.2833 Y-190.6785 F12000.0
G1 Z0.0000 F8000.0
G0 X50.4740 Y-189.6941 F15000.0
G1 Z11.9000 F8000.0
G1 X50.9605 Y-189.3403 F12000.0
G1 Z0.0000 F8000.0
G0 X51.3144 Y-189.1191 F15000.0
G1 Z11.9000 F8000.0
G1 X52.0220 Y-188.6326 F12000.0
G1 Z0.0000 F8000.0
G0 X51.4913 Y-188.8538 F15000.0
G1 Z11.9000 F8000.0
G1 X51.7124 Y-187.8365 F12000.0
G1 Z0.0000 F8000.0
G0 X52.1547 Y-187.3943 F15000.0
G1 Z11.9000 F8000.0
G1 X52.6412 Y-187.1731 F12000.0
G1 X53.9680 Y-187.3058
G1 Z0.0000 F8000.0
G0 X54.1891 Y-187.1731 F15000.0
G1 Z11.9000 F8000.0
G1 X54.6314 Y-186.8635 F12000.0
G1 Z0.0000 F8000.0
G0 X53.4372 Y-187.7039 F15000.0
G1 Z11.9000 F8000.0
G1 X53.6584 Y-187.6154 F12000.0
G1 X53.7026 Y-187.6596
G1 X53.3930 Y-188.7653
G1 Z0.0000 F8000.0
G0 X53.1719 Y-189.0307 F15000.0
G1 Z11.9000 F8000.0
G1 X52.9065 Y-189.2518 F12000.0
G1 X52.4200 Y-189.4729
G1 X51.8893 Y-189.4287
G1 X51.6682 Y-189.2518
G1 Z0.0000 F8000.0
G0 X52.7428 Y-192.2707 F15000.0
G1 Z11.9000 F8000.0
G1 X52.8312 Y-192.1822 F12000.0
G1 X54.2465 Y-191.7400
G1 X54.3791 Y-191.8284
G1 Z0.0000 F8000.0
G0 X54.4676 Y-191.9169 F15000.0
G1 Z11.9000 F8000.0
G1 X54.6445 Y-192.7130 F12000.0
G1 X54.5561 Y-193.1110
G1 Z0.0000 F8000.0
G0 X54.3349 Y-193.4648 F15000.0
G1 Z11.9000 F8000.0
G1 X54.0696 Y-193.7302 F12000.0
G1 X53.4946 Y-193.9955
G1 X52.3889 Y-194.0398
G1 X52.1678 Y-193.9071
G1 X52.0794 Y-193.9955
G1 Z0.0000 F8000.0
G0 X52.0351 Y-192.8899 F15000.0
G1 Z11.9000 F8000.0
G1 X51.1064 Y-192.9341 F12000.0
G1 Z0.0000 F8000.0
G0 X50.5756 Y-193.2879 F15000.0
G1 Z11.9000 F8000.0
G1 X50.4872 Y-193.3764 F12000.0
G1 Z0.0000 F8000.0
G0 X50.2661 Y-193.6860 F15000.0
G1 Z11.9000 F8000.0
G1 X50.1776 Y-194.4378 F12000.0
G1 X50.8852 Y-194.7474
G1 X51.9024 Y-194.2167
G1 X52.0351 Y-194.0398
G1 X52.1678 Y-192.9783
G1 X52.4774 Y-192.5361
G1 Z0.0000 F8000.0
G0 X42.0446 Y-193.9299 F15000.0
G1 Z11.9000 F8000.0
G1 X41.9562 Y-192.2493 F12000.0
G1 X41.7351 Y-192.3377
G1 Z0.0000 F8000.0
G0 X42.0446 Y-190.9667 F15000.0
G1 Z11.9000 F8000.0
G1 X41.9562 Y-189.2861 F12000.0
G1 X41.7351 Y-189.3745
G1 Z0.0000 F8000.0
G0 X40.4082 Y-190.6571 F15000.0
G1 Z11.9000 F8000.0
G1 X40.2313 Y-190.8340 F12000.0
G1 Z0.0000 F8000.0
G0 X38.3738 Y-190.3475 F15000.0
G1 Z11.9000 F8000.0
G1 X37.7989 Y-190.9224 F12000.0
G1 Z0.0000 F8000.0
G0 X37.6220 Y-191.2763 F15000.0
G1 Z11.9000 F8000.0
G1 X37.5335 Y-191.8070 F12000.0
G1 X37.7546 Y-192.2493
G1 X38.1527 Y-192.4704
G1 X38.7719 Y-192.2935
G1 Z0.0000 F8000.0
G0 X38.3738 Y-193.3107 F15000.0
G1 Z11.9000 F8000.0
G1 X37.7989 Y-193.8856 F12000.0
G1 Z0.0000 F8000.0
G0 X37.6220 Y-194.2395 F15000.0
G1 Z11.9000 F8000.0
G1 X37.5777 Y-194.9029 F12000.0
G1 X37.7546 Y-195.2125
G1 X38.1527 Y-195.4336
G1 X38.7719 Y-195.2567
G1 Z0.0000 F8000.0
G0 X40.2313 Y-193.7972 F15000.0
G1 Z11.9000 F8000.0
G1 X40.4082 Y-193.6203 F12000.0
G1 Z0.0000 F8000.0
G0 X39.3026 Y-188.8880 F15000.0
G1 Z11.9000 F8000.0
G1 X39.6122 Y-188.9765 F12000.0
G1 X40.3198 Y-188.7111
G1 X40.5409 Y-188.5342
G1 X41.0717 Y-187.1189
G1 X40.8505 Y-187.1632
G1 Z0.0000 F8000.0
G0 X41.0717 Y-186.9420 F15000.0
G1 Z11.9000 F8000.0
G1 X42.0446 Y-186.3671 F12000.0
G1 Z0.0000 F8000.0
G0 X40.8947 Y-186.7651 F15000.0
G1 Z11.9000 F8000.0
G1 X40.8063 Y-186.6767 F12000.0
G1 Z0.0000 F8000.0
G0 X40.6294 Y-186.5882 F15000.0
G1 Z11.9000 F8000.0
G1 X39.5237 Y-186.8978 F12000.0
G1 Z0.0000 F8000.0
G0 X39.1257 Y-187.3401 F15000.0
G1 Z11.9000 F8000.0
G1 X38.9045 Y-188.3573 F12000.0
G1 Z0.0000 F8000.0
G0 X38.7276 Y-188.6227 F15000.0
G1 Z11.9000 F8000.0
G1 X39.5237 Y-188.0477 F12000.0
G1 Z0.0000 F8000.0
G0 X40.4082 Y-187.4728 F15000.0
G1 Z11.9000 F8000.0
G1 X40.4967 Y-187.3843 F12000.0
G1 Z0.0000 F8000.0
G0 X38.3738 Y-188.8438 F15000.0
G1 Z11.9000 F8000.0
G1 X37.8873 Y-189.1976 F12000.0
G1 Z0.0000 F8000.0
G0 X67.7163 Y-164.2769 F15000.0
G1 Z11.9000 F8000.0
G1 X68.3753 Y-159.4165 F12000.0
G1 X68.9520 Y-164.2769 F12000.0
G1 X68.3753 Y-163.7826 F12000.0
G1 X67.7163 Y-164.2769 F12000.0
G1 Z0.0000 F8000.0
G0 X68.0870 Y-162.6140 F15000.0
G1 Z11.9000 F8000.0
G1 X68.0870 Y-161.7384 F12000.0
G1 Z0.0000 F8000.0
G0 X68.6636 Y-161.4500 F15000.0
G1 Z11.9000 F8000.0
G1 X68.6636 Y-162.3257 F12000.0
G1 Z0.0000 F8000.0
G0 X68.3753 Y-159.4165 F15000.0
G1 Z11.9000 F8000.0
G1 X68.3753 Y-222.6842 F12000.0
G1 X68.9520 Y-217.8238 F12000.0
G1 X68.3753 Y-218.3181 F12000.0
G1 X67.7163 Y-217.8238 F12000.0
G1 X68.3753 Y-222.6842 F12000.0
G1 Z0.0000 F8000.0
G0 X68.6636 Y-220.7330 F15000.0
G1 Z11.9000 F8000.0
G1 X68.6636 Y-219.8573 F12000.0
G1 Z0.0000 F8000.0
G0 X68.0870 Y-219.5690 F15000.0
G1 Z11.9000 F8000.0
G1 X68.0870 Y-220.4447 F12000.0
G1 Z0.0000 F8000.0
G0 X66.3982 Y-222.6842 F15000.0
G1 Z11.9000 F8000.0
G1 X73.4005 Y-222.6842 F12000.0
G1 X107.4233 Y-222.6842 F12000.0
G1 X122.0870 Y-222.6842 F12000.0
G1 Z0.0000 F8000.0
G0 X121.0160 Y-222.6842 F15000.0
G1 Z11.9000 F8000.0
G1 X122.0870 Y-223.7551 F12000.0
G1 Z0.0000 F8000.0
G0 X122.0870 Y-225.8146 F15000.0
G1 Z11.9000 F8000.0
G1 X118.9565 Y-222.6842 F12000.0
G1 Z0.0000 F8000.0
G0 X116.8970 Y-222.6842 F15000.0
G1 Z11.9000 F8000.0
G1 X122.0870 Y-227.8741 F12000.0
G1 Z0.0000 F8000.0
G0 X122.0870 Y-229.9336 F15000.0
G1 Z11.9000 F8000.0
G1 X114.8375 Y-222.6842 F12000.0
G1 Z0.0000 F8000.0
G0 X112.7780 Y-222.6842 F15000.0
G1 Z11.9000 F8000.0
G1 X122.0870 Y-231.9931 F12000.0
G1 Z0.0000 F8000.0
G0 X122.0870 Y-234.0526 F15000.0
G1 Z11.9000 F8000.0
G1 X110.7185 Y-222.6842 F12000.0
G1 Z0.0000 F8000.0
G0 X108.6590 Y-222.6842 F15000.0
G1 Z11.9000 F8000.0
G1 X122.0870 Y-236.1121 F12000.0
G1 Z0.0000 F8000.0
G0 X122.0870 Y-234.8764 F15000.0
G1 Z11.9000 F8000.0
G1 X122.0870 Y-239.7368 F12000.0
G1 X107.4233 Y-239.7368 F12000.0
G1 X92.8421 Y-239.7368 F12000.0
G1 X92.8421 Y-234.8764 F12000.0
G1 X87.9817 Y-234.8764 F12000.0
G1 X87.9817 Y-244.5972 F12000.0
G1 X73.4005 Y-244.5972 F12000.0
G1 X73.4005 Y-164.2769 F12000.0
G1 X73.4005 Y-137.5858 F12000.0
G1 X87.9817 Y-137.5858 F12000.0
G1 X87.9817 Y-147.3066 F12000.0
G1 X92.8421 Y-147.3066 F12000.0
G1 X107.4233 Y-147.3066 F12000.0
G1 X122.0870 Y-147.3066 F12000.0
G1 X122.0870 Y-142.4462 F12000.0
G1 X107.4233 Y-142.4462 F12000.0
G1 X92.8421 Y-142.4462 F12000.0
G1 X92.8421 Y-147.3066 F12000.0
G1 Z0.0000 F8000.0
G0 X92.8421 Y-147.0595 F15000.0
G1 Z11.9000 F8000.0
G1 X105.1991 Y-159.4165 F12000.0
G1 Z0.0000 F8000.0
G0 X107.2586 Y-159.4165 F15000.0
G1 Z11.9000 F8000.0
G1 X92.8421 Y-145.0000 F12000.0
G1 Z0.0000 F8000.0
G0 X92.8421 Y-142.9405 F15000.0
G1 Z11.9000 F8000.0
G1 X109.4005 Y-159.4165 F12000.0
G1 Z0.0000 F8000.0
G0 X107.4233 Y-159.4165 F15000.0
G1 Z11.9000 F8000.0
G1 X73.4005 Y-159.4165 F12000.0
G1 X66.3982 Y-159.4165 F12000.0
G1 Z0.0000 F8000.0
G0 X73.4005 Y-158.5927 F15000.0
G1 Z11.9000 F8000.0
G1 X74.3066 Y-159.4165 F12000.0
G1 Z0.0000 F8000.0
G0 X76.3661 Y-159.4165 F15000.0
G1 Z11.9000 F8000.0
G1 X73.4005 Y-156.5332 F12000.0
G1 Z0.0000 F8000.0
G0 X73.4005 Y-154.4737 F15000.0
G1 Z11.9000 F8000.0
G1 X78.4256 Y-159.4165 F12000.0
G1 Z0.0000 F8000.0
G0 X80.4851 Y-159.4165 F15000.0
G1 Z11.9000 F8000.0
G1 X73.4005 Y-152.4142 F12000.0
G1 Z0.0000 F8000.0
G0 X73.4005 Y-150.2723 F15000.0
G1 Z11.9000 F8000.0
G1 X82.5446 Y-159.4165 F12000.0
G1 Z0.0000 F8000.0
G0 X84.6041 Y-159.4165 F15000.0
G1 Z11.9000 F8000.0
G1 X73.4005 Y-148.2128 F12000.0
G1 Z0.0000 F8000.0
G0 X73.4005 Y-146.1533 F15000.0
G1 Z11.9000 F8000.0
G1 X86.6636 Y-159.4165 F12000.0
G1 Z0.0000 F8000.0
G0 X88.7231 Y-159.4165 F15000.0
G1 Z11.9000 F8000.0
G1 X73.4005 Y-144.0938 F12000.0
G1 Z0.0000 F8000.0
G0 X73.4005 Y-142.0343 F15000.0
G1 Z11.9000 F8000.0
G1 X90.7826 Y-159.4165 F12000.0
G1 Z0.0000 F8000.0
G0 X92.8421 Y-159.4165 F15000.0
G1 Z11.9000 F8000.0
G1 X73.4005 Y-139.9748 F12000.0
G1 Z0.0000 F8000.0
G0 X73.4005 Y-137.9153 F15000.0
G1 Z11.9000 F8000.0
G1 X94.9016 Y-159.4165 F12000.0
G1 Z0.0000 F8000.0
G0 X96.9611 Y-159.4165 F15000.0
G1 Z11.9000 F8000.0
G1 X75.0481 Y-137.5858 F12000.0
G1 Z0.0000 F8000.0
G0 X73.4005 Y-137.5858 F15000.0
G1 Z11.9000 F8000.0
G1 X42.7552 Y-137.5858 F12000.0
G1 Z0.0000 F8000.0
G0 X44.7323 Y-137.5858 F15000.0
G1 Z11.9000 F8000.0
G1 X44.0732 Y-142.4462 F12000.0
G1 X44.7323 Y-141.9519 F12000.0
G1 X45.3913 Y-142.4462 F12000.0
G1 X44.7323 Y-137.5858 F12000.0
G1 X44.7323 Y-244.5972 F12000.0
G1 X45.3913 Y-239.7368 F12000.0
G1 X44.7323 Y-240.2311 F12000.0
G1 X44.0732 Y-239.7368 F12000.0
G1 X44.7323 Y-244.5972 F12000.0
G1 Z0.0000 F8000.0
G0 X42.7552 Y-244.5972 F15000.0
G1 Z11.9000 F8000.0
G1 X73.4005 Y-244.5972 F12000.0
G1 Z0.0000 F8000.0
G0 X73.4005 Y-243.1968 F15000.0
G1 Z11.9000 F8000.0
G1 X74.8009 Y-244.5972 F12000.0
G1 Z0.0000 F8000.0
G0 X76.8604 Y-244.5972 F15000.0
G1 Z11.9000 F8000.0
G1 X73.4005 Y-241.1373 F12000.0
G1 Z0.0000 F8000.0
G0 X73.4005 Y-239.0778 F15000.0
G1 Z11.9000 F8000.0
G1 X78.9199 Y-244.5972 F12000.0
G1 Z0.0000 F8000.0
G0 X80.9794 Y-244.5972 F15000.0
G1 Z11.9000 F8000.0
G1 X73.4005 Y-237.0183 F12000.0
G1 Z0.0000 F8000.0
G0 X73.4005 Y-234.9588 F15000.0
G1 Z11.9000 F8000.0
G1 X83.0389 Y-244.5972 F12000.0
G1 Z0.0000 F8000.0
G0 X85.0984 Y-244.5972 F15000.0
G1 Z11.9000 F8000.0
G1 X73.4005 Y-232.8993 F12000.0
G1 Z0.0000 F8000.0
G0 X73.4005 Y-230.8398 F15000.0
G1 Z11.9000 F8000.0
G1 X87.1579 Y-244.5972 F12000.0
G1 Z0.0000 F8000.0
G0 X87.9817 Y-243.3615 F15000.0
G1 Z11.9000 F8000.0
G1 X73.4005 Y-228.7803 F12000.0
G1 Z0.0000 F8000.0
G0 X73.4005 Y-226.6384 F15000.0
G1 Z11.9000 F8000.0
G1 X87.9817 Y-241.3020 F12000.0
G1 Z0.0000 F8000.0
G0 X87.9817 Y-239.2425 F15000.0
G1 Z11.9000 F8000.0
G1 X73.4005 Y-224.5789 F12000.0
G1 Z0.0000 F8000.0
G0 X73.5652 Y-222.6842 F15000.0
G1 Z11.9000 F8000.0
G1 X87.9817 Y-237.1830 F12000.0
G1 Z0.0000 F8000.0
G0 X87.9817 Y-235.0412 F15000.0
G1 Z11.9000 F8000.0
G1 X75.6247 Y-222.6842 F12000.0
G1 Z0.0000 F8000.0
G0 X77.6842 Y-222.6842 F15000.0
G1 Z11.9000 F8000.0
G1 X89.7941 Y-234.8764 F12000.0
G1 Z0.0000 F8000.0
G0 X87.9817 Y-234.8764 F15000.0
G1 Z11.9000 F8000.0
G1 X55.3593 Y-234.8764 F12000.0
G1 Z0.0000 F8000.0
G0 X57.3364 Y-234.8764 F15000.0
G1 Z11.9000 F8000.0
G1 X57.9954 Y-230.0160 F12000.0
G1 X57.3364 Y-230.5103 F12000.0
G1 X56.6774 Y-230.0160 F12000.0
G1 X57.3364 Y-234.8764 F12000.0
G1 X57.3364 Y-147.3066 F12000.0
G1 X56.6774 Y-152.1670 F12000.0
G1 X57.3364 Y-151.6728 F12000.0
G1 X57.9954 Y-152.1670 F12000.0
G1 X57.3364 Y-147.3066 F12000.0
G1 Z0.0000 F8000.0
G0 X55.3593 Y-147.3066 F15000.0
G1 Z11.9000 F8000.0
G1 X87.9817 Y-147.3066 F12000.0
G1 Z0.0000 F8000.0
G0 X87.9817 Y-146.3181 F15000.0
G1 Z11.9000 F8000.0
G1 X79.2494 Y-137.5858 F12000.0
G1 Z0.0000 F8000.0
G0 X77.1899 Y-137.5858 F15000.0
G1 Z11.9000 F8000.0
G1 X99.0206 Y-159.4165 F12000.0
G1 Z0.0000 F8000.0
G0 X101.0801 Y-159.4165 F15000.0
G1 Z11.9000 F8000.0
G1 X88.9703 Y-147.3066 F12000.0
G1 Z0.0000 F8000.0
G0 X91.0298 Y-147.3066 F15000.0
G1 Z11.9000 F8000.0
G1 X103.1396 Y-159.4165 F12000.0
G1 Z0.0000 F8000.0
G0 X107.4233 Y-159.4165 F15000.0
G1 Z11.9000 F8000.0
G1 X122.0870 Y-159.4165 F12000.0
G1 Z0.0000 F8000.0
G0 X121.7574 Y-159.4165 F15000.0
G1 Z11.9000 F8000.0
G1 X104.7048 Y-142.4462 F12000.0
G1 Z0.0000 F8000.0
G0 X102.6453 Y-142.4462 F15000.0
G1 Z11.9000 F8000.0
G1 X119.6979 Y-159.4165 F12000.0
G1 Z0.0000 F8000.0
G0 X117.6384 Y-159.4165 F15000.0
G1 Z11.9000 F8000.0
G1 X100.5858 Y-142.4462 F12000.0
G1 Z0.0000 F8000.0
G0 X98.5263 Y-142.4462 F15000.0
G1 Z11.9000 F8000.0
G1 X115.5789 Y-159.4165 F12000.0
G1 Z0.0000 F8000.0
G0 X113.5194 Y-159.4165 F15000.0
G1 Z11.9000 F8000.0
G1 X96.4668 Y-142.4462 F12000.0
G1 Z0.0000 F8000.0
G0 X94.4073 Y-142.4462 F15000.0
G1 Z11.9000 F8000.0
G1 X111.4600 Y-159.4165 F12000.0
G1 Z0.0000 F8000.0
G0 X122.0870 Y-157.6865 F15000.0
G1 Z11.9000 F8000.0
G1 X106.7643 Y-142.4462 F12000.0
G1 Z0.0000 F8000.0
G0 X108.8238 Y-142.4462 F15000.0
G1 Z11.9000 F8000.0
G1 X122.0870 Y-155.6270 F12000.0
G1 Z0.0000 F8000.0
G0 X122.0870 Y-153.5675 F15000.0
G1 Z11.9000 F8000.0
G1 X110.8833 Y-142.4462 F12000.0
G1 Z0.0000 F8000.0
G0 X112.9428 Y-142.4462 F15000.0
G1 Z11.9000 F8000.0
G1 X122.0870 Y-151.5080 F12000.0
G1 Z0.0000 F8000.0
G0 X122.0870 Y-149.4485 F15000.0
G1 Z11.9000 F8000.0
G1 X115.0023 Y-142.4462 F12000.0
G1 Z0.0000 F8000.0
G0 X117.1442 Y-142.4462 F15000.0
G1 Z11.9000 F8000.0
G1 X122.0870 Y-147.3890 F12000.0
G1 Z0.0000 F8000.0
G0 X122.0870 Y-147.3066 F15000.0
G1 Z11.9000 F8000.0
G1 X122.0870 Y-217.8238 F12000.0
G1 X122.0870 Y-234.8764 F12000.0
G1 X107.4233 Y-234.8764 F12000.0
G1 X92.8421 Y-234.8764 F12000.0
G1 Z0.0000 F8000.0
G0 X92.8421 Y-235.7826 F15000.0
G1 Z11.9000 F8000.0
G1 X96.7140 Y-239.7368 F12000.0
G1 Z0.0000 F8000.0
G0 X94.6545 Y-239.7368 F15000.0
G1 Z11.9000 F8000.0
G1 X92.8421 Y-237.8421 F12000.0
G1 Z0.0000 F8000.0
G0 X91.8535 Y-234.8764 F15000.0
G1 Z11.9000 F8000.0
G1 X79.7437 Y-222.6842 F12000.0
G1 Z0.0000 F8000.0
G0 X81.8032 Y-222.6842 F15000.0
G1 Z11.9000 F8000.0
G1 X98.8558 Y-239.7368 F12000.0
G1 Z0.0000 F8000.0
G0 X100.9153 Y-239.7368 F15000.0
G1 Z11.9000 F8000.0
G1 X83.8627 Y-222.6842 F12000.0
G1 Z0.0000 F8000.0
G0 X85.9222 Y-222.6842 F15000.0
G1 Z11.9000 F8000.0
G1 X102.9748 Y-239.7368 F12000.0
G1 Z0.0000 F8000.0
G0 X105.0343 Y-239.7368 F15000.0
G1 Z11.9000 F8000.0
G1 X87.9817 Y-222.6842 F12000.0
G1 Z0.0000 F8000.0
G0 X90.0412 Y-222.6842 F15000.0
G1 Z11.9000 F8000.0
G1 X107.0938 Y-239.7368 F12000.0
G1 Z0.0000 F8000.0
G0 X109.1533 Y-239.7368 F15000.0
G1 Z11.9000 F8000.0
G1 X92.1007 Y-222.6842 F12000.0
G1 Z0.0000 F8000.0
G0 X94.1602 Y-222.6842 F15000.0
G1 Z11.9000 F8000.0
G1 X111.2128 Y-239.7368 F12000.0
G1 Z0.0000 F8000.0
G0 X113.2723 Y-239.7368 F15000.0
G1 Z11.9000 F8000.0
G1 X96.2197 Y-222.6842 F12000.0
G1 Z0.0000 F8000.0
G0 X98.2792 Y-222.6842 F15000.0
G1 Z11.9000 F8000.0
G1 X115.3318 Y-239.7368 F12000.0
G1 Z0.0000 F8000.0
G0 X117.3913 Y-239.7368 F15000.0
G1 Z11.9000 F8000.0
G1 X100.3387 Y-222.6842 F12000.0
G1 Z0.0000 F8000.0
G0 X102.3982 Y-222.6842 F15000.0
G1 Z11.9000 F8000.0
G1 X119.4508 Y-239.7368 F12000.0
G1 Z0.0000 F8000.0
G0 X121.5103 Y-239.7368 F15000.0
G1 Z11.9000 F8000.0
G1 X104.4577 Y-222.6842 F12000.0
G1 Z0.0000 F8000.0
G0 X106.5995 Y-222.6842 F15000.0
G1 Z11.9000 F8000.0
G1 X122.0870 Y-238.1716 F12000.0
G1 Z0.0000 F8000.0
G0 X122.0870 Y-239.7368 F15000.0
G1 Z11.9000 F8000.0
G1 X140.9519 Y-239.7368 F12000.0
G1 Z0.0000 F8000.0
G0 X138.9748 Y-239.7368 F15000.0
G1 Z11.9000 F8000.0
G1 X139.6339 Y-234.8764 F12000.0
G1 X138.9748 Y-235.3707 F12000.0
G1 X138.3982 Y-234.8764 F12000.0
G1 X138.9748 Y-239.7368 F12000.0
G1 X138.9748 Y-142.4462 F12000.0
G1 X138.3982 Y-147.3066 F12000.0
G1 X138.9748 Y-146.8124 F12000.0
G1 X139.6339 Y-147.3066 F12000.0
G1 X138.9748 Y-142.4462 F12000.0
G1 Z0.0000 F8000.0
G0 X140.9519 Y-142.4462 F15000.0
G1 Z11.9000 F8000.0
G1 X122.0870 Y-142.4462 F12000.0
G1 X122.0870 Y-103.1510 F12000.0
G1 Z0.0000 F8000.0
G0 X122.0870 Y-105.1282 F15000.0
G1 Z11.9000 F8000.0
G1 X117.1442 Y-104.4691 F12000.0
G1 X117.6384 Y-105.1282 F12000.0
G1 X117.1442 Y-105.7872 F12000.0
G1 X122.0870 Y-105.1282 F12000.0
G1 X73.4005 Y-105.1282 F12000.0
G1 X78.2609 Y-105.7872 F12000.0
G1 X77.7666 Y-105.1282 F12000.0
G1 X78.2609 Y-104.4691 F12000.0
G1 X73.4005 Y-105.1282 F12000.0
G1 Z0.0000 F8000.0
G0 X73.4005 Y-103.1510 F15000.0
G1 Z11.9000 F8000.0
G1 X73.4005 Y-137.5858 F12000.0
G1 Z0.0000 F8000.0
G0 X80.7714 Y-135.0565 F15000.0
G1 Z11.9000 F8000.0
G1 X81.7002 Y-134.9680 F12000.0
G1 Z0.0000 F8000.0
G0 X81.8771 Y-134.8353 F15000.0
G1 Z11.9000 F8000.0
G1 X81.9655 Y-134.6584 F12000.0
G1 X81.7002 Y-133.8181
G1 X81.1694 Y-133.0663
G1 Z0.0000 F8000.0
G0 X80.7714 Y-132.9778 F15000.0
G1 Z11.9000 F8000.0
G1 X81.0810 Y-132.9778 F12000.0
G1 X81.3463 Y-132.1375
G1 X81.3021 Y-132.0490
G1 Z0.0000 F8000.0
G0 X81.1694 Y-131.7395 F15000.0
G1 Z11.9000 F8000.0
G1 X80.9041 Y-131.1203 F12000.0
G1 X80.6387 Y-130.8549
G1 X80.1080 Y-130.5896
G1 X78.9139 Y-130.4569
G1 Z0.0000 F8000.0
G0 X78.2609 Y-128.5240 F15000.0
G1 Z11.9000 F8000.0
G1 X73.4005 Y-127.8650 F12000.0
G1 X78.2609 Y-127.2883 F12000.0
G1 X77.7666 Y-127.8650 F12000.0
G1 X78.2609 Y-128.5240 F12000.0
G1 Z0.0000 F8000.0
G0 X76.5980 Y-128.1945 F15000.0
G1 Z11.9000 F8000.0
G1 X75.7223 Y-128.1945 F12000.0
G1 Z0.0000 F8000.0
G0 X75.3928 Y-127.6179 F15000.0
G1 Z11.9000 F8000.0
G1 X76.2685 Y-127.6179 F12000.0
G1 Z0.0000 F8000.0
G0 X73.4005 Y-127.8650 F15000.0
G1 Z11.9000 F8000.0
G1 X87.9817 Y-127.8650 F12000.0
G1 X83.1213 Y-127.2883 F12000.0
G1 X83.6156 Y-127.8650 F12000.0
G1 X83.1213 Y-128.5240 F12000.0
G1 X87.9817 Y-127.8650 F12000.0
G1 Z0.0000 F8000.0
G0 X87.9817 Y-125.9703 F15000.0
G1 Z11.9000 F8000.0
G1 X87.9817 Y-137.5858 F12000.0
G1 Z0.0000 F8000.0
G0 X87.9817 Y-138.0801 F15000.0
G1 Z11.9000 F8000.0
G1 X87.4874 Y-137.5858 F12000.0
G1 Z0.0000 F8000.0
G0 X85.4279 Y-137.5858 F15000.0
G1 Z11.9000 F8000.0
G1 X87.9817 Y-140.1396 F12000.0
G1 Z0.0000 F8000.0
G0 X87.9817 Y-142.1991 F15000.0
G1 Z11.9000 F8000.0
G1 X83.3684 Y-137.5858 F12000.0
G1 Z0.0000 F8000.0
G0 X81.3089 Y-137.5858 F15000.0
G1 Z11.9000 F8000.0
G1 X87.9817 Y-144.2586 F12000.0
G1 Z0.0000 F8000.0
G0 X92.8421 Y-142.4462 F15000.0
G1 Z11.9000 F8000.0
G1 X92.8421 Y-113.9428 F12000.0
G1 Z0.0000 F8000.0
G0 X92.8421 Y-115.9199 F15000.0
G1 Z11.9000 F8000.0
G1 X87.9817 Y-115.2609 F12000.0
G1 X88.4760 Y-115.9199 F12000.0
G1 X87.9817 Y-116.5790 F12000.0
G1 X92.8421 Y-115.9199 F12000.0
G1 X73.4005 Y-115.9199 F12000.0
G1 X78.2609 Y-116.5790 F12000.0
G1 X77.7666 Y-115.9199 F12000.0
G1 X78.2609 Y-115.2609 F12000.0
G1 X73.4005 Y-115.9199 F12000.0
G1 Z0.0000 F8000.0
G0 X75.3928 Y-115.6316 F15000.0
G1 Z11.9000 F8000.0
G1 X76.2685 Y-115.6316 F12000.0
G1 Z0.0000 F8000.0
G0 X76.5980 Y-116.2494 F15000.0
G1 Z11.9000 F8000.0
G1 X75.7223 Y-116.2494 F12000.0
G1 Z0.0000 F8000.0
G0 X82.6861 Y-118.7087 F15000.0
G1 Z11.9000 F8000.0
G1 X82.9072 Y-119.2395 F12000.0
G1 X82.9514 Y-119.5933
G1 X81.8015 Y-119.6817
G1 X81.8458 Y-119.9471
G1 X82.8630 Y-121.7162
G1 Z0.0000 F8000.0
G0 X83.1726 Y-122.2911 F15000.0
G1 Z11.9000 F8000.0
G1 X83.6148 Y-123.0872 F12000.0
G1 Z0.0000 F8000.0
G0 X83.4822 Y-120.6547 F15000.0
G1 Z11.9000 F8000.0
G1 X83.1726 Y-119.6375 F12000.0
G1 X83.8360 Y-119.6817
G1 Z0.0000 F8000.0
G0 X89.7269 Y-116.2494 F15000.0
G1 Z11.9000 F8000.0
G1 X90.6026 Y-116.2494 F12000.0
G1 Z0.0000 F8000.0
G0 X90.8909 Y-115.6316 F15000.0
G1 Z11.9000 F8000.0
G1 X90.0152 Y-115.6316 F12000.0
G1 Z0.0000 F8000.0
G0 X96.0283 Y-111.1764 F15000.0
G1 Z11.9000 F8000.0
G1 X96.2052 Y-111.3533 F12000.0
G1 Z0.0000 F8000.0
G0 X96.9571 Y-111.8398 F15000.0
G1 Z11.9000 F8000.0
G1 X97.2667 Y-111.9282 F12000.0
G1 Z0.0000 F8000.0
G0 X97.5763 Y-112.2378 F15000.0
G1 Z11.9000 F8000.0
G1 X97.3109 Y-111.8840 F12000.0
G1 X95.8514 Y-107.8151
G1 Z0.0000 F8000.0
G0 X97.1340 Y-108.0363 F15000.0
G1 Z11.9000 F8000.0
G1 X97.1340 Y-108.8766 F12000.0
G1 X98.2397 Y-111.6629
G1 X98.7704 Y-112.1494
G1 X99.9203 Y-112.2378
G1 Z0.0000 F8000.0
G0 X100.2299 Y-111.8840 F15000.0
G1 Z11.9000 F8000.0
G1 X99.4338 Y-109.3631 F12000.0
G1 Z0.0000 F8000.0
G0 X99.3011 Y-109.0093 F15000.0
G1 Z11.9000 F8000.0
G1 X98.9473 Y-108.2574 F12000.0
G1 Z0.0000 F8000.0
G0 X98.7262 Y-108.0363 F15000.0
G1 Z11.9000 F8000.0
G1 X98.0185 Y-107.7709 F12000.0
G1 X97.2225 Y-107.9478
G1 Z0.0000 F8000.0
G0 X76.5980 Y-105.4577 F15000.0
G1 Z11.9000 F8000.0
G1 X75.7223 Y-105.4577 F12000.0
G1 Z0.0000 F8000.0
G0 X75.3928 Y-104.8398 F15000.0
G1 Z11.9000 F8000.0
G1 X76.2685 Y-104.8398 F12000.0
G1 Z0.0000 F8000.0
G0 X85.1548 Y-127.6179 F15000.0
G1 Z11.9000 F8000.0
G1 X86.0305 Y-127.6179 F12000.0
G1 Z0.0000 F8000.0
G0 X85.7422 Y-128.1945 F15000.0
G1 Z11.9000 F8000.0
G1 X84.8665 Y-128.1945 F12000.0
G1 Z0.0000 F8000.0
G0 X57.6659 Y-149.3402 F15000.0
G1 Z11.9000 F8000.0
G1 X57.6659 Y-150.2159 F12000.0
G1 Z0.0000 F8000.0
G0 X57.0481 Y-150.5042 F15000.0
G1 Z11.9000 F8000.0
G1 X57.0481 Y-149.6285 F12000.0
G1 Z0.0000 F8000.0
G0 X45.0618 Y-140.4951 F15000.0
G1 Z11.9000 F8000.0
G1 X45.0618 Y-139.6194 F12000.0
G1 Z0.0000 F8000.0
G0 X44.4439 Y-139.9077 F15000.0
G1 Z11.9000 F8000.0
G1 X44.4439 Y-140.7834 F12000.0
G1 Z0.0000 F8000.0
G0 X119.2037 Y-142.4462 F15000.0
G1 Z11.9000 F8000.0
G1 X122.0870 Y-145.3295 F12000.0
G1 Z0.0000 F8000.0
G0 X122.0870 Y-143.2700 F15000.0
G1 Z11.9000 F8000.0
G1 X121.2632 Y-142.4462 F12000.0
G1 Z0.0000 F8000.0
G0 X138.7277 Y-144.8093 F15000.0
G1 Z11.9000 F8000.0
G1 X138.7277 Y-145.6850 F12000.0
G1 Z0.0000 F8000.0
G0 X139.3043 Y-145.3555 F15000.0
G1 Z11.9000 F8000.0
G1 X139.3043 Y-144.4798 F12000.0
G1 Z0.0000 F8000.0
G0 X119.8063 Y-105.4577 F15000.0
G1 Z11.9000 F8000.0
G1 X118.9306 Y-105.4577 F12000.0
G1 Z0.0000 F8000.0
G0 X119.2189 Y-104.8398 F15000.0
G1 Z11.9000 F8000.0
G1 X120.0946 Y-104.8398 F12000.0
G1 Z0.0000 F8000.0
G0 X119.0177 Y-55.0479 F15000.0
G1 Z11.9000 F8000.0
G1 X117.2176 Y-54.8772 F12000.0
G1 X117.1475 Y-54.8002
G1 X116.9796 Y-53.3633
G1 X118.1655 Y-53.5063
G1 X118.6382 Y-53.3442
G1 X119.0474 Y-52.9527
G1 X119.1985 Y-52.0952
G1 X119.1518 Y-51.7279
G1 X118.9969 Y-51.3958
G1 X118.6016 Y-50.9573
G1 X118.6907 Y-51.0111
G1 X118.3186 Y-50.8538
G1 X117.2191 Y-51.0065
G1 X116.9425 Y-51.3041
G1 X116.7799 Y-51.6424
G1 Z0.0000 F8000.0
G0 X120.4772 Y-54.1722 F15000.0
G1 Z11.9000 F8000.0
G1 X120.8075 Y-54.7721 F12000.0
G1 X121.2830 Y-55.0645
G1 X121.9021 Y-55.1044
G1 X122.3800 Y-54.9457
G1 X122.6505 Y-54.7409
G1 X122.8095 Y-54.4231
G1 X122.8174 Y-53.6766
G1 X122.6655 Y-53.3326
G1 X122.2646 Y-52.8478
G1 X120.8661 Y-51.5800
G1 X120.6203 Y-51.0210
G1 X120.4658 Y-50.8677
G1 X122.8610 Y-50.9127
G1 Z0.0000 F8000.0
G0 X126.4611 Y-51.1559 F15000.0
G1 Z11.9000 F8000.0
G1 X126.1764 Y-51.6078 F12000.0
G1 X125.9921 Y-52.5971
G1 X126.3459 Y-54.5860
G1 X126.6904 Y-54.9926
G1 X126.4043 Y-54.7370
G1 X126.8441 Y-55.0605
G1 X127.7071 Y-55.0178
G1 X128.1460 Y-54.6378
G1 X128.4809 Y-53.0421
G1 X128.0970 Y-51.2294
G1 X127.9030 Y-51.0044
G1 X127.3530 Y-50.8394
G1 X126.6250 Y-50.9732
G1 X126.5098 Y-51.0586
G1 Z0.0000 F8000.0
G0 X129.9152 Y-51.4965 F15000.0
G1 Z11.9000 F8000.0
G1 X130.0971 Y-51.1959 F12000.0
G1 X130.4504 Y-50.9127
G1 Z0.0000 F8000.0
G0 X130.5477 Y-55.0965 F15000.0
G1 Z11.9000 F8000.0
G1 X131.3747 Y-55.0479 F12000.0
G1 X131.8612 Y-54.6587
G1 X132.2018 Y-52.9559
G1 X131.8612 Y-51.3019
G1 X131.5693 Y-50.9613
G1 X131.2288 Y-50.8154
G1 X130.4504 Y-50.9127
G1 X129.9152 Y-51.4965
G1 X129.6720 Y-52.5667
G1 X130.0125 Y-54.6100
G1 X130.1098 Y-54.7560
G1 X130.0612 Y-54.6587
G1 X130.5477 Y-55.0965
G1 Z0.0000 F8000.0
G0 X126.8503 Y-55.0965 F15000.0
G1 Z11.9000 F8000.0
G1 X126.7530 Y-54.9992 F12000.0
G1 Z0.0000 F8000.0
G0 X135.9964 Y-54.9992 F15000.0
G1 Z11.9000 F8000.0
G1 X135.7474 Y-54.8326 F12000.0
G1 X135.9295 Y-54.9892
G1 X135.5612 Y-54.5873
G1 X135.2447 Y-52.7219
G1 X135.4853 Y-51.4979
G1 X135.9918 Y-50.9504
G1 X136.8458 Y-50.8542
G1 X137.1442 Y-51.0017
G1 X137.3955 Y-51.3290
G1 X137.7150 Y-52.8043
G1 X137.4273 Y-54.5370
G1 X137.3148 Y-54.7343
G1 X136.9409 Y-55.0214
G1 X136.0937 Y-55.0965
G1 Z0.0000 F8000.0
G0 X138.9640 Y-55.0479 F15000.0
G1 Z11.9000 F8000.0
G1 X141.2071 Y-54.9788 F12000.0
G1 X141.2434 Y-54.9174
G1 X140.9875 Y-54.2994
G1 X140.1595 Y-52.7729
G1 X139.8503 Y-51.9438
G1 X139.6451 Y-50.9127
G1 Z0.0000 F8000.0
G0 X135.9964 Y-50.9127 F15000.0
G1 Z11.9000 F8000.0
G1 X135.6578 Y-51.1827 F12000.0
G1 X135.4613 Y-51.4965
G1 Z0.0000 F8000.0
G0 X131.3959 Y-44.3318 F15000.0
G1 Z11.9000 F8000.0
G1 X131.3959 Y-5.3662 F12000.0
G1 Z0.0000 F8000.0
G0 X125.7640 Y-13.3315 F15000.0
G1 Z11.9000 F8000.0
G1 X125.5694 Y-13.3315 F12000.0
G1 Z0.0000 F8000.0
G0 X124.6492 Y-14.6367 F15000.0
G1 Z11.9000 F8000.0
G1 X124.1366 Y-13.8816 F12000.0
G1 X124.1870 Y-14.0442
G1 X124.0748 Y-13.4464
G1 X125.6103 Y-13.2841
G1 X125.6656 Y-15.3013
G1 X125.5403 Y-15.6075
G1 X125.1440 Y-15.3652
G1 X124.8883 Y-14.9856
G1 Z0.0000 F8000.0
G0 X120.8991 Y-15.9586 F15000.0
G1 Z11.9000 F8000.0
G1 X122.7188 Y-15.9128 F12000.0
G1 X122.6759 Y-15.5400
G1 X121.7684 Y-13.8820
G1 X121.4829 Y-12.5531
G1 Z0.0000 F8000.0
G0 X119.9261 Y-13.7207 F15000.0
G1 Z11.9000 F8000.0
G1 X118.9531 Y-13.7207 F12000.0
G1 Z0.0000 F8000.0
G0 X117.8828 Y-15.1802 F15000.0
G1 Z11.9000 F8000.0
G1 X117.9668 Y-13.5246 F12000.0
G1 X117.7144 Y-12.8395
G1 X117.5112 Y-12.6150
G1 X117.2455 Y-12.4753
G1 X116.4305 Y-12.5827
G1 X115.9940 Y-13.1609
G1 X115.8627 Y-14.1809
G1 X115.9553 Y-15.0894
G1 X116.2278 Y-15.6355
G1 X116.8310 Y-16.0266
G1 X117.4258 Y-15.8694
G1 X117.7855 Y-15.3748
G1 Z0.0000 F8000.0
G0 X114.6719 Y-15.9586 F15000.0
G1 Z11.9000 F8000.0
G1 X113.2326 Y-15.9178 F12000.0
G1 X113.1156 Y-15.5381
G1 X113.0542 Y-14.6355
G1 X114.0466 Y-14.7634
G1 X114.7129 Y-14.3106
G1 X114.8202 Y-13.1885
G1 X114.3103 Y-12.5572
G1 X113.4882 Y-12.4847
G1 X113.0456 Y-12.7489
G1 X112.8651 Y-13.0676
G1 X113.0178 Y-12.7477
G1 Z0.0000 F8000.0
G0 X111.5584 Y-13.2342 F15000.0
G1 Z11.9000 F8000.0
G1 X111.4611 Y-13.0396 F12000.0
G1 Z0.0000 F8000.0
G0 X111.5584 Y-15.1802 F15000.0
G1 Z11.9000 F8000.0
G1 X111.6089 Y-13.4051 F12000.0
G1 X111.3827 Y-12.8191
G1 X111.0840 Y-12.5404
G1 X110.8998 Y-12.4733
G1 X110.0903 Y-12.5967
G1 X109.6595 Y-13.1805
G1 X109.5294 Y-14.1049
G1 X109.6185 Y-15.0099
G1 X109.7912 Y-15.4967
G1 X110.5274 Y-16.0258
G1 X111.1203 Y-15.8594
G1 X111.4611 Y-15.3748
G1 Z0.0000 F8000.0
G0 X107.7637 Y-12.5531 F15000.0
G1 Z11.9000 F8000.0
G1 X107.7230 Y-15.5068 F12000.0
G1 X107.2652 Y-15.3579
G1 X106.7907 Y-15.0829
G1 Z0.0000 F8000.0
G0 X104.0405 Y-16.1532 F15000.0
G1 Z11.9000 F8000.0
G1 X102.6783 Y-16.1045 F12000.0
G1 Z0.0000 F8000.0
G0 X101.3648 Y-16.1532 F15000.0
G1 Z11.9000 F8000.0
G1 X102.6022 Y-16.0808 F12000.0
G1 X102.6594 Y-16.0094
G1 X102.6783 Y-12.6018
G1 Z0.0000 F8000.0
G0 X100.6350 Y-13.4775 F15000.0
G1 Z11.9000 F8000.0
G1 X100.2526 Y-12.9313 F12000.0
G1 X98.9427 Y-12.5422
G1 X98.7055 Y-12.5599
G1 X98.0744 Y-12.9642
G1 X97.8643 Y-13.2580
G1 X97.7091 Y-13.7349
G1 X97.6187 Y-14.7424
G1 Z0.0000 F8000.0
G0 X97.6674 Y-14.8397 F15000.0
G1 Z11.9000 F8000.0
G1 X97.8937 Y-15.4527 F12000.0
G1 X98.1402 Y-15.7985
G1 X98.4942 Y-15.9932
G1 X99.2287 Y-16.1695
G1 X99.4642 Y-16.1312
G1 X100.2566 Y-15.7457
G1 X100.4891 Y-15.3262
G1 Z0.0000 F8000.0
G0 X93.8727 Y-15.9099 F15000.0
G1 Z11.9000 F8000.0
G1 X93.4006 Y-15.2959 F12000.0
G1 X93.2094 Y-13.9366
G1 X93.4596 Y-13.2312
G1 X93.8999 Y-12.7851
G1 X94.4694 Y-12.5408
G1 X96.1195 Y-13.1004
G1 X96.2222 Y-13.3071
G1 X96.4287 Y-14.9314
G1 X96.1767 Y-15.4990
G1 X94.8565 Y-16.1699
G1 X93.8963 Y-15.8964
G1 X93.3376 Y-15.2289
G1 Z0.0000 F8000.0
G0 X92.6565 Y-16.1532 F15000.0
G1 Z11.9000 F8000.0
G1 X90.5646 Y-12.6018 F12000.0
G1 Z0.0000 F8000.0
G0 X93.3376 Y-13.4288 F15000.0
G1 Z11.9000 F8000.0
G1 X93.8727 Y-12.7477 F12000.0
G1 Z0.0000 F8000.0
G0 X87.6836 Y-15.1802 F15000.0
G1 Z11.9000 F8000.0
G1 X87.7692 Y-13.5480 F12000.0
G1 X87.4785 Y-12.7704
G1 X87.0688 Y-12.4774
G1 X86.2506 Y-12.5724
G1 X85.7586 Y-13.2311
G1 X85.6655 Y-13.9555
G1 X85.9614 Y-15.5634
G1 X86.5410 Y-15.9962
G1 X86.7290 Y-16.0199
G1 X87.3062 Y-15.8126
G1 X87.5863 Y-15.3748
G1 Z0.0000 F8000.0
G0 X83.2078 Y-14.7910 F15000.0
G1 Z11.9000 F8000.0
G1 X82.9736 Y-14.4595 F12000.0
G1 X83.5101 Y-15.1680
G1 X83.9036 Y-15.4498
G1 X83.7714 Y-15.4201
G1 X84.0536 Y-15.6072
G1 X84.1797 Y-15.3028
G1 X84.1246 Y-13.2848
G1 X82.5606 Y-13.3705
G1 X82.7405 Y-14.0699
G1 X82.9803 Y-14.4245
G1 X82.8186 Y-14.2072
G1 Z0.0000 F8000.0
G0 X78.2243 Y-13.9153 F15000.0
G1 Z11.9000 F8000.0
G1 X79.6038 Y-13.7993 F12000.0
G1 X80.0272 Y-13.5034
G1 X79.7045 Y-13.7695
G1 X80.0646 Y-13.3646
G1 X80.0996 Y-13.1244
G1 X79.8443 Y-12.6394
G1 X79.3344 Y-12.5586
G1 X78.2745 Y-13.7852
G1 X78.2243 Y-14.9856
G1 Z0.0000 F8000.0
G0 X77.0081 Y-12.6018 F15000.0
G1 Z11.9000 F8000.0
G1 X75.2361 Y-14.9541 F12000.0
G1 X74.5696 Y-12.5159
G1 X74.0053 Y-12.3576
G1 X73.5429 Y-12.8307
G1 X73.1161 Y-12.6018
G1 Z0.0000 F8000.0
G0 X73.6512 Y-13.9153 F15000.0
G1 Z11.9000 F8000.0
G1 X73.6400 Y-13.1288 F12000.0
G1 X73.5732 Y-12.9189
G1 X73.1543 Y-12.6575
G1 X72.1697 Y-12.4786
G1 X71.9404 Y-12.5452
G1 X71.7563 Y-12.7097
G1 X71.6649 Y-12.9304
G1 X71.6730 Y-13.3032
G1 X71.7950 Y-13.5094
G1 X72.1089 Y-13.7087
G1 X73.5596 Y-14.0188
G1 X73.6164 Y-14.0898
G1 X73.4993 Y-14.8006
G1 X73.2062 Y-15.0186
G1 X72.9724 Y-15.0561
G1 X72.2244 Y-14.9343
G1 X71.8512 Y-14.7910
G1 Z0.0000 F8000.0
G0 X70.8296 Y-15.0343 F15000.0
G1 Z11.9000 F8000.0
G1 X69.0698 Y-15.0384 F12000.0
G1 X67.9851 Y-15.3274
G1 X67.6230 Y-15.7801
G1 X66.7067 Y-16.1727
G1 X65.8531 Y-15.9719
G1 X65.5949 Y-15.8185
G1 X65.6914 Y-15.8948
G1 X65.3633 Y-15.5437
G1 X65.0889 Y-14.8397
G1 Z0.0000 F8000.0
G0 X65.0403 Y-14.7424 F15000.0
G1 Z11.9000 F8000.0
G1 X65.1434 Y-13.6596 F12000.0
G1 X65.3202 Y-13.1907
G1 X65.5500 Y-12.9160
G1 X66.1980 Y-12.5417
G1 X67.7149 Y-12.9330
G1 X68.0565 Y-13.4775
G1 Z0.0000 F8000.0
G0 X69.9052 Y-12.5531 F15000.0
G1 Z11.9000 F8000.0
G1 X69.8566 Y-15.0343 F12000.0
G1 Z0.0000 F8000.0
G0 X63.2677 Y-15.0870 F15000.0
G1 Z11.9000 F8000.0
G1 X0.0000 Y-15.0870 F12000.0
G1 Z0.0000 F8000.0
G0 X0.8804 Y-14.3918 F15000.0
G1 Z11.9000 F8000.0
G1 X0.8804 Y-12.5481 F12000.0
G1 X0.9349 Y-13.4792
G1 X2.2523 Y-13.5090
G1 X2.3362 Y-14.2929
G1 X2.3399 Y-12.3971
G1 Z0.0000 F8000.0
G0 X1.6976 Y-11.5119 F15000.0
G1 Z11.9000 F8000.0
G1 X2.3541 Y-10.4452 F12000.0
G1 X2.6934 Y-10.5286
G1 X2.5338 Y-10.3534
G1 X2.7057 Y-10.5165
G1 X2.6180 Y-10.3647
G1 Z0.0000 F8000.0
G0 X3.1495 Y-11.3979 F15000.0
G1 Z11.9000 F8000.0
G1 X2.2465 Y-9.6252 F12000.0
G1 X1.9708 Y-9.5745
G1 X2.7968 Y-10.5750
G1 X3.4736 Y-10.8999
G1 X4.5593 Y-10.9767
G1 X4.1650 Y-10.9163
G1 X4.2436 Y-9.6863
G1 X5.2698 Y-10.3262
G1 X5.8956 Y-10.3001
G1 X6.2002 Y-10.1560
G1 X6.1367 Y-10.7353
G1 X6.2159 Y-9.7344
G1 X5.8958 Y-9.6287
G1 X5.3379 Y-10.1214
G1 X5.2411 Y-10.3096
G1 X5.9788 Y-10.9767
G1 Z0.0000 F8000.0
G0 X3.9940 Y-12.3971 F15000.0
G1 Z11.9000 F8000.0
G1 X4.0185 Y-13.0138 F12000.0
G1 X4.5122 Y-13.3358
G1 X4.8697 Y-13.8080
G1 Z0.0000 F8000.0
G0 X3.9940 Y-13.7593 F15000.0
G1 Z11.9000 F8000.0
G1 X4.0688 Y-13.1917 F12000.0
G1 X4.5320 Y-12.9236
G1 X4.4475 Y-13.1616
G1 X4.4462 Y-13.0537
G1 X4.8419 Y-12.4773
G1 X5.3742 Y-12.8527
G1 X5.4642 Y-13.4566
G1 X5.7231 Y-13.7626
G1 X5.6613 Y-13.7138
G1 X6.0546 Y-13.8066
G1 X6.3885 Y-13.6940
G1 X6.4976 Y-13.5011
G1 X6.5914 Y-12.7606
G1 X6.4655 Y-12.5662
G1 X6.0061 Y-12.3867
G1 X5.7840 Y-12.4346
G1 X5.4501 Y-12.7348
G1 X5.6066 Y-12.5057
G1 X5.7943 Y-12.4117
G1 X7.1476 Y-12.4311
G1 X7.2049 Y-13.6758
G1 X7.2495 Y-13.1636
G1 X8.1852 Y-13.0414
G1 X8.2694 Y-12.5023
G1 X8.3082 Y-13.7027
G1 X8.7533 Y-13.7983
G1 X9.9293 Y-13.8080
G1 Z0.0000 F8000.0
G0 X9.3455 Y-13.8080 F15000.0
G1 Z11.9000 F8000.0
G1 X9.4267 Y-12.4567 F12000.0
G1 X10.5015 Y-12.5258
G1 X11.2125 Y-12.4151
G1 X11.5085 Y-12.6368
G1 X11.6087 Y-12.8475
G1 X11.5147 Y-13.5858
G1 X11.2233 Y-13.7401
G1 X10.6242 Y-13.6397
G1 X10.4828 Y-12.8160
G1 X10.5400 Y-11.8412
G1 X11.5347 Y-12.6404
G1 Z0.0000 F8000.0
G0 X16.5584 Y-5.3662 F15000.0
G1 Z11.9000 F8000.0
G1 X16.5584 Y-58.9131 F12000.0
G1 Z0.0000 F8000.0
G0 X6.8375 Y-58.9131 F15000.0
G1 Z11.9000 F8000.0
G1 X6.8375 Y-34.6110 F12000.0
G1 Z0.0000 F8000.0
G0 X7.0322 Y-33.7740 F15000.0
G1 Z11.9000 F8000.0
G1 X6.9835 Y-33.6767 F12000.0
G1 Z0.0000 F8000.0
G0 X6.0105 Y-33.6281 F15000.0
G1 Z11.9000 F8000.0
G1 X6.6090 Y-33.4656 F12000.0
G1 X6.9537 Y-33.6738
G1 X7.0534 Y-33.8835
G1 X6.9541 Y-34.6183
G1 X6.7913 Y-34.7864
G1 X6.3112 Y-34.7830
G1 X6.0347 Y-34.5866
G1 X5.9619 Y-32.8497
G1 Z0.0000 F8000.0
G0 X4.5997 Y-33.4821 F15000.0
G1 Z11.9000 F8000.0
G1 X4.9537 Y-33.5084 F12000.0
G1 X5.2593 Y-33.6790
G1 X5.1374 Y-34.0914
G1 X4.9895 Y-34.1613
G1 X5.1659 Y-34.2345
G1 X5.2064 Y-34.6867
G1 X4.9093 Y-34.8190
G1 X4.6829 Y-34.7871
G1 X4.5024 Y-34.6011
G1 Z0.0000 F8000.0
G0 X3.7240 Y-34.7957 F15000.0
G1 Z11.9000 F8000.0
G1 X3.8463 Y-34.3069 F12000.0
G1 X3.8469 Y-33.5404
G1 X3.5339 Y-33.6381
G1 X3.1633 Y-34.0785
G1 X3.7874 Y-34.1648
G1 X3.9082 Y-33.5007
G1 X3.0396 Y-33.4782
G1 X2.9063 Y-33.9705
G1 X3.0307 Y-34.0547
G1 X2.8451 Y-33.6594
G1 X2.9294 Y-34.5656
G1 X3.6267 Y-34.8443
G1 Z0.0000 F8000.0
G0 X2.3132 Y-34.7470 F15000.0
G1 Z11.9000 F8000.0
G1 X2.2216 Y-35.1175 F12000.0
G1 X1.0302 Y-35.3861
G1 X0.9447 Y-35.2305
G1 X0.9053 Y-33.5713
G1 X1.0077 Y-34.3380
G1 X2.2645 Y-34.6497
G1 Z0.0000 F8000.0
G0 X0.0000 Y-34.6110 F15000.0
G1 Z11.9000 F8000.0
G1 X63.2677 Y-34.6110 F12000.0
G1 Z0.0000 F8000.0
G0 X61.3329 Y-36.7023 F15000.0
G1 Z11.9000 F8000.0
G1 X61.2824 Y-36.6252 F12000.0
G1 X60.9984 Y-36.5812
G1 X61.0648 Y-36.6541
G1 Z0.0000 F8000.0
G0 X61.2816 Y-37.3549 F15000.0
G1 Z11.9000 F8000.0
G1 X61.3474 Y-36.6094 F12000.0
G1 X60.3198 Y-36.5687
G1 X60.1327 Y-36.8465
G1 X60.3872 Y-37.2479
G1 X61.2813 Y-37.5499
G1 X61.2491 Y-37.8853
G1 X60.9553 Y-38.0884
G1 X60.4653 Y-38.0569
G1 X60.2930 Y-37.9560
G1 X60.3350 Y-38.0163
G1 Z0.0000 F8000.0
G0 X59.6540 Y-38.0650 F15000.0
G1 Z11.9000 F8000.0
G1 X58.6492 Y-38.0623 F12000.0
G1 X58.4294 Y-37.9866
G1 X57.9675 Y-37.4165
G1 X57.9578 Y-36.6936
G1 X57.1985 Y-36.5360
G1 X56.9629 Y-36.5688
G1 X56.7759 Y-36.8465
G1 X57.1354 Y-37.3017
G1 X57.8557 Y-37.4793
G1 X57.9366 Y-37.7767
G1 X57.8111 Y-37.9723
G1 X57.5985 Y-38.0884
G1 X57.1085 Y-38.0569
G1 X56.9361 Y-37.9560
G1 X56.9782 Y-38.0163
G1 Z0.0000 F8000.0
G0 X59.0215 Y-38.0650 F15000.0
G1 Z11.9000 F8000.0
G1 X59.0702 Y-36.6055 F12000.0
G1 Z0.0000 F8000.0
G0 X54.8377 Y-38.7461 F15000.0
G1 Z11.9000 F8000.0
G1 X55.8761 Y-38.6868 F12000.0
G1 X55.9716 Y-36.6351
G1 X56.1225 Y-36.5474
G1 X56.1820 Y-36.1239
G1 X55.8424 Y-36.5848
G1 X54.6102 Y-36.6260
G1 X54.3136 Y-36.1157
G1 X54.3171 Y-36.4289
G1 X54.5878 Y-36.7915
G1 X54.6894 Y-37.1528
G1 X54.7890 Y-38.6488
G1 Z0.0000 F8000.0
G0 X49.2865 Y-36.9298 F15000.0
G1 Z11.9000 F8000.0
G1 X49.2072 Y-38.2124 F12000.0
G1 X48.2633 Y-36.9441
G1 X47.7139 Y-36.5114
G1 X47.5586 Y-36.8775
G1 X46.5107 Y-36.9283
G1 X47.3807 Y-36.9077
G1 X47.4543 Y-36.9689
G1 X47.3954 Y-38.2060
G1 X46.5014 Y-37.0417
G1 X46.2428 Y-36.5750
G1 X46.2703 Y-36.8811
G1 Z0.0000 F8000.0
G0 X45.7838 Y-38.0974 F15000.0
G1 Z11.9000 F8000.0
G1 X45.5674 Y-38.2400 F12000.0
G1 X45.7428 Y-37.9999
G1 X45.8491 Y-37.2640
G1 X45.6728 Y-36.9892
G1 X45.7160 Y-37.0621
G1 X45.3069 Y-36.9132
G1 X44.9611 Y-36.9921
G1 X44.8081 Y-37.1641
G1 X44.6905 Y-37.5151
G1 X44.9079 Y-38.1448
G1 X45.4919 Y-38.2920
G1 Z0.0000 F8000.0
G0 X44.0324 Y-36.9298 F15000.0
G1 Z11.9000 F8000.0
G1 X43.9278 Y-38.7791 F12000.0
G1 X42.5729 Y-36.9298
G1 Z0.0000 F8000.0
G0 X34.5082 Y-36.5338 F15000.0
G1 Z11.9000 F8000.0
G1 X34.3498 Y-37.4550 F12000.0
G1 X34.3794 Y-37.8143
G1 X34.1258 Y-37.5532
G1 X33.8991 Y-36.9142
G1 X34.0281 Y-37.3307
G1 X33.6914 Y-36.6984
G1 X33.8481 Y-36.8372
G1 X33.9963 Y-37.2386
G1 X33.6660 Y-36.7443
G1 X33.0367 Y-37.7423
G1 X33.1669 Y-37.6071
G1 X32.9255 Y-37.6175
G1 X32.8259 Y-36.5536
G1 X32.6352 Y-36.5128
G1 X31.6516 Y-36.6630
G1 X31.0541 Y-37.8960
G1 Z0.0000 F8000.0
G0 X30.6163 Y-38.1392 F15000.0
G1 Z11.9000 F8000.0
G1 X31.0174 Y-37.9527 F12000.0
G1 X30.9953 Y-37.8981
G1 X30.4582 Y-37.9739
G1 Z0.0000 F8000.0
G0 X30.4217 Y-38.0419 F15000.0
G1 Z11.9000 F8000.0
G1 X29.9079 Y-37.3857 F12000.0
G1 X29.5460 Y-37.9933
G1 Z0.0000 F8000.0
G0 X30.0008 Y-37.4039 F15000.0
G1 Z11.9000 F8000.0
G1 X29.5802 Y-37.2167 F12000.0
G1 X29.5668 Y-36.5604
G1 X30.0119 Y-37.1416
G1 X30.9841 Y-35.9171
G1 X31.1605 Y-35.8070
G1 X31.4522 Y-35.9718
G1 X31.5847 Y-36.5690
G1 X31.8436 Y-36.9362
G1 X32.2703 Y-38.0419
G1 Z0.0000 F8000.0
G0 X27.6000 Y-37.7014 F15000.0
G1 Z11.9000 F8000.0
G1 X27.9870 Y-38.0419 F12000.0
G1 X28.3563 Y-38.0691
G1 X28.5549 Y-37.9578
G1 X28.8290 Y-37.0028
G1 X28.7664 Y-36.7797
G1 X28.5353 Y-36.4941
G1 X28.3092 Y-36.4197
G1 X27.6537 Y-36.7215
G1 X27.5625 Y-36.9445
G1 X27.5513 Y-37.6041
G1 Z0.0000 F8000.0
G0 X26.7729 Y-36.5338 F15000.0
G1 Z11.9000 F8000.0
G1 X26.9468 Y-36.3845 F12000.0
G1 X27.0162 Y-35.9500
G1 Z0.0000 F8000.0
G0 X25.3135 Y-35.9500 F15000.0
G1 Z11.9000 F8000.0
G1 X25.3621 Y-36.4365 F12000.0
G1 Z0.0000 F8000.0
G0 X25.8486 Y-38.0419 F15000.0
G1 Z11.9000 F8000.0
G1 X26.7729 Y-36.5338 F12000.0
G1 X25.3621 Y-36.4365
G1 X25.5567 Y-36.7284
G1 X25.8486 Y-38.0419
G1 Z0.0000 F8000.0
G0 X23.8905 Y-37.2635 F15000.0
G1 Z11.9000 F8000.0
G1 X23.9627 Y-37.4967 F12000.0
G1 X23.8667 Y-37.9891
G1 X23.3762 Y-38.1340
G1 X23.7258 Y-38.1115
G1 X23.8531 Y-38.0128
G1 X23.1657 Y-37.9823
G1 X23.1522 Y-37.3051
G1 X23.8548 Y-36.6452
G1 X23.8385 Y-37.2178
G1 X23.4743 Y-37.1102
G1 X23.3067 Y-37.1662
G1 Z0.0000 F8000.0
G0 X22.5283 Y-38.6257 F15000.0
G1 Z11.9000 F8000.0
G1 X22.4906 Y-36.9600 F12000.0
G1 X22.4003 Y-36.7401
G1 X22.1252 Y-36.9200
G1 X21.5721 Y-37.8089
G1 X21.0741 Y-38.2770
G1 X20.9735 Y-38.0344
G1 X20.9715 Y-36.4851
G1 Z0.0000 F8000.0
G0 X21.1107 Y-33.0887 F15000.0
G1 Z11.9000 F8000.0
G1 X20.7335 Y-32.0970 F12000.0
G1 X20.8036 Y-32.2262
G1 X20.6249 Y-32.0133
G1 X20.4934 Y-31.4411
G1 X20.3553 Y-31.2467
G1 X20.2027 Y-31.1878
G1 X20.5189 Y-32.0103
G1 X20.4321 Y-32.1380
G1 Z0.0000 F8000.0
G0 X20.8171 Y-32.3197 F15000.0
G1 Z11.9000 F8000.0
G1 X20.4535 Y-32.1925 F12000.0
G1 X20.0271 Y-33.1581
G1 X19.5877 Y-33.3443
G1 X19.2628 Y-33.6451
G1 X18.5532 Y-33.7383
G1 X18.1860 Y-33.5339
G1 X18.3780 Y-33.7017
G1 X18.1133 Y-33.3952
G1 X17.9470 Y-32.8080
G1 X17.9795 Y-32.5730
G1 X18.2497 Y-31.9957
G1 Z0.0000 F8000.0
G0 X18.3920 Y-31.9008 F15000.0
G1 Z11.9000 F8000.0
G1 X18.9595 Y-31.7996 F12000.0
G1 X19.3817 Y-32.0162
G1 X19.3087 Y-31.9434
G1 X19.5307 Y-32.2804
G1 Z0.0000 F8000.0
G0 X19.5930 Y-30.7423 F15000.0
G1 Z11.9000 F8000.0
G1 X20.1114 Y-29.6187 F12000.0
G1 X20.1860 Y-29.5994
G1 X20.3382 Y-29.7468
G1 X20.7088 Y-30.6599
G1 X21.2570 Y-30.5877
G1 X21.8491 Y-30.7027
G1 X22.0807 Y-30.3485
G1 X21.9260 Y-30.6753
G1 X22.0339 Y-30.1406
G1 X21.9904 Y-30.0534
G1 X21.7820 Y-30.0125
G1 X22.0155 Y-29.8905
G1 X22.1027 Y-29.4425
G1 X21.7937 Y-29.3049
G1 X21.3782 Y-29.3912
G1 X21.4904 Y-29.3314
G1 Z0.0000 F8000.0
G0 X20.2255 Y-29.5747 F15000.0
G1 Z11.9000 F8000.0
G1 X20.0410 Y-28.9597 F12000.0
G1 X19.7650 Y-28.7037
G1 X19.9716 Y-28.8326
G1 X19.9336 Y-28.6990
G1 Z0.0000 F8000.0
G0 X18.9119 Y-29.3314 F15000.0
G1 Z11.9000 F8000.0
G1 X18.8440 Y-31.2917 F12000.0
G1 X17.4038 Y-29.3801
G1 Z0.0000 F8000.0
G0 X21.6657 Y-32.5650 F15000.0
G1 Z11.9000 F8000.0
G1 X22.4854 Y-32.4528 F12000.0
G1 X22.5819 Y-32.1177
G1 X22.5671 Y-31.8534
G1 Z0.0000 F8000.0
G0 X22.5671 Y-33.0395 F15000.0
G1 Z11.9000 F8000.0
G1 X22.4925 Y-33.1201 F12000.0
G1 X22.6576 Y-32.0816
G1 X22.6578 Y-32.1922
G1 X22.6269 Y-31.9493
G1 X22.3977 Y-31.8437
G1 X21.7045 Y-32.4779
G1 X21.7864 Y-32.6594
G1 X22.4672 Y-33.1505
G1 X23.2796 Y-33.0145
G1 X23.8963 Y-33.1651
G1 X23.3901 Y-32.9920
G1 X23.2198 Y-32.5433
G1 X23.2325 Y-32.3097
G1 X23.3846 Y-31.9861
G1 X23.6904 Y-31.8319
G1 X24.1410 Y-31.9680
G1 X24.3390 Y-32.2438
G1 X24.2128 Y-32.9542
G1 X24.0715 Y-33.1323
G1 X24.3129 Y-33.0291
G1 X24.8824 Y-33.1365
G1 X24.9857 Y-32.8543
G1 X24.9446 Y-31.3223
G1 X25.0105 Y-31.9210
G1 X25.5365 Y-31.8362
G1 X25.8473 Y-31.9464
G1 X26.0103 Y-32.3224
G1 X25.9236 Y-32.9270
G1 X25.6772 Y-33.1550
G1 X25.4391 Y-33.1519
G1 X24.9867 Y-32.9920
G1 Z0.0000 F8000.0
G0 X24.2751 Y-32.0431 F15000.0
G1 Z11.9000 F8000.0
G1 X24.0853 Y-31.8534 F12000.0
G1 Z0.0000 F8000.0
G0 X24.6039 Y-30.6936 F15000.0
G1 Z11.9000 F8000.0
G1 X24.6039 Y-29.3314 F12000.0
G1 Z0.0000 F8000.0
G0 X22.9012 Y-29.3314 F15000.0
G1 Z11.9000 F8000.0
G1 X23.8457 Y-29.4547 F12000.0
G1 X23.9376 Y-30.1187
G1 X25.6336 Y-29.9753
G1 X25.7172 Y-29.4362
G1 X25.7562 Y-30.6360
G1 X25.9514 Y-30.7002
G1 X27.2060 Y-30.7115
G1 X27.4720 Y-30.5053
G1 X27.5943 Y-30.1692
G1 X27.4667 Y-29.5630
G1 X27.2775 Y-29.3521
G1 X26.9148 Y-29.3021
G1 X26.7025 Y-29.4008
G1 X26.4015 Y-29.7930
G1 X26.3863 Y-30.2599
G1 X26.5871 Y-30.5939
G1 X26.4194 Y-30.3032
G1 X26.4514 Y-29.6789
G1 X26.5416 Y-29.4743
G1 X26.7445 Y-29.3314
G1 Z0.0000 F8000.0
G0 X28.2040 Y-30.0612 F15000.0
G1 Z11.9000 F8000.0
G1 X29.2536 Y-29.7713 F12000.0
G1 X28.9677 Y-29.3452
G1 X28.2489 Y-29.9647
G1 X28.3245 Y-30.1438
G1 X29.0378 Y-30.6347
G1 X29.1249 Y-30.6229
G1 X29.2014 Y-30.4265
G1 X29.1697 Y-29.9644
G1 X29.3050 Y-29.8837
G1 X30.1007 Y-30.6333
G1 X30.7103 Y-30.7124
G1 X30.9806 Y-30.4917
G1 X30.9641 Y-30.1795
G1 X30.1391 Y-29.9677
G1 X29.8944 Y-29.6591
G1 X29.9456 Y-29.4434
G1 X30.2534 Y-29.3098
G1 X30.9686 Y-29.4719
G1 X31.0257 Y-30.1585
G1 Z0.0000 F8000.0
G0 X30.7778 Y-31.8534 F15000.0
G1 Z11.9000 F8000.0
G1 X31.9840 Y-31.8412 F12000.0
G1 X32.0383 Y-31.9196
G1 X31.9879 Y-33.6762
G1 X30.8652 Y-31.9864
G1 X30.6048 Y-31.4195
G1 X30.7026 Y-31.7808
G1 X32.0320 Y-31.8428
G1 X32.2232 Y-31.7554
G1 X32.2960 Y-31.3315
G1 Z0.0000 F8000.0
G0 X33.9565 Y-31.9957 F15000.0
G1 Z11.9000 F8000.0
G1 X33.8480 Y-32.1132 F12000.0
G1 X33.6585 Y-32.6901
G1 X33.8627 Y-33.5117
G1 X34.2290 Y-33.7343
G1 X34.9413 Y-33.6590
G1 X35.1854 Y-33.2978
G1 X35.1890 Y-32.2026
G1 X35.0261 Y-31.9572
G1 X34.5633 Y-31.7881
G1 X34.0989 Y-31.9008
G1 Z0.0000 F8000.0
G0 X29.2092 Y-31.8534 F15000.0
G1 Z11.9000 F8000.0
G1 X29.2991 Y-32.1262 F12000.0
G1 X29.2474 Y-32.3533
G1 X28.9593 Y-32.5242
G1 X28.2441 Y-32.5000
G1 X27.4538 Y-31.8534
G1 Z0.0000 F8000.0
G0 X27.6436 Y-32.9920 F15000.0
G1 Z11.9000 F8000.0
G1 X27.4254 Y-33.1380 F12000.0
G1 X27.6269 Y-32.8084
G1 X27.7103 Y-32.3246
G1 X27.6546 Y-32.1127
G1 X27.2617 Y-31.8550
G1 X27.0260 Y-31.8394
G1 X26.8149 Y-31.9375
G1 X26.5941 Y-32.3430
G1 X26.6868 Y-32.9151
G1 X26.8046 Y-33.0505
G1 X27.3589 Y-33.1818
G1 Z0.0000 F8000.0
G0 X29.0669 Y-33.1818 F15000.0
G1 Z11.9000 F8000.0
G1 X28.3473 Y-32.5218 F12000.0
G1 X28.4500 Y-32.3396
G1 X28.9960 Y-31.8600
G1 X29.1004 Y-31.8454
G1 X29.3236 Y-32.0690
G1 X29.2092 Y-33.0395
G1 Z0.0000 F8000.0
G0 X22.9012 Y-30.6450 F15000.0
G1 Z11.9000 F8000.0
G1 X23.5261 Y-30.7150 F12000.0
G1 X23.7356 Y-30.6119
G1 X23.8589 Y-30.4115
G1 X23.8355 Y-30.1953
G1 X23.1348 Y-30.0196
G1 X22.7632 Y-29.7205
G1 X22.7524 Y-29.5594
G1 X22.9985 Y-30.0125
G1 Z0.0000 F8000.0
G0 X14.3694 Y-36.6704 F15000.0
G1 Z11.9000 F8000.0
G1 X14.3208 Y-38.0326 F12000.0
G1 Z0.0000 F8000.0
G0 X14.8559 Y-38.0326 F15000.0
G1 Z11.9000 F8000.0
G1 X13.0674 Y-37.9914 F12000.0
G1 X12.4959 Y-37.7658
G1 X12.3917 Y-37.2966
G1 X12.4578 Y-36.9420
G1 X12.9832 Y-36.6595
G1 X13.3836 Y-36.8306
G1 X13.3478 Y-36.7677
G1 Z0.0000 F8000.0
G0 X11.7424 Y-36.6704 F15000.0
G1 Z11.9000 F8000.0
G1 X11.5659 Y-37.6688 F12000.0
G1 X11.3268 Y-37.4909
G1 X10.9797 Y-36.9938
G1 X10.8329 Y-36.9311
G1 X10.9307 Y-36.9836
G1 X10.7395 Y-37.0044
G1 X10.6721 Y-37.9839
G1 Z0.0000 F8000.0
G0 X11.5478 Y-37.7407 F15000.0
G1 Z11.9000 F8000.0
G1 X11.6994 Y-37.8903 F12000.0
G1 X11.1046 Y-37.1771
G1 X10.5732 Y-36.8567
G1 X9.9979 Y-36.7203
G1 X9.8765 Y-38.5222
G1 X9.8166 Y-38.5904
G1 X8.8720 Y-38.6164
G1 Z0.0000 F8000.0
G0 X8.8234 Y-38.5191 F15000.0
G1 Z11.9000 F8000.0
G1 X8.7731 Y-36.8402 F12000.0
G1 X8.6933 Y-36.6474
G1 X8.5315 Y-36.5731
G1 Z0.0000 F8000.0
G0 X10.5836 Y-35.4768 F15000.0
G1 Z11.9000 F8000.0
G1 X9.6173 Y-35.2891 F12000.0
G1 X9.4924 Y-35.1482
G1 X9.3992 Y-34.8069
G1 X9.4899 Y-33.7655
G1 X9.6343 Y-33.5729
G1 X9.9705 Y-33.4726
G1 X10.3237 Y-33.5917
G1 X10.5022 Y-33.7469
G1 X10.5565 Y-33.9754
G1 X10.3751 Y-34.6918
G1 X10.1723 Y-34.8043
G1 X9.8054 Y-34.8052
G1 X9.5413 Y-34.6749
G1 X10.2082 Y-34.7658
G1 X10.4049 Y-34.6748
G1 X10.4834 Y-34.4761
G1 X10.4376 Y-33.6281
G1 Z0.0000 F8000.0
G0 X8.7349 Y-33.4821 F15000.0
G1 Z11.9000 F8000.0
G1 X8.6209 Y-33.6613 F12000.0
G1 X8.6682 Y-34.2704
G1 X8.5311 Y-34.7407
G1 X8.3403 Y-34.8017
G1 X7.7749 Y-34.5888
G1 X7.6683 Y-33.7499
G1 X7.7411 Y-33.5371
G1 X7.9521 Y-33.4574
G1 X8.7254 Y-33.4945
G1 X8.6082 Y-34.1567
G1 X7.9771 Y-34.0853
G1 X8.4327 Y-33.5833
G1 X8.5890 Y-33.5794
G1 Z0.0000 F8000.0
G0 X6.2009 Y-36.6704 F15000.0
G1 Z11.9000 F8000.0
G1 X6.0898 Y-37.6477 F12000.0
G1 X5.8790 Y-37.5132
G1 X5.5110 Y-36.7663
G1 X4.8497 Y-37.7274
G1 X4.7488 Y-36.7520
G1 X4.7498 Y-37.6480
G1 X3.4042 Y-37.8453
G1 X3.6421 Y-38.0124
G1 X3.9859 Y-37.9376
G1 X4.0303 Y-37.4951
G1 X3.8251 Y-37.3522
G1 X3.9809 Y-37.2610
G1 X4.1049 Y-36.9371
G1 X4.0720 Y-36.8517
G1 X3.6407 Y-36.6576
G1 X2.6675 Y-36.6995
G1 X2.5824 Y-36.8839
G1 X2.4756 Y-38.1372
G1 X2.5614 Y-38.4000
G1 X2.0595 Y-37.8634
G1 X2.2524 Y-38.1163
G1 X1.5503 Y-37.1432
G1 X1.2391 Y-36.8376
G1 X1.1413 Y-38.5677
G1 Z0.0000 F8000.0
G0 X0.0000 Y-39.4714 F15000.0
G1 Z11.9000 F8000.0
G1 X63.2677 Y-39.4714 F12000.0
G1 Z0.0000 F8000.0
G0 X63.2677 Y-44.3318 F15000.0
G1 Z11.9000 F8000.0
G1 X0.0000 Y-44.3318 F12000.0
G1 Z0.0000 F8000.0
G0 X0.0000 Y-49.1922 F15000.0
G1 Z11.9000 F8000.0
G1 X63.2677 Y-49.1922 F12000.0
G1 Z0.0000 F8000.0
G0 X63.2677 Y-44.3318 F15000.0
G1 Z11.9000 F8000.0
G1 X180.0000 Y-44.3318 F12000.0
G1 Z0.0000 F8000.0
G0 X178.0591 Y-43.6779 F15000.0
G1 Z11.9000 F8000.0
G1 X176.9660 Y-43.3808 F12000.0
G1 X176.7468 Y-43.0607
G1 X176.7453 Y-42.7254
G1 X177.7972 Y-42.7511
G1 X178.0533 Y-42.3572
G1 X178.0890 Y-42.1113
G1 X178.0186 Y-41.8944
G1 X177.2979 Y-41.2470
G1 X177.0255 Y-41.4300
G1 X176.7385 Y-42.5029
G1 X177.0472 Y-42.7633
G1 X176.7456 Y-42.5589
G1 Z0.0000 F8000.0
G0 X175.9186 Y-42.2670 F15000.0
G1 Z11.9000 F8000.0
G1 X175.9507 Y-41.6397 F12000.0
G1 X175.8626 Y-41.4231
G1 X175.2391 Y-41.2300
G1 X174.7806 Y-41.5036
G1 X175.7846 Y-42.1852
G1 X175.9075 Y-42.3709
G1 X175.8661 Y-42.7165
G1 X175.1660 Y-42.8767
G1 X174.8989 Y-42.8121
G1 X174.9942 Y-42.8995
G1 Z0.0000 F8000.0
G0 X174.1672 Y-42.8995 F15000.0
G1 Z11.9000 F8000.0
G1 X172.9509 Y-42.8995 F12000.0
G1 Z0.0000 F8000.0
G0 X172.4158 Y-42.8508 F15000.0
G1 Z11.9000 F8000.0
G1 X171.3941 Y-41.2940 F12000.0
G1 Z0.0000 F8000.0
G0 X171.3455 Y-42.8508 F15000.0
G1 Z11.9000 F8000.0
G1 X171.3216 Y-41.3499 F12000.0
G1 X171.1500 Y-41.2638
G1 X170.5251 Y-41.3247
G1 X170.3494 Y-41.4187
G1 X170.3239 Y-42.8508
G1 Z0.0000 F8000.0
G0 X169.6428 Y-42.6076 F15000.0
G1 Z11.9000 F8000.0
G1 X169.4021 Y-42.8716 F12000.0
G1 X168.8039 Y-42.8487
G1 X168.5683 Y-42.5704
G1 X168.4480 Y-41.9606
G1 X168.6910 Y-41.4003
G1 X169.1316 Y-41.2344
G1 X169.4757 Y-41.3608
G1 X169.6481 Y-41.5575
G1 X169.5941 Y-41.4400
G1 Z0.0000 F8000.0
G0 X167.7454 Y-41.4886 F15000.0
G1 Z11.9000 F8000.0
G1 X167.7469 Y-42.1683 F12000.0
G1 X167.6793 Y-41.4261
G1 X167.0521 Y-41.2339
G1 X166.6130 Y-41.5116
G1 X167.6239 Y-42.1938
G1 X167.7380 Y-42.3843
G1 X167.6839 Y-42.7261
G1 X166.9777 Y-42.8780
G1 X166.7289 Y-42.8173
G1 X166.8211 Y-42.8995
G1 Z0.0000 F8000.0
G0 X165.6048 Y-43.2887 F15000.0
G1 Z11.9000 F8000.0
G1 X165.2099 Y-42.6448 F12000.0
G1 X165.5914 Y-43.1900
G1 X165.7021 Y-41.2940
G1 Z0.0000 F8000.0
G0 X164.7292 Y-41.4886 F15000.0
G1 Z11.9000 F8000.0
G1 X164.9769 Y-41.9893 F12000.0
G1 X164.8955 Y-41.7140
G1 X165.0802 Y-42.2796
G1 X164.6877 Y-41.5621
G1 X163.8576 Y-43.0450
G1 X163.6737 Y-43.2327
G1 X163.6952 Y-43.3461
G1 X163.6102 Y-41.3427
G1 Z0.0000 F8000.0
G0 X162.5355 Y-44.3318 F15000.0
G1 Z11.9000 F8000.0
G1 X162.5355 Y-24.8078 F12000.0
G1 Z0.0000 F8000.0
G0 X162.1612 Y-23.4200 F15000.0
G1 Z11.9000 F8000.0
G1 X162.6130 Y-23.4835 F12000.0
G1 X163.1348 Y-23.1734
G1 X163.2609 Y-22.5704
G1 X163.1758 Y-22.2080
G1 X163.0306 Y-22.0385
G1 X162.3170 Y-21.8495
G1 X162.2137 Y-21.8951
G1 X161.8674 Y-22.4043
G1 X161.9184 Y-23.0138
G1 X162.1011 Y-23.3509
G1 X161.9145 Y-23.1484
G1 X161.3014 Y-23.4577
G1 X160.1666 Y-23.4687
G1 Z0.0000 F8000.0
G0 X160.7017 Y-23.4687 F15000.0
G1 Z11.9000 F8000.0
G1 X160.7504 Y-21.8632 F12000.0
G1 Z0.0000 F8000.0
G0 X159.7287 Y-22.2524 F15000.0
G1 Z11.9000 F8000.0
G1 X159.5250 Y-21.9935 F12000.0
G1 X158.9307 Y-21.8460
G1 X158.6205 Y-21.9900
G1 X158.4495 Y-22.3132
G1 X158.4643 Y-22.9340
G1 X158.7160 Y-23.3495
G1 X159.0511 Y-23.4895
G1 X159.5341 Y-23.3714
G1 Z0.0000 F8000.0
G0 X157.6854 Y-21.9119 F15000.0
G1 Z11.9000 F8000.0
G1 X157.2445 Y-22.8060 F12000.0
G1 X157.2684 Y-22.9071
G1 X157.5614 Y-23.1283
G1 X157.3008 Y-22.9627
G1 X156.8882 Y-22.3737
G1 X156.5475 Y-22.2240
G1 X156.5131 Y-23.3567
G1 X157.1846 Y-22.9317
G1 X156.9194 Y-22.4237
G1 X156.5207 Y-22.0279
G1 X156.5179 Y-22.1065
G1 Z0.0000 F8000.0
G0 X155.5935 Y-21.9119 F15000.0
G1 Z11.9000 F8000.0
G1 X155.5264 Y-24.1184 F12000.0
G1 X154.1724 Y-21.9013
G1 X153.9881 Y-21.8146
G1 Z0.0000 F8000.0
G0 X151.4142 Y-19.9474 F15000.0
G1 Z11.9000 F8000.0
G1 X151.4142 Y-24.8078 F12000.0
G1 Z0.0000 F8000.0
G0 X145.9771 Y-24.8078 F15000.0
G1 Z11.9000 F8000.0
G1 X145.9771 Y-44.3318 F12000.0
G1 Z0.0000 F8000.0
G0 X149.1025 Y-41.8025 F15000.0
G1 Z11.9000 F8000.0
G1 X149.1742 Y-43.4877 F12000.0
G1 X149.2512 Y-43.5929
G1 X150.0412 Y-42.0961
G1 X150.2055 Y-42.0810
G1 X150.4701 Y-42.6473
G1 X150.1206 Y-42.0041
G1 X150.1728 Y-42.0458
G1 Z0.0000 F8000.0
G0 X151.0971 Y-41.8512 F15000.0
G1 Z11.9000 F8000.0
G1 X150.9527 Y-43.3852 F12000.0
G1 X151.0153 Y-43.6464
G1 X150.6757 Y-43.1939
G1 X150.5340 Y-42.8048
G1 X150.6106 Y-43.0674
G1 Z0.0000 F8000.0
G0 X151.9728 Y-43.1647 F15000.0
G1 Z11.9000 F8000.0
G1 X152.1740 Y-43.2581 F12000.0
G1 X152.8658 Y-42.6887
G1 X151.9688 Y-42.3983
G1 X151.8150 Y-42.0845
G1 X151.9854 Y-41.7893
G1 X152.2098 Y-41.7400
G1 X152.8986 Y-41.9402
G1 X152.9788 Y-41.8908
G1 X152.9261 Y-42.5430
G1 X153.6850 Y-42.8988
G1 X153.6515 Y-42.3258
G1 X153.8419 Y-41.8821
G1 X154.1513 Y-41.7352
G1 X154.6972 Y-41.8998
G1 Z0.0000 F8000.0
G0 X154.7458 Y-43.0674 F15000.0
G1 Z11.9000 F8000.0
G1 X154.5447 Y-43.2517 F12000.0
G1 X154.0692 Y-43.2820
G1 X153.8369 Y-43.1208
G1 X154.1929 Y-43.2734
G1 X155.3393 Y-42.9095
G1 X155.3093 Y-42.3099
G1 X155.5078 Y-41.8735
G1 X155.8210 Y-41.7341
G1 X156.2826 Y-41.8934
G1 X156.3913 Y-42.0855
G1 X156.3694 Y-43.0956
G1 X156.1100 Y-43.2889
G1 X155.6380 Y-43.2349
G1 X155.4269 Y-43.0674
G1 Z0.0000 F8000.0
G0 X157.1296 Y-43.1647 F15000.0
G1 Z11.9000 F8000.0
G1 X157.3309 Y-43.2581 F12000.0
G1 X158.0226 Y-42.6887
G1 X157.1257 Y-42.3983
G1 X156.9718 Y-42.0845
G1 X157.1423 Y-41.7893
G1 X157.3666 Y-41.7400
G1 X158.0554 Y-41.9402
G1 X158.1356 Y-41.8908
G1 X158.1026 Y-42.5809
G1 Z0.0000 F8000.0
G0 X145.9771 Y-39.4714 F15000.0
G1 Z11.9000 F8000.0
G1 X180.0000 Y-39.4714 F12000.0
G1 Z0.0000 F8000.0
G0 X177.0375 Y-41.3427 F15000.0
G1 Z11.9000 F8000.0
G1 X176.8915 Y-41.4886 F12000.0
G1 Z0.0000 F8000.0
G0 X173.5834 Y-41.2940 F15000.0
G1 Z11.9000 F8000.0
G1 X173.5347 Y-42.8995 F12000.0
G1 Z0.0000 F8000.0
G0 X174.4561 Y-34.6217 F15000.0
G1 Z11.9000 F8000.0
G1 X174.1907 Y-34.2679 F12000.0
G1 X172.7312 Y-30.1990
G1 Z0.0000 F8000.0
G0 X171.3513 Y-31.4040 F15000.0
G1 Z11.9000 F8000.0
G1 X171.1302 Y-31.2713 F12000.0
G1 Z0.0000 F8000.0
G0 X170.4668 Y-31.5809 F15000.0
G1 Z11.9000 F8000.0
G1 X170.5110 Y-32.3327 F12000.0
G1 Z0.0000 F8000.0
G0 X170.3783 Y-32.4654 F15000.0
G1 Z11.9000 F8000.0
G1 X169.2284 Y-32.6866 F12000.0
G1 X169.8034 Y-34.4114
G1 X171.4840 Y-34.6768
G1 Z0.0000 F8000.0
G0 X171.9705 Y-33.1731 F15000.0
G1 Z11.9000 F8000.0
G1 X171.7494 Y-33.0404 F12000.0
G1 Z0.0000 F8000.0
G0 X172.9081 Y-33.5603 F15000.0
G1 Z11.9000 F8000.0
G1 X173.0850 Y-33.7372 F12000.0
G1 Z0.0000 F8000.0
G0 X173.8369 Y-34.2237 F15000.0
G1 Z11.9000 F8000.0
G1 X174.1465 Y-34.3121 F12000.0
G1 Z0.0000 F8000.0
G0 X170.3341 Y-31.2271 F15000.0
G1 Z11.9000 F8000.0
G1 X170.1572 Y-30.8290 F12000.0
G1 Z0.0000 F8000.0
G0 X169.8476 Y-30.4752 F15000.0
G1 Z11.9000 F8000.0
G1 X169.3169 Y-30.2099 F12000.0
G1 X168.1228 Y-30.0772
G1 Z0.0000 F8000.0
G0 X164.9342 Y-22.6903 F15000.0
G1 Z11.9000 F8000.0
G1 X164.0875 Y-22.7850 F12000.0
G1 X164.7519 Y-23.4060
G1 X165.0749 Y-23.0911
G1 X165.0162 Y-22.6294
G1 X165.1348 Y-22.0476
G1 X165.0252 Y-21.9254
G1 X164.0896 Y-21.9203
G1 X164.0099 Y-22.6416
G1 Z0.0000 F8000.0
G0 X162.1612 Y-21.9119 F15000.0
G1 Z11.9000 F8000.0
G1 X161.9180 Y-22.2038 F12000.0
G1 Z0.0000 F8000.0
G0 X162.0310 Y-16.1007 F15000.0
G1 Z11.9000 F8000.0
G1 X162.4510 Y-16.1738 F12000.0
G1 X163.1602 Y-15.9692
G1 X163.4219 Y-15.7522
G1 X163.6748 Y-15.2022
G1 X163.6913 Y-14.2168
G1 X162.9565 Y-13.7716
G1 X162.0931 Y-13.7208
G1 X161.5488 Y-14.2244
G1 X161.4917 Y-15.4518
G1 X161.9585 Y-16.0468
G1 X161.4472 Y-15.4197
G1 Z0.0000 F8000.0
G0 X161.4958 Y-14.2521 F15000.0
G1 Z11.9000 F8000.0
G1 X161.3928 Y-14.4933 F12000.0
G1 X161.6438 Y-14.0357
G1 X161.9823 Y-13.7656
G1 Z0.0000 F8000.0
G0 X163.2959 Y-13.9602 F15000.0
G1 Z11.9000 F8000.0
G1 X163.6720 Y-14.1493 F12000.0
G1 X163.7625 Y-13.6223
G1 X163.6620 Y-13.0033
G1 X163.4113 Y-12.4912
G1 X162.9427 Y-12.1114
G1 X162.0878 Y-12.0596
G1 X161.6040 Y-12.4178
G1 X162.0310 Y-12.0628
G1 Z0.0000 F8000.0
G0 X159.3553 Y-12.1115 F15000.0
G1 Z11.9000 F8000.0
G1 X159.2729 Y-15.5999 F12000.0
G1 X158.2303 Y-15.1248
G1 X159.2162 Y-15.6317
G1 X159.3335 Y-15.8266
G1 X159.4039 Y-16.1980
G1 Z0.0000 F8000.0
G0 X156.4363 Y-16.1007 F15000.0
G1 Z11.9000 F8000.0
G1 X154.7212 Y-16.0769 F12000.0
G1 X154.6062 Y-15.7926
G1 X154.4651 Y-14.4134
G1 X155.5398 Y-14.6132
G1 X156.0153 Y-14.4592
G1 X156.2924 Y-14.2616
G1 X156.5601 Y-13.7133
G1 X156.3617 Y-12.4952
G1 X155.9366 Y-12.1499
G1 Z0.0000 F8000.0
G0 X156.2903 Y-12.4034 F15000.0
G1 Z11.9000 F8000.0
G1 X156.1873 Y-12.2905 F12000.0
G1 X154.8688 Y-12.1041
G1 X154.5852 Y-12.2827
G1 X154.2986 Y-12.7258
G1 X154.8602 Y-12.1436
G1 X155.0723 Y-12.0344
G1 Z0.0000 F8000.0
G0 X153.1281 Y-13.4737 F15000.0
G1 Z11.9000 F8000.0
G1 X152.0092 Y-13.4737 F12000.0
G1 Z0.0000 F8000.0
G0 X149.5767 Y-12.1601 F15000.0
G1 Z11.9000 F8000.0
G1 X149.5280 Y-16.1494 F12000.0
G1 Z0.0000 F8000.0
G0 X148.0199 Y-16.1494 F15000.0
G1 Z11.9000 F8000.0
G1 X151.0848 Y-16.1494 F12000.0
G1 Z0.0000 F8000.0
G0 X146.7550 Y-12.1115 F15000.0
G1 Z11.9000 F8000.0
G1 X146.6596 Y-16.1116 F12000.0
G1 X144.8003 Y-16.1486
G1 X144.5988 Y-16.0952
G1 X144.4028 Y-12.4702
G1 X144.2947 Y-12.2141
G1 X144.1097 Y-12.0845
G1 X143.7874 Y-12.0142
G1 Z0.0000 F8000.0
G0 X137.4006 Y-21.7828 F15000.0
G1 Z11.9000 F8000.0
G1 X137.2654 Y-23.0686 F12000.0
G1 X136.7025 Y-22.5003
G1 X136.5321 Y-22.2086
G1 X136.8638 Y-22.7631
G1 Z0.0000 F8000.0
G0 X136.5888 Y-22.2956 F15000.0
G1 Z11.9000 F8000.0
G1 X136.1595 Y-22.0592 F12000.0
G1 X136.0870 Y-23.4369
G1 Z0.0000 F8000.0
G0 X136.1739 Y-24.8078 F15000.0
G1 Z11.9000 F8000.0
G1 X136.1739 Y-39.4714 F12000.0
G1 Z0.0000 F8000.0
G0 X135.5838 Y-41.4736 F15000.0
G1 Z11.9000 F8000.0
G1 X136.8838 Y-43.5687 F12000.0
G1 X136.9460 Y-41.4736
G1 Z0.0000 F8000.0
G0 X137.9677 Y-41.7168 F15000.0
G1 Z11.9000 F8000.0
G1 X138.3082 Y-42.1547 F12000.0
G1 Z0.0000 F8000.0
G0 X138.8920 Y-41.4249 F15000.0
G1 Z11.9000 F8000.0
G1 X138.8274 Y-42.6435 F12000.0
G1 X138.4344 Y-42.3235
G1 X138.0462 Y-41.8260
G1 X137.8788 Y-41.7230
G1 X137.8062 Y-41.8878
G1 X137.7514 Y-42.8450
G1 X138.4241 Y-42.3791
G1 X138.7765 Y-42.6946
G1 X138.8920 Y-42.9330
G1 Z0.0000 F8000.0
G0 X139.4758 Y-42.9817 F15000.0
G1 Z11.9000 F8000.0
G1 X140.6920 Y-42.9817 F12000.0
G1 Z0.0000 F8000.0
G0 X140.0596 Y-42.9817 F15000.0
G1 Z11.9000 F8000.0
G1 X140.1082 Y-41.4736 F12000.0
G1 Z0.0000 F8000.0
G0 X141.1167 Y-39.4714 F15000.0
G1 Z11.9000 F8000.0
G1 X141.1167 Y-24.8078 F12000.0
G1 Z0.0000 F8000.0
G0 X141.2925 Y-23.4855 F15000.0
G1 Z11.9000 F8000.0
G1 X140.6601 Y-23.4369 F12000.0
G1 Z0.0000 F8000.0
G0 X139.9790 Y-23.4855 F15000.0
G1 Z11.9000 F8000.0
G1 X140.5928 Y-23.4117 F12000.0
G1 X140.6570 Y-21.9602
G1 X140.5645 Y-21.8209
G1 X139.4981 Y-22.0247
G1 X138.7120 Y-21.7359
G1 X138.4955 Y-21.7756
G1 X138.3273 Y-21.9380
G1 X138.1704 Y-22.2738
G1 X138.2664 Y-23.2146
G1 X137.5604 Y-23.3552
G1 X137.3648 Y-23.3140
G1 X136.4423 Y-22.1587
G1 X136.1357 Y-21.9774
G1 Z0.0000 F8000.0
G0 X135.1627 Y-21.7828 F15000.0
G1 Z11.9000 F8000.0
G1 X135.0973 Y-24.1267 F12000.0
G1 X133.4113 Y-21.6855
G1 Z0.0000 F8000.0
G0 X131.3959 Y-19.9474 F15000.0
G1 Z11.9000 F8000.0
G1 X180.0000 Y-19.9474 F12000.0
G1 Z0.0000 F8000.0
G0 X180.0000 Y-24.8078 F15000.0
G1 Z11.9000 F8000.0
G1 X131.3959 Y-24.8078 F12000.0
G1 Z0.0000 F8000.0
G0 X131.3959 Y-19.9474 F15000.0
G1 Z11.9000 F8000.0
G1 X63.2677 Y-19.9474 F12000.0
G1 X0.0000 Y-19.9474 F12000.0
G1 Z0.0000 F8000.0
G0 X2.2817 Y-21.9791 F15000.0
G1 Z11.9000 F8000.0
G1 X2.2330 Y-24.0224 F12000.0
G1 Z0.0000 F8000.0
G0 X1.6006 Y-24.0224 F15000.0
G1 Z11.9000 F8000.0
G1 X3.0601 Y-24.0224 F12000.0
G1 Z0.0000 F8000.0
G0 X4.1304 Y-23.3413 F15000.0
G1 Z11.9000 F8000.0
G1 X4.1667 Y-22.8025 F12000.0
G1 X4.6840 Y-22.4992
G1 X4.6119 Y-22.7582
G1 X5.0061 Y-21.9791
G1 Z0.0000 F8000.0
G0 X4.1304 Y-21.9791 F15000.0
G1 Z11.9000 F8000.0
G1 X4.1548 Y-22.5958 F12000.0
G1 X4.6486 Y-22.9177
G1 X5.0449 Y-23.3318
G1 X5.5440 Y-23.0372
G1 X5.5606 Y-22.4524
G1 X5.7825 Y-22.0812
G1 X5.5872 Y-22.3432
G1 X5.9849 Y-21.9780
G1 X6.4567 Y-22.0709
G1 X6.7158 Y-22.3048
G1 X6.6419 Y-23.0414
G1 X6.5458 Y-23.2447
G1 X5.9608 Y-23.3593
G1 X5.6385 Y-23.1467
G1 Z0.0000 F8000.0
G0 X7.3899 Y-23.3413 F15000.0
G1 Z11.9000 F8000.0
G1 X7.3899 Y-22.0729 F12000.0
G1 X7.4113 Y-22.6183
G1 X7.5773 Y-22.6972
G1 X8.3897 Y-22.5870
G1 X8.4571 Y-22.0612
G1 X8.5193 Y-23.3136
G1 X10.0656 Y-23.3899
G1 Z0.0000 F8000.0
G0 X9.4818 Y-23.3899 F15000.0
G1 Z11.9000 F8000.0
G1 X9.5631 Y-22.0387 F12000.0
G1 X10.6378 Y-22.1078
G1 X11.3489 Y-21.9970
G1 X11.6449 Y-22.2187
G1 X11.7451 Y-22.4295
G1 X11.6510 Y-23.1678
G1 X11.3597 Y-23.3221
G1 X10.7605 Y-23.2217
G1 X10.6191 Y-22.3980
G1 X10.6763 Y-21.4231
G1 X11.6710 Y-22.2223
G1 Z0.0000 F8000.0
G0 X7.4225 Y-28.9491 F15000.0
G1 Z11.9000 F8000.0
G1 X7.4412 Y-30.0302 F12000.0
G1 X7.3492 Y-30.2350
G1 X7.2588 Y-30.2572
G1 X6.5388 Y-29.6405
G1 X6.6388 Y-29.4528
G1 X7.1970 Y-28.9615
G1 X7.4823 Y-29.0570
G1 X7.5125 Y-29.2953
G1 X7.5169 Y-29.2020
G1 X7.4835 Y-29.4302
G1 X7.3906 Y-29.5275
G1 X6.4325 Y-29.7304
G1 X5.6009 Y-30.2591
G1 X5.7242 Y-30.1254
G1 X5.8883 Y-29.4023
G1 X5.7075 Y-29.0083
G1 X5.7517 Y-29.0801
G1 X5.3401 Y-28.9325
G1 X4.9944 Y-29.0114
G1 X4.8414 Y-29.1833
G1 X4.7238 Y-29.5344
G1 X4.9412 Y-30.1641
G1 X5.5252 Y-30.3112
G1 Z0.0000 F8000.0
G0 X3.0927 Y-29.0950 F15000.0
G1 Z11.9000 F8000.0
G1 X3.6911 Y-28.9325 F12000.0
G1 X4.0455 Y-29.1321
G1 X4.1392 Y-29.3440
G1 X4.0382 Y-30.0816
G1 X3.8772 Y-30.2516
G1 X3.3975 Y-30.2509
G1 X3.1179 Y-30.0572
G1 X3.0440 Y-28.3166
G1 Z0.0000 F8000.0
G0 X2.3143 Y-28.9491 F15000.0
G1 Z11.9000 F8000.0
G1 X2.2097 Y-30.7984 F12000.0
G1 X0.8548 Y-28.9491
G1 Z0.0000 F8000.0
G0 X0.0000 Y-29.7506 F15000.0
G1 Z11.9000 F8000.0
G1 X63.2677 Y-29.7506 F12000.0
G1 Z0.0000 F8000.0
G0 X63.2677 Y-24.8078 F15000.0
G1 Z11.9000 F8000.0
G1 X0.0000 Y-24.8078 F12000.0
G1 Z0.0000 F8000.0
G0 X0.0000 Y-10.2266 F15000.0
G1 Z11.9000 F8000.0
G1 X63.2677 Y-10.2266 F12000.0
G1 Z0.0000 F8000.0
G0 X63.2677 Y-5.3662 F15000.0
G1 Z11.9000 F8000.0
G1 X63.2677 Y-58.9131 F12000.0
G1 Z0.0000 F8000.0
G0 X63.2677 Y-54.0526 F15000.0
G1 Z11.9000 F8000.0
G1 X0.0000 Y-54.0526 F12000.0
G1 Z0.0000 F8000.0
G0 X0.0000 Y-58.9131 F15000.0
G1 Z11.9000 F8000.0
G1 X180.0000 Y-58.9131 F12000.0
G1 Z0.0000 F8000.0
G0 X175.2618 Y-23.7306 F15000.0
G1 Z11.9000 F8000.0
G1 X174.4215 Y-21.3866 F12000.0
G1 X174.2446 Y-21.0770
G1 Z0.0000 F8000.0
G0 X174.5984 Y-23.5979 F15000.0
G1 Z11.9000 F8000.0
G1 X174.8195 Y-23.7306 F12000.0
G1 Z0.0000 F8000.0
G0 X168.7446 Y-14.3007 F15000.0
G1 Z11.9000 F8000.0
G1 X169.1277 Y-13.8632 F12000.0
G1 X169.3964 Y-12.9076
G1 X169.1524 Y-12.4021
G1 X168.7786 Y-12.1132
G1 X168.9549 Y-12.2169
G1 X168.5527 Y-12.0510
G1 X167.5740 Y-12.1673
G1 X167.3138 Y-12.4070
G1 X167.0710 Y-12.8247
G1 X165.9840 Y-13.4469
G1 X164.8527 Y-13.4737
G1 Z0.0000 F8000.0
G0 X167.1878 Y-15.4197 F15000.0
G1 Z11.9000 F8000.0
G1 X167.2822 Y-15.7107 F12000.0
G1 X167.4296 Y-15.8847
G1 X168.1878 Y-16.1657
G1 X169.0456 Y-15.7250
G1 X169.2034 Y-15.1290
G1 X169.0168 Y-14.6820
G1 X168.7235 Y-14.3221
G1 X168.0149 Y-14.1061
G1 Z0.0000 F8000.0
G0 X139.3952 Y-23.2423 F15000.0
G1 Z11.9000 F8000.0
G1 X138.9701 Y-23.4926 F12000.0
G1 X138.3735 Y-23.3396
G1 Z0.0000 F8000.0
G0 X131.3959 Y-39.4714 F15000.0
G1 Z11.9000 F8000.0
G1 X145.9771 Y-39.4714 F12000.0
G1 Z0.0000 F8000.0
G0 X111.2378 Y-33.0040 F15000.0
G1 Z11.9000 F8000.0
G1 X111.2315 Y-30.7947 F12000.0
G1 X111.4002 Y-30.3316
G1 X111.8489 Y-29.9125
G1 X111.0671 Y-30.7810
G1 X111.1157 Y-30.8832
G1 X110.0910 Y-30.3753
G1 X108.8235 Y-30.1093
G1 X108.0939 Y-30.2634
G1 X107.6315 Y-30.6606
G1 X107.4678 Y-31.2528
G1 X107.5553 Y-31.7448
G1 X107.9197 Y-32.2270
G1 X108.3653 Y-32.4519
G1 X111.1627 Y-33.0196
G1 X111.2128 Y-33.2120
G1 X111.0966 Y-34.2135
G1 X110.9913 Y-34.4313
G1 X110.6547 Y-34.7766
G1 X110.1921 Y-34.9653
G1 X109.5662 Y-35.0349
G1 X108.6898 Y-34.9318
G1 X108.2228 Y-34.7431
G1 X107.9689 Y-34.5223
G1 X108.6284 Y-34.9136
G1 X108.3673 Y-34.8337
G1 X107.8787 Y-34.4408
G1 X107.5404 Y-33.9770
G1 Z0.0000 F8000.0
G0 X105.7890 Y-34.9013 F15000.0
G1 Z11.9000 F8000.0
G1 X104.8941 Y-34.1292 F12000.0
G1 X104.5203 Y-33.3896
G1 Z0.0000 F8000.0
G0 X104.4268 Y-33.1986 F15000.0
G1 Z11.9000 F8000.0
G1 X103.9027 Y-32.6199 F12000.0
G1 X103.0420 Y-32.6161
G1 X102.8524 Y-32.6795
G1 X102.8449 Y-34.7637
G1 X102.9071 Y-34.7970
G1 X104.7284 Y-34.0372
G1 X104.7411 Y-33.8318
G1 Z0.0000 F8000.0
G0 X104.7674 Y-33.8797 F15000.0
G1 Z11.9000 F8000.0
G1 X104.6701 Y-33.6851 F12000.0
G1 Z0.0000 F8000.0
G0 X106.3242 Y-29.8417 F15000.0
G1 Z11.9000 F8000.0
G1 X105.6689 Y-30.1969 F12000.0
G1 X104.6143 Y-31.8865
G1 X104.0468 Y-32.4775
G1 X103.9878 Y-32.6955
G1 X104.2152 Y-33.0085
G1 X102.8636 Y-32.6462
G1 X102.7682 Y-30.3638
G1 X100.5458 Y-30.3654
G1 X97.1930 Y-34.8150
G1 X96.7700 Y-30.3877
G1 X96.3045 Y-30.2562
G1 X96.0591 Y-30.2796
G1 Z0.0000 F8000.0
G0 X93.0915 Y-30.5715 F15000.0
G1 Z11.9000 F8000.0
G1 X92.7110 Y-30.8899 F12000.0
G1 X91.2428 Y-34.9013
G1 Z0.0000 F8000.0
G0 X89.6860 Y-34.9499 F15000.0
G1 Z11.9000 F8000.0
G1 X87.9346 Y-34.9013 F12000.0
G1 Z0.0000 F8000.0
G0 X87.8373 Y-30.3282 F15000.0
G1 Z11.9000 F8000.0
G1 X87.8353 Y-34.6477 F12000.0
G1 X87.7610 Y-34.8303
G1 X86.0193 Y-34.9438
G1 X84.3814 Y-34.8171
G1 X84.1742 Y-34.7304
G1 X83.3475 Y-33.8111
G1 X80.0823 Y-33.6705
G1 X82.9102 Y-30.3386
G1 X83.1329 Y-30.3407
G1 X83.9690 Y-30.6095
G1 X84.3993 Y-31.0488
G1 X84.6466 Y-32.0164
G1 X84.2829 Y-33.0721
G1 X83.4362 Y-33.7576
G1 X83.4787 Y-33.9269
G1 X83.8180 Y-34.2627
G1 X84.1361 Y-34.7400
G1 X84.3112 Y-35.3390
G1 X84.2489 Y-35.8343
G1 X83.9186 Y-36.5066
G1 X83.6062 Y-36.7057
G1 X83.0129 Y-36.9213
G1 X82.5130 Y-36.9823
G1 X80.1347 Y-36.9219
G1 X80.0526 Y-36.7467
G1 X80.0047 Y-33.7824
G1 Z0.0000 F8000.0
G0 X91.4374 Y-28.1390 F15000.0
G1 Z11.9000 F8000.0
G1 X91.7736 Y-28.2124 F12000.0
G1 X92.6872 Y-28.8634
G1 X92.8908 Y-29.3226
G1 X93.1451 Y-30.5538
G1 X93.5326 Y-31.0117
G1 X94.9059 Y-34.7585
G1 Z0.0000 F8000.0
G0 X95.1834 Y-35.0959 F15000.0
G1 Z11.9000 F8000.0
G1 X94.9686 Y-34.8686 F12000.0
G1 X94.7259 Y-34.2509
G1 Z0.0000 F8000.0
G0 X92.6536 Y-28.7715 F15000.0
G1 Z11.9000 F8000.0
G1 X92.4179 Y-28.4123 F12000.0
G1 X92.1185 Y-28.1877
G1 Z0.0000 F8000.0
G0 X98.7309 Y-50.9613 F15000.0
G1 Z11.9000 F8000.0
G1 X98.7463 Y-54.4959 F12000.0
G1 X98.8386 Y-54.6453
G1 X99.3413 Y-54.4445
G1 X98.8768 Y-54.7560
G1 Z0.0000 F8000.0
G0 X99.4120 Y-54.3668 F15000.0
G1 Z11.9000 F8000.0
G1 X100.6256 Y-51.2357 F12000.0
G1 X100.8469 Y-51.2162
G1 X100.6769 Y-51.1073
G1 Z0.0000 F8000.0
G0 X100.9688 Y-51.3505 F15000.0
G1 Z11.9000 F8000.0
G1 X101.8444 Y-53.8803 F12000.0
G1 Z0.0000 F8000.0
G0 X102.0877 Y-54.4154 F15000.0
G1 Z11.9000 F8000.0
G1 X101.8861 Y-53.9718 F12000.0
G1 X102.0839 Y-54.3722
G1 X102.4400 Y-54.6380
G1 X102.5053 Y-54.8183
G1 X102.4417 Y-54.4519
G1 X102.6715 Y-50.9613
G1 Z0.0000 F8000.0
G0 X103.9364 Y-53.7343 F15000.0
G1 Z11.9000 F8000.0
G1 X104.0798 Y-52.5978 F12000.0
G1 X104.2738 Y-52.2927
G1 X104.7183 Y-52.1008
G1 X106.0646 Y-52.2347
G1 X106.1244 Y-52.0497
G1 X106.1256 Y-50.9127
G1 Z0.0000 F8000.0
G0 X106.1256 Y-52.2748 F15000.0
G1 Z11.9000 F8000.0
G1 X106.1256 Y-53.7343 F12000.0
G1 Z0.0000 F8000.0
G0 X108.2175 Y-54.9992 F15000.0
G1 Z11.9000 F8000.0
G1 X108.3148 Y-55.0965 F12000.0
G1 Z0.0000 F8000.0
G0 X112.0122 Y-55.0965 F15000.0
G1 Z11.9000 F8000.0
G1 X112.8392 Y-55.0479 F12000.0
G1 X113.3257 Y-54.6587
G1 X113.6663 Y-52.9559
G1 X113.3257 Y-51.3019
G1 X113.1311 Y-51.0586
G1 X113.2771 Y-51.2046
G1 X113.0338 Y-50.9613
G1 X112.6933 Y-50.8154
G1 X111.9149 Y-50.9127
G1 X111.3798 Y-51.4965
G1 X111.1365 Y-52.5667
G1 X111.4771 Y-54.6100
G1 X111.5744 Y-54.7560
G1 X111.5257 Y-54.6587
G1 X112.0122 Y-55.0965
G1 Z0.0000 F8000.0
G0 X111.3798 Y-51.4965 F15000.0
G1 Z11.9000 F8000.0
G1 X111.5616 Y-51.1959 F12000.0
G1 X111.9149 Y-50.9127
G1 Z0.0000 F8000.0
G0 X107.9743 Y-51.0586 F15000.0
G1 Z11.9000 F8000.0
G1 X108.3016 Y-50.9060 F12000.0
G1 X109.0473 Y-50.8507
G1 X109.3595 Y-51.0062
G1 X109.2079 Y-50.9107
G1 X109.5063 Y-51.1597
G1 X109.6526 Y-51.4327
G1 X109.9454 Y-53.0421
G1 X109.6105 Y-54.6378
G1 X109.1716 Y-55.0178
G1 X108.3087 Y-55.0605
G1 X107.8688 Y-54.7370
G1 X108.1549 Y-54.9926
G1 X107.8104 Y-54.5860
G1 X107.4566 Y-52.5971
G1 X107.6410 Y-51.6078
G1 X107.9256 Y-51.1559
G1 Z0.0000 F8000.0
G0 X53.5469 Y-58.9131 F15000.0
G1 Z11.9000 F8000.0
G1 X53.5469 Y-5.3662 F12000.0
G1 Z0.0000 F8000.0
G0 X38.9657 Y-5.3662 F15000.0
G1 Z11.9000 F8000.0
G1 X38.9657 Y-58.9131 F12000.0
G1 Z0.0000 F8000.0
G0 X57.0481 Y-231.7612 F15000.0
G1 Z11.9000 F8000.0
G1 X57.0481 Y-232.6369 F12000.0
G1 Z0.0000 F8000.0
G0 X57.6659 Y-232.9252 F15000.0
G1 Z11.9000 F8000.0
G1 X57.6659 Y-232.0496 F12000.0
G1 Z0.0000 F8000.0
G0 X45.0618 Y-241.7704 F15000.0
G1 Z11.9000 F8000.0
G1 X45.0618 Y-242.6461 F12000.0
G1 Z0.0000 F8000.0
G0 X44.4439 Y-242.3577 F15000.0
G1 Z11.9000 F8000.0
G1 X44.4439 Y-241.4820 F12000.0
G1 Z0.0000 F8000.0
G0 X44.2038 Y-276.3265 F15000.0
G1 Z11.9000 F8000.0
G1 X44.5877 Y-276.9572 F12000.0
G1 X44.7543 Y-278.0809
G1 X44.6117 Y-279.5839
G1 X44.4709 Y-279.9275
G1 X44.1883 Y-280.2961
G1 X43.6133 Y-280.5194
G1 X43.0184 Y-280.4167
G1 X42.5496 Y-279.9457
G1 X42.6933 Y-280.1945
G1 X42.6515 Y-280.1452
G1 X42.8753 Y-280.3581
G1 X42.4548 Y-279.7213
G1 X42.2268 Y-278.0954
G1 X42.2984 Y-277.3444
G1 X42.6465 Y-276.5374
G1 X42.9006 Y-276.2880
G1 X43.2443 Y-276.1572
G1 X44.1065 Y-276.3265
G1 Z0.0000 F8000.0
G0 X40.6037 Y-276.5211 F15000.0
G1 Z11.9000 F8000.0
G1 X40.4588 Y-276.3857 F12000.0
G1 X39.2395 Y-276.2635
G1 X38.9506 Y-276.4658
G1 X38.5604 Y-277.2509
G1 Z0.0000 F8000.0
G0 X38.7064 Y-279.7806 F15000.0
G1 Z11.9000 F8000.0
G1 X39.1212 Y-280.3385 F12000.0
G1 Z0.0000 F8000.0
G0 X39.1929 Y-280.3644 F15000.0
G1 Z11.9000 F8000.0
G1 X39.4055 Y-280.4802 F12000.0
G1 X39.7738 Y-280.5374
G1 X40.2506 Y-280.3884
G1 X40.5389 Y-280.2063
G1 X40.8436 Y-279.6779
G1 X41.0294 Y-278.3033
G1 X40.8645 Y-277.0509
G1 X40.4901 Y-276.4109
G1 X40.2877 Y-276.2784
G1 X39.5472 Y-276.1563
G1 X39.3234 Y-276.2311
G1 X38.6430 Y-277.1304
G1 X38.4761 Y-277.9908
G1 X38.7690 Y-279.8498
G1 Z0.0000 F8000.0
G0 X34.3279 Y-277.8833 F15000.0
G1 Z11.9000 F8000.0
G1 X33.7928 Y-277.3968 F12000.0
G1 Z0.0000 F8000.0
G0 X35.3009 Y-276.2292 F15000.0
G1 Z11.9000 F8000.0
G1 X33.0936 Y-276.3035 F12000.0
G1 X33.7342 Y-277.3615
G1 X34.5631 Y-278.0793
G1 X35.0621 Y-278.6465
G1 X35.2866 Y-279.2251
G1 X35.2408 Y-279.8509
G1 X34.9634 Y-280.2530
G1 X34.2706 Y-280.5284
G1 X33.4244 Y-280.3450
G1 X33.0602 Y-279.9450
G1 X33.3410 Y-280.3088
G1 X32.9171 Y-279.6347
G1 Z0.0000 F8000.0
G0 X31.4576 Y-280.4617 F15000.0
G1 Z11.9000 F8000.0
G1 X29.5865 Y-280.1859 F12000.0
G1 X29.2197 Y-278.5158
G1 Z0.0000 F8000.0
G0 X29.3170 Y-278.7590 F15000.0
G1 Z11.9000 F8000.0
G1 X29.5415 Y-278.7375 F12000.0
G1 X30.5231 Y-278.9248
G1 X31.3906 Y-278.4466
G1 X31.6302 Y-277.2277
G1 X31.4635 Y-276.7610
G1 X30.9965 Y-276.2804
G1 X31.1573 Y-276.3868
G1 X31.1170 Y-276.3265
G1 Z0.0000 F8000.0
G0 X30.8738 Y-276.2292 F15000.0
G1 Z11.9000 F8000.0
G1 X30.6218 Y-276.1613 F12000.0
G1 X29.5478 Y-276.5084
G1 X29.1711 Y-276.8617
G1 Z0.0000 F8000.0
G0 X24.2575 Y-276.2292 F15000.0
G1 Z11.9000 F8000.0
G1 X23.9178 Y-276.4658 F12000.0
G1 X23.5277 Y-277.2509
G1 Z0.0000 F8000.0
G0 X23.6737 Y-279.7806 F15000.0
G1 Z11.9000 F8000.0
G1 X23.8482 Y-280.1129 F12000.0
G1 X24.0989 Y-280.3454
G1 X23.7302 Y-279.8389
G1 X23.4431 Y-277.9781
G1 X23.6163 Y-277.1195
G1 X24.2101 Y-276.3057
G1 X24.4085 Y-276.1724
G1 X25.3776 Y-276.3287
G1 X25.8152 Y-276.9813
G1 X25.9857 Y-278.4819
G1 X25.7971 Y-279.7289
G1 X25.5529 Y-280.1537
G1 X25.2853 Y-280.3627
G1 X24.8104 Y-280.5241
G1 X24.2575 Y-280.4617
G1 Z0.0000 F8000.0
G0 X20.5114 Y-280.4617 F15000.0
G1 Z11.9000 F8000.0
G1 X21.0057 Y-280.5356 F12000.0
G1 X21.5901 Y-280.3340
G1 X21.8356 Y-280.1060
G1 X22.0676 Y-279.6673
G1 X22.2500 Y-278.2923
G1 X22.0532 Y-276.9196
G1 X21.7484 Y-276.4250
G1 X21.5787 Y-276.2983
G1 X20.8402 Y-276.1571
G1 X20.6055 Y-276.1935
G1 X19.8425 Y-277.1763
G1 X19.6998 Y-278.0424
G1 X19.9510 Y-279.7894
G1 X20.2469 Y-280.2632
G1 X20.0281 Y-279.9866
G1 X20.3462 Y-280.3156
G1 X19.9276 Y-279.7806
G1 Z0.0000 F8000.0
G0 X18.3222 Y-279.1482 F15000.0
G1 Z11.9000 F8000.0
G1 X18.3222 Y-277.6401 F12000.0
G1 Z0.0000 F8000.0
G0 X18.3222 Y-276.2292 F15000.0
G1 Z11.9000 F8000.0
G1 X18.2875 Y-277.5809 F12000.0
G1 X16.9640 Y-277.4667
G1 X16.4120 Y-277.7256
G1 X16.1481 Y-278.1372
G1 X16.0843 Y-279.1482
G1 Z0.0000 F8000.0
G0 X14.6248 Y-280.1698 F15000.0
G1 Z11.9000 F8000.0
G1 X14.8194 Y-276.2292 F12000.0
G1 Z0.0000 F8000.0
G0 X12.8735 Y-276.4725 F15000.0
G1 Z11.9000 F8000.0
G1 X13.1430 Y-276.7598 F12000.0
G1 X14.2502 Y-279.8508
G1 X14.0897 Y-279.4887
G1 Z0.0000 F8000.0
G0 X11.5113 Y-279.8293 F15000.0
G1 Z11.9000 F8000.0
G1 X12.3657 Y-277.2654 F12000.0
G1 X12.7762 Y-276.4725
G1 Z0.0000 F8000.0
G0 X10.8302 Y-276.2779 F15000.0
G1 Z11.9000 F8000.0
G1 X10.8420 Y-279.9411 F12000.0
G1 X10.9263 Y-280.1064
G1 X11.4442 Y-279.8990
G1 X10.9761 Y-280.2185
G1 Z0.0000 F8000.0
G0 X19.7817 Y-277.2509 F15000.0
G1 Z11.9000 F8000.0
G1 X20.1718 Y-276.4658 F12000.0
G1 X20.5114 Y-276.2292
G1 Z0.0000 F8000.0
G0 X0.0000 Y-271.0412 F15000.0
G1 Z11.9000 F8000.0
G1 X68.1282 Y-271.0412 F12000.0
G1 X68.1282 Y-284.6338 F12000.0
G1 Z0.0000 F8000.0
G0 X52.7661 Y-277.7860 F15000.0
G1 Z11.9000 F8000.0
G1 X52.7174 Y-277.6887 F12000.0
G1 Z0.0000 F8000.0
G0 X52.3769 Y-276.1806 F15000.0
G1 Z11.9000 F8000.0
G1 X52.5767 Y-277.1864 F12000.0
G1 X52.8108 Y-277.8805
G1 X53.8204 Y-279.8347
G1 X53.9712 Y-280.3784
G1 X51.7444 Y-280.4617
G1 Z0.0000 F8000.0
G0 X48.6795 Y-280.4617 F15000.0
G1 Z11.9000 F8000.0
G1 X49.2165 Y-280.5272 F12000.0
G1 X49.7969 Y-280.3141
G1 X50.0296 Y-280.0697
G1 X50.2467 Y-279.6247
G1 X50.4167 Y-278.3732
G1 X50.2031 Y-276.8795
G1 X49.8949 Y-276.4015
G1 X49.7066 Y-276.2846
G1 X48.9650 Y-276.1561
G1 X48.7368 Y-276.2157
G1 X48.0464 Y-277.1052
G1 X47.8666 Y-277.9617
G1 X48.1443 Y-279.8248
G1 X48.5951 Y-280.4114
G1 X48.2703 Y-280.1129
G1 X48.0957 Y-279.7806
G1 Z0.0000 F8000.0
G0 X47.9498 Y-277.2509 F15000.0
G1 Z11.9000 F8000.0
G1 X48.3399 Y-276.4658 F12000.0
G1 X48.6795 Y-276.2292
G1 Z0.0000 F8000.0
G0 X138.7277 Y-237.4561 F15000.0
G1 Z11.9000 F8000.0
G1 X138.7277 Y-236.5804 F12000.0
G1 Z0.0000 F8000.0
G0 X139.3043 Y-236.9100 F15000.0
G1 Z11.9000 F8000.0
G1 X139.3043 Y-237.7857 F12000.0
G1 Z0.0000 F8000.0

G0 Z0.0000 F800.0
G4 P0.06
G0 X0.0000 Y0.0000 F15000.0
M5
G4 P0.10
$1=0
