$X
$1=255
G21
G90
G92 Z4.0000
G0 Z0.0000 F800.0
G4 P0.06
G92 Z0.0000
G0 Z0.0000 F800.0
G0 X0.0000 Y0.0000 F15000.0
G21
G90
G17
G91.1
G0 Z0.0000
G0 X133.9883 Y-80.0662 F15000.0
G1 Z11.9000 F2500.0
G4 P0.02
G1 X133.8714 Y-81.4687 F2200.0
G1 X132.2352 Y-82.0531
G1 X132.0404 Y-81.0402
G1 X131.9235 Y-80.9233
G1 X131.6118 Y-80.8454
G1 X130.7158 Y-81.1570
G1 Z0.0000 F2500.0
G4 P0.02
G0 X133.9883 Y-82.3258 F15000.0
G1 Z11.9000 F2500.0
G4 P0.02
G1 X133.9104 Y-83.7283 F2200.0
G1 X132.2352 Y-84.3126
G1 X131.9235 Y-83.1829
G1 X130.7158 Y-83.4166
G1 Z0.0000 F2500.0
G4 P0.02
G0 X130.2483 Y-81.5466 F15000.0
G1 Z11.9000 F2500.0
G4 P0.02
G1 X130.3262 Y-81.4687 F2200.0
G1 X130.2093 Y-81.6245
G1 X129.8977 Y-83.0270
G1 Z0.0000 F2500.0
G4 P0.02
G0 X130.3262 Y-83.7283 F15000.0
G1 Z11.9000 F2500.0
G4 P0.02
G1 X130.2093 Y-83.8841 F2200.0
G1 X129.8977 Y-85.2866
G1 Z0.0000 F2500.0
G4 P0.02
G0 X125.2220 Y-86.3529 F15000.0
G1 Z11.9000 F2500.0
G4 P0.02
G1 X125.2999 Y-87.5996 F2200.0
G1 X124.8324 Y-88.0671
G1 X122.8455 Y-88.8462
G1 Z0.0000 F2500.0
G4 P0.02
G0 X124.2091 Y-89.3917 F15000.0
G1 Z11.9000 F2500.0
G4 P0.02
G1 X125.2609 Y-88.8073 F2200.0
G1 X125.2609 Y-90.5604
G1 X124.9882 Y-90.6773
G1 Z0.0000 F2500.0
G4 P0.02
G0 X125.1441 Y-86.3140 F15000.0
G1 Z11.9000 F2500.0
G4 P0.02
G1 X124.7545 Y-86.2750 F2200.0
G1 Z0.0000 F2500.0
G4 P0.02
G0 X124.0143 Y-89.5085 F15000.0
G1 Z11.9000 F2500.0
G4 P0.02
G1 X124.1311 Y-89.4306 F2200.0
G1 X123.8195 Y-89.6254
G1 Z0.0000 F2500.0
G4 P0.02
G0 X123.7805 Y-86.6256 F15000.0
G1 Z11.9000 F2500.0
G4 P0.02
G1 X123.8974 Y-86.5867 F2200.0
G1 Z0.0000 F2500.0
G4 P0.02
G0 X123.2351 Y-86.8204 F15000.0
G1 Z11.9000 F2500.0
G4 P0.02
G1 X123.1182 Y-86.8594 F2200.0
G1 Z0.0000 F2500.0
G4 P0.02
G0 X123.0793 Y-90.0539 F15000.0
G1 Z11.9000 F2500.0
G4 P0.02
G1 X121.4430 Y-91.0279 F2200.0
G1 Z0.0000 F2500.0
G4 P0.02
G0 X122.4559 Y-87.0931 F15000.0
G1 Z11.9000 F2500.0
G4 P0.02
G1 X122.6897 Y-87.0152 F2200.0
G1 Z0.0000 F2500.0
G4 P0.02
G0 X121.5989 Y-88.9631 F15000.0
G1 Z11.9000 F2500.0
G4 P0.02
G1 X121.8326 Y-89.1189 F2200.0
G1 X122.4559 Y-89.0021
G1 Z0.0000 F2500.0
G4 P0.02
G0 X121.9884 Y-87.3269 F15000.0
G1 Z11.9000 F2500.0
G4 P0.02
G1 X122.3780 Y-87.1321 F2200.0
G1 Z0.0000 F2500.0
G4 P0.02
G0 X121.9105 Y-87.3658 F15000.0
G1 Z11.9000 F2500.0
G4 P0.02
G1 X121.4820 Y-88.0671 F2200.0
G1 X121.5209 Y-88.8462
G1 Z0.0000 F2500.0
G4 P0.02
G0 X70.3318 Y-39.0704 F15000.0
G1 Z11.9000 F2500.0
G4 P0.02
G1 X70.3708 Y-38.7198 F2200.0
G1 X70.2539 Y-39.1094
G1 X69.8643 Y-39.0704
G1 X69.4748 Y-38.4081
G1 X69.5916 Y-38.2912
G1 X70.0981 Y-38.4081
G1 Z0.0000 F2500.0
G4 P0.02
G0 X67.6736 Y-38.6022 F15000.0
G1 Z11.9000 F2500.0
G4 P0.02
G1 X68.9592 Y-42.1863 F2200.0
G1 Z0.0000 F2500.0
G4 P0.02
G0 X68.8033 Y-39.2255 F15000.0
G1 Z11.9000 F2500.0
G4 P0.02
G1 X68.6475 Y-39.0697 F2200.0
G1 Z0.0000 F2500.0
G4 P0.02
G0 X67.9852 Y-38.6412 F15000.0
G1 Z11.9000 F2500.0
G4 P0.02
G1 X67.6346 Y-38.5243 F2200.0
G1 X67.4398 Y-38.2905
G1 Z0.0000 F2500.0
G4 P0.02
G0 X67.8294 Y-41.2513 F15000.0
G1 Z11.9000 F2500.0
G4 P0.02
G1 X67.8294 Y-41.9916 F2200.0
G1 X67.7515 Y-42.0695
G1 X67.0502 Y-42.2253
G1 X66.4269 Y-41.9916
G1 Z0.0000 F2500.0
G4 P0.02
G0 X67.7515 Y-41.0566 F15000.0
G1 Z11.9000 F2500.0
G4 P0.02
G1 X67.5956 Y-40.6280 F2200.0
G1 X67.6346 Y-40.7449
G1 X66.7386 Y-38.6412
G1 X66.3100 Y-38.3295
G1 X65.3750 Y-38.2905
G1 Z0.0000 F2500.0
G4 P0.02
G0 X66.1542 Y-41.7188 F15000.0
G1 Z11.9000 F2500.0
G4 P0.02
G1 X66.2321 Y-41.7968 F2200.0
G1 X65.6867 Y-40.5111
G1 X65.1023 Y-38.6022
G1 Z0.0000 F2500.0
G4 P0.02
G0 X19.4470 Y-29.7564 F15000.0
G1 Z11.9000 F2500.0
G4 P0.02
G1 X18.7068 Y-29.9512 F2200.0
G1 X16.9926 Y-29.8733
G1 X16.8757 Y-29.7564
G1 X16.0576 Y-29.4837
G1 Z0.0000 F2500.0
G4 P0.02
G0 X17.5770 Y-28.8994 F15000.0
G1 Z11.9000 F2500.0
G4 P0.02
G1 X17.6159 Y-28.4708 F2200.0
G1 Z0.0000 F2500.0
G4 P0.02
G0 X17.4991 Y-31.0421 F15000.0
G1 Z11.9000 F2500.0
G4 P0.02
G1 X17.5380 Y-31.5096 F2200.0
G1 X17.1095 Y-31.9771
G1 X16.5251 Y-32.2108
G1 X14.1097 Y-31.2758
G1 Z0.0000 F2500.0
G4 P0.02
G0 X17.3432 Y-30.8862 F15000.0
G1 Z11.9000 F2500.0
G4 P0.02
G1 X16.8368 Y-30.6135 F2200.0
G1 Z0.0000 F2500.0
G4 P0.02
G0 X17.3043 Y-28.1592 F15000.0
G1 Z11.9000 F2500.0
G4 P0.02
G1 X16.4472 Y-27.7696 F2200.0
G1 X15.6680 Y-27.8865
G1 X15.4343 Y-28.0423
G1 X15.5122 Y-27.9644
G1 X15.0837 Y-28.4319
G1 X15.1226 Y-28.9383
G1 X15.2785 Y-29.0942
G1 X15.1616 Y-29.0162
G1 X15.7460 Y-29.3279
G1 Z0.0000 F2500.0
G4 P0.02
G0 X15.9797 Y-30.2239 F15000.0
G1 Z11.9000 F2500.0
G4 P0.02
G1 X16.2524 Y-30.3408 F2200.0
G1 Z0.0000 F2500.0
G4 P0.02
G0 X15.9018 Y-30.1850 F15000.0
G1 Z11.9000 F2500.0
G4 P0.02
G1 X14.5772 Y-29.6006 F2200.0
G1 X13.8370 Y-29.7175
G1 Z0.0000 F2500.0
G4 P0.02
G0 X13.2916 Y-30.2239 F15000.0
G1 Z11.9000 F2500.0
G4 P0.02
G1 X13.1747 Y-30.5746 F2200.0
G1 X13.2137 Y-30.7304
G1 Z0.0000 F2500.0
G4 P0.02
G0 X12.9020 Y-31.5875 F15000.0
G1 Z11.9000 F2500.0
G4 P0.02
G1 X12.9020 Y-31.8602 F2200.0
G1 X12.8241 Y-31.4706
G1 X12.2787 Y-31.3537
G1 X12.0060 Y-31.4706
G1 X11.9670 Y-32.0160
G1 X12.5514 Y-32.0939
G1 Z0.0000 F2500.0
G4 P0.02
G0 X11.8891 Y-31.9771 F15000.0
G1 Z11.9000 F2500.0
G4 P0.02
G1 X11.9281 Y-31.5485 F2200.0
G1 Z0.0000 F2500.0
G4 P0.02
G0 X38.6733 Y-45.9454 F15000.0
G1 Z11.9000 F2500.0
G4 P0.02
G1 X39.0628 Y-46.9973 F2200.0
G1 X38.9070 Y-47.5427
G1 X38.7901 Y-47.6206
G1 X37.8941 Y-47.6206
G1 X37.5824 Y-47.5037
G1 X37.3097 Y-47.2310
G1 X37.1149 Y-46.8025
G1 X37.2708 Y-47.1531
G1 X36.8033 Y-45.9454
G1 Z0.0000 F2500.0
G4 P0.02
G0 X38.5953 Y-45.7506 F15000.0
G1 Z11.9000 F2500.0
G4 P0.02
G1 X37.9330 Y-44.1923 F2200.0
G1 X37.5045 Y-43.8416
G1 X36.2968 Y-43.9196
G1 X36.2578 Y-44.4260
G1 Z0.0000 F2500.0
G4 P0.02
G0 X36.6085 Y-45.4000 F15000.0
G1 Z11.9000 F2500.0
G4 P0.02
G1 X36.5695 Y-45.2831 F2200.0
G1 Z0.0000 F2500.0
G4 P0.02
G0 X31.4163 Y-233.6573 F15000.0
G1 Z11.9000 F2500.0
G4 P0.02
G1 X31.5721 Y-234.1637 F2200.0
G1 Z0.0000 F2500.0
G4 P0.02
G0 X31.3773 Y-233.5793 F15000.0
G1 Z11.9000 F2500.0
G4 P0.02
G1 X30.6761 Y-231.9041 F2200.0
G1 X30.4423 Y-231.6314
G1 X30.4034 Y-231.2029
G1 Z0.0000 F2500.0
G4 P0.02
G0 X30.4423 Y-231.6704 F15000.0
G1 Z11.9000 F2500.0
G4 P0.02
G1 X30.2086 Y-232.5664 F2200.0
G1 X30.2475 Y-232.7223
G1 X30.1696 Y-232.5275
G1 X29.8580 Y-232.3716
G1 X29.0398 Y-231.7094
G1 X29.7800 Y-233.9300
G1 Z0.0000 F2500.0
G4 P0.02
G0 X29.1567 Y-233.7741 F15000.0
G1 Z11.9000 F2500.0
G4 P0.02
G1 X28.6892 Y-234.0858 F2200.0
G1 X28.1048 Y-233.8521
G1 X27.5984 Y-232.1379
G1 X28.3386 Y-232.1769
G1 X28.7282 Y-232.4885
G1 X29.1177 Y-233.6962
G1 Z0.0000 F2500.0
G4 P0.02
G0 X27.5205 Y-233.6573 F15000.0
G1 Z11.9000 F2500.0
G4 P0.02
G1 X27.4815 Y-234.0079 F2200.0
G1 X26.5855 Y-234.0858
G1 Z0.0000 F2500.0
G4 P0.02
G0 X27.4425 Y-233.4625 F15000.0
G1 Z11.9000 F2500.0
G4 P0.02
G1 X27.1309 Y-232.5275 F2200.0
G1 X26.7023 Y-232.1769
G1 X25.8842 Y-232.1769
G1 Z0.0000 F2500.0
G4 P0.02
G0 X25.9621 Y-233.7741 F15000.0
G1 Z11.9000 F2500.0
G4 P0.02
G1 X25.9232 Y-234.0079 F2200.0
G1 X24.9882 Y-234.0858
G1 Z0.0000 F2500.0
G4 P0.02
G0 X25.8453 Y-233.4625 F15000.0
G1 Z11.9000 F2500.0
G4 P0.02
G1 X25.5336 Y-232.5275 F2200.0
G1 X24.8713 Y-232.1769
G1 X24.2869 Y-232.1769
G1 Z0.0000 F2500.0
G4 P0.02
G0 X24.4038 Y-233.7741 F15000.0
G1 Z11.9000 F2500.0
G4 P0.02
G1 X23.8974 Y-234.0858 F2200.0
G1 X23.3519 Y-233.8910
G1 X23.2740 Y-233.6962
G1 X23.3130 Y-233.8521
G1 X22.8455 Y-232.1379
G1 X23.9753 Y-232.5275
G1 X24.2869 Y-233.4625
G1 Z0.0000 F2500.0
G4 P0.02
G0 X162.0893 Y-238.2388 F15000.0
G1 Z11.9000 F2500.0
G4 P0.02
G1 X162.1283 Y-238.3557 F2200.0
G1 X161.8166 Y-237.7713
G1 X161.0764 Y-235.5118
G1 Z0.0000 F2500.0
G4 P0.02
G0 X161.5439 Y-237.5765 F15000.0
G1 Z11.9000 F2500.0
G4 P0.02
G1 X161.6608 Y-237.6934 F2200.0
G1 X160.4531 Y-236.2130
G1 X160.2973 Y-236.2909
G1 X160.9206 Y-238.1999
G1 Z0.0000 F2500.0
G4 P0.02
G0 X160.3752 Y-238.0830 F15000.0
G1 Z11.9000 F2500.0
G4 P0.02
G1 X160.2973 Y-238.3167 F2200.0
G1 X159.7129 Y-238.2388
G1 X159.4402 Y-237.4986
G1 X159.5181 Y-237.3818
G1 X159.8298 Y-237.3818
G1 Z0.0000 F2500.0
G4 P0.02
G0 X160.1414 Y-235.9403 F15000.0
G1 Z11.9000 F2500.0
G4 P0.02
G1 X159.9466 Y-235.5507 F2200.0
G1 Z0.0000 F2500.0
G4 P0.02
G0 X159.7518 Y-236.5247 F15000.0
G1 Z11.9000 F2500.0
G4 P0.02
G1 X159.4791 Y-236.4078 F2200.0
G1 X159.1285 Y-236.6026
G1 X159.3623 Y-237.2649
G1 Z0.0000 F2500.0
G4 P0.02
G0 X159.1285 Y-238.1220 F15000.0
G1 Z11.9000 F2500.0
G4 P0.02
G1 X159.2454 Y-238.3947 F2200.0
G1 Z0.0000 F2500.0
G4 P0.02
G0 X159.0116 Y-237.8493 F15000.0
G1 Z11.9000 F2500.0
G4 P0.02
G1 X159.0506 Y-237.9661 F2200.0
G1 X158.6221 Y-236.9532
G1 X158.4273 Y-236.7584
G1 X158.3883 Y-236.3688
G1 X158.3104 Y-237.1480
G1 X158.2325 Y-237.2259
G1 X158.1156 Y-237.1870
G1 Z0.0000 F2500.0
G4 P0.02
G0 X157.5312 Y-236.8753 F15000.0
G1 Z11.9000 F2500.0
G4 P0.02
G1 X157.9598 Y-238.2388 F2200.0
G1 Z0.0000 F2500.0
G4 P0.02
G0 X157.8039 Y-236.9532 F15000.0
G1 Z11.9000 F2500.0
G4 P0.02
G1 X157.4923 Y-236.7584 F2200.0
G1 X157.2975 Y-236.4468
G1 Z0.0000 F2500.0
G4 P0.02
G0 X157.5312 Y-238.1609 F15000.0
G1 Z11.9000 F2500.0
G4 P0.02
G1 X157.5702 Y-238.3167 F2200.0
G1 Z0.0000 F2500.0
G4 P0.02
G0 X156.0743 Y-238.1838 F15000.0
G1 Z11.9000 F2500.0
G4 P0.02
G1 X156.1522 Y-238.3007 F2200.0
G1 Z0.0000 F2500.0
G4 P0.02
G0 X155.8016 Y-237.7553 F15000.0
G1 Z11.9000 F2500.0
G4 P0.02
G1 X155.5289 Y-237.3268 F2200.0
G1 Z0.0000 F2500.0
G4 P0.02
G0 X155.2562 Y-236.8982 F15000.0
G1 Z11.9000 F2500.0
G4 P0.02
G1 X155.0614 Y-236.6255 F2200.0
G1 Z0.0000 F2500.0
G4 P0.02
G0 X154.1653 Y-236.5086 F15000.0
G1 Z11.9000 F2500.0
G4 P0.02
G1 X154.7107 Y-238.2228 F2200.0
G1 Z0.0000 F2500.0
G4 P0.02
G0 X154.6718 Y-236.0022 F15000.0
G1 Z11.9000 F2500.0
G4 P0.02
G1 X154.3991 Y-235.6126 F2200.0
G1 X153.8926 Y-235.6126
G1 X154.0874 Y-236.3138
G1 Z0.0000 F2500.0
G4 P0.02
G0 X154.1653 Y-237.9890 F15000.0
G1 Z11.9000 F2500.0
G4 P0.02
G1 X154.1653 Y-238.2618 F2200.0
G1 X154.1264 Y-237.9111
G1 X153.5809 Y-236.3918
G1 Z0.0000 F2500.0
G4 P0.02
G0 X153.3082 Y-238.1449 F15000.0
G1 Z11.9000 F2500.0
G4 P0.02
G1 X154.1264 Y-238.3007 F2200.0
G1 Z0.0000 F2500.0
G4 P0.02
G0 X153.1135 Y-237.6384 F15000.0
G1 Z11.9000 F2500.0
G4 P0.02
G1 X153.2303 Y-237.9501 F2200.0
G1 X152.6460 Y-236.3918
G1 Z0.0000 F2500.0
G4 P0.02
G0 X152.4901 Y-237.1709 F15000.0
G1 Z11.9000 F2500.0
G4 P0.02
G1 X152.6849 Y-238.3007 F2200.0
G1 X151.9447 Y-238.3786
G1 Z0.0000 F2500.0
G4 P0.02
G0 X152.4512 Y-237.0930 F15000.0
G1 Z11.9000 F2500.0
G4 P0.02
G1 X152.2174 Y-236.5476 F2200.0
G1 X151.3214 Y-236.4697
G1 Z0.0000 F2500.0
G4 P0.02
G0 X151.5162 Y-238.2618 F15000.0
G1 Z11.9000 F2500.0
G4 P0.02
G1 X151.5551 Y-238.3786 F2200.0
G1 X150.7760 Y-236.4697
G1 X150.1526 Y-236.4307
G1 Z0.0000 F2500.0
G4 P0.02
G0 X150.7370 Y-238.2618 F15000.0
G1 Z11.9000 F2500.0
G4 P0.02
G1 X150.7760 Y-238.3786 F2200.0
G1 X150.0747 Y-236.4307
G1 X149.4124 Y-236.6255
G1 X150.0358 Y-238.3786
G1 X149.9968 Y-238.2618
G1 Z0.0000 F2500.0
G4 P0.02
G0 X144.4714 Y-238.4630 F15000.0
G1 Z11.9000 F2500.0
G4 P0.02
G1 X143.5364 Y-236.1645 F2200.0
G1 X143.3806 Y-236.0865
G1 X143.3027 Y-235.5411
G1 Z0.0000 F2500.0
G4 P0.02
G0 X143.3806 Y-236.1255 F15000.0
G1 Z11.9000 F2500.0
G4 P0.02
G1 X143.1079 Y-237.9565 F2200.0
G1 X143.1468 Y-238.1903
G1 Z0.0000 F2500.0
G4 P0.02
G0 X142.7962 Y-237.4501 F15000.0
G1 Z11.9000 F2500.0
G4 P0.02
G1 X142.0170 Y-235.5411 F2200.0
G1 Z0.0000 F2500.0
G4 P0.02
G0 X141.7443 Y-235.7749 F15000.0
G1 Z11.9000 F2500.0
G4 P0.02
G1 X142.0170 Y-236.7878 F2200.0
G1 X141.5885 Y-236.7878
G1 Z0.0000 F2500.0
G4 P0.02
G0 X141.3158 Y-236.2813 F15000.0
G1 Z11.9000 F2500.0
G4 P0.02
G1 X141.1600 Y-235.8138 F2200.0
G1 X141.3158 Y-235.5801
G1 X141.7054 Y-235.7359
G1 Z0.0000 F2500.0
G4 P0.02
G0 X140.3366 Y-238.0873 F15000.0
G1 Z11.9000 F2500.0
G4 P0.02
G1 X140.3366 Y-238.2042 F2200.0
G1 X140.2197 Y-238.3211
G1 X138.7003 Y-236.4511
G1 X139.7912 Y-236.6459
G1 X140.1807 Y-237.6588
G1 Z0.0000 F2500.0
G4 P0.02
G0 X139.0899 Y-235.5161 F15000.0
G1 Z11.9000 F2500.0
G4 P0.02
G1 X139.4795 Y-235.5550 F2200.0
G1 Z0.0000 F2500.0
G4 P0.02
G0 X139.0120 Y-235.5550 F15000.0
G1 Z11.9000 F2500.0
G4 P0.02
G1 X138.6224 Y-235.5940 F2200.0
G1 X138.5055 Y-235.8667
G1 X138.6614 Y-236.3342
G1 Z0.0000 F2500.0
G4 P0.02
G0 X138.7393 Y-238.0873 F15000.0
G1 Z11.9000 F2500.0
G4 P0.02
G1 X138.6614 Y-238.3211 F2200.0
G1 X137.9601 Y-238.2821
G1 Z0.0000 F2500.0
G4 P0.02
G0 X138.5835 Y-237.6588 F15000.0
G1 Z11.9000 F2500.0
G4 P0.02
G1 X138.1549 Y-236.6069 F2200.0
G1 X137.2978 Y-236.4511
G1 X137.1810 Y-236.6069
G1 X137.6485 Y-238.0094
G1 Z0.0000 F2500.0
G4 P0.02
G0 X137.0251 Y-237.7367 F15000.0
G1 Z11.9000 F2500.0
G4 P0.02
G1 X137.3368 Y-238.3600 F2200.0
G1 Z0.0000 F2500.0
G4 P0.02
G0 X136.7914 Y-237.3471 F15000.0
G1 Z11.9000 F2500.0
G4 P0.02
G1 X136.7135 Y-236.9965 F2200.0
G1 X136.7524 Y-237.3861
G1 X136.5187 Y-237.3471
G1 X136.6745 Y-236.9186
G1 X136.4408 Y-236.3732
G1 Z0.0000 F2500.0
G4 P0.02
G0 X136.4018 Y-237.1913 F15000.0
G1 Z11.9000 F2500.0
G4 P0.02
G1 X136.4797 Y-237.3471 F2200.0
G1 X136.2849 Y-238.1652
G1 Z0.0000 F2500.0
G4 P0.02
G0 X136.2460 Y-237.0744 F15000.0
G1 Z11.9000 F2500.0
G4 P0.02
G1 X135.6226 Y-236.6069 F2200.0
G1 Z0.0000 F2500.0
G4 P0.02
G0 X135.9733 Y-239.1782 F15000.0
G1 Z11.9000 F2500.0
G4 P0.02
G1 X135.0772 Y-239.1002 F2200.0
G1 X134.7656 Y-238.6327
G1 X134.6876 Y-238.3600
G1 X134.7266 Y-238.5548
G1 X133.7916 Y-236.3732
G1 Z0.0000 F2500.0
G4 P0.02
G0 X135.5447 Y-238.0484 F15000.0
G1 Z11.9000 F2500.0
G4 P0.02
G1 X135.5447 Y-238.2042 F2200.0
G1 X134.8435 Y-236.3732
G1 Z0.0000 F2500.0
G4 P0.02
G0 X135.4279 Y-238.3211 F15000.0
G1 Z11.9000 F2500.0
G4 P0.02
G1 X134.7266 Y-238.3211 F2200.0
G1 Z0.0000 F2500.0
G4 P0.02
G0 X133.4410 Y-236.8407 F15000.0
G1 Z11.9000 F2500.0
G4 P0.02
G1 X133.3241 Y-236.7238 F2200.0
G1 X133.2852 Y-236.3732
G1 X133.2852 Y-236.8017
G1 X133.0904 Y-237.2302
G1 X132.3502 Y-236.8407
G1 X132.7008 Y-238.0484
G1 X132.8566 Y-238.3211
G1 Z0.0000 F2500.0
G4 P0.02
G0 X132.2722 Y-236.8017 F15000.0
G1 Z11.9000 F2500.0
G4 P0.02
G1 X132.1943 Y-236.6848 F2200.0
G1 Z0.0000 F2500.0
G4 P0.02
G0 X125.4079 Y-238.3600 F15000.0
G1 Z11.9000 F2500.0
G4 P0.02
G1 X124.3560 Y-235.6330 F2200.0
G1 X123.1094 Y-235.6330
G1 X123.9275 Y-237.9705
G1 Z0.0000 F2500.0
G4 P0.02
G0 X123.4210 Y-238.0873 F15000.0
G1 Z11.9000 F2500.0
G4 P0.02
G1 X123.4210 Y-238.2042 F2200.0
G1 X123.3042 Y-238.3211
G1 X121.8627 Y-236.6069
G1 X121.9796 Y-236.4511
G1 X122.6419 Y-236.4900
G1 X122.8756 Y-236.6459
G1 X123.2652 Y-237.6588
G1 Z0.0000 F2500.0
G4 P0.02
G0 X121.8238 Y-238.0873 F15000.0
G1 Z11.9000 F2500.0
G4 P0.02
G1 X121.8238 Y-238.2042 F2200.0
G1 X121.7069 Y-238.3211
G1 X120.1875 Y-236.4511
G1 X121.2783 Y-236.6459
G1 X121.6679 Y-237.6588
G1 Z0.0000 F2500.0
G4 P0.02
G0 X120.5771 Y-235.5161 F15000.0
G1 Z11.9000 F2500.0
G4 P0.02
G1 X120.9667 Y-235.5550 F2200.0
G1 Z0.0000 F2500.0
G4 P0.02
G0 X120.4992 Y-235.5550 F15000.0
G1 Z11.9000 F2500.0
G4 P0.02
G1 X120.1096 Y-235.5940 F2200.0
G1 X119.9927 Y-235.8667
G1 X120.1486 Y-236.3342
G1 Z0.0000 F2500.0
G4 P0.02
G0 X120.1486 Y-237.6977 F15000.0
G1 Z11.9000 F2500.0
G4 P0.02
G1 X120.3823 Y-238.2432 F2200.0
G1 Z0.0000 F2500.0
G4 P0.02
G0 X120.0706 Y-237.5030 F15000.0
G1 Z11.9000 F2500.0
G4 P0.02
G1 X120.1096 Y-237.6198 F2200.0
G1 X119.6421 Y-236.4900
G1 X118.7461 Y-236.5290
G1 X119.0967 Y-237.8146
G1 Z0.0000 F2500.0
G4 P0.02
G0 X118.8240 Y-238.2821 F15000.0
G1 Z11.9000 F2500.0
G4 P0.02
G1 X118.9019 Y-238.3600 F2200.0
G1 Z0.0000 F2500.0
G4 P0.02
G0 X115.0633 Y-238.5548 F15000.0
G1 Z11.9000 F2500.0
G4 P0.02
G1 X114.9074 Y-238.3600 F2200.0
G1 X114.7126 Y-238.2821
G1 X113.6218 Y-235.5940
G1 X112.9206 Y-235.5940
G1 X112.9595 Y-235.8667
G1 Z0.0000 F2500.0
G4 P0.02
G0 X114.6737 Y-238.3600 F15000.0
G1 Z11.9000 F2500.0
G4 P0.02
G1 X113.6997 Y-238.3600 F2200.0
G1 X113.7776 Y-238.5548
G1 X113.1543 Y-236.4121
G1 Z0.0000 F2500.0
G4 P0.02
G0 X112.9985 Y-237.7757 F15000.0
G1 Z11.9000 F2500.0
G4 P0.02
G1 X112.9985 Y-238.3211 F2200.0
G1 X112.1414 Y-238.2042
G1 X111.6739 Y-236.4121
G1 X112.2972 Y-236.4511
G1 X112.6089 Y-236.6459
G1 X112.9206 Y-237.5809
G1 Z0.0000 F2500.0
G4 P0.02
G0 X111.7908 Y-238.2821 F15000.0
G1 Z11.9000 F2500.0
G4 P0.02
G1 X111.8297 Y-238.3990 F2200.0
G1 X111.1285 Y-236.4900
G1 X110.4272 Y-236.4511
G1 Z0.0000 F2500.0
G4 P0.02
G0 X111.0506 Y-238.2821 F15000.0
G1 Z11.9000 F2500.0
G4 P0.02
G1 X111.0895 Y-238.3990 F2200.0
G1 X110.3493 Y-236.4511
G1 X109.7260 Y-236.5290
G1 X110.3104 Y-238.3990
G1 Z0.0000 F2500.0
G4 P0.02
G0 X109.5701 Y-237.7757 F15000.0
G1 Z11.9000 F2500.0
G4 P0.02
G1 X109.5701 Y-238.3211 F2200.0
G1 X108.7131 Y-238.2042
G1 X108.2456 Y-236.4121
G1 X108.8689 Y-236.4511
G1 X109.1416 Y-236.6069
G1 X109.4922 Y-237.5809
G1 Z0.0000 F2500.0
G4 P0.02
G0 X43.4952 Y-234.0153 F15000.0
G1 Z11.9000 F2500.0
G4 P0.02
G1 X42.8719 Y-233.0803 F2200.0
G1 Z0.0000 F2500.0
G4 P0.02
G0 X42.5991 Y-232.6518 F15000.0
G1 Z11.9000 F2500.0
G4 P0.02
G1 X42.3654 Y-232.3401 F2200.0
G1 Z0.0000 F2500.0
G4 P0.02
G0 X42.0148 Y-231.7947 F15000.0
G1 Z11.9000 F2500.0
G4 P0.02
G1 X41.9369 Y-231.7168 F2200.0
G1 Z0.0000 F2500.0
G4 P0.02
G0 X41.8589 Y-233.5478 F15000.0
G1 Z11.9000 F2500.0
G4 P0.02
G1 X41.8979 Y-233.6647 F2200.0
G1 Z0.0000 F2500.0
G4 P0.02
G0 X41.6642 Y-231.3272 F15000.0
G1 Z11.9000 F2500.0
G4 P0.02
G1 X41.0798 Y-231.3272 F2200.0
G1 X41.3525 Y-232.1453
G1 Z0.0000 F2500.0
G4 P0.02
G0 X41.2746 Y-233.4699 F15000.0
G1 Z11.9000 F2500.0
G4 P0.02
G1 X41.3914 Y-233.9763 F2200.0
G1 X40.4175 Y-233.8595
G1 X39.6773 Y-232.1063
G1 Z0.0000 F2500.0
G4 P0.02
G0 X41.2356 Y-233.3920 F15000.0
G1 Z11.9000 F2500.0
G4 P0.02
G1 X40.8071 Y-232.3011 F2200.0
G1 Z0.0000 F2500.0
G4 P0.02
G0 X40.9629 Y-232.6907 F15000.0
G1 Z11.9000 F2500.0
G4 P0.02
G1 X40.7292 Y-232.1063 F2200.0
G1 Z0.0000 F2500.0
G4 P0.02
G0 X39.8331 Y-233.5868 F15000.0
G1 Z11.9000 F2500.0
G4 P0.02
G1 X40.0279 Y-234.1711 F2200.0
G1 Z0.0000 F2500.0
G4 P0.02
G0 X39.7162 Y-233.3141 F15000.0
G1 Z11.9000 F2500.0
G4 P0.02
G1 X39.7552 Y-233.4309 F2200.0
G1 X39.3267 Y-232.3791
G1 X38.5085 Y-232.1453
G1 Z0.0000 F2500.0
G4 P0.02
G0 X39.0150 Y-233.6647 F15000.0
G1 Z11.9000 F2500.0
G4 P0.02
G1 X39.1708 Y-234.1711 F2200.0
G1 Z0.0000 F2500.0
G4 P0.02
G0 X38.9760 Y-233.5868 F15000.0
G1 Z11.9000 F2500.0
G4 P0.02
G1 X38.4306 Y-232.1453 F2200.0
G1 X37.7294 Y-232.2232
G1 X38.3137 Y-234.1711
G1 Z0.0000 F2500.0
G4 P0.02
G0 X37.7683 Y-233.9763 F15000.0
G1 Z11.9000 F2500.0
G4 P0.02
G1 X37.8852 Y-234.0932 F2200.0
G1 Z0.0000 F2500.0
G4 P0.02
G0 X161.8860 Y-246.2172 F15000.0
G1 Z11.9000 F2500.0
G4 P0.02
G1 X162.1587 Y-247.0353 F2200.0
G1 Z0.0000 F2500.0
G4 P0.02
G0 X161.8470 Y-246.1392 F15000.0
G1 Z11.9000 F2500.0
G4 P0.02
G1 X161.1458 Y-244.3082 F2200.0
G1 X159.8602 Y-244.1913
G1 X160.1329 Y-245.0095
G1 Z0.0000 F2500.0
G4 P0.02
G0 X160.6393 Y-246.4119 F15000.0
G1 Z11.9000 F2500.0
G4 P0.02
G1 X160.6783 Y-246.5288 F2200.0
G1 Z0.0000 F2500.0
G4 P0.02
G0 X160.5614 Y-247.5417 F15000.0
G1 Z11.9000 F2500.0
G4 P0.02
G1 X160.6393 Y-247.7755 F2200.0
G1 X159.5485 Y-245.0095
G1 X158.6135 Y-245.2432
G1 X159.2368 Y-246.8015
G1 X160.2108 Y-246.9184
G1 Z0.0000 F2500.0
G4 P0.02
G0 X158.4187 Y-246.2172 F15000.0
G1 Z11.9000 F2500.0
G4 P0.02
G1 X158.5745 Y-246.8015 F2200.0
G1 X157.6785 Y-246.8405
G1 X157.4837 Y-246.5678
G1 X157.0162 Y-245.2432
G1 X157.1331 Y-245.0095
G1 X157.9902 Y-245.1653
G1 X158.3408 Y-246.0224
G1 Z0.0000 F2500.0
G4 P0.02
G0 X156.8214 Y-246.2172 F15000.0
G1 Z11.9000 F2500.0
G4 P0.02
G1 X156.9383 Y-246.8794 F2200.0
G1 X156.0033 Y-246.7626
G1 X155.4579 Y-245.2822
G1 X155.4969 Y-245.0874
G1 X155.8864 Y-244.9705
G1 X155.5748 Y-245.0095
G1 X155.6527 Y-244.5809
G1 X156.1202 Y-245.0095
G1 X156.3150 Y-245.0095
G1 Z0.0000 F2500.0
G4 P0.02
G0 X156.7435 Y-246.0224 F15000.0
G1 Z11.9000 F2500.0
G4 P0.02
G1 X156.1202 Y-244.3472 F2200.0
G1 Z0.0000 F2500.0
G4 P0.02
G0 X155.8085 Y-244.1524 F15000.0
G1 Z11.9000 F2500.0
G4 P0.02
G1 X155.6137 Y-244.1913 F2200.0
G1 X155.5748 Y-244.5030
G1 Z0.0000 F2500.0
G4 P0.02
G0 X45.3824 Y-251.1569 F15000.0
G1 Z11.9000 F2500.0
G4 P0.02
G1 X44.7590 Y-250.2219 F2200.0
G1 Z0.0000 F2500.0
G4 P0.02
G0 X44.4863 Y-249.7933 F15000.0
G1 Z11.9000 F2500.0
G4 P0.02
G1 X44.2526 Y-249.4817 F2200.0
G1 Z0.0000 F2500.0
G4 P0.02
G0 X43.9019 Y-248.9363 F15000.0
G1 Z11.9000 F2500.0
G4 P0.02
G1 X43.8240 Y-248.8583 F2200.0
G1 Z0.0000 F2500.0
G4 P0.02
G0 X43.7461 Y-250.6894 F15000.0
G1 Z11.9000 F2500.0
G4 P0.02
G1 X43.7851 Y-250.8063 F2200.0
G1 Z0.0000 F2500.0
G4 P0.02
G0 X43.5513 Y-248.4688 F15000.0
G1 Z11.9000 F2500.0
G4 P0.02
G1 X42.9669 Y-248.4688 F2200.0
G1 X43.2397 Y-249.2869
G1 Z0.0000 F2500.0
G4 P0.02
G0 X43.1617 Y-250.6115 F15000.0
G1 Z11.9000 F2500.0
G4 P0.02
G1 X43.2786 Y-251.1179 F2200.0
G1 X42.3047 Y-251.0010
G1 X41.5645 Y-249.2479
G1 Z0.0000 F2500.0
G4 P0.02
G0 X43.1228 Y-250.5335 F15000.0
G1 Z11.9000 F2500.0
G4 P0.02
G1 X42.6942 Y-249.4427 F2200.0
G1 Z0.0000 F2500.0
G4 P0.02
G0 X42.8501 Y-249.8323 F15000.0
G1 Z11.9000 F2500.0
G4 P0.02
G1 X42.6163 Y-249.2479 F2200.0
G1 Z0.0000 F2500.0
G4 P0.02
G0 X41.4476 Y-250.1829 F15000.0
G1 Z11.9000 F2500.0
G4 P0.02
G1 X41.6813 Y-251.1179 F2200.0
G1 X40.7463 Y-251.2348
G1 Z0.0000 F2500.0
G4 P0.02
G0 X41.2917 Y-249.7544 F15000.0
G1 Z11.9000 F2500.0
G4 P0.02
G1 X41.1359 Y-249.4427 F2200.0
G1 X40.0451 Y-249.3258
G1 Z0.0000 F2500.0
G4 P0.02
G0 X40.1620 Y-250.8063 F15000.0
G1 Z11.9000 F2500.0
G4 P0.02
G1 X40.3178 Y-251.3127 F2200.0
G1 Z0.0000 F2500.0
G4 P0.02
G0 X40.1230 Y-250.7283 F15000.0
G1 Z11.9000 F2500.0
G4 P0.02
G1 X39.6165 Y-249.4427 F2200.0
G1 X38.7984 Y-249.2869
G1 Z0.0000 F2500.0
G4 P0.02
G0 X39.3049 Y-250.8063 F15000.0
G1 Z11.9000 F2500.0
G4 P0.02
G1 X39.4607 Y-251.3127 F2200.0
G1 Z0.0000 F2500.0
G4 P0.02
G0 X39.2659 Y-250.7283 F15000.0
G1 Z11.9000 F2500.0
G4 P0.02
G1 X38.7205 Y-249.2869 F2200.0
G1 X38.0193 Y-249.5985
G1 X38.6036 Y-251.3127
G1 X38.5257 Y-250.9621
G1 Z0.0000 F2500.0
G4 P0.02
G0 X160.9174 Y-263.8668 F15000.0
G1 Z11.9000 F2500.0
G4 P0.02
G1 X161.9303 Y-264.0227 F2200.0
G1 Z0.0000 F2500.0
G4 P0.02
G0 X161.4238 Y-262.5033 F15000.0
G1 Z11.9000 F2500.0
G4 P0.02
G1 X160.9953 Y-261.2956 F2200.0
G1 Z0.0000 F2500.0
G4 P0.02
G0 X161.2680 Y-262.7370 F15000.0
G1 Z11.9000 F2500.0
G4 P0.02
G1 X160.4109 Y-262.8149 F2200.0
G1 X160.6447 Y-263.5162
G1 X160.6057 Y-263.3993
G1 Z0.0000 F2500.0
G4 P0.02
G0 X160.1772 Y-263.6720 F15000.0
G1 Z11.9000 F2500.0
G4 P0.02
G1 X160.3330 Y-264.1785 F2200.0
G1 Z0.0000 F2500.0
G4 P0.02
G0 X160.2941 Y-262.5812 F15000.0
G1 Z11.9000 F2500.0
G4 P0.02
G1 X159.7486 Y-261.2956 F2200.0
G1 Z0.0000 F2500.0
G4 P0.02
G0 X160.0993 Y-263.4772 F15000.0
G1 Z11.9000 F2500.0
G4 P0.02
G1 X160.1382 Y-263.5941 F2200.0
G1 X159.6318 Y-262.3085
G1 X158.8137 Y-262.1527
G1 Z0.0000 F2500.0
G4 P0.02
G0 X159.3201 Y-263.6720 F15000.0
G1 Z11.9000 F2500.0
G4 P0.02
G1 X159.4759 Y-264.1785 F2200.0
G1 Z0.0000 F2500.0
G4 P0.02
G0 X159.2811 Y-263.5941 F15000.0
G1 Z11.9000 F2500.0
G4 P0.02
G1 X158.7357 Y-262.1527 F2200.0
G1 X158.0345 Y-262.4643
G1 X158.6189 Y-264.1785
G1 X158.5409 Y-263.8279
G1 Z0.0000 F2500.0
G4 P0.02
G0 X157.9176 Y-263.7889 F15000.0
G1 Z11.9000 F2500.0
G4 P0.02
G1 X157.8787 Y-264.0227 F2200.0
G1 X157.8787 Y-263.7110
G1 X157.1774 Y-261.6462
G1 X157.2943 Y-262.1527
G1 X156.5151 Y-262.1527
G1 X156.7489 Y-261.8410
G1 X156.5151 Y-261.4514
G1 X156.5930 Y-261.2956
G1 X157.0995 Y-261.4904
G1 Z0.0000 F2500.0
G4 P0.02
G0 X157.0216 Y-263.9447 F15000.0
G1 Z11.9000 F2500.0
G4 P0.02
G1 X157.8007 Y-264.0616 F2200.0
G1 Z0.0000 F2500.0
G4 P0.02
G0 X156.6710 Y-263.0877 F15000.0
G1 Z11.9000 F2500.0
G4 P0.02
G1 X156.9826 Y-263.9058 F2200.0
G1 Z0.0000 F2500.0
G4 P0.02
G0 X156.4372 Y-262.2306 F15000.0
G1 Z11.9000 F2500.0
G4 P0.02
G1 X156.3982 Y-262.3085 F2200.0
G1 X156.5930 Y-262.8929
G1 Z0.0000 F2500.0
G4 P0.02
G0 X13.5118 Y-243.1249 F15000.0
G1 Z11.9000 F2500.0
G4 P0.02
G1 X12.2652 Y-239.5017 F2200.0
G1 X12.5379 Y-239.5797
G1 Z0.0000 F2500.0
G4 P0.02
G0 X13.2002 Y-240.0082 F15000.0
G1 Z11.9000 F2500.0
G4 P0.02
G1 X13.3560 Y-240.1640 F2200.0
G1 Z0.0000 F2500.0
G4 P0.02
G0 X12.3041 Y-242.0730 F15000.0
G1 Z11.9000 F2500.0
G4 P0.02
G1 X12.4210 Y-242.1899 F2200.0
G1 Z0.0000 F2500.0
G4 P0.02
G0 X12.1873 Y-239.4628 F15000.0
G1 Z11.9000 F2500.0
G4 P0.02
G1 X11.9925 Y-239.2290 F2200.0
G1 Z0.0000 F2500.0
G4 P0.02
G0 X11.6808 Y-240.5147 F15000.0
G1 Z11.9000 F2500.0
G4 P0.02
G1 X11.8756 Y-240.6315 F2200.0
G1 Z0.0000 F2500.0
G4 P0.02
G0 X88.7275 Y-255.8834 F15000.0
G1 Z11.9000 F2500.0
G4 P0.02
G1 X90.0131 Y-260.8310 F2200.0
G1 Z0.0000 F2500.0
G4 P0.02
G0 X89.8573 Y-256.7015 F15000.0
G1 Z11.9000 F2500.0
G4 P0.02
G1 X89.0781 Y-255.9613 F2200.0
G1 X88.7665 Y-255.8444
G1 X88.4548 Y-255.3769
G1 Z0.0000 F2500.0
G4 P0.02
G0 X88.5327 Y-258.2988 F15000.0
G1 Z11.9000 F2500.0
G4 P0.02
G1 X89.0392 Y-260.4025 F2200.0
G1 Z0.0000 F2500.0
G4 P0.02
G0 X88.7665 Y-260.8700 F15000.0
G1 Z11.9000 F2500.0
G4 P0.02
G1 X87.5977 Y-260.7921 F2200.0
G1 X87.3640 Y-260.5973
G1 X87.5198 Y-260.7531
G1 X87.0913 Y-260.1298
G1 X86.0784 Y-256.6236
G1 X86.0784 Y-255.7275
G1 X86.3900 Y-255.4159
G1 X87.2471 Y-255.4938
G1 X87.6367 Y-255.8054
G1 X87.9094 Y-256.1561
G1 X88.3769 Y-257.7923
G1 X88.3379 Y-257.5975
G1 Z0.0000 F2500.0
G4 P0.02
G0 X29.9798 Y-242.9992 F15000.0
G1 Z11.9000 F2500.0
G4 P0.02
G1 X30.1356 Y-242.4538 F2200.0
G1 X29.0058 Y-239.6488
G1 X28.5773 Y-239.2981
G1 X27.3696 Y-239.3761
G1 X27.3306 Y-239.8825
G1 Z0.0000 F2500.0
G4 P0.02
G0 X29.8629 Y-243.0771 F15000.0
G1 Z11.9000 F2500.0
G4 P0.02
G1 X28.9668 Y-243.0771 F2200.0
G1 X28.6552 Y-242.9602
G1 X28.3435 Y-242.6096
G1 X27.8760 Y-241.4019
G1 Z0.0000 F2500.0
G4 P0.02
G0 X28.1098 Y-243.7394 F15000.0
G1 Z11.9000 F2500.0
G4 P0.02
G1 X28.2266 Y-243.8173 F2200.0
G1 X28.0708 Y-243.7004
G1 X27.8760 Y-243.3498
G1 Z0.0000 F2500.0
G4 P0.02
G0 X27.6812 Y-240.8565 F15000.0
G1 Z11.9000 F2500.0
G4 P0.02
G1 X27.6423 Y-240.7396 F2200.0
G1 Z0.0000 F2500.0
G4 P0.02
G0 X26.5428 Y-242.2590 F15000.0
G1 Z11.9000 F2500.0
G4 P0.02
G1 X26.4648 Y-242.9992 F2200.0
G1 X26.3480 Y-243.0771
G1 X25.3740 Y-243.0771
G1 X25.1403 Y-242.9213
G1 X25.2182 Y-242.9992
G1 X24.8676 Y-242.6875
G1 X24.6728 Y-242.2590
G1 X24.4780 Y-241.3629
G1 X24.7117 Y-240.9734
G1 X25.5688 Y-240.9344
G1 X25.6857 Y-240.6617
G1 X25.4909 Y-239.8436
G1 Z0.0000 F2500.0
G4 P0.02
G0 X26.5038 Y-242.1811 F15000.0
G1 Z11.9000 F2500.0
G4 P0.02
G1 X26.2700 Y-241.6356 F2200.0
G1 X25.9584 Y-241.2850
G1 Z0.0000 F2500.0
G4 P0.02
G0 X24.7507 Y-239.2202 F15000.0
G1 Z11.9000 F2500.0
G4 P0.02
G1 X24.1663 Y-239.2592 F2200.0
G1 X23.9326 Y-239.5319
G1 X24.2053 Y-240.4669
G1 X24.5948 Y-240.8565
G1 Z0.0000 F2500.0
G4 P0.02
G0 X20.5584 Y-268.0851 F15000.0
G1 Z11.9000 F2500.0
G4 P0.02
G1 X20.6753 Y-268.2409 F2200.0
G1 X20.0519 Y-267.4618
G1 X19.9740 Y-267.2280
G1 X20.0130 Y-267.5007
G1 X19.2728 Y-267.5397
G1 X19.3117 Y-268.3578
G1 X19.3117 Y-268.2409
G1 Z0.0000 F2500.0
G4 P0.02
G0 X19.9350 Y-267.1501 F15000.0
G1 Z11.9000 F2500.0
G4 P0.02
G1 X19.5844 Y-266.6047 F2200.0
G1 Z0.0000 F2500.0
G4 P0.02
G0 X19.1948 Y-265.9813 F15000.0
G1 Z11.9000 F2500.0
G4 P0.02
G1 X19.0780 Y-265.9034 F2200.0
G1 X19.0001 Y-265.9424
G1 X19.1559 Y-267.3838
G1 Z0.0000 F2500.0
G4 P0.02
G0 X19.0390 Y-265.8645 F15000.0
G1 Z11.9000 F2500.0
G4 P0.02
G1 X18.9221 Y-265.5918 F2200.0
G1 Z0.0000 F2500.0
G4 P0.02
G0 X18.7273 Y-268.3188 F15000.0
G1 Z11.9000 F2500.0
G4 P0.02
G1 X17.5976 Y-268.0461 F2200.0
G1 X17.3249 Y-267.4618
G1 X17.2469 Y-266.6436
G1 X17.4028 Y-266.8774
G1 X17.3249 Y-267.0332
G1 X17.4417 Y-266.8384
G1 X17.8313 Y-266.8384
G1 Z0.0000 F2500.0
G4 P0.02
G0 X17.7924 Y-265.5528 F15000.0
G1 Z11.9000 F2500.0
G4 P0.02
G1 X17.0132 Y-265.6697 F2200.0
G1 X17.0911 Y-266.4488
G1 Z0.0000 F2500.0
G4 P0.02
G0 X169.0788 Y-119.0691 F15000.0
G1 Z11.9000 F2500.0
G4 P0.02
G1 X169.0788 Y-106.2250 F2200.0
G1 Z0.0000 F2500.0
G4 P0.02
G0 X169.0788 Y-119.0691 F15000.0
G1 Z11.9000 F2500.0
G4 P0.02
G1 X180.0000 Y-119.0691 F2200.0
G1 Z0.0000 F2500.0
G4 P0.02
G0 X169.0788 Y-119.0691 F15000.0
G1 Z11.9000 F2500.0
G4 P0.02
G1 X136.4967 Y-119.0691 F12000.0
G1 X136.4967 Y-106.2250 F2200.0
G1 X169.0788 Y-106.2250 F12000.0
G1 X180.0000 Y-106.2250 F2200.0
G1 Z0.0000 F2500.0
G4 P0.02
G0 X149.3409 Y-106.2250 F15000.0
G1 Z11.9000 F2500.0
G4 P0.02
G1 X149.3409 Y-59.0570 F12000.0
G1 X152.4612 Y-59.0570 F2200.0
G1 Z0.0000 F2500.0
G4 P0.02
G0 X169.0788 Y-59.0570 F15000.0
G1 Z11.9000 F2500.0
G4 P0.02
G1 X169.0788 Y-80.5366 F12000.0
G1 Z0.0000 F2500.0
G4 P0.02
G0 X180.0000 Y-80.5366 F15000.0
G1 Z11.9000 F2500.0
G4 P0.02
G1 X152.4612 Y-80.5366 F12000.0
G1 X152.4612 Y-59.0570 F12000.0
G1 Z0.0000 F2500.0
G4 P0.02
G0 X169.0788 Y-59.0570 F15000.0
G1 Z11.9000 F2500.0
G4 P0.02
G1 X180.0000 Y-59.0570 F2200.0
G1 Z0.0000 F2500.0
G4 P0.02
G0 X169.0788 Y-59.0570 F15000.0
G1 Z11.9000 F2500.0
G4 P0.02
G1 X152.4612 Y-59.0570 F12000.0
G1 Z0.0000 F2500.0
G4 P0.02
G0 X169.0788 Y-57.3880 F15000.0
G1 Z11.9000 F2500.0
G4 P0.02
G1 X169.0788 Y-66.9667 F2200.0
G1 Z0.0000 F2500.0
G4 P0.02
G0 X169.0788 Y-81.6976 F15000.0
G1 Z11.9000 F2500.0
G4 P0.02
G1 X169.0788 Y-83.0038 F2200.0
G1 Z0.0000 F2500.0
G4 P0.02
G0 X169.0788 Y-84.3100 F15000.0
G1 Z11.9000 F2500.0
G4 P0.02
G1 X169.0788 Y-93.8887 F2200.0
G1 Z0.0000 F2500.0
G4 P0.02
G0 X169.0788 Y-95.1949 F15000.0
G1 Z11.9000 F2500.0
G4 P0.02
G1 X169.0788 Y-96.4285 F2200.0
G1 Z0.0000 F2500.0
G4 P0.02
G0 X169.0788 Y-97.7347 F15000.0
G1 Z11.9000 F2500.0
G4 P0.02
G1 X169.0788 Y-107.3134 F2200.0
G1 Z0.0000 F2500.0
G4 P0.02
G0 X169.0788 Y-111.1594 F15000.0
G1 Z11.9000 F2500.0
G4 P0.02
G1 X169.0788 Y-120.8107 F2200.0
G1 Z0.0000 F2500.0
G4 P0.02
G0 X34.9043 Y-49.9137 F15000.0
G1 Z11.9000 F2500.0
G4 P0.02
G1 X34.9043 Y-21.9758 F12000.0
G1 Z0.0000 F2500.0
G4 P0.02
G0 X34.9043 Y-49.9137 F15000.0
G1 Z11.9000 F2500.0
G4 P0.02
G1 X62.9873 Y-53.4695 F12000.0
G1 Z0.0000 F2500.0
G4 P0.02
G0 X34.9043 Y-49.9137 F15000.0
G1 Z11.9000 F2500.0
G4 P0.02
G1 X13.7150 Y-68.6358 F12000.0
G1 Z0.0000 F2500.0
G4 P0.02
G0 X6.8938 Y-49.9137 F15000.0
G1 Z11.9000 F2500.0
G4 P0.02
G1 X34.9043 Y-49.9137 F12000.0
G1 X62.9147 Y-49.9137 F12000.0
G1 Z0.0000 F2500.0
G4 P0.02
G0 X34.9043 Y-32.7881 F15000.0
G1 Z11.9000 F2500.0
G4 P0.02
G1 X28.4459 Y-55.5739 F12000.0
G1 X51.8847 Y-52.0907 F12000.0
G1 X34.9043 Y-32.7881 F12000.0
G1 Z0.0000 F2500.0
G4 P0.02
G0 X33.4529 Y-177.9202 F15000.0
G1 Z11.9000 F2500.0
G4 P0.02
G1 X56.1661 Y-183.9432 F12000.0
G1 Z0.0000 F2500.0
G4 P0.02
G0 X46.8051 Y-166.0919 F15000.0
G1 Z11.9000 F2500.0
G4 P0.02
G1 X33.4529 Y-177.9202 F2200.0
G1 Z0.0000 F2500.0
G4 P0.02
G0 X86.2084 Y-165.9468 F15000.0
G1 Z11.9000 F2500.0
G4 P0.02
G1 X87.9500 Y-165.9468 F2200.0
G1 Z0.0000 F2500.0
G4 P0.02
G0 X33.4529 Y-177.9202 F15000.0
G1 Z11.9000 F2500.0
G4 P0.02
G1 X33.4529 Y-190.0387 F2200.0
G1 Z0.0000 F2500.0
G4 P0.02
G0 X87.9500 Y-165.9468 F15000.0
G1 Z11.9000 F2500.0
G4 P0.02
G1 X98.5446 Y-178.9361 F2200.0
G1 Z0.0000 F2500.0
G4 P0.02
G0 X56.1661 Y-196.0617 F15000.0
G1 Z11.9000 F2500.0
G4 P0.02
G1 X33.4529 Y-190.0387 F12000.0
G1 Z0.0000 F2500.0
G4 P0.02
G0 X56.3838 Y-136.0496 F15000.0
G1 Z11.9000 F2500.0
G4 P0.02
G1 X59.5041 Y-136.5575 F2200.0
G1 X64.3661 Y-132.2762
G1 X60.8829 Y-129.7363
G1 Z0.0000 F2500.0
G4 P0.02
G0 X56.3838 Y-136.0496 F15000.0
G1 Z11.9000 F2500.0
G4 P0.02
G1 X53.8440 Y-135.4691 F2200.0
G1 X51.8121 Y-134.8160
G1 X50.1431 Y-134.0903
G1 X48.8369 Y-133.3646
G1 X47.8936 Y-132.5664
G1 X47.2405 Y-131.7682
G1 X46.8776 Y-130.9700 F2200.0
G1 X46.8051 Y-130.4620
G1 X46.9502 Y-129.6638
G1 X47.3856 Y-128.8656
G1 X48.1113 Y-128.0673
G1 X49.1272 Y-127.3417
G1 X50.4334 Y-126.6160
G1 X52.1024 Y-125.9629
G1 X54.1342 Y-125.3098
G1 X59.2864 Y-124.2939 F2200.0
G1 X62.6245 Y-124.0036
G1 X66.4705 Y-123.8585 F2200.0
G1 X70.6067 Y-124.0036
G1 X74.2350 Y-124.3665
G1 X77.2102 Y-124.9470 F2200.0
G1 X79.6775 Y-125.5275
G1 X81.6368 Y-126.1806
G1 X82.2899 Y-126.4709
G1 Z0.0000 F2500.0
G4 P0.02
G0 X59.5041 Y-181.0405 F15000.0
G1 Z11.9000 F2500.0
G4 P0.02
G1 X56.3838 Y-180.5326 F2200.0
G1 X53.8440 Y-179.8795
G1 X51.8121 Y-179.2264
G1 X50.1431 Y-178.5007
G1 X48.8369 Y-177.7750
G1 X47.8936 Y-177.0494 F2200.0
G1 X47.2405 Y-176.2512
G1 X46.8776 Y-175.4529
G1 X46.8051 Y-174.8724
G1 Z0.0000 F2500.0
G4 P0.02
G0 X86.0633 Y-175.6706 F15000.0
G1 Z11.9000 F2500.0
G4 P0.02
G1 X86.2084 Y-174.8724 F2200.0
G1 Z0.0000 F2500.0
G4 P0.02
G0 X86.0633 Y-175.6706 F15000.0
G1 Z11.9000 F2500.0
G4 P0.02
G1 X85.6279 Y-176.4689 F2200.0
G1 X84.9748 Y-177.1945
G1 Z0.0000 F2500.0
G4 P0.02
G0 X86.2084 Y-174.8724 F15000.0
G1 Z11.9000 F2500.0
G4 P0.02
G1 X86.2084 Y-150.6354 F12000.0
G1 Z0.0000 F2500.0
G4 P0.02
G0 X46.8051 Y-130.4620 F15000.0
G1 Z11.9000 F2500.0
G4 P0.02
G1 X46.8051 Y-174.8724 F12000.0
G1 Z0.0000 F2500.0
G4 P0.02
G0 X82.2899 Y-146.7168 F15000.0
G1 Z11.9000 F2500.0
G4 P0.02
G1 X82.2899 Y-126.4709 F12000.0
G1 Z0.0000 F2500.0
G4 P0.02
G0 X82.2899 Y-146.7168 F15000.0
G1 Z11.9000 F2500.0
G4 P0.02
G1 X83.7412 Y-147.4425 F2200.0
G1 X84.8297 Y-148.1681
G1 X85.5553 Y-148.9663
G1 X86.0633 Y-149.7646
G1 X86.2084 Y-150.6354
G1 X86.0633 Y-151.4336
G1 X85.6279 Y-152.2318
G1 X84.9748 Y-152.9575
G1 Z0.0000 F2500.0
G4 P0.02
G0 X82.2899 Y-146.7168 F15000.0
G1 Z11.9000 F2500.0
G4 P0.02
G1 X64.3661 Y-149.4017 F12000.0
G1 Z0.0000 F2500.0
G4 P0.02
G0 X60.8829 Y-129.7363 F15000.0
G1 Z11.9000 F2500.0
G4 P0.02
G1 X82.2899 Y-126.4709 F12000.0
G1 Z0.0000 F2500.0
G4 P0.02
G0 X59.5041 Y-136.5575 F15000.0
G1 Z11.9000 F2500.0
G4 P0.02
G1 X59.5041 Y-181.0405 F12000.0
G1 Z0.0000 F2500.0
G4 P0.02
G0 X66.4705 Y-150.6354 F15000.0
G1 Z11.9000 F2500.0
G4 P0.02
G1 X84.9748 Y-152.9575 F12000.0
G1 Z0.0000 F2500.0
G4 P0.02
G0 X66.4705 Y-186.9909 F15000.0
G1 Z11.9000 F2500.0
G4 P0.02
G1 X98.5446 Y-191.0546 F12000.0
G1 Z0.0000 F2500.0
G4 P0.02
G0 X66.4705 Y-186.9909 F15000.0
G1 Z11.9000 F2500.0
G4 P0.02
G1 X56.1661 Y-196.0617 F2200.0
G1 Z0.0000 F2500.0
G4 P0.02
G0 X64.3661 Y-152.5221 F15000.0
G1 Z11.9000 F2500.0
G4 P0.02
G1 X64.3661 Y-132.2762 F12000.0
G1 Z0.0000 F2500.0
G4 P0.02
G0 X98.5446 Y-178.9361 F15000.0
G1 Z11.9000 F2500.0
G4 P0.02
G1 X98.5446 Y-191.0546 F2200.0
G1 Z0.0000 F2500.0
G4 P0.02
G0 X56.1661 Y-196.0617 F15000.0
G1 Z11.9000 F2500.0
G4 P0.02
G1 X56.1661 Y-183.9432 F2200.0
G1 Z0.0000 F2500.0
G4 P0.02
G0 X64.3661 Y-152.5221 F15000.0
G1 Z11.9000 F2500.0
G4 P0.02
G1 X66.4705 Y-150.6354 F2200.0
G1 Z0.0000 F2500.0
G4 P0.02
G0 X84.9748 Y-177.1945 F15000.0
G1 Z11.9000 F2500.0
G4 P0.02
G1 X98.5446 Y-178.9361 F2200.0
G1 Z0.0000 F2500.0
G4 P0.02
G0 X66.4705 Y-186.9909 F15000.0
G1 Z11.9000 F2500.0
G4 P0.02
G1 X66.4705 Y-150.6354 F12000.0
G1 Z0.0000 F2500.0
G4 P0.02
G0 X59.5041 Y-181.0405 F15000.0
G1 Z11.9000 F2500.0
G4 P0.02
G1 X56.1661 Y-183.9432 F2200.0
G1 Z0.0000 F2500.0
G4 P0.02
G0 X84.9748 Y-177.1945 F15000.0
G1 Z11.9000 F2500.0
G4 P0.02
G1 X84.9748 Y-152.9575 F12000.0
G1 Z0.0000 F2500.0
G4 P0.02
G0 X66.4705 Y-138.2266 F15000.0
G1 Z11.9000 F2500.0
G4 P0.02
G1 X66.4705 Y-128.7204 F2200.0
G1 Z0.0000 F2500.0
G4 P0.02
G0 X66.4705 Y-139.5328 F15000.0
G1 Z11.9000 F2500.0
G4 P0.02
G1 X66.4705 Y-140.8389 F2200.0
G1 Z0.0000 F2500.0
G4 P0.02
G0 X66.4705 Y-142.0726 F15000.0
G1 Z11.9000 F2500.0
G4 P0.02
G1 X66.4705 Y-151.5787 F2200.0
G1 Z0.0000 F2500.0
G4 P0.02
G0 X66.4705 Y-182.2016 F15000.0
G1 Z11.9000 F2500.0
G4 P0.02
G1 X66.4705 Y-191.7077 F2200.0
G1 Z0.0000 F2500.0
G4 P0.02
G0 X127.3534 Y-63.3384 F15000.0
G1 Z11.9000 F2500.0
G4 P0.02
G1 X127.8613 Y-59.0570 F2200.0
G1 X128.4418 Y-63.3384
G1 X127.8613 Y-62.9030
G1 Z0.0000 F2500.0
G4 P0.02
G0 X127.6073 Y-60.7758 F15000.0
G1 Z11.9000 F2500.0
G4 P0.02
G1 X127.6073 Y-61.5471 F2200.0
G1 Z0.0000 F2500.0
G4 P0.02
G0 X128.1153 Y-61.8011 F15000.0
G1 Z11.9000 F2500.0
G4 P0.02
G1 X128.1153 Y-61.0298 F2200.0
G1 Z0.0000 F2500.0
G4 P0.02
G0 X128.4418 Y-101.9436 F15000.0
G1 Z11.9000 F2500.0
G4 P0.02
G1 X127.8613 Y-106.2250 F2200.0
G1 X127.3534 Y-101.9436
G1 X127.8613 Y-102.3790
G1 Z0.0000 F2500.0
G4 P0.02
G0 X128.1153 Y-104.1797 F15000.0
G1 Z11.9000 F2500.0
G4 P0.02
G1 X128.1153 Y-103.4083 F2200.0
G1 Z0.0000 F2500.0
G4 P0.02
G0 X127.6073 Y-103.6623 F15000.0
G1 Z11.9000 F2500.0
G4 P0.02
G1 X127.6073 Y-104.4337 F2200.0
G1 Z0.0000 F2500.0
G4 P0.02
G0 X127.8613 Y-106.2250 F15000.0
G1 Z11.9000 F2500.0
G4 P0.02
G1 X127.8613 Y-59.0570 F12000.0
G1 Z0.0000 F2500.0
G4 P0.02
G0 X126.1923 Y-106.2250 F15000.0
G1 Z11.9000 F2500.0
G4 P0.02
G1 X149.3409 Y-106.2250 F12000.0
G1 Z0.0000 F2500.0
G4 P0.02
G0 X118.7906 Y-63.3384 F15000.0
G1 Z11.9000 F2500.0
G4 P0.02
G1 X119.2985 Y-59.0570 F2200.0
G1 X119.8791 Y-63.3384
G1 X119.2985 Y-62.9030
G1 Z0.0000 F2500.0
G4 P0.02
G0 X119.0445 Y-60.7758 F15000.0
G1 Z11.9000 F2500.0
G4 P0.02
G1 X119.0445 Y-61.5471 F2200.0
G1 Z0.0000 F2500.0
G4 P0.02
G0 X119.5525 Y-61.8011 F15000.0
G1 Z11.9000 F2500.0
G4 P0.02
G1 X119.5525 Y-61.0298 F2200.0
G1 Z0.0000 F2500.0
G4 P0.02
G0 X119.8791 Y-114.7877 F15000.0
G1 Z11.9000 F2500.0
G4 P0.02
G1 X119.2985 Y-119.0691 F2200.0
G1 X118.7906 Y-114.7877
G1 X119.2985 Y-115.2231
G1 Z0.0000 F2500.0
G4 P0.02
G0 X119.5525 Y-117.0239 F15000.0
G1 Z11.9000 F2500.0
G4 P0.02
G1 X119.5525 Y-116.2525 F2200.0
G1 Z0.0000 F2500.0
G4 P0.02
G0 X119.0445 Y-116.5065 F15000.0
G1 Z11.9000 F2500.0
G4 P0.02
G1 X119.0445 Y-117.2778 F2200.0
G1 Z0.0000 F2500.0
G4 P0.02
G0 X119.2985 Y-119.0691 F15000.0
G1 Z11.9000 F2500.0
G4 P0.02
G1 X119.2985 Y-59.0570 F12000.0
G1 Z0.0000 F2500.0
G4 P0.02
G0 X117.6295 Y-59.0570 F15000.0
G1 Z11.9000 F2500.0
G4 P0.02
G1 X149.3409 Y-59.0570 F12000.0
G1 Z0.0000 F2500.0
G4 P0.02
G0 X136.4967 Y-119.0691 F15000.0
G1 Z11.9000 F2500.0
G4 P0.02
G1 X117.6295 Y-119.0691 F12000.0
G1 Z0.0000 F2500.0
G4 P0.02
G0 X73.3207 Y-42.1856 F15000.0
G1 Z11.9000 F2500.0
G4 P0.02
G1 X73.2428 Y-42.0688 F2200.0
G1 Z0.0000 F2500.0
G4 P0.02
G0 X72.9701 Y-38.6405 F15000.0
G1 Z11.9000 F2500.0
G4 P0.02
G1 X71.1001 Y-38.3288 F2200.0
G1 X71.2560 Y-38.7184
G1 X72.3468 Y-40.5494
G1 X72.2689 Y-40.4325
G1 Z0.0000 F2500.0
G4 P0.02
G0 X64.3770 Y-38.8073 F15000.0
G1 Z11.9000 F2500.0
G4 P0.02
G1 X64.0264 Y-38.1450 F2200.0
G1 Z0.0000 F2500.0
G4 P0.02
G0 X56.8918 Y-45.7049 F15000.0
G1 Z11.9000 F2500.0
G4 P0.02
G1 X57.8351 Y-49.9137 F2200.0
G1 X57.6900 Y-52.5261
G1 X57.6174 Y-52.8164
G1 Z0.0000 F2500.0
G4 P0.02
G0 X57.4723 Y-46.0677 F15000.0
G1 Z11.9000 F2500.0
G4 P0.02
G1 X56.8918 Y-45.7049 F2200.0
G1 Z0.0000 F2500.0
G4 P0.02
G0 X57.4723 Y-46.0677 F15000.0
G1 Z11.9000 F2500.0
G4 P0.02
G1 X57.9802 Y-45.6323 F2200.0
G1 X57.8351 Y-49.9137
G1 X57.3272 Y-43.9633
G1 Z0.0000 F2500.0
G4 P0.02
G0 X57.3272 Y-47.2422 F15000.0
G1 Z11.9000 F2500.0
G4 P0.02
G1 X57.3272 Y-48.0136 F2200.0
G1 X57.6900 Y-48.1224
G1 X57.6900 Y-47.3511
G1 Z0.0000 F2500.0
G4 P0.02
G0 X57.6174 Y-52.8164 F15000.0
G1 Z11.9000 F2500.0
G4 P0.02
G1 X56.1661 Y-56.8801 F2200.0
G1 Z0.0000 F2500.0
G4 P0.02
G0 X57.6174 Y-52.8164
G1 Z11.9000 F2500.0
G4 P0.02
G1 X57.2546 Y-57.0978
G1 X56.8192 Y-56.5898
G1 Z0.0000 F2500.0
G4 P0.02
G0 X57.6174 Y-52.8164 F15000.0
G1 Z11.9000 F2500.0
G4 P0.02
G1 X56.3838 Y-58.6942 F2200.0
G1 Z0.0000 F2500.0
G4 P0.02
G0 X57.1820 Y-55.4516 F15000.0
G1 Z11.9000 F2500.0
G4 P0.02
G1 X57.1820 Y-54.6802 F2200.0
G1 Z0.0000 F2500.0
G4 P0.02
G0 X56.8555 Y-54.4988 F15000.0
G1 Z11.9000 F2500.0
G4 P0.02
G1 X56.8555 Y-55.2702 F2200.0
G1 Z0.0000 F2500.0
G4 P0.02
G0 X57.7625 Y-51.3650 F15000.0
G1 Z11.9000 F2500.0
G4 P0.02
G1 X61.8988 Y-44.6164 F2200.0
G1 X76.4846 Y-44.6164 F12000.0
G1 Z0.0000 F2500.0
G4 P0.02
G0 X20.9062 Y-59.6611 F15000.0
G1 Z11.9000 F2500.0
G4 P0.02
G1 X20.3218 Y-60.3623 F2200.0
G1 Z0.0000 F2500.0
G4 P0.02
G0 X19.6206 Y-61.2194 F15000.0
G1 Z11.9000 F2500.0
G4 P0.02
G1 X19.0752 Y-61.8817 F2200.0
G1 X18.6077 Y-62.1933
G1 X18.2570 Y-61.4142
G1 X18.4908 Y-60.9467
G1 X18.2181 Y-61.1025
G1 X18.2181 Y-61.3363
G1 X18.2181 Y-61.1415
G1 X18.1791 Y-61.3752
G1 X18.0233 Y-61.4142
G1 X18.0233 Y-60.5181
G1 Z0.0000 F2500.0
G4 P0.02
G0 X18.7245 Y-60.7519 F15000.0
G1 Z11.9000 F2500.0
G4 P0.02
G1 X18.9193 Y-60.5571 F2200.0
G1 Z0.0000 F2500.0
G4 P0.02
G0 X17.9454 Y-61.4531 F15000.0
G1 Z11.9000 F2500.0
G4 P0.02
G1 X17.4779 Y-61.8817 F2200.0
G1 Z0.0000 F2500.0
G4 P0.02
G0 X19.6446 Y-57.2722 F15000.0
G1 Z11.9000 F2500.0
G4 P0.02
G1 X19.7225 Y-57.1163 F2200.0
G1 X19.4498 Y-58.4409
G1 Z0.0000 F2500.0
G4 P0.02
G0 X19.2161 Y-57.5059 F15000.0
G1 Z11.9000 F2500.0
G4 P0.02
G1 X19.5278 Y-57.3111 F2200.0
G1 Z0.0000 F2500.0
G4 P0.02
G0 X19.0603 Y-57.6228 F15000.0
G1 Z11.9000 F2500.0
G4 P0.02
G1 X16.7617 Y-59.6097 F2200.0
G1 X16.6838 Y-59.7655
G1 Z0.0000 F2500.0
G4 P0.02
G0 X19.3927 Y-56.2390 F15000.0
G1 Z11.9000 F2500.0
G4 P0.02
G1 X19.4316 Y-55.7715 F2200.0
G1 X19.2758 Y-55.6157
G1 X18.8862 Y-55.6936
G1 X18.6525 Y-56.3559
G1 X18.8473 Y-56.6286
G1 X19.2369 Y-56.5117
G1 Z0.0000 F2500.0
G4 P0.02
G0 X18.6732 Y-54.3550 F15000.0
G1 Z11.9000 F2500.0
G4 P0.02
G1 X18.4785 Y-53.4589 F2200.0
G1 X18.0499 Y-53.2252
G1 X17.5435 Y-53.4589
G1 X16.6474 Y-55.2900
G1 Z0.0000 F2500.0
G4 P0.02
G0 X18.5953 Y-54.5887 F15000.0
G1 Z11.9000 F2500.0
G4 P0.02
G1 X18.4005 Y-54.9783 F2200.0
G1 Z0.0000 F2500.0
G4 P0.02
G0 X16.3358 Y-55.9522 F15000.0
G1 Z11.9000 F2500.0
G4 P0.02
G1 X15.6735 Y-57.3547 F2200.0
G1 Z0.0000 F2500.0
G4 P0.02
G0 X15.5176 Y-56.6924 F15000.0
G1 Z11.9000 F2500.0
G4 P0.02
G1 X15.1281 Y-55.5627 F2200.0
G1 Z0.0000 F2500.0
G4 P0.02
G0 X17.9184 Y-52.1618 F15000.0
G1 Z11.9000 F2500.0
G4 P0.02
G1 X17.5288 Y-50.7983 F2200.0
G1 Z0.0000 F2500.0
G4 P0.02
G0 X17.8015 Y-52.2397 F15000.0
G1 Z11.9000 F2500.0
G4 P0.02
G1 X16.5548 Y-53.2137 F2200.0
G1 X16.4769 Y-53.4474
G1 X16.1263 Y-52.4345
G1 X15.5809 Y-52.3566
G1 Z0.0000 F2500.0
G4 P0.02
G0 X15.2692 Y-52.5903 F15000.0
G1 Z11.9000 F2500.0
G4 P0.02
G1 X14.6069 Y-53.3305 F2200.0
G1 X14.4901 Y-53.9539
G1 X14.6849 Y-54.4603
G1 X14.7628 Y-54.9278
G1 Z0.0000 F2500.0
G4 P0.02
G0 X16.8852 Y-50.3253 F15000.0
G1 Z11.9000 F2500.0
G4 P0.02
G1 X17.1189 Y-50.0525 F2200.0
G1 Z0.0000 F2500.0
G4 P0.02
G0 X16.8462 Y-50.4032 F15000.0
G1 Z11.9000 F2500.0
G4 P0.02
G1 X16.4956 Y-50.9096 F2200.0
G1 Z0.0000 F2500.0
G4 P0.02
G0 X15.6017 Y-61.3066 F15000.0
G1 Z11.9000 F2500.0
G4 P0.02
G1 X17.7061 Y-65.0800 F2200.0
G1 X14.7309 Y-61.9597
G1 X15.4566 Y-61.9597
G1 Z0.0000 F2500.0
G4 P0.02
G0 X16.4725 Y-63.4339 F15000.0
G1 Z11.9000 F2500.0
G4 P0.02
G1 X16.4725 Y-62.6625 F2200.0
G1 X16.3734 Y-63.0385
G1 X15.7734 Y-63.6384
G1 Z0.0000 F2500.0
G4 P0.02
G0 X11.8283 Y-54.2677 F15000.0
G1 Z11.9000 F2500.0
G4 P0.02
G1 X11.9734 Y-49.9137 F2200.0
G1 X12.9168 Y-54.1951
G1 X12.3362 Y-53.7597
G1 Z0.0000 F2500.0
G4 P0.02
G0 X12.0822 Y-51.6687 F15000.0
G1 Z11.9000 F2500.0
G4 P0.02
G1 X12.0822 Y-52.4401 F2200.0
G1 X12.4088 Y-52.5490
G1 X12.4088 Y-51.7776
G1 Z0.0000 F2500.0
G4 P0.02
G0 X16.1097 Y-63.0482 F15000.0
G1 Z11.9000 F2500.0
G4 P0.02
G1 X17.7061 Y-65.0800 F2200.0
G1 Z0.0000 F2500.0
G4 P0.02
G0 X16.1097 Y-63.0482 F15000.0
G1 Z11.9000 F2500.0
G4 P0.02
G1 X14.8035 Y-60.8712 F2200.0
G1 X13.6424 Y-58.5491
G1 X12.8442 Y-56.0818
G1 X12.2637 Y-53.6146
G1 X11.9734 Y-49.9137 F2200.0
G1 X12.9168 Y-45.7049
G1 X12.3362 Y-46.0677
G1 X11.8283 Y-45.6323
G1 X11.9734 Y-49.9137
G1 Z0.0000 F2500.0
G4 P0.02
G0 X30.6229 Y-26.8377 F15000.0
G1 Z11.9000 F2500.0
G4 P0.02
G1 X34.9043 Y-27.0554 F2200.0
G1 X30.6954 Y-27.9262
G1 X31.0583 Y-27.3457
G1 Z0.0000 F2500.0
G4 P0.02
G0 X33.1492 Y-27.0917 F15000.0
G1 Z11.9000 F2500.0
G4 P0.02
G1 X32.3779 Y-27.0917 F2200.0
G1 X32.2327 Y-27.4908
G1 X33.0041 Y-27.4908
G1 Z0.0000 F2500.0
G4 P0.02
G0 X12.4088 Y-48.0136 F15000.0
G1 Z11.9000 F2500.0
G4 P0.02
G1 X12.4088 Y-47.2422 F2200.0
G1 Z0.0000 F2500.0
G4 P0.02
G0 X12.0822 Y-47.3511 F15000.0
G1 Z11.9000 F2500.0
G4 P0.02
G1 X12.0822 Y-48.1224 F2200.0
G1 Z0.0000 F2500.0
G4 P0.02
G0 X32.3644 Y-27.2006 F15000.0
G1 Z11.9000 F2500.0
G4 P0.02
G1 X34.9043 Y-27.0554 F2200.0
G1 Z0.0000 F2500.0
G4 P0.02
G0 X32.3644 Y-27.2006 F15000.0
G1 Z11.9000 F2500.0
G4 P0.02
G1 X29.8246 Y-27.6360 F2200.0
G1 X27.2848 Y-28.3616
G1 X24.9627 Y-29.3050
G1 X22.7132 Y-30.5386
G1 X20.6087 Y-32.0625 F2200.0
G1 X18.6495 Y-33.8041
G1 X16.9804 Y-35.6908
G1 X15.4566 Y-37.7952
G1 X14.2229 Y-40.1173 F2200.0
G1 X13.2796 Y-42.4394
G1 X12.5539 Y-44.9792
G1 X12.1185 Y-47.5190
G1 X11.9734 Y-49.9137 F2200.0
G1 Z0.0000 F2500.0
G4 P0.02
G0 X38.7369 Y-26.1959 F15000.0
G1 Z11.9000 F2500.0
G4 P0.02
G1 X38.6590 Y-25.9621 F2200.0
G1 X38.6980 Y-26.2348
G1 X37.4903 Y-26.2738
G1 Z0.0000 F2500.0
G4 P0.02
G0 X38.3863 Y-25.6504 F15000.0
G1 Z11.9000 F2500.0
G4 P0.02
G1 X38.5032 Y-25.7673 F2200.0
G1 Z0.0000 F2500.0
G4 P0.02
G0 X38.0747 Y-23.5857 F15000.0
G1 Z11.9000 F2500.0
G4 P0.02
G1 X36.6332 Y-23.5857 F2200.0
G1 X36.8670 Y-23.9752
G1 X37.6461 Y-24.8323
G1 Z0.0000 F2500.0
G4 P0.02
G0 X64.0206 Y-56.6533 F15000.0
G1 Z11.9000 F2500.0
G4 P0.02
G1 X64.2543 Y-56.8871 F2200.0
G1 Z0.0000 F2500.0
G4 P0.02
G0 X63.8648 Y-56.4585 F15000.0
G1 Z11.9000 F2500.0
G4 P0.02
G1 X63.5920 Y-56.3417 F2200.0
G1 X63.5531 Y-55.9521
G1 X63.1635 Y-55.7183
G1 Z0.0000 F2500.0
G4 P0.02
G0 X63.7868 Y-54.9781 F15000.0
G1 Z11.9000 F2500.0
G4 P0.02
G1 X63.7868 Y-54.8223 F2200.0
G1 X63.5920 Y-56.3417
G1 X63.3193 Y-57.4325
G1 Z0.0000 F2500.0
G4 P0.02
G0 X62.8908 Y-55.4067 F15000.0
G1 Z11.9000 F2500.0
G4 P0.02
G1 X62.8129 Y-55.3287 F2200.0
G1 Z0.0000 F2500.0
G4 P0.02
G0 X9.0753 Y-70.4549 F15000.0
G1 Z11.9000 F2500.0
G4 P0.02
G1 X8.4131 Y-69.9484 F2200.0
G1 X7.8676 Y-68.8186
G1 X7.7508 Y-66.5590
G1 Z0.0000 F2500.0
G4 P0.02
G0 X7.5949 Y-68.6628 F15000.0
G1 Z11.9000 F2500.0
G4 P0.02
G1 X7.7118 Y-68.7407 F2200.0
G1 X7.2443 Y-68.1563
G1 Z0.0000 F2500.0
G4 P0.02
G0 X6.7379 Y-67.3772 F15000.0
G1 Z11.9000 F2500.0
G4 P0.02
G1 X6.4651 Y-66.9876 F2200.0
G1 Z0.0000 F2500.0
G4 P0.02
G0 X6.1924 Y-66.5590 F15000.0
G1 Z11.9000 F2500.0
G4 P0.02
G1 X6.1535 Y-66.4422 F2200.0
G1 Z0.0000 F2500.0
G4 P0.02
G0 X66.4705 Y-185.3945 F15000.0
G1 Z11.9000 F2500.0
G4 P0.02
G1 X68.1395 Y-187.2086 F2200.0
G1 Z0.0000 F2500.0
G4 P0.02
G0 X72.0581 Y-187.7166 F15000.0
G1 Z11.9000 F2500.0
G4 P0.02
G1 X66.4705 Y-181.5485 F2200.0
G1 Z0.0000 F2500.0
G4 P0.02
G0 X66.4705 Y-177.7025 F15000.0
G1 Z11.9000 F2500.0
G4 P0.02
G1 X75.9766 Y-188.1520 F2200.0
G1 Z0.0000 F2500.0
G4 P0.02
G0 X79.8226 Y-188.6599 F15000.0
G1 Z11.9000 F2500.0
G4 P0.02
G1 X66.4705 Y-173.8565 F12000.0
G1 Z0.0000 F2500.0
G4 P0.02
G0 X66.4705 Y-170.0105 F15000.0
G1 Z11.9000 F2500.0
G4 P0.02
G1 X83.7412 Y-189.1679 F12000.0
G1 Z0.0000 F2500.0
G4 P0.02
G0 X87.6597 Y-189.6759 F15000.0
G1 Z11.9000 F2500.0
G4 P0.02
G1 X66.4705 Y-166.1645 F12000.0
G1 Z0.0000 F2500.0
G4 P0.02
G0 X66.4705 Y-162.3185 F15000.0
G1 Z11.9000 F2500.0
G4 P0.02
G1 X91.5783 Y-190.1113 F12000.0
G1 Z0.0000 F2500.0
G4 P0.02
G0 X95.4243 Y-190.6192 F15000.0
G1 Z11.9000 F2500.0
G4 P0.02
G1 X66.4705 Y-158.4725 F12000.0
G1 Z0.0000 F2500.0
G4 P0.02
G0 X87.0792 Y-177.4848 F15000.0
G1 Z11.9000 F2500.0
G4 P0.02
G1 X98.5446 Y-190.2564 F2200.0
G1 Z0.0000 F2500.0
G4 P0.02
G0 X84.9748 Y-175.0901 F15000.0
G1 Z11.9000 F2500.0
G4 P0.02
G1 X66.4705 Y-154.6265 F12000.0
G1 Z0.0000 F2500.0
G4 P0.02
G0 X66.4705 Y-150.7805 F15000.0
G1 Z11.9000 F2500.0
G4 P0.02
G1 X84.9748 Y-171.2441 F12000.0
G1 Z0.0000 F2500.0
G4 P0.02
G0 X90.9252 Y-177.9202 F15000.0
G1 Z11.9000 F2500.0
G4 P0.02
G1 X98.5446 Y-186.4104 F2200.0
G1 Z0.0000 F2500.0
G4 P0.02
G0 X98.5446 Y-182.5644 F15000.0
G1 Z11.9000 F2500.0
G4 P0.02
G1 X94.8438 Y-178.4281 F2200.0
G1 Z0.0000 F2500.0
G4 P0.02
G0 X84.9748 Y-167.4707 F15000.0
G1 Z11.9000 F2500.0
G4 P0.02
G1 X70.2439 Y-151.0708 F12000.0
G1 Z0.0000 F2500.0
G4 P0.02
G0 X74.1625 Y-151.5787 F15000.0
G1 Z11.9000 F2500.0
G4 P0.02
G1 X84.9748 Y-163.6247 F2200.0
G1 Z0.0000 F2500.0
G4 P0.02
G0 X84.9748 Y-159.7787 F15000.0
G1 Z11.9000 F2500.0
G4 P0.02
G1 X78.0085 Y-152.0867 F2200.0
G1 Z0.0000 F2500.0
G4 P0.02
G0 X81.9270 Y-152.5946 F15000.0
G1 Z11.9000 F2500.0
G4 P0.02
G1 X84.9748 Y-155.9327 F2200.0
G1 Z0.0000 F2500.0
G4 P0.02
G0 X66.4705 Y-182.4193 F15000.0
G1 Z11.9000 F2500.0
G4 P0.02
G1 X64.8740 Y-188.4422 F2200.0
G1 Z0.0000 F2500.0
G4 P0.02
G0 X61.3908 Y-191.4900 F15000.0
G1 Z11.9000 F2500.0
G4 P0.02
G1 X66.4705 Y-172.4777 F12000.0
G1 Z0.0000 F2500.0
G4 P0.02
G0 X66.4705 Y-162.5362 F15000.0
G1 Z11.9000 F2500.0
G4 P0.02
G1 X57.9077 Y-194.5378 F12000.0
G1 Z0.0000 F2500.0
G4 P0.02
G0 X56.1661 Y-191.0546 F15000.0
G1 Z11.9000 F2500.0
G4 P0.02
G1 X58.7059 Y-181.7662 F2200.0
G1 Z0.0000 F2500.0
G4 P0.02
G0 X59.5041 Y-178.6458 F15000.0
G1 Z11.9000 F2500.0
G4 P0.02
G1 X66.4705 Y-152.6672 F12000.0
G1 Z0.0000 F2500.0
G4 P0.02
G0 X64.3661 Y-150.6354 F15000.0
G1 Z11.9000 F2500.0
G4 P0.02
G1 X59.5041 Y-168.7043 F12000.0
G1 Z0.0000 F2500.0
G4 P0.02
G0 X59.5041 Y-158.7627 F15000.0
G1 Z11.9000 F2500.0
G4 P0.02
G1 X64.3661 Y-140.6938 F12000.0
G1 Z0.0000 F2500.0
G4 P0.02
G0 X63.8581 Y-132.7841 F15000.0
G1 Z11.9000 F2500.0
G4 P0.02
G1 X59.5041 Y-148.8212 F12000.0
G1 Z0.0000 F2500.0
G4 P0.02
G0 X59.5041 Y-138.8797 F15000.0
G1 Z11.9000 F2500.0
G4 P0.02
G1 X60.3749 Y-135.8319 F2200.0
G1 Z0.0000 F2500.0
G4 P0.02
G0 X0.0000 Y-14.7192 F15000.0
G1 Z11.9000 F2500.0
G4 P0.02
G1 X180.0000 Y-14.7192 F12000.0
G1 Z0.0000 F2500.0
G4 P0.02
G0 X180.0000 Y-269.2808 F15000.0
G1 Z11.9000 F2500.0
G4 P0.02
G1 X0.0000 Y-269.2808 F12000.0
G1 Z0.0000 F2500.0
G4 P0.02
G0 X4.3540 Y-19.0006 F15000.0
G1 Z11.9000 F2500.0
G4 P0.02
G1 X180.0000 Y-19.0006 F12000.0
G1 Z0.0000 F2500.0
G4 P0.02
G0 X4.3540 Y-19.0006 F15000.0
G1 Z11.9000 F2500.0
G4 P0.02
G1 X4.3540 Y-264.9994 F12000.0
G1 X180.0000 Y-264.9994 F12000.0
G1 Z0.0000 F2500.0
G4 P0.02
G0 X162.9107 Y-217.8315 F15000.0
G1 Z11.9000 F2500.0
G4 P0.02
G1 X4.3540 Y-217.8315 F12000.0
G1 Z0.0000 F2500.0
G4 P0.02
G0 X107.1800 Y-226.3943 F15000.0
G1 Z11.9000 F2500.0
G4 P0.02
G1 X162.9107 Y-226.3943 F12000.0
G1 Z0.0000 F2500.0
G4 P0.02
G0 X162.9107 Y-230.6757 F15000.0
G1 Z11.9000 F2500.0
G4 P0.02
G1 X107.1800 Y-230.6757 F12000.0
G1 Z0.0000 F2500.0
G4 P0.02
G0 X107.1800 Y-243.5199 F15000.0
G1 Z11.9000 F2500.0
G4 P0.02
G1 X162.9107 Y-243.5199 F12000.0
G1 Z0.0000 F2500.0
G4 P0.02
G0 X162.9107 Y-247.8738 F15000.0
G1 Z11.9000 F2500.0
G4 P0.02
G1 X107.1800 Y-247.8738 F12000.0
G1 Z0.0000 F2500.0
G4 P0.02
G0 X107.1800 Y-252.1552 F15000.0
G1 Z11.9000 F2500.0
G4 P0.02
G1 X162.9107 Y-252.1552 F12000.0
G1 Z0.0000 F2500.0
G4 P0.02
G0 X162.9107 Y-256.4366 F15000.0
G1 Z11.9000 F2500.0
G4 P0.02
G1 X107.1800 Y-256.4366 F12000.0
G1 Z0.0000 F2500.0
G4 P0.02
G0 X107.1800 Y-260.7180 F15000.0
G1 Z11.9000 F2500.0
G4 P0.02
G1 X162.9107 Y-260.7180 F12000.0
G1 Z0.0000 F2500.0
G4 P0.02
G0 X162.9107 Y-264.9994 F15000.0
G1 Z11.9000 F2500.0
G4 P0.02
G1 X162.9107 Y-217.8315 F12000.0
G1 Z0.0000 F2500.0
G4 P0.02
G0 X162.9107 Y-222.1129 F15000.0
G1 Z11.9000 F2500.0
G4 P0.02
G1 X107.1800 Y-222.1129 F12000.0
G1 Z0.0000 F2500.0
G4 P0.02
G0 X148.3249 Y-217.8315 F15000.0
G1 Z11.9000 F2500.0
G4 P0.02
G1 X148.3249 Y-264.9994 F12000.0
G1 Z0.0000 F2500.0
G4 P0.02
G0 X128.5870 Y-264.9994 F15000.0
G1 Z11.9000 F2500.0
G4 P0.02
G1 X128.5870 Y-217.8315 F12000.0
G1 Z0.0000 F2500.0
G4 P0.02
G0 X115.7428 Y-217.8315 F15000.0
G1 Z11.9000 F2500.0
G4 P0.02
G1 X115.7428 Y-264.9994 F12000.0
G1 Z0.0000 F2500.0
G4 P0.02
G0 X107.1800 Y-264.9994 F15000.0
G1 Z11.9000 F2500.0
G4 P0.02
G1 X107.1800 Y-217.8315 F12000.0
G1 Z0.0000 F2500.0
G4 P0.02
G0 X47.1679 Y-230.6757 F15000.0
G1 Z11.9000 F2500.0
G4 P0.02
G1 X47.1679 Y-264.9994 F12000.0
G1 Z0.0000 F2500.0
G4 P0.02
G0 X34.3237 Y-247.8738 F15000.0
G1 Z11.9000 F2500.0
G4 P0.02
G1 X34.3237 Y-230.6757 F12000.0
G1 Z0.0000 F2500.0
G4 P0.02
G0 X19.7380 Y-230.6757 F15000.0
G1 Z11.9000 F2500.0
G4 P0.02
G1 X19.7380 Y-247.8738 F12000.0
G1 Z0.0000 F2500.0
G4 P0.02
G0 X107.1800 Y-234.9571 F15000.0
G1 Z11.9000 F2500.0
G4 P0.02
G1 X162.9107 Y-234.9571 F12000.0
G1 Z0.0000 F2500.0
G4 P0.02
G0 X162.9107 Y-239.2385 F15000.0
G1 Z11.9000 F2500.0
G4 P0.02
G1 X107.1800 Y-239.2385 F12000.0
G1 Z0.0000 F2500.0
G4 P0.02
G0 X47.1679 Y-252.1552 F15000.0
G1 Z11.9000 F2500.0
G4 P0.02
G1 X4.3540 Y-252.1552 F12000.0
G1 Z0.0000 F2500.0
G4 P0.02
G0 X4.3540 Y-234.9571 F15000.0
G1 Z11.9000 F2500.0
G4 P0.02
G1 X34.3237 Y-234.9571 F12000.0
G1 X47.1679 Y-234.9571 F2200.0
G1 Z0.0000 F2500.0
G4 P0.02
G0 X4.3540 Y-230.6757 F15000.0
G1 Z11.9000 F2500.0
G4 P0.02
G1 X107.1800 Y-230.6757 F12000.0
G1 Z0.0000 F2500.0
G4 P0.02
G0 X107.1800 Y-252.1552 F15000.0
G1 Z11.9000 F2500.0
G4 P0.02
G1 X47.1679 Y-252.1552 F12000.0
G1 Z0.0000 F2500.0
G4 P0.02
G0 X47.1679 Y-247.8738 F15000.0
G1 Z11.9000 F2500.0
G4 P0.02
G1 X4.3540 Y-247.8738 F12000.0
G1 Z0.0000 F2500.0
G4 P0.02
G0 X29.5344 Y-247.8738 F15000.0
G1 Z11.9000 F2500.0
G4 P0.02
G1 X29.5344 Y-252.1552 F2200.0
G1 Z0.0000 F2500.0
G4 P0.02
G0 X42.8865 Y-247.8738 F15000.0
G1 Z11.9000 F2500.0
G4 P0.02
G1 X42.8865 Y-234.9571 F2200.0
G1 Z0.0000 F2500.0
G4 P0.02
G0 X38.6051 Y-234.9571 F15000.0
G1 Z11.9000 F2500.0
G4 P0.02
G1 X38.6051 Y-247.8738 F2200.0
G1 Z0.0000 F2500.0
G4 P0.02
G0 X156.8877 Y-239.2385 F15000.0
G1 Z11.9000 F2500.0
G4 P0.02
G1 X156.8877 Y-217.8315 F12000.0
G1 Z0.0000 F2500.0
G4 P0.02
G0 X18.7955 Y-234.1637 F15000.0
G1 Z11.9000 F2500.0
G4 P0.02
G1 X17.8995 Y-231.9041 F2200.0
G1 X17.6657 Y-231.6314
G1 X17.6268 Y-231.2029
G1 Z0.0000 F2500.0
G4 P0.02
G0 X17.6657 Y-231.6704 F15000.0
G1 Z11.9000 F2500.0
G4 P0.02
G1 X17.4320 Y-232.5664 F2200.0
G1 X17.4709 Y-232.7223
G1 X17.3930 Y-232.5275
G1 X17.0813 Y-232.3716
G1 X16.2632 Y-231.7094
G1 X17.0034 Y-233.9300
G1 Z0.0000 F2500.0
G4 P0.02
G0 X16.2536 Y-233.3548 F15000.0
G1 Z11.9000 F2500.0
G4 P0.02
G1 X16.4094 Y-233.7833 F2200.0
G1 X16.2536 Y-234.0560
G1 X15.7082 Y-234.0170
G1 X15.3186 Y-233.8612
G1 X14.8121 Y-232.1471
G1 X15.8250 Y-232.3029
G1 X16.1757 Y-233.1600
G1 Z0.0000 F2500.0
G4 P0.02
G0 X14.7441 Y-233.6730 F15000.0
G1 Z11.9000 F2500.0
G4 P0.02
G1 X13.8091 Y-234.1016 F2200.0
G1 Z0.0000 F2500.0
G4 P0.02
G0 X14.6272 Y-233.3614 F15000.0
G1 Z11.9000 F2500.0
G4 P0.02
G1 X14.3935 Y-232.6212 F2200.0
G1 X14.1597 Y-232.2705
G1 X13.1079 Y-232.1926
G1 Z0.0000 F2500.0
G4 P0.02
G0 X13.0788 Y-233.4672 F15000.0
G1 Z11.9000 F2500.0
G4 P0.02
G1 X13.1178 Y-234.0126 F2200.0
G1 X12.4165 Y-234.0126
G1 Z0.0000 F2500.0
G4 P0.02
G0 X13.0399 Y-233.3893 F15000.0
G1 Z11.9000 F2500.0
G4 P0.02
G1 X12.5334 Y-232.1037 F2200.0
G1 Z0.0000 F2500.0
G4 P0.02
G0 X12.1828 Y-233.3503 F15000.0
G1 Z11.9000 F2500.0
G4 P0.02
G1 X12.4165 Y-234.0126 F2200.0
G1 X11.6763 Y-234.0126
G1 X10.8192 Y-232.1037
G1 Z0.0000 F2500.0
G4 P0.02
G0 X12.1438 Y-233.2724 F15000.0
G1 Z11.9000 F2500.0
G4 P0.02
G1 X11.6763 Y-232.1037 F2200.0
G1 Z0.0000 F2500.0
G4 P0.02
G0 X11.0214 Y-233.6664 F15000.0
G1 Z11.9000 F2500.0
G4 P0.02
G1 X11.1772 Y-234.1728 F2200.0
G1 Z0.0000 F2500.0
G4 P0.02
G0 X10.9824 Y-233.5885 F15000.0
G1 Z11.9000 F2500.0
G4 P0.02
G1 X10.4760 Y-232.3029 F2200.0
G1 X9.6579 Y-232.1470
G1 Z0.0000 F2500.0
G4 P0.02
G0 X10.1643 Y-233.6664 F15000.0
G1 Z11.9000 F2500.0
G4 P0.02
G1 X10.3202 Y-234.1728 F2200.0
G1 Z0.0000 F2500.0
G4 P0.02
G0 X10.1254 Y-233.5885 F15000.0
G1 Z11.9000 F2500.0
G4 P0.02
G1 X9.5800 Y-232.1470 F2200.0
G1 X8.8787 Y-232.4587
G1 X9.4631 Y-234.1728
G1 X9.3852 Y-233.8222
G1 Z0.0000 F2500.0
G4 P0.02
G0 X8.6342 Y-233.3548 F15000.0
G1 Z11.9000 F2500.0
G4 P0.02
G1 X8.7900 Y-233.7833 F2200.0
G1 X8.6342 Y-234.0560
G1 X8.0888 Y-234.0170
G1 X7.6992 Y-233.8612
G1 X7.1927 Y-232.1471
G1 X8.2056 Y-232.3029
G1 X8.5563 Y-233.1600
G1 Z0.0000 F2500.0
G4 P0.02
G0 X7.2011 Y-233.8019 F15000.0
G1 Z11.9000 F2500.0
G4 P0.02
G1 X7.2011 Y-233.9188 F2200.0
G1 X7.0843 Y-234.0357
G1 X5.6428 Y-232.2436
G1 X5.8376 Y-232.0878
G1 X5.9934 Y-231.7371
G1 Z0.0000 F2500.0
G4 P0.02
G0 X6.6557 Y-232.3605 F15000.0
G1 Z11.9000 F2500.0
G4 P0.02
G1 X7.0453 Y-233.3734 F2200.0
G1 Z0.0000 F2500.0
G4 P0.02
G0 X6.6168 Y-232.3215 F15000.0
G1 Z11.9000 F2500.0
G4 P0.02
G1 X5.9155 Y-232.0878 F2200.0
G1 X6.1103 Y-231.3086
G1 X5.1364 Y-231.3475
G1 Z0.0000 F2500.0
G4 P0.02
G0 X162.0418 Y-242.3603 F15000.0
G1 Z11.9000 F2500.0
G4 P0.02
G1 X162.1587 Y-242.7499 F2200.0
G1 Z0.0000 F2500.0
G4 P0.02
G0 X161.9250 Y-242.0876 F15000.0
G1 Z11.9000 F2500.0
G4 P0.02
G1 X161.0679 Y-239.8670 F2200.0
G1 X160.0939 Y-239.9449
G1 X159.9770 Y-240.2566
G1 X160.2497 Y-240.9968
G1 X160.4835 Y-241.2305
G1 X160.4056 Y-241.1526
G1 X160.5614 Y-241.2695
G1 X161.5743 Y-241.3474
G1 Z0.0000 F2500.0
G4 P0.02
G0 X160.0136 Y-241.9256 F15000.0
G1 Z11.9000 F2500.0
G4 P0.02
G1 X160.1694 Y-242.3541 F2200.0
G1 X160.0136 Y-242.6268
G1 X159.4682 Y-242.5878
G1 X159.0786 Y-242.4320
G1 X158.5721 Y-240.7179
G1 X159.5850 Y-240.8737
G1 X159.9357 Y-241.7308
G1 Z0.0000 F2500.0
G4 P0.02
G0 X158.5770 Y-242.4643 F15000.0
G1 Z11.9000 F2500.0
G4 P0.02
G1 X158.1485 Y-242.6201 F2200.0
G1 X157.7199 Y-242.4253
G1 X157.5641 Y-242.0358
G1 X157.6810 Y-242.3864
G1 X157.5251 Y-241.9578
G1 X157.5251 Y-241.6851
G1 X157.2524 Y-241.1787
G1 X157.2135 Y-240.8280
G1 X157.3303 Y-240.7501
G1 X158.0316 Y-240.9449
G1 Z0.0000 F2500.0
G4 P0.02
G0 X157.5641 Y-241.6462 F15000.0
G1 Z11.9000 F2500.0
G4 P0.02
G1 X158.0316 Y-241.6462 F2200.0
G1 Z0.0000 F2500.0
G4 P0.02
G0 X157.2820 Y-242.8605 F15000.0
G1 Z11.9000 F2500.0
G4 P0.02
G1 X157.5547 Y-243.4838 F2200.0
G1 Z0.0000 F2500.0
G4 P0.02
G0 X157.2430 Y-242.7826 F15000.0
G1 Z11.9000 F2500.0
G4 P0.02
G1 X157.1261 Y-242.4319 F2200.0
G1 X157.0872 Y-242.6267
G1 X156.1911 Y-242.5488
G1 X155.9574 Y-242.1982
G1 X155.5288 Y-240.9905
G1 X155.6457 Y-240.7178
G1 X156.4638 Y-240.7178
G1 X157.0092 Y-242.1203
G1 Z0.0000 F2500.0
G4 P0.02
G0 X155.3308 Y-241.9256 F15000.0
G1 Z11.9000 F2500.0
G4 P0.02
G1 X155.4867 Y-242.3541 F2200.0
G1 X155.3308 Y-242.6268
G1 X154.7854 Y-242.5878
G1 X154.3958 Y-242.4320
G1 X153.8894 Y-240.7179
G1 X154.9023 Y-240.8737
G1 X155.2529 Y-241.7308
G1 Z0.0000 F2500.0
G4 P0.02
G0 X153.8978 Y-242.3727 F15000.0
G1 Z11.9000 F2500.0
G4 P0.02
G1 X153.8978 Y-242.4896 F2200.0
G1 X153.7809 Y-242.6065
G1 X152.3395 Y-240.8144
G1 X152.5342 Y-240.6586
G1 X152.6901 Y-240.3079
G1 Z0.0000 F2500.0
G4 P0.02
G0 X153.3524 Y-240.9313 F15000.0
G1 Z11.9000 F2500.0
G4 P0.02
G1 X153.7419 Y-241.9442 F2200.0
G1 Z0.0000 F2500.0
G4 P0.02
G0 X153.3134 Y-240.8923 F15000.0
G1 Z11.9000 F2500.0
G4 P0.02
G1 X152.6122 Y-240.6586 F2200.0
G1 X152.8069 Y-239.8794
G1 X151.8330 Y-239.9184
G1 Z0.0000 F2500.0
G4 P0.02
G0 X152.4858 Y-242.5771 F15000.0
G1 Z11.9000 F2500.0
G4 P0.02
G1 X152.5637 Y-242.6550 F2200.0
G1 Z0.0000 F2500.0
G4 P0.02
G0 X161.4816 Y-251.0604 F15000.0
G1 Z11.9000 F2500.0
G4 P0.02
G1 X161.5206 Y-251.2162 F2200.0
G1 X160.4687 Y-248.4891
G1 X159.7285 Y-248.4891
G1 Z0.0000 F2500.0
G4 P0.02
G0 X161.1310 Y-248.4112 F15000.0
G1 Z11.9000 F2500.0
G4 P0.02
G1 X160.5077 Y-248.4891 F2200.0
G1 Z0.0000 F2500.0
G4 P0.02
G0 X160.3433 Y-251.1479 F15000.0
G1 Z11.9000 F2500.0
G4 P0.02
G1 X160.4212 Y-251.2258 F2200.0
G1 Z0.0000 F2500.0
G4 P0.02
G0 X159.8560 Y-251.2711 F15000.0
G1 Z11.9000 F2500.0
G4 P0.02
G1 X159.6612 Y-250.8425 F2200.0
G1 Z0.0000 F2500.0
G4 P0.02
G0 X159.3105 Y-250.1802 F15000.0
G1 Z11.9000 F2500.0
G4 P0.02
G1 X159.3105 Y-250.0244 F2200.0
G1 X159.2716 Y-250.2192
G1 X159.0378 Y-250.1802
G1 X159.2326 Y-249.8686
G1 X158.9599 Y-249.2452
G1 Z0.0000 F2500.0
G4 P0.02
G0 X158.8820 Y-249.9854 F15000.0
G1 Z11.9000 F2500.0
G4 P0.02
G1 X158.9989 Y-250.2192 F2200.0
G1 X158.8041 Y-251.1152
G1 Z0.0000 F2500.0
G4 P0.02
G0 X158.6483 Y-249.8296 F15000.0
G1 Z11.9000 F2500.0
G4 P0.02
G1 X158.1418 Y-249.4400 F2200.0
G1 Z0.0000 F2500.0
G4 P0.02
G0 X157.9500 Y-250.5003 F15000.0
G1 Z11.9000 F2500.0
G4 P0.02
G1 X158.1058 Y-250.9288 F2200.0
G1 X157.9500 Y-251.2015
G1 X156.5475 Y-249.4484
G1 X157.2098 Y-249.2926
G1 X157.5604 Y-249.4874
G1 X157.8721 Y-250.3055
G1 Z0.0000 F2500.0
G4 P0.02
G0 X156.6833 Y-251.3100 F15000.0
G1 Z11.9000 F2500.0
G4 P0.02
G1 X156.1379 Y-250.1802 F2200.0
G1 X155.7873 Y-249.2452
G1 Z0.0000 F2500.0
G4 P0.02
G0 X156.0990 Y-250.2192 F15000.0
G1 Z11.9000 F2500.0
G4 P0.02
G1 X155.3587 Y-250.2192 F2200.0
G1 X155.4367 Y-250.7257
G1 X154.8523 Y-249.4790
G1 Z0.0000 F2500.0
G4 P0.02
G0 X155.4756 Y-250.8036 F15000.0
G1 Z11.9000 F2500.0
G4 P0.02
G1 X155.6315 Y-251.3100 F2200.0
G1 Z0.0000 F2500.0
G4 P0.02
G0 X154.9401 Y-250.8080 F15000.0
G1 Z11.9000 F2500.0
G4 P0.02
G1 X155.0959 Y-251.3144 F2200.0
G1 Z0.0000 F2500.0
G4 P0.02
G0 X154.9012 Y-250.7300 F15000.0
G1 Z11.9000 F2500.0
G4 P0.02
G1 X154.3947 Y-249.4444 F2200.0
G1 X153.5766 Y-249.2886
G1 Z0.0000 F2500.0
G4 P0.02
G0 X154.0830 Y-250.8080 F15000.0
G1 Z11.9000 F2500.0
G4 P0.02
G1 X154.2389 Y-251.3144 F2200.0
G1 Z0.0000 F2500.0
G4 P0.02
G0 X154.0441 Y-250.7300 F15000.0
G1 Z11.9000 F2500.0
G4 P0.02
G1 X153.4987 Y-249.2886 F2200.0
G1 X152.7974 Y-249.6003
G1 X153.3818 Y-251.3144
G1 X153.3039 Y-250.9638
G1 Z0.0000 F2500.0
G4 P0.02
G0 X152.9167 Y-251.4312 F15000.0
G1 Z11.9000 F2500.0
G4 P0.02
G1 X153.1894 Y-252.0546 F2200.0
G1 Z0.0000 F2500.0
G4 P0.02
G0 X152.8777 Y-251.3533 F15000.0
G1 Z11.9000 F2500.0
G4 P0.02
G1 X152.7608 Y-251.0027 F2200.0
G1 X152.7219 Y-251.1975
G1 X151.8258 Y-251.1196
G1 X151.5921 Y-250.7690
G1 X151.1635 Y-249.5613
G1 X151.2804 Y-249.2885
G1 X152.0985 Y-249.2885
G1 X152.6439 Y-250.6910
G1 Z0.0000 F2500.0
G4 P0.02
G0 X151.2952 Y-251.1479 F15000.0
G1 Z11.9000 F2500.0
G4 P0.02
G1 X151.3731 Y-251.2258 F2200.0
G1 Z0.0000 F2500.0
G4 P0.02
G0 X27.2676 Y-251.1569 F15000.0
G1 Z11.9000 F2500.0
G4 P0.02
G1 X26.6443 Y-250.2219 F2200.0
G1 Z0.0000 F2500.0
G4 P0.02
G0 X26.3716 Y-249.7933 F15000.0
G1 Z11.9000 F2500.0
G4 P0.02
G1 X26.1379 Y-249.4817 F2200.0
G1 Z0.0000 F2500.0
G4 P0.02
G0 X25.7872 Y-248.9363 F15000.0
G1 Z11.9000 F2500.0
G4 P0.02
G1 X25.7093 Y-248.8583 F2200.0
G1 Z0.0000 F2500.0
G4 P0.02
G0 X25.6314 Y-250.6894 F15000.0
G1 Z11.9000 F2500.0
G4 P0.02
G1 X25.6704 Y-250.8063 F2200.0
G1 Z0.0000 F2500.0
G4 P0.02
G0 X25.4366 Y-248.4688 F15000.0
G1 Z11.9000 F2500.0
G4 P0.02
G1 X24.8522 Y-248.4688 F2200.0
G1 X25.1249 Y-249.2869
G1 X25.0860 Y-249.1700
G1 Z0.0000 F2500.0
G4 P0.02
G0 X25.0572 Y-250.6088 F15000.0
G1 Z11.9000 F2500.0
G4 P0.02
G1 X25.0962 Y-251.1542 F2200.0
G1 X24.0832 Y-250.8036
G1 X23.4210 Y-249.2452
G1 Z0.0000 F2500.0
G4 P0.02
G0 X25.0182 Y-250.5309 F15000.0
G1 Z11.9000 F2500.0
G4 P0.02
G1 X24.5118 Y-249.2452 F2200.0
G1 Z0.0000 F2500.0
G4 P0.02
G0 X23.5477 Y-250.8146 F15000.0
G1 Z11.9000 F2500.0
G4 P0.02
G1 X22.6127 Y-251.2431 F2200.0
G1 Z0.0000 F2500.0
G4 P0.02
G0 X23.4309 Y-250.5029 F15000.0
G1 Z11.9000 F2500.0
G4 P0.02
G1 X23.1971 Y-249.7627 F2200.0
G1 X22.9634 Y-249.4121
G1 X21.9115 Y-249.3342
G1 Z0.0000 F2500.0
G4 P0.02
G0 X22.0473 Y-250.8080 F15000.0
G1 Z11.9000 F2500.0
G4 P0.02
G1 X22.2032 Y-251.3144 F2200.0
G1 Z0.0000 F2500.0
G4 P0.02
G0 X22.0084 Y-250.7300 F15000.0
G1 Z11.9000 F2500.0
G4 P0.02
G1 X21.5019 Y-249.4444 F2200.0
G1 X20.6838 Y-249.2886
G1 Z0.0000 F2500.0
G4 P0.02
G0 X21.1902 Y-250.8080 F15000.0
G1 Z11.9000 F2500.0
G4 P0.02
G1 X21.3461 Y-251.3144 F2200.0
G1 Z0.0000 F2500.0
G4 P0.02
G0 X21.1513 Y-250.7300 F15000.0
G1 Z11.9000 F2500.0
G4 P0.02
G1 X20.6059 Y-249.2886 F2200.0
G1 X19.9046 Y-249.6003
G1 X20.4890 Y-251.3144
G1 X20.4111 Y-250.9638
G1 Z0.0000 F2500.0
G4 P0.02
G0 X19.6601 Y-250.5003 F15000.0
G1 Z11.9000 F2500.0
G4 P0.02
G1 X19.8159 Y-250.9288 F2200.0
G1 X19.6601 Y-251.2015
G1 X18.2576 Y-249.4484
G1 X18.9199 Y-249.2926
G1 X19.2705 Y-249.4874
G1 X19.5822 Y-250.3055
G1 Z0.0000 F2500.0
G4 P0.02
G0 X18.0712 Y-250.5042 F15000.0
G1 Z11.9000 F2500.0
G4 P0.02
G1 X18.2271 Y-250.9327 F2200.0
G1 X18.0712 Y-251.2054
G1 X17.2531 Y-251.0496
G1 X16.6687 Y-249.5302
G1 X17.1362 Y-249.2575
G1 X17.5648 Y-249.2965
G1 Z0.0000 F2500.0
G4 P0.02
G0 X17.9933 Y-250.3094 F15000.0
G1 Z11.9000 F2500.0
G4 P0.02
G1 X17.3700 Y-248.6342 F2200.0
G1 Z0.0000 F2500.0
G4 P0.02
G0 X17.0583 Y-248.4394 F15000.0
G1 Z11.9000 F2500.0
G4 P0.02
G1 X16.8635 Y-248.4783 F2200.0
G1 X16.7856 Y-248.6342
G1 X17.0194 Y-248.9848
G1 Z0.0000 F2500.0
G4 P0.02
G0 X161.5743 Y-258.4445 F15000.0
G1 Z11.9000 F2500.0
G4 P0.02
G1 X162.1587 Y-259.8860 F2200.0
G1 Z0.0000 F2500.0
G4 P0.02
G0 X161.5353 Y-258.3666 F15000.0
G1 Z11.9000 F2500.0
G4 P0.02
G1 X161.4185 Y-258.2498 F2200.0
G1 X161.3406 Y-257.8212
G1 X161.3795 Y-258.2887
G1 X160.4056 Y-258.2887
G1 X160.4445 Y-258.6783
G1 X160.3666 Y-258.3277
G1 X159.7822 Y-257.1200
G1 Z0.0000 F2500.0
G4 P0.02
G0 X161.3016 Y-257.7433 F15000.0
G1 Z11.9000 F2500.0
G4 P0.02
G1 X160.9899 Y-256.9641 F2200.0
G1 Z0.0000 F2500.0
G4 P0.02
G0 X160.4835 Y-258.7562 F15000.0
G1 Z11.9000 F2500.0
G4 P0.02
G1 X160.8731 Y-259.8860 F2200.0
G1 Z0.0000 F2500.0
G4 P0.02
G0 X160.3433 Y-259.7187 F15000.0
G1 Z11.9000 F2500.0
G4 P0.02
G1 X160.4212 Y-259.7966 F2200.0
G1 Z0.0000 F2500.0
G4 P0.02
G0 X159.8560 Y-259.8419 F15000.0
G1 Z11.9000 F2500.0
G4 P0.02
G1 X159.6612 Y-259.4133 F2200.0
G1 Z0.0000 F2500.0
G4 P0.02
G0 X159.3105 Y-258.7510 F15000.0
G1 Z11.9000 F2500.0
G4 P0.02
G1 X159.3105 Y-258.5952 F2200.0
G1 X159.2716 Y-258.7900
G1 X159.0378 Y-258.7510
G1 X159.2326 Y-258.4394
G1 X158.9599 Y-257.8160
G1 Z0.0000 F2500.0
G4 P0.02
G0 X158.8820 Y-258.5562 F15000.0
G1 Z11.9000 F2500.0
G4 P0.02
G1 X158.9989 Y-258.7900 F2200.0
G1 X158.8041 Y-259.6860
G1 Z0.0000 F2500.0
G4 P0.02
G0 X158.6483 Y-258.4004 F15000.0
G1 Z11.9000 F2500.0
G4 P0.02
G1 X158.1418 Y-258.0108 F2200.0
G1 Z0.0000 F2500.0
G4 P0.02
G0 X157.9500 Y-259.0711 F15000.0
G1 Z11.9000 F2500.0
G4 P0.02
G1 X158.1058 Y-259.4996 F2200.0
G1 X157.9500 Y-259.7723
G1 X156.5475 Y-258.0192
G1 X157.2098 Y-257.8634
G1 X157.5604 Y-258.0582
G1 X157.8721 Y-258.8763
G1 Z0.0000 F2500.0
G4 P0.02
G0 X156.6833 Y-259.8808 F15000.0
G1 Z11.9000 F2500.0
G4 P0.02
G1 X156.1379 Y-258.7510 F2200.0
G1 X155.7873 Y-257.8160
G1 Z0.0000 F2500.0
G4 P0.02
G0 X156.0990 Y-258.7900 F15000.0
G1 Z11.9000 F2500.0
G4 P0.02
G1 X155.3587 Y-258.7900 F2200.0
G1 X155.4367 Y-259.2965
G1 X154.8523 Y-258.0498
G1 Z0.0000 F2500.0
G4 P0.02
G0 X155.4756 Y-259.3744 F15000.0
G1 Z11.9000 F2500.0
G4 P0.02
G1 X155.6315 Y-259.8808 F2200.0
G1 Z0.0000 F2500.0
G4 P0.02
G0 X154.9401 Y-259.3788 F15000.0
G1 Z11.9000 F2500.0
G4 P0.02
G1 X155.0959 Y-259.8852 F2200.0
G1 Z0.0000 F2500.0
G4 P0.02
G0 X154.9012 Y-259.3008 F15000.0
G1 Z11.9000 F2500.0
G4 P0.02
G1 X154.3947 Y-258.0152 F2200.0
G1 X153.5766 Y-257.8594
G1 Z0.0000 F2500.0
G4 P0.02
G0 X154.0830 Y-259.3788 F15000.0
G1 Z11.9000 F2500.0
G4 P0.02
G1 X154.2389 Y-259.8852 F2200.0
G1 Z0.0000 F2500.0
G4 P0.02
G0 X154.0441 Y-259.3008 F15000.0
G1 Z11.9000 F2500.0
G4 P0.02
G1 X153.4987 Y-257.8594 F2200.0
G1 X152.7974 Y-258.1711
G1 X153.3818 Y-259.8852
G1 X153.3039 Y-259.5346
G1 Z0.0000 F2500.0
G4 P0.02
G0 X152.9167 Y-260.0020 F15000.0
G1 Z11.9000 F2500.0
G4 P0.02
G1 X153.1894 Y-260.6254 F2200.0
G1 Z0.0000 F2500.0
G4 P0.02
G0 X152.8777 Y-259.9241 F15000.0
G1 Z11.9000 F2500.0
G4 P0.02
G1 X152.7608 Y-259.5735 F2200.0
G1 X152.7219 Y-259.7683
G1 X151.8258 Y-259.6904
G1 X151.5921 Y-259.3398
G1 X151.1635 Y-258.1321
G1 X151.2804 Y-257.8593
G1 X152.0985 Y-257.8593
G1 X152.6439 Y-259.2618
G1 Z0.0000 F2500.0
G4 P0.02
G0 X151.2952 Y-259.7187 F15000.0
G1 Z11.9000 F2500.0
G4 P0.02
G1 X151.3731 Y-259.7966 F2200.0
G1 Z0.0000 F2500.0
G4 P0.02
G0 X11.0174 Y-243.1249 F15000.0
G1 Z11.9000 F2500.0
G4 P0.02
G1 X9.7318 Y-239.5407 F2200.0
G1 X10.0434 Y-239.5797
G1 X9.6928 Y-239.4628
G1 X9.4980 Y-239.2290
G1 Z0.0000 F2500.0
G4 P0.02
G0 X10.7057 Y-240.0082 F15000.0
G1 Z11.9000 F2500.0
G4 P0.02
G1 X10.8616 Y-240.1640 F2200.0
G1 Z0.0000 F2500.0
G4 P0.02
G0 X9.2450 Y-250.8875 F15000.0
G1 Z11.9000 F2500.0
G4 P0.02
G1 X9.4008 Y-251.1602 F2200.0
G1 X9.2060 Y-250.8096
G1 X8.5048 Y-248.8227
G1 X8.8944 Y-248.8227
G1 X9.0892 Y-248.9396
G1 Z0.0000 F2500.0
G4 P0.02
G0 X92.0976 Y-244.9003 F15000.0
G1 Z11.9000 F2500.0
G4 P0.02
G1 X92.9937 Y-245.4457 F2200.0
G1 Z0.0000 F2500.0
G4 P0.02
G0 X92.0587 Y-244.8613 F15000.0
G1 Z11.9000 F2500.0
G4 P0.02
G1 X91.9418 Y-244.3549 F2200.0
G1 Z0.0000 F2500.0
G4 P0.02
G0 X92.0197 Y-244.9003 F15000.0
G1 Z11.9000 F2500.0
G4 P0.02
G1 X88.9810 Y-244.9003 F2200.0
G1 Z0.0000 F2500.0
G4 P0.02
G0 X91.7860 Y-244.0042 F15000.0
G1 Z11.9000 F2500.0
G4 P0.02
G1 X91.8639 Y-244.1990 F2200.0
G1 X88.9810 Y-237.6541
G1 X86.3318 Y-236.9528
G1 Z0.0000 F2500.0
G4 P0.02
G0 X86.8772 Y-238.8618 F15000.0
G1 Z11.9000 F2500.0
G4 P0.02
G1 X88.9031 Y-244.9003 F2200.0
G1 X88.6304 Y-244.9392
G1 X88.7083 Y-245.4457
G1 Z0.0000 F2500.0
G4 P0.02
G0 X86.8383 Y-238.7839 F15000.0
G1 Z11.9000 F2500.0
G4 P0.02
G1 X86.3708 Y-237.4982 F2200.0
G1 X86.2929 Y-236.9918
G1 Z0.0000 F2500.0
G4 P0.02
G0 X86.5833 Y-243.4921 F15000.0
G1 Z11.9000 F2500.0
G4 P0.02
G1 X86.8171 Y-244.4660 F2200.0
G1 X84.2069 Y-244.8556
G1 Z0.0000 F2500.0
G4 P0.02
G0 X86.4665 Y-243.1804 F15000.0
G1 Z11.9000 F2500.0
G4 P0.02
G1 X86.0379 Y-242.1285 F2200.0
G1 X85.9600 Y-241.6221
G1 X85.9990 Y-242.1675
G1 X83.0771 Y-242.0896
G1 X82.9602 Y-241.9727
G1 X82.3369 Y-239.7910
G1 X82.6096 Y-239.4794
G1 X83.2719 Y-239.3625
G1 X84.8302 Y-239.5962
G1 X85.1029 Y-239.8300
G1 X85.9210 Y-241.5442
G1 Z0.0000 F2500.0
G4 P0.02
G0 X82.4541 Y-244.5050 F15000.0
G1 Z11.9000 F2500.0
G4 P0.02
G1 X82.4931 Y-244.6219 F2200.0
G1 X80.5452 Y-239.4794
G1 X78.2856 Y-239.4015
G1 Z0.0000 F2500.0
G4 P0.02
G0 X79.9608 Y-244.3881 F15000.0
G1 Z11.9000 F2500.0
G4 P0.02
G1 X80.0387 Y-244.6219 F2200.0
G1 X78.2077 Y-239.4015
G1 X76.1818 Y-239.5183
G1 X75.9870 Y-239.7910
G1 X77.3895 Y-244.0764
G1 Z0.0000 F2500.0
G4 P0.02
G0 X77.4675 Y-244.2712 F15000.0
G1 Z11.9000 F2500.0
G4 P0.02
G1 X77.5843 Y-244.6219 F2200.0
G1 Z0.0000 F2500.0
G4 P0.02
G0 X75.3478 Y-242.4792 F15000.0
G1 Z11.9000 F2500.0
G4 P0.02
G1 X75.9322 Y-244.5439 F2200.0
G1 Z0.0000 F2500.0
G4 P0.02
G0 X75.6595 Y-244.8166 F15000.0
G1 Z11.9000 F2500.0
G4 P0.02
G1 X72.9324 Y-244.5050 F2200.0
G1 Z0.0000 F2500.0
G4 P0.02
G0 X75.3089 Y-242.4012 F15000.0
G1 Z11.9000 F2500.0
G4 P0.02
G1 X75.0751 Y-241.7389 F2200.0
G1 Z0.0000 F2500.0
G4 P0.02
G0 X74.7635 Y-240.8819 F15000.0
G1 Z11.9000 F2500.0
G4 P0.02
G1 X74.2180 Y-239.8300 F2200.0
G1 X73.9453 Y-239.5962
G1 X71.2962 Y-239.4015
G1 X71.1403 Y-239.3235
G1 X71.2572 Y-239.4015
G1 X71.3351 Y-239.9469
G1 X72.8935 Y-244.4660
G1 X72.6597 Y-244.8556
G1 Z0.0000 F2500.0
G4 P0.02
G0 X67.5014 Y-241.7779 F15000.0
G1 Z11.9000 F2500.0
G4 P0.02
G1 X66.9170 Y-240.1806 F2200.0
G1 X66.7222 Y-239.4015
G1 X66.6054 Y-239.3235
G1 X66.8002 Y-239.4015
G1 X68.5143 Y-239.5183
G1 X71.7478 Y-244.9725
G1 Z0.0000 F2500.0
G4 P0.02
G0 X68.7091 Y-244.9335 F15000.0
G1 Z11.9000 F2500.0
G4 P0.02
G1 X68.6312 Y-244.8166 F2200.0
G1 Z0.0000 F2500.0
G4 P0.02
G0 X68.3974 Y-244.2323 F15000.0
G1 Z11.9000 F2500.0
G4 P0.02
G1 X68.4754 Y-244.4660 F2200.0
G1 X68.2806 Y-243.9206
G1 Z0.0000 F2500.0
G4 P0.02
G0 X66.1838 Y-242.2064 F15000.0
G1 Z11.9000 F2500.0
G4 P0.02
G1 X67.0798 Y-244.8556 F2200.0
G1 X64.2749 Y-244.6219
G1 X63.8463 Y-244.1154
G1 X64.0022 Y-244.3881
G1 X63.7294 Y-243.8427
G1 X63.3788 Y-242.5571
G1 X63.6515 Y-242.2454
G1 X64.1580 Y-242.1285
G1 X66.0280 Y-242.0896
G1 X65.8332 Y-241.2325 F2200.0
G1 X65.1709 Y-239.4404
G1 Z0.0000 F2500.0
G4 P0.02
G0 X105.5353 Y-259.6255 F15000.0
G1 Z11.9000 F2500.0
G4 P0.02
G1 X105.4184 Y-260.8722 F2200.0
G1 X104.4055 Y-260.9501
G1 Z0.0000 F2500.0
G4 P0.02
G0 X105.4963 Y-259.5476 F15000.0
G1 Z11.9000 F2500.0
G4 P0.02
G1 X104.4444 Y-256.0024 F2200.0
G1 Z0.0000 F2500.0
G4 P0.02
G0 X104.1717 Y-255.6907 F15000.0
G1 Z11.9000 F2500.0
G4 P0.02
G1 X103.9380 Y-255.5349 F2200.0
G1 X102.8471 Y-255.3401
G1 Z0.0000 F2500.0
G4 P0.02
G0 X102.6430 Y-257.8806 F15000.0
G1 Z11.9000 F2500.0
G4 P0.02
G1 X103.5390 Y-260.9972 F2200.0
G1 Z0.0000 F2500.0
G4 P0.02
G0 X102.6040 Y-257.8026 F15000.0
G1 Z11.9000 F2500.0
G4 P0.02
G1 X102.4872 Y-257.3351 F2200.0
G1 X102.2924 Y-257.1404
G1 X101.2405 Y-257.1014
G1 Z0.0000 F2500.0
G4 P0.02
G0 X101.8249 Y-259.5558 F15000.0
G1 Z11.9000 F2500.0
G4 P0.02
G1 X102.2534 Y-260.9972 F2200.0
G1 Z0.0000 F2500.0
G4 P0.02
G0 X101.6690 Y-259.0493 F15000.0
G1 Z11.9000 F2500.0
G4 P0.02
G1 X101.1626 Y-257.1014 F2200.0
G1 X100.0717 Y-257.2572
G1 X99.9938 Y-257.4131
G1 X100.9288 Y-260.9972
G1 Z0.0000 F2500.0
G4 P0.02
G0 X99.9890 Y-260.6855 F15000.0
G1 Z11.9000 F2500.0
G4 P0.02
G1 X99.2099 Y-257.7247 F2200.0
G1 X99.0151 Y-257.3741
G1 X97.5347 Y-257.1014
G1 X98.3528 Y-260.7245
G1 X98.6644 Y-260.8803
G1 X99.8332 Y-260.9193
G1 Z0.0000 F2500.0
G4 P0.02
G0 X97.2222 Y-259.9064 F15000.0
G1 Z11.9000 F2500.0
G4 P0.02
G1 X97.7287 Y-261.0362 F2200.0
G1 Z0.0000 F2500.0
G4 P0.02
G0 X97.1443 Y-259.7506 F15000.0
G1 Z11.9000 F2500.0
G4 P0.02
G1 X96.1314 Y-257.4910 F2200.0
G1 Z0.0000 F2500.0
G4 P0.02
G0 X95.8587 Y-260.2181 F15000.0
G1 Z11.9000 F2500.0
G4 P0.02
G1 X96.0145 Y-260.8414 F2200.0
G1 Z0.0000 F2500.0
G4 P0.02
G0 X95.8197 Y-257.1404 F15000.0
G1 Z11.9000 F2500.0
G4 P0.02
G1 X95.1185 Y-257.1404 F2200.0
G1 X95.1185 Y-257.4910
G1 X95.7808 Y-259.9843
G1 X95.7418 Y-259.7895
G1 Z0.0000 F2500.0
G4 P0.02
G0 X94.7689 Y-259.1802 F15000.0
G1 Z11.9000 F2500.0
G4 P0.02
G1 X95.1974 Y-260.9333 F2200.0
G1 X94.2235 Y-260.9722
G1 X93.7170 Y-260.8164
G1 X93.6001 Y-260.6606
G1 X93.2495 Y-259.3360
G1 X93.4053 Y-259.1023
G1 X94.6130 Y-258.9854
G1 X94.1845 Y-257.1154
G1 Z0.0000 F2500.0
G4 P0.02
G0 X82.9791 Y-260.9890 F15000.0
G1 Z11.9000 F2500.0
G4 P0.02
G1 X81.4597 Y-255.6128 F2200.0
G1 X81.2649 Y-255.4180
G1 X79.8624 Y-255.3401
G1 Z0.0000 F2500.0
G4 P0.02
G0 X79.7760 Y-258.3009 F15000.0
G1 Z11.9000 F2500.0
G4 P0.02
G1 X80.2825 Y-260.4047 F2200.0
G1 Z0.0000 F2500.0
G4 P0.02
G0 X80.0098 Y-260.8722 F15000.0
G1 Z11.9000 F2500.0
G4 P0.02
G1 X78.9189 Y-260.8332 F2200.0
G1 Z0.0000 F2500.0
G4 P0.02
G0 X79.6202 Y-257.7945 F15000.0
G1 Z11.9000 F2500.0
G4 P0.02
G1 X79.1527 Y-256.1582 F2200.0
G1 X78.5683 Y-255.5349
G1 X77.9060 Y-255.3790
G1 X77.4775 Y-255.5349
G1 X77.3216 Y-255.7297
G1 X77.2437 Y-256.0413
G1 X78.4514 Y-260.3657
G1 X78.6073 Y-260.5605
G1 Z0.0000 F2500.0
G4 P0.02
G0 X77.3834 Y-259.6255 F15000.0
G1 Z11.9000 F2500.0
G4 P0.02
G1 X77.2666 Y-260.8722 F2200.0
G1 X76.2537 Y-260.9501
G1 Z0.0000 F2500.0
G4 P0.02
G0 X77.3445 Y-259.5476 F15000.0
G1 Z11.9000 F2500.0
G4 P0.02
G1 X76.2926 Y-256.0024 F2200.0
G1 Z0.0000 F2500.0
G4 P0.02
G0 X76.0199 Y-255.6907 F15000.0
G1 Z11.9000 F2500.0
G4 P0.02
G1 X75.7862 Y-255.5349 F2200.0
G1 X74.6953 Y-255.3401
G1 Z0.0000 F2500.0
G4 P0.02
G0 X73.2782 Y-256.9936 F15000.0
G1 Z11.9000 F2500.0
G4 P0.02
G1 X74.4080 Y-261.0062 F2200.0
G1 Z0.0000 F2500.0
G4 P0.02
G0 X73.6288 Y-255.3573 F15000.0
G1 Z11.9000 F2500.0
G4 P0.02
G1 X72.9276 Y-255.3963 F2200.0
G1 Z0.0000 F2500.0
G4 P0.02
G0 X73.2003 Y-256.7208 F15000.0
G1 Z11.9000 F2500.0
G4 P0.02
G1 X73.2392 Y-256.9156 F2200.0
G1 Z0.0000 F2500.0
G4 P0.02
G0 X73.0444 Y-256.2144 F15000.0
G1 Z11.9000 F2500.0
G4 P0.02
G1 X72.8497 Y-255.3963 F2200.0
G1 X71.9536 Y-255.3573
G1 Z0.0000 F2500.0
G4 P0.02
G0 X68.4867 Y-255.8834 F15000.0
G1 Z11.9000 F2500.0
G4 P0.02
G1 X69.7723 Y-260.8310 F2200.0
G1 Z0.0000 F2500.0
G4 P0.02
G0 X69.6165 Y-256.7015 F15000.0
G1 Z11.9000 F2500.0
G4 P0.02
G1 X68.8373 Y-255.9613 F2200.0
G1 X68.5257 Y-255.8444
G1 X68.2140 Y-255.3769
G1 Z0.0000 F2500.0
G4 P0.02
G0 X68.2842 Y-258.3009 F15000.0
G1 Z11.9000 F2500.0
G4 P0.02
G1 X68.7907 Y-260.4047 F2200.0
G1 Z0.0000 F2500.0
G4 P0.02
G0 X68.5179 Y-260.8722 F15000.0
G1 Z11.9000 F2500.0
G4 P0.02
G1 X67.4271 Y-260.8332 F2200.0
G1 Z0.0000 F2500.0
G4 P0.02
G0 X68.1284 Y-257.7945 F15000.0
G1 Z11.9000 F2500.0
G4 P0.02
G1 X67.6609 Y-256.1582 F2200.0
G1 X67.0765 Y-255.5349
G1 X66.4142 Y-255.3790
G1 X65.9857 Y-255.5349
G1 X65.8298 Y-255.7297
G1 X65.7519 Y-256.0413
G1 X66.9596 Y-260.3657
G1 X67.1155 Y-260.5605
G1 Z0.0000 F2500.0
G4 P0.02
G0 X65.1913 Y-260.9111 F15000.0
G1 Z11.9000 F2500.0
G4 P0.02
G1 X66.0874 Y-260.9501 F2200.0
G1 Z0.0000 F2500.0
G4 P0.02
G0 X64.9965 Y-260.8332 F15000.0
G1 Z11.9000 F2500.0
G4 P0.02
G1 X64.8017 Y-260.6774 F2200.0
G1 Z0.0000 F2500.0
G4 P0.02
G0 X64.3732 Y-258.0672 F15000.0
G1 Z11.9000 F2500.0
G4 P0.02
G1 X65.3471 Y-257.9113 F2200.0
G1 X64.8017 Y-255.6128
G1 X64.6069 Y-255.4180
G1 X63.2044 Y-255.3401
G1 Z0.0000 F2500.0
G4 P0.02
G0 X64.4121 Y-260.0151 F15000.0
G1 Z11.9000 F2500.0
G4 P0.02
G1 X64.5290 Y-260.2878 F2200.0
G1 X64.2953 Y-259.7034
G1 X64.0615 Y-258.7295
G1 X64.2953 Y-258.1061
G1 Z0.0000 F2500.0
G4 P0.02
G0 X63.1160 Y-258.3009 F15000.0
G1 Z11.9000 F2500.0
G4 P0.02
G1 X63.6225 Y-260.4047 F2200.0
G1 Z0.0000 F2500.0
G4 P0.02
G0 X63.3498 Y-260.8722 F15000.0
G1 Z11.9000 F2500.0
G4 P0.02
G1 X62.2589 Y-260.8332 F2200.0
G1 Z0.0000 F2500.0
G4 P0.02
G0 X62.9602 Y-257.7945 F15000.0
G1 Z11.9000 F2500.0
G4 P0.02
G1 X62.4927 Y-256.1582 F2200.0
G1 X61.9083 Y-255.5349
G1 X61.2460 Y-255.3790
G1 X60.8175 Y-255.5349
G1 X60.6617 Y-255.7297
G1 X60.5837 Y-256.0413
G1 X61.7914 Y-260.3657
G1 X61.9473 Y-260.5605
G1 Z0.0000 F2500.0
G4 P0.02
G0 X60.6637 Y-259.1170 F15000.0
G1 Z11.9000 F2500.0
G4 P0.02
G1 X58.8716 Y-259.0001 F2200.0
G1 Z0.0000 F2500.0
G4 P0.02
G0 X58.4819 Y-260.9501 F15000.0
G1 Z11.9000 F2500.0
G4 P0.02
G1 X58.0144 Y-260.1319 F2200.0
G1 X58.0923 Y-260.2099
G1 X57.7417 Y-259.7813
G1 Z0.0000 F2500.0
G4 P0.02
G0 X58.4819 Y-260.9501 F15000.0
G1 Z11.9000 F2500.0
G4 P0.02
G1 X56.8457 Y-260.9501 F2200.0
G1 Z0.0000 F2500.0
G4 P0.02
G0 X57.2742 Y-256.1582 F15000.0
G1 Z11.9000 F2500.0
G4 P0.02
G1 X57.0015 Y-255.8076 F2200.0
G1 X56.5340 Y-255.4959
G1 X56.0665 Y-255.4180
G1 X55.5990 Y-255.8076
G1 X55.5211 Y-256.0024
G1 X55.5600 Y-256.7815
G1 X55.5600 Y-256.6257
G1 X55.8327 Y-257.2880
G1 X56.8846 Y-258.6515
G1 X56.8067 Y-258.5736
G1 Z0.0000 F2500.0
G4 P0.02
G0 X55.2050 Y-258.3009 F15000.0
G1 Z11.9000 F2500.0
G4 P0.02
G1 X55.7114 Y-260.4047 F2200.0
G1 Z0.0000 F2500.0
G4 P0.02
G0 X55.4387 Y-260.8722 F15000.0
G1 Z11.9000 F2500.0
G4 P0.02
G1 X54.3479 Y-260.8332 F2200.0
G1 Z0.0000 F2500.0
G4 P0.02
G0 X55.0492 Y-257.7945 F15000.0
G1 Z11.9000 F2500.0
G4 P0.02
G1 X54.5817 Y-256.1582 F2200.0
G1 X53.9973 Y-255.5349
G1 X53.3350 Y-255.3790
G1 X52.9065 Y-255.5349
G1 X52.7506 Y-255.7297
G1 X52.6727 Y-256.0413
G1 X53.8804 Y-260.3657
G1 X54.0362 Y-260.5605
G1 Z0.0000 F2500.0
G4 P0.02
G0 X50.8743 Y-255.8834 F15000.0
G1 Z11.9000 F2500.0
G4 P0.02
G1 X52.1599 Y-260.8310 F2200.0
G1 Z0.0000 F2500.0
G4 P0.02
G0 X52.0041 Y-256.7015 F15000.0
G1 Z11.9000 F2500.0
G4 P0.02
G1 X51.2249 Y-255.9613 F2200.0
G1 X50.9133 Y-255.8444
G1 X50.6016 Y-255.3769
G1 Z0.0000 F2500.0
G4 P0.02
G0 X50.3217 Y-260.9111 F15000.0
G1 Z11.9000 F2500.0
G4 P0.02
G1 X51.2178 Y-260.9501 F2200.0
G1 Z0.0000 F2500.0
G4 P0.02
G0 X50.1269 Y-260.8332 F15000.0
G1 Z11.9000 F2500.0
G4 P0.02
G1 X49.9321 Y-260.6774 F2200.0
G1 Z0.0000 F2500.0
G4 P0.02
G0 X49.8153 Y-255.4570 F15000.0
G1 Z11.9000 F2500.0
G4 P0.02
G1 X48.8803 Y-255.5349 F2200.0
G1 X48.6465 Y-256.0024
G1 X48.8023 Y-256.7426
G1 X49.4646 Y-258.0282
G1 X49.2698 Y-258.3788
G1 X49.2309 Y-258.9632
G1 X49.3088 Y-259.3138
G1 X49.2698 Y-259.0411
G1 X49.6594 Y-260.2878
G1 X49.5426 Y-260.0151
G1 Z0.0000 F2500.0
G4 P0.02
G0 X49.5036 Y-257.9892 F15000.0
G1 Z11.9000 F2500.0
G4 P0.02
G1 X49.7763 Y-257.9892 F2200.0
G1 Z0.0000 F2500.0
G4 P0.02
G0 X74.3442 Y-226.7177 F15000.0
G1 Z11.9000 F2500.0
G4 P0.02
G1 X73.2144 Y-224.0296 F2200.0
G1 X72.2794 Y-221.1467
G1 Z0.0000 F2500.0
G4 P0.02
G0 X72.7469 Y-223.8738 F15000.0
G1 Z11.9000 F2500.0
G4 P0.02
G1 X73.1754 Y-224.0686 F2200.0
G1 Z0.0000 F2500.0
G4 P0.02
G0 X72.5521 Y-223.7180 F15000.0
G1 Z11.9000 F2500.0
G4 P0.02
G1 X72.0846 Y-223.5232 F2200.0
G1 X71.9288 Y-223.1726
G1 X72.0457 Y-223.5621
G1 X71.7730 Y-226.5619
G1 Z0.0000 F2500.0
G4 P0.02
G0 X71.7730 Y-223.0167 F15000.0
G1 Z11.9000 F2500.0
G4 P0.02
G1 X71.2665 Y-222.5492 F2200.0
G1 Z0.0000 F2500.0
G4 P0.02
G0 X70.9938 Y-222.3155 F15000.0
G1 Z11.9000 F2500.0
G4 P0.02
G1 X70.1367 Y-221.5363 F2200.0
G1 Z0.0000 F2500.0
G4 P0.02
G0 X69.8640 Y-221.3026 F15000.0
G1 Z11.9000 F2500.0
G4 P0.02
G1 X69.7471 Y-221.1857 F2200.0
G1 Z0.0000 F2500.0
G4 P0.02
G0 X70.6932 Y-226.7177 F15000.0
G1 Z11.9000 F2500.0
G4 P0.02
G1 X69.4466 Y-223.6400 F2200.0
G1 X68.6284 Y-221.1467
G1 Z0.0000 F2500.0
G4 P0.02
G0 X69.4076 Y-223.6790 F15000.0
G1 Z11.9000 F2500.0
G4 P0.02
G1 X67.0701 Y-223.7179 F2200.0
G1 X68.1220 Y-226.7177
G1 Z0.0000 F2500.0
G4 P0.02
G0 X66.9922 Y-223.6400 F15000.0
G1 Z11.9000 F2500.0
G4 P0.02
G1 X66.2520 Y-221.7311 F2200.0
G1 Z0.0000 F2500.0
G4 P0.02
G0 X66.7306 Y-225.8877 F15000.0
G1 Z11.9000 F2500.0
G4 P0.02
G1 X67.0423 Y-226.7059 F2200.0
G1 Z0.0000 F2500.0
G4 P0.02
G0 X66.6917 Y-225.8098 F15000.0
G1 Z11.9000 F2500.0
G4 P0.02
G1 X66.4969 Y-225.2644 F2200.0
G1 Z0.0000 F2500.0
G4 P0.02
G0 X66.2631 Y-224.6411 F15000.0
G1 Z11.9000 F2500.0
G4 P0.02
G1 X65.8735 Y-223.5892 F2200.0
G1 X62.8738 Y-221.0569
G1 Z0.0000 F2500.0
G4 P0.02
G0 X63.8046 Y-226.5951 F15000.0
G1 Z11.9000 F2500.0
G4 P0.02
G1 X63.9761 Y-226.5951 F2200.0
G1 Z0.0000 F2500.0
G4 P0.02
G0 X60.0323 Y-226.3942 F15000.0
G1 Z11.9000 F2500.0
G4 P0.02
G1 X60.0712 Y-225.4982 F2200.0
G1 X58.6298 Y-221.7971
G1 X57.9285 Y-221.2517
G1 X56.9935 Y-221.0959
G1 X56.4481 Y-221.2907
G1 X56.2144 Y-221.6413
G1 X56.2144 Y-222.1478
G1 X57.5000 Y-225.6930
G1 X57.4221 Y-225.4982
G1 Z0.0000 F2500.0
G4 P0.02
G0 X59.7596 Y-226.6280 F15000.0
G1 Z11.9000 F2500.0
G4 P0.02
G1 X58.4350 Y-226.5890 F2200.0
G1 Z0.0000 F2500.0
G4 P0.02
G0 X57.6948 Y-226.0436 F15000.0
G1 Z11.9000 F2500.0
G4 P0.02
G1 X58.1233 Y-226.4332 F2200.0
G1 Z0.0000 F2500.0
G4 P0.02
G0 X55.5635 Y-226.5111 F15000.0
G1 Z11.9000 F2500.0
G4 P0.02
G1 X55.9921 Y-226.7059 F2200.0
G1 Z0.0000 F2500.0
G4 P0.02
G0 X55.5246 Y-223.7450 F15000.0
G1 Z11.9000 F2500.0
G4 P0.02
G1 X55.4467 Y-222.8101 F2200.0
G1 X55.0960 Y-222.0309
G1 X54.5896 Y-221.4076
G1 X53.3429 Y-221.0959
G1 X52.8754 Y-221.2128
G1 X52.5637 Y-221.6413
G1 X52.5637 Y-222.1478
G1 X52.6417 Y-222.3815
G1 X52.6027 Y-222.2257
G1 Z0.0000 F2500.0
G4 P0.02
G0 X55.4856 Y-223.8230 F15000.0
G1 Z11.9000 F2500.0
G4 P0.02
G1 X53.4598 Y-224.1346 F2200.0
G1 Z0.0000 F2500.0
G4 P0.02
G0 X55.0960 Y-226.2773 F15000.0
G1 Z11.9000 F2500.0
G4 P0.02
G1 X55.3298 Y-226.3942 F2200.0
G1 Z0.0000 F2500.0
G4 P0.02
G0 X54.7844 Y-226.0436 F15000.0
G1 Z11.9000 F2500.0
G4 P0.02
G1 X54.9012 Y-226.1605 F2200.0
G1 X54.3558 Y-225.6930
G1 X54.4337 Y-225.7709
G1 X53.8104 Y-225.0307
G1 X53.1481 Y-223.7450
G1 Z0.0000 F2500.0
G4 P0.02
G0 X53.1692 Y-226.5951 F15000.0
G1 Z11.9000 F2500.0
G4 P0.02
G1 X53.3406 Y-226.5951 F2200.0
G1 Z0.0000 F2500.0
G4 P0.02
G0 X51.7779 Y-226.3942 F15000.0
G1 Z11.9000 F2500.0
G4 P0.02
G1 X51.8169 Y-225.4982 F2200.0
G1 X50.3754 Y-221.7971
G1 X49.6742 Y-221.2517
G1 X48.7392 Y-221.0959
G1 X48.1937 Y-221.2907
G1 X47.9600 Y-221.6413
G1 X47.9600 Y-222.1478
G1 X49.2456 Y-225.6930
G1 X49.1677 Y-225.4982
G1 Z0.0000 F2500.0
G4 P0.02
G0 X51.5052 Y-226.6280 F15000.0
G1 Z11.9000 F2500.0
G4 P0.02
G1 X50.1806 Y-226.5890 F2200.0
G1 Z0.0000 F2500.0
G4 P0.02
G0 X49.4404 Y-226.0436 F15000.0
G1 Z11.9000 F2500.0
G4 P0.02
G1 X49.8689 Y-226.4332 F2200.0
G1 Z0.0000 F2500.0
G4 P0.02
G0 X47.1421 Y-226.3141 F15000.0
G1 Z11.9000 F2500.0
G4 P0.02
G1 X47.2590 Y-226.5868 F2200.0
G1 X46.3630 Y-224.1714
G1 Z0.0000 F2500.0
G4 P0.02
G0 X47.0253 Y-222.3794 F15000.0
G1 Z11.9000 F2500.0
G4 P0.02
G1 X45.9344 Y-221.6392 F2200.0
G1 X45.5448 Y-221.5223
G1 Z0.0000 F2500.0
G4 P0.02
G0 X46.1682 Y-223.6260 F15000.0
G1 Z11.9000 F2500.0
G4 P0.02
G1 X46.2461 Y-223.8598 F2200.0
G1 X45.7396 Y-222.4573
G1 X45.5059 Y-221.5223
G1 X45.1942 Y-221.0937
G1 Z0.0000 F2500.0
G4 P0.02
G0 X46.1847 Y-226.5951 F15000.0
G1 Z11.9000 F2500.0
G4 P0.02
G1 X46.3561 Y-226.5951 F2200.0
G1 Z0.0000 F2500.0
G4 P0.02
G0 X44.7934 Y-226.3942 F15000.0
G1 Z11.9000 F2500.0
G4 P0.02
G1 X44.8324 Y-225.4982 F2200.0
G1 X43.3909 Y-221.7971
G1 X42.6897 Y-221.2517
G1 X41.7547 Y-221.0959
G1 X41.2093 Y-221.2907
G1 X40.9755 Y-221.6413
G1 X40.9755 Y-222.1478
G1 X42.2612 Y-225.6930
G1 X42.1832 Y-225.4982
G1 Z0.0000 F2500.0
G4 P0.02
G0 X44.5207 Y-226.6280 F15000.0
G1 Z11.9000 F2500.0
G4 P0.02
G1 X43.1962 Y-226.5890 F2200.0
G1 Z0.0000 F2500.0
G4 P0.02
G0 X42.4560 Y-226.0436 F15000.0
G1 Z11.9000 F2500.0
G4 P0.02
G1 X42.8845 Y-226.4332 F2200.0
G1 Z0.0000 F2500.0
G4 P0.02
G0 X41.3070 Y-226.6669 F15000.0
G1 Z11.9000 F2500.0
G4 P0.02
G1 X41.5407 Y-226.7448 F2200.0
G1 Z0.0000 F2500.0
G4 P0.02
G0 X41.2680 Y-226.6280 F15000.0
G1 Z11.9000 F2500.0
G4 P0.02
G1 X39.4760 Y-224.6021 F2200.0
G1 Z0.0000 F2500.0
G4 P0.02
G0 X39.0474 Y-226.6280 F15000.0
G1 Z11.9000 F2500.0
G4 P0.02
G1 X41.2680 Y-226.6669 F2200.0
G1 Z0.0000 F2500.0
G4 P0.02
G0 X39.8266 Y-221.9919 F15000.0
G1 Z11.9000 F2500.0
G4 P0.02
G1 X39.0085 Y-221.2907 F2200.0
G1 X38.7357 Y-221.2128
G1 X37.5280 Y-221.4465
G1 X37.4112 Y-222.2646
G1 X37.6839 Y-222.8101
G1 X37.6060 Y-222.7321
G1 Z0.0000 F2500.0
G4 P0.02
G0 X38.2800 Y-260.8722 F15000.0
G1 Z11.9000 F2500.0
G4 P0.02
G1 X40.2669 Y-261.0669 F2200.0
G1 Z0.0000 F2500.0
G4 P0.02
G0 X38.2800 Y-258.0282 F15000.0
G1 Z11.9000 F2500.0
G4 P0.02
G1 X36.6827 Y-257.9503 F2200.0
G1 Z0.0000 F2500.0
G4 P0.02
G0 X36.3711 Y-255.4570 F15000.0
G1 Z11.9000 F2500.0
G4 P0.02
G1 X38.2021 Y-255.4570 F2200.0
G1 Z0.0000 F2500.0
G4 P0.02
G0 X37.8904 Y-260.6774 F15000.0
G1 Z11.9000 F2500.0
G4 P0.02
G1 X38.2021 Y-260.8332 F2200.0
G1 Z0.0000 F2500.0
G4 P0.02
G0 X37.4229 Y-260.2099 F15000.0
G1 Z11.9000 F2500.0
G4 P0.02
G1 X36.6827 Y-258.3788 F2200.0
G1 X36.6438 Y-257.9892
G1 X36.2152 Y-257.0542
G1 X36.2931 Y-257.2880
G1 X36.1373 Y-256.8595
G1 X35.9815 Y-255.8855
G1 X36.2931 Y-255.4959
G1 Z0.0000 F2500.0
G4 P0.02
G0 X35.0442 Y-260.1709 F15000.0
G1 Z11.9000 F2500.0
G4 P0.02
G1 X35.3559 Y-260.9890 F2200.0
G1 Z0.0000 F2500.0
G4 P0.02
G0 X35.0053 Y-260.0930 F15000.0
G1 Z11.9000 F2500.0
G4 P0.02
G1 X34.9273 Y-259.8592 F2200.0
G1 Z0.0000 F2500.0
G4 P0.02
G0 X34.6936 Y-259.2359 F15000.0
G1 Z11.9000 F2500.0
G4 P0.02
G1 X33.3301 Y-255.3790 F2200.0
G1 X32.0444 Y-255.3401
G1 Z0.0000 F2500.0
G4 P0.02
G0 X34.4988 Y-255.4180 F15000.0
G1 Z11.9000 F2500.0
G4 P0.02
G1 X33.4080 Y-255.3790 F2200.0
G1 Z0.0000 F2500.0
G4 P0.02
G0 X32.4360 Y-259.1170 F15000.0
G1 Z11.9000 F2500.0
G4 P0.02
G1 X29.9816 Y-259.0001 F2200.0
G1 Z0.0000 F2500.0
G4 P0.02
G0 X29.4847 Y-260.9501 F15000.0
G1 Z11.9000 F2500.0
G4 P0.02
G1 X29.7185 Y-261.0280 F2200.0
G1 Z0.0000 F2500.0
G4 P0.02
G0 X29.4458 Y-260.9111 F15000.0
G1 Z11.9000 F2500.0
G4 P0.02
G1 X27.6537 Y-258.8853 F2200.0
G1 Z0.0000 F2500.0
G4 P0.02
G0 X27.2252 Y-260.9111 F15000.0
G1 Z11.9000 F2500.0
G4 P0.02
G1 X29.4458 Y-260.9501 F2200.0
G1 Z0.0000 F2500.0
G4 P0.02
G0 X28.0043 Y-256.2751 F15000.0
G1 Z11.9000 F2500.0
G4 P0.02
G1 X27.1862 Y-255.5738 F2200.0
G1 X26.9135 Y-255.4959
G1 X25.7058 Y-255.7297
G1 X25.5889 Y-256.5478
G1 X25.8616 Y-257.0932
G1 X25.7837 Y-257.0153
G1 Z0.0000 F2500.0
G4 P0.02
G0 X25.8337 Y-260.9501 F15000.0
G1 Z11.9000 F2500.0
G4 P0.02
G1 X26.0675 Y-261.0280 F2200.0
G1 Z0.0000 F2500.0
G4 P0.02
G0 X25.7948 Y-260.9111 F15000.0
G1 Z11.9000 F2500.0
G4 P0.02
G1 X24.0027 Y-258.8853 F2200.0
G1 Z0.0000 F2500.0
G4 P0.02
G0 X23.5742 Y-260.9111 F15000.0
G1 Z11.9000 F2500.0
G4 P0.02
G1 X25.7948 Y-260.9501 F2200.0
G1 Z0.0000 F2500.0
G4 P0.02
G0 X24.3533 Y-256.2751 F15000.0
G1 Z11.9000 F2500.0
G4 P0.02
G1 X23.5352 Y-255.5738 F2200.0
G1 X23.2625 Y-255.4959
G1 X22.0548 Y-255.7297
G1 X21.9379 Y-256.5478
G1 X22.2106 Y-257.0932
G1 X22.1327 Y-257.0153
G1 Z0.0000 F2500.0
G4 P0.02
G0 X22.0572 Y-259.7813 F15000.0
G1 Z11.9000 F2500.0
G4 P0.02
G1 X22.0183 Y-260.6774 F2200.0
G1 Z0.0000 F2500.0
G4 P0.02
G0 X21.9793 Y-259.5865 F15000.0
G1 Z11.9000 F2500.0
G4 P0.02
G1 X20.6158 Y-256.0803 F2200.0
G1 X19.9145 Y-255.5349
G1 X18.9795 Y-255.3790
G1 X18.4341 Y-255.5738
G1 X18.2004 Y-255.9245
G1 X18.2004 Y-256.4309
G1 X19.4860 Y-259.9761
G1 X19.4081 Y-259.7813
G1 Z0.0000 F2500.0
G4 P0.02
G0 X21.7456 Y-260.9111 F15000.0
G1 Z11.9000 F2500.0
G4 P0.02
G1 X20.4210 Y-260.8722 F2200.0
G1 Z0.0000 F2500.0
G4 P0.02
G0 X19.6808 Y-260.3267 F15000.0
G1 Z11.9000 F2500.0
G4 P0.02
G1 X20.1093 Y-260.7163 F2200.0
G1 Z0.0000 F2500.0
G4 P0.02
G0 X18.3083 Y-259.1170 F15000.0
G1 Z11.9000 F2500.0
G4 P0.02
G1 X15.8539 Y-259.0001 F2200.0
G1 Z0.0000 F2500.0
G4 P0.02
G0 X15.2901 Y-260.2488 F15000.0
G1 Z11.9000 F2500.0
G4 P0.02
G1 X15.0953 Y-260.8332 F2200.0
G1 X13.6149 Y-260.8332
G1 X12.9526 Y-260.3657
G1 X12.7189 Y-259.8982
G1 X12.8357 Y-260.1319
G1 X12.3682 Y-258.9632
G1 X12.3682 Y-258.4957
G1 X12.6409 Y-257.9503
G1 X13.6539 Y-257.9892
G1 Z0.0000 F2500.0
G4 P0.02
G0 X13.3812 Y-255.7686 F15000.0
G1 Z11.9000 F2500.0
G4 P0.02
G1 X13.0305 Y-255.5738 F2200.0
G1 X12.0955 Y-255.4180
G1 X11.6280 Y-255.5738
G1 X11.3943 Y-255.9245
G1 X11.7060 Y-257.0932
G1 X12.0176 Y-257.5217
G1 Z0.0000 F2500.0
G4 P0.02
G0 X97.6440 Y-267.8336 F15000.0
G1 Z11.9000 F2500.0
G4 P0.02
G1 X97.8777 Y-268.4569 F2200.0
G1 Z0.0000 F2500.0
G4 P0.02
G0 X97.5271 Y-267.5998 F15000.0
G1 Z11.9000 F2500.0
G4 P0.02
G1 X96.7090 Y-265.5350 F2200.0
G1 Z0.0000 F2500.0
G4 P0.02
G0 X96.7479 Y-266.7817 F15000.0
G1 Z11.9000 F2500.0
G4 P0.02
G1 X97.1765 Y-266.9765 F2200.0
G1 Z0.0000 F2500.0
G4 P0.02
G0 X96.7090 Y-266.8207 F15000.0
G1 Z11.9000 F2500.0
G4 P0.02
G1 X96.5532 Y-268.3011 F2200.0
G1 Z0.0000 F2500.0
G4 P0.02
G0 X96.5921 Y-266.5869 F15000.0
G1 Z11.9000 F2500.0
G4 P0.02
G1 X95.8519 Y-265.9636 F2200.0
G1 Z0.0000 F2500.0
G4 P0.02
G0 X95.7327 Y-267.6419 F15000.0
G1 Z11.9000 F2500.0
G4 P0.02
G1 X95.8885 Y-268.0704 F2200.0
G1 X95.7327 Y-268.3431
G1 X94.3302 Y-266.5900
G1 X94.9925 Y-266.4342
G1 X95.3431 Y-266.6290
G1 X95.6547 Y-267.4471
G1 Z0.0000 F2500.0
G4 P0.02
G0 X94.3102 Y-267.9496 F15000.0
G1 Z11.9000 F2500.0
G4 P0.02
G1 X94.4660 Y-268.4560 F2200.0
G1 Z0.0000 F2500.0
G4 P0.02
G0 X94.2712 Y-267.8716 F15000.0
G1 Z11.9000 F2500.0
G4 P0.02
G1 X93.7648 Y-266.5860 F2200.0
G1 X92.8298 Y-266.4692
G1 X92.7908 Y-266.5471
G1 X93.1025 Y-267.6769
G1 Z0.0000 F2500.0
G4 P0.02
G0 X92.5579 Y-267.7504 F15000.0
G1 Z11.9000 F2500.0
G4 P0.02
G1 X92.5969 Y-268.2958 F2200.0
G1 X91.5839 Y-267.9452
G1 X90.9217 Y-266.3868
G1 Z0.0000 F2500.0
G4 P0.02
G0 X92.5189 Y-267.6725 F15000.0
G1 Z11.9000 F2500.0
G4 P0.02
G1 X92.0125 Y-266.3868 F2200.0
G1 Z0.0000 F2500.0
G4 P0.02
G0 X91.3343 Y-268.5728 F15000.0
G1 Z11.9000 F2500.0
G4 P0.02
G1 X91.6070 Y-269.1962 F2200.0
G1 Z0.0000 F2500.0
G4 P0.02
G0 X91.2953 Y-268.4949 F15000.0
G1 Z11.9000 F2500.0
G4 P0.02
G1 X91.1784 Y-268.1443 F2200.0
G1 X91.1395 Y-268.3391
G1 X90.2434 Y-268.2612
G1 X90.0097 Y-267.9106
G1 X89.5811 Y-266.7028
G1 X89.6980 Y-266.4301
G1 X90.5161 Y-266.4301
G1 X91.0616 Y-267.8326
G1 Z0.0000 F2500.0
G4 P0.02
G0 X89.3831 Y-267.6419 F15000.0
G1 Z11.9000 F2500.0
G4 P0.02
G1 X89.5390 Y-268.0704 F2200.0
G1 X89.3831 Y-268.3431
G1 X87.9806 Y-266.5900
G1 X88.6429 Y-266.4342
G1 X88.9936 Y-266.6290
G1 X89.3052 Y-267.4471
G1 Z0.0000 F2500.0
G4 P0.02
G0 X87.7943 Y-267.6458 F15000.0
G1 Z11.9000 F2500.0
G4 P0.02
G1 X87.9501 Y-268.0743 F2200.0
G1 X87.7943 Y-268.3470
G1 X86.9761 Y-268.1912
G1 X86.3918 Y-266.6718
G1 X86.8593 Y-266.3991
G1 X87.2878 Y-266.4381
G1 Z0.0000 F2500.0
G4 P0.02
G0 X87.7163 Y-267.4510 F15000.0
G1 Z11.9000 F2500.0
G4 P0.02
G1 X87.0930 Y-265.7758 F2200.0
G1 Z0.0000 F2500.0
G4 P0.02
G0 X86.7813 Y-265.5810 F15000.0
G1 Z11.9000 F2500.0
G4 P0.02
G1 X86.5865 Y-265.6199 F2200.0
G1 X86.5086 Y-265.7758
G1 X86.7424 Y-266.1264
G1 Z0.0000 F2500.0
G4 P0.02
G0 X86.2084 Y-267.6379 F15000.0
G1 Z11.9000 F2500.0
G4 P0.02
G1 X86.3642 Y-268.0665 F2200.0
G1 X86.2084 Y-268.3392
G1 X85.6630 Y-268.3002
G1 X85.2734 Y-268.1444
G1 X84.7669 Y-266.4302
G1 X85.7799 Y-266.5861
G1 X86.1305 Y-267.4431
G1 Z0.0000 F2500.0
G4 P0.02
G0 X84.6973 Y-268.0216 F15000.0
G1 Z11.9000 F2500.0
G4 P0.02
G1 X84.8532 Y-268.3333 F2200.0
G1 X83.7624 Y-266.4633
G1 X83.1780 Y-266.4633
G1 X83.7624 Y-268.1775
G1 Z0.0000 F2500.0
G4 P0.02
G0 X37.2787 Y-266.7812 F15000.0
G1 Z11.9000 F2500.0
G4 P0.02
G1 X37.2397 Y-267.5214 F2200.0
G1 X37.1229 Y-267.6383
G1 X36.5774 Y-267.7551
G1 X36.8112 Y-268.4174
G1 X36.7333 Y-268.1837
G1 Z0.0000 F2500.0
G4 P0.02
G0 X37.1618 Y-266.5864 F15000.0
G1 Z11.9000 F2500.0
G4 P0.02
G1 X36.6164 Y-266.1579 F2200.0
G1 X35.9931 Y-265.9631
G1 Z0.0000 F2500.0
G4 P0.02
G0 X36.4606 Y-267.5214 F15000.0
G1 Z11.9000 F2500.0
G4 P0.02
G1 X36.4606 Y-267.7162 F2200.0
G1 X35.4477 Y-267.3266
G1 Z0.0000 F2500.0
G4 P0.02
G0 X36.3827 Y-267.3266 F15000.0
G1 Z11.9000 F2500.0
G4 P0.02
G1 X36.4216 Y-267.4435 F2200.0
G1 X35.9541 Y-266.1968
G1 X35.9541 Y-266.0020
G1 X35.7983 Y-265.9241
G1 X35.7593 Y-265.7293
G1 X35.7593 Y-265.9631
G1 X35.2529 Y-266.1189
G1 X35.1360 Y-266.2358
G1 X35.0970 Y-266.6643
G1 Z0.0000 F2500.0
G4 P0.02
G0 X34.9434 Y-267.6419 F15000.0
G1 Z11.9000 F2500.0
G4 P0.02
G1 X35.0993 Y-268.0704 F2200.0
G1 X34.9434 Y-268.3431
G1 X33.5410 Y-266.5900
G1 X34.2032 Y-266.4342
G1 X34.5539 Y-266.6290
G1 X34.8655 Y-267.4471
G1 Z0.0000 F2500.0
G4 P0.02
G0 X33.7198 Y-268.5728 F15000.0
G1 Z11.9000 F2500.0
G4 P0.02
G1 X33.9925 Y-269.1962 F2200.0
G1 Z0.0000 F2500.0
G4 P0.02
G0 X33.6808 Y-268.4949 F15000.0
G1 Z11.9000 F2500.0
G4 P0.02
G1 X33.5640 Y-268.1443 F2200.0
G1 X33.5250 Y-268.3391
G1 X32.6290 Y-268.2612
G1 X32.3952 Y-267.9106
G1 X31.9667 Y-266.7028
G1 X32.0836 Y-266.4301
G1 X32.9017 Y-266.4301
G1 X33.4471 Y-267.8326
G1 Z0.0000 F2500.0
G4 P0.02
G0 X31.3882 Y-266.8418 F15000.0
G1 Z11.9000 F2500.0
G4 P0.02
G1 X31.2713 Y-266.7250 F2200.0
G1 X31.2324 Y-266.3743
G1 X31.2324 Y-266.8029
G1 X31.0376 Y-267.2314
G1 X30.8817 Y-267.1925
G1 Z0.0000 F2500.0
G4 P0.02
G0 X30.2584 Y-266.8808 F15000.0
G1 Z11.9000 F2500.0
G4 P0.02
G1 X30.7259 Y-268.2443 F2200.0
G1 Z0.0000 F2500.0
G4 P0.02
G0 X30.6090 Y-266.9977 F15000.0
G1 Z11.9000 F2500.0
G4 P0.02
G1 X30.2584 Y-266.8029 F2200.0
G1 X30.0247 Y-266.4523
G1 Z0.0000 F2500.0
G4 P0.02
G0 X29.9432 Y-267.6379 F15000.0
G1 Z11.9000 F2500.0
G4 P0.02
G1 X30.0991 Y-268.0665 F2200.0
G1 X29.9432 Y-268.3392
G1 X29.3978 Y-268.3002
G1 X29.0082 Y-268.1444
G1 X28.5018 Y-266.4302
G1 X29.5147 Y-266.5861
G1 X29.8653 Y-267.4431
G1 Z0.0000 F2500.0
G4 P0.02
G0 X28.5207 Y-267.9496 F15000.0
G1 Z11.9000 F2500.0
G4 P0.02
G1 X28.6766 Y-268.4560 F2200.0
G1 Z0.0000 F2500.0
G4 P0.02
G0 X28.4818 Y-267.8716 F15000.0
G1 Z11.9000 F2500.0
G4 P0.02
G1 X27.9753 Y-266.5860 F2200.0
G1 X27.1572 Y-266.4302
G1 Z0.0000 F2500.0
G4 P0.02
G0 X27.6637 Y-267.9496 F15000.0
G1 Z11.9000 F2500.0
G4 P0.02
G1 X27.8195 Y-268.4560 F2200.0
G1 Z0.0000 F2500.0
G4 P0.02
G0 X27.6247 Y-267.8716 F15000.0
G1 Z11.9000 F2500.0
G4 P0.02
G1 X27.0793 Y-266.4302 F2200.0
G1 X26.3780 Y-266.7419
G1 X26.9624 Y-268.4560
G1 X26.8845 Y-268.1054
G1 Z0.0000 F2500.0
G4 P0.02

G0 Z0.0000 F800.0
G4 P0.06
G0 X0.0000 Y0.0000 F15000.0
M5
G4 P0.10
$1=0
