$X
$1=255
G21
G90
G0 Z0.0000 F800.0
G4 P0.06
G92 Z0.0000
G0 Z0.0000 F800.0
G0 X0.0000 Y0.0000 F15000.0
G21
G90
G17
G91.1
G0 Z0.0000
G0 X0.0000 Y-294.6235 F15000.0
G1 Z11.9000 F8000.0
G1 X180.0000 Y-294.6235 F12000.0
G1 Z0.0000 F8000.0
G0 X16.8861 Y-284.3297 F15000.0
G1 Z11.9000 F8000.0
G1 X13.7872 Y-285.5242 F12000.0
G1 X13.7107 Y-286.6233
G1 X13.8865 Y-286.8475
G1 X16.8861 Y-285.7993
G1 Z0.0000 F8000.0
G0 X15.5762 Y-288.1063 F15000.0
G1 Z11.9000 F8000.0
G1 X16.7478 Y-287.5628 F12000.0
G1 X16.8579 Y-286.7548
G1 X16.5868 Y-286.5347
G1 X14.9320 Y-287.1776
G1 X14.7334 Y-288.1010
G1 X15.0152 Y-288.2674
G1 X15.5762 Y-288.1063
G1 Z0.0000 F8000.0
G0 X14.9441 Y-289.0350 F15000.0
G1 Z11.9000 F8000.0
G1 X14.7347 Y-289.8403 F12000.0
G1 X15.0729 Y-289.9651
G1 X15.9829 Y-289.5356
G1 X16.6405 Y-289.3652
G1 X16.8310 Y-289.0713
G1 X16.7290 Y-288.3922
G1 X16.5922 Y-288.3291
G1 Z0.0000 F8000.0
G0 X15.7681 Y-289.4471 F15000.0
G1 Z11.9000 F8000.0
G1 X15.7681 Y-289.1531 F12000.0
G1 Z0.0000 F8000.0
G0 X19.5327 Y-279.9760 F15000.0
G1 Z11.9000 F8000.0
G1 X158.5522 Y-279.9760 F12000.0
G1 X158.5522 Y-294.4477
G1 Z0.0000 F8000.0
G0 X39.8518 Y-287.5775 F15000.0
G1 Z11.9000 F8000.0
G1 X40.5510 Y-289.2323 F12000.0
G1 X41.1590 Y-289.6766
G1 X41.9964 Y-289.7074
G1 X42.2836 Y-289.5169
G1 X42.4178 Y-289.0176
G1 X41.0999 Y-285.6584
G1 X40.5658 Y-285.2933
G1 X39.8182 Y-285.2356
G1 X39.3686 Y-285.4530
G1 X39.2519 Y-285.9147
G1 X39.8518 Y-287.5775
G1 Z0.0000 F8000.0
G0 X44.3008 Y-288.5063 F15000.0
G1 Z11.9000 F8000.0
G1 X43.1184 Y-288.1399 F12000.0
G1 X42.7104 Y-287.4635
G1 X42.1038 Y-285.4946
G1 X42.3132 Y-285.2611
G1 X42.7480 Y-285.2141
G1 X43.6338 Y-285.4409
G1 X44.2994 Y-286.9333
G1 X44.5920 Y-288.0929
G1 X43.7760 Y-289.6095
G1 X43.9975 Y-289.7437
G1 X45.2429 Y-289.7410
G1 Z0.0000 F8000.0
G0 X46.5662 Y-288.3882 F15000.0
G1 Z11.9000 F8000.0
G1 X47.1245 Y-288.2298 F12000.0
G1 X47.1876 Y-287.9278
G1 X46.3233 Y-285.5591
G1 X45.9797 Y-285.2933
G1 X44.8846 Y-285.2705
G1 X44.6725 Y-285.5537
G1 X45.4993 Y-287.8554
G1 X45.9972 Y-288.3036
G1 X46.5662 Y-288.3882
G1 Z0.0000 F8000.0
G0 X47.1836 Y-285.5644 F15000.0
G1 Z11.9000 F8000.0
G1 X47.6305 Y-285.2289 F12000.0
G1 X48.5686 Y-285.4409
G1 X48.9632 Y-286.1482
G1 X49.0289 Y-286.8783
G1 X49.5362 Y-287.8231
G1 X49.3483 Y-288.3345
G1 X48.8290 Y-288.3439
G1 X48.1834 Y-287.9761
G1 Z0.0000 F8000.0
G0 X48.3015 Y-286.8005 F15000.0
G1 Z11.9000 F8000.0
G1 X48.8316 Y-286.7414 F12000.0
G1 Z0.0000 F8000.0
G0 X49.5376 Y-285.2705 F15000.0
G1 Z11.9000 F8000.0
G1 X50.1845 Y-286.8595 F12000.0
G1 Z0.0000 F8000.0
G0 X50.6555 Y-288.2714 F15000.0
G1 Z11.9000 F8000.0
G1 X50.2838 Y-287.3293 F12000.0
G1 X50.2086 Y-286.9239
G1 X50.5374 Y-286.8005
G1 X51.7668 Y-286.8327
G1 X52.0057 Y-287.2702
G1 X52.3613 Y-288.2714
G1 Z0.0000 F8000.0
G0 X51.7144 Y-286.7414 F15000.0
G1 Z11.9000 F8000.0
G1 X51.3024 Y-285.3296 F12000.0
G1 Z0.0000 F8000.0
G0 X52.4324 Y-286.1415 F15000.0
G1 Z11.9000 F8000.0
G1 X53.2203 Y-288.0298 F12000.0
G1 X53.8161 Y-288.3734
G1 X54.8348 Y-288.2835
G1 X54.8482 Y-287.9533
G1 X53.9705 Y-285.5778
G1 X53.6081 Y-285.3027
G1 X52.5103 Y-285.2557
G1 X52.2660 Y-285.6127
G1 X52.4324 Y-286.1415
G1 Z0.0000 F8000.0
G0 X53.9490 Y-285.4463 F15000.0
G1 Z11.9000 F8000.0
G1 X54.1262 Y-285.2705 F12000.0
G1 Z0.0000 F8000.0
G0 X55.7729 Y-288.2714 F15000.0
G1 Z11.9000 F8000.0
G1 X55.3931 Y-287.0085 F12000.0
G1 X55.5528 Y-286.8488
G1 X56.8573 Y-286.8179
G1 X57.0613 Y-287.0917
G1 X57.4800 Y-288.2714
G1 Z0.0000 F8000.0
G0 X56.8318 Y-286.7414 F15000.0
G1 Z11.9000 F8000.0
G1 X56.4198 Y-285.3296 F12000.0
G1 Z0.0000 F8000.0
G0 X57.8907 Y-286.8595 F15000.0
G1 Z11.9000 F8000.0
G1 X58.2745 Y-287.9829 F12000.0
G1 X58.6181 Y-288.2741
G1 X59.4435 Y-288.4029
G1 X59.8676 Y-288.1533
G1 X59.8729 Y-287.7789
G1 X59.5388 Y-286.8944
G1 X59.3240 Y-286.7991
G1 X57.8504 Y-286.7683
G1 X57.4411 Y-285.3926
G1 X57.8961 Y-285.2074
G1 X58.9496 Y-285.2705
G1 Z0.0000 F8000.0
G0 X59.8327 Y-285.2705 F15000.0
G1 Z11.9000 F8000.0
G1 X60.4796 Y-286.8595 F12000.0
G1 Z0.0000 F8000.0
G0 X60.9506 Y-288.2714 F15000.0
G1 Z11.9000 F8000.0
G1 X60.5789 Y-287.3293 F12000.0
G1 X60.5051 Y-286.9239
G1 X60.8325 Y-286.8005
G1 X62.0619 Y-286.8327
G1 X62.3021 Y-287.2702
G1 X62.6564 Y-288.2714
G1 Z0.0000 F8000.0
G0 X62.0095 Y-286.7414 F15000.0
G1 Z11.9000 F8000.0
G1 X61.5975 Y-285.3296 F12000.0
G1 Z0.0000 F8000.0
G0 X63.5395 Y-288.2714 F15000.0
G1 Z11.9000 F8000.0
G1 X62.5907 Y-285.4409 F12000.0
G1 X63.0429 Y-285.2034
G1 X64.1327 Y-285.3255
G1 X64.3367 Y-285.6785
G1 X65.2453 Y-288.2714
G1 Z0.0000 F8000.0
G0 X65.5983 Y-286.8595 F15000.0
G1 Z11.9000 F8000.0
G1 X65.9808 Y-287.9829 F12000.0
G1 X66.3243 Y-288.2741
G1 X67.1497 Y-288.4029
G1 X67.5752 Y-288.1533
G1 X67.5805 Y-287.7789
G1 X67.2450 Y-286.8944
G1 X67.0316 Y-286.7991
G1 X65.5580 Y-286.7683
G1 X65.1487 Y-285.3926
G1 X65.6036 Y-285.2074
G1 X66.6572 Y-285.2705
G1 Z0.0000 F8000.0
G0 X102.1324 Y-285.2705 F15000.0
G1 Z11.9000 F8000.0
G1 X103.0732 Y-287.6822 F12000.0
G1 Z0.0000 F8000.0
G0 X103.7792 Y-289.7410 F15000.0
G1 Z11.9000 F8000.0
G1 X103.0732 Y-287.6822 F12000.0
G1 X105.0555 Y-287.7077
G1 X105.8392 Y-289.6833
G1 Z0.0000 F8000.0
G0 X104.2502 Y-285.3296 F15000.0
G1 Z11.9000 F8000.0
G1 X104.9562 Y-287.6232 F12000.0
G1 Z0.0000 F8000.0
G0 X105.3816 Y-286.1415 F15000.0
G1 Z11.9000 F8000.0
G1 X106.1681 Y-288.0298 F12000.0
G1 X106.7639 Y-288.3734
G1 X107.7839 Y-288.2835
G1 X107.7973 Y-287.9533
G1 X106.9183 Y-285.5778
G1 X106.5573 Y-285.3027
G1 X105.4581 Y-285.2557
G1 X105.2138 Y-285.6127
G1 X105.3816 Y-286.1415
G1 Z0.0000 F8000.0
G0 X106.8982 Y-285.4463 F15000.0
G1 Z11.9000 F8000.0
G1 X107.0740 Y-285.2705 F12000.0
G1 Z0.0000 F8000.0
G0 X108.7797 Y-288.2714 F15000.0
G1 Z11.9000 F8000.0
G1 X107.8309 Y-285.4409 F12000.0
G1 X108.2845 Y-285.2034
G1 X109.3743 Y-285.3255
G1 X109.5783 Y-285.6785
G1 X110.4869 Y-288.2714
G1 Z0.0000 F8000.0
G0 X110.2507 Y-285.2705 F15000.0
G1 Z11.9000 F8000.0
G1 X110.8747 Y-286.9763 F12000.0
G1 X111.3686 Y-287.9761
G1 Z0.0000 F8000.0
G0 X111.3686 Y-288.1533 F15000.0
G1 Z11.9000 F8000.0
G1 X111.7994 Y-287.0595 F12000.0
G1 X112.2517 Y-287.1910
G1 X113.1335 Y-287.9184
G1 Z0.0000 F8000.0
G0 X112.3685 Y-285.3296 F15000.0
G1 Z11.9000 F8000.0
G1 X113.3697 Y-288.2123 F12000.0
G1 Z0.0000 F8000.0
G0 X113.8394 Y-286.8595 F15000.0
G1 Z11.9000 F8000.0
G1 X114.2232 Y-287.9829 F12000.0
G1 X114.5668 Y-288.2741
G1 X115.3922 Y-288.4029
G1 X115.8163 Y-288.1533
G1 X115.8217 Y-287.7789
G1 X115.4861 Y-286.8944
G1 X115.2727 Y-286.7991
G1 X113.7991 Y-286.7683
G1 X113.3898 Y-285.3926
G1 X113.8448 Y-285.2074
G1 X114.8983 Y-285.2705
G1 Z0.0000 F8000.0
G0 X115.7814 Y-285.2705 F15000.0
G1 Z11.9000 F8000.0
G1 X116.4283 Y-286.8595 F12000.0
G1 Z0.0000 F8000.0
G0 X116.8993 Y-288.2714 F15000.0
G1 Z11.9000 F8000.0
G1 X116.5276 Y-287.3293 F12000.0
G1 X116.4524 Y-286.9239
G1 X116.7812 Y-286.8005
G1 X118.0106 Y-286.8327
G1 X118.2508 Y-287.2702
G1 X118.6051 Y-288.2714
G1 Z0.0000 F8000.0
G0 X117.9582 Y-286.7414 F15000.0
G1 Z11.9000 F8000.0
G1 X117.5462 Y-285.3296 F12000.0
G1 Z0.0000 F8000.0
G0 X120.3995 Y-288.3882 F15000.0
G1 Z11.9000 F8000.0
G1 X120.9578 Y-288.2298 F12000.0
G1 X121.0209 Y-287.9278
G1 X120.1566 Y-285.5591
G1 X119.8130 Y-285.2933
G1 X118.7179 Y-285.2705
G1 X118.5058 Y-285.5537
G1 X119.3325 Y-287.8554
G1 X119.8305 Y-288.3036
G1 X120.3995 Y-288.3882
G1 Z0.0000 F8000.0
G0 X122.0167 Y-288.2714 F15000.0
G1 Z11.9000 F8000.0
G1 X121.0705 Y-285.4517 F12000.0
G1 X121.4718 Y-285.2101
G1 X122.4287 Y-285.3255
G1 X122.7750 Y-285.7188
G1 X123.5547 Y-287.9064
G1 X123.3722 Y-288.3251
G1 X122.7240 Y-288.5063
G1 Z0.0000 F8000.0
G0 X123.1186 Y-288.9035 F15000.0
G1 Z11.9000 F8000.0
G1 X122.2140 Y-288.3439 F12000.0
G1 X122.0758 Y-288.3291
G1 X122.4837 Y-289.4538
G1 X122.8944 Y-289.7115
G1 X123.3440 Y-289.5330
G1 X123.2836 Y-289.1048
G1 X123.1186 Y-288.9035
G1 Z0.0000 F8000.0
G0 X123.7950 Y-286.1415 F15000.0
G1 Z11.9000 F8000.0
G1 X124.5814 Y-288.0298 F12000.0
G1 X125.1786 Y-288.3734
G1 X126.1973 Y-288.2835
G1 X126.2107 Y-287.9533
G1 X125.3330 Y-285.5778
G1 X124.9706 Y-285.3027
G1 X123.8728 Y-285.2557
G1 X123.6285 Y-285.6127
G1 X123.7950 Y-286.1415
G1 Z0.0000 F8000.0
G0 X125.3115 Y-285.4463 F15000.0
G1 Z11.9000 F8000.0
G1 X125.4887 Y-285.2705 F12000.0
G1 Z0.0000 F8000.0
G0 X126.0765 Y-285.2705 F15000.0
G1 Z11.9000 F8000.0
G1 X126.7234 Y-286.8595 F12000.0
G1 Z0.0000 F8000.0
G0 X127.1945 Y-288.2714 F15000.0
G1 Z11.9000 F8000.0
G1 X126.8227 Y-287.3293 F12000.0
G1 X126.7489 Y-286.9239
G1 X127.0763 Y-286.8005
G1 X128.3057 Y-286.8327
G1 X128.5459 Y-287.2702
G1 X128.9002 Y-288.2714
G1 Z0.0000 F8000.0
G0 X128.2534 Y-286.7414 F15000.0
G1 Z11.9000 F8000.0
G1 X127.8413 Y-285.3296 F12000.0
G1 Z0.0000 F8000.0
G0 X129.7833 Y-288.2714 F15000.0
G1 Z11.9000 F8000.0
G1 X128.8345 Y-285.4409 F12000.0
G1 X129.2868 Y-285.2034
G1 X130.3765 Y-285.3255
G1 X130.5819 Y-285.6785
G1 X131.4891 Y-288.2714
G1 Z0.0000 F8000.0
G0 X131.8421 Y-286.8595 F15000.0
G1 Z11.9000 F8000.0
G1 X132.2259 Y-287.9829 F12000.0
G1 X132.5695 Y-288.2741
G1 X133.3935 Y-288.4029
G1 X133.8190 Y-288.1533
G1 X133.8243 Y-287.7789
G1 X133.4888 Y-286.8944
G1 X133.2754 Y-286.7991
G1 X131.8018 Y-286.7683
G1 X131.3925 Y-285.3926
G1 X131.8475 Y-285.2074
G1 X132.9010 Y-285.2705
G1 Z0.0000 F8000.0
G0 X151.8445 Y-286.9172 F15000.0
G1 Z11.9000 F8000.0
G1 X153.6684 Y-284.8182 F12000.0
G1 X155.0212 Y-284.2707
G1 Z0.0000 F8000.0
G0 X151.9035 Y-285.4463 F15000.0
G1 Z11.9000 F8000.0
G1 X153.4335 Y-284.9175 F12000.0
G1 Z0.0000 F8000.0
G0 X155.0212 Y-288.1533 F15000.0
G1 Z11.9000 F8000.0
G1 X153.0591 Y-289.3290 F12000.0
G1 X152.8202 Y-289.7759
G1 X152.9316 Y-290.0577
G1 X153.1369 Y-290.0711
G1 X155.0212 Y-289.3880
G1 Z0.0000 F8000.0
G0 X153.7126 Y-288.1063 F15000.0
G1 Z11.9000 F8000.0
G1 X154.8843 Y-287.5628 F12000.0
G1 X154.9943 Y-286.7548
G1 X154.7232 Y-286.5347
G1 X153.0684 Y-287.1776
G1 X152.8685 Y-288.1010
G1 X153.1503 Y-288.2674
G1 X153.7126 Y-288.1063
G1 Z0.0000 F8000.0
G0 X153.1986 Y-285.5054 F15000.0
G1 Z11.9000 F8000.0
G1 X155.0212 Y-285.7416 F12000.0
G1 Z0.0000 F8000.0
G0 X160.6700 Y-288.5653 F15000.0
G1 Z11.9000 F8000.0
G1 X162.3731 Y-293.0116 F12000.0
G1 X164.2399 Y-292.9150
G1 X164.1205 Y-292.2359
G1 X162.7878 Y-288.6244
G1 Z0.0000 F8000.0
G0 X163.0227 Y-287.0944 F15000.0
G1 Z11.9000 F8000.0
G1 X163.6293 Y-288.4741 F12000.0
G1 X165.0251 Y-288.5653
G1 X165.3874 Y-288.8512
G1 X166.2625 Y-291.1703
G1 X166.1537 Y-291.5689
G1 X164.9606 Y-291.6722
G1 X164.6533 Y-291.4374
G1 X163.6695 Y-288.5653
G1 Z0.0000 F8000.0
G0 X167.3173 Y-291.5649 F15000.0
G1 Z11.9000 F8000.0
G1 X166.3685 Y-288.7358 F12000.0
G1 X166.8221 Y-288.4982
G1 X167.9119 Y-288.6203
G1 X168.1159 Y-288.9733
G1 X169.0231 Y-291.5649
G1 Z0.0000 F8000.0
G0 X168.7882 Y-288.5653 F15000.0
G1 Z11.9000 F8000.0
G1 X169.4123 Y-290.2711 F12000.0
G1 X169.9062 Y-291.2710
G1 Z0.0000 F8000.0
G0 X169.9062 Y-291.4481 F15000.0
G1 Z11.9000 F8000.0
G1 X170.3357 Y-290.3543 F12000.0
G1 X170.7880 Y-290.4858
G1 X171.6710 Y-291.2119
G1 Z0.0000 F8000.0
G0 X170.9061 Y-288.6244 F15000.0
G1 Z11.9000 F8000.0
G1 X171.9059 Y-291.5072 F12000.0
G1 Z0.0000 F8000.0
G0 X172.3770 Y-290.1530 F15000.0
G1 Z11.9000 F8000.0
G1 X172.7608 Y-291.2777 F12000.0
G1 X173.1044 Y-291.5689
G1 X174.0935 Y-291.6642
G1 X174.3539 Y-291.4468
G1 X174.3592 Y-291.0723
G1 X174.0237 Y-290.1892
G1 X173.8103 Y-290.0939
G1 X172.3367 Y-290.0631
G1 X171.9274 Y-288.6874
G1 X172.3823 Y-288.5009
G1 X173.4359 Y-288.5653
G1 Z0.0000 F8000.0
G0 X174.7296 Y-290.0953 F15000.0
G1 Z11.9000 F8000.0
G1 X176.7307 Y-290.0953 F12000.0
G1 Z0.0000 F8000.0
G0 X161.7880 Y-284.9175 F15000.0
G1 Z11.9000 F8000.0
G1 X161.4068 Y-283.6546 F12000.0
G1 X161.5665 Y-283.4949
G1 X162.8724 Y-283.4654
G1 X163.0763 Y-283.7392
G1 X163.4937 Y-284.9175
G1 Z0.0000 F8000.0
G0 X162.8469 Y-283.3876 F15000.0
G1 Z11.9000 F8000.0
G1 X162.4348 Y-281.9757 F12000.0
G1 Z0.0000 F8000.0
G0 X165.3995 Y-283.0346 F15000.0
G1 Z11.9000 F8000.0
G1 X165.0103 Y-282.1099 F12000.0
G1 X164.7070 Y-281.9408
G1 X163.7313 Y-281.8724
G1 X163.4025 Y-282.1690
G1 X164.0950 Y-284.2760
G1 X164.6090 Y-284.8920
G1 X165.7793 Y-285.0330
G1 X166.0048 Y-284.8545
G1 X165.3995 Y-283.0346
G1 Z0.0000 F8000.0
G0 X165.0814 Y-282.0938 F15000.0
G1 Z11.9000 F8000.0
G1 X165.2586 Y-281.9166 F12000.0
G1 Z0.0000 F8000.0
G0 X165.8464 Y-281.9166 F15000.0
G1 Z11.9000 F8000.0
G1 X166.4933 Y-283.5057 F12000.0
G1 Z0.0000 F8000.0
G0 X166.9644 Y-284.9175 F15000.0
G1 Z11.9000 F8000.0
G1 X166.5939 Y-283.9767 F12000.0
G1 X166.5188 Y-283.5714
G1 X166.8463 Y-283.4466
G1 X168.0756 Y-283.4788
G1 X168.3158 Y-283.9177
G1 X168.6701 Y-284.9175
G1 Z0.0000 F8000.0
G0 X168.0233 Y-283.3876 F15000.0
G1 Z11.9000 F8000.0
G1 X167.6112 Y-281.9757 F12000.0
G1 Z0.0000 F8000.0
G0 X169.4942 Y-284.9175 F15000.0
G1 Z11.9000 F8000.0
G1 X168.5453 Y-282.0871 F12000.0
G1 X168.9990 Y-281.8509
G1 X170.0887 Y-281.9717
G1 X170.2927 Y-282.3246
G1 X171.2000 Y-284.9175
G1 Z0.0000 F8000.0
G0 X171.6120 Y-283.5057 F15000.0
G1 Z11.9000 F8000.0
G1 X171.9958 Y-284.6290 F12000.0
G1 X172.3394 Y-284.9216
G1 X173.1648 Y-285.0491
G1 X173.5889 Y-284.7994
G1 X173.5942 Y-284.4250
G1 X173.2587 Y-283.5419
G1 X173.0453 Y-283.4453
G1 X171.5717 Y-283.4144
G1 X171.1624 Y-282.0388
G1 X171.6174 Y-281.8536
G1 X172.6709 Y-281.9166
G1 Z0.0000 F8000.0
G0 X0.0000 Y-280.0444 F15000.0
G1 Z11.9000 F8000.0
G1 X180.0000 Y-280.0444 F12000.0
G1 Z0.0000 F8000.0
G0 X5.9427 Y-279.9760 F15000.0
G1 Z11.9000 F8000.0
G1 X18.2979 Y-279.9760 F12000.0
G1 X19.4736 Y-279.8579
G1 Z0.0000 F8000.0
G0 X0.0000 Y-272.2188 F15000.0
G1 Z11.9000 F8000.0
G1 X180.0000 Y-272.2188 F12000.0
G1 Z0.0000 F8000.0
G0 X0.0000 Y-264.4749 F15000.0
G1 Z11.9000 F8000.0
G1 X180.0000 Y-264.4749 F12000.0
G1 Z0.0000 F8000.0
G0 X0.0604 Y-264.3850 F15000.0
G1 Z11.9000 F8000.0
G1 X179.9074 Y-264.3850 F12000.0
G1 Z0.0000 F8000.0
G0 X100.6615 Y-265.3272 F15000.0
G1 Z11.9000 F8000.0
G1 X110.0158 Y-265.3272 F12000.0
G1 X110.9566 Y-265.2091
G1 Z0.0000 F8000.0
G0 X100.6655 Y-265.4641 F15000.0
G1 Z11.9000 F8000.0
G1 X134.0310 Y-265.4641 F12000.0
G1 Z0.0000 F8000.0
G0 X101.7204 Y-266.2680 F15000.0
G1 Z11.9000 F8000.0
G1 X103.6221 Y-270.6566 F12000.0
G1 X104.0945 Y-270.7599
G1 X104.8193 Y-270.6968
G1 X104.8864 Y-270.3492
G1 X103.4020 Y-266.2854
G1 X103.1323 Y-266.2009
G1 X101.5057 Y-266.1995
G1 X101.1916 Y-265.9741
G1 Z0.0000 F8000.0
G0 X103.4852 Y-266.2680 F15000.0
G1 Z11.9000 F8000.0
G1 X103.6033 Y-266.0331 F12000.0
G1 Z0.0000 F8000.0
G0 X106.5157 Y-269.3856 F15000.0
G1 Z11.9000 F8000.0
G1 X107.0740 Y-269.2273 F12000.0
G1 X107.1370 Y-268.9253
G1 X106.2714 Y-266.5565
G1 X105.9292 Y-266.2908
G1 X104.8327 Y-266.2680
G1 X104.6206 Y-266.5511
G1 X105.5588 Y-269.0045
G1 X106.2285 Y-269.3776
G1 X106.5157 Y-269.3856
G1 Z0.0000 F8000.0
G0 X107.0740 Y-266.2680 F15000.0
G1 Z11.9000 F8000.0
G1 X107.6309 Y-267.6704 F12000.0
G1 X108.3047 Y-267.9925
G1 X109.8977 Y-269.3266
G1 Z0.0000 F8000.0
G0 X108.1919 Y-269.2689 F15000.0
G1 Z11.9000 F8000.0
G1 X107.7208 Y-267.7979 F12000.0
G1 Z0.0000 F8000.0
G0 X108.3691 Y-267.9147 F15000.0
G1 Z11.9000 F8000.0
G1 X108.7797 Y-266.3270 F12000.0
G1 Z0.0000 F8000.0
G0 X109.2508 Y-264.7970 F15000.0
G1 Z11.9000 F8000.0
G1 X110.6627 Y-264.9219 F12000.0
G1 X111.1338 Y-265.4439
G1 Z0.0000 F8000.0
G0 X110.7808 Y-269.2689 F15000.0
G1 Z11.9000 F8000.0
G1 X109.8185 Y-266.4948 F12000.0
G1 X110.1621 Y-266.2250
G1 X111.3539 Y-266.2787
G1 X111.5552 Y-266.6250
G1 X112.4866 Y-269.2689
G1 Z0.0000 F8000.0
G0 X111.2519 Y-266.1499 F15000.0
G1 Z11.9000 F8000.0
G1 X111.2344 Y-265.4292 F12000.0
G1 X111.5820 Y-265.3084
G1 X128.0843 Y-265.3621
G1 X128.3822 Y-265.7123
G1 X128.3124 Y-266.2680
G1 Z0.0000 F8000.0
G0 X112.2517 Y-266.2680 F15000.0
G1 Z11.9000 F8000.0
G1 X112.8758 Y-267.9738 F12000.0
G1 X113.3697 Y-268.9736
G1 Z0.0000 F8000.0
G0 X113.3697 Y-269.1508 F15000.0
G1 Z11.9000 F8000.0
G1 X113.7991 Y-268.0570 F12000.0
G1 X114.2514 Y-268.1885
G1 X115.1345 Y-268.9159
G1 Z0.0000 F8000.0
G0 X114.3695 Y-266.3270 F15000.0
G1 Z11.9000 F8000.0
G1 X115.3694 Y-269.2098 F12000.0
G1 Z0.0000 F8000.0
G0 X115.8404 Y-267.8570 F15000.0
G1 Z11.9000 F8000.0
G1 X116.2229 Y-268.9803 F12000.0
G1 X116.5665 Y-269.2715
G1 X117.3919 Y-269.4004
G1 X117.8173 Y-269.1508
G1 X117.8227 Y-268.7763
G1 X117.4872 Y-267.8919
G1 X117.2724 Y-267.7966
G1 X115.8002 Y-267.7657
G1 X115.3908 Y-266.3901
G1 X115.8458 Y-266.2049
G1 X116.8993 Y-266.2680
G1 Z0.0000 F8000.0
G0 X117.7811 Y-266.2680 F15000.0
G1 Z11.9000 F8000.0
G1 X118.4293 Y-267.8570 F12000.0
G1 Z0.0000 F8000.0
G0 X118.8990 Y-269.2689 F15000.0
G1 Z11.9000 F8000.0
G1 X118.5286 Y-268.3267 F12000.0
G1 X118.4535 Y-267.9214
G1 X118.7823 Y-267.7979
G1 X120.0103 Y-267.8302
G1 X120.2505 Y-268.2677
G1 X120.6048 Y-269.2689
G1 Z0.0000 F8000.0
G0 X119.9579 Y-267.7389 F15000.0
G1 Z11.9000 F8000.0
G1 X119.5459 Y-266.3270 F12000.0
G1 Z0.0000 F8000.0
G0 X120.3109 Y-266.2680 F15000.0
G1 Z11.9000 F8000.0
G1 X121.5201 Y-269.3239 F12000.0
G1 X122.1469 Y-269.3816
G1 X123.8460 Y-269.3105
G1 X124.0164 Y-268.9119
G1 X123.0769 Y-266.2680
G1 Z0.0000 F8000.0
G0 X121.7228 Y-266.3270 F15000.0
G1 Z11.9000 F8000.0
G1 X122.7240 Y-269.2689 F12000.0
G1 Z0.0000 F8000.0
G0 X126.0993 Y-267.3859 F15000.0
G1 Z11.9000 F8000.0
G1 X125.7115 Y-266.4599 F12000.0
G1 X125.4068 Y-266.2908
G1 X124.4311 Y-266.2237
G1 X124.1023 Y-266.5203
G1 X124.7962 Y-268.6273
G1 X125.3088 Y-269.2434
G1 X126.5905 Y-269.3427
G1 X126.7126 Y-269.0810
G1 X126.0993 Y-267.3859
G1 Z0.0000 F8000.0
G0 X125.7826 Y-266.4451 F15000.0
G1 Z11.9000 F8000.0
G1 X125.9597 Y-266.2680 F12000.0
G1 Z0.0000 F8000.0
G0 X127.6065 Y-269.2689 F15000.0
G1 Z11.9000 F8000.0
G1 X126.6402 Y-266.7122 F12000.0
G1 X126.7355 Y-266.3310
G1 X127.2777 Y-266.1955
G1 X128.2077 Y-266.2653
G1 X128.3634 Y-266.5189
G1 X129.3123 Y-269.3266
G1 Z0.0000 F8000.0
G0 X128.3124 Y-265.4439 F15000.0
G1 Z11.9000 F8000.0
G1 X129.0063 Y-265.2882 F12000.0
G1 X134.0189 Y-265.3272
G1 Z0.0000 F8000.0
G0 X130.6074 Y-269.2689 F15000.0
G1 Z11.9000 F8000.0
G1 X129.6585 Y-266.4384 F12000.0
G1 X130.1108 Y-266.2009
G1 X131.2006 Y-266.3230
G1 X131.4046 Y-266.6760
G1 X132.3132 Y-269.2689
G1 Z0.0000 F8000.0
G0 X132.0192 Y-266.2089 F15000.0
G1 Z11.9000 F8000.0
G1 X133.1090 Y-267.3738 F12000.0
G1 X133.3546 Y-267.7389
G1 X133.5868 Y-267.8114
G1 X134.2739 Y-267.8194
G1 X134.6725 Y-268.5052
G1 X134.8027 Y-269.2474
G1 X134.4041 Y-269.4232
G1 X133.4969 Y-269.2823
G1 X133.1815 Y-269.0743
G1 X132.7882 Y-268.1321
G1 X132.8835 Y-267.9067
G1 X133.2540 Y-267.7389
G1 Z0.0000 F8000.0
G0 X134.2538 Y-267.7389 F15000.0
G1 Z11.9000 F8000.0
G1 X133.8431 Y-266.3270 F12000.0
G1 Z0.0000 F8000.0
G0 X0.0604 Y-233.2635 F15000.0
G1 Z11.9000 F8000.0
G1 X5.8837 Y-233.2635 F12000.0
G1 X5.8837 Y-271.4457
G1 X5.9629 Y-272.0497
G1 X19.4736 Y-272.1517
G1 X19.4736 Y-294.4477
G1 Z0.0000 F8000.0
G0 X0.0000 Y-256.6493 F15000.0
G1 Z11.9000 F8000.0
G1 X180.0000 Y-256.6493 F12000.0
G1 Z0.0000 F8000.0
G0 X0.0604 Y-256.5607 F15000.0
G1 Z11.9000 F8000.0
G1 X179.9074 Y-256.5607 F12000.0
G1 Z0.0000 F8000.0
G0 X11.7674 Y-233.2635 F15000.0
G1 Z11.9000 F8000.0
G1 X19.4736 Y-233.2635 F12000.0
G1 X19.4736 Y-271.4457
G1 X19.5528 Y-272.0497
G1 X179.9074 Y-272.0926
G1 Z0.0000 F8000.0
G0 X20.5916 Y-250.7361 F15000.0
G1 Z11.9000 F8000.0
G1 X21.3565 Y-252.7371 F12000.0
G1 Z0.0000 F8000.0
G0 X22.2396 Y-255.2079 F15000.0
G1 Z11.9000 F8000.0
G1 X21.4156 Y-252.7962 F12000.0
G1 X22.3779 Y-253.3451
G1 X22.7094 Y-253.7906
G1 X24.2984 Y-255.2079
G1 Z0.0000 F8000.0
G0 X22.4154 Y-253.2068 F15000.0
G1 Z11.9000 F8000.0
G1 X22.6517 Y-250.7951 F12000.0
G1 Z0.0000 F8000.0
G0 X23.5334 Y-250.7361 F15000.0
G1 Z11.9000 F8000.0
G1 X24.4755 Y-253.1491 F12000.0
G1 Z0.0000 F8000.0
G0 X25.1815 Y-255.2079 F15000.0
G1 Z11.9000 F8000.0
G1 X24.4755 Y-253.1491 F12000.0
G1 X26.4578 Y-253.1733
G1 X27.2402 Y-255.1488
G1 Z0.0000 F8000.0
G0 X25.6512 Y-250.7951 F15000.0
G1 Z11.9000 F8000.0
G1 X26.3571 Y-253.0901 F12000.0
G1 Z0.0000 F8000.0
G0 X26.5343 Y-250.7361 F15000.0
G1 Z11.9000 F8000.0
G1 X28.0066 Y-254.7959 F12000.0
G1 X28.1998 Y-255.1649
G1 X29.8291 Y-255.2079
G1 Z0.0000 F8000.0
G0 X30.6733 Y-253.0431 F15000.0
G1 Z11.9000 F8000.0
G1 X31.3738 Y-254.6979 F12000.0
G1 X31.9818 Y-255.1435
G1 X32.6367 Y-255.2159
G1 X33.1051 Y-254.9837
G1 X33.2393 Y-254.4845
G1 X31.9228 Y-251.1239
G1 X31.3886 Y-250.7589
G1 X30.4491 Y-250.7481
G1 X30.1203 Y-251.0259
G1 X30.1069 Y-251.5453
G1 X30.6733 Y-253.0431
G1 Z0.0000 F8000.0
G0 X33.8876 Y-250.7951 F15000.0
G1 Z11.9000 F8000.0
G1 X35.4175 Y-255.0898 F12000.0
G1 Z0.0000 F8000.0
G0 X34.0647 Y-254.1490 F15000.0
G1 Z11.9000 F8000.0
G1 X35.2994 Y-254.9140 F12000.0
G1 Z0.0000 F8000.0
G0 X36.3798 Y-253.0431 F15000.0
G1 Z11.9000 F8000.0
G1 X37.0804 Y-254.6979 F12000.0
G1 X37.6883 Y-255.1435
G1 X38.3433 Y-255.2159
G1 X38.8130 Y-254.9837
G1 X38.9472 Y-254.4845
G1 X37.6293 Y-251.1239
G1 X37.0951 Y-250.7589
G1 X36.1557 Y-250.7481
G1 X35.8269 Y-251.0259
G1 X35.8135 Y-251.5453
G1 X36.3798 Y-253.0431
G1 Z0.0000 F8000.0
G0 X39.3217 Y-253.0431 F15000.0
G1 Z11.9000 F8000.0
G1 X40.0222 Y-254.6979 F12000.0
G1 X40.6302 Y-255.1435
G1 X41.2851 Y-255.2159
G1 X41.7535 Y-254.9837
G1 X41.8877 Y-254.4845
G1 X40.5711 Y-251.1239
G1 X40.0370 Y-250.7589
G1 X39.0975 Y-250.7481
G1 X38.7687 Y-251.0259
G1 X38.7553 Y-251.5453
G1 X39.3217 Y-253.0431
G1 Z0.0000 F8000.0
G0 X42.2635 Y-253.0431 F15000.0
G1 Z11.9000 F8000.0
G1 X42.9627 Y-254.6979 F12000.0
G1 X43.5720 Y-255.1435
G1 X44.2270 Y-255.2159
G1 X44.6953 Y-254.9837
G1 X44.8296 Y-254.4845
G1 X43.5130 Y-251.1239
G1 X42.9775 Y-250.7589
G1 X42.0394 Y-250.7481
G1 X41.6676 Y-251.1414
G1 X41.7844 Y-251.8178
G1 X42.2635 Y-253.0431
G1 Z0.0000 F8000.0
G0 X48.0076 Y-250.7361 F15000.0
G1 Z11.9000 F8000.0
G1 X46.9997 Y-250.7173 F12000.0
G1 X46.6065 Y-250.9991
G1 X46.5447 Y-251.2783
G1 X47.5097 Y-254.1490
G1 X48.1687 Y-254.9931
G1 X48.6934 Y-255.1985
G1 X49.5966 Y-255.2079
G1 Z0.0000 F8000.0
G0 X49.8315 Y-253.1491 F15000.0
G1 Z11.9000 F8000.0
G1 X49.5846 Y-252.6646 F12000.0
G1 X48.9712 Y-250.8045
G1 X49.2115 Y-250.6743
G1 X50.6891 Y-250.8636
G1 X51.1078 Y-251.2957
G1 X51.5292 Y-252.5438
G1 X51.2648 Y-253.0391
G1 X50.5025 Y-253.1746
G1 X49.8315 Y-253.1491
G1 X50.3026 Y-254.6200
G1 X50.5549 Y-255.1649
G1 X52.3613 Y-255.2079
G1 Z0.0000 F8000.0
G0 X90.3664 Y-250.7361 F15000.0
G1 Z11.9000 F8000.0
G1 X89.3585 Y-250.7173 F12000.0
G1 X88.9653 Y-250.9991
G1 X88.9035 Y-251.2783
G1 X89.8685 Y-254.1490
G1 X90.5274 Y-254.9931
G1 X91.0522 Y-255.1985
G1 X91.9541 Y-255.2079
G1 Z0.0000 F8000.0
G0 X93.6021 Y-253.9718 F15000.0
G1 Z11.9000 F8000.0
G1 X92.4184 Y-253.6054 F12000.0
G1 X92.0104 Y-252.9290
G1 X91.4038 Y-250.9615
G1 X91.6145 Y-250.7280
G1 X92.0494 Y-250.6797
G1 X92.9351 Y-250.9078
G1 X93.5995 Y-252.4002
G1 X93.8920 Y-253.5585
G1 X93.0761 Y-255.0750
G1 X93.2975 Y-255.2092
G1 X94.5429 Y-255.2079
G1 Z0.0000 F8000.0
G0 X95.8676 Y-253.8551 F15000.0
G1 Z11.9000 F8000.0
G1 X96.4259 Y-253.6953 F12000.0
G1 X96.4890 Y-253.3934
G1 X95.6233 Y-251.0246
G1 X95.2811 Y-250.7602
G1 X94.1846 Y-250.7361
G1 X93.9726 Y-251.0206
G1 X94.7993 Y-253.3209
G1 X95.2985 Y-253.7692
G1 X95.8676 Y-253.8551
G1 Z0.0000 F8000.0
G0 X95.8367 Y-249.2651 F15000.0
G1 Z11.9000 F8000.0
G1 X96.4447 Y-250.6448 F12000.0
G1 X97.8391 Y-250.7374
G1 X98.2015 Y-251.0233
G1 X99.0765 Y-253.3410
G1 X98.9678 Y-253.7410
G1 X97.7760 Y-253.8430
G1 X97.4687 Y-253.6081
G1 X96.4849 Y-250.7361
G1 Z0.0000 F8000.0
G0 X100.9849 Y-253.8551 F15000.0
G1 Z11.9000 F8000.0
G1 X101.5432 Y-253.6953 F12000.0
G1 X101.6077 Y-253.3934
G1 X100.7420 Y-251.0246
G1 X100.3984 Y-250.7602
G1 X99.3033 Y-250.7361
G1 X99.0913 Y-251.0206
G1 X99.9180 Y-253.3209
G1 X100.4159 Y-253.7692
G1 X100.9849 Y-253.8551
G1 Z0.0000 F8000.0
G0 X102.6625 Y-253.7370 F15000.0
G1 Z11.9000 F8000.0
G1 X102.2814 Y-252.4741 F12000.0
G1 X102.4411 Y-252.3143
G1 X103.7469 Y-252.2848
G1 X103.9496 Y-252.5586
G1 X104.3683 Y-253.7370
G1 Z0.0000 F8000.0
G0 X103.7214 Y-252.2070 F15000.0
G1 Z11.9000 F8000.0
G1 X103.3094 Y-250.7951 F12000.0
G1 Z0.0000 F8000.0
G0 X104.1321 Y-250.7361 F15000.0
G1 Z11.9000 F8000.0
G1 X104.7803 Y-252.3251 F12000.0
G1 Z0.0000 F8000.0
G0 X105.2501 Y-253.7370 F15000.0
G1 Z11.9000 F8000.0
G1 X104.8797 Y-252.7962 F12000.0
G1 X104.8045 Y-252.3908
G1 X105.1333 Y-252.2660
G1 X106.3613 Y-252.2982
G1 X106.6016 Y-252.7371
G1 X106.9559 Y-253.7370
G1 Z0.0000 F8000.0
G0 X106.3090 Y-252.2070 F15000.0
G1 Z11.9000 F8000.0
G1 X105.8970 Y-250.7951 F12000.0
G1 Z0.0000 F8000.0
G0 X107.8390 Y-253.7370 F15000.0
G1 Z11.9000 F8000.0
G1 X107.3907 Y-252.3976 F12000.0
G1 X107.5356 Y-252.2714
G1 X108.4254 Y-252.0808
G1 X108.4375 Y-251.6487
G1 X108.1221 Y-251.0072
G1 X107.5531 Y-250.7173
G1 X106.8633 Y-250.7173
G1 X106.8123 Y-250.9656
G1 X107.3679 Y-252.3251
G1 Z0.0000 F8000.0
G0 X108.8388 Y-250.7951 F15000.0
G1 Z11.9000 F8000.0
G1 X109.8977 Y-253.7370 F12000.0
G1 Z0.0000 F8000.0
G0 X110.7808 Y-253.7370 F15000.0
G1 Z11.9000 F8000.0
G1 X109.8266 Y-250.9360 F12000.0
G1 X110.0024 Y-250.7481
G1 X110.5137 Y-250.6596
G1 X111.4317 Y-250.8528
G1 X112.4866 Y-253.7370
G1 Z0.0000 F8000.0
G0 X111.8397 Y-255.2079 F15000.0
G1 Z11.9000 F8000.0
G1 X112.4275 Y-255.2079 F12000.0
G1 Z0.0000 F8000.0
G0 X115.3103 Y-253.7370 F15000.0
G1 Z11.9000 F8000.0
G1 X114.9305 Y-252.4741 F12000.0
G1 X115.0902 Y-252.3143
G1 X116.3947 Y-252.2848
G1 X116.5987 Y-252.5586
G1 X117.0161 Y-253.7370
G1 Z0.0000 F8000.0
G0 X116.3692 Y-252.2070 F15000.0
G1 Z11.9000 F8000.0
G1 X115.9572 Y-250.7951 F12000.0
G1 Z0.0000 F8000.0
G0 X117.3691 Y-252.3251 F15000.0
G1 Z11.9000 F8000.0
G1 X117.7529 Y-253.4484 F12000.0
G1 X118.0965 Y-253.7410
G1 X118.9219 Y-253.8685
G1 X119.3460 Y-253.6188
G1 X119.3513 Y-253.2444
G1 X119.0171 Y-252.3600
G1 X118.8024 Y-252.2647
G1 X117.3302 Y-252.2338
G1 X116.9208 Y-250.8582
G1 X117.3744 Y-250.6730
G1 X118.4293 Y-250.7361
G1 Z0.0000 F8000.0
G0 X118.7232 Y-249.2651 F15000.0
G1 Z11.9000 F8000.0
G1 X119.3299 Y-250.6448 F12000.0
G1 X120.7256 Y-250.7374
G1 X121.0866 Y-251.0233
G1 X121.9630 Y-253.3410
G1 X121.8530 Y-253.7410
G1 X120.6612 Y-253.8430
G1 X120.3539 Y-253.6081
G1 X119.3701 Y-250.7361
G1 Z0.0000 F8000.0
G0 X121.8999 Y-250.7361 F15000.0
G1 Z11.9000 F8000.0
G1 X123.1092 Y-253.7920 F12000.0
G1 X123.7346 Y-253.8510
G1 X125.5021 Y-253.7262
G1 X125.5893 Y-253.2551
G1 X124.6646 Y-250.7361
G1 Z0.0000 F8000.0
G0 X123.3118 Y-250.7951 F15000.0
G1 Z11.9000 F8000.0
G1 X124.3117 Y-253.7370 F12000.0
G1 Z0.0000 F8000.0
G0 X126.1356 Y-252.3251 F15000.0
G1 Z11.9000 F8000.0
G1 X126.5194 Y-253.4484 F12000.0
G1 X126.8630 Y-253.7410
G1 X127.6870 Y-253.8685
G1 X128.1124 Y-253.6188
G1 X128.1178 Y-253.2444
G1 X127.7823 Y-252.3600
G1 X127.5689 Y-252.2647
G1 X126.0953 Y-252.2338
G1 X125.6860 Y-250.8582
G1 X126.1409 Y-250.6730
G1 X127.1945 Y-250.7361
G1 Z0.0000 F8000.0
G0 X128.0775 Y-250.6770 F15000.0
G1 Z11.9000 F8000.0
G1 X129.3123 Y-251.9064 F12000.0
G1 X130.3712 Y-252.6364
G1 X131.6072 Y-253.7960
G1 Z0.0000 F8000.0
G0 X129.1942 Y-253.7370 F15000.0
G1 Z11.9000 F8000.0
G1 X129.7833 Y-252.2660 F12000.0
G1 Z0.0000 F8000.0
G0 X129.6652 Y-252.0312 F15000.0
G1 Z11.9000 F8000.0
G1 X129.3123 Y-250.7951 F12000.0
G1 Z0.0000 F8000.0
G0 X129.9014 Y-252.2660 F15000.0
G1 Z11.9000 F8000.0
G1 X130.4302 Y-250.7951 F12000.0
G1 Z0.0000 F8000.0
G0 X130.3712 Y-253.7370 F15000.0
G1 Z11.9000 F8000.0
G1 X130.0182 Y-252.5599 F12000.0
G1 Z0.0000 F8000.0
G0 X0.0000 Y-248.9068 F15000.0
G1 Z11.9000 F8000.0
G1 X180.0000 Y-248.9068 F12000.0
G1 Z0.0000 F8000.0
G0 X0.0604 Y-248.7954 F15000.0
G1 Z11.9000 F8000.0
G1 X179.9074 Y-248.7954 F12000.0
G1 Z0.0000 F8000.0
G0 X0.0000 Y-241.0811 F15000.0
G1 Z11.9000 F8000.0
G1 X180.0000 Y-241.0811 F12000.0
G1 Z0.0000 F8000.0
G0 X0.0604 Y-240.9711 F15000.0
G1 Z11.9000 F8000.0
G1 X179.9074 Y-240.9711 F12000.0
G1 Z0.0000 F8000.0
G0 X0.0000 Y-233.3373 F15000.0
G1 Z11.9000 F8000.0
G1 X180.0000 Y-233.3373 F12000.0
G1 Z0.0000 F8000.0
G0 X108.8214 Y-234.3264 F15000.0
G1 Z11.9000 F8000.0
G1 X125.8752 Y-234.3264 F12000.0
G1 Z0.0000 F8000.0
G0 X108.8388 Y-234.2043 F15000.0
G1 Z11.9000 F8000.0
G1 X125.9007 Y-234.2043 F12000.0
G1 Z0.0000 F8000.0
G0 X109.8387 Y-235.1464 F15000.0
G1 Z11.9000 F8000.0
G1 X111.8142 Y-239.5807 F12000.0
G1 X112.9375 Y-239.5753
G1 X113.0046 Y-239.2277
G1 X111.5216 Y-235.1639
G1 X111.2505 Y-235.0793
G1 X109.6253 Y-235.0766
G1 X109.3099 Y-234.8525
G1 Z0.0000 F8000.0
G0 X111.6048 Y-235.1464 F15000.0
G1 Z11.9000 F8000.0
G1 X111.7216 Y-234.9102 F12000.0
G1 Z0.0000 F8000.0
G0 X113.2516 Y-236.7341 F15000.0
G1 Z11.9000 F8000.0
G1 X113.6341 Y-237.8588 F12000.0
G1 X113.9776 Y-238.1500
G1 X114.9667 Y-238.2453
G1 X115.2285 Y-238.0279
G1 X115.2338 Y-237.6534
G1 X114.8983 Y-236.7704
G1 X114.6849 Y-236.6751
G1 X113.2113 Y-236.6442
G1 X112.8020 Y-235.2686
G1 X113.2569 Y-235.0820
G1 X114.3105 Y-235.1464
G1 Z0.0000 F8000.0
G0 X115.1936 Y-235.1464 F15000.0
G1 Z11.9000 F8000.0
G1 X116.4028 Y-238.2010 F12000.0
G1 X117.0282 Y-238.2601
G1 X118.7957 Y-238.1353
G1 X118.8829 Y-237.6655
G1 X117.9582 Y-235.1464
G1 Z0.0000 F8000.0
G0 X116.6054 Y-235.2055 F15000.0
G1 Z11.9000 F8000.0
G1 X117.6053 Y-238.1460 F12000.0
G1 Z0.0000 F8000.0
G0 X120.9229 Y-236.2644 F15000.0
G1 Z11.9000 F8000.0
G1 X120.5337 Y-235.3384 F12000.0
G1 X120.2304 Y-235.1693
G1 X119.2547 Y-235.1021
G1 X118.9259 Y-235.3987
G1 X119.6197 Y-237.5045
G1 X120.1324 Y-238.1218
G1 X121.3027 Y-238.2614
G1 X121.5282 Y-238.0829
G1 X120.9229 Y-236.2644
G1 Z0.0000 F8000.0
G0 X120.6048 Y-235.3222 F15000.0
G1 Z11.9000 F8000.0
G1 X120.7820 Y-235.1464 F12000.0
G1 Z0.0000 F8000.0
G0 X121.3698 Y-235.1464 F15000.0
G1 Z11.9000 F8000.0
G1 X123.2581 Y-238.1943 F12000.0
G1 X123.8782 Y-238.2775
G1 X124.0929 Y-238.1406
G1 X124.0580 Y-237.7071
G1 X123.1347 Y-235.2055
G1 Z0.0000 F8000.0
G0 X125.0766 Y-238.1460 F15000.0
G1 Z11.9000 F8000.0
G1 X124.1278 Y-235.3169 F12000.0
G1 X124.5801 Y-235.0793
G1 X125.6712 Y-235.2015
G1 X125.8752 Y-235.5544
G1 X126.7824 Y-238.1460
G1 Z0.0000 F8000.0
G0 X148.9040 Y-233.2635 F15000.0
G1 Z11.9000 F8000.0
G1 X158.5522 Y-233.2044 F12000.0
G1 Z0.0000 F8000.0
G0 X158.6099 Y-233.2635 F15000.0
G1 Z11.9000 F8000.0
G1 X179.9074 Y-233.2044 F12000.0
G1 Z0.0000 F8000.0
G0 X0.0604 Y-225.4392 F15000.0
G1 Z11.9000 F8000.0
G1 X5.8837 Y-225.4392 F12000.0
G1 X5.8837 Y-232.6757
G1 X5.9629 Y-233.1628
G1 X11.7083 Y-233.2044
G1 Z0.0000 F8000.0
G0 X11.7674 Y-225.4392 F15000.0
G1 Z11.9000 F8000.0
G1 X19.4736 Y-225.4392 F12000.0
G1 X19.4736 Y-232.6757
G1 X19.5528 Y-233.1628
G1 X148.8449 Y-233.2044
G1 Z0.0000 F8000.0
G0 X0.0000 Y-225.5116 F15000.0
G1 Z11.9000 F8000.0
G1 X180.0000 Y-225.5116 F12000.0
G1 Z0.0000 F8000.0
G0 X15.4152 Y-219.6736 F15000.0
G1 Z11.9000 F8000.0
G1 X16.9451 Y-223.9682 F12000.0
G1 Z0.0000 F8000.0
G0 X15.5910 Y-223.0274 F15000.0
G1 Z11.9000 F8000.0
G1 X16.8270 Y-223.7911 F12000.0
G1 Z0.0000 F8000.0
G0 X20.5916 Y-219.6145 F15000.0
G1 Z11.9000 F8000.0
G1 X21.3565 Y-221.6156 F12000.0
G1 Z0.0000 F8000.0
G0 X22.2396 Y-224.0863 F15000.0
G1 Z11.9000 F8000.0
G1 X21.4156 Y-221.6733 F12000.0
G1 X22.3779 Y-222.2222
G1 X22.7094 Y-222.6691
G1 X24.2984 Y-224.0863
G1 Z0.0000 F8000.0
G0 X22.4154 Y-222.0853 F15000.0
G1 Z11.9000 F8000.0
G1 X22.6517 Y-219.6736 F12000.0
G1 Z0.0000 F8000.0
G0 X23.5334 Y-219.6145 F15000.0
G1 Z11.9000 F8000.0
G1 X24.4755 Y-222.0262 F12000.0
G1 Z0.0000 F8000.0
G0 X25.1815 Y-224.0863 F15000.0
G1 Z11.9000 F8000.0
G1 X24.4755 Y-222.0262 F12000.0
G1 X26.4578 Y-222.0517
G1 X27.2402 Y-224.0273
G1 Z0.0000 F8000.0
G0 X25.6512 Y-219.6736 F15000.0
G1 Z11.9000 F8000.0
G1 X26.3571 Y-221.9685 F12000.0
G1 Z0.0000 F8000.0
G0 X26.5343 Y-219.6145 F15000.0
G1 Z11.9000 F8000.0
G1 X28.0066 Y-223.6743 F12000.0
G1 X28.1998 Y-224.0434
G1 X29.8291 Y-224.0863
G1 Z0.0000 F8000.0
G0 X30.6840 Y-221.9524 F15000.0
G1 Z11.9000 F8000.0
G1 X31.3926 Y-223.6005 F12000.0
G1 X32.0154 Y-224.0327
G1 X32.6690 Y-224.0890
G1 X33.2058 Y-223.6797
G1 X33.1964 Y-223.1080
G1 X31.9228 Y-220.0024
G1 X31.3886 Y-219.6373
G1 X30.4491 Y-219.6266
G1 X30.1203 Y-219.9044
G1 X30.1069 Y-220.4238
G1 X30.6840 Y-221.9524
G1 Z0.0000 F8000.0
G0 X33.8876 Y-219.6736 F15000.0
G1 Z11.9000 F8000.0
G1 X35.4175 Y-223.9682 F12000.0
G1 Z0.0000 F8000.0
G0 X34.0647 Y-223.0274 F15000.0
G1 Z11.9000 F8000.0
G1 X35.2994 Y-223.7911 F12000.0
G1 Z0.0000 F8000.0
G0 X36.3919 Y-221.9524 F15000.0
G1 Z11.9000 F8000.0
G1 X37.0992 Y-223.6005 F12000.0
G1 X37.7219 Y-224.0327
G1 X38.3755 Y-224.0890
G1 X38.9123 Y-223.6797
G1 X38.9029 Y-223.1080
G1 X37.6293 Y-220.0024
G1 X37.0951 Y-219.6373
G1 X36.1557 Y-219.6266
G1 X35.8269 Y-219.9044
G1 X35.8135 Y-220.4238
G1 X36.3919 Y-221.9524
G1 Z0.0000 F8000.0
G0 X39.3217 Y-221.9216 F15000.0
G1 Z11.9000 F8000.0
G1 X40.0222 Y-223.5763 F12000.0
G1 X40.6302 Y-224.0206
G1 X41.4676 Y-224.0514
G1 X41.7535 Y-223.8609
G1 X41.8877 Y-223.3630
G1 X40.5711 Y-220.0024
G1 X40.0370 Y-219.6373
G1 X39.0975 Y-219.6266
G1 X38.7687 Y-219.9044
G1 X38.7553 Y-220.4238
G1 X39.3217 Y-221.9216
G1 Z0.0000 F8000.0
G0 X42.4769 Y-219.6736 F15000.0
G1 Z11.9000 F8000.0
G1 X44.0069 Y-223.9682 F12000.0
G1 Z0.0000 F8000.0
G0 X42.6540 Y-223.0274 F15000.0
G1 Z11.9000 F8000.0
G1 X43.8888 Y-223.7911 F12000.0
G1 Z0.0000 F8000.0
G0 X88.6606 Y-219.6145 F15000.0
G1 Z11.9000 F8000.0
G1 X90.3637 Y-224.0608 F12000.0
G1 X92.2305 Y-223.9656
G1 X92.1111 Y-223.2865
G1 X90.7784 Y-219.6736
G1 Z0.0000 F8000.0
G0 X92.3070 Y-221.2035 F15000.0
G1 Z11.9000 F8000.0
G1 X92.6909 Y-222.3269 F12000.0
G1 X93.0344 Y-222.6181
G1 X93.8598 Y-222.7469
G1 X94.2839 Y-222.4973
G1 X94.2893 Y-222.1229
G1 X93.9538 Y-221.2384
G1 X93.7404 Y-221.1432
G1 X92.2668 Y-221.1123
G1 X91.8588 Y-219.7367
G1 X92.3124 Y-219.5514
G1 X93.3659 Y-219.6145
G1 Z0.0000 F8000.0
G0 X93.6021 Y-218.1436 F15000.0
G1 Z11.9000 F8000.0
G1 X94.2088 Y-219.5233 F12000.0
G1 X95.6045 Y-219.6159
G1 X95.9656 Y-219.9004
G1 X96.8419 Y-222.2195
G1 X96.7319 Y-222.6181
G1 X95.5401 Y-222.7214
G1 X95.2328 Y-222.4866
G1 X94.2490 Y-219.6145
G1 Z0.0000 F8000.0
G0 X97.4257 Y-221.2035 F15000.0
G1 Z11.9000 F8000.0
G1 X97.8096 Y-222.3269 F12000.0
G1 X98.1531 Y-222.6181
G1 X98.9772 Y-222.7469
G1 X99.4026 Y-222.4973
G1 X99.4080 Y-222.1229
G1 X99.0725 Y-221.2384
G1 X98.8591 Y-221.1432
G1 X97.3855 Y-221.1123
G1 X96.9761 Y-219.7367
G1 X97.4311 Y-219.5514
G1 X98.4846 Y-219.6145
G1 Z0.0000 F8000.0
G0 X99.3087 Y-219.5555 F15000.0
G1 Z11.9000 F8000.0
G1 X100.7004 Y-220.9808 F12000.0
G1 X100.8574 Y-221.3029
G1 X101.1863 Y-221.5579
G1 X102.1915 Y-222.6745
G1 Z0.0000 F8000.0
G0 X100.4857 Y-222.6154 F15000.0
G1 Z11.9000 F8000.0
G1 X100.7796 Y-221.3203 F12000.0
G1 Z0.0000 F8000.0
G0 X100.8387 Y-220.9096 F15000.0
G1 Z11.9000 F8000.0
G1 X101.0735 Y-219.6736 F12000.0
G1 Z0.0000 F8000.0
G0 X103.9858 Y-222.7335 F15000.0
G1 Z11.9000 F8000.0
G1 X104.5441 Y-222.5738 F12000.0
G1 X104.6072 Y-222.2718
G1 X103.7416 Y-219.9031
G1 X103.3993 Y-219.6387
G1 X102.3029 Y-219.6145
G1 X102.0908 Y-219.8990
G1 X102.9189 Y-222.1994
G1 X103.4168 Y-222.6476
G1 X103.9858 Y-222.7335
G1 Z0.0000 F8000.0
G0 X106.1332 Y-224.0863 F15000.0
G1 Z11.9000 F8000.0
G1 X107.5356 Y-224.0098 F12000.0
G1 X107.6605 Y-223.7790
G1 X107.5195 Y-223.1200
G1 X106.2405 Y-219.8668
G1 X105.7842 Y-219.5957
G1 X104.9025 Y-219.5931
G1 X104.6864 Y-219.7608
G1 X104.6824 Y-220.2225
G1 X105.4138 Y-222.1739
G1 X105.8379 Y-222.6101
G1 X106.4673 Y-222.7322
G1 X107.2511 Y-222.6154
G1 Z0.0000 F8000.0
G0 X107.0740 Y-219.6145 F15000.0
G1 Z11.9000 F8000.0
G1 X107.7208 Y-221.2035 F12000.0
G1 Z0.0000 F8000.0
G0 X108.1919 Y-222.6154 F15000.0
G1 Z11.9000 F8000.0
G1 X107.8202 Y-221.6733 F12000.0
G1 X107.7463 Y-221.2680
G1 X108.0738 Y-221.1445
G1 X109.3032 Y-221.1767
G1 X109.5434 Y-221.6156
G1 X109.8977 Y-222.6154
G1 Z0.0000 F8000.0
G0 X109.2508 Y-221.0854 F15000.0
G1 Z11.9000 F8000.0
G1 X108.8388 Y-219.6736 F12000.0
G1 Z0.0000 F8000.0
G0 X110.7808 Y-222.6154 F15000.0
G1 Z11.9000 F8000.0
G1 X109.8319 Y-219.7850 F12000.0
G1 X110.2842 Y-219.5474
G1 X111.3740 Y-219.6695
G1 X111.5793 Y-220.0225
G1 X112.4866 Y-222.6154
G1 Z0.0000 F8000.0
G0 X112.2517 Y-219.6145 F15000.0
G1 Z11.9000 F8000.0
G1 X112.8087 Y-221.0170 F12000.0
G1 X113.4824 Y-221.3391
G1 X115.0755 Y-222.6745
G1 Z0.0000 F8000.0
G0 X113.3697 Y-222.6154 F15000.0
G1 Z11.9000 F8000.0
G1 X112.8986 Y-221.1445 F12000.0
G1 Z0.0000 F8000.0
G0 X113.5455 Y-221.2626 F15000.0
G1 Z11.9000 F8000.0
G1 X113.9575 Y-219.6736 F12000.0
G1 Z0.0000 F8000.0
G0 X148.9040 Y-225.4392 F15000.0
G1 Z11.9000 F8000.0
G1 X158.5522 Y-225.3801 F12000.0
G1 Z0.0000 F8000.0
G0 X153.5516 Y-219.6736 F15000.0
G1 Z11.9000 F8000.0
G1 X155.0802 Y-223.9682 F12000.0
G1 Z0.0000 F8000.0
G0 X153.7274 Y-223.0274 F15000.0
G1 Z11.9000 F8000.0
G1 X154.9635 Y-223.7911 F12000.0
G1 Z0.0000 F8000.0
G0 X158.6099 Y-225.4392 F15000.0
G1 Z11.9000 F8000.0
G1 X179.9074 Y-225.3801 F12000.0
G1 Z0.0000 F8000.0
G0 X0.0000 Y-217.7692 F15000.0
G1 Z11.9000 F8000.0
G1 X180.0000 Y-217.7692 F12000.0
G1 Z0.0000 F8000.0
G0 X0.0604 Y-202.0829 F15000.0
G1 Z11.9000 F8000.0
G1 X5.8837 Y-202.1420 F12000.0
G1 X5.9266 Y-225.3023
G1 X6.2957 Y-225.3801
G1 X11.7083 Y-225.3801
G1 Z0.0000 F8000.0
G0 X0.0604 Y-217.6739 F15000.0
G1 Z11.9000 F8000.0
G1 X179.9074 Y-217.6739 F12000.0
G1 Z0.0000 F8000.0
G0 X13.9442 Y-211.7902 F15000.0
G1 Z11.9000 F8000.0
G1 X17.0042 Y-214.9172 F12000.0
G1 X17.2323 Y-215.5547
G1 X16.9961 Y-216.0553
G1 X16.2969 Y-216.2486
G1 X15.5708 Y-215.8741
G1 X15.1803 Y-215.4970
G1 Z0.0000 F8000.0
G0 X14.1791 Y-211.7311 F15000.0
G1 Z11.9000 F8000.0
G1 X15.7091 Y-211.7311 F12000.0
G1 Z0.0000 F8000.0
G0 X20.5916 Y-211.7902 F15000.0
G1 Z11.9000 F8000.0
G1 X21.3565 Y-213.7899 F12000.0
G1 Z0.0000 F8000.0
G0 X22.2396 Y-216.2607 F15000.0
G1 Z11.9000 F8000.0
G1 X21.4156 Y-213.8489 F12000.0
G1 X22.3779 Y-214.3979
G1 X22.7094 Y-214.8448
G1 X24.2984 Y-216.2607
G1 Z0.0000 F8000.0
G0 X22.4154 Y-214.2610 F15000.0
G1 Z11.9000 F8000.0
G1 X22.6517 Y-211.8492 F12000.0
G1 Z0.0000 F8000.0
G0 X23.5334 Y-211.7902 F15000.0
G1 Z11.9000 F8000.0
G1 X24.4755 Y-214.2019 F12000.0
G1 Z0.0000 F8000.0
G0 X25.1815 Y-216.2607 F15000.0
G1 Z11.9000 F8000.0
G1 X24.4755 Y-214.2019 F12000.0
G1 X26.4578 Y-214.2274
G1 X27.2402 Y-216.2030
G1 Z0.0000 F8000.0
G0 X25.6512 Y-211.8492 F15000.0
G1 Z11.9000 F8000.0
G1 X26.3571 Y-214.1429 F12000.0
G1 Z0.0000 F8000.0
G0 X26.5343 Y-211.7902 F15000.0
G1 Z11.9000 F8000.0
G1 X28.0066 Y-215.8500 F12000.0
G1 X28.1998 Y-216.2191
G1 X29.8291 Y-216.2607
G1 Z0.0000 F8000.0
G0 X30.6840 Y-214.1281 F15000.0
G1 Z11.9000 F8000.0
G1 X31.3926 Y-215.7762 F12000.0
G1 X32.0154 Y-216.2070
G1 X32.6690 Y-216.2647
G1 X33.2058 Y-215.8554
G1 X33.1964 Y-215.2836
G1 X31.9228 Y-212.1780
G1 X31.3886 Y-211.8130
G1 X30.4491 Y-211.8023
G1 X30.1203 Y-212.0801
G1 X30.1069 Y-212.5995
G1 X30.6840 Y-214.1281
G1 Z0.0000 F8000.0
G0 X33.8876 Y-211.8492 F15000.0
G1 Z11.9000 F8000.0
G1 X35.4175 Y-216.1439 F12000.0
G1 Z0.0000 F8000.0
G0 X34.0647 Y-215.2018 F15000.0
G1 Z11.9000 F8000.0
G1 X35.2994 Y-215.9667 F12000.0
G1 Z0.0000 F8000.0
G0 X36.3919 Y-214.1281 F15000.0
G1 Z11.9000 F8000.0
G1 X37.0992 Y-215.7762 F12000.0
G1 X37.7219 Y-216.2070
G1 X38.3755 Y-216.2647
G1 X38.9123 Y-215.8554
G1 X38.9029 Y-215.2836
G1 X37.6293 Y-212.1780
G1 X37.0951 Y-211.8130
G1 X36.1557 Y-211.8023
G1 X35.8269 Y-212.0801
G1 X35.8135 Y-212.5995
G1 X36.3919 Y-214.1281
G1 Z0.0000 F8000.0
G0 X39.3217 Y-214.0972 F15000.0
G1 Z11.9000 F8000.0
G1 X40.0222 Y-215.7520 F12000.0
G1 X40.6302 Y-216.1962
G1 X41.4676 Y-216.2271
G1 X41.7535 Y-216.0365
G1 X41.8877 Y-215.5373
G1 X40.5711 Y-212.1780
G1 X40.0370 Y-211.8130
G1 X39.0975 Y-211.8023
G1 X38.7687 Y-212.0801
G1 X38.7553 Y-212.5995
G1 X39.3217 Y-214.0972
G1 Z0.0000 F8000.0
G0 X41.5361 Y-211.7902 F15000.0
G1 Z11.9000 F8000.0
G1 X44.5960 Y-214.9172 F12000.0
G1 X44.8242 Y-215.5547
G1 X44.5880 Y-216.0553
G1 X43.8888 Y-216.2486
G1 X43.1627 Y-215.8741
G1 X42.7721 Y-215.4970
G1 Z0.0000 F8000.0
G0 X41.7710 Y-211.7311 F15000.0
G1 Z11.9000 F8000.0
G1 X43.3009 Y-211.7311 F12000.0
G1 Z0.0000 F8000.0
G0 X90.9314 Y-216.2620 F15000.0
G1 Z11.9000 F8000.0
G1 X91.6575 Y-216.1654 F12000.0
G1 X91.8762 Y-215.8674
G1 X91.6441 Y-214.8515
G1 X91.1273 Y-214.1697
G1 X91.3085 Y-213.5242
G1 X91.1247 Y-212.7672
G1 X90.3140 Y-211.8734
G1 X89.7423 Y-211.7446
G1 X88.7707 Y-211.8009
G1 X88.8512 Y-212.3834
G1 X90.3261 Y-216.2191
G1 X90.9314 Y-216.2620
G1 Z0.0000 F8000.0
G0 X89.6014 Y-214.2019 F15000.0
G1 Z11.9000 F8000.0
G1 X91.0133 Y-214.2019 F12000.0
G1 Z0.0000 F8000.0
G0 X91.6602 Y-211.7902 F15000.0
G1 Z11.9000 F8000.0
G1 X92.8694 Y-214.8461 F12000.0
G1 X93.4961 Y-214.9038
G1 X95.2636 Y-214.7790
G1 X95.3495 Y-214.3093
G1 X94.4248 Y-211.7902
G1 Z0.0000 F8000.0
G0 X93.0720 Y-211.8492 F15000.0
G1 Z11.9000 F8000.0
G1 X94.0719 Y-214.7911 F12000.0
G1 Z0.0000 F8000.0
G0 X96.3668 Y-214.7911 F15000.0
G1 Z11.9000 F8000.0
G1 X95.4046 Y-212.0170 F12000.0
G1 X95.7495 Y-211.7472
G1 X96.9399 Y-211.8009
G1 X97.1412 Y-212.1472
G1 X98.0726 Y-214.7911
G1 Z0.0000 F8000.0
G0 X97.8378 Y-211.7902 F15000.0
G1 Z11.9000 F8000.0
G1 X99.7247 Y-214.8381 F12000.0
G1 X100.3448 Y-214.9213
G1 X100.5608 Y-214.7844
G1 X100.5259 Y-214.3509
G1 X99.6026 Y-211.8492
G1 Z0.0000 F8000.0
G0 X100.3676 Y-211.7902 F15000.0
G1 Z11.9000 F8000.0
G1 X100.9245 Y-213.1927 F12000.0
G1 X101.5983 Y-213.5148
G1 X103.1913 Y-214.8488
G1 Z0.0000 F8000.0
G0 X101.4855 Y-214.7911 F15000.0
G1 Z11.9000 F8000.0
G1 X101.0145 Y-213.3202 F12000.0
G1 Z0.0000 F8000.0
G0 X101.6613 Y-213.4369 F15000.0
G1 Z11.9000 F8000.0
G1 X102.0734 Y-211.8492 F12000.0
G1 Z0.0000 F8000.0
G0 X105.0971 Y-212.9081 F15000.0
G1 Z11.9000 F8000.0
G1 X104.7092 Y-211.9834 F12000.0
G1 X104.4046 Y-211.8130
G1 X103.4289 Y-211.7459
G1 X103.1001 Y-212.0425
G1 X103.7939 Y-214.1496
G1 X104.3066 Y-214.7656
G1 X105.4769 Y-214.9052
G1 X105.7024 Y-214.7267
G1 X105.0971 Y-212.9081
G1 Z0.0000 F8000.0
G0 X104.7803 Y-211.9660 F15000.0
G1 Z11.9000 F8000.0
G1 X104.9562 Y-211.7902 F12000.0
G1 Z0.0000 F8000.0
G0 X153.5516 Y-211.8492 F15000.0
G1 Z11.9000 F8000.0
G1 X155.0802 Y-216.1439 F12000.0
G1 Z0.0000 F8000.0
G0 X153.7274 Y-215.2018 F15000.0
G1 Z11.9000 F8000.0
G1 X154.9635 Y-215.9667 F12000.0
G1 Z0.0000 F8000.0
G0 X0.0000 Y-209.9435 F15000.0
G1 Z11.9000 F8000.0
G1 X180.0000 Y-209.9435 F12000.0
G1 Z0.0000 F8000.0
G0 X0.0604 Y-209.8482 F15000.0
G1 Z11.9000 F8000.0
G1 X179.9074 Y-209.8482 F12000.0
G1 Z0.0000 F8000.0
G0 X14.0623 Y-203.9659 F15000.0
G1 Z11.9000 F8000.0
G1 X15.4608 Y-204.1269 F12000.0
G1 X15.9077 Y-204.5376
G1 X16.3600 Y-205.7052
G1 X16.2231 Y-206.5480
G1 X16.7747 Y-207.2311
G1 X16.9317 Y-208.0189
G1 X16.7237 Y-208.3894
G1 X16.3989 Y-208.4940
G1 X15.7091 Y-208.4954
G1 Z0.0000 F8000.0
G0 X15.6500 Y-206.4366 F15000.0
G1 Z11.9000 F8000.0
G1 X16.0620 Y-206.4366 F12000.0
G1 Z0.0000 F8000.0
G0 X20.5916 Y-204.0249 F15000.0
G1 Z11.9000 F8000.0
G1 X21.3565 Y-206.0246 F12000.0
G1 Z0.0000 F8000.0
G0 X22.2396 Y-208.4954 F15000.0
G1 Z11.9000 F8000.0
G1 X21.4156 Y-206.0837 F12000.0
G1 X22.3779 Y-206.6326
G1 X22.7094 Y-207.0795
G1 X24.2984 Y-208.4954
G1 Z0.0000 F8000.0
G0 X22.4154 Y-206.4957 F15000.0
G1 Z11.9000 F8000.0
G1 X22.6517 Y-204.0826 F12000.0
G1 Z0.0000 F8000.0
G0 X23.5334 Y-204.0249 F15000.0
G1 Z11.9000 F8000.0
G1 X24.4755 Y-206.4366 F12000.0
G1 Z0.0000 F8000.0
G0 X25.1815 Y-208.4954 F15000.0
G1 Z11.9000 F8000.0
G1 X24.4755 Y-206.4366 F12000.0
G1 X26.4578 Y-206.4608
G1 X27.2402 Y-208.4363
G1 Z0.0000 F8000.0
G0 X25.6512 Y-204.0826 F15000.0
G1 Z11.9000 F8000.0
G1 X26.3571 Y-206.3776 F12000.0
G1 Z0.0000 F8000.0
G0 X26.5343 Y-204.0249 F15000.0
G1 Z11.9000 F8000.0
G1 X28.0066 Y-208.0834 F12000.0
G1 X28.1998 Y-208.4538
G1 X29.8291 Y-208.4954
G1 Z0.0000 F8000.0
G0 X30.6840 Y-206.3615 F15000.0
G1 Z11.9000 F8000.0
G1 X31.3926 Y-208.0109 F12000.0
G1 X32.0154 Y-208.4417
G1 X32.6690 Y-208.4981
G1 X33.2058 Y-208.0887
G1 X33.1964 Y-207.5170
G1 X31.9228 Y-204.4128
G1 X31.3886 Y-204.0464
G1 X30.4491 Y-204.0356
G1 X30.1203 Y-204.3135
G1 X30.1069 Y-204.8342
G1 X30.6840 Y-206.3615
G1 Z0.0000 F8000.0
G0 X33.8876 Y-204.0826 F15000.0
G1 Z11.9000 F8000.0
G1 X35.4175 Y-208.3773 F12000.0
G1 Z0.0000 F8000.0
G0 X34.0647 Y-207.4365 F15000.0
G1 Z11.9000 F8000.0
G1 X35.2994 Y-208.2015 F12000.0
G1 Z0.0000 F8000.0
G0 X36.3919 Y-206.3615 F15000.0
G1 Z11.9000 F8000.0
G1 X37.0992 Y-208.0109 F12000.0
G1 X37.7219 Y-208.4417
G1 X38.3755 Y-208.4981
G1 X38.9123 Y-208.0887
G1 X38.9029 Y-207.5170
G1 X37.6293 Y-204.4128
G1 X37.0951 Y-204.0464
G1 X36.1557 Y-204.0356
G1 X35.8269 Y-204.3135
G1 X35.8135 Y-204.8342
G1 X36.3919 Y-206.3615
G1 Z0.0000 F8000.0
G0 X39.3217 Y-206.3319 F15000.0
G1 Z11.9000 F8000.0
G1 X40.0222 Y-207.9854 F12000.0
G1 X40.6302 Y-208.4310
G1 X41.4676 Y-208.4618
G1 X41.7535 Y-208.2712
G1 X41.8877 Y-207.7720
G1 X40.5711 Y-204.4128
G1 X40.0370 Y-204.0464
G1 X39.0975 Y-204.0356
G1 X38.7687 Y-204.3135
G1 X38.7553 Y-204.8342
G1 X39.3217 Y-206.3319
G1 Z0.0000 F8000.0
G0 X41.4180 Y-203.9659 F15000.0
G1 Z11.9000 F8000.0
G1 X42.8164 Y-204.1269 F12000.0
G1 X43.2647 Y-204.5376
G1 X43.7156 Y-205.7052
G1 X43.6915 Y-206.0541
G1 X43.5479 Y-206.4661
G1 X44.1317 Y-207.2311
G1 X44.2874 Y-208.0189
G1 X44.0807 Y-208.3894
G1 X43.7545 Y-208.4940
G1 X43.0661 Y-208.4954
G1 Z0.0000 F8000.0
G0 X43.0070 Y-206.4366 F15000.0
G1 Z11.9000 F8000.0
G1 X43.4190 Y-206.4366 F12000.0
G1 Z0.0000 F8000.0
G0 X88.8955 Y-204.6127 F15000.0
G1 Z11.9000 F8000.0
G1 X89.0646 Y-204.1698 F12000.0
G1 X89.5276 Y-203.9806
G1 X90.3637 Y-204.1497
G1 X90.9220 Y-204.6557
G1 X91.3058 Y-205.7307
G1 X91.1555 Y-206.4098
G1 X91.8789 Y-207.2110
G1 X92.0695 Y-207.9277
G1 X91.8735 Y-208.3491
G1 X91.2535 Y-208.4981
G1 X90.7140 Y-208.3437
G1 X90.2483 Y-207.9666
G1 Z0.0000 F8000.0
G0 X90.2483 Y-206.4366 F15000.0
G1 Z11.9000 F8000.0
G1 X91.0723 Y-206.3776 F12000.0
G1 Z0.0000 F8000.0
G0 X93.8008 Y-205.1415 F15000.0
G1 Z11.9000 F8000.0
G1 X93.4129 Y-204.2168 F12000.0
G1 X93.1083 Y-204.0477
G1 X92.1326 Y-203.9806
G1 X91.8038 Y-204.2772
G1 X92.4976 Y-206.3829
G1 X93.0103 Y-207.0003
G1 X94.1819 Y-207.1399
G1 X94.4074 Y-206.9614
G1 X93.8008 Y-205.1415
G1 Z0.0000 F8000.0
G0 X93.4840 Y-204.2007 F15000.0
G1 Z11.9000 F8000.0
G1 X93.6612 Y-204.0249 F12000.0
G1 Z0.0000 F8000.0
G0 X95.1308 Y-206.7305 F15000.0
G1 Z11.9000 F8000.0
G1 X95.7884 Y-207.0983 F12000.0
G1 X96.7225 Y-207.0097
G1 X96.8433 Y-206.7238
G1 X96.6098 Y-206.2662
G1 X94.4222 Y-204.6141
G1 X94.3832 Y-204.1860
G1 X94.7778 Y-203.9699
G1 X95.8327 Y-204.1564
G1 X96.0139 Y-204.3188
G1 Z0.0000 F8000.0
G0 X94.8369 Y-210.3193 F15000.0
G1 Z11.9000 F8000.0
G1 X96.1615 Y-210.4052 F12000.0
G1 X96.6822 Y-210.9487
G1 X96.8379 Y-211.6721
G1 Z0.0000 F8000.0
G0 X96.7789 Y-204.0249 F15000.0
G1 Z11.9000 F8000.0
G1 X98.6658 Y-207.0728 F12000.0
G1 X99.2859 Y-207.1560
G1 X99.5019 Y-207.0177
G1 X99.4670 Y-206.5856
G1 X98.5437 Y-204.0826
G1 Z0.0000 F8000.0
G0 X100.4857 Y-207.0245 F15000.0
G1 Z11.9000 F8000.0
G1 X99.5234 Y-204.2504 F12000.0
G1 X99.8670 Y-203.9806
G1 X101.0588 Y-204.0356
G1 X101.2601 Y-204.3819
G1 X102.1915 Y-207.0245
G1 Z0.0000 F8000.0
G0 X103.0732 Y-207.0245 F15000.0
G1 Z11.9000 F8000.0
G1 X102.1016 Y-204.2504 F12000.0
G1 X102.4116 Y-203.9940
G1 X103.3483 Y-204.0437
G1 X104.4851 Y-207.0835
G1 Z0.0000 F8000.0
G0 X103.4852 Y-203.9659 F15000.0
G1 Z11.9000 F8000.0
G1 X104.6569 Y-204.0544 F12000.0
G1 X105.0743 Y-204.9657
G1 X105.8392 Y-207.0245
G1 Z0.0000 F8000.0
G0 X105.5440 Y-204.0249 F15000.0
G1 Z11.9000 F8000.0
G1 X106.1023 Y-205.4260 F12000.0
G1 X106.7760 Y-205.7481
G1 X108.3691 Y-207.0835
G1 Z0.0000 F8000.0
G0 X106.6619 Y-207.0245 F15000.0
G1 Z11.9000 F8000.0
G1 X106.1922 Y-205.5535 F12000.0
G1 Z0.0000 F8000.0
G0 X106.8391 Y-205.6716 F15000.0
G1 Z11.9000 F8000.0
G1 X107.2511 Y-204.0826 F12000.0
G1 Z0.0000 F8000.0
G0 X110.2735 Y-205.1415 F15000.0
G1 Z11.9000 F8000.0
G1 X109.8856 Y-204.2168 F12000.0
G1 X109.5810 Y-204.0477
G1 X108.6053 Y-203.9806
G1 X108.2765 Y-204.2772
G1 X108.9703 Y-206.3829
G1 X109.4830 Y-207.0003
G1 X110.6546 Y-207.1399
G1 X110.8801 Y-206.9614
G1 X110.2735 Y-205.1415
G1 Z0.0000 F8000.0
G0 X109.9568 Y-204.2007 F15000.0
G1 Z11.9000 F8000.0
G1 X110.1339 Y-204.0249 F12000.0
G1 Z0.0000 F8000.0
G0 X153.5516 Y-204.0826 F15000.0
G1 Z11.9000 F8000.0
G1 X155.0802 Y-208.3773 F12000.0
G1 Z0.0000 F8000.0
G0 X153.7274 Y-207.4365 F15000.0
G1 Z11.9000 F8000.0
G1 X154.9635 Y-208.2015 F12000.0
G1 Z0.0000 F8000.0
G0 X0.0000 Y-202.2010 F15000.0
G1 Z11.9000 F8000.0
G1 X180.0000 Y-202.2010 F12000.0
G1 Z0.0000 F8000.0
G0 X98.9557 Y-202.5540 F15000.0
G1 Z11.9000 F8000.0
G1 X100.2803 Y-202.6399 F12000.0
G1 X100.7232 Y-203.0318
G1 X100.9554 Y-203.9068
G1 Z0.0000 F8000.0
G0 X0.0000 Y-194.4572 F15000.0
G1 Z11.9000 F8000.0
G1 X180.0000 Y-194.4572 F12000.0
G1 Z0.0000 F8000.0
G0 X0.0604 Y-163.2538 F15000.0
G1 Z11.9000 F8000.0
G1 X5.8837 Y-163.2538 F12000.0
G1 X5.8837 Y-201.4360
G1 X5.9629 Y-202.0400
G1 X19.4736 Y-202.1420
G1 X19.4736 Y-224.9681
G1 X19.5528 Y-225.3372
G1 X148.8449 Y-225.3801
G1 Z0.0000 F8000.0
G0 X0.0604 Y-194.3753 F15000.0
G1 Z11.9000 F8000.0
G1 X179.9074 Y-194.3753 F12000.0
G1 Z0.0000 F8000.0
G0 X0.0000 Y-186.6315 F15000.0
G1 Z11.9000 F8000.0
G1 X180.0000 Y-186.6315 F12000.0
G1 Z0.0000 F8000.0
G0 X0.0604 Y-186.5510 F15000.0
G1 Z11.9000 F8000.0
G1 X179.9074 Y-186.5510 F12000.0
G1 Z0.0000 F8000.0
G0 X11.7674 Y-163.2538 F15000.0
G1 Z11.9000 F8000.0
G1 X19.4736 Y-163.2538 F12000.0
G1 X19.4736 Y-201.4360
G1 X19.5528 Y-202.0400
G1 X179.9074 Y-202.0829
G1 Z0.0000 F8000.0
G0 X0.0000 Y-178.8891 F15000.0
G1 Z11.9000 F8000.0
G1 X180.0000 Y-178.8891 F12000.0
G1 Z0.0000 F8000.0
G0 X0.0604 Y-178.7857 F15000.0
G1 Z11.9000 F8000.0
G1 X179.9074 Y-178.7857 F12000.0
G1 Z0.0000 F8000.0
G0 X11.6922 Y-54.3398 F15000.0
G1 Z11.9000 F8000.0
G1 X11.6922 Y-294.6235 F12000.0
G1 Z0.0000 F8000.0
G0 X19.4360 Y-54.3398 F15000.0
G1 Z11.9000 F8000.0
G1 X19.4360 Y-294.6235 F12000.0
G1 Z0.0000 F8000.0
G0 X87.5668 Y-54.3398 F15000.0
G1 Z11.9000 F8000.0
G1 X87.5668 Y-294.6235 F12000.0
G1 Z0.0000 F8000.0
G0 X148.8449 Y-294.4477 F15000.0
G1 Z11.9000 F8000.0
G1 X148.8865 Y-54.3774 F12000.0
G1 X149.3737 Y-54.2982
G1 X179.9074 Y-54.2982
G1 Z0.0000 F8000.0
G0 X148.8597 Y-54.3398 F15000.0
G1 Z11.9000 F8000.0
G1 X148.8597 Y-294.6235 F12000.0
G1 Z0.0000 F8000.0
G0 X158.5804 Y-54.3398 F15000.0
G1 Z11.9000 F8000.0
G1 X158.5804 Y-294.6235 F12000.0
G1 Z0.0000 F8000.0
G0 X0.0000 Y-171.0634 F15000.0
G1 Z11.9000 F8000.0
G1 X180.0000 Y-171.0634 F12000.0
G1 Z0.0000 F8000.0
G0 X0.0604 Y-170.9614 F15000.0
G1 Z11.9000 F8000.0
G1 X179.9074 Y-170.9614 F12000.0
G1 Z0.0000 F8000.0
G0 X158.5522 Y-54.3573 F15000.0
G1 Z11.9000 F8000.0
G1 X158.5938 Y-279.8512 F12000.0
G1 X158.9629 Y-279.9760
G1 X179.9074 Y-279.9760
G1 Z0.0000 F8000.0
G0 X0.0000 Y-163.3196 F15000.0
G1 Z11.9000 F8000.0
G1 X180.0000 Y-163.3196 F12000.0
G1 Z0.0000 F8000.0
G0 X148.9040 Y-163.2538 F15000.0
G1 Z11.9000 F8000.0
G1 X158.5522 Y-163.1961 F12000.0
G1 Z0.0000 F8000.0
G0 X158.6099 Y-163.2538 F15000.0
G1 Z11.9000 F8000.0
G1 X179.9074 Y-163.1961 F12000.0
G1 Z0.0000 F8000.0
G0 X11.7674 Y-155.4295 F15000.0
G1 Z11.9000 F8000.0
G1 X19.4736 Y-155.4295 F12000.0
G1 X19.4736 Y-162.6660
G1 X19.5528 Y-163.1531
G1 X148.8449 Y-163.1961
G1 Z0.0000 F8000.0
G0 X0.0000 Y-155.4939 F15000.0
G1 Z11.9000 F8000.0
G1 X180.0000 Y-155.4939 F12000.0
G1 Z0.0000 F8000.0
G0 X0.0000 Y-294.6235 F15000.0
G1 Z11.9000 F8000.0
G1 X0.0000 Y-15.3765 F12000.0
G1 Z0.0000 F8000.0
G0 X148.9040 Y-155.4295 F15000.0
G1 Z11.9000 F8000.0
G1 X158.5522 Y-155.3704 F12000.0
G1 Z0.0000 F8000.0
G0 X158.6099 Y-155.4295 F15000.0
G1 Z11.9000 F8000.0
G1 X179.9074 Y-155.3704 F12000.0
G1 Z0.0000 F8000.0
G0 X180.0000 Y-294.6235 F15000.0
G1 Z11.9000 F8000.0
G1 X180.0000 Y-15.3765 F12000.0
G1 Z0.0000 F8000.0
G0 X0.0000 Y-147.7514 F15000.0
G1 Z11.9000 F8000.0
G1 X180.0000 Y-147.7514 F12000.0
G1 Z0.0000 F8000.0
G0 X0.0604 Y-147.6642 F15000.0
G1 Z11.9000 F8000.0
G1 X179.9074 Y-147.6642 F12000.0
G1 Z0.0000 F8000.0
G0 X0.0604 Y-132.0732 F15000.0
G1 Z11.9000 F8000.0
G1 X5.8837 Y-132.1323 F12000.0
G1 X5.9266 Y-155.2926
G1 X6.2957 Y-155.3704
G1 X11.7083 Y-155.3704
G1 Z0.0000 F8000.0
G0 X0.0000 Y-139.9257 F15000.0
G1 Z11.9000 F8000.0
G1 X180.0000 Y-139.9257 F12000.0
G1 Z0.0000 F8000.0
G0 X0.0604 Y-124.2489 F15000.0
G1 Z11.9000 F8000.0
G1 X5.8837 Y-124.3079 F12000.0
G1 X5.9266 Y-131.9954
G1 X6.7668 Y-132.0732
G1 X19.4736 Y-132.1323
G1 X19.4736 Y-154.9584
G1 X19.5528 Y-155.3288
G1 X148.8449 Y-155.3704
G1 Z0.0000 F8000.0
G0 X0.0604 Y-139.8398 F15000.0
G1 Z11.9000 F8000.0
G1 X179.9074 Y-139.8398 F12000.0
G1 Z0.0000 F8000.0
G0 X0.0000 Y-132.1833 F15000.0
G1 Z11.9000 F8000.0
G1 X180.0000 Y-132.1833 F12000.0
G1 Z0.0000 F8000.0
G0 X0.0000 Y-124.3576 F15000.0
G1 Z11.9000 F8000.0
G1 X180.0000 Y-124.3576 F12000.0
G1 Z0.0000 F8000.0
G0 X0.0000 Y-116.6138 F15000.0
G1 Z11.9000 F8000.0
G1 X180.0000 Y-116.6138 F12000.0
G1 Z0.0000 F8000.0
G0 X0.0604 Y-116.5426 F15000.0
G1 Z11.9000 F8000.0
G1 X179.9074 Y-116.5426 F12000.0
G1 Z0.0000 F8000.0
G0 X0.0000 Y-108.7881 F15000.0
G1 Z11.9000 F8000.0
G1 X180.0000 Y-108.7881 F12000.0
G1 Z0.0000 F8000.0
G0 X0.0604 Y-85.4198 F15000.0
G1 Z11.9000 F8000.0
G1 X5.8837 Y-85.4198 F12000.0
G1 X5.8837 Y-123.6020
G1 X5.9629 Y-124.2073
G1 X19.4736 Y-124.3079
G1 X19.4736 Y-131.5444
G1 X19.5528 Y-132.0316
G1 X179.9074 Y-132.0732
G1 Z0.0000 F8000.0
G0 X0.0604 Y-108.7170 F15000.0
G1 Z11.9000 F8000.0
G1 X179.9074 Y-108.7170 F12000.0
G1 Z0.0000 F8000.0
G0 X11.7674 Y-85.4198 F15000.0
G1 Z11.9000 F8000.0
G1 X19.4736 Y-85.4198 F12000.0
G1 X19.4736 Y-123.6020
G1 X19.5528 Y-124.2073
G1 X179.9074 Y-124.2489
G1 Z0.0000 F8000.0
G0 X0.0000 Y-39.7085 F15000.0
G1 Z11.9000 F8000.0
G1 X6.5319 Y-39.7085 F12000.0
G1 X6.8419 Y-39.7970
G1 X6.8419 Y-54.1748
G1 X6.4138 Y-54.2982
G1 X0.0604 Y-54.2392
G1 X0.0013 Y-55.1223
G1 X0.0013 Y-155.0174
G1 X0.0792 Y-155.3879
G1 X5.8837 Y-155.4295
G1 X5.8837 Y-162.6660
G1 X5.9629 Y-163.1531
G1 X11.7083 Y-163.1961
G1 Z0.0000 F8000.0
G0 X0.0000 Y-101.0456 F15000.0
G1 Z11.9000 F8000.0
G1 X180.0000 Y-101.0456 F12000.0
G1 Z0.0000 F8000.0
G0 X0.0604 Y-100.9517 F15000.0
G1 Z11.9000 F8000.0
G1 X179.9074 Y-100.9517 F12000.0
G1 Z0.0000 F8000.0
G0 X0.0000 Y-93.2200 F15000.0
G1 Z11.9000 F8000.0
G1 X180.0000 Y-93.2200 F12000.0
G1 Z0.0000 F8000.0
G0 X0.0604 Y-93.1273 F15000.0
G1 Z11.9000 F8000.0
G1 X179.9074 Y-93.1273 F12000.0
G1 Z0.0000 F8000.0
G0 X0.0000 Y-85.4761 F15000.0
G1 Z11.9000 F8000.0
G1 X180.0000 Y-85.4761 F12000.0
G1 Z0.0000 F8000.0
G0 X148.9040 Y-85.4198 F15000.0
G1 Z11.9000 F8000.0
G1 X158.5522 Y-85.3621 F12000.0
G1 Z0.0000 F8000.0
G0 X158.6099 Y-85.4198 F15000.0
G1 Z11.9000 F8000.0
G1 X179.9074 Y-85.3621 F12000.0
G1 Z0.0000 F8000.0
G0 X0.0604 Y-77.5954 F15000.0
G1 Z11.9000 F8000.0
G1 X5.8837 Y-77.5954 F12000.0
G1 X5.8837 Y-84.8319
G1 X5.9629 Y-85.3191
G1 X11.7083 Y-85.3621
G1 Z0.0000 F8000.0
G0 X11.7674 Y-77.5954 F15000.0
G1 Z11.9000 F8000.0
G1 X19.4736 Y-77.5954 F12000.0
G1 X19.4736 Y-84.8319
G1 X19.5528 Y-85.3191
G1 X148.8449 Y-85.3621
G1 Z0.0000 F8000.0
G0 X0.0000 Y-77.6505 F15000.0
G1 Z11.9000 F8000.0
G1 X180.0000 Y-77.6505 F12000.0
G1 Z0.0000 F8000.0
G0 X148.9040 Y-77.5954 F15000.0
G1 Z11.9000 F8000.0
G1 X158.5522 Y-77.5364 F12000.0
G1 Z0.0000 F8000.0
G0 X158.6099 Y-77.5954 F15000.0
G1 Z11.9000 F8000.0
G1 X179.9074 Y-77.5364 F12000.0
G1 Z0.0000 F8000.0
G0 X0.0000 Y-69.9080 F15000.0
G1 Z11.9000 F8000.0
G1 X180.0000 Y-69.9080 F12000.0
G1 Z0.0000 F8000.0
G0 X0.0604 Y-69.8302 F15000.0
G1 Z11.9000 F8000.0
G1 X179.9074 Y-69.8302 F12000.0
G1 Z0.0000 F8000.0
G0 X5.8837 Y-54.3573 F15000.0
G1 Z11.9000 F8000.0
G1 X5.9266 Y-77.4585 F12000.0
G1 X6.2957 Y-77.5364
G1 X11.7083 Y-77.5364
G1 Z0.0000 F8000.0
G0 X0.0000 Y-62.0823 F15000.0
G1 Z11.9000 F8000.0
G1 X180.0000 Y-62.0823 F12000.0
G1 Z0.0000 F8000.0
G0 X0.0604 Y-62.0058 F15000.0
G1 Z11.9000 F8000.0
G1 X179.9074 Y-62.0058 F12000.0
G1 Z0.0000 F8000.0
G0 X0.0000 Y-54.3398 F15000.0
G1 Z11.9000 F8000.0
G1 X180.0000 Y-54.3398 F12000.0
G1 Z0.0000 F8000.0
G0 X6.8849 Y-54.2392 F15000.0
G1 Z11.9000 F8000.0
G1 X11.6493 Y-54.2982 F12000.0
G1 Z0.0000 F8000.0
G0 X16.5922 Y-54.2392 F15000.0
G1 Z11.9000 F8000.0
G1 X19.4159 Y-54.2982 F12000.0
G1 Z0.0000 F8000.0
G0 X39.0063 Y-54.2392 F15000.0
G1 Z11.9000 F8000.0
G1 X39.7243 Y-54.3398 F12000.0
G1 X63.0054 Y-54.2969
G1 X63.3033 Y-54.1815
G1 Z0.0000 F8000.0
G0 X87.6594 Y-54.2982 F15000.0
G1 Z11.9000 F8000.0
G1 X148.7859 Y-54.2982 F12000.0
G1 Z0.0000 F8000.0
G0 X0.0000 Y-49.4788 F15000.0
G1 Z11.9000 F8000.0
G1 X63.2644 Y-49.4788 F12000.0
G1 Z0.0000 F8000.0
G0 X0.1194 Y-49.4157 F15000.0
G1 Z11.9000 F8000.0
G1 X63.2443 Y-49.4157 F12000.0
G1 Z0.0000 F8000.0
G0 X6.8312 Y-39.7595 F15000.0
G1 Z11.9000 F8000.0
G1 X6.8312 Y-54.3398 F12000.0
G1 Z0.0000 F8000.0
G0 X39.0063 Y-15.4114 F15000.0
G1 Z11.9000 F8000.0
G1 X38.9633 Y-54.1748 F12000.0
G1 X38.5942 Y-54.2982
G1 X19.5984 Y-54.3184
G1 X19.4736 Y-54.6512
G1 X19.4937 Y-77.4129
G1 X19.9447 Y-77.5364
G1 X148.8449 Y-77.5364
G1 Z0.0000 F8000.0
G0 X104.5441 Y-44.1789 F15000.0
G1 Z11.9000 F8000.0
G1 X105.5212 Y-46.7088 F12000.0
G1 X105.7748 Y-47.1208
G1 X105.8621 Y-47.6509
G1 X106.8982 Y-50.4746
G1 Z0.0000 F8000.0
G0 X105.8970 Y-47.1208 F15000.0
G1 Z11.9000 F8000.0
G1 X107.1330 Y-47.8858 F12000.0
G1 Z0.0000 F8000.0
G0 X107.4860 Y-44.2380 F15000.0
G1 Z11.9000 F8000.0
G1 X107.2176 Y-48.0629 F12000.0
G1 X107.9571 Y-48.8293
G1 X109.8387 Y-50.5337
G1 Z0.0000 F8000.0
G0 X108.6630 Y-44.1789 F15000.0
G1 Z11.9000 F8000.0
G1 X110.0561 Y-47.7100 F12000.0
G1 X111.0157 Y-50.4746
G1 Z0.0000 F8000.0
G0 X110.1339 Y-47.5328 F15000.0
G1 Z11.9000 F8000.0
G1 X112.7805 Y-47.5328 F12000.0
G1 Z0.0000 F8000.0
G0 X111.6048 Y-44.1789 F15000.0
G1 Z11.9000 F8000.0
G1 X112.6946 Y-47.0617 F12000.0
G1 X112.7510 Y-47.4147
G1 X113.9575 Y-50.4746
G1 Z0.0000 F8000.0
G0 X112.7805 Y-44.1789 F15000.0
G1 Z11.9000 F8000.0
G1 X115.1520 Y-50.4317 F12000.0
G1 X117.5462 Y-50.5337
G1 Z0.0000 F8000.0
G0 X118.5501 Y-46.9638 F15000.0
G1 Z11.9000 F8000.0
G1 X119.6587 Y-49.7083 F12000.0
G1 X120.2103 Y-50.2384
G1 X120.7820 Y-50.4518
G1 X122.0207 Y-50.3592
G1 X122.3656 Y-49.8868
G1 X122.2932 Y-49.1634
G1 X120.7068 Y-45.0137
G1 X120.1593 Y-44.4527
G1 X119.6654 Y-44.2071
G1 X118.3434 Y-44.2474
G1 X117.9999 Y-44.5507
G1 X117.9019 Y-45.1265
G1 X118.5501 Y-46.9638
G1 Z0.0000 F8000.0
G0 X123.0769 Y-44.1789 F15000.0
G1 Z11.9000 F8000.0
G1 X125.4296 Y-50.4746 F12000.0
G1 Z0.0000 F8000.0
G0 X123.3709 Y-49.0037 F15000.0
G1 Z11.9000 F8000.0
G1 X125.1357 Y-50.1217 F12000.0
G1 Z0.0000 F8000.0
G0 X126.4912 Y-46.9638 F15000.0
G1 Z11.9000 F8000.0
G1 X127.6011 Y-49.7083 F12000.0
G1 X128.1527 Y-50.2384
G1 X128.7244 Y-50.4518
G1 X129.9632 Y-50.3592
G1 X130.3081 Y-49.8868
G1 X130.2343 Y-49.1634
G1 X128.6493 Y-45.0137
G1 X128.1004 Y-44.4527
G1 X127.6078 Y-44.2071
G1 X126.2859 Y-44.2474
G1 X125.9423 Y-44.5507
G1 X125.8430 Y-45.1265
G1 X126.4912 Y-46.9638
G1 Z0.0000 F8000.0
G0 X130.6101 Y-46.9638 F15000.0
G1 Z11.9000 F8000.0
G1 X131.7186 Y-49.7083 F12000.0
G1 X132.2702 Y-50.2384
G1 X132.8419 Y-50.4518
G1 X134.0807 Y-50.3592
G1 X134.4256 Y-49.8868
G1 X134.3531 Y-49.1634
G1 X132.7681 Y-45.0137
G1 X132.2192 Y-44.4527
G1 X131.7253 Y-44.2071
G1 X130.4047 Y-44.2474
G1 X130.0611 Y-44.5507
G1 X129.9618 Y-45.1265
G1 X130.6101 Y-46.9638
G1 Z0.0000 F8000.0
G0 X134.7866 Y-46.9638 F15000.0
G1 Z11.9000 F8000.0
G1 X135.8965 Y-49.7083 F12000.0
G1 X136.4481 Y-50.2384
G1 X137.0198 Y-50.4518
G1 X138.2586 Y-50.3592
G1 X138.6035 Y-49.8868
G1 X138.5297 Y-49.1634
G1 X136.9447 Y-45.0137
G1 X136.3958 Y-44.4527
G1 X135.9032 Y-44.2071
G1 X134.5813 Y-44.2474
G1 X134.2377 Y-44.5507
G1 X134.1384 Y-45.1265
G1 X134.7866 Y-46.9638
G1 Z0.0000 F8000.0
G0 X0.0000 Y-44.6191 F15000.0
G1 Z11.9000 F8000.0
G1 X6.8312 Y-44.6191 F12000.0
G1 Z0.0000 F8000.0
G0 X0.0000 Y-39.7595 F15000.0
G1 Z11.9000 F8000.0
G1 X6.8312 Y-39.7595 F12000.0
G1 Z0.0000 F8000.0
G0 X0.1194 Y-44.5910 F15000.0
G1 Z11.9000 F8000.0
G1 X63.2443 Y-44.5910 F12000.0
G1 Z0.0000 F8000.0
G0 X0.9421 Y-40.7674 F15000.0
G1 Z11.9000 F8000.0
G1 X2.0010 Y-43.8260 F12000.0
G1 Z0.0000 F8000.0
G0 X1.2951 Y-41.2384 F15000.0
G1 Z11.9000 F8000.0
G1 X3.2962 Y-43.8260 F12000.0
G1 Z0.0000 F8000.0
G0 X2.2373 Y-40.7674 F15000.0
G1 Z11.9000 F8000.0
G1 X3.0009 Y-43.2381 F12000.0
G1 Z0.0000 F8000.0
G0 X2.8251 Y-40.8855 F15000.0
G1 Z11.9000 F8000.0
G1 X3.1955 Y-40.6667 F12000.0
G1 X3.6505 Y-40.7982
G1 X3.8974 Y-41.2129
G1 X3.9981 Y-41.8290
G1 X4.2906 Y-42.4732
G1 X4.1148 Y-42.8073
G1 X3.4720 Y-42.5913
G1 Z0.0000 F8000.0
G0 X3.4720 Y-41.7672 F15000.0
G1 Z11.9000 F8000.0
G1 X3.8249 Y-41.7082 F12000.0
G1 Z0.0000 F8000.0
G0 X4.2960 Y-40.7674 F15000.0
G1 Z11.9000 F8000.0
G1 X5.0019 Y-42.8261 F12000.0
G1 Z0.0000 F8000.0
G0 X5.0019 Y-42.5322 F15000.0
G1 Z11.9000 F8000.0
G1 X5.2569 Y-41.9685 F12000.0
G1 X5.5670 Y-42.0665
G1 X6.2367 Y-42.7671
G1 Z0.0000 F8000.0
G0 X6.1199 Y-42.4732 F15000.0
G1 Z11.9000 F8000.0
G1 X5.5898 Y-40.7674 F12000.0
G1 Z0.0000 F8000.0
G0 X6.8312 Y-44.6191 F15000.0
G1 Z11.9000 F8000.0
G1 X16.5532 Y-44.6191 F12000.0
G1 Z0.0000 F8000.0
G0 X6.8312 Y-39.7595 F15000.0
G1 Z11.9000 F8000.0
G1 X16.5532 Y-39.7595 F12000.0
G1 Z0.0000 F8000.0
G0 X6.9426 Y-39.7085 F15000.0
G1 Z11.9000 F8000.0
G1 X31.8288 Y-39.7085 F12000.0
G1 Z0.0000 F8000.0
G0 X7.7076 Y-40.6493 F15000.0
G1 Z11.9000 F8000.0
G1 X9.7408 Y-43.7978 F12000.0
G1 X10.2106 Y-43.6904
G1 X10.1139 Y-43.1335
G1 X9.2966 Y-40.7674
G1 Z0.0000 F8000.0
G0 X10.4736 Y-42.8261 F15000.0
G1 Z11.9000 F8000.0
G1 X9.8844 Y-40.8331 F12000.0
G1 X10.0871 Y-40.6707
G1 X10.6924 Y-40.6748
G1 X11.0158 Y-41.1083
G1 X11.5902 Y-42.8261
G1 Z0.0000 F8000.0
G0 X12.5324 Y-40.7083 F15000.0
G1 Z11.9000 F8000.0
G1 X11.5285 Y-40.8345 F12000.0
G1 X11.9808 Y-42.4611
G1 X12.3190 Y-42.8047
G1 X13.1202 Y-42.8261
G1 Z0.0000 F8000.0
G0 X13.0034 Y-40.7083 F15000.0
G1 Z11.9000 F8000.0
G1 X13.7496 Y-42.7671 F12000.0
G1 X14.1174 Y-42.8409
G1 X15.1602 Y-42.8100
G1 X15.2957 Y-42.6436
G1 X15.2595 Y-42.2973
G1 X14.7683 Y-40.7083
G1 Z0.0000 F8000.0
G0 X13.8852 Y-40.7674 F15000.0
G1 Z11.9000 F8000.0
G1 X14.4744 Y-42.7671 F12000.0
G1 Z0.0000 F8000.0
G0 X16.5532 Y-29.9569 F15000.0
G1 Z11.9000 F8000.0
G1 X16.5532 Y-54.3398 F12000.0
G1 Z0.0000 F8000.0
G0 X16.5532 Y-44.6191 F15000.0
G1 Z11.9000 F8000.0
G1 X38.9606 Y-44.6191 F12000.0
G1 Z0.0000 F8000.0
G0 X16.5532 Y-39.7595 F15000.0
G1 Z11.9000 F8000.0
G1 X38.9606 Y-39.7595 F12000.0
G1 Z0.0000 F8000.0
G0 X21.0626 Y-40.7674 F15000.0
G1 Z11.9000 F8000.0
G1 X22.1806 Y-43.6502 F12000.0
G1 Z0.0000 F8000.0
G0 X22.1215 Y-43.3562 F15000.0
G1 Z11.9000 F8000.0
G1 X22.5336 Y-41.0613 F12000.0
G1 Z0.0000 F8000.0
G0 X22.4745 Y-40.7083 F15000.0
G1 Z11.9000 F8000.0
G1 X23.5925 Y-43.7683 F12000.0
G1 Z0.0000 F8000.0
G0 X23.7401 Y-42.7939 F15000.0
G1 Z11.9000 F8000.0
G1 X24.1078 Y-43.6341 F12000.0
G1 X24.5963 Y-43.7387
G1 X24.6675 Y-43.3294
G1 X24.3387 Y-42.5993
G1 X23.8904 Y-42.3953
G1 X23.7226 Y-42.6288
G1 X23.7401 Y-42.7939
G1 Z0.0000 F8000.0
G0 X26.6511 Y-43.8260 F15000.0
G1 Z11.9000 F8000.0
G1 X27.5422 Y-43.7951 F12000.0
G1 X27.7220 Y-43.5186
G1 X26.7799 Y-40.9673
G1 X26.3370 Y-40.6801
G1 X25.7586 Y-40.7150
G1 X25.6525 Y-40.9928
G1 X26.2967 Y-42.6369
G1 X26.8993 Y-42.8395
G1 X27.4160 Y-42.8261
G1 Z0.0000 F8000.0
G0 X27.6442 Y-41.5780 F15000.0
G1 Z11.9000 F8000.0
G1 X28.2025 Y-42.7228 F12000.0
G1 X28.9661 Y-42.8100
G1 X29.1755 Y-42.5872
G1 X28.6910 Y-41.0599
G1 X28.2911 Y-40.7097
G1 X27.5811 Y-40.7177
G1 X27.4738 Y-40.9848
G1 X27.6442 Y-41.5780
G1 Z0.0000 F8000.0
G0 X29.4761 Y-41.6505 F15000.0
G1 Z11.9000 F8000.0
G1 X29.1232 Y-40.7674 F12000.0
G1 Z0.0000 F8000.0
G0 X29.8868 Y-42.8261 F15000.0
G1 Z11.9000 F8000.0
G1 X29.5929 Y-41.7082 F12000.0
G1 X31.1229 Y-42.8852
G1 Z0.0000 F8000.0
G0 X30.0049 Y-41.8263 F15000.0
G1 Z11.9000 F8000.0
G1 X30.2988 Y-40.7674 F12000.0
G1 Z0.0000 F8000.0
G0 X32.0637 Y-40.6493 F15000.0
G1 Z11.9000 F8000.0
G1 X32.8877 Y-42.7671 F12000.0
G1 Z0.0000 F8000.0
G0 X32.7696 Y-40.7674 F15000.0
G1 Z11.9000 F8000.0
G1 X33.5346 Y-42.5913 F12000.0
G1 Z0.0000 F8000.0
G0 X33.5346 Y-42.7094 F15000.0
G1 Z11.9000 F8000.0
G1 X33.8943 Y-41.9417 F12000.0
G1 X34.1828 Y-42.0665
G1 X34.8888 Y-42.6503
G1 Z0.0000 F8000.0
G0 X34.1828 Y-40.7083 F15000.0
G1 Z11.9000 F8000.0
G1 X34.8297 Y-42.4732 F12000.0
G1 Z0.0000 F8000.0
G0 X38.9606 Y-29.9569 F15000.0
G1 Z11.9000 F8000.0
G1 X38.9606 Y-54.3398 F12000.0
G1 Z0.0000 F8000.0
G0 X38.9606 Y-44.6191 F15000.0
G1 Z11.9000 F8000.0
G1 X53.5424 Y-44.6191 F12000.0
G1 Z0.0000 F8000.0
G0 X38.9606 Y-39.7595 F15000.0
G1 Z11.9000 F8000.0
G1 X53.5424 Y-39.7595 F12000.0
G1 Z0.0000 F8000.0
G0 X42.6540 Y-40.7674 F15000.0
G1 Z11.9000 F8000.0
G1 X43.7894 Y-43.7481 F12000.0
G1 X45.0013 Y-43.8072
G1 X45.1181 Y-43.5911
G1 X44.0659 Y-40.7083
G1 Z0.0000 F8000.0
G0 X44.9987 Y-41.5780 F15000.0
G1 Z11.9000 F8000.0
G1 X45.5583 Y-42.7228 F12000.0
G1 X46.3206 Y-42.8100
G1 X46.5313 Y-42.5872
G1 X45.9408 Y-40.9069
G1 X45.0134 Y-40.6748
G1 X44.8296 Y-40.9848
G1 X44.9987 Y-41.5780
G1 Z0.0000 F8000.0
G0 X47.6546 Y-43.8260 F15000.0
G1 Z11.9000 F8000.0
G1 X48.5444 Y-43.7951 F12000.0
G1 X48.7243 Y-43.5186
G1 X47.7835 Y-40.9673
G1 X47.3392 Y-40.6801
G1 X46.7608 Y-40.7150
G1 X46.6789 Y-41.1203
G1 X47.3003 Y-42.6369
G1 X47.9016 Y-42.8395
G1 X48.4196 Y-42.8261
G1 Z0.0000 F8000.0
G0 X48.3606 Y-40.7674 F15000.0
G1 Z11.9000 F8000.0
G1 X49.1698 Y-42.7993 F12000.0
G1 X50.0556 Y-42.7751
G1 X50.1764 Y-42.5725
G1 X49.5376 Y-40.7083
G1 Z0.0000 F8000.0
G0 X53.5424 Y-29.9569 F15000.0
G1 Z11.9000 F8000.0
G1 X53.5424 Y-54.3398 F12000.0
G1 Z0.0000 F8000.0
G0 X53.5424 Y-44.6191 F15000.0
G1 Z11.9000 F8000.0
G1 X63.2644 Y-44.6191 F12000.0
G1 Z0.0000 F8000.0
G0 X53.5424 Y-39.7595 F15000.0
G1 Z11.9000 F8000.0
G1 X63.2644 Y-39.7595 F12000.0
G1 Z0.0000 F8000.0
G0 X54.4201 Y-40.4735 F15000.0
G1 Z11.9000 F8000.0
G1 X54.8227 Y-40.8882 F12000.0
G1 X55.8695 Y-43.6126
G1 X56.3245 Y-43.8568
G1 X56.6063 Y-43.8099
G1 X56.7150 Y-43.6233
G1 X55.8977 Y-40.9365
G1 X55.8910 Y-40.4735
G1 Z0.0000 F8000.0
G0 X54.8321 Y-40.6493 F15000.0
G1 Z11.9000 F8000.0
G1 X55.7729 Y-40.6493 F12000.0
G1 Z0.0000 F8000.0
G0 X56.8439 Y-41.8410 F15000.0
G1 Z11.9000 F8000.0
G1 X57.1740 Y-42.6463 F12000.0
G1 X57.4491 Y-42.8181
G1 X58.1484 Y-42.7375
G1 X58.1443 Y-42.4732
G1 X57.5028 Y-40.7956
G1 X56.7298 Y-40.7150
G1 X56.6224 Y-41.1163
G1 X56.8439 Y-41.8410
G1 Z0.0000 F8000.0
G0 X58.0678 Y-40.7083 F15000.0
G1 Z11.9000 F8000.0
G1 X58.8140 Y-42.7671 F12000.0
G1 X59.1818 Y-42.8409
G1 X60.2246 Y-42.8100
G1 X60.3601 Y-42.6436
G1 X60.3239 Y-42.2973
G1 X59.8327 Y-40.7083
G1 Z0.0000 F8000.0
G0 X58.9496 Y-40.7674 F15000.0
G1 Z11.9000 F8000.0
G1 X59.5388 Y-42.7671 F12000.0
G1 Z0.0000 F8000.0
G0 X60.7265 Y-41.8410 F15000.0
G1 Z11.9000 F8000.0
G1 X61.0567 Y-42.6463 F12000.0
G1 X61.3318 Y-42.8181
G1 X62.0324 Y-42.7375
G1 X62.0270 Y-42.4732
G1 X61.3868 Y-40.7956
G1 X60.6124 Y-40.7150
G1 X60.5064 Y-41.1163
G1 X60.7265 Y-41.8410
G1 Z0.0000 F8000.0
G0 X63.2644 Y-39.7595 F15000.0
G1 Z11.9000 F8000.0
G1 X180.0000 Y-39.7595 F12000.0
G1 Z0.0000 F8000.0
G0 X0.0000 Y-34.8166 F15000.0
G1 Z11.9000 F8000.0
G1 X16.5532 Y-34.8166 F12000.0
G1 Z0.0000 F8000.0
G0 X0.1194 Y-34.7079 F15000.0
G1 Z11.9000 F8000.0
G1 X6.1199 Y-34.7669 F12000.0
G1 Z0.0000 F8000.0
G0 X0.9421 Y-35.8849 F15000.0
G1 Z11.9000 F8000.0
G1 X1.4629 Y-37.1854 F12000.0
G1 X2.6063 Y-37.3303
G1 X3.0814 Y-37.7772
G1 X3.2639 Y-38.6643
G1 X2.9271 Y-38.9113
G1 X2.0775 Y-38.8643
G1 X1.5716 Y-37.5813
G1 X1.5313 Y-37.2967
G1 Z0.0000 F8000.0
G0 X3.2881 Y-36.6942 F15000.0
G1 Z11.9000 F8000.0
G1 X3.9175 Y-37.8873 F12000.0
G1 X4.8302 Y-37.8792
G1 X4.8449 Y-37.6162
G1 X4.2692 Y-36.0392
G1 X3.3042 Y-35.7909
G1 X3.1177 Y-36.1010
G1 X3.2881 Y-36.6942
G1 Z0.0000 F8000.0
G0 X4.8838 Y-36.0016 F15000.0
G1 Z11.9000 F8000.0
G1 X5.0758 Y-35.8151 F12000.0
G1 X5.6314 Y-35.8272
G1 X6.0259 Y-36.1761
G1 X6.2568 Y-37.0270
G1 X6.5279 Y-37.6054
G1 X6.4152 Y-37.9007
G1 X5.9307 Y-37.9047
G1 X5.6488 Y-37.7665
G1 Z0.0000 F8000.0
G0 X5.6488 Y-36.8847 F15000.0
G1 Z11.9000 F8000.0
G1 X6.1199 Y-36.8257 F12000.0
G1 Z0.0000 F8000.0
G0 X6.5896 Y-35.8258 F15000.0
G1 Z11.9000 F8000.0
G1 X6.8299 Y-36.7599 F12000.0
G1 X7.2888 Y-37.8792
G1 X8.2766 Y-37.8658
G1 X8.3330 Y-37.4887
G1 X7.7344 Y-36.0003
G1 X7.3157 Y-35.8070
G1 X6.5145 Y-35.7064
G1 X6.2581 Y-34.7857
G1 X6.6594 Y-34.6810
G1 X16.5546 Y-34.7683
G1 X20.4157 Y-34.7079
G1 X63.2443 Y-34.7079
G1 Z0.0000 F8000.0
G0 X8.1988 Y-33.5268 F15000.0
G1 Z11.9000 F8000.0
G1 X7.6740 Y-33.1497 F12000.0
G1 X7.4727 Y-33.1188
G1 X7.9062 Y-34.0422
G1 X8.3021 Y-33.9630
G1 X8.2981 Y-33.6637
G1 X8.1988 Y-33.5268
G1 Z0.0000 F8000.0
G0 X8.6417 Y-36.6942 F15000.0
G1 Z11.9000 F8000.0
G1 X9.2711 Y-37.8873 F12000.0
G1 X10.1837 Y-37.8792
G1 X10.1985 Y-37.6162
G1 X9.6227 Y-36.0392
G1 X8.6578 Y-35.7909
G1 X8.4712 Y-36.1010
G1 X8.6417 Y-36.6942
G1 Z0.0000 F8000.0
G0 X11.7083 Y-38.0617 F15000.0
G1 Z11.9000 F8000.0
G1 X10.8762 Y-37.7437 F12000.0
G1 X10.5769 Y-37.1786
G1 X10.2522 Y-35.9721
G1 X10.3770 Y-35.8164
G1 X10.7380 Y-35.7587
G1 X11.3178 Y-35.9842
G1 X11.6224 Y-36.5519
G1 X11.9150 Y-37.8242
G1 X11.4184 Y-38.8079
G1 X11.6117 Y-38.9408
G1 X12.4733 Y-38.9435
G1 Z0.0000 F8000.0
G0 X16.5532 Y-34.8166 F15000.0
G1 Z11.9000 F8000.0
G1 X38.9606 Y-34.8166 F12000.0
G1 Z0.0000 F8000.0
G0 X18.0617 Y-37.4726 F15000.0
G1 Z11.9000 F8000.0
G1 X17.5665 Y-35.8634 F12000.0
G1 X17.9141 Y-35.7587
G1 X18.4966 Y-35.8540
G1 X18.8764 Y-36.0929
G1 X19.2642 Y-36.7935
G1 X19.2414 Y-37.2525
G1 X18.7033 Y-37.4699
G1 X18.2053 Y-37.5101
G1 X18.1651 Y-37.8161
G1 X18.7194 Y-38.9260
G1 X19.9447 Y-38.9435
G1 Z0.0000 F8000.0
G0 X19.9447 Y-36.8257 F15000.0
G1 Z11.9000 F8000.0
G1 X19.7259 Y-35.9493 F12000.0
G1 X20.1326 Y-35.7426
G1 X20.8278 Y-35.8258
G1 Z0.0000 F8000.0
G0 X20.2252 Y-36.8780 F15000.0
G1 Z11.9000 F8000.0
G1 X20.0037 Y-36.8847 F12000.0
G1 X20.2601 Y-37.6162
G1 X20.8023 Y-37.9342
G1 X21.3378 Y-37.8658
G1 X21.3539 Y-37.3182
G1 X21.0492 Y-36.9062
G1 X20.2252 Y-36.8780
G1 Z0.0000 F8000.0
G0 X21.3565 Y-35.8258 F15000.0
G1 Z11.9000 F8000.0
G1 X22.6033 Y-37.8698 F12000.0
G1 X23.0341 Y-37.9450
G1 X23.2247 Y-37.7437
G1 X22.5336 Y-35.8258
G1 Z0.0000 F8000.0
G0 X23.4663 Y-36.6942 F15000.0
G1 Z11.9000 F8000.0
G1 X24.0259 Y-37.8403 F12000.0
G1 X24.7882 Y-37.9275
G1 X24.9990 Y-37.7034
G1 X24.4084 Y-36.0245
G1 X23.4811 Y-35.7923
G1 X23.2972 Y-36.1010
G1 X23.4663 Y-36.6942
G1 Z0.0000 F8000.0
G0 X26.2404 Y-38.0617 F15000.0
G1 Z11.9000 F8000.0
G1 X26.7651 Y-37.7021 F12000.0
G1 X26.1344 Y-35.9815
G1 X25.5009 Y-35.7547
G1 X25.0795 Y-35.9533
G1 X25.1318 Y-36.3908
G1 X25.7693 Y-37.9436
G1 Z0.0000 F8000.0
G0 X26.4954 Y-38.3516 F15000.0
G1 Z11.9000 F8000.0
G1 X25.9706 Y-37.9745 F12000.0
G1 X25.7693 Y-37.9436
G1 X26.2028 Y-38.8656
G1 X26.5987 Y-38.7865
G1 X26.5947 Y-38.4872
G1 X26.4954 Y-38.3516
G1 Z0.0000 F8000.0
G0 X30.0251 Y-33.5268 F15000.0
G1 Z11.9000 F8000.0
G1 X29.5003 Y-33.1497 F12000.0
G1 X29.2990 Y-33.1188
G1 X29.7325 Y-34.0422
G1 X30.1284 Y-33.9630
G1 X30.1244 Y-33.6637
G1 X30.0251 Y-33.5268
G1 Z0.0000 F8000.0
G0 X38.9606 Y-34.8166 F15000.0
G1 Z11.9000 F8000.0
G1 X53.5424 Y-34.8166 F12000.0
G1 Z0.0000 F8000.0
G0 X53.5383 Y-54.2392 F15000.0
G1 Z11.9000 F8000.0
G1 X53.5383 Y-15.4114 F12000.0
G1 Z0.0000 F8000.0
G0 X53.5424 Y-34.8166 F15000.0
G1 Z11.9000 F8000.0
G1 X63.2644 Y-34.8166 F12000.0
G1 Z0.0000 F8000.0
G0 X63.2644 Y-15.3765 F15000.0
G1 Z11.9000 F8000.0
G1 X63.2644 Y-54.3398 F12000.0
G1 Z0.0000 F8000.0
G0 X131.3938 Y-34.8166 F15000.0
G1 Z11.9000 F8000.0
G1 X145.9755 Y-34.8166 F12000.0
G1 Z0.0000 F8000.0
G0 X131.4301 Y-34.7669 F15000.0
G1 Z11.9000 F8000.0
G1 X179.9074 Y-34.7669 F12000.0
G1 Z0.0000 F8000.0
G0 X135.5489 Y-35.8258 F15000.0
G1 Z11.9000 F8000.0
G1 X137.6077 Y-38.8562 F12000.0
G1 X138.0787 Y-38.9368
G1 X138.2425 Y-38.7771
G1 X138.1297 Y-38.2456
G1 X137.1956 Y-35.8258
G1 Z0.0000 F8000.0
G0 X138.6075 Y-38.0027 F15000.0
G1 Z11.9000 F8000.0
G1 X137.9486 Y-35.9292 F12000.0
G1 X138.3807 Y-35.7359
G1 X138.9229 Y-35.8392
G1 X139.7255 Y-37.8846
G1 Z0.0000 F8000.0
G0 X139.6074 Y-35.8849 F15000.0
G1 Z11.9000 F8000.0
G1 X140.3509 Y-37.8658 F12000.0
G1 X140.7253 Y-37.9436
G1 X141.7842 Y-37.9436
G1 X142.1439 Y-37.7651
G1 X141.5494 Y-35.8849
G1 Z0.0000 F8000.0
G0 X140.5495 Y-35.8258 F15000.0
G1 Z11.9000 F8000.0
G1 X141.2554 Y-37.8846 F12000.0
G1 Z0.0000 F8000.0
G0 X145.9621 Y-39.6494 F15000.0
G1 Z11.9000 F8000.0
G1 X146.0037 Y-29.9623 F12000.0
G1 X146.5500 Y-29.8831
G1 X179.9074 Y-29.8831
G1 Z0.0000 F8000.0
G0 X145.9755 Y-29.9569 F15000.0
G1 Z11.9000 F8000.0
G1 X145.9755 Y-39.7595 F12000.0
G1 Z0.0000 F8000.0
G0 X145.9755 Y-34.8166 F15000.0
G1 Z11.9000 F8000.0
G1 X180.0000 Y-34.8166 F12000.0
G1 Z0.0000 F8000.0
G0 X148.9040 Y-35.8258 F15000.0
G1 Z11.9000 F8000.0
G1 X150.9627 Y-38.8562 F12000.0
G1 X151.4338 Y-38.9368
G1 X151.5962 Y-38.7771
G1 X151.4834 Y-38.2456
G1 X150.5507 Y-35.8258
G1 Z0.0000 F8000.0
G0 X151.9626 Y-38.0027 F15000.0
G1 Z11.9000 F8000.0
G1 X151.3036 Y-35.9292 F12000.0
G1 X151.7358 Y-35.7359
G1 X152.2780 Y-35.8392
G1 X153.0805 Y-37.8846
G1 Z0.0000 F8000.0
G0 X154.1394 Y-35.8258 F15000.0
G1 Z11.9000 F8000.0
G1 X153.0778 Y-35.8782 F12000.0
G1 X153.0631 Y-36.3009
G1 X153.6979 Y-37.7933
G1 X154.0374 Y-37.9530
G1 X154.7863 Y-37.9436
G1 Z0.0000 F8000.0
G0 X154.7273 Y-35.8849 F15000.0
G1 Z11.9000 F8000.0
G1 X155.4708 Y-37.8658 F12000.0
G1 X155.8452 Y-37.9436
G1 X156.9041 Y-37.9436
G1 X157.2638 Y-37.7651
G1 X156.6693 Y-35.8849
G1 Z0.0000 F8000.0
G0 X155.6694 Y-35.8258 F15000.0
G1 Z11.9000 F8000.0
G1 X156.3753 Y-37.8846 F12000.0
G1 Z0.0000 F8000.0
G0 X160.5519 Y-39.6494 F15000.0
G1 Z11.9000 F8000.0
G1 X160.5519 Y-29.9421 F12000.0
G1 X160.5586 Y-39.7595 F12000.0
G1 Z0.0000 F8000.0
G0 X164.0816 Y-35.8258 F15000.0
G1 Z11.9000 F8000.0
G1 X166.1403 Y-38.8562 F12000.0
G1 X166.6127 Y-38.9368
G1 X166.7751 Y-38.7771
G1 X166.6624 Y-38.2456
G1 X165.7296 Y-35.8258
G1 Z0.0000 F8000.0
G0 X167.2006 Y-38.0027 F15000.0
G1 Z11.9000 F8000.0
G1 X166.5403 Y-35.9292 F12000.0
G1 X166.9724 Y-35.7359
G1 X167.5160 Y-35.8392
G1 X168.3172 Y-37.8846
G1 Z0.0000 F8000.0
G0 X169.3761 Y-35.8258 F15000.0
G1 Z11.9000 F8000.0
G1 X168.3158 Y-35.8782 F12000.0
G1 X168.3011 Y-36.3009
G1 X168.9359 Y-37.7933
G1 X169.2741 Y-37.9530
G1 X170.0243 Y-37.9436
G1 Z0.0000 F8000.0
G0 X169.9653 Y-35.8849 F15000.0
G1 Z11.9000 F8000.0
G1 X170.7088 Y-37.8658 F12000.0
G1 X171.0832 Y-37.9436
G1 X172.1421 Y-37.9436
G1 X172.5018 Y-37.7651
G1 X171.9059 Y-35.8849
G1 Z0.0000 F8000.0
G0 X170.2592 Y-33.3551 F15000.0
G1 Z11.9000 F8000.0
G1 X171.0832 Y-33.8248 F12000.0
G1 Z0.0000 F8000.0
G0 X170.9061 Y-35.8258 F15000.0
G1 Z11.9000 F8000.0
G1 X171.6120 Y-37.8846 F12000.0
G1 Z0.0000 F8000.0
G0 X172.7809 Y-36.6942 F15000.0
G1 Z11.9000 F8000.0
G1 X173.3392 Y-37.8403 F12000.0
G1 X174.1029 Y-37.9275
G1 X174.3123 Y-37.7034
G1 X173.8278 Y-36.1775
G1 X173.4292 Y-35.8272
G1 X172.7179 Y-35.8339
G1 X172.6105 Y-36.1010
G1 X172.7809 Y-36.6942
G1 Z0.0000 F8000.0
G0 X175.5537 Y-38.0617 F15000.0
G1 Z11.9000 F8000.0
G1 X176.0784 Y-37.7021 F12000.0
G1 X175.4477 Y-35.9815
G1 X174.8142 Y-35.7547
G1 X174.3928 Y-35.9533
G1 X174.4465 Y-36.3908
G1 X175.0826 Y-37.9436
G1 Z0.0000 F8000.0
G0 X175.8100 Y-38.3516 F15000.0
G1 Z11.9000 F8000.0
G1 X175.2839 Y-37.9745 F12000.0
G1 X175.0826 Y-37.9436
G1 X175.5161 Y-38.8656
G1 X175.9120 Y-38.7865
G1 X175.9080 Y-38.4872
G1 X175.8100 Y-38.3516
G1 Z0.0000 F8000.0
G0 X0.0000 Y-29.9569 F15000.0
G1 Z11.9000 F8000.0
G1 X16.5532 Y-29.9569 F12000.0
G1 Z0.0000 F8000.0
G0 X0.1194 Y-29.8831 F15000.0
G1 Z11.9000 F8000.0
G1 X2.6171 Y-29.9381 F12000.0
G1 X9.3382 Y-29.8469
G1 X18.6616 Y-29.8670
G1 X20.2426 Y-30.0200
G1 X20.5795 Y-30.4736
G1 X20.7097 Y-30.9420
G1 X19.7877 Y-31.0306
G1 X19.7877 Y-31.5902
G1 X20.4157 Y-33.1779
G1 Z0.0000 F8000.0
G0 X0.9421 Y-31.0601 F15000.0
G1 Z11.9000 F8000.0
G1 X2.0789 Y-34.0409 F12000.0
G1 X3.2894 Y-34.0999
G1 X3.4062 Y-33.8838
G1 X2.3540 Y-31.0010
G1 Z0.0000 F8000.0
G0 X3.0599 Y-31.0010 F15000.0
G1 Z11.9000 F8000.0
G1 X3.3002 Y-31.9351 F12000.0
G1 X3.8759 Y-33.1108
G1 X4.7926 Y-32.9632
G1 X4.6168 Y-32.0573
G1 X4.1175 Y-31.0896
G1 X2.9405 Y-30.8387
G1 X2.6479 Y-30.0012
G1 Z0.0000 F8000.0
G0 X5.1120 Y-31.8707 F15000.0
G1 Z11.9000 F8000.0
G1 X5.6703 Y-33.0155 F12000.0
G1 X6.4339 Y-33.1027
G1 X6.6433 Y-32.8800
G1 X6.1588 Y-31.3527
G1 X5.7589 Y-31.0037
G1 X5.0489 Y-31.0104
G1 X4.9415 Y-31.2775
G1 X5.1120 Y-31.8707
G1 Z0.0000 F8000.0
G0 X7.9438 Y-33.2370 F15000.0
G1 Z11.9000 F8000.0
G1 X8.4685 Y-32.8773 F12000.0
G1 X7.8378 Y-31.1567
G1 X7.2043 Y-30.9299
G1 X6.7829 Y-31.1285
G1 X6.8352 Y-31.5661
G1 X7.4727 Y-33.1188
G1 Z0.0000 F8000.0
G0 X16.5532 Y-29.9569 F15000.0
G1 Z11.9000 F8000.0
G1 X38.9606 Y-29.9569 F12000.0
G1 Z0.0000 F8000.0
G0 X17.4739 Y-31.0601 F15000.0
G1 Z11.9000 F8000.0
G1 X18.6093 Y-34.0409 F12000.0
G1 X19.8212 Y-34.0999
G1 X19.9380 Y-33.8838
G1 X18.8858 Y-31.0010
G1 Z0.0000 F8000.0
G0 X20.2976 Y-30.0012 F15000.0
G1 Z11.9000 F8000.0
G1 X21.2975 Y-29.8831 F12000.0
G1 X63.2443 Y-29.8831
G1 Z0.0000 F8000.0
G0 X20.7097 Y-30.9420 F15000.0
G1 Z11.9000 F8000.0
G1 X21.5337 Y-33.0598 F12000.0
G1 Z0.0000 F8000.0
G0 X21.4156 Y-31.1782 F15000.0
G1 Z11.9000 F8000.0
G1 X21.6075 Y-30.9903 F12000.0
G1 X22.1618 Y-31.0037
G1 X22.5564 Y-31.3513
G1 X22.7885 Y-32.2022
G1 X23.0596 Y-32.7820
G1 X22.9469 Y-33.0759
G1 X22.4624 Y-33.0813
G1 X22.1806 Y-32.9430
G1 Z0.0000 F8000.0
G0 X22.1806 Y-32.0599 F15000.0
G1 Z11.9000 F8000.0
G1 X22.6517 Y-32.0009 F12000.0
G1 Z0.0000 F8000.0
G0 X24.5440 Y-31.7969 F15000.0
G1 Z11.9000 F8000.0
G1 X24.1789 Y-31.0668 F12000.0
G1 X23.3375 Y-30.9796
G1 X23.1791 Y-31.2453
G1 X23.6569 Y-32.7028
G1 X24.0313 Y-33.0893
G1 X24.9225 Y-33.0034
G1 X24.5440 Y-31.7969
G1 Z0.0000 F8000.0
G0 X25.2392 Y-32.0009 F15000.0
G1 Z11.9000 F8000.0
G1 X24.8862 Y-31.0601 F12000.0
G1 Z0.0000 F8000.0
G0 X25.7103 Y-33.1779 F15000.0
G1 Z11.9000 F8000.0
G1 X25.2982 Y-32.0599 F12000.0
G1 X26.4095 Y-32.0935
G1 X26.8282 Y-33.0598
G1 Z0.0000 F8000.0
G0 X26.3571 Y-32.0009 F15000.0
G1 Z11.9000 F8000.0
G1 X26.0632 Y-31.0010 F12000.0
G1 Z0.0000 F8000.0
G0 X26.9973 Y-31.8707 F15000.0
G1 Z11.9000 F8000.0
G1 X27.5556 Y-33.0155 F12000.0
G1 X28.3179 Y-33.1027
G1 X28.5286 Y-32.8800
G1 X28.0441 Y-31.3527
G1 X27.6442 Y-31.0037
G1 X26.9342 Y-31.0104
G1 X26.8269 Y-31.2775
G1 X26.9973 Y-31.8707
G1 Z0.0000 F8000.0
G0 X29.7701 Y-33.2370 F15000.0
G1 Z11.9000 F8000.0
G1 X30.2948 Y-32.8773 F12000.0
G1 X29.6640 Y-31.1567
G1 X29.0306 Y-30.9299
G1 X28.6092 Y-31.1285
G1 X28.6615 Y-31.5661
G1 X29.2990 Y-33.1188
G1 Z0.0000 F8000.0
G0 X31.7805 Y-31.7969 F15000.0
G1 Z11.9000 F8000.0
G1 X31.4154 Y-31.0668 F12000.0
G1 X30.5740 Y-30.9796
G1 X30.4156 Y-31.2453
G1 X30.8934 Y-32.7028
G1 X31.2678 Y-33.0893
G1 X32.1590 Y-33.0034
G1 X31.7805 Y-31.7969
G1 Z0.0000 F8000.0
G0 X38.9606 Y-29.9569 F15000.0
G1 Z11.9000 F8000.0
G1 X53.5424 Y-29.9569 F12000.0
G1 Z0.0000 F8000.0
G0 X38.9606 Y-29.9569 F15000.0
G1 Z11.9000 F8000.0
G1 X63.2644 Y-29.9569 F12000.0
G1 Z0.0000 F8000.0
G0 X53.5424 Y-29.9569 F15000.0
G1 Z11.9000 F8000.0
G1 X63.2644 Y-29.9569 F12000.0
G1 Z0.0000 F8000.0
G0 X120.7229 Y-29.7663 F15000.0
G1 Z11.9000 F8000.0
G1 X121.1940 Y-29.7663 F12000.0
G1 Z0.0000 F8000.0
G0 X131.3938 Y-29.9569 F15000.0
G1 Z11.9000 F8000.0
G1 X136.1730 Y-29.9569 F12000.0
G1 Z0.0000 F8000.0
G0 X131.4301 Y-29.8831 F15000.0
G1 Z11.9000 F8000.0
G1 X136.0777 Y-29.8831 F12000.0
G1 Z0.0000 F8000.0
G0 X136.1730 Y-29.9569 F15000.0
G1 Z11.9000 F8000.0
G1 X136.1730 Y-34.8166 F12000.0
G1 Z0.0000 F8000.0
G0 X136.1730 Y-29.9569 F15000.0
G1 Z11.9000 F8000.0
G1 X141.1159 Y-29.9569 F12000.0
G1 Z0.0000 F8000.0
G0 X136.1958 Y-34.7079 F15000.0
G1 Z11.9000 F8000.0
G1 X136.1810 Y-29.9623 F12000.0
G1 X136.7836 Y-29.8831
G1 X145.9031 Y-29.8831
G1 Z0.0000 F8000.0
G0 X141.1373 Y-34.7079 F15000.0
G1 Z11.9000 F8000.0
G1 X141.0783 Y-29.9421 F12000.0
G1 X141.1159 Y-34.8166 F12000.0
G1 Z0.0000 F8000.0
G0 X141.1159 Y-29.9569 F15000.0
G1 Z11.9000 F8000.0
G1 X145.9755 Y-29.9569 F12000.0
G1 Z0.0000 F8000.0
G0 X141.1159 Y-29.9569 F15000.0
G1 Z11.9000 F8000.0
G1 X160.5586 Y-29.9569 F12000.0
G1 Z0.0000 F8000.0
G0 X145.9755 Y-29.9569 F15000.0
G1 Z11.9000 F8000.0
G1 X180.0000 Y-29.9569 F12000.0
G1 Z0.0000 F8000.0
G0 X160.5586 Y-29.9569 F15000.0
G1 Z11.9000 F8000.0
G1 X180.0000 Y-29.9569 F12000.0
G1 Z0.0000 F8000.0
G0 X170.1411 Y-31.0010 F15000.0
G1 Z11.9000 F8000.0
G1 X171.2000 Y-33.9429 F12000.0
G1 Z0.0000 F8000.0
G0 X0.0000 Y-25.0959 F15000.0
G1 Z11.9000 F8000.0
G1 X63.2644 Y-25.0959 F12000.0
G1 Z0.0000 F8000.0
G0 X67.0692 Y-23.4706 F15000.0
G1 Z11.9000 F8000.0
G1 X66.1123 Y-23.5444 F12000.0
G1 X65.7647 Y-23.7860
G1 X65.5634 Y-24.2329
G1 X65.5312 Y-24.9590
G1 X67.1497 Y-31.5741
G1 X67.7966 Y-32.3203
G1 X68.5737 Y-32.5230
G1 X69.1870 Y-32.5310
G1 Z0.0000 F8000.0
G0 X70.6579 Y-29.7435 F15000.0
G1 Z11.9000 F8000.0
G1 X69.6997 Y-29.0993 F12000.0
G1 X70.2164 Y-29.6455
G1 X70.6579 Y-29.7435
G1 X71.3021 Y-29.7247
G1 X71.6913 Y-29.4040
G1 X71.7692 Y-28.8054
G1 X70.5304 Y-23.9497
G1 X69.7802 Y-23.4840
G1 X68.8152 Y-23.5847
G1 X68.5589 Y-24.0195
G1 X68.6139 Y-24.6691
G1 Z0.0000 F8000.0
G0 X72.4228 Y-26.7064 F15000.0
G1 Z11.9000 F8000.0
G1 X73.0052 Y-29.2134 F12000.0
G1 X73.4494 Y-29.6455
G1 X74.1715 Y-29.7891
G1 X74.7687 Y-29.5784
G1 X74.9741 Y-29.2751
G1 X74.9714 Y-28.6980
G1 X74.4976 Y-26.8205
G1 X74.0722 Y-26.6165
G1 X72.5650 Y-26.6272
G1 X72.3060 Y-26.4447
G1 X71.8228 Y-23.9404
G1 X72.1610 Y-23.5256
G1 X72.8052 Y-23.4384
G1 X73.4817 Y-23.4706
G1 Z0.0000 F8000.0
G0 X77.1294 Y-32.5310 F15000.0
G1 Z11.9000 F8000.0
G1 X78.5923 Y-32.4357 F12000.0
G1 X78.8849 Y-31.9257
G1 X78.8513 Y-31.4627
G1 X78.3467 Y-29.6388
G1 X78.3212 Y-29.1651
G1 X77.1845 Y-24.3094
G1 X76.5174 Y-23.5605
G1 X75.3861 Y-23.5404
G1 X75.0828 Y-23.8732
G1 X75.1150 Y-24.7630
G1 X76.1698 Y-29.0926
G1 X76.6168 Y-29.6106
G1 X77.6341 Y-29.7878
G1 X78.3051 Y-29.7663
G1 Z0.0000 F8000.0
G0 X79.4821 Y-29.7663 F15000.0
G1 Z11.9000 F8000.0
G1 X78.2071 Y-24.2141 F12000.0
G1 X78.3776 Y-23.6478
G1 X79.0339 Y-23.4639
G1 X80.1223 Y-23.5592
G1 X80.2753 Y-23.8370
G1 X81.6590 Y-29.7663
G1 Z0.0000 F8000.0
G0 X81.1879 Y-23.3539 F15000.0
G1 Z11.9000 F8000.0
G1 X81.8885 Y-26.2944 F12000.0
G1 X82.0643 Y-26.6473
G1 X82.1421 Y-27.4123
G1 X82.7179 Y-29.7663
G1 Z0.0000 F8000.0
G0 X82.1300 Y-26.6473 F15000.0
G1 Z11.9000 F8000.0
G1 X84.0116 Y-26.6473 F12000.0
G1 Z0.0000 F8000.0
G0 X83.3647 Y-23.3539 F15000.0
G1 Z11.9000 F8000.0
G1 X83.9888 Y-25.9414 F12000.0
G1 X84.0667 Y-26.6473
G1 X84.8947 Y-29.7663
G1 Z0.0000 F8000.0
G0 X85.3067 Y-26.7064 F15000.0
G1 Z11.9000 F8000.0
G1 X85.8905 Y-29.2134 F12000.0
G1 X86.3334 Y-29.6455
G1 X87.0555 Y-29.7891
G1 X87.6540 Y-29.5784
G1 X87.8580 Y-29.2751
G1 X87.8554 Y-28.6980
G1 X87.3816 Y-26.8205
G1 X86.9562 Y-26.6165
G1 X85.4490 Y-26.6272
G1 X85.1900 Y-26.4447
G1 X84.7068 Y-23.9404
G1 X85.0450 Y-23.5256
G1 X85.6892 Y-23.4384
G1 X86.3656 Y-23.4706
G1 Z0.0000 F8000.0
G0 X87.6017 Y-23.3539 F15000.0
G1 Z11.9000 F8000.0
G1 X88.3009 Y-26.2944 F12000.0
G1 X88.4767 Y-26.6473
G1 X88.5559 Y-27.4123
G1 X89.1303 Y-29.7663
G1 Z0.0000 F8000.0
G0 X88.5425 Y-26.6473 F15000.0
G1 Z11.9000 F8000.0
G1 X90.4254 Y-26.6473 F12000.0
G1 Z0.0000 F8000.0
G0 X89.7772 Y-23.3539 F15000.0
G1 Z11.9000 F8000.0
G1 X90.4013 Y-25.9414 F12000.0
G1 X90.4791 Y-26.6473
G1 X91.3072 Y-29.7663
G1 Z0.0000 F8000.0
G0 X92.3661 Y-29.7663 F15000.0
G1 Z11.9000 F8000.0
G1 X91.0911 Y-24.2141 F12000.0
G1 X91.2616 Y-23.6478
G1 X91.9178 Y-23.4639
G1 X93.0076 Y-23.5592
G1 X93.1593 Y-23.8370
G1 X94.5429 Y-29.7663
G1 Z0.0000 F8000.0
G0 X94.9550 Y-26.7064 F15000.0
G1 Z11.9000 F8000.0
G1 X95.5388 Y-29.2134 F12000.0
G1 X95.9817 Y-29.6455
G1 X96.7037 Y-29.7891
G1 X97.3023 Y-29.5784
G1 X97.5063 Y-29.2751
G1 X97.5036 Y-28.6980
G1 X97.0298 Y-26.8205
G1 X96.6044 Y-26.6165
G1 X95.0972 Y-26.6272
G1 X94.8382 Y-26.4447
G1 X94.3551 Y-23.9404
G1 X94.6933 Y-23.5256
G1 X95.3375 Y-23.4384
G1 X96.0139 Y-23.4706
G1 Z0.0000 F8000.0
G0 X101.0735 Y-29.1463 F15000.0
G1 Z11.9000 F8000.0
G1 X101.2748 Y-29.6335 F12000.0
G1 X101.9002 Y-29.8052
G1 X102.8706 Y-29.6536
G1 X103.1443 Y-29.3208
G1 X103.1645 Y-28.7504
G1 X101.9593 Y-23.9981
G1 X101.5151 Y-23.5793
G1 X100.8990 Y-23.4585
G1 X99.9032 Y-23.5753
G1 X99.9274 Y-24.0799
G1 X101.0735 Y-29.1463
G1 Z0.0000 F8000.0
G0 X103.7792 Y-26.7064 F15000.0
G1 Z11.9000 F8000.0
G1 X104.3630 Y-29.2134 F12000.0
G1 X104.8072 Y-29.6455
G1 X105.5292 Y-29.7891
G1 X106.1265 Y-29.5784
G1 X106.3318 Y-29.2751
G1 X106.3291 Y-28.6980
G1 X105.8540 Y-26.8205
G1 X105.4286 Y-26.6165
G1 X103.9214 Y-26.6272
G1 X103.6637 Y-26.4447
G1 X103.1792 Y-23.9404
G1 X103.5174 Y-23.5256
G1 X104.1630 Y-23.4384
G1 X104.8381 Y-23.4706
G1 Z0.0000 F8000.0
G0 X106.3680 Y-24.1175 F15000.0
G1 Z11.9000 F8000.0
G1 X106.4727 Y-23.7592 F12000.0
G1 X106.7384 Y-23.5297
G1 X107.4014 Y-23.4840
G1 X107.9316 Y-23.7404
G1 X108.3516 Y-24.4020
G1 X108.6630 Y-25.8823
G1 X108.5060 Y-26.7024
G1 X109.0401 Y-27.4486
G1 X109.3421 Y-28.5772
G1 X109.2387 Y-29.4509
G1 X108.8079 Y-29.7328
G1 X108.0309 Y-29.5261
G1 X107.6041 Y-28.9423
G1 Z0.0000 F8000.0
G0 X108.0161 Y-26.6473 F15000.0
G1 Z11.9000 F8000.0
G1 X108.4268 Y-26.6473 F12000.0
G1 Z0.0000 F8000.0
G0 X110.3097 Y-26.6473 F15000.0
G1 Z11.9000 F8000.0
G1 X111.8370 Y-26.5386 F12000.0
G1 X112.1229 Y-26.0488
G1 X111.7162 Y-24.1792
G1 X111.2814 Y-23.6478
G1 X110.8305 Y-23.4814
G1 X109.5729 Y-23.5726
G1 X109.6508 Y-24.5470
G1 X110.0789 Y-26.3239
G1 X110.2882 Y-26.8956
G1 X110.3688 Y-27.6660
G1 X110.8976 Y-29.7663
G1 Z0.0000 F8000.0
G0 X115.6633 Y-29.7663 F15000.0
G1 Z11.9000 F8000.0
G1 X115.9465 Y-29.3020 F12000.0
G1 X115.9706 Y-28.7718
G1 X114.9372 Y-24.2705
G1 X114.6782 Y-23.8504
G1 X114.2635 Y-23.5659
G1 X113.1925 Y-23.5082
G1 X112.8691 Y-23.8464
G1 X112.8557 Y-24.4852
G1 X113.9011 Y-28.9987
G1 X114.3105 Y-29.5623
G1 X114.9144 Y-29.7583
G1 X115.6633 Y-29.7663
G1 X114.9936 Y-31.7070
G1 X114.8822 Y-32.4532
G1 X115.3103 Y-32.5310
G1 X116.6054 Y-32.5310
G1 Z0.0000 F8000.0
G0 X118.1341 Y-29.7435 F15000.0
G1 Z11.9000 F8000.0
G1 X117.1758 Y-29.0993 F12000.0
G1 X117.6925 Y-29.6455
G1 X118.1341 Y-29.7435
G1 X118.7783 Y-29.7247
G1 X119.1675 Y-29.4040
G1 X119.2453 Y-28.8054
G1 X118.0079 Y-23.9497
G1 X117.2577 Y-23.4840
G1 X116.2927 Y-23.5847
G1 X116.0364 Y-24.0195
G1 X116.0901 Y-24.6691
G1 Z0.0000 F8000.0
G0 X120.4572 Y-29.2080 F15000.0
G1 Z11.9000 F8000.0
G1 X120.6693 Y-29.8294 F12000.0
G1 X120.7659 Y-31.0373
G1 X121.1269 Y-32.0398
G1 X121.7402 Y-32.4840
G1 X122.1241 Y-32.3270
G1 X122.2395 Y-31.6385
G1 X121.9053 Y-30.8816
G1 X121.2531 Y-29.8240
G1 X122.1912 Y-29.6603
G1 X122.4931 Y-28.9946
G1 X121.3443 Y-24.1296
G1 X120.9739 Y-23.6948
G1 X120.1687 Y-23.4492
G1 X119.5365 Y-23.5793
G1 X119.3097 Y-23.9457
G1 X119.4171 Y-25.0046
G1 X120.4572 Y-29.2080
G1 Z0.0000 F8000.0
G0 X124.5465 Y-29.7435 F15000.0
G1 Z11.9000 F8000.0
G1 X123.5883 Y-29.0993 F12000.0
G1 X124.1050 Y-29.6455
G1 X124.5465 Y-29.7435
G1 X125.1907 Y-29.7247
G1 X125.5813 Y-29.4040
G1 X125.6578 Y-28.8054
G1 X124.4204 Y-23.9497
G1 X123.6701 Y-23.4840
G1 X122.7052 Y-23.5847
G1 X122.4489 Y-24.0195
G1 X122.5025 Y-24.6691
G1 Z0.0000 F8000.0
G0 X126.3127 Y-26.7064 F15000.0
G1 Z11.9000 F8000.0
G1 X126.8952 Y-29.2134 F12000.0
G1 X127.3394 Y-29.6455
G1 X128.0614 Y-29.7891
G1 X128.6587 Y-29.5784
G1 X128.8640 Y-29.2751
G1 X128.8613 Y-28.6980
G1 X128.3862 Y-26.8205
G1 X127.9608 Y-26.6165
G1 X126.4536 Y-26.6272
G1 X126.1959 Y-26.4447
G1 X125.7128 Y-23.9404
G1 X126.0497 Y-23.5256
G1 X126.6952 Y-23.4384
G1 X127.3716 Y-23.4706
G1 Z0.0000 F8000.0
G0 X131.3710 Y-39.6494 F15000.0
G1 Z11.9000 F8000.0
G1 X131.3710 Y-15.4114 F12000.0
G1 X131.3938 Y-39.7595 F12000.0
G1 Z0.0000 F8000.0
G0 X157.0813 Y-22.7056 F15000.0
G1 Z11.9000 F8000.0
G1 X158.4341 Y-26.1186 F12000.0
G1 Z0.0000 F8000.0
G0 X0.0000 Y-20.2362 F15000.0
G1 Z11.9000 F8000.0
G1 X63.2644 Y-20.2362 F12000.0
G1 Z0.0000 F8000.0
G0 X0.1194 Y-20.1758 F15000.0
G1 Z11.9000 F8000.0
G1 X10.1206 Y-20.1758 F12000.0
G1 X11.1205 Y-20.2939
G1 Z0.0000 F8000.0
G0 X0.9421 Y-21.2938 F15000.0
G1 Z11.9000 F8000.0
G1 X1.5313 Y-22.8828 F12000.0
G1 Z0.0000 F8000.0
G0 X2.1191 Y-24.3537 F15000.0
G1 Z11.9000 F8000.0
G1 X1.6145 Y-23.0063 F12000.0
G1 X1.8843 Y-22.8828
G1 X2.9284 Y-22.9150
G1 X3.4720 Y-24.2947
G1 Z0.0000 F8000.0
G0 X2.8841 Y-22.8237 F15000.0
G1 Z11.9000 F8000.0
G1 X2.3540 Y-21.2347 F12000.0
G1 Z0.0000 F8000.0
G0 X3.9430 Y-22.1769 F15000.0
G1 Z11.9000 F8000.0
G1 X3.5901 Y-21.2938 F12000.0
G1 Z0.0000 F8000.0
G0 X4.3551 Y-23.3539 F15000.0
G1 Z11.9000 F8000.0
G1 X4.0611 Y-22.2359 F12000.0
G1 X5.5898 Y-23.4116
G1 Z0.0000 F8000.0
G0 X4.4718 Y-22.3527 F15000.0
G1 Z11.9000 F8000.0
G1 X4.7671 Y-21.2938 F12000.0
G1 Z0.0000 F8000.0
G0 X5.6408 Y-22.1044 F15000.0
G1 Z11.9000 F8000.0
G1 X6.1991 Y-23.2492 F12000.0
G1 X6.9627 Y-23.3378
G1 X7.1721 Y-23.1136
G1 X6.6876 Y-21.5863
G1 X6.2890 Y-21.2374
G1 X5.5777 Y-21.2441
G1 X5.4717 Y-21.5112
G1 X5.6408 Y-22.1044
G1 Z0.0000 F8000.0
G0 X7.5318 Y-22.2359 F15000.0
G1 Z11.9000 F8000.0
G1 X7.1788 Y-21.2938 F12000.0
G1 Z0.0000 F8000.0
G0 X8.0028 Y-23.4116 F15000.0
G1 Z11.9000 F8000.0
G1 X7.5908 Y-22.2950 F12000.0
G1 X8.7021 Y-22.3272
G1 X9.1194 Y-23.2948
G1 Z0.0000 F8000.0
G0 X8.6497 Y-22.2359 F15000.0
G1 Z11.9000 F8000.0
G1 X8.3558 Y-21.2347 F12000.0
G1 Z0.0000 F8000.0
G0 X9.0027 Y-21.2938 F15000.0
G1 Z11.9000 F8000.0
G1 X9.7462 Y-23.2747 F12000.0
G1 X10.1206 Y-23.3539
G1 X11.1795 Y-23.3539
G1 X11.5392 Y-23.1754
G1 X10.9433 Y-21.2938
G1 Z0.0000 F8000.0
G0 X9.9435 Y-21.2347 F15000.0
G1 Z11.9000 F8000.0
G1 X10.6494 Y-23.2948 F12000.0
G1 Z0.0000 F8000.0
G0 X11.5325 Y-21.2347 F15000.0
G1 Z11.9000 F8000.0
G1 X11.7714 Y-22.1688 F12000.0
G1 X12.2317 Y-23.2881
G1 X13.0303 Y-23.3579
G1 X13.2598 Y-23.2183
G1 X13.2638 Y-22.9137
G1 X12.6974 Y-21.4374
G1 X12.2572 Y-21.2173
G1 X11.4560 Y-21.1166
G1 X11.2131 Y-20.2510
G1 X11.6372 Y-20.1423
G1 X63.2443 Y-20.1758
G1 Z0.0000 F8000.0
G0 X16.5532 Y-15.3765 F15000.0
G1 Z11.9000 F8000.0
G1 X16.5532 Y-29.9569 F12000.0
G1 Z0.0000 F8000.0
G0 X16.5922 Y-15.4114 F15000.0
G1 Z11.9000 F8000.0
G1 X16.5922 Y-24.3537 F12000.0
G1 X16.6700 Y-24.9576
G1 X63.2443 Y-25.0006
G1 Z0.0000 F8000.0
G0 X38.9606 Y-15.3765 F15000.0
G1 Z11.9000 F8000.0
G1 X38.9606 Y-29.9569 F12000.0
G1 Z0.0000 F8000.0
G0 X53.5424 Y-15.3765 F15000.0
G1 Z11.9000 F8000.0
G1 X53.5424 Y-29.9569 F12000.0
G1 Z0.0000 F8000.0
G0 X99.0725 Y-20.5878 F15000.0
G1 Z11.9000 F8000.0
G1 X99.5798 Y-22.5889 F12000.0
G1 X99.8965 Y-23.4706
G1 Z0.0000 F8000.0
G0 X145.4320 Y-19.8228 F15000.0
G1 Z11.9000 F8000.0
G1 X147.8035 Y-26.0756 F12000.0
G1 X149.8448 Y-26.1186
G1 X150.6098 Y-26.0595
G1 X148.3738 Y-19.8228
G1 Z0.0000 F8000.0
G0 X149.5509 Y-19.8228 F15000.0
G1 Z11.9000 F8000.0
G1 X151.9223 Y-26.0756 F12000.0
G1 X154.3152 Y-26.1776
G1 Z0.0000 F8000.0
G0 X153.6684 Y-19.7651 F15000.0
G1 Z11.9000 F8000.0
G1 X155.4144 Y-19.8846 F12000.0
G1 X156.1069 Y-20.3449
G1 X156.7632 Y-21.5595
G1 X157.0813 Y-22.7056
G1 X155.3674 Y-22.7217
G1 X154.6534 Y-23.2626
G1 X154.6897 Y-23.8773
G1 X155.4922 Y-26.1186
G1 Z0.0000 F8000.0
G0 X157.3161 Y-19.8228 F15000.0
G1 Z11.9000 F8000.0
G1 X159.6876 Y-26.0756 F12000.0
G1 X161.7289 Y-26.1186
G1 X162.4939 Y-26.0595
G1 X160.2580 Y-19.8228
G1 Z0.0000 F8000.0
G0 X163.8467 Y-19.8228 F15000.0
G1 Z11.9000 F8000.0
G1 X162.7462 Y-19.7638 F12000.0
G1 X162.0389 Y-20.0819
G1 X161.8430 Y-20.6214
G1 X161.9409 Y-21.1099
G1 X163.6145 Y-25.4126
G1 X164.5218 Y-26.0018
G1 X166.1994 Y-26.1776
G1 Z0.0000 F8000.0
G0 X0.0000 Y-15.3765 F15000.0
G1 Z11.9000 F8000.0
G1 X180.0000 Y-15.3765 F12000.0
G1 Z0.0000 F8000.0
G0 X1.2361 Y-16.3522 F15000.0
G1 Z11.9000 F8000.0
G1 X2.1473 Y-16.5012 F12000.0
G1 X2.5110 Y-16.8488
G1 X2.7620 Y-17.4245
G1 X2.8251 Y-17.7641
G1 Z0.0000 F8000.0
G0 X2.1191 Y-19.5289 F15000.0
G1 Z11.9000 F8000.0
G1 X1.6534 Y-18.3533 F12000.0
G1 X1.7729 Y-17.9117
G1 X2.8251 Y-17.7641
G1 X3.4720 Y-19.4699
G1 Z0.0000 F8000.0
G0 X3.0009 Y-16.4703 F15000.0
G1 Z11.9000 F8000.0
G1 X3.7457 Y-18.4512 F12000.0
G1 X4.1188 Y-18.5291
G1 X5.1778 Y-18.5291
G1 X5.5374 Y-18.3506
G1 X4.9429 Y-16.4703
G1 Z0.0000 F8000.0
G0 X3.9430 Y-16.4113 F15000.0
G1 Z11.9000 F8000.0
G1 X4.6490 Y-18.4700 F12000.0
G1 Z0.0000 F8000.0
G0 X6.8258 Y-18.6472 F15000.0
G1 Z11.9000 F8000.0
G1 X7.3506 Y-18.2875 F12000.0
G1 X6.7198 Y-16.5670
G1 X6.0863 Y-16.3401
G1 X5.6649 Y-16.5388
G1 X5.7173 Y-16.9763
G1 X6.3548 Y-18.5291
G1 Z0.0000 F8000.0
G0 X7.0808 Y-18.9371 F15000.0
G1 Z11.9000 F8000.0
G1 X6.5561 Y-18.5599 F12000.0
G1 X6.3548 Y-18.5291
G1 X6.7882 Y-19.4511
G1 X7.1842 Y-19.3732
G1 X7.1801 Y-19.0740
G1 X7.0808 Y-18.9371
G1 Z0.0000 F8000.0

G0 Z0.0000 F800.0
G4 P0.06
G0 X0.0000 Y0.0000 F15000.0
M5
G4 P0.10
$1=0
