$X
$1=255
G21
G90
G92 Z4.0000
G0 Z0.0000 F800.0
G4 P0.06
G92 Z0.0000
G0 Z0.0000 F800.0
G0 X0.0000 Y0.0000 F15000.0
G21
G90
G17
G91.1
G0 Z0.0000
G0 X0.0000 Y-5.0000 F15000.0
G1 Z11.9000 F8000.0
G1 X180.0000 Y-5.0000 F12000.0
G1 X180.0000 Y-285.0000
G1 X0.0000 Y-285.0000
G1 X0.0000 Y-5.0000
G1 Z0.0000 F8000.0
G0 X131.7254 Y-112.3776 F15000.0
G1 Z11.9000 F8000.0
G1 X131.6430 Y-110.4828 F12000.0
G1 X131.2311 Y-108.1762 F12000.0
G1 X130.4897 Y-105.8696 F12000.0
G1 X129.4188 Y-103.6453 F12000.0
G1 X128.0183 Y-101.4211 F12000.0
G1 X126.2059 Y-99.3616 F12000.0
G1 X124.3112 Y-97.4668 F12000.0
G1 X122.1693 Y-95.7369 F12000.0
G1 X119.5332 Y-93.9245 F12000.0
G1 X116.4851 Y-92.2769 F12000.0
G1 X115.6613 Y-91.8650 F12000.0
G1 X115.2494 Y-91.7826 F12000.0
G1 X114.5080 Y-91.8650 F12000.0
G1 X113.6018 Y-92.3593 F12000.0
G1 X91.1945 Y-108.5057 F12000.0
G1 X63.4325 Y-95.4897 F12000.0
G1 X62.3616 Y-95.1602 F12000.0
G1 X61.4554 Y-95.1602 F12000.0
G1 X60.6316 Y-95.4073 F12000.0
G1 Z0.0000 F8000.0
G0 X60.6316 Y-95.4897 F15000.0
G1 Z11.9000 F8000.0
G1 X60.2197 Y-95.8192 F12000.0
G1 X58.0778 Y-97.5492 F12000.0
G1 X56.1831 Y-99.4439 F12000.0
G1 X54.4531 Y-101.5034 F12000.0
G1 X53.0526 Y-103.7277 F12000.0
G1 X51.9817 Y-105.9520 F12000.0
G1 X51.2403 Y-108.2586 F12000.0
G1 X50.7460 Y-110.5652 F12000.0
G1 X50.6636 Y-112.4600 F12000.0
G1 X50.6636 Y-123.8284 F12000.0
G1 Z0.0000 F8000.0
G0 X51.8993 Y-123.0046 F15000.0
G1 Z11.9000 F8000.0
G1 X65.9863 Y-108.9176 F12000.0
G1 Z0.0000 F8000.0
G0 X65.9863 Y-107.1877 F15000.0
G1 Z11.9000 F8000.0
G1 X65.9863 Y-130.9954 F12000.0
G1 Z0.0000 F8000.0
G0 X65.9863 Y-131.0778 F15000.0
G1 Z11.9000 F8000.0
G1 X66.2334 Y-132.3135 F12000.0
G1 X66.8101 Y-133.7140 F12000.0
G1 X67.6339 Y-135.0320 F12000.0
G1 X68.7048 Y-136.0206 F12000.0
G1 X69.7758 Y-136.6796 F12000.0
G1 X75.4600 Y-139.3158 F12000.0
G1 X75.4600 Y-144.0114 F12000.0
G1 X72.9886 Y-145.4119 F12000.0
G1 X70.7643 Y-144.4233 F12000.0
G1 X70.7643 Y-143.4348 F12000.0
G1 Z0.0000 F8000.0
G0 X70.7643 Y-143.1876 F15000.0
G1 Z11.9000 F8000.0
G1 X70.4348 Y-142.2815 F12000.0
G1 X69.8581 Y-141.4577 F12000.0
G1 X69.1991 Y-141.0458 F12000.0
G1 X67.6339 Y-140.3043 F12000.0
G1 X70.7643 Y-137.1739 F12000.0
G1 Z0.0000 F8000.0
G0 X68.2105 Y-135.6087 F15000.0
G1 Z11.9000 F8000.0
G1 X53.6293 Y-150.1899 F12000.0
G1 Z0.0000 F8000.0
G0 X56.4302 Y-151.5080 F15000.0
G1 Z11.9000 F8000.0
G1 X65.9863 Y-141.9519 F12000.0
G1 Z0.0000 F8000.0
G0 X65.9863 Y-141.2105 F15000.0
G1 Z11.9000 F8000.0
G1 X66.0687 Y-155.3799 F12000.0
G1 Z0.0000 F8000.0
G0 X65.7391 Y-155.8741 F15000.0
G1 Z11.9000 F8000.0
G1 X64.5034 Y-156.9451 F12000.0
G1 X63.4325 Y-158.4279 F12000.0
G1 X62.3616 Y-160.4050 F12000.0
G1 X61.5378 Y-162.7940 F12000.0
G1 X60.7963 Y-165.8421 F12000.0
G1 X60.3844 Y-168.6430 F12000.0
G1 X60.1373 Y-171.2792 F12000.0
G1 X60.1373 Y-173.0091 F12000.0
G1 Z0.0000 F8000.0
G0 X59.8078 Y-172.9268 F15000.0
G1 Z11.9000 F8000.0
G1 X56.6774 Y-176.0572 F12000.0
G1 Z0.0000 F8000.0
G0 X56.5950 Y-175.9748 F15000.0
G1 Z11.9000 F8000.0
G1 X21.9131 Y-159.7460 F12000.0
G1 X21.9131 Y-155.1327 F12000.0
G1 X65.4096 Y-175.5629 F12000.0
G1 X59.8078 Y-181.1648 F12000.0
G1 Z0.0000 F8000.0
G0 X59.8078 Y-180.7529 F15000.0
G1 Z11.9000 F8000.0
G1 X59.8078 Y-182.7300 F12000.0
G1 X59.6430 Y-184.1304 F12000.0
G1 X59.2311 Y-185.2014 F12000.0
G1 X58.5721 Y-186.1075 F12000.0
G1 X58.2426 Y-186.3547 F12000.0
G1 X57.2540 Y-186.8490 F12000.0
G1 X56.1831 Y-187.0137 F12000.0
G1 X54.9474 Y-186.9313 F12000.0
G1 X53.6293 Y-186.4371 F12000.0
G1 Z0.0000 F8000.0
G0 X53.4645 Y-186.4371 F15000.0
G1 Z11.9000 F8000.0
G1 X53.4645 Y-189.7323 F12000.0
G1 X66.0687 Y-195.5812 F12000.0
G1 X66.0687 Y-176.4691 F12000.0
G1 Z0.0000 F8000.0
G0 X66.0687 Y-176.2220 F15000.0
G1 Z11.9000 F8000.0
G1 X65.8215 Y-175.8924 F12000.0
G1 X65.5744 Y-175.5629 F12000.0
G1 Z0.0000 F8000.0
G0 X62.6087 Y-174.2448 F15000.0
G1 Z11.9000 F8000.0
G1 X58.8192 Y-178.0343 F12000.0
G1 X59.4783 Y-179.1876 F12000.0
G1 X59.7254 Y-180.3410 F12000.0
G1 X59.8078 Y-180.7529 F12000.0
G1 Z0.0000 F8000.0
G0 X58.8192 Y-178.0343 F15000.0
G1 Z11.9000 F8000.0
G1 X57.9131 Y-176.9634 F12000.0
G1 X56.9245 Y-176.1396 F12000.0
G1 X56.5950 Y-175.9748 F12000.0
G1 Z0.0000 F8000.0
G0 X53.8764 Y-174.7391 F15000.0
G1 Z11.9000 F8000.0
G1 X57.0069 Y-171.6087 F12000.0
G1 Z0.0000 F8000.0
G0 X54.2060 Y-170.2906 F15000.0
G1 Z11.9000 F8000.0
G1 X51.0755 Y-173.4210 F12000.0
G1 Z0.0000 F8000.0
G0 X48.2746 Y-172.1030 F15000.0
G1 Z11.9000 F8000.0
G1 X51.4050 Y-168.9725 F12000.0
G1 Z0.0000 F8000.0
G0 X48.6041 Y-167.6545 F15000.0
G1 Z11.9000 F8000.0
G1 X45.3913 Y-170.7849 F12000.0
G1 Z0.0000 F8000.0
G0 X42.5904 Y-169.4668 F15000.0
G1 Z11.9000 F8000.0
G1 X45.7208 Y-166.3364 F12000.0
G1 Z0.0000 F8000.0
G0 X42.9199 Y-165.0183 F15000.0
G1 Z11.9000 F8000.0
G1 X39.7895 Y-168.1487 F12000.0
G1 Z0.0000 F8000.0
G0 X36.9886 Y-166.8307 F15000.0
G1 Z11.9000 F8000.0
G1 X40.1190 Y-163.7002 F12000.0
G1 Z0.0000 F8000.0
G0 X37.3181 Y-162.3821 F15000.0
G1 Z11.9000 F8000.0
G1 X34.1877 Y-165.5126 F12000.0
G1 Z0.0000 F8000.0
G0 X31.3867 Y-164.1945 F15000.0
G1 Z11.9000 F8000.0
G1 X34.5172 Y-161.0641 F12000.0
G1 Z0.0000 F8000.0
G0 X31.7163 Y-159.7460 F15000.0
G1 Z11.9000 F8000.0
G1 X28.5858 Y-162.8764 F12000.0
G1 Z0.0000 F8000.0
G0 X25.7849 Y-161.5583 F15000.0
G1 Z11.9000 F8000.0
G1 X28.9153 Y-158.4279 F12000.0
G1 Z0.0000 F8000.0
G0 X26.1144 Y-157.1098 F15000.0
G1 Z11.9000 F8000.0
G1 X22.9016 Y-160.2403 F12000.0
G1 Z0.0000 F8000.0
G0 X21.9131 Y-159.7460 F15000.0
G1 Z11.9000 F8000.0
G1 X21.3364 Y-160.1579 F12000.0
G1 X19.7712 Y-161.0641 F12000.0
G1 X18.2060 Y-161.5583 F12000.0
G1 X16.8055 Y-161.8055 F12000.0
G1 X15.4874 Y-161.8055 F12000.0
G1 X14.3341 Y-161.3936 F12000.0
G1 X50.9931 Y-178.6110 F12000.0
G1 X51.4874 Y-178.8581 F12000.0
G1 X51.8169 Y-179.1876 F12000.0
G1 Z0.0000 F8000.0
G0 X50.7460 Y-178.4462 F15000.0
G1 Z11.9000 F8000.0
G1 X50.7460 Y-188.5789 F12000.0
G1 X48.6041 Y-190.6384 F12000.0
G1 X46.7918 Y-192.7803 F12000.0
G1 X45.3089 Y-195.0046 F12000.0
G1 X44.1556 Y-197.3112 F12000.0
G1 X43.3318 Y-199.5355 F12000.0
G1 X42.8375 Y-201.8421 F12000.0
G1 X42.6728 Y-204.2311 F12000.0
G1 X42.6728 Y-207.5263 F12000.0
G1 X42.8375 Y-205.1373 F12000.0
G1 X43.3318 Y-202.8307 F12000.0
G1 X44.1556 Y-200.6064 F12000.0
G1 X45.3089 Y-198.2998 F12000.0
G1 X46.7918 Y-196.0755 F12000.0
G1 X48.6041 Y-193.9336 F12000.0
G1 X50.7460 Y-191.8741 F12000.0
G1 X53.2174 Y-189.8970 F12000.0
G1 X53.4645 Y-189.7323 F12000.0
G1 Z0.0000 F8000.0
G0 X54.7826 Y-190.3089 F15000.0
G1 Z11.9000 F8000.0
G1 X66.0687 Y-179.0229 F12000.0
G1 Z0.0000 F8000.0
G0 X66.0687 Y-183.1419 F15000.0
G1 Z11.9000 F8000.0
G1 X57.5835 Y-191.6270 F12000.0
G1 Z0.0000 F8000.0
G0 X60.3844 Y-192.9451 F15000.0
G1 Z11.9000 F8000.0
G1 X66.0687 Y-187.2609 F12000.0
G1 Z0.0000 F8000.0
G0 X66.0687 Y-191.3799 F15000.0
G1 Z11.9000 F8000.0
G1 X63.1854 Y-194.2631 F12000.0
G1 Z0.0000 F8000.0
G0 X64.3387 Y-194.7574 F15000.0
G1 Z11.9000 F8000.0
G1 X51.7346 Y-188.9085 F12000.0
G1 Z0.0000 F8000.0
G0 X50.7460 Y-188.5789 F15000.0
G1 Z11.9000 F8000.0
G1 X53.2174 Y-186.6018 F12000.0
G1 X53.4645 Y-186.4371 F12000.0
G1 Z0.0000 F8000.0
G0 X54.2883 Y-186.6842 F15000.0
G1 Z11.9000 F8000.0
G1 X53.4645 Y-187.5080 F12000.0
G1 Z0.0000 F8000.0
G0 X63.0206 Y-198.2998 F15000.0
G1 Z11.9000 F8000.0
G1 X61.5378 Y-200.0297 F12000.0
G1 X60.3844 Y-201.8421 F12000.0
G1 X59.5607 Y-203.7368 F12000.0
G1 X59.0664 Y-205.5492 F12000.0
G1 X58.9016 Y-207.4439 F12000.0
G1 X58.9840 Y-209.0915 F12000.0
G1 X59.4783 Y-210.9863 F12000.0
G1 X60.2197 Y-212.7986 F12000.0
G1 X61.3730 Y-214.6933 F12000.0
G1 X62.8558 Y-216.4233 F12000.0
G1 X64.6682 Y-218.1533 F12000.0
G1 X66.8101 Y-219.8009 F12000.0
G1 X69.3639 Y-221.2837 F12000.0
G1 X72.2471 Y-222.6842 F12000.0
G1 X75.5423 Y-223.9199 F12000.0
G1 X79.1671 Y-224.9085 F12000.0
G1 X83.1213 Y-225.6499 F12000.0
G1 X87.3227 Y-226.1441 F12000.0
G1 X91.6064 Y-226.3089 F12000.0
G1 X95.8078 Y-226.1441 F12000.0
G1 X99.9268 Y-225.6499 F12000.0
G1 X103.7162 Y-224.8261 F12000.0
G1 X107.1762 Y-223.8375 F12000.0
G1 X110.3890 Y-222.6842 F12000.0
G1 X113.1899 Y-221.3661 F12000.0
G1 X115.6613 Y-219.8833 F12000.0
G1 X117.8856 Y-218.2357 F12000.0
G1 X119.6979 Y-216.5881 F12000.0
G1 X121.1808 Y-214.8581 F12000.0
G1 X122.3341 Y-213.0458 F12000.0
G1 X123.0755 Y-211.1510 F12000.0
G1 X123.5698 Y-209.2563 F12000.0
G1 X123.7346 Y-207.3615 F12000.0
G1 X123.7346 Y-206.6201 F12000.0
G1 X123.4050 Y-204.7254 F12000.0
G1 X122.8284 Y-202.8307 F12000.0
G1 X121.8398 Y-201.0183 F12000.0
G1 X120.5217 Y-199.2059 F12000.0
G1 X118.8741 Y-197.3936 F12000.0
G1 X116.8146 Y-195.7460 F12000.0
G1 X114.4256 Y-194.1808 F12000.0
G1 X111.7071 Y-192.7803 F12000.0
G1 X121.9222 Y-185.3661 F12000.0
G1 X121.9222 Y-182.0709 F12000.0
G1 X125.2998 Y-183.8833 F12000.0
G1 X128.3478 Y-185.6956 F12000.0
G1 X130.9840 Y-187.7551 F12000.0
G1 X133.2906 Y-189.8146 F12000.0
G1 X135.2677 Y-191.9565 F12000.0
G1 X136.9153 Y-194.1808 F12000.0
G1 X138.1510 Y-196.4050 F12000.0
G1 X139.0572 Y-198.7117 F12000.0
G1 X139.7162 Y-201.0183 F12000.0
G1 X139.9634 Y-203.3249 F12000.0
G1 X139.9634 Y-204.0663 F12000.0
G1 X139.9634 Y-207.3615 F12000.0
G1 X139.7986 Y-209.6682 F12000.0
G1 X139.3043 Y-211.9748 F12000.0
G1 X138.4805 Y-214.2815 F12000.0
G1 X137.3272 Y-216.5881 F12000.0
G1 X135.8444 Y-218.7300 F12000.0
G1 X134.0320 Y-220.9542 F12000.0
G1 X131.8902 Y-223.0137 F12000.0
G1 X129.4188 Y-224.9908 F12000.0
G1 X126.6178 Y-226.8856 F12000.0
G1 X123.4050 Y-228.6979 F12000.0
G1 X119.9451 Y-230.2631 F12000.0
G1 X116.0732 Y-231.7460 F12000.0
G1 X111.8719 Y-233.0641 F12000.0
G1 X107.3410 Y-234.1350 F12000.0
G1 X102.5629 Y-234.9588 F12000.0
G1 X97.5378 Y-235.4531 F12000.0
G1 X92.3478 Y-235.7002 F12000.0
G1 X87.0755 Y-235.6178 F12000.0
G1 X81.8856 Y-235.2059 F12000.0
G1 X76.9428 Y-234.4645 F12000.0
G1 X72.1648 Y-233.4760 F12000.0
G1 X67.7986 Y-232.2403 F12000.0
G1 X63.6796 Y-230.7574 F12000.0
G1 X59.9725 Y-229.1098 F12000.0
G1 X56.6774 Y-227.2975 F12000.0
G1 X53.7117 Y-225.4027 F12000.0
G1 X51.1579 Y-223.4256 F12000.0
G1 X48.9337 Y-221.2837 F12000.0
G1 X47.0389 Y-219.1419 F12000.0
G1 X45.4737 Y-216.9176 F12000.0
G1 X44.2380 Y-214.6933 F12000.0
G1 X43.4142 Y-212.3867 F12000.0
G1 X42.9199 Y-210.0801 F12000.0
G1 X42.6728 Y-207.6911 F12000.0
G1 Z0.0000 F8000.0
G0 X63.0206 Y-198.2998 F15000.0
G1 Z11.9000 F8000.0
G1 X64.8330 Y-196.5698 F12000.0
G1 X66.0687 Y-195.5812 F12000.0
G1 Z0.0000 F8000.0
G0 X65.6568 Y-195.4165 F15000.0
G1 Z11.9000 F8000.0
G1 X67.0572 Y-196.0755 F12000.0
G1 Z0.0000 F8000.0
G0 X68.3753 Y-196.6522 F15000.0
G1 Z11.9000 F8000.0
G1 X80.9794 Y-202.5835 F12000.0
G1 Z0.0000 F8000.0
G0 X82.2975 Y-203.2426 F15000.0
G1 Z11.9000 F8000.0
G1 X83.6979 Y-203.9016 F12000.0
G1 Z0.0000 F8000.0
G0 X85.0160 Y-204.4782 F15000.0
G1 Z11.9000 F8000.0
G1 X97.6201 Y-210.4096 F12000.0
G1 Z0.0000 F8000.0
G0 X98.9382 Y-210.9863 F15000.0
G1 Z11.9000 F8000.0
G1 X100.3387 Y-211.6453 F12000.0
G1 Z0.0000 F8000.0
G0 X101.6568 Y-212.3043 F15000.0
G1 Z11.9000 F8000.0
G1 X114.2609 Y-218.1533 F12000.0
G1 Z0.0000 F8000.0
G0 X115.5789 Y-218.8123 F15000.0
G1 Z11.9000 F8000.0
G1 X116.9794 Y-219.4714 F12000.0
G1 Z0.0000 F8000.0
G0 X118.2975 Y-220.0480 F15000.0
G1 Z11.9000 F8000.0
G1 X130.9840 Y-225.9794 F12000.0
G1 Z0.0000 F8000.0
G0 X139.9634 Y-206.6201 F15000.0
G1 Z11.9000 F8000.0
G1 X139.7162 Y-204.3135 F12000.0
G1 X139.0572 Y-202.0069 F12000.0
G1 X138.1510 Y-199.7002 F12000.0
G1 X136.9153 Y-197.4760 F12000.0
G1 X135.2677 Y-195.2517 F12000.0
G1 X133.2906 Y-193.1098 F12000.0
G1 X130.9840 Y-191.0503 F12000.0
G1 X128.3478 Y-189.0732 F12000.0
G1 X125.2998 Y-187.1785 F12000.0
G1 X121.9222 Y-185.3661 F12000.0
G1 Z0.0000 F8000.0
G0 X121.9222 Y-184.5423 F15000.0
G1 Z11.9000 F8000.0
G1 X120.2746 Y-182.8947 F12000.0
G1 Z0.0000 F8000.0
G0 X120.1922 Y-182.9771 F15000.0
G1 Z11.9000 F8000.0
G1 X119.2860 Y-183.0595 F12000.0
G1 X118.4622 Y-182.8123 F12000.0
G1 X117.8032 Y-182.4005 F12000.0
G1 X117.3089 Y-181.6590 F12000.0
G1 X116.8970 Y-180.5881 F12000.0
G1 X116.8146 Y-179.1876 F12000.0
G1 X116.6499 Y-94.0893 F12000.0
G1 Z0.0000 F8000.0
G0 X116.6499 Y-93.9245 F15000.0
G1 Z11.9000 F8000.0
G1 X116.5675 Y-93.0183 F12000.0
G1 X116.1556 Y-92.2769 F12000.0
G1 X115.6613 Y-91.8650 F12000.0
G1 Z0.0000 F8000.0
G0 X112.7780 Y-92.9359 F15000.0
G1 Z11.9000 F8000.0
G1 X116.6499 Y-96.8078 F12000.0
G1 Z0.0000 F8000.0
G0 X116.6499 Y-100.9268 F15000.0
G1 Z11.9000 F8000.0
G1 X110.3890 Y-94.6659 F12000.0
G1 Z0.0000 F8000.0
G0 X108.0000 Y-96.3959 F15000.0
G1 Z11.9000 F8000.0
G1 X116.6499 Y-105.0458 F12000.0
G1 Z0.0000 F8000.0
G0 X116.7323 Y-109.1648 F15000.0
G1 Z11.9000 F8000.0
G1 X111.5423 Y-104.0572 F12000.0
G1 Z0.0000 F8000.0
G0 X111.6247 Y-104.3044 F15000.0
G1 Z11.9000 F8000.0
G1 X111.6247 Y-128.1121 F12000.0
G1 X111.5423 Y-129.1831 F12000.0
G1 X111.0481 Y-130.7483 F12000.0
G1 X110.3066 Y-132.3135 F12000.0
G1 X109.4005 Y-133.4668 F12000.0
G1 X108.5767 Y-134.2906 F12000.0
G1 X103.9634 Y-137.5858 F12000.0
G1 X103.9634 Y-142.1991 F12000.0
G1 X106.0229 Y-143.3524 F12000.0
G1 X107.8352 Y-142.0343 F12000.0
G1 X107.8352 Y-141.0458 F12000.0
G1 Z0.0000 F8000.0
G0 X107.8352 Y-140.9634 F15000.0
G1 Z11.9000 F8000.0
G1 X108.0000 Y-139.9748 F12000.0
G1 X108.4943 Y-139.0687 F12000.0
G1 X109.0709 Y-138.4920 F12000.0
G1 X110.3890 Y-137.5858 F12000.0
G1 X110.8009 Y-137.3387 F12000.0
G1 X111.2128 Y-137.4211 F12000.0
G1 X111.5423 Y-137.6682 F12000.0
G1 X111.6247 Y-138.3272 F12000.0
G1 X111.7071 Y-192.7803 F12000.0
G1 Z0.0000 F8000.0
G0 X111.0481 Y-193.1922 F15000.0
G1 Z11.9000 F8000.0
G1 X112.3661 Y-192.2860 F12000.0
G1 Z0.0000 F8000.0
G0 X112.7780 Y-191.9565 F15000.0
G1 Z11.9000 F8000.0
G1 X111.7071 Y-190.8856 F12000.0
G1 Z0.0000 F8000.0
G0 X113.5194 Y-191.4622 F15000.0
G1 Z11.9000 F8000.0
G1 X123.4874 Y-184.2952 F12000.0
G1 Z0.0000 F8000.0
G0 X121.9222 Y-182.0709 F15000.0
G1 Z11.9000 F8000.0
G1 X121.1808 Y-182.4828 F12000.0
G1 X120.1922 Y-182.9771 F12000.0
G1 Z0.0000 F8000.0
G0 X119.9451 Y-186.7666 F15000.0
G1 Z11.9000 F8000.0
G1 X111.7071 Y-178.5286 F12000.0
G1 Z0.0000 F8000.0
G0 X111.7071 Y-182.6476 F15000.0
G1 Z11.9000 F8000.0
G1 X117.5561 Y-188.4966 F12000.0
G1 Z0.0000 F8000.0
G0 X115.1670 Y-190.2265 F15000.0
G1 Z11.9000 F8000.0
G1 X111.7071 Y-186.7666 F12000.0
G1 Z0.0000 F8000.0
G0 X109.8947 Y-194.0160 F15000.0
G1 Z11.9000 F8000.0
G1 X99.9268 Y-201.2654 F12000.0
G1 Z0.0000 F8000.0
G0 X98.7735 Y-202.0892 F15000.0
G1 Z11.9000 F8000.0
G1 X97.4554 Y-202.9954 F12000.0
G1 Z0.0000 F8000.0
G0 X96.3021 Y-203.8192 F15000.0
G1 Z11.9000 F8000.0
G1 X86.3341 Y-210.9863 F12000.0
G1 Z0.0000 F8000.0
G0 X85.1808 Y-211.8924 F15000.0
G1 Z11.9000 F8000.0
G1 X83.9451 Y-212.7986 F12000.0
G1 Z0.0000 F8000.0
G0 X82.7094 Y-213.6224 F15000.0
G1 Z11.9000 F8000.0
G1 X72.7414 Y-220.7895 F12000.0
G1 Z0.0000 F8000.0
G0 X71.5881 Y-221.6956 F15000.0
G1 Z11.9000 F8000.0
G1 X70.3524 Y-222.6018 F12000.0
G1 Z0.0000 F8000.0
G0 X69.1167 Y-223.4256 F15000.0
G1 Z11.9000 F8000.0
G1 X59.2311 Y-230.5927 F12000.0
G1 Z0.0000 F8000.0
G0 X91.3593 Y-237.6773 F15000.0
G1 Z11.9000 F8000.0
G1 X91.3593 Y-219.4714 F12000.0
G1 Z0.0000 F8000.0
G0 X91.3593 Y-218.0709 F15000.0
G1 Z11.9000 F8000.0
G1 X91.3593 Y-216.5057 F12000.0
G1 Z0.0000 F8000.0
G0 X91.3593 Y-215.1052 F15000.0
G1 Z11.9000 F8000.0
G1 X91.3593 Y-196.8993 F12000.0
G1 Z0.0000 F8000.0
G0 X91.3593 Y-195.4165 F15000.0
G1 Z11.9000 F8000.0
G1 X91.2769 Y-193.9336 F12000.0
G1 Z0.0000 F8000.0
G0 X91.2769 Y-192.4508 F15000.0
G1 Z11.9000 F8000.0
G1 X91.2769 Y-174.3272 F12000.0
G1 Z0.0000 F8000.0
G0 X91.2769 Y-172.8444 F15000.0
G1 Z11.9000 F8000.0
G1 X91.2769 Y-171.3616 F12000.0
G1 Z0.0000 F8000.0
G0 X91.2769 Y-169.8787 F15000.0
G1 Z11.9000 F8000.0
G1 X91.2769 Y-151.7551 F12000.0
G1 Z0.0000 F8000.0
G0 X91.2769 Y-150.2723 F15000.0
G1 Z11.9000 F8000.0
G1 X91.2769 Y-148.7895 F12000.0
G1 Z0.0000 F8000.0
G0 X91.2769 Y-147.3066 F15000.0
G1 Z11.9000 F8000.0
G1 X91.1945 Y-129.1007 F12000.0
G1 Z0.0000 F8000.0
G0 X91.1945 Y-127.7002 F15000.0
G1 Z11.9000 F8000.0
G1 X91.1945 Y-126.1350 F12000.0
G1 Z0.0000 F8000.0
G0 X91.1945 Y-124.7346 F15000.0
G1 Z11.9000 F8000.0
G1 X91.1945 Y-106.5286 F12000.0
G1 Z0.0000 F8000.0
G0 X91.1945 Y-108.5057 F15000.0
G1 Z11.9000 F8000.0
G1 X86.7460 Y-112.9542 F12000.0
G1 Z0.0000 F8000.0
G0 X89.5469 Y-114.2723 F15000.0
G1 Z11.9000 F8000.0
G1 X91.1945 Y-112.6247 F12000.0
G1 X92.6773 Y-114.0252 F12000.0
G1 Z0.0000 F8000.0
G0 X91.1945 Y-115.0961 F15000.0
G1 Z11.9000 F8000.0
G1 X108.4943 Y-102.5744 F12000.0
G1 X109.1533 Y-102.2449 F12000.0
G1 X109.9771 Y-101.9977 F12000.0
G1 X110.6362 Y-102.1625 F12000.0
G1 X111.1304 Y-102.5744 F12000.0
G1 X111.4600 Y-103.3158 F12000.0
G1 X111.6247 Y-104.3044 F12000.0
G1 Z0.0000 F8000.0
G0 X109.5652 Y-102.0801 F15000.0
G1 Z11.9000 F8000.0
G1 X105.6110 Y-98.1259 F12000.0
G1 Z0.0000 F8000.0
G0 X103.2220 Y-99.8558 F15000.0
G1 Z11.9000 F8000.0
G1 X107.0114 Y-103.6453 F12000.0
G1 Z0.0000 F8000.0
G0 X104.6224 Y-105.3753 F15000.0
G1 Z11.9000 F8000.0
G1 X100.8330 Y-101.5858 F12000.0
G1 Z0.0000 F8000.0
G0 X98.3616 Y-103.3158 F15000.0
G1 Z11.9000 F8000.0
G1 X102.2334 Y-107.1053 F12000.0
G1 Z0.0000 F8000.0
G0 X99.8444 Y-108.8352 F15000.0
G1 Z11.9000 F8000.0
G1 X95.9725 Y-105.0458 F12000.0
G1 Z0.0000 F8000.0
G0 X93.5835 Y-106.7758 F15000.0
G1 Z11.9000 F8000.0
G1 X97.4554 Y-110.5652 F12000.0
G1 Z0.0000 F8000.0
G0 X95.0664 Y-112.2952 F15000.0
G1 Z11.9000 F8000.0
G1 X91.1945 Y-108.5057 F12000.0
G1 Z0.0000 F8000.0
G0 X88.3936 Y-107.1877 F15000.0
G1 Z11.9000 F8000.0
G1 X83.9451 Y-111.6362 F12000.0
G1 Z0.0000 F8000.0
G0 X81.0618 Y-110.3181 F15000.0
G1 Z11.9000 F8000.0
G1 X85.5927 Y-105.8696 F12000.0
G1 Z0.0000 F8000.0
G0 X82.7918 Y-104.5515 F15000.0
G1 Z11.9000 F8000.0
G1 X78.2609 Y-109.0000 F12000.0
G1 Z0.0000 F8000.0
G0 X75.4600 Y-107.6819 F15000.0
G1 Z11.9000 F8000.0
G1 X79.9909 Y-103.2334 F12000.0
G1 Z0.0000 F8000.0
G0 X77.1899 Y-101.9153 F15000.0
G1 Z11.9000 F8000.0
G1 X72.6590 Y-106.3639 F12000.0
G1 Z0.0000 F8000.0
G0 X69.8581 Y-105.0458 F15000.0
G1 Z11.9000 F8000.0
G1 X74.3066 Y-100.5973 F12000.0
G1 Z0.0000 F8000.0
G0 X71.5057 Y-99.2792 F15000.0
G1 Z11.9000 F8000.0
G1 X53.7117 Y-117.0732 F12000.0
G1 Z0.0000 F8000.0
G0 X55.5240 Y-111.1419 F15000.0
G1 Z11.9000 F8000.0
G1 X68.7048 Y-97.9611 F12000.0
G1 Z0.0000 F8000.0
G0 X65.9039 Y-96.6430 F15000.0
G1 Z11.9000 F8000.0
G1 X57.3364 Y-105.1282 F12000.0
G1 Z0.0000 F8000.0
G0 X59.1488 Y-99.1968 F15000.0
G1 Z11.9000 F8000.0
G1 X63.1030 Y-95.3250 F12000.0
G1 Z0.0000 F8000.0
G0 X60.6316 Y-95.4897 F15000.0
G1 Z11.9000 F8000.0
G1 X60.0549 Y-96.0664 F12000.0
G1 X59.7254 Y-96.8902 F12000.0
G1 X59.6430 Y-97.6316 F12000.0
G1 X59.2311 Y-97.9611 F12000.0
G1 X58.8192 Y-98.2082 F12000.0
G1 X58.4073 Y-98.4554 F12000.0
G1 X45.4737 Y-140.9634 F12000.0
G1 Z0.0000 F8000.0
G0 X45.3089 Y-141.2105 F15000.0
G1 Z11.9000 F8000.0
G1 X44.4851 Y-141.2105 F12000.0
G1 X43.7437 Y-140.9634 F12000.0
G1 X21.9131 Y-130.7483 F12000.0
G1 X21.9131 Y-135.3616 F12000.0
G1 X65.4096 Y-155.7094 F12000.0
G1 Z0.0000 F8000.0
G0 X64.8330 Y-155.4622 F15000.0
G1 Z11.9000 F8000.0
G1 X66.0687 Y-154.3089 F12000.0
G1 Z0.0000 F8000.0
G0 X67.7986 Y-154.5561 F15000.0
G1 Z11.9000 F8000.0
G1 X68.0458 Y-156.2037 F12000.0
G1 X68.7048 Y-157.7689 F12000.0
G1 X69.6110 Y-159.3341 F12000.0
G1 X70.9291 Y-160.8993 F12000.0
G1 X72.5767 Y-162.2998 F12000.0
G1 X74.6362 Y-163.7002 F12000.0
G1 X77.0252 Y-164.8535 F12000.0
G1 X79.7437 Y-165.9245 F12000.0
G1 X82.8741 Y-166.7483 F12000.0
G1 X86.3341 Y-167.4073 F12000.0
G1 X89.9588 Y-167.6545 F12000.0
G1 X93.5835 Y-167.5721 F12000.0
G1 X97.0435 Y-167.2426 F12000.0
G1 X100.2563 Y-166.5835 F12000.0
G1 X103.2220 Y-165.7597 F12000.0
G1 X105.8581 Y-164.6888 F12000.0
G1 X108.1648 Y-163.5355 F12000.0
G1 X110.0595 Y-162.2174 F12000.0
G1 X111.6247 Y-160.8169 F12000.0
G1 Z0.0000 F8000.0
G0 X111.6247 Y-161.9702 F15000.0
G1 Z11.9000 F8000.0
G1 X116.7323 Y-167.0778 F12000.0
G1 Z0.0000 F8000.0
G0 X116.7323 Y-162.9588 F15000.0
G1 Z11.9000 F8000.0
G1 X111.6247 Y-157.8513 F12000.0
G1 Z0.0000 F8000.0
G0 X110.0595 Y-155.7918 F15000.0
G1 Z11.9000 F8000.0
G1 X110.8833 Y-154.3089 F12000.0
G1 X111.3776 Y-152.8261 F12000.0
G1 X111.5423 Y-151.3432 F12000.0
G1 X111.4600 Y-150.6842 F12000.0
G1 X111.2128 Y-149.2014 F12000.0
G1 X110.5538 Y-147.7185 F12000.0
G1 X109.5652 Y-146.2357 F12000.0
G1 X108.1648 Y-144.8352 F12000.0
G1 X106.5172 Y-143.5995 F12000.0
G1 Z0.0000 F8000.0
G0 X106.0229 Y-143.3524 F15000.0
G1 Z11.9000 F8000.0
G1 X107.6705 Y-144.1762 F12000.0
G1 X109.7300 Y-145.5767 F12000.0
G1 X111.4600 Y-146.9771 F12000.0
G1 Z0.0000 F8000.0
G0 X111.6247 Y-145.4119 F15000.0
G1 Z11.9000 F8000.0
G1 X116.7323 Y-150.5194 F12000.0
G1 Z0.0000 F8000.0
G0 X116.7323 Y-146.4005 F15000.0
G1 Z11.9000 F8000.0
G1 X111.6247 Y-141.2929 F12000.0
G1 Z0.0000 F8000.0
G0 X110.3066 Y-143.3524 F15000.0
G1 Z11.9000 F8000.0
G1 X107.8352 Y-142.0343 F12000.0
G1 Z0.0000 F8000.0
G0 X107.8352 Y-141.6224 F15000.0
G1 Z11.9000 F8000.0
G1 X103.9634 Y-137.7506 F12000.0
G1 Z0.0000 F8000.0
G0 X106.2700 Y-135.9382 F15000.0
G1 Z11.9000 F8000.0
G1 X108.9886 Y-138.5744 F12000.0
G1 Z0.0000 F8000.0
G0 X108.6590 Y-134.2082 F15000.0
G1 Z11.9000 F8000.0
G1 X116.7323 Y-142.2815 F12000.0
G1 Z0.0000 F8000.0
G0 X116.7323 Y-138.1625 F15000.0
G1 Z11.9000 F8000.0
G1 X110.5538 Y-131.9016 F12000.0
G1 Z0.0000 F8000.0
G0 X111.5423 Y-128.8536 F15000.0
G1 Z11.9000 F8000.0
G1 X116.7323 Y-133.9611 F12000.0
G1 Z0.0000 F8000.0
G0 X116.7323 Y-129.8421 F15000.0
G1 Z11.9000 F8000.0
G1 X111.6247 Y-124.7346 F12000.0
G1 Z0.0000 F8000.0
G0 X111.6247 Y-120.6156 F15000.0
G1 Z11.9000 F8000.0
G1 X116.7323 Y-125.7231 F12000.0
G1 Z0.0000 F8000.0
G0 X116.7323 Y-121.6041 F15000.0
G1 Z11.9000 F8000.0
G1 X111.6247 Y-116.4966 F12000.0
G1 Z0.0000 F8000.0
G0 X111.6247 Y-112.3776 F15000.0
G1 Z11.9000 F8000.0
G1 X116.7323 Y-117.4851 F12000.0
G1 Z0.0000 F8000.0
G0 X116.7323 Y-113.3661 F15000.0
G1 Z11.9000 F8000.0
G1 X111.6247 Y-108.2586 F12000.0
G1 Z0.0000 F8000.0
G0 X131.7254 Y-112.3776 F15000.0
G1 Z11.9000 F8000.0
G1 X131.8902 Y-188.4142 F12000.0
G1 Z0.0000 F8000.0
G0 X131.8078 Y-170.9497 F15000.0
G1 Z11.9000 F8000.0
G1 X149.9313 Y-179.4348 F12000.0
G1 X151.0847 Y-179.7643 F12000.0
G1 X152.4027 Y-179.8467 F12000.0
G1 X153.8032 Y-179.5995 F12000.0
G1 X155.3684 Y-179.0229 F12000.0
G1 X156.9336 Y-178.1167 F12000.0
G1 X158.5812 Y-176.8810 F12000.0
G1 X160.3112 Y-175.2334 F12000.0
G1 X162.0412 Y-173.2563 F12000.0
G1 X163.7712 Y-170.7849 F12000.0
G1 X165.3364 Y-167.9840 F12000.0
G1 X166.7368 Y-164.8535 F12000.0
G1 X167.7254 Y-161.8055 F12000.0
G1 X168.3844 Y-158.8398 F12000.0
G1 X168.6316 Y-156.2860 F12000.0
G1 X168.7139 Y-155.2151 F12000.0
G1 X168.5492 Y-153.0732 F12000.0
G1 X168.1373 Y-151.2609 F12000.0
G1 X167.5606 Y-149.6957 F12000.0
G1 X166.8192 Y-148.5423 F12000.0
G1 X165.9130 Y-147.6362 F12000.0
G1 X165.0892 Y-147.1419 F12000.0
G1 X131.8078 Y-131.4897 F12000.0
G1 Z0.0000 F8000.0
G0 X111.6247 Y-144.2586 F15000.0
G1 Z11.9000 F8000.0
G1 X110.3066 Y-143.3524 F12000.0
G1 Z0.0000 F8000.0
G0 X104.6224 Y-142.5286 F15000.0
G1 Z11.9000 F8000.0
G1 X103.9634 Y-141.8696 F12000.0
G1 Z0.0000 F8000.0
G0 X111.1304 Y-149.0366 F15000.0
G1 Z11.9000 F8000.0
G1 X110.4714 Y-150.5194 F12000.0
G1 X109.4828 Y-151.9199 F12000.0
G1 X108.1648 Y-153.2380 F12000.0
G1 X106.5172 Y-154.4737 F12000.0
G1 X104.4577 Y-155.6270 F12000.0
G1 X102.1510 Y-156.6979 F12000.0
G1 X99.4325 Y-157.5217 F12000.0
G1 X96.4668 Y-158.0984 F12000.0
G1 X93.2540 Y-158.5103 F12000.0
G1 X89.8764 Y-158.5103 F12000.0
G1 X86.5812 Y-158.1808 F12000.0
G1 X83.4508 Y-157.6041 F12000.0
G1 X80.5675 Y-156.7803 F12000.0
G1 X78.0961 Y-155.7094 F12000.0
G1 X76.0366 Y-154.5561 F12000.0
G1 X74.3066 Y-153.2380 F12000.0
G1 X72.9886 Y-151.8375 F12000.0
G1 X72.0000 Y-150.4371 F12000.0
G1 X71.3410 Y-149.1190 F12000.0
G1 Z0.0000 F8000.0
G0 X71.1762 Y-149.8604 F15000.0
G1 Z11.9000 F8000.0
G1 X71.0114 Y-151.4256 F12000.0
G1 X71.1762 Y-152.9085 F12000.0
G1 X71.6705 Y-154.3913 F12000.0
G1 X72.4943 Y-155.8741 F12000.0
G1 X73.7300 Y-157.2746 F12000.0
G1 X75.2128 Y-158.5927 F12000.0
G1 X77.1899 Y-159.8284 F12000.0
G1 X79.4142 Y-160.9817 F12000.0
G1 X82.1327 Y-161.8879 F12000.0
G1 X85.0984 Y-162.6293 F12000.0
G1 X88.3936 Y-163.0412 F12000.0
G1 X91.7712 Y-163.1236 F12000.0
G1 X95.0664 Y-162.9588 F12000.0
G1 X98.1968 Y-162.4645 F12000.0
G1 X100.9977 Y-161.7231 F12000.0
G1 X103.4691 Y-160.7346 F12000.0
G1 X105.6110 Y-159.6636 F12000.0
G1 X107.4233 Y-158.4279 F12000.0
G1 X108.9062 Y-157.1098 F12000.0
G1 X110.0595 Y-155.7918 F12000.0
G1 Z0.0000 F8000.0
G0 X111.6247 Y-153.7323 F15000.0
G1 Z11.9000 F8000.0
G1 X116.7323 Y-158.8398 F12000.0
G1 Z0.0000 F8000.0
G0 X116.7323 Y-154.6384 F15000.0
G1 Z11.9000 F8000.0
G1 X111.6247 Y-149.5309 F12000.0
G1 Z0.0000 F8000.0
G0 X111.7071 Y-163.7002 F15000.0
G1 Z11.9000 F8000.0
G1 X109.4828 Y-165.0183 F12000.0
G1 X107.0114 Y-166.2540 F12000.0
G1 X104.2105 Y-167.3249 F12000.0
G1 X100.9977 Y-168.2311 F12000.0
G1 X97.5378 Y-168.8902 F12000.0
G1 X93.8307 Y-169.2197 F12000.0
G1 X89.9588 Y-169.3021 F12000.0
G1 X86.1693 Y-169.0549 F12000.0
G1 X82.4622 Y-168.4783 F12000.0
G1 X79.1671 Y-167.5721 F12000.0
G1 X76.1190 Y-166.5835 F12000.0
G1 X73.4828 Y-165.2654 F12000.0
G1 X71.1762 Y-163.9474 F12000.0
G1 X69.2815 Y-162.4645 F12000.0
G1 X67.7163 Y-160.8993 F12000.0
G1 X66.4806 Y-159.2517 F12000.0
G1 X65.6568 Y-157.6041 F12000.0
G1 X65.1625 Y-156.2860 F12000.0
G1 Z0.0000 F8000.0
G0 X67.7986 Y-154.5561 F15000.0
G1 Z11.9000 F8000.0
G1 X67.7986 Y-152.9908 F12000.0
G1 X68.2105 Y-151.3432 F12000.0
G1 X68.8696 Y-149.7780 F12000.0
G1 X69.9405 Y-148.2952 F12000.0
G1 X71.3410 Y-146.8124 F12000.0
G1 X72.9886 Y-145.4119 F12000.0
G1 Z0.0000 F8000.0
G0 X73.6476 Y-145.5767 F15000.0
G1 Z11.9000 F8000.0
G1 X72.4943 Y-146.9771 F12000.0
G1 X71.6705 Y-148.3776 F12000.0
G1 X71.1762 Y-149.8604 F12000.0
G1 Z0.0000 F8000.0
G0 X68.3753 Y-146.4005 F15000.0
G1 Z11.9000 F8000.0
G1 X67.0572 Y-147.9657 F12000.0
G1 X66.0687 Y-149.6133 F12000.0
G1 Z0.0000 F8000.0
G0 X66.0687 Y-150.1899 F15000.0
G1 Z11.9000 F8000.0
G1 X62.0320 Y-154.1442 F12000.0
G1 Z0.0000 F8000.0
G0 X59.2311 Y-152.8261 F15000.0
G1 Z11.9000 F8000.0
G1 X66.0687 Y-146.0709 F12000.0
G1 Z0.0000 F8000.0
G0 X68.3753 Y-146.4005 F15000.0
G1 Z11.9000 F8000.0
G1 X70.1053 Y-144.9176 F12000.0
G1 X70.7643 Y-144.4233 F12000.0
G1 Z0.0000 F8000.0
G0 X71.5057 Y-144.7529 F15000.0
G1 Z11.9000 F8000.0
G1 X75.4600 Y-140.7162 F12000.0
G1 Z0.0000 F8000.0
G0 X73.5652 Y-138.4920 F15000.0
G1 Z11.9000 F8000.0
G1 X70.1877 Y-141.8696 F12000.0
G1 Z0.0000 F8000.0
G0 X67.5515 Y-140.2220 F15000.0
G1 Z11.9000 F8000.0
G1 X66.8925 Y-140.1396 F12000.0
G1 X66.3982 Y-140.3043 F12000.0
G1 X66.1510 Y-140.5515 F12000.0
G1 X65.9863 Y-141.2105 F12000.0
G1 Z0.0000 F8000.0
G0 X66.4806 Y-133.1373 F15000.0
G1 Z11.9000 F8000.0
G1 X50.8284 Y-148.8719 F12000.0
G1 Z0.0000 F8000.0
G0 X48.0275 Y-147.5538 F15000.0
G1 Z11.9000 F8000.0
G1 X65.9863 Y-129.5126 F12000.0
G1 Z0.0000 F8000.0
G0 X65.9863 Y-125.3936 F15000.0
G1 Z11.9000 F8000.0
G1 X45.1442 Y-146.2357 F12000.0
G1 Z0.0000 F8000.0
G0 X42.3433 Y-144.9176 F15000.0
G1 Z11.9000 F8000.0
G1 X65.9863 Y-121.2746 F12000.0
G1 Z0.0000 F8000.0
G0 X65.9863 Y-117.1556 F15000.0
G1 Z11.9000 F8000.0
G1 X48.2746 Y-134.8673 F12000.0
G1 Z0.0000 F8000.0
G0 X46.7094 Y-139.9748 F15000.0
G1 Z11.9000 F8000.0
G1 X59.6430 Y-97.6316 F12000.0
G1 Z0.0000 F8000.0
G0 X66.8925 Y-105.0458 F15000.0
G1 Z11.9000 F8000.0
G1 X66.5629 Y-105.3753 F12000.0
G1 X66.1510 Y-106.1991 F12000.0
G1 X65.9863 Y-107.1877 F12000.0
G1 Z0.0000 F8000.0
G0 X66.8925 Y-105.0458 F15000.0
G1 Z11.9000 F8000.0
G1 X67.6339 Y-104.7163 F12000.0
G1 X68.5401 Y-104.6339 F12000.0
G1 X69.5286 Y-104.9634 F12000.0
G1 Z0.0000 F8000.0
G0 X69.7758 Y-105.0458 F15000.0
G1 Z11.9000 F8000.0
G1 X91.1945 Y-115.0961 F12000.0
G1 Z0.0000 F8000.0
G0 X65.9863 Y-113.0366 F15000.0
G1 Z11.9000 F8000.0
G1 X50.0870 Y-128.9359 F12000.0
G1 Z0.0000 F8000.0
G0 X46.7094 Y-139.9748 F15000.0
G1 Z11.9000 F8000.0
G1 X46.6270 Y-140.3043 F12000.0
G1 X46.3799 Y-140.6339 F12000.0
G1 X46.0504 Y-140.9634 F12000.0
G1 Z0.0000 F8000.0
G0 X45.9680 Y-140.9634 F15000.0
G1 Z11.9000 F8000.0
G1 X45.3089 Y-141.2105 F12000.0
G1 Z0.0000 F8000.0
G0 X42.6728 Y-140.4691 F15000.0
G1 Z11.9000 F8000.0
G1 X39.5423 Y-143.5995 F12000.0
G1 Z0.0000 F8000.0
G0 X36.7414 Y-142.2815 F15000.0
G1 Z11.9000 F8000.0
G1 X39.8719 Y-139.1510 F12000.0
G1 Z0.0000 F8000.0
G0 X37.0710 Y-137.8330 F15000.0
G1 Z11.9000 F8000.0
G1 X33.9405 Y-140.9634 F12000.0
G1 Z0.0000 F8000.0
G0 X31.1396 Y-139.6453 F15000.0
G1 Z11.9000 F8000.0
G1 X34.2700 Y-136.5149 F12000.0
G1 Z0.0000 F8000.0
G0 X31.4691 Y-135.1968 F15000.0
G1 Z11.9000 F8000.0
G1 X28.3387 Y-138.3272 F12000.0
G1 Z0.0000 F8000.0
G0 X25.5378 Y-137.0092 F15000.0
G1 Z11.9000 F8000.0
G1 X28.6682 Y-133.8787 F12000.0
G1 Z0.0000 F8000.0
G0 X25.8673 Y-132.5606 F15000.0
G1 Z11.9000 F8000.0
G1 X22.6545 Y-135.6911 F12000.0
G1 Z0.0000 F8000.0
G0 X21.9131 Y-135.3616 F15000.0
G1 Z11.9000 F8000.0
G1 X21.3364 Y-135.7735 F12000.0
G1 X19.8536 Y-137.1739 F12000.0
G1 X18.2883 Y-139.0687 F12000.0
G1 X16.8879 Y-141.3753 F12000.0
G1 X15.7346 Y-143.9291 F12000.0
G1 X14.9108 Y-146.3181 F12000.0
G1 X14.4165 Y-148.5423 F12000.0
G1 X14.2517 Y-150.5194 F12000.0
G1 X14.3341 Y-152.2494 F12000.0
G1 X14.6636 Y-153.6499 F12000.0
G1 X15.1579 Y-154.8032 F12000.0
G1 X15.8993 Y-155.7094 F12000.0
G1 X16.7231 Y-156.2860 F12000.0
G1 X17.0526 Y-156.3684 F12000.0
G1 X18.0412 Y-156.5332 F12000.0
G1 X19.1945 Y-156.4508 F12000.0
G1 X20.5126 Y-155.9565 F12000.0
G1 X21.9131 Y-155.1327 F12000.0
G1 Z0.0000 F8000.0
G0 X23.2311 Y-155.7918 F15000.0
G1 Z11.9000 F8000.0
G1 X21.9131 Y-157.1098 F12000.0
G1 Z0.0000 F8000.0
G0 X14.3341 Y-161.3936 F15000.0
G1 Z11.9000 F8000.0
G1 X13.3456 Y-160.8169 F12000.0
G1 X12.4394 Y-159.8284 F12000.0
G1 X11.6980 Y-158.5927 F12000.0
G1 X11.1213 Y-157.1098 F12000.0
G1 X10.7918 Y-155.2151 F12000.0
G1 X10.7094 Y-153.0732 F12000.0
G1 X10.8742 Y-150.5194 F12000.0
G1 X11.3684 Y-147.7185 F12000.0
G1 X12.2746 Y-144.6705 F12000.0
G1 X13.5927 Y-141.5400 F12000.0
G1 X15.0755 Y-138.5744 F12000.0
G1 X16.7231 Y-136.0206 F12000.0
G1 X18.4531 Y-133.8787 F12000.0
G1 X20.1831 Y-132.0664 F12000.0
G1 X21.9131 Y-130.7483 F12000.0
G1 Z0.0000 F8000.0
G0 X22.9840 Y-131.2426 F15000.0
G1 Z11.9000 F8000.0
G1 X21.9131 Y-132.3959 F12000.0
G1 Z0.0000 F8000.0
G0 X73.6476 Y-145.5767 F15000.0
G1 Z11.9000 F8000.0
G1 X75.1304 Y-144.2586 F12000.0
G1 X75.4600 Y-144.0114 F12000.0
G1 Z0.0000 F8000.0
G0 X111.7071 Y-166.0892 F15000.0
G1 Z11.9000 F8000.0
G1 X116.8146 Y-171.1968 F12000.0
G1 Z0.0000 F8000.0
G0 X116.8146 Y-175.3158 F15000.0
G1 Z11.9000 F8000.0
G1 X111.7071 Y-170.2082 F12000.0
G1 Z0.0000 F8000.0
G0 X111.7071 Y-174.3272 F15000.0
G1 Z11.9000 F8000.0
G1 X116.8146 Y-179.4348 F12000.0
G1 Z0.0000 F8000.0
G0 X68.1282 Y-271.0412 F15000.0
G1 Z11.9000 F8000.0
G1 X0.0000 Y-271.0412 F12000.0
G1 Z0.0000 F8000.0
G0 X11.7570 Y-276.3561 F15000.0
G1 Z11.9000 F8000.0
G1 X11.8020 Y-279.7295 F12000.0
G1 X11.8676 Y-280.0543
G1 X11.9266 Y-280.0586
G1 X13.6802 Y-276.7388
G1 X13.8017 Y-276.6229
G1 X13.8739 Y-276.6677
G1 X15.0061 Y-279.5990
G1 X15.4752 Y-280.2173
G1 X15.3075 Y-279.8593
G1 X15.6003 Y-276.3561
G1 Z0.0000 F8000.0
G0 X13.7516 Y-276.5993 F15000.0
G1 Z11.9000 F8000.0
G1 X13.7030 Y-276.5507 F12000.0
G1 Z0.0000 F8000.0
G0 X16.8652 Y-279.1778 F15000.0
G1 Z11.9000 F8000.0
G1 X16.9758 Y-278.0494 F12000.0
G1 X17.2233 Y-277.6898
G1 X17.5447 Y-277.5461
G1 X18.7937 Y-277.6884
G1 X18.9769 Y-277.6447
G1 X19.0058 Y-276.3561
G1 Z0.0000 F8000.0
G0 X19.0058 Y-277.7183 F15000.0
G1 Z11.9000 F8000.0
G1 X19.0406 Y-279.0783 F12000.0
G1 X20.3515 Y-279.3056
G1 X21.1576 Y-280.4030
G1 X21.8855 Y-280.4115
G1 X22.3860 Y-280.0543
G1 X22.6428 Y-279.5068
G1 X22.7408 Y-277.7420
G1 X22.4079 Y-276.6907
G1 X22.2649 Y-276.5746
G1 X21.1932 Y-276.3098
G1 X20.6327 Y-276.7631
G1 X20.4916 Y-277.0820
G1 X20.4109 Y-277.5642
G1 X20.3966 Y-279.3296
G1 X20.6000 Y-279.8982
G1 X21.1464 Y-280.4426
G1 Z0.0000 F8000.0
G0 X23.9680 Y-279.2750 F15000.0
G1 Z11.9000 F8000.0
G1 X24.0167 Y-279.3723 F12000.0
G1 Z0.0000 F8000.0
G0 X24.7464 Y-280.4426 F15000.0
G1 Z11.9000 F8000.0
G1 X25.4762 Y-280.4426 F12000.0
G1 X26.0600 Y-280.0048
G1 X26.2546 Y-279.5183
G1 X26.3519 Y-277.6696
G1 X25.9627 Y-276.5993
G1 X24.8924 Y-276.2588
G1 X24.7464 Y-276.3074
G1 X24.2113 Y-276.7939
G1 X24.2599 Y-276.6966
G1 X24.1140 Y-277.0372
G1 X24.2113 Y-276.7939
G1 X24.0653 Y-277.1345
G1 X24.1140 Y-277.0372
G1 X23.9194 Y-277.9129
G1 X23.9680 Y-279.2750
G1 X24.3086 Y-280.0534
G1 X24.7464 Y-280.4426
G1 Z0.0000 F8000.0
G0 X23.9680 Y-277.4264 F15000.0
G1 Z11.9000 F8000.0
G1 X24.3202 Y-276.6252 F12000.0
G1 X24.7464 Y-276.3074
G1 Z0.0000 F8000.0
G0 X20.6935 Y-276.6735 F15000.0
G1 Z11.9000 F8000.0
G1 X20.3680 Y-277.4264 F12000.0
G1 Z0.0000 F8000.0
G0 X29.4654 Y-278.4967 F15000.0
G1 Z11.9000 F8000.0
G1 X29.6114 Y-278.7399 F12000.0
G1 Z0.0000 F8000.0
G0 X31.6547 Y-280.3940 F15000.0
G1 Z11.9000 F8000.0
G1 X29.9288 Y-280.3403 F12000.0
G1 X29.6559 Y-278.7972
G1 X30.7163 Y-278.9154
G1 X31.3019 Y-278.7211
G1 X31.5288 Y-278.5408
G1 X31.7175 Y-278.2321
G1 X31.8317 Y-277.4900
G1 X31.7214 Y-277.0112
G1 X31.4130 Y-276.5544
G1 X30.3377 Y-276.2859
G1 X29.6653 Y-276.6225
G1 X29.5610 Y-276.8058
G1 X29.8354 Y-276.4544
G1 X30.4223 Y-276.3074
G1 X31.0508 Y-276.3237
G1 X31.4601 Y-276.5993
G1 Z0.0000 F8000.0
G0 X34.4277 Y-277.8642 F15000.0
G1 Z11.9000 F8000.0
G1 X34.4763 Y-277.9615 F12000.0
G1 Z0.0000 F8000.0
G0 X35.4007 Y-276.3074 F15000.0
G1 Z11.9000 F8000.0
G1 X33.1621 Y-276.3686 F12000.0
G1 X33.0509 Y-276.3055
G1 X33.3395 Y-276.9038
G1 X34.1156 Y-277.6171
G1 X33.4710 Y-277.0518
G1 X34.9855 Y-278.4566
G1 X35.3268 Y-279.0839
G1 X35.3709 Y-279.3186
G1 X35.1384 Y-280.1425
G1 X34.6239 Y-280.4301
G1 X33.8713 Y-280.4315
G1 X33.5390 Y-280.2898
G1 X33.7187 Y-280.3955
G1 X33.3334 Y-280.1254
G1 X33.1628 Y-279.8102
G1 Z0.0000 F8000.0
G0 X38.5142 Y-279.2750 F15000.0
G1 Z11.9000 F8000.0
G1 X39.3026 Y-280.4018 F12000.0
G1 X40.0301 Y-280.4123
G1 X40.6043 Y-279.9674
G1 X40.8063 Y-279.3847
G1 X40.8872 Y-277.7439
G1 X40.6520 Y-276.8963
G1 X40.5007 Y-276.6259
G1 X39.5760 Y-276.3052
G1 X39.3412 Y-276.3093
G1 X38.7799 Y-276.7614
G1 X38.6379 Y-277.0818
G1 X38.4733 Y-277.9341
G1 X38.5388 Y-279.3198
G1 X38.7897 Y-279.9600
G1 X39.2926 Y-280.4426
G1 Z0.0000 F8000.0
G0 X42.1143 Y-279.2750 F15000.0
G1 Z11.9000 F8000.0
G1 X42.1630 Y-279.3723 F12000.0
G1 Z0.0000 F8000.0
G0 X42.8927 Y-280.4426 F15000.0
G1 Z11.9000 F8000.0
G1 X43.6224 Y-280.4426 F12000.0
G1 X44.2062 Y-280.0048
G1 X44.4008 Y-279.5183
G1 X44.4981 Y-277.6696
G1 X44.2549 Y-276.8426
G1 X44.1089 Y-276.5993
G1 X44.2062 Y-276.7453
G1 X44.1576 Y-276.6480
G1 X43.0386 Y-276.2588
G1 X42.8927 Y-276.3074
G1 X42.3576 Y-276.7939
G1 X42.4062 Y-276.6966
G1 X42.2603 Y-277.0372
G1 X42.3576 Y-276.7939
G1 X42.2116 Y-277.1345
G1 X42.2603 Y-277.0372
G1 X42.0657 Y-277.9129
G1 X42.1143 Y-279.2750
G1 X42.4549 Y-280.0534
G1 X42.8927 Y-280.4426
G1 Z0.0000 F8000.0
G0 X42.1143 Y-277.4264 F15000.0
G1 Z11.9000 F8000.0
G1 X42.4665 Y-276.6252 F12000.0
G1 X42.8927 Y-276.3074
G1 Z0.0000 F8000.0
G0 X38.8398 Y-276.6735 F15000.0
G1 Z11.9000 F8000.0
G1 X38.5142 Y-277.4264 F12000.0
G1 Z0.0000 F8000.0
G0 X47.5631 Y-277.4264 F15000.0
G1 Z11.9000 F8000.0
G1 X47.8886 Y-276.6735 F12000.0
G1 Z0.0000 F8000.0
G0 X47.5631 Y-279.2750 F15000.0
G1 Z11.9000 F8000.0
G1 X48.3514 Y-280.4018 F12000.0
G1 X49.0789 Y-280.4123
G1 X49.6531 Y-279.9674
G1 X49.8551 Y-279.3847
G1 X49.9360 Y-277.7439
G1 X49.7008 Y-276.8963
G1 X49.5496 Y-276.6259
G1 X48.6248 Y-276.3052
G1 X48.3901 Y-276.3093
G1 X47.8287 Y-276.7614
G1 X47.6867 Y-277.0818
G1 X47.6061 Y-277.5623
G1 X47.5912 Y-279.3278
G1 X47.7943 Y-279.8964
G1 X48.3414 Y-280.4426
G1 Z0.0000 F8000.0
G0 X52.7686 Y-280.4913 F15000.0
G1 Z11.9000 F8000.0
G1 X52.5434 Y-279.9271 F12000.0
G1 X51.4214 Y-279.2440
G1 X52.5881 Y-279.8944
G1 X52.6713 Y-276.3561
G1 Z0.0000 F8000.0
G0 X68.1282 Y-271.0412 F15000.0
G1 Z11.9000 F8000.0
G1 X68.1282 Y-284.6338 F12000.0
G1 Z0.0000 F8000.0
G0 X63.2677 Y-58.9131 F15000.0
G1 Z11.9000 F8000.0
G1 X63.2677 Y-5.3662 F12000.0
G1 Z0.0000 F8000.0
G0 X63.2677 Y-10.2266 F15000.0
G1 Z11.9000 F8000.0
G1 X0.0000 Y-10.2266 F12000.0
G1 Z0.0000 F8000.0
G0 X1.6976 Y-11.5119 F15000.0
G1 Z11.9000 F8000.0
G1 X2.3541 Y-10.4452 F12000.0
G1 X2.6934 Y-10.5286
G1 X2.5338 Y-10.3534
G1 X2.7057 Y-10.5165
G1 X2.6180 Y-10.3647
G1 Z0.0000 F8000.0
G0 X3.1495 Y-11.3979 F15000.0
G1 Z11.9000 F8000.0
G1 X2.2465 Y-9.6252 F12000.0
G1 X1.9708 Y-9.5745
G1 X2.7968 Y-10.5750
G1 X3.4736 Y-10.8999
G1 X4.5593 Y-10.9767
G1 X4.1650 Y-10.9163
G1 X4.2436 Y-9.6863
G1 X5.2698 Y-10.3262
G1 X5.8956 Y-10.3001
G1 X6.2002 Y-10.1560
G1 X6.1367 Y-10.7353
G1 X6.2159 Y-9.7344
G1 X5.8958 Y-9.6287
G1 X5.3379 Y-10.1214
G1 X5.2411 Y-10.3096
G1 X5.9788 Y-10.9767
G1 Z0.0000 F8000.0
G0 X3.9940 Y-12.3971 F15000.0
G1 Z11.9000 F8000.0
G1 X4.0185 Y-13.0138 F12000.0
G1 X4.5122 Y-13.3358
G1 X4.8697 Y-13.8080
G1 Z0.0000 F8000.0
G0 X3.9940 Y-13.7593 F15000.0
G1 Z11.9000 F8000.0
G1 X4.0688 Y-13.1917 F12000.0
G1 X4.5320 Y-12.9236
G1 X4.4475 Y-13.1616
G1 X4.4462 Y-13.0537
G1 X4.8419 Y-12.4773
G1 X5.3742 Y-12.8527
G1 X5.4642 Y-13.4566
G1 X5.7231 Y-13.7626
G1 X5.6613 Y-13.7138
G1 X6.0546 Y-13.8066
G1 X6.3885 Y-13.6940
G1 X6.4976 Y-13.5011
G1 X6.5914 Y-12.7606
G1 X6.4655 Y-12.5662
G1 X6.0061 Y-12.3867
G1 X5.7840 Y-12.4346
G1 X5.4501 Y-12.7348
G1 X5.6066 Y-12.5057
G1 X5.7943 Y-12.4117
G1 X7.1476 Y-12.4311
G1 X7.2049 Y-13.6758
G1 X7.2495 Y-13.1636
G1 X8.1852 Y-13.0414
G1 X8.2694 Y-12.5023
G1 X8.3082 Y-13.7027
G1 X8.7533 Y-13.7983
G1 X9.9293 Y-13.8080
G1 Z0.0000 F8000.0
G0 X9.3455 Y-13.8080 F15000.0
G1 Z11.9000 F8000.0
G1 X9.4267 Y-12.4567 F12000.0
G1 X10.5015 Y-12.5258
G1 X11.2125 Y-12.4151
G1 X11.5085 Y-12.6368
G1 X11.6087 Y-12.8475
G1 X11.5147 Y-13.5858
G1 X11.2233 Y-13.7401
G1 X10.6242 Y-13.6397
G1 X10.4828 Y-12.8160
G1 X10.5400 Y-11.8412
G1 X11.5347 Y-12.6404
G1 Z0.0000 F8000.0
G0 X16.5584 Y-5.3662 F15000.0
G1 Z11.9000 F8000.0
G1 X16.5584 Y-58.9131 F12000.0
G1 Z0.0000 F8000.0
G0 X6.8375 Y-58.9131 F15000.0
G1 Z11.9000 F8000.0
G1 X6.8375 Y-34.6110 F12000.0
G1 Z0.0000 F8000.0
G0 X7.0322 Y-33.7740 F15000.0
G1 Z11.9000 F8000.0
G1 X6.9835 Y-33.6767 F12000.0
G1 Z0.0000 F8000.0
G0 X6.0105 Y-33.6281 F15000.0
G1 Z11.9000 F8000.0
G1 X6.6090 Y-33.4656 F12000.0
G1 X6.9537 Y-33.6738
G1 X7.0534 Y-33.8835
G1 X6.9541 Y-34.6183
G1 X6.7913 Y-34.7864
G1 X6.3112 Y-34.7830
G1 X6.0347 Y-34.5866
G1 X5.9619 Y-32.8497
G1 Z0.0000 F8000.0
G0 X4.5997 Y-33.4821 F15000.0
G1 Z11.9000 F8000.0
G1 X4.9537 Y-33.5084 F12000.0
G1 X5.2593 Y-33.6790
G1 X5.1374 Y-34.0914
G1 X4.9895 Y-34.1613
G1 X5.1659 Y-34.2345
G1 X5.2064 Y-34.6867
G1 X4.9093 Y-34.8190
G1 X4.6829 Y-34.7871
G1 X4.5024 Y-34.6011
G1 Z0.0000 F8000.0
G0 X3.7240 Y-34.7957 F15000.0
G1 Z11.9000 F8000.0
G1 X3.8463 Y-34.3069 F12000.0
G1 X3.8469 Y-33.5404
G1 X3.5339 Y-33.6381
G1 X3.1633 Y-34.0785
G1 X3.7874 Y-34.1648
G1 X3.9082 Y-33.5007
G1 X3.0396 Y-33.4782
G1 X2.9063 Y-33.9705
G1 X3.0307 Y-34.0547
G1 X2.8451 Y-33.6594
G1 X2.9294 Y-34.5656
G1 X3.6267 Y-34.8443
G1 Z0.0000 F8000.0
G0 X2.3132 Y-34.7470 F15000.0
G1 Z11.9000 F8000.0
G1 X2.2216 Y-35.1175 F12000.0
G1 X1.0302 Y-35.3861
G1 X0.9447 Y-35.2305
G1 X0.9053 Y-33.5713
G1 X1.0077 Y-34.3380
G1 X2.2645 Y-34.6497
G1 Z0.0000 F8000.0
G0 X0.0000 Y-34.6110 F15000.0
G1 Z11.9000 F8000.0
G1 X63.2677 Y-34.6110 F12000.0
G1 Z0.0000 F8000.0
G0 X61.3329 Y-36.7023 F15000.0
G1 Z11.9000 F8000.0
G1 X61.2824 Y-36.6252 F12000.0
G1 X60.9984 Y-36.5812
G1 X61.0648 Y-36.6541
G1 Z0.0000 F8000.0
G0 X61.2816 Y-37.3549 F15000.0
G1 Z11.9000 F8000.0
G1 X61.3474 Y-36.6094 F12000.0
G1 X60.3198 Y-36.5687
G1 X60.1327 Y-36.8465
G1 X60.3872 Y-37.2479
G1 X61.2813 Y-37.5499
G1 X61.2491 Y-37.8853
G1 X60.9553 Y-38.0884
G1 X60.4653 Y-38.0569
G1 X60.2930 Y-37.9560
G1 X60.3350 Y-38.0163
G1 Z0.0000 F8000.0
G0 X59.6540 Y-38.0650 F15000.0
G1 Z11.9000 F8000.0
G1 X58.6492 Y-38.0623 F12000.0
G1 X58.4294 Y-37.9866
G1 X57.9675 Y-37.4165
G1 X57.9578 Y-36.6936
G1 X57.1985 Y-36.5360
G1 X56.9629 Y-36.5688
G1 X56.7759 Y-36.8465
G1 X57.1354 Y-37.3017
G1 X57.8557 Y-37.4793
G1 X57.9366 Y-37.7767
G1 X57.8111 Y-37.9723
G1 X57.5985 Y-38.0884
G1 X57.1085 Y-38.0569
G1 X56.9361 Y-37.9560
G1 X56.9782 Y-38.0163
G1 Z0.0000 F8000.0
G0 X59.0215 Y-38.0650 F15000.0
G1 Z11.9000 F8000.0
G1 X59.0702 Y-36.6055 F12000.0
G1 Z0.0000 F8000.0
G0 X54.8377 Y-38.7461 F15000.0
G1 Z11.9000 F8000.0
G1 X55.8761 Y-38.6868 F12000.0
G1 X55.9716 Y-36.6351
G1 X56.1225 Y-36.5474
G1 X56.1820 Y-36.1239
G1 X55.8424 Y-36.5848
G1 X54.6102 Y-36.6260
G1 X54.3136 Y-36.1157
G1 X54.3171 Y-36.4289
G1 X54.5878 Y-36.7915
G1 X54.6894 Y-37.1528
G1 X54.7890 Y-38.6488
G1 Z0.0000 F8000.0
G0 X49.2865 Y-36.9298 F15000.0
G1 Z11.9000 F8000.0
G1 X49.2072 Y-38.2124 F12000.0
G1 X48.2633 Y-36.9441
G1 X47.7139 Y-36.5114
G1 X47.5586 Y-36.8775
G1 X46.5107 Y-36.9283
G1 X47.3807 Y-36.9077
G1 X47.4543 Y-36.9689
G1 X47.3954 Y-38.2060
G1 X46.5014 Y-37.0417
G1 X46.2428 Y-36.5750
G1 X46.2703 Y-36.8811
G1 Z0.0000 F8000.0
G0 X45.7838 Y-38.0974 F15000.0
G1 Z11.9000 F8000.0
G1 X45.5674 Y-38.2400 F12000.0
G1 X45.7428 Y-37.9999
G1 X45.8491 Y-37.2640
G1 X45.6728 Y-36.9892
G1 X45.7160 Y-37.0621
G1 X45.3069 Y-36.9132
G1 X44.9611 Y-36.9921
G1 X44.8081 Y-37.1641
G1 X44.6905 Y-37.5151
G1 X44.9079 Y-38.1448
G1 X45.4919 Y-38.2920
G1 Z0.0000 F8000.0
G0 X44.0324 Y-36.9298 F15000.0
G1 Z11.9000 F8000.0
G1 X43.9278 Y-38.7791 F12000.0
G1 X42.5729 Y-36.9298
G1 Z0.0000 F8000.0
G0 X34.5082 Y-36.5338 F15000.0
G1 Z11.9000 F8000.0
G1 X34.3498 Y-37.4550 F12000.0
G1 X34.3794 Y-37.8143
G1 X34.1258 Y-37.5532
G1 X33.8991 Y-36.9142
G1 X34.0281 Y-37.3307
G1 X33.6914 Y-36.6984
G1 X33.8481 Y-36.8372
G1 X33.9963 Y-37.2386
G1 X33.6660 Y-36.7443
G1 X33.0367 Y-37.7423
G1 X33.1669 Y-37.6071
G1 X32.9255 Y-37.6175
G1 X32.8259 Y-36.5536
G1 X32.6352 Y-36.5128
G1 X31.6516 Y-36.6630
G1 X31.0541 Y-37.8960
G1 Z0.0000 F8000.0
G0 X30.6163 Y-38.1392 F15000.0
G1 Z11.9000 F8000.0
G1 X31.0174 Y-37.9527 F12000.0
G1 X30.9953 Y-37.8981
G1 X30.4582 Y-37.9739
G1 Z0.0000 F8000.0
G0 X30.4217 Y-38.0419 F15000.0
G1 Z11.9000 F8000.0
G1 X29.9079 Y-37.3857 F12000.0
G1 X29.5460 Y-37.9933
G1 Z0.0000 F8000.0
G0 X30.0008 Y-37.4039 F15000.0
G1 Z11.9000 F8000.0
G1 X29.5802 Y-37.2167 F12000.0
G1 X29.5668 Y-36.5604
G1 X30.0119 Y-37.1416
G1 X30.9841 Y-35.9171
G1 X31.1605 Y-35.8070
G1 X31.4522 Y-35.9718
G1 X31.5847 Y-36.5690
G1 X31.8436 Y-36.9362
G1 X32.2703 Y-38.0419
G1 Z0.0000 F8000.0
G0 X27.6000 Y-37.7014 F15000.0
G1 Z11.9000 F8000.0
G1 X27.9870 Y-38.0419 F12000.0
G1 X28.3563 Y-38.0691
G1 X28.5549 Y-37.9578
G1 X28.8290 Y-37.0028
G1 X28.7664 Y-36.7797
G1 X28.5353 Y-36.4941
G1 X28.3092 Y-36.4197
G1 X27.6537 Y-36.7215
G1 X27.5625 Y-36.9445
G1 X27.5513 Y-37.6041
G1 Z0.0000 F8000.0
G0 X26.7729 Y-36.5338 F15000.0
G1 Z11.9000 F8000.0
G1 X26.9468 Y-36.3845 F12000.0
G1 X27.0162 Y-35.9500
G1 Z0.0000 F8000.0
G0 X25.3135 Y-35.9500 F15000.0
G1 Z11.9000 F8000.0
G1 X25.3621 Y-36.4365 F12000.0
G1 Z0.0000 F8000.0
G0 X25.8486 Y-38.0419 F15000.0
G1 Z11.9000 F8000.0
G1 X26.7729 Y-36.5338 F12000.0
G1 X25.3621 Y-36.4365
G1 X25.5567 Y-36.7284
G1 X25.8486 Y-38.0419
G1 Z0.0000 F8000.0
G0 X23.8905 Y-37.2635 F15000.0
G1 Z11.9000 F8000.0
G1 X23.9627 Y-37.4967 F12000.0
G1 X23.8667 Y-37.9891
G1 X23.3762 Y-38.1340
G1 X23.7258 Y-38.1115
G1 X23.8531 Y-38.0128
G1 X23.1657 Y-37.9823
G1 X23.1522 Y-37.3051
G1 X23.8548 Y-36.6452
G1 X23.8385 Y-37.2178
G1 X23.4743 Y-37.1102
G1 X23.3067 Y-37.1662
G1 Z0.0000 F8000.0
G0 X22.5283 Y-38.6257 F15000.0
G1 Z11.9000 F8000.0
G1 X22.4906 Y-36.9600 F12000.0
G1 X22.4003 Y-36.7401
G1 X22.1252 Y-36.9200
G1 X21.5721 Y-37.8089
G1 X21.0741 Y-38.2770
G1 X20.9735 Y-38.0344
G1 X20.9715 Y-36.4851
G1 Z0.0000 F8000.0
G0 X21.1107 Y-33.0887 F15000.0
G1 Z11.9000 F8000.0
G1 X20.7335 Y-32.0970 F12000.0
G1 X20.8036 Y-32.2262
G1 X20.6249 Y-32.0133
G1 X20.4934 Y-31.4411
G1 X20.3553 Y-31.2467
G1 X20.2027 Y-31.1878
G1 X20.5189 Y-32.0103
G1 X20.4321 Y-32.1380
G1 Z0.0000 F8000.0
G0 X20.8171 Y-32.3197 F15000.0
G1 Z11.9000 F8000.0
G1 X20.4535 Y-32.1925 F12000.0
G1 X20.0271 Y-33.1581
G1 X19.5877 Y-33.3443
G1 X19.2628 Y-33.6451
G1 X18.5532 Y-33.7383
G1 X18.1860 Y-33.5339
G1 X18.3780 Y-33.7017
G1 X18.1133 Y-33.3952
G1 X17.9470 Y-32.8080
G1 X17.9795 Y-32.5730
G1 X18.2497 Y-31.9957
G1 Z0.0000 F8000.0
G0 X18.3920 Y-31.9008 F15000.0
G1 Z11.9000 F8000.0
G1 X18.9595 Y-31.7996 F12000.0
G1 X19.3817 Y-32.0162
G1 X19.3087 Y-31.9434
G1 X19.5307 Y-32.2804
G1 Z0.0000 F8000.0
G0 X19.5930 Y-30.7423 F15000.0
G1 Z11.9000 F8000.0
G1 X20.1114 Y-29.6187 F12000.0
G1 X20.1860 Y-29.5994
G1 X20.3382 Y-29.7468
G1 X20.7088 Y-30.6599
G1 X21.2570 Y-30.5877
G1 X21.8491 Y-30.7027
G1 X22.0807 Y-30.3485
G1 X21.9260 Y-30.6753
G1 X22.0339 Y-30.1406
G1 X21.9904 Y-30.0534
G1 X21.7820 Y-30.0125
G1 X22.0155 Y-29.8905
G1 X22.1027 Y-29.4425
G1 X21.7937 Y-29.3049
G1 X21.3782 Y-29.3912
G1 X21.4904 Y-29.3314
G1 Z0.0000 F8000.0
G0 X20.2255 Y-29.5747 F15000.0
G1 Z11.9000 F8000.0
G1 X20.0410 Y-28.9597 F12000.0
G1 X19.7650 Y-28.7037
G1 X19.9716 Y-28.8326
G1 X19.9336 Y-28.6990
G1 Z0.0000 F8000.0
G0 X18.9119 Y-29.3314 F15000.0
G1 Z11.9000 F8000.0
G1 X18.8440 Y-31.2917 F12000.0
G1 X17.4038 Y-29.3801
G1 Z0.0000 F8000.0
G0 X21.6657 Y-32.5650 F15000.0
G1 Z11.9000 F8000.0
G1 X22.4854 Y-32.4528 F12000.0
G1 X22.5819 Y-32.1177
G1 X22.5671 Y-31.8534
G1 Z0.0000 F8000.0
G0 X22.5671 Y-33.0395 F15000.0
G1 Z11.9000 F8000.0
G1 X22.4925 Y-33.1201 F12000.0
G1 X22.6576 Y-32.0816
G1 X22.6578 Y-32.1922
G1 X22.6269 Y-31.9493
G1 X22.3977 Y-31.8437
G1 X21.7045 Y-32.4779
G1 X21.7864 Y-32.6594
G1 X22.4672 Y-33.1505
G1 X23.2796 Y-33.0145
G1 X23.8963 Y-33.1651
G1 X23.3901 Y-32.9920
G1 X23.2198 Y-32.5433
G1 X23.2325 Y-32.3097
G1 X23.3846 Y-31.9861
G1 X23.6904 Y-31.8319
G1 X24.1410 Y-31.9680
G1 X24.3390 Y-32.2438
G1 X24.2128 Y-32.9542
G1 X24.0715 Y-33.1323
G1 X24.3129 Y-33.0291
G1 X24.8824 Y-33.1365
G1 X24.9857 Y-32.8543
G1 X24.9446 Y-31.3223
G1 X25.0105 Y-31.9210
G1 X25.5365 Y-31.8362
G1 X25.8473 Y-31.9464
G1 X26.0103 Y-32.3224
G1 X25.9236 Y-32.9270
G1 X25.6772 Y-33.1550
G1 X25.4391 Y-33.1519
G1 X24.9867 Y-32.9920
G1 Z0.0000 F8000.0
G0 X24.2751 Y-32.0431 F15000.0
G1 Z11.9000 F8000.0
G1 X24.0853 Y-31.8534 F12000.0
G1 Z0.0000 F8000.0
G0 X24.6039 Y-30.6936 F15000.0
G1 Z11.9000 F8000.0
G1 X24.6039 Y-29.3314 F12000.0
G1 Z0.0000 F8000.0
G0 X22.9012 Y-29.3314 F15000.0
G1 Z11.9000 F8000.0
G1 X23.8457 Y-29.4547 F12000.0
G1 X23.9376 Y-30.1187
G1 X25.6336 Y-29.9753
G1 X25.7172 Y-29.4362
G1 X25.7562 Y-30.6360
G1 X25.9514 Y-30.7002
G1 X27.2060 Y-30.7115
G1 X27.4720 Y-30.5053
G1 X27.5943 Y-30.1692
G1 X27.4667 Y-29.5630
G1 X27.2775 Y-29.3521
G1 X26.9148 Y-29.3021
G1 X26.7025 Y-29.4008
G1 X26.4015 Y-29.7930
G1 X26.3863 Y-30.2599
G1 X26.5871 Y-30.5939
G1 X26.4194 Y-30.3032
G1 X26.4514 Y-29.6789
G1 X26.5416 Y-29.4743
G1 X26.7445 Y-29.3314
G1 Z0.0000 F8000.0
G0 X28.2040 Y-30.0612 F15000.0
G1 Z11.9000 F8000.0
G1 X29.2536 Y-29.7713 F12000.0
G1 X28.9677 Y-29.3452
G1 X28.2489 Y-29.9647
G1 X28.3245 Y-30.1438
G1 X29.0378 Y-30.6347
G1 X29.1249 Y-30.6229
G1 X29.2014 Y-30.4265
G1 X29.1697 Y-29.9644
G1 X29.3050 Y-29.8837
G1 X30.1007 Y-30.6333
G1 X30.7103 Y-30.7124
G1 X30.9806 Y-30.4917
G1 X30.9641 Y-30.1795
G1 X30.1391 Y-29.9677
G1 X29.8944 Y-29.6591
G1 X29.9456 Y-29.4434
G1 X30.2534 Y-29.3098
G1 X30.9686 Y-29.4719
G1 X31.0257 Y-30.1585
G1 Z0.0000 F8000.0
G0 X30.7778 Y-31.8534 F15000.0
G1 Z11.9000 F8000.0
G1 X31.9840 Y-31.8412 F12000.0
G1 X32.0383 Y-31.9196
G1 X31.9879 Y-33.6762
G1 X30.8652 Y-31.9864
G1 X30.6048 Y-31.4195
G1 X30.7026 Y-31.7808
G1 X32.0320 Y-31.8428
G1 X32.2232 Y-31.7554
G1 X32.2960 Y-31.3315
G1 Z0.0000 F8000.0
G0 X33.9565 Y-31.9957 F15000.0
G1 Z11.9000 F8000.0
G1 X33.8480 Y-32.1132 F12000.0
G1 X33.6585 Y-32.6901
G1 X33.8627 Y-33.5117
G1 X34.2290 Y-33.7343
G1 X34.9413 Y-33.6590
G1 X35.1854 Y-33.2978
G1 X35.1890 Y-32.2026
G1 X35.0261 Y-31.9572
G1 X34.5633 Y-31.7881
G1 X34.0989 Y-31.9008
G1 Z0.0000 F8000.0
G0 X29.2092 Y-31.8534 F15000.0
G1 Z11.9000 F8000.0
G1 X29.2991 Y-32.1262 F12000.0
G1 X29.2474 Y-32.3533
G1 X28.9593 Y-32.5242
G1 X28.2441 Y-32.5000
G1 X27.4538 Y-31.8534
G1 Z0.0000 F8000.0
G0 X27.6436 Y-32.9920 F15000.0
G1 Z11.9000 F8000.0
G1 X27.4254 Y-33.1380 F12000.0
G1 X27.6269 Y-32.8084
G1 X27.7103 Y-32.3246
G1 X27.6546 Y-32.1127
G1 X27.2617 Y-31.8550
G1 X27.0260 Y-31.8394
G1 X26.8149 Y-31.9375
G1 X26.5941 Y-32.3430
G1 X26.6868 Y-32.9151
G1 X26.8046 Y-33.0505
G1 X27.3589 Y-33.1818
G1 Z0.0000 F8000.0
G0 X29.0669 Y-33.1818 F15000.0
G1 Z11.9000 F8000.0
G1 X28.3473 Y-32.5218 F12000.0
G1 X28.4500 Y-32.3396
G1 X28.9960 Y-31.8600
G1 X29.1004 Y-31.8454
G1 X29.3236 Y-32.0690
G1 X29.2092 Y-33.0395
G1 Z0.0000 F8000.0
G0 X22.9012 Y-30.6450 F15000.0
G1 Z11.9000 F8000.0
G1 X23.5261 Y-30.7150 F12000.0
G1 X23.7356 Y-30.6119
G1 X23.8589 Y-30.4115
G1 X23.8355 Y-30.1953
G1 X23.1348 Y-30.0196
G1 X22.7632 Y-29.7205
G1 X22.7524 Y-29.5594
G1 X22.9985 Y-30.0125
G1 Z0.0000 F8000.0
G0 X14.3694 Y-36.6704 F15000.0
G1 Z11.9000 F8000.0
G1 X14.3208 Y-38.0326 F12000.0
G1 Z0.0000 F8000.0
G0 X14.8559 Y-38.0326 F15000.0
G1 Z11.9000 F8000.0
G1 X13.0674 Y-37.9914 F12000.0
G1 X12.4959 Y-37.7658
G1 X12.3917 Y-37.2966
G1 X12.4578 Y-36.9420
G1 X12.9832 Y-36.6595
G1 X13.3836 Y-36.8306
G1 X13.3478 Y-36.7677
G1 Z0.0000 F8000.0
G0 X11.7424 Y-36.6704 F15000.0
G1 Z11.9000 F8000.0
G1 X11.5659 Y-37.6688 F12000.0
G1 X11.3268 Y-37.4909
G1 X10.9797 Y-36.9938
G1 X10.8329 Y-36.9311
G1 X10.9307 Y-36.9836
G1 X10.7395 Y-37.0044
G1 X10.6721 Y-37.9839
G1 Z0.0000 F8000.0
G0 X11.5478 Y-37.7407 F15000.0
G1 Z11.9000 F8000.0
G1 X11.6994 Y-37.8903 F12000.0
G1 X11.1046 Y-37.1771
G1 X10.5732 Y-36.8567
G1 X9.9979 Y-36.7203
G1 X9.8765 Y-38.5222
G1 X9.8166 Y-38.5904
G1 X8.8720 Y-38.6164
G1 Z0.0000 F8000.0
G0 X8.8234 Y-38.5191 F15000.0
G1 Z11.9000 F8000.0
G1 X8.7731 Y-36.8402 F12000.0
G1 X8.6933 Y-36.6474
G1 X8.5315 Y-36.5731
G1 Z0.0000 F8000.0
G0 X10.5836 Y-35.4768 F15000.0
G1 Z11.9000 F8000.0
G1 X9.6173 Y-35.2891 F12000.0
G1 X9.4924 Y-35.1482
G1 X9.3992 Y-34.8069
G1 X9.4899 Y-33.7655
G1 X9.6343 Y-33.5729
G1 X9.9705 Y-33.4726
G1 X10.3237 Y-33.5917
G1 X10.5022 Y-33.7469
G1 X10.5565 Y-33.9754
G1 X10.3751 Y-34.6918
G1 X10.1723 Y-34.8043
G1 X9.8054 Y-34.8052
G1 X9.5413 Y-34.6749
G1 X10.2082 Y-34.7658
G1 X10.4049 Y-34.6748
G1 X10.4834 Y-34.4761
G1 X10.4376 Y-33.6281
G1 Z0.0000 F8000.0
G0 X8.7349 Y-33.4821 F15000.0
G1 Z11.9000 F8000.0
G1 X8.6209 Y-33.6613 F12000.0
G1 X8.6682 Y-34.2704
G1 X8.5311 Y-34.7407
G1 X8.3403 Y-34.8017
G1 X7.7749 Y-34.5888
G1 X7.6683 Y-33.7499
G1 X7.7411 Y-33.5371
G1 X7.9521 Y-33.4574
G1 X8.7254 Y-33.4945
G1 X8.6082 Y-34.1567
G1 X7.9771 Y-34.0853
G1 X8.4327 Y-33.5833
G1 X8.5890 Y-33.5794
G1 Z0.0000 F8000.0
G0 X6.2009 Y-36.6704 F15000.0
G1 Z11.9000 F8000.0
G1 X6.0898 Y-37.6477 F12000.0
G1 X5.8790 Y-37.5132
G1 X5.5110 Y-36.7663
G1 X4.8497 Y-37.7274
G1 X4.7488 Y-36.7520
G1 X4.7498 Y-37.6480
G1 X3.4042 Y-37.8453
G1 X3.6421 Y-38.0124
G1 X3.9859 Y-37.9376
G1 X4.0303 Y-37.4951
G1 X3.8251 Y-37.3522
G1 X3.9809 Y-37.2610
G1 X4.1049 Y-36.9371
G1 X4.0720 Y-36.8517
G1 X3.6407 Y-36.6576
G1 X2.6675 Y-36.6995
G1 X2.5824 Y-36.8839
G1 X2.4756 Y-38.1372
G1 X2.5614 Y-38.4000
G1 X2.0595 Y-37.8634
G1 X2.2524 Y-38.1163
G1 X1.5503 Y-37.1432
G1 X1.2391 Y-36.8376
G1 X1.1413 Y-38.5677
G1 Z0.0000 F8000.0
G0 X0.0000 Y-39.4714 F15000.0
G1 Z11.9000 F8000.0
G1 X63.2677 Y-39.4714 F12000.0
G1 Z0.0000 F8000.0
G0 X63.2677 Y-44.3318 F15000.0
G1 Z11.9000 F8000.0
G1 X0.0000 Y-44.3318 F12000.0
G1 Z0.0000 F8000.0
G0 X0.0000 Y-49.1922 F15000.0
G1 Z11.9000 F8000.0
G1 X63.2677 Y-49.1922 F12000.0
G1 Z0.0000 F8000.0
G0 X63.2677 Y-44.3318 F15000.0
G1 Z11.9000 F8000.0
G1 X180.0000 Y-44.3318 F12000.0
G1 Z0.0000 F8000.0
G0 X178.0591 Y-43.6779 F15000.0
G1 Z11.9000 F8000.0
G1 X176.9660 Y-43.3808 F12000.0
G1 X176.7468 Y-43.0607
G1 X176.7453 Y-42.7254
G1 X177.7972 Y-42.7511
G1 X178.0533 Y-42.3572
G1 X178.0890 Y-42.1113
G1 X178.0186 Y-41.8944
G1 X177.2979 Y-41.2470
G1 X177.0255 Y-41.4300
G1 X176.7385 Y-42.5029
G1 X177.0472 Y-42.7633
G1 X176.7456 Y-42.5589
G1 Z0.0000 F8000.0
G0 X175.9186 Y-42.2670 F15000.0
G1 Z11.9000 F8000.0
G1 X175.9507 Y-41.6397 F12000.0
G1 X175.8626 Y-41.4231
G1 X175.2391 Y-41.2300
G1 X174.7806 Y-41.5036
G1 X175.7846 Y-42.1852
G1 X175.9075 Y-42.3709
G1 X175.8661 Y-42.7165
G1 X175.1660 Y-42.8767
G1 X174.8989 Y-42.8121
G1 X174.9942 Y-42.8995
G1 Z0.0000 F8000.0
G0 X174.1672 Y-42.8995 F15000.0
G1 Z11.9000 F8000.0
G1 X172.9509 Y-42.8995 F12000.0
G1 Z0.0000 F8000.0
G0 X172.4158 Y-42.8508 F15000.0
G1 Z11.9000 F8000.0
G1 X171.3941 Y-41.2940 F12000.0
G1 Z0.0000 F8000.0
G0 X171.3455 Y-42.8508 F15000.0
G1 Z11.9000 F8000.0
G1 X171.3216 Y-41.3499 F12000.0
G1 X171.1500 Y-41.2638
G1 X170.5251 Y-41.3247
G1 X170.3494 Y-41.4187
G1 X170.3239 Y-42.8508
G1 Z0.0000 F8000.0
G0 X169.6428 Y-42.6076 F15000.0
G1 Z11.9000 F8000.0
G1 X169.4021 Y-42.8716 F12000.0
G1 X168.8039 Y-42.8487
G1 X168.5683 Y-42.5704
G1 X168.4480 Y-41.9606
G1 X168.6910 Y-41.4003
G1 X169.1316 Y-41.2344
G1 X169.4757 Y-41.3608
G1 X169.6481 Y-41.5575
G1 X169.5941 Y-41.4400
G1 Z0.0000 F8000.0
G0 X167.7454 Y-41.4886 F15000.0
G1 Z11.9000 F8000.0
G1 X167.7469 Y-42.1683 F12000.0
G1 X167.6793 Y-41.4261
G1 X167.0521 Y-41.2339
G1 X166.6130 Y-41.5116
G1 X167.6239 Y-42.1938
G1 X167.7380 Y-42.3843
G1 X167.6839 Y-42.7261
G1 X166.9777 Y-42.8780
G1 X166.7289 Y-42.8173
G1 X166.8211 Y-42.8995
G1 Z0.0000 F8000.0
G0 X165.6048 Y-43.2887 F15000.0
G1 Z11.9000 F8000.0
G1 X165.2099 Y-42.6448 F12000.0
G1 X165.5914 Y-43.1900
G1 X165.7021 Y-41.2940
G1 Z0.0000 F8000.0
G0 X164.7292 Y-41.4886 F15000.0
G1 Z11.9000 F8000.0
G1 X164.9769 Y-41.9893 F12000.0
G1 X164.8955 Y-41.7140
G1 X165.0802 Y-42.2796
G1 X164.6877 Y-41.5621
G1 X163.8576 Y-43.0450
G1 X163.6737 Y-43.2327
G1 X163.6952 Y-43.3461
G1 X163.6102 Y-41.3427
G1 Z0.0000 F8000.0
G0 X162.5355 Y-44.3318 F15000.0
G1 Z11.9000 F8000.0
G1 X162.5355 Y-24.8078 F12000.0
G1 Z0.0000 F8000.0
G0 X162.1612 Y-23.4200 F15000.0
G1 Z11.9000 F8000.0
G1 X162.6130 Y-23.4835 F12000.0
G1 X163.1348 Y-23.1734
G1 X163.2609 Y-22.5704
G1 X163.1758 Y-22.2080
G1 X163.0306 Y-22.0385
G1 X162.3170 Y-21.8495
G1 X162.2137 Y-21.8951
G1 X161.8674 Y-22.4043
G1 X161.9184 Y-23.0138
G1 X162.1011 Y-23.3509
G1 X161.9145 Y-23.1484
G1 X161.3014 Y-23.4577
G1 X160.1666 Y-23.4687
G1 Z0.0000 F8000.0
G0 X160.7017 Y-23.4687 F15000.0
G1 Z11.9000 F8000.0
G1 X160.7504 Y-21.8632 F12000.0
G1 Z0.0000 F8000.0
G0 X159.7287 Y-22.2524 F15000.0
G1 Z11.9000 F8000.0
G1 X159.5250 Y-21.9935 F12000.0
G1 X158.9307 Y-21.8460
G1 X158.6205 Y-21.9900
G1 X158.4495 Y-22.3132
G1 X158.4643 Y-22.9340
G1 X158.7160 Y-23.3495
G1 X159.0511 Y-23.4895
G1 X159.5341 Y-23.3714
G1 Z0.0000 F8000.0
G0 X157.6854 Y-21.9119 F15000.0
G1 Z11.9000 F8000.0
G1 X157.2445 Y-22.8060 F12000.0
G1 X157.2684 Y-22.9071
G1 X157.5614 Y-23.1283
G1 X157.3008 Y-22.9627
G1 X156.8882 Y-22.3737
G1 X156.5475 Y-22.2240
G1 X156.5131 Y-23.3567
G1 X157.1846 Y-22.9317
G1 X156.9194 Y-22.4237
G1 X156.5207 Y-22.0279
G1 X156.5179 Y-22.1065
G1 Z0.0000 F8000.0
G0 X155.5935 Y-21.9119 F15000.0
G1 Z11.9000 F8000.0
G1 X155.5264 Y-24.1184 F12000.0
G1 X154.1724 Y-21.9013
G1 X153.9881 Y-21.8146
G1 Z0.0000 F8000.0
G0 X151.4142 Y-19.9474 F15000.0
G1 Z11.9000 F8000.0
G1 X151.4142 Y-24.8078 F12000.0
G1 Z0.0000 F8000.0
G0 X145.9771 Y-24.8078 F15000.0
G1 Z11.9000 F8000.0
G1 X145.9771 Y-44.3318 F12000.0
G1 Z0.0000 F8000.0
G0 X149.1025 Y-41.8025 F15000.0
G1 Z11.9000 F8000.0
G1 X149.1742 Y-43.4877 F12000.0
G1 X149.2512 Y-43.5929
G1 X150.0412 Y-42.0961
G1 X150.2055 Y-42.0810
G1 X150.4701 Y-42.6473
G1 X150.1206 Y-42.0041
G1 X150.1728 Y-42.0458
G1 Z0.0000 F8000.0
G0 X151.0971 Y-41.8512 F15000.0
G1 Z11.9000 F8000.0
G1 X150.9527 Y-43.3852 F12000.0
G1 X151.0153 Y-43.6464
G1 X150.6757 Y-43.1939
G1 X150.5340 Y-42.8048
G1 X150.6106 Y-43.0674
G1 Z0.0000 F8000.0
G0 X151.9728 Y-43.1647 F15000.0
G1 Z11.9000 F8000.0
G1 X152.1740 Y-43.2581 F12000.0
G1 X152.8658 Y-42.6887
G1 X151.9688 Y-42.3983
G1 X151.8150 Y-42.0845
G1 X151.9854 Y-41.7893
G1 X152.2098 Y-41.7400
G1 X152.8986 Y-41.9402
G1 X152.9788 Y-41.8908
G1 X152.9261 Y-42.5430
G1 X153.6850 Y-42.8988
G1 X153.6515 Y-42.3258
G1 X153.8419 Y-41.8821
G1 X154.1513 Y-41.7352
G1 X154.6972 Y-41.8998
G1 Z0.0000 F8000.0
G0 X154.7458 Y-43.0674 F15000.0
G1 Z11.9000 F8000.0
G1 X154.5447 Y-43.2517 F12000.0
G1 X154.0692 Y-43.2820
G1 X153.8369 Y-43.1208
G1 X154.1929 Y-43.2734
G1 X155.3393 Y-42.9095
G1 X155.3093 Y-42.3099
G1 X155.5078 Y-41.8735
G1 X155.8210 Y-41.7341
G1 X156.2826 Y-41.8934
G1 X156.3913 Y-42.0855
G1 X156.3694 Y-43.0956
G1 X156.1100 Y-43.2889
G1 X155.6380 Y-43.2349
G1 X155.4269 Y-43.0674
G1 Z0.0000 F8000.0
G0 X157.1296 Y-43.1647 F15000.0
G1 Z11.9000 F8000.0
G1 X157.3309 Y-43.2581 F12000.0
G1 X158.0226 Y-42.6887
G1 X157.1257 Y-42.3983
G1 X156.9718 Y-42.0845
G1 X157.1423 Y-41.7893
G1 X157.3666 Y-41.7400
G1 X158.0554 Y-41.9402
G1 X158.1356 Y-41.8908
G1 X158.1026 Y-42.5809
G1 Z0.0000 F8000.0
G0 X145.9771 Y-39.4714 F15000.0
G1 Z11.9000 F8000.0
G1 X180.0000 Y-39.4714 F12000.0
G1 Z0.0000 F8000.0
G0 X177.0375 Y-41.3427 F15000.0
G1 Z11.9000 F8000.0
G1 X176.8915 Y-41.4886 F12000.0
G1 Z0.0000 F8000.0
G0 X173.5834 Y-41.2940 F15000.0
G1 Z11.9000 F8000.0
G1 X173.5347 Y-42.8995 F12000.0
G1 Z0.0000 F8000.0
G0 X180.0000 Y-58.9131 F15000.0
G1 Z11.9000 F8000.0
G1 X0.0000 Y-58.9131 F12000.0
G1 Z0.0000 F8000.0
G0 X2.3399 Y-12.3971 F15000.0
G1 Z11.9000 F8000.0
G1 X2.3362 Y-14.2929 F12000.0
G1 X2.2523 Y-13.5090
G1 X0.9349 Y-13.4792
G1 X0.8804 Y-12.5481
G1 X0.8804 Y-14.3918
G1 Z0.0000 F8000.0
G0 X0.0000 Y-15.0870 F15000.0
G1 Z11.9000 F8000.0
G1 X63.2677 Y-15.0870 F12000.0
G1 Z0.0000 F8000.0
G0 X63.2677 Y-19.9474 F15000.0
G1 Z11.9000 F8000.0
G1 X0.0000 Y-19.9474 F12000.0
G1 Z0.0000 F8000.0
G0 X2.2817 Y-21.9791 F15000.0
G1 Z11.9000 F8000.0
G1 X2.2330 Y-24.0224 F12000.0
G1 Z0.0000 F8000.0
G0 X1.6006 Y-24.0224 F15000.0
G1 Z11.9000 F8000.0
G1 X3.0601 Y-24.0224 F12000.0
G1 Z0.0000 F8000.0
G0 X4.1304 Y-23.3413 F15000.0
G1 Z11.9000 F8000.0
G1 X4.1667 Y-22.8025 F12000.0
G1 X4.6840 Y-22.4992
G1 X4.6119 Y-22.7582
G1 X5.0061 Y-21.9791
G1 Z0.0000 F8000.0
G0 X4.1304 Y-21.9791 F15000.0
G1 Z11.9000 F8000.0
G1 X4.1548 Y-22.5958 F12000.0
G1 X4.6486 Y-22.9177
G1 X5.0449 Y-23.3318
G1 X5.5440 Y-23.0372
G1 X5.5606 Y-22.4524
G1 X5.7825 Y-22.0812
G1 X5.5872 Y-22.3432
G1 X5.9849 Y-21.9780
G1 X6.4567 Y-22.0709
G1 X6.7158 Y-22.3048
G1 X6.6419 Y-23.0414
G1 X6.5458 Y-23.2447
G1 X5.9608 Y-23.3593
G1 X5.6385 Y-23.1467
G1 Z0.0000 F8000.0
G0 X7.3899 Y-23.3413 F15000.0
G1 Z11.9000 F8000.0
G1 X7.3899 Y-22.0729 F12000.0
G1 X7.4113 Y-22.6183
G1 X7.5773 Y-22.6972
G1 X8.3897 Y-22.5870
G1 X8.4571 Y-22.0612
G1 X8.5193 Y-23.3136
G1 X10.0656 Y-23.3899
G1 Z0.0000 F8000.0
G0 X9.4818 Y-23.3899 F15000.0
G1 Z11.9000 F8000.0
G1 X9.5631 Y-22.0387 F12000.0
G1 X10.6378 Y-22.1078
G1 X11.3489 Y-21.9970
G1 X11.6449 Y-22.2187
G1 X11.7451 Y-22.4295
G1 X11.6510 Y-23.1678
G1 X11.3597 Y-23.3221
G1 X10.7605 Y-23.2217
G1 X10.6191 Y-22.3980
G1 X10.6763 Y-21.4231
G1 X11.6710 Y-22.2223
G1 Z0.0000 F8000.0
G0 X7.4225 Y-28.9491 F15000.0
G1 Z11.9000 F8000.0
G1 X7.4412 Y-30.0302 F12000.0
G1 X7.3492 Y-30.2350
G1 X7.2588 Y-30.2572
G1 X6.5388 Y-29.6405
G1 X6.6388 Y-29.4528
G1 X7.1970 Y-28.9615
G1 X7.4823 Y-29.0570
G1 X7.5125 Y-29.2953
G1 X7.5169 Y-29.2020
G1 X7.4835 Y-29.4302
G1 X7.3906 Y-29.5275
G1 X6.4325 Y-29.7304
G1 X5.6009 Y-30.2591
G1 X5.7242 Y-30.1254
G1 X5.8883 Y-29.4023
G1 X5.7075 Y-29.0083
G1 X5.7517 Y-29.0801
G1 X5.3401 Y-28.9325
G1 X4.9944 Y-29.0114
G1 X4.8414 Y-29.1833
G1 X4.7238 Y-29.5344
G1 X4.9412 Y-30.1641
G1 X5.5252 Y-30.3112
G1 Z0.0000 F8000.0
G0 X3.0927 Y-29.0950 F15000.0
G1 Z11.9000 F8000.0
G1 X3.6911 Y-28.9325 F12000.0
G1 X4.0455 Y-29.1321
G1 X4.1392 Y-29.3440
G1 X4.0382 Y-30.0816
G1 X3.8772 Y-30.2516
G1 X3.3975 Y-30.2509
G1 X3.1179 Y-30.0572
G1 X3.0440 Y-28.3166
G1 Z0.0000 F8000.0
G0 X2.3143 Y-28.9491 F15000.0
G1 Z11.9000 F8000.0
G1 X2.2097 Y-30.7984 F12000.0
G1 X0.8548 Y-28.9491
G1 Z0.0000 F8000.0
G0 X0.0000 Y-29.7506 F15000.0
G1 Z11.9000 F8000.0
G1 X63.2677 Y-29.7506 F12000.0
G1 Z0.0000 F8000.0
G0 X63.2677 Y-24.8078 F15000.0
G1 Z11.9000 F8000.0
G1 X0.0000 Y-24.8078 F12000.0
G1 Z0.0000 F8000.0
G0 X0.0000 Y-54.0526 F15000.0
G1 Z11.9000 F8000.0
G1 X63.2677 Y-54.0526 F12000.0
G1 Z0.0000 F8000.0
G0 X53.5469 Y-58.9131 F15000.0
G1 Z11.9000 F8000.0
G1 X53.5469 Y-5.3662 F12000.0
G1 Z0.0000 F8000.0
G0 X38.9657 Y-5.3662 F15000.0
G1 Z11.9000 F8000.0
G1 X38.9657 Y-58.9131 F12000.0
G1 Z0.0000 F8000.0
G0 X73.6018 Y-32.7321 F15000.0
G1 Z11.9000 F8000.0
G1 X75.1585 Y-32.6835 F12000.0
G1 Z0.0000 F8000.0
G0 X73.1153 Y-31.5646 F15000.0
G1 Z11.9000 F8000.0
G1 X74.0904 Y-34.2988 F12000.0
G1 X74.3266 Y-34.5694
G1 X74.8693 Y-33.7719
G1 X75.1081 Y-33.2071
G1 X75.2054 Y-32.7391
G1 X75.7014 Y-31.6756
G1 X76.4154 Y-31.6533
G1 X76.5922 Y-31.7385
G1 X76.6540 Y-33.7018
G1 X77.8229 Y-33.7484
G1 X77.5967 Y-33.5132
G1 X77.1782 Y-32.6696
G1 X77.8550 Y-31.6645
G1 X78.1462 Y-31.4689
G1 X78.8733 Y-31.8451
G1 X79.2406 Y-31.6427
G1 X80.1027 Y-31.7794
G1 X80.2975 Y-31.8976
G1 X80.4188 Y-32.1119
G1 X80.1615 Y-31.7875
G1 X79.5586 Y-31.6136
G1 X79.3285 Y-31.6255
G1 X78.9271 Y-31.9133
G1 X78.7597 Y-32.2450
G1 X78.7373 Y-32.4861
G1 X78.9285 Y-33.4706
G1 X79.1750 Y-33.7219
G1 X79.3856 Y-33.7931
G1 X80.0057 Y-33.7701
G1 X80.4108 Y-33.3853
G1 X81.2332 Y-33.2757
G1 X81.5651 Y-33.6486
G1 X81.2382 Y-33.1010
G1 X81.2049 Y-32.3467
G1 X81.2751 Y-32.1118
G1 X81.8076 Y-31.6026
G1 X82.6577 Y-31.6870
G1 X82.8308 Y-31.8636
G1 X83.0776 Y-32.5647
G1 X83.0157 Y-33.1893
G1 X82.8473 Y-33.5165
G1 X82.5817 Y-33.7351
G1 X81.7262 Y-33.8024
G1 Z0.0000 F8000.0
G0 X81.2884 Y-32.0511 F15000.0
G1 Z11.9000 F8000.0
G1 X81.6728 Y-31.6628 F12000.0
G1 X82.6568 Y-31.7118
G1 X82.8974 Y-31.8267
G1 X84.0774 Y-31.7264
G1 X84.1101 Y-33.6545
G1 X84.1497 Y-32.8221
G1 X85.5972 Y-32.7629
G1 X85.7117 Y-33.6494
G1 X85.7441 Y-31.7386
G1 X85.9202 Y-31.7413
G1 X86.7243 Y-32.0681
G1 X86.9378 Y-31.7851
G1 X87.2461 Y-31.6250
G1 X87.9967 Y-31.6318
G1 X88.4088 Y-31.8298
G1 X89.4769 Y-31.7216
G1 X89.5487 Y-33.4309
G1 X89.7374 Y-33.2878
G1 X90.5273 Y-31.8860
G1 X90.4674 Y-32.0040
G1 X90.7518 Y-31.9575
G1 X91.2726 Y-33.2033
G1 X91.6064 Y-33.4849
G1 X91.7967 Y-31.6619
G1 Z0.0000 F8000.0
G0 X90.7750 Y-31.9051 F15000.0
G1 Z11.9000 F8000.0
G1 X90.5824 Y-31.8571 F12000.0
G1 X90.3372 Y-32.1484
G1 Z0.0000 F8000.0
G0 X92.7697 Y-32.7321 F15000.0
G1 Z11.9000 F8000.0
G1 X93.0272 Y-31.8873 F12000.0
G1 X93.1762 Y-31.7186
G1 X93.5139 Y-31.5900
G1 X94.3613 Y-31.7651
G1 X94.6540 Y-32.0380
G1 X94.4238 Y-31.8078
G1 Z0.0000 F8000.0
G0 X96.0778 Y-31.6619 F15000.0
G1 Z11.9000 F8000.0
G1 X96.0565 Y-33.6655 F12000.0
G1 X95.9955 Y-33.7345
G1 X95.3365 Y-33.7974
G1 X97.6174 Y-33.7312
G1 X97.7319 Y-33.5592
G1 Z0.0000 F8000.0
G0 X99.2401 Y-33.5592 F15000.0
G1 Z11.9000 F8000.0
G1 X98.9732 Y-33.7614 F12000.0
G1 X98.7413 Y-33.8255
G1 X97.8142 Y-33.5307
G1 X97.6914 Y-32.1675
G1 X97.7593 Y-30.7799
G1 X98.1986 Y-31.6343
G1 X97.8237 Y-31.8164
G1 X98.4691 Y-31.6082
G1 X99.2610 Y-31.9674
G1 X99.3915 Y-32.1717
G1 X99.4668 Y-32.5371
G1 X99.3297 Y-33.3853
G1 X99.3786 Y-33.4616
G1 X100.4183 Y-33.7032
G1 X100.5328 Y-32.0284
G1 X100.8749 Y-32.1048
G1 X100.5211 Y-31.7926
G1 X101.0277 Y-32.2951
G1 X101.5481 Y-33.1496
G1 X101.7836 Y-33.3573
G1 X101.4980 Y-33.0394
G1 X102.0189 Y-33.5807
G1 X101.9650 Y-33.3390
G1 X102.1104 Y-31.6619
G1 Z0.0000 F8000.0
G0 X103.0347 Y-33.7538 F15000.0
G1 Z11.9000 F8000.0
G1 X103.2695 Y-32.7746 F12000.0
G1 X103.4247 Y-32.6040
G1 X103.6574 Y-32.5575
G1 X104.6285 Y-32.6434
G1 X104.6888 Y-31.7595
G1 X104.7407 Y-33.7002
G1 X105.7531 Y-33.4219
G1 X106.1117 Y-33.7368
G1 X105.8098 Y-33.3906
G1 X105.6724 Y-32.7849
G1 X107.4121 Y-32.8722
G1 X107.3332 Y-33.3231
G1 X107.1430 Y-33.6177
G1 X106.1970 Y-33.8024
G1 Z0.0000 F8000.0
G0 X105.6132 Y-32.7321 F15000.0
G1 Z11.9000 F8000.0
G1 X105.9286 Y-31.7879 F12000.0
G1 X106.3572 Y-31.5908
G1 X107.0936 Y-31.7242
G1 X107.4922 Y-32.0355
G1 X107.2851 Y-31.7497
G1 X108.4684 Y-31.8725
G1 X108.8430 Y-31.6505
G1 X109.9086 Y-31.8783
G1 X110.0518 Y-32.1228
G1 X109.8117 Y-31.7998
G1 Z0.0000 F8000.0
G0 X108.9799 Y-31.6161 F15000.0
G1 Z11.9000 F8000.0
G1 X108.5016 Y-31.9930 F12000.0
G1 X108.3632 Y-32.3373
G1 X108.5938 Y-33.5357
G1 X108.8772 Y-33.7468
G1 X109.6051 Y-33.7804
G1 X110.0121 Y-33.4194
G1 X110.9003 Y-33.6988
G1 X110.9631 Y-33.5386
G1 X110.9646 Y-31.6619
G1 Z0.0000 F8000.0
G0 X112.5214 Y-31.4186 F15000.0
G1 Z11.9000 F8000.0
G1 X112.2228 Y-31.6413 F12000.0
G1 X111.5103 Y-32.7406
G1 X111.9932 Y-33.5906
G1 X112.1897 Y-33.7197
G1 X113.1686 Y-33.5941
G1 X113.4651 Y-33.7434
G1 X113.2719 Y-33.5403
G1 X113.5181 Y-33.7458
G1 X114.4950 Y-33.6426
G1 X114.7026 Y-33.5520
G1 X114.7706 Y-32.9806
G1 X113.2864 Y-32.5294
G1 X113.1714 Y-32.3798
G1 X113.0856 Y-32.0240
G1 X113.1487 Y-31.7971
G1 X113.3296 Y-31.6382
G1 X113.8157 Y-31.5316
G1 X114.0631 Y-31.5635
G1 X114.7211 Y-31.8459
G1 X115.1018 Y-31.4517
G1 X115.5736 Y-31.5201
G1 X116.1901 Y-32.1317
G1 X116.2364 Y-32.6038
G1 X116.0342 Y-32.7537
G1 X116.3831 Y-32.6092
G1 X116.2240 Y-32.1660
G1 X116.5105 Y-32.4967
G1 X117.4448 Y-32.6806
G1 X117.4018 Y-33.7467
G1 X116.0944 Y-33.6647
G1 X115.8671 Y-33.1086
G1 X115.9269 Y-32.8781
G1 Z0.0000 F8000.0
G0 X114.8079 Y-32.9267 F15000.0
G1 Z11.9000 F8000.0
G1 X114.8079 Y-31.8565 F12000.0
G1 Z0.0000 F8000.0
G0 X117.4836 Y-31.6619 F15000.0
G1 Z11.9000 F8000.0
G1 X117.4836 Y-32.6348 F12000.0
G1 Z0.0000 F8000.0
G0 X106.4053 Y-25.3006 F15000.0
G1 Z11.9000 F8000.0
G1 X106.4053 Y-24.3276 F12000.0
G1 Z0.0000 F8000.0
G0 X105.0917 Y-26.3709 F15000.0
G1 Z11.9000 F8000.0
G1 X106.3253 Y-26.3609 F12000.0
G1 X106.3334 Y-25.3258
G1 X105.4902 Y-25.2344
G1 X105.2009 Y-24.8676
G1 X105.3142 Y-25.2797
G1 X104.9131 Y-25.5227
G1 X104.8229 Y-25.7416
G1 X104.9322 Y-26.2255
G1 X104.8820 Y-25.5594
G1 X105.1507 Y-24.8710
G1 X104.7046 Y-24.2953
G1 X104.4995 Y-24.2113
G1 X104.0084 Y-24.2964
G1 X103.8420 Y-24.4153
G1 X103.7439 Y-26.1949
G1 X103.3637 Y-25.8652
G1 X103.5622 Y-25.9828
G1 X103.2570 Y-25.7198
G1 Z0.0000 F8000.0
G0 X103.2917 Y-25.7871 F15000.0
G1 Z11.9000 F8000.0
G1 X102.7290 Y-24.8732 F12000.0
G1 X102.3481 Y-24.5630
G1 X102.2214 Y-24.3276
G1 Z0.0000 F8000.0
G0 X102.7186 Y-24.8632 F15000.0
G1 Z11.9000 F8000.0
G1 X102.3362 Y-24.6274 F12000.0
G1 X102.1593 Y-26.2745
G1 X102.0987 Y-26.3441
G1 X101.0402 Y-26.3164
G1 X101.0052 Y-24.3276
G1 Z0.0000 F8000.0
G0 X101.3457 Y-23.5492 F15000.0
G1 Z11.9000 F8000.0
G1 X101.2764 Y-24.1575 F12000.0
G1 X101.2041 Y-24.2247
G1 X99.6049 Y-24.3164
G1 X99.4264 Y-24.4019
G1 X99.3997 Y-26.3709
G1 Z0.0000 F8000.0
G0 X98.8646 Y-24.0844 F15000.0
G1 Z11.9000 F8000.0
G1 X98.5919 Y-24.2933 F12000.0
G1 X97.8725 Y-25.3523
G1 X98.3358 Y-26.1601
G1 X98.5496 Y-26.3665
G1 X97.9191 Y-25.5549
G1 X97.7318 Y-25.4256
G1 X97.4922 Y-25.4309
G1 X97.3285 Y-25.5357
G1 X97.3078 Y-26.2761
G1 X97.2587 Y-24.3631
G1 X95.9525 Y-24.2908
G1 X96.1281 Y-24.4631
G1 X95.7640 Y-24.2353
G1 X95.5218 Y-24.1983
G1 X95.0485 Y-24.3109
G1 X94.7718 Y-24.5153
G1 X94.5970 Y-24.8229
G1 X94.5673 Y-25.3065
G1 X94.7392 Y-25.4299
G1 X96.2768 Y-25.8201
G1 X96.0652 Y-26.2098
G1 X95.6314 Y-26.4499
G1 X95.2611 Y-26.4533
G1 X94.7564 Y-26.1300
G1 X94.4916 Y-25.4020
G1 X93.7456 Y-25.7959
G1 X93.1645 Y-26.3784
G1 X93.3130 Y-26.2838
G1 X93.6293 Y-25.8321
G1 X93.5847 Y-24.7129
G1 X93.4686 Y-24.5189
G1 X93.0793 Y-24.2606
G1 X92.7515 Y-24.2114
G1 X92.2715 Y-24.3407
G1 X92.0216 Y-24.5759
G1 X91.8372 Y-25.0369
G1 X91.9555 Y-25.9025
G1 X92.3637 Y-26.3507
G1 X92.9780 Y-26.4682
G1 Z0.0000 F8000.0
G0 X92.2969 Y-26.3709 F15000.0
G1 Z11.9000 F8000.0
G1 X91.9564 Y-26.0304 F12000.0
G1 Z0.0000 F8000.0
G0 X93.1240 Y-24.2790 F15000.0
G1 Z11.9000 F8000.0
G1 X93.5132 Y-24.5709 F12000.0
G1 Z0.0000 F8000.0
G0 X89.8158 Y-24.2790 F15000.0
G1 Z11.9000 F8000.0
G1 X89.4265 Y-24.4365 F12000.0
G1 X90.0895 Y-24.2120
G1 X90.7140 Y-24.4229
G1 X90.8582 Y-24.6644
G1 X91.0102 Y-25.2688
G1 X90.7954 Y-26.1082
G1 X89.8644 Y-26.4195
G1 Z0.0000 F8000.0
G0 X89.7671 Y-26.3709 F15000.0
G1 Z11.9000 F8000.0
G1 X89.3572 Y-26.3917 F12000.0
G1 X89.2806 Y-23.3060
G1 Z0.0000 F8000.0
G0 X88.2104 Y-24.3276 F15000.0
G1 Z11.9000 F8000.0
G1 X86.7460 Y-26.3313 F12000.0
G1 X86.6536 Y-24.2790
G1 Z0.0000 F8000.0
G0 X87.0290 Y-33.7051 F15000.0
G1 Z11.9000 F8000.0
G1 X86.7439 Y-33.3098 F12000.0
G1 X86.8862 Y-33.5349
G1 X86.7012 Y-33.1786
G1 X86.6488 Y-32.4256
G1 X86.7444 Y-32.0719
G1 X87.0865 Y-31.7049
G1 X87.2967 Y-31.5928
G1 X88.2391 Y-31.8360
G1 X88.4667 Y-33.0569
G1 X88.4235 Y-33.2943
G1 X88.0416 Y-33.7296
G1 X87.1750 Y-33.8024
G1 Z0.0000 F8000.0
G0 X89.1791 Y-38.3699 F15000.0
G1 Z11.9000 F8000.0
G1 X89.1791 Y-41.3861 F12000.0
G1 Z0.0000 F8000.0
G0 X89.1791 Y-39.9753 F15000.0
G1 Z11.9000 F8000.0
G1 X89.8115 Y-39.9266 F12000.0
G1 Z0.0000 F8000.0
G0 X91.1737 Y-41.4834 F15000.0
G1 Z11.9000 F8000.0
G1 X90.6724 Y-41.2251 F12000.0
G1 X90.1595 Y-40.3049
G1 X90.3503 Y-40.6299
G1 X89.8879 Y-39.9561
G1 X91.1810 Y-38.2588
G1 X91.3830 Y-38.2541
G1 X92.0189 Y-38.5737
G1 X91.9449 Y-38.7855
G1 X92.1942 Y-38.4549
G1 X92.4021 Y-38.3420
G1 X93.2706 Y-38.3615
G1 X93.5708 Y-38.5430
G1 X94.6952 Y-38.5515
G1 X95.4002 Y-38.2969
G1 Z0.0000 F8000.0
G0 X96.0096 Y-38.3893 F15000.0
G1 Z11.9000 F8000.0
G1 X96.3826 Y-38.8741 F12000.0
G1 X96.4537 Y-39.3635
G1 X96.2465 Y-40.2429
G1 X95.7816 Y-40.5337
G1 X94.9363 Y-40.3290
G1 X94.7886 Y-40.1749
G1 X94.7417 Y-37.4774
G1 X95.0869 Y-38.1946
G1 X95.2342 Y-38.3275
G1 X96.0709 Y-38.4533
G1 X96.3987 Y-38.6248
G1 X97.2530 Y-38.4210
G1 X97.4687 Y-38.4395
G1 X98.9195 Y-40.4253
G1 X99.0063 Y-38.3699
G1 Z0.0000 F8000.0
G0 X100.1252 Y-37.3482 F15000.0
G1 Z11.9000 F8000.0
G1 X100.4315 Y-37.4192 F12000.0
G1 X100.7162 Y-37.9251
G1 X100.8028 Y-38.4184
G1 X101.0839 Y-38.8652
G1 X101.6820 Y-40.5104
G1 Z0.0000 F8000.0
G0 X99.9793 Y-40.4618 F15000.0
G1 Z11.9000 F8000.0
G1 X100.8063 Y-38.5645 F12000.0
G1 Z0.0000 F8000.0
G0 X102.5577 Y-38.6131 F15000.0
G1 Z11.9000 F8000.0
G1 X102.8048 Y-38.3815 F12000.0
G1 X103.0362 Y-38.3503
G1 X103.8861 Y-38.5388
G1 X104.0672 Y-38.8105
G1 X103.8985 Y-38.5409
G1 X103.1887 Y-38.3160
G1 X102.9610 Y-38.3416
G1 X102.5662 Y-38.6398
G1 X102.3887 Y-39.0946
G1 X102.6814 Y-40.3375
G1 X103.0139 Y-40.4944
G1 X103.6330 Y-40.4875
G1 X103.9069 Y-40.2905
G1 X104.0172 Y-40.0726
G1 Z0.0000 F8000.0
G0 X94.7251 Y-40.2672 F15000.0
G1 Z11.9000 F8000.0
G1 X94.6765 Y-40.4618 F12000.0
G1 Z0.0000 F8000.0
G0 X92.3900 Y-40.5104 F15000.0
G1 Z11.9000 F8000.0
G1 X93.2565 Y-40.4377 F12000.0
G1 X93.6384 Y-40.0023
G1 X93.6817 Y-39.7649
G1 X93.4541 Y-38.5440
G1 X92.5117 Y-38.3008
G1 X92.3014 Y-38.4129
G1 X91.9759 Y-38.7834
G1 X91.9246 Y-39.9047
G1 X92.2247 Y-40.3575
G1 X91.9521 Y-39.9994
G1 X92.2440 Y-40.4131
G1 Z0.0000 F8000.0
G0 X93.3535 Y-33.8024 F15000.0
G1 Z11.9000 F8000.0
G1 X94.3259 Y-33.6025 F12000.0
G1 X94.5003 Y-33.2933
G1 X94.5505 Y-32.8614
G1 X92.8235 Y-32.7903
G1 X92.9288 Y-33.3101
G1 X93.2825 Y-33.7387
G1 X92.9156 Y-33.3646
G1 Z0.0000 F8000.0
G0 X99.0455 Y-31.6619 F15000.0
G1 Z11.9000 F8000.0
G1 X99.2887 Y-31.9538 F12000.0
G1 Z0.0000 F8000.0
G0 X99.4704 Y-51.0742 F15000.0
G1 Z11.9000 F8000.0
G1 X99.5182 Y-54.4880 F12000.0
G1 X99.6321 Y-54.7834
G1 X99.7517 Y-54.6815
G1 X101.3940 Y-51.3318
G1 X101.5724 Y-51.4265
G1 X102.7690 Y-54.4632
G1 X103.1705 Y-54.8411
G1 X103.0854 Y-54.4809
G1 X103.3138 Y-51.0742
G1 Z0.0000 F8000.0
G0 X101.3678 Y-51.1228 F15000.0
G1 Z11.9000 F8000.0
G1 X101.3678 Y-51.3174 F12000.0
G1 Z0.0000 F8000.0
G0 X104.6759 Y-52.5823 F15000.0
G1 Z11.9000 F8000.0
G1 X104.9678 Y-52.3391 F12000.0
G1 Z0.0000 F8000.0
G0 X104.4813 Y-53.7985 F15000.0
G1 Z11.9000 F8000.0
G1 X104.5709 Y-52.9406 F12000.0
G1 X104.7808 Y-52.4672
G1 X104.9717 Y-52.3324
G1 X105.7520 Y-52.2153
G1 X106.4860 Y-52.3569
G1 X106.6495 Y-52.4734
G1 X106.6706 Y-53.8472
G1 Z0.0000 F8000.0
G0 X106.6706 Y-52.3877 F15000.0
G1 Z11.9000 F8000.0
G1 X106.6706 Y-51.0742 F12000.0
G1 Z0.0000 F8000.0
G0 X108.2760 Y-51.4634 F15000.0
G1 Z11.9000 F8000.0
G1 X108.5580 Y-51.1726 F12000.0
G1 X108.8596 Y-51.0434
G1 X109.6104 Y-51.0801
G1 X110.0274 Y-51.3661
G1 Z0.0000 F8000.0
G0 X111.8761 Y-51.4634 F15000.0
G1 Z11.9000 F8000.0
G1 X112.4112 Y-51.0255 F12000.0
G1 Z0.0000 F8000.0
G0 X112.4112 Y-55.1121 F15000.0
G1 Z11.9000 F8000.0
G1 X113.1410 Y-55.1121 F12000.0
G1 X113.6761 Y-54.7229
G1 X113.8707 Y-54.2850
G1 X114.0167 Y-52.5337
G1 X113.8707 Y-51.8039
G1 X113.6275 Y-51.3174
G1 X113.2869 Y-51.0742
G1 X112.5572 Y-50.9769
G1 X111.8761 Y-51.4634
G1 X111.9734 Y-51.3661
G1 X111.7788 Y-51.7066
G1 X111.5842 Y-52.6310
G1 X111.8274 Y-54.5283
G1 X112.4112 Y-55.1121
G1 Z0.0000 F8000.0
G0 X108.8112 Y-55.1121 F15000.0
G1 Z11.9000 F8000.0
G1 X109.5409 Y-55.1121 F12000.0
G1 X110.0760 Y-54.7229
G1 X110.2706 Y-54.2850
G1 X110.4166 Y-52.5337
G1 X110.2706 Y-51.8039
G1 X110.0274 Y-51.3174
G1 X109.6382 Y-51.0255
G1 X108.8112 Y-51.0255
G1 X108.2760 Y-51.4634
G1 X108.3733 Y-51.3661
G1 X108.1787 Y-51.7066
G1 X107.9841 Y-52.6310
G1 X108.2274 Y-54.5283
G1 X108.8112 Y-55.1121
G1 Z0.0000 F8000.0
G0 X117.0329 Y-53.2148 F15000.0
G1 Z11.9000 F8000.0
G1 X117.1302 Y-53.4094 F12000.0
G1 Z0.0000 F8000.0
G0 X117.0329 Y-51.7553 F15000.0
G1 Z11.9000 F8000.0
G1 X117.0970 Y-51.5589 F12000.0
G1 X117.4911 Y-51.1389
G1 X117.1354 Y-51.4929
G1 X117.5238 Y-51.1302
G1 X117.8611 Y-50.9948
G1 X118.7296 Y-51.0984
G1 X119.0941 Y-51.4280
G1 X119.3521 Y-52.1223
G1 X119.2633 Y-52.8722
G1 X119.0159 Y-53.2847
G1 X118.7065 Y-53.4796
G1 X118.3448 Y-53.5776
G1 X117.1742 Y-53.4763
G1 X117.4974 Y-55.0143
G1 X119.1735 Y-55.0634
G1 Z0.0000 F8000.0
G0 X120.8762 Y-54.8202 F15000.0
G1 Z11.9000 F8000.0
G1 X120.6231 Y-54.3086 F12000.0
G1 X121.0006 Y-54.8651
G1 X121.2990 Y-55.0797
G1 X122.2881 Y-55.0577
G1 X122.6649 Y-54.7925
G1 X122.8895 Y-53.9625
G1 X122.6427 Y-53.3940
G1 X122.3586 Y-52.9725
G1 X121.0019 Y-51.7644
G1 X120.7120 Y-51.2127
G1 X120.8209 Y-51.5540
G1 X120.5070 Y-51.0353
G1 X122.9195 Y-51.0255
G1 Z0.0000 F8000.0
G0 X126.2277 Y-51.4634 F15000.0
G1 Z11.9000 F8000.0
G1 X126.5097 Y-51.1726 F12000.0
G1 X126.8099 Y-51.0542
G1 X127.7948 Y-51.2440
G1 X127.9791 Y-51.3661
G1 Z0.0000 F8000.0
G0 X129.8278 Y-51.4634 F15000.0
G1 Z11.9000 F8000.0
G1 X130.1097 Y-51.1726 F12000.0
G1 X130.4113 Y-51.0434
G1 X131.1609 Y-51.0818
G1 X131.5305 Y-51.3174
G1 Z0.0000 F8000.0
G0 X135.2279 Y-51.4634 F15000.0
G1 Z11.9000 F8000.0
G1 X135.7630 Y-51.0255 F12000.0
G1 X136.5900 Y-51.0255 F12000.0
G1 X137.0279 Y-51.4147
G1 X137.1738 Y-51.7066
G1 Z0.0000 F8000.0
G0 X136.9306 Y-51.2688 F15000.0
G1 Z11.9000 F8000.0
G1 X137.2225 Y-51.8039 F12000.0
G1 X137.3684 Y-52.5337
G1 X137.2225 Y-54.2850
G1 X137.0279 Y-54.7229
G1 X136.4927 Y-55.1121
G1 X135.7630 Y-55.1121
G1 X135.1792 Y-54.5283 F12000.0
G1 X134.9360 Y-52.6310
G1 X135.1306 Y-51.7066
G1 X135.3252 Y-51.3661
G1 X135.2279 Y-51.4634
G1 Z0.0000 F8000.0
G0 X138.8766 Y-54.0418 F15000.0
G1 Z11.9000 F8000.0
G1 X139.9902 Y-54.6223 F12000.0
G1 X140.1615 Y-55.0166
G1 X140.0475 Y-54.4170
G1 X140.0928 Y-51.0742
G1 Z0.0000 F8000.0
G0 X140.0596 Y-42.9817 F15000.0
G1 Z11.9000 F8000.0
G1 X140.1082 Y-41.4736 F12000.0
G1 Z0.0000 F8000.0
G0 X138.8920 Y-41.4249 F15000.0
G1 Z11.9000 F8000.0
G1 X138.8274 Y-42.6435 F12000.0
G1 X138.4344 Y-42.3235
G1 X138.0462 Y-41.8260
G1 X137.8788 Y-41.7230
G1 X137.8062 Y-41.8878
G1 X137.7514 Y-42.8450
G1 X138.4241 Y-42.3791
G1 X138.7765 Y-42.6946
G1 X138.8920 Y-42.9330
G1 Z0.0000 F8000.0
G0 X139.4758 Y-42.9817 F15000.0
G1 Z11.9000 F8000.0
G1 X140.6920 Y-42.9817 F12000.0
G1 Z0.0000 F8000.0
G0 X138.3082 Y-42.1547 F15000.0
G1 Z11.9000 F8000.0
G1 X137.9677 Y-41.7168 F12000.0
G1 Z0.0000 F8000.0
G0 X136.9460 Y-41.4736 F15000.0
G1 Z11.9000 F8000.0
G1 X136.8838 Y-43.5687 F12000.0
G1 X135.5838 Y-41.4736
G1 Z0.0000 F8000.0
G0 X136.1739 Y-39.4714 F15000.0
G1 Z11.9000 F8000.0
G1 X136.1739 Y-24.8078 F12000.0
G1 Z0.0000 F8000.0
G0 X136.0870 Y-23.4369 F15000.0
G1 Z11.9000 F8000.0
G1 X136.1595 Y-22.0592 F12000.0
G1 X136.5888 Y-22.2956
G1 Z0.0000 F8000.0
G0 X136.8638 Y-22.7631 F15000.0
G1 Z11.9000 F8000.0
G1 X136.5321 Y-22.2086 F12000.0
G1 X136.7025 Y-22.5003
G1 X137.2654 Y-23.0686
G1 X137.4006 Y-21.7828
G1 Z0.0000 F8000.0
G0 X136.1357 Y-21.9774 F15000.0
G1 Z11.9000 F8000.0
G1 X136.4423 Y-22.1587 F12000.0
G1 X137.3648 Y-23.3140
G1 X137.5604 Y-23.3552
G1 X138.2664 Y-23.2146
G1 X138.1704 Y-22.2738
G1 X138.3273 Y-21.9380
G1 X138.4955 Y-21.7756
G1 X138.7120 Y-21.7359
G1 X139.4981 Y-22.0247
G1 X140.5645 Y-21.8209
G1 X140.6570 Y-21.9602
G1 X140.5928 Y-23.4117
G1 X139.9790 Y-23.4855
G1 Z0.0000 F8000.0
G0 X139.3952 Y-23.2423 F15000.0
G1 Z11.9000 F8000.0
G1 X138.9701 Y-23.4926 F12000.0
G1 X138.3735 Y-23.3396
G1 Z0.0000 F8000.0
G0 X140.6601 Y-23.4369 F15000.0
G1 Z11.9000 F8000.0
G1 X141.2925 Y-23.4855 F12000.0
G1 Z0.0000 F8000.0
G0 X141.1167 Y-24.8078 F15000.0
G1 Z11.9000 F8000.0
G1 X141.1167 Y-39.4714 F12000.0
G1 Z0.0000 F8000.0
G0 X145.9771 Y-39.4714 F15000.0
G1 Z11.9000 F8000.0
G1 X131.3959 Y-39.4714 F12000.0
G1 Z0.0000 F8000.0
G0 X131.3959 Y-44.3318 F15000.0
G1 Z11.9000 F8000.0
G1 X131.3959 Y-5.3662 F12000.0
G1 Z0.0000 F8000.0
G0 X143.7874 Y-12.0142 F15000.0
G1 Z11.9000 F8000.0
G1 X144.1097 Y-12.0845 F12000.0
G1 X144.2947 Y-12.2141
G1 X144.4028 Y-12.4702
G1 X144.5988 Y-16.0952
G1 X144.8003 Y-16.1486
G1 X146.6596 Y-16.1116
G1 X146.7550 Y-12.1115
G1 Z0.0000 F8000.0
G0 X149.5767 Y-12.1601 F15000.0
G1 Z11.9000 F8000.0
G1 X149.5280 Y-16.1494 F12000.0
G1 Z0.0000 F8000.0
G0 X148.0199 Y-16.1494 F15000.0
G1 Z11.9000 F8000.0
G1 X151.0848 Y-16.1494 F12000.0
G1 Z0.0000 F8000.0
G0 X152.0092 Y-13.4737 F15000.0
G1 Z11.9000 F8000.0
G1 X153.1281 Y-13.4737 F12000.0
G1 Z0.0000 F8000.0
G0 X155.0723 Y-12.0344 F15000.0
G1 Z11.9000 F8000.0
G1 X154.8602 Y-12.1436 F12000.0
G1 X154.2986 Y-12.7258
G1 X154.5852 Y-12.2827
G1 X154.8688 Y-12.1041
G1 X156.1873 Y-12.2905
G1 X156.2903 Y-12.4034
G1 Z0.0000 F8000.0
G0 X155.9366 Y-12.1499 F15000.0
G1 Z11.9000 F8000.0
G1 X156.3617 Y-12.4952 F12000.0
G1 X156.5601 Y-13.7133
G1 X156.2924 Y-14.2616
G1 X156.0153 Y-14.4592
G1 X155.5398 Y-14.6132
G1 X154.4651 Y-14.4134
G1 X154.6062 Y-15.7926
G1 X154.7212 Y-16.0769
G1 X156.4363 Y-16.1007
G1 Z0.0000 F8000.0
G0 X159.4039 Y-16.1980 F15000.0
G1 Z11.9000 F8000.0
G1 X159.3335 Y-15.8266 F12000.0
G1 X159.2162 Y-15.6317
G1 X158.2303 Y-15.1248
G1 X159.2729 Y-15.5999
G1 X159.3553 Y-12.1115
G1 Z0.0000 F8000.0
G0 X162.0310 Y-12.0628 F15000.0
G1 Z11.9000 F8000.0
G1 X161.6040 Y-12.4178 F12000.0
G1 X162.0878 Y-12.0596
G1 X162.9427 Y-12.1114
G1 X163.4113 Y-12.4912
G1 X163.6620 Y-13.0033
G1 X163.7625 Y-13.6223
G1 X163.6720 Y-14.1493
G1 X163.2959 Y-13.9602
G1 Z0.0000 F8000.0
G0 X161.9823 Y-13.7656 F15000.0
G1 Z11.9000 F8000.0
G1 X161.6438 Y-14.0357 F12000.0
G1 X161.3928 Y-14.4933
G1 X161.4958 Y-14.2521
G1 Z0.0000 F8000.0
G0 X161.4472 Y-15.4197 F15000.0
G1 Z11.9000 F8000.0
G1 X161.9585 Y-16.0468 F12000.0
G1 X161.4917 Y-15.4518
G1 X161.5488 Y-14.2244
G1 X162.0931 Y-13.7208
G1 X162.9565 Y-13.7716
G1 X163.6913 Y-14.2168
G1 X163.6748 Y-15.2022
G1 X163.4219 Y-15.7522
G1 X163.1602 Y-15.9692
G1 X162.4510 Y-16.1738
G1 X162.0310 Y-16.1007
G1 Z0.0000 F8000.0
G0 X164.8527 Y-13.4737 F15000.0
G1 Z11.9000 F8000.0
G1 X165.9840 Y-13.4469 F12000.0
G1 X167.0710 Y-12.8247
G1 X167.3138 Y-12.4070
G1 X167.5740 Y-12.1673
G1 X168.5527 Y-12.0510
G1 X168.9549 Y-12.2169
G1 X168.7786 Y-12.1132
G1 X169.1524 Y-12.4021
G1 X169.3964 Y-12.9076
G1 X169.1277 Y-13.8632
G1 X168.7446 Y-14.3007
G1 Z0.0000 F8000.0
G0 X168.0149 Y-14.1061 F15000.0
G1 Z11.9000 F8000.0
G1 X168.7235 Y-14.3221 F12000.0
G1 X169.0168 Y-14.6820
G1 X169.2034 Y-15.1290
G1 X169.0456 Y-15.7250
G1 X168.1878 Y-16.1657
G1 X167.4296 Y-15.8847
G1 X167.2822 Y-15.7107
G1 X167.1878 Y-15.4197
G1 Z0.0000 F8000.0
G0 X164.9342 Y-22.6903 F15000.0
G1 Z11.9000 F8000.0
G1 X164.0875 Y-22.7850 F12000.0
G1 X164.7519 Y-23.4060
G1 X165.0749 Y-23.0911
G1 X165.0162 Y-22.6294
G1 X165.1348 Y-22.0476
G1 X165.0252 Y-21.9254
G1 X164.0896 Y-21.9203
G1 X164.0099 Y-22.6416
G1 Z0.0000 F8000.0
G0 X162.1612 Y-21.9119 F15000.0
G1 Z11.9000 F8000.0
G1 X161.9180 Y-22.2038 F12000.0
G1 Z0.0000 F8000.0
G0 X174.2446 Y-21.0770 F15000.0
G1 Z11.9000 F8000.0
G1 X174.4215 Y-21.3866 F12000.0
G1 X175.2618 Y-23.7306
G1 Z0.0000 F8000.0
G0 X174.8195 Y-23.7306 F15000.0
G1 Z11.9000 F8000.0
G1 X174.5984 Y-23.5979 F12000.0
G1 Z0.0000 F8000.0
G0 X180.0000 Y-24.8078 F15000.0
G1 Z11.9000 F8000.0
G1 X131.3959 Y-24.8078 F12000.0
G1 Z0.0000 F8000.0
G0 X133.4113 Y-21.6855 F15000.0
G1 Z11.9000 F8000.0
G1 X135.0973 Y-24.1267 F12000.0
G1 X135.1627 Y-21.7828
G1 Z0.0000 F8000.0
G0 X131.3959 Y-19.9474 F15000.0
G1 Z11.9000 F8000.0
G1 X180.0000 Y-19.9474 F12000.0
G1 Z0.0000 F8000.0
G0 X131.3959 Y-19.9474 F15000.0
G1 Z11.9000 F8000.0
G1 X63.2677 Y-19.9474 F12000.0
G1 Z0.0000 F8000.0
G0 X126.7628 Y-55.1121 F15000.0
G1 Z11.9000 F8000.0
G1 X127.4926 Y-55.1121 F12000.0
G1 X128.0277 Y-54.7229
G1 X128.2223 Y-54.2850
G1 X128.3683 Y-52.5337
G1 X128.2223 Y-51.8039
G1 X127.9791 Y-51.3174
G1 X127.5899 Y-51.0255
G1 X126.7628 Y-51.0255
G1 X126.2277 Y-51.4634
G1 X126.3250 Y-51.3661
G1 X126.1304 Y-51.7066
G1 X125.9358 Y-52.6310
G1 X126.1790 Y-54.5283
G1 X126.7628 Y-55.1121
G1 Z0.0000 F8000.0
G0 X129.8764 Y-54.6742 F15000.0
G1 Z11.9000 F8000.0
G1 X129.8073 Y-54.5859 F12000.0
G1 X129.5519 Y-52.7164
G1 X129.6745 Y-51.9724
G1 X129.8835 Y-51.4168
G1 X130.5079 Y-51.0024
G1 X131.4678 Y-51.2631
G1 X131.7705 Y-51.7057
G1 X131.9457 Y-52.4398
G1 X131.8392 Y-54.0766
G1 X131.6413 Y-54.6588
G1 X131.0672 Y-55.0927
G1 X130.4446 Y-55.1006
G1 X129.9251 Y-54.7715
G1 Z0.0000 F8000.0

G0 Z0.0000 F800.0
G4 P0.06
G0 X0.0000 Y0.0000 F15000.0
M5
G4 P0.10
$1=0
