$X
$1=255
G21
G90
G92 Z4.0000
G0 Z0.0000 F800.0
G4 P0.06
G92 Z0.0000
G0 Z0.0000 F800.0
G0 X0.0000 Y0.0000 F15000.0
G21
G90
G17
G91.1
G0 Z0.0000
G0 X0.0000 Y-5.0000 F15000.0
G1 Z11.9000 F2500.0
G4 P0.02
G1 X180.0000 Y-5.0000 F12000.0
G1 X180.0000 Y-285.0000
G1 X0.0000 Y-285.0000
G1 X0.0000 Y-5.0000
G1 Z0.0000 F2500.0
G4 P0.02
G0 X121.1718 Y-200.1978 F15000.0
G1 Z11.9000 F2500.0
G4 P0.02
G1 X122.9630 Y-202.9177 F3500.0
G1 X123.2505 Y-203.2494
G1 Z0.0000 F2500.0
G4 P0.02
G0 X123.6264 Y-203.8023 F15000.0
G1 Z11.9000 F2500.0
G4 P0.02
G1 X123.8033 Y-204.0455 F3500.0
G1 Z0.0000 F2500.0
G4 P0.02
G0 X124.9220 Y-203.2363 F15000.0
G1 Z11.9000 F2500.0
G4 P0.02
G1 X125.3422 Y-203.5901 F3500.0
G1 Z0.0000 F2500.0
G4 P0.02
G0 X125.6518 Y-203.7891 F15000.0
G1 Z11.9000 F2500.0
G4 P0.02
G1 X125.9393 Y-203.9881 F3500.0
G1 X126.2267 Y-204.0545
G1 Z0.0000 F2500.0
G4 P0.02
G0 X126.5584 Y-204.5410 F15000.0
G1 Z11.9000 F2500.0
G4 P0.02
G1 X126.2488 Y-204.0324 F3500.0
G1 X124.8336 Y-199.9635
G1 Z0.0000 F2500.0
G4 P0.02
G0 X126.1604 Y-200.8259 F15000.0
G1 Z11.9000 F2500.0
G4 P0.02
G1 X126.1825 Y-200.9144 F3500.0
G1 Z0.0000 F2500.0
G4 P0.02
G0 X126.3815 Y-201.4451 F15000.0
G1 Z11.9000 F2500.0
G4 P0.02
G1 X126.1162 Y-200.6711 F3500.0
G1 X126.1604 Y-200.1625
G1 X126.4700 Y-199.9193
G1 X127.7526 Y-200.1404
G1 Z0.0000 F2500.0
G4 P0.02
G0 X128.1064 Y-200.5163 F15000.0
G1 Z11.9000 F2500.0
G4 P0.02
G1 X129.0794 Y-203.1257 F3500.0
G1 X129.1899 Y-204.1429
G1 Z0.0000 F2500.0
G4 P0.02
G0 X129.0130 Y-204.3198 F15000.0
G1 Z11.9000 F2500.0
G4 P0.02
G1 X128.8803 Y-204.3641 F3500.0
G1 X127.7968 Y-204.2314
G1 X127.2882 Y-203.7891
G1 X126.5142 Y-201.7989
G1 Z0.0000 F2500.0
G4 P0.02
G0 X127.3103 Y-203.8333 F15000.0
G1 Z11.9000 F2500.0
G4 P0.02
G1 X127.3545 Y-203.8776 F3500.0
G1 Z0.0000 F2500.0
G4 P0.02
G0 X121.2382 Y-201.8342 F15000.0
G1 Z11.9000 F2500.0
G4 P0.02
G1 X121.2161 Y-201.6794 F3500.0
G1 X121.4151 Y-202.2543
G1 X121.9016 Y-202.7629
G1 X122.3439 Y-202.9841
G1 X123.1399 Y-203.0062
G1 X123.4716 Y-202.6745
G1 X123.4053 Y-201.7457
G1 X123.1621 Y-201.4140
G1 X122.6092 Y-200.9939
G1 X121.5920 Y-200.8833
G1 X121.2603 Y-201.2150
G1 X121.1940 Y-201.6351
G1 Z0.0000 F2500.0
G4 P0.02
G0 X118.0503 Y-197.2288 F15000.0
G1 Z11.9000 F2500.0
G4 P0.02
G1 X132.1373 Y-197.2288 F12000.0
G1 X142.0229 Y-172.9268 F12000.0
G1 X140.7872 Y-177.6224 F3500.0
G1 X140.3753 Y-176.9634 F3500.0
G1 X139.6339 Y-177.1281 F3500.0
G1 X142.0229 Y-172.9268 F3500.0
G1 X145.6476 Y-163.8650 F12000.0
G1 X146.8833 Y-159.1693 F3500.0
G1 X147.2952 Y-159.8284 F3500.0
G1 X148.1190 Y-159.5812 F3500.0
G1 X145.6476 Y-163.8650 F3500.0
G1 X148.2014 Y-157.6041 F3500.0
G1 Z0.0000 F2500.0
G4 P0.02
G0 X147.6247 Y-157.3570 F15000.0
G1 Z11.9000 F2500.0
G4 P0.02
G1 X145.7300 Y-156.8627 F3500.0
G1 X143.7529 Y-156.6979 F3500.0
G1 X141.7757 Y-156.8627 F3500.0
G1 X139.8810 Y-157.3570 F3500.0
G1 X138.1510 Y-158.1808 F3500.0
G1 X136.5034 Y-159.3341 F3500.0
G1 X135.1030 Y-160.6522 F3500.0
G1 X133.9497 Y-162.2174 F3500.0
G1 X133.0435 Y-163.9474 F3500.0
G1 X132.4668 Y-165.8421 F3500.0
G1 X132.2197 Y-167.8192 F3500.0
G1 X132.2197 Y-169.7140 F3500.0
G1 X132.6316 Y-171.6911 F3500.0
G1 X133.3730 Y-173.5034 F3500.0
G1 X134.3616 Y-175.1510 F3500.0
G1 X135.5972 Y-176.7162 F3500.0
G1 X137.1625 Y-177.9519 F3500.0
G1 X138.8101 Y-178.9405 F3500.0
G1 X140.6224 Y-179.5995 F3500.0
G1 X142.5995 Y-180.0114 F3500.0
G1 X144.4943 Y-180.0114 F3500.0
G1 X146.4714 Y-179.7643 F3500.0
G1 X148.3661 Y-179.1876 F3500.0
G1 X150.0961 Y-178.2815 F3500.0
G1 X151.6613 Y-177.1281 F3500.0
G1 X152.9794 Y-175.6453 F3500.0
G1 X154.0503 Y-173.9977 F3500.0
G1 X154.8741 Y-172.2677 F3500.0
G1 X155.3684 Y-170.3730 F3500.0
G1 X155.5332 Y-168.3959 F3500.0
G1 X155.5332 Y-167.6545 F3500.0
G1 X155.2037 Y-165.6773 F3500.0
G1 X154.6270 Y-163.8650 F3500.0
G1 X153.7208 Y-162.0526 F3500.0
G1 X152.4851 Y-160.5698 F3500.0
G1 X151.0847 Y-159.1693 F3500.0
G1 X149.4371 Y-158.0984 F3500.0
G1 X147.6247 Y-157.3570 F3500.0
G1 Z0.0000 F2500.0
G4 P0.02
G0 X147.3776 Y-158.2632 F15000.0
G1 Z11.9000 F2500.0
G4 P0.02
G1 X145.5652 Y-157.8513 F3500.0
G1 X143.7529 Y-157.6865 F3500.0
G1 X141.8581 Y-157.8513 F3500.0
G1 X140.0458 Y-158.3455 F3500.0
G1 X138.3982 Y-159.1693 F3500.0
G1 X136.8329 Y-160.3227 F3500.0
G1 X135.5149 Y-161.6407 F3500.0
G1 X134.5263 Y-163.2059 F3500.0
G1 X133.7025 Y-164.9359 F3500.0
G1 X133.2906 Y-166.7483 F3500.0
G1 X133.1259 Y-168.6430 F3500.0
G1 X133.3730 Y-170.4554 F3500.0
G1 X133.8673 Y-172.2677 F3500.0
G1 X134.6911 Y-173.9153 F3500.0
G1 X135.8444 Y-175.4805 F3500.0
G1 X137.1625 Y-176.7986 F3500.0
G1 X138.7277 Y-177.7872 F3500.0
G1 X140.4577 Y-178.5286 F3500.0
G1 X142.2700 Y-178.9405 F3500.0
G1 X144.1648 Y-179.1053 F3500.0
G1 X146.0595 Y-178.8581 F3500.0
G1 X147.7895 Y-178.3638 F3500.0
G1 X149.5194 Y-177.4577 F3500.0
G1 Z0.0000 F2500.0
G4 P0.02
G0 X143.8352 Y-176.3043 F15000.0
G1 Z11.9000 F2500.0
G4 P0.02
G1 X143.8352 Y-183.3066 F3500.0
G1 Z0.0000 F2500.0
G4 P0.02
G0 X143.8352 Y-184.7071 F15000.0
G1 Z11.9000 F2500.0
G4 P0.02
G1 X143.8352 Y-186.1899 F3500.0
G1 Z0.0000 F2500.0
G4 P0.02
G0 X143.8352 Y-187.6728 F15000.0
G1 Z11.9000 F2500.0
G4 P0.02
G1 X143.8352 Y-194.6750 F3500.0
G1 Z0.0000 F2500.0
G4 P0.02
G0 X145.2357 Y-192.6979 F15000.0
G1 Z11.9000 F2500.0
G4 P0.02
G1 X148.0366 Y-192.3684 F3500.0
G1 X150.8375 Y-191.7094 F3500.0
G1 X153.4737 Y-190.7208 F3500.0
G1 X156.0275 Y-189.4851 F3500.0
G1 X158.3341 Y-187.9199 F3500.0
G1 X160.5583 Y-186.1075 F3500.0
G1 X162.4531 Y-184.0480 F3500.0
G1 X164.1831 Y-181.7414 F3500.0
G1 X165.5835 Y-179.3524 F3500.0
G1 X166.7368 Y-176.7162 F3500.0
G1 X167.4782 Y-173.9977 F3500.0
G1 X167.9725 Y-171.1968 F3500.0
G1 X168.1373 Y-168.3959 F3500.0
G1 X168.0549 Y-165.5950 F3500.0
G1 X167.5606 Y-162.8764 F3500.0
G1 X166.7368 Y-160.1579 F3500.0
G1 X165.5835 Y-157.5217 F3500.0
G1 X164.1831 Y-155.0503 F3500.0
G1 X162.5355 Y-152.8261 F3500.0
G1 X160.5583 Y-150.7666 F3500.0
G1 X158.4165 Y-148.9542 F3500.0
G1 X156.0275 Y-147.3890 F3500.0
G1 X153.5561 Y-146.0709 F3500.0
G1 X150.8375 Y-145.0824 F3500.0
G1 X148.1190 Y-144.4233 F3500.0
G1 X145.3181 Y-144.0938 F3500.0
G1 X142.5172 Y-144.0938 F3500.0
G1 X139.6339 Y-144.4233 F3500.0
G1 X136.9153 Y-145.0824 F3500.0
G1 X134.2792 Y-146.0709 F3500.0
G1 X131.7254 Y-147.3066 F3500.0
G1 X129.3364 Y-148.8719 F3500.0
G1 X127.1945 Y-150.6842 F3500.0
G1 X125.2174 Y-152.7437 F3500.0
G1 X123.5698 Y-154.9680 F3500.0
G1 X122.1693 Y-157.4394 F3500.0
G1 X121.0160 Y-160.0755 F3500.0
G1 X120.1922 Y-162.7117 F3500.0
G1 X119.6979 Y-165.5126 F3500.0
G1 X119.5332 Y-168.3959 F3500.0
G1 X119.6979 Y-171.1968 F3500.0
G1 X120.1922 Y-173.9977 F3500.0
G1 X121.0160 Y-176.7162 F3500.0
G1 X122.0870 Y-179.2700 F3500.0
G1 X123.4874 Y-181.7414 F3500.0
G1 X125.2174 Y-183.9657 F3500.0
G1 X127.1121 Y-186.1075 F3500.0
G1 X129.3364 Y-187.9199 F3500.0
G1 X131.6430 Y-189.4851 F3500.0
G1 X134.1968 Y-190.7208 F3500.0
G1 X136.8329 Y-191.7094 F3500.0
G1 X139.6339 Y-192.3684 F3500.0
G1 X142.4348 Y-192.6979 F3500.0
G1 X145.2357 Y-192.6979 F3500.0
G1 Z0.0000 F2500.0
G4 P0.02
G0 X151.8261 Y-189.2227 F15000.0
G1 Z11.9000 F2500.0
G4 P0.02
G1 X151.8261 Y-188.3470 F3500.0
G1 Z0.0000 F2500.0
G4 P0.02
G0 X152.1556 Y-188.0999 F15000.0
G1 Z11.9000 F2500.0
G4 P0.02
G1 X152.1556 Y-188.9756 F3500.0
G1 Z0.0000 F2500.0
G4 P0.02
G0 X152.9794 Y-190.9680 F15000.0
G1 Z11.9000 F2500.0
G4 P0.02
G1 X155.5332 Y-197.2288 F3500.0
G1 X170.3615 Y-197.2288 F12000.0
G1 Z0.0000 F2500.0
G4 P0.02
G0 X167.0628 Y-202.6392 F15000.0
G1 Z11.9000 F2500.0
G4 P0.02
G1 X166.1783 Y-200.3837 F3500.0
G1 X165.9129 Y-200.1404
G1 X165.4043 Y-199.8972
G1 X164.5419 Y-199.9414
G1 Z0.0000 F2500.0
G4 P0.02
G0 X164.3429 Y-200.1183 F15000.0
G1 Z11.9000 F2500.0
G4 P0.02
G1 X164.2765 Y-200.2289 F3500.0
G1 X164.2765 Y-200.6711
G1 X164.5419 Y-201.4451
G1 Z0.0000 F2500.0
G4 P0.02
G0 X164.6746 Y-201.7989 F15000.0
G1 Z11.9000 F2500.0
G4 P0.02
G1 X165.4485 Y-203.7891 F3500.0
G1 X165.8024 Y-204.1429
G1 X167.0186 Y-204.3641
G1 X167.1513 Y-204.3198
G1 Z0.0000 F2500.0
G4 P0.02
G0 X167.3503 Y-204.1429 F15000.0
G1 Z11.9000 F2500.0
G4 P0.02
G1 X167.2176 Y-203.0594 F3500.0
G1 Z0.0000 F2500.0
G4 P0.02
G0 X165.9350 Y-204.2314 F15000.0
G1 Z11.9000 F2500.0
G4 P0.02
G1 X165.8466 Y-204.1650 F3500.0
G1 Z0.0000 F2500.0
G4 P0.02
G0 X165.5149 Y-203.8776 F15000.0
G1 Z11.9000 F2500.0
G4 P0.02
G1 X165.4707 Y-203.8333 F3500.0
G1 Z0.0000 F2500.0
G4 P0.02
G0 X164.5640 Y-204.3862 F15000.0
G1 Z11.9000 F2500.0
G4 P0.02
G1 X162.9940 Y-204.3641 F3500.0
G1 Z0.0000 F2500.0
G4 P0.02
G0 X162.9055 Y-204.2756 F15000.0
G1 Z11.9000 F2500.0
G4 P0.02
G1 X162.8170 Y-204.0324 F3500.0
G1 Z0.0000 F2500.0
G4 P0.02
G0 X162.6180 Y-203.5016 F15000.0
G1 Z11.9000 F2500.0
G4 P0.02
G1 X162.5959 Y-203.4353 F3500.0
G1 Z0.0000 F2500.0
G4 P0.02
G0 X162.4632 Y-203.0815 F15000.0
G1 Z11.9000 F2500.0
G4 P0.02
G1 X162.2642 Y-202.3517 F3500.0
G1 X163.4362 Y-202.1527
G1 Z0.0000 F2500.0
G4 P0.02
G0 X163.6131 Y-201.8874 F15000.0
G1 Z11.9000 F2500.0
G4 P0.02
G1 X163.4583 Y-201.2018 F3500.0
G1 X163.1709 Y-200.4721
G1 X163.2372 Y-200.6269
G1 Z0.0000 F2500.0
G4 P0.02
G0 X162.9497 Y-200.2510 F15000.0
G1 Z11.9000 F2500.0
G4 P0.02
G1 X162.6844 Y-200.0520 F3500.0
G1 X161.3576 Y-199.8750
G1 Z0.0000 F2500.0
G4 P0.02
G0 X160.5615 Y-201.3124 F15000.0
G1 Z11.9000 F2500.0
G4 P0.02
G1 X160.1192 Y-200.9807 F3500.0
G1 X159.1020 Y-200.8923
G1 X158.7703 Y-201.2018
G1 X158.7261 Y-201.7768
G1 X158.8366 Y-202.0643
G1 Z0.0000 F2500.0
G4 P0.02
G0 X159.2126 Y-202.5729 F15000.0
G1 Z11.9000 F2500.0
G4 P0.02
G1 X159.3895 Y-202.7498 F3500.0
G1 Z0.0000 F2500.0
G4 P0.02
G0 X159.7654 Y-202.9488 F15000.0
G1 Z11.9000 F2500.0
G4 P0.02
G1 X160.6278 Y-202.9930 F3500.0
G1 X160.9595 Y-202.7056
G1 X160.9374 Y-201.7989
G1 X160.8047 Y-201.5778
G1 Z0.0000 F2500.0
G4 P0.02
G0 X160.0529 Y-202.1970 F15000.0
G1 Z11.9000 F2500.0
G4 P0.02
G1 X158.4828 Y-199.9193 F3500.0
G1 Z0.0000 F2500.0
G4 P0.02
G0 X160.2519 Y-202.5065 F15000.0
G1 Z11.9000 F2500.0
G4 P0.02
G1 X160.7605 Y-203.2363 F3500.0
G1 Z0.0000 F2500.0
G4 P0.02
G0 X161.2028 Y-203.8997 F15000.0
G1 Z11.9000 F2500.0
G4 P0.02
G1 X161.2912 Y-204.0324 F3500.0
G1 Z0.0000 F2500.0
G4 P0.02
G0 X164.3429 Y-200.9144 F15000.0
G1 Z11.9000 F2500.0
G4 P0.02
G1 X164.3208 Y-200.8259 F3500.0
G1 Z0.0000 F2500.0
G4 P0.02
G0 X152.9794 Y-190.9680 F15000.0
G1 Z11.9000 F2500.0
G4 P0.02
G1 X151.7437 Y-186.1899 F3500.0
G1 X151.3318 Y-186.8490 F3500.0
G1 X150.5904 Y-186.6842 F3500.0
G1 X152.9794 Y-190.9680 F3500.0
G1 X134.6911 Y-145.8238 F12000.0
G1 X135.9268 Y-150.6018 F3500.0
G1 X136.3387 Y-149.9428 F3500.0
G1 X137.1625 Y-150.1076 F3500.0
G1 X134.6911 Y-145.8238 F3500.0
G1 Z0.0000 F2500.0
G4 P0.02
G0 X136.0091 Y-147.6514 F15000.0
G1 Z11.9000 F2500.0
G4 P0.02
G1 X136.0091 Y-148.5271 F3500.0
G1 Z0.0000 F2500.0
G4 P0.02
G0 X135.5972 Y-148.8566 F15000.0
G1 Z11.9000 F2500.0
G4 P0.02
G1 X135.5972 Y-147.9809 F3500.0
G1 Z0.0000 F2500.0
G4 P0.02
G0 X143.8352 Y-149.1190 F15000.0
G1 Z11.9000 F2500.0
G4 P0.02
G1 X143.8352 Y-142.1167 F3500.0
G1 Z0.0000 F2500.0
G4 P0.02
G0 X143.4860 Y-139.0499 F15000.0
G1 Z11.9000 F2500.0
G4 P0.02
G1 X143.3091 Y-139.2047 F3500.0
G1 X142.3361 Y-139.2490
G1 Z0.0000 F2500.0
G4 P0.02
G0 X143.5744 Y-138.8509 F15000.0
G1 Z11.9000 F2500.0
G4 P0.02
G1 X143.3533 Y-138.0770 F3500.0
G1 X143.3975 Y-138.1875
G1 Z0.0000 F2500.0
G4 P0.02
G0 X143.2206 Y-137.7452 F15000.0
G1 Z11.9000 F2500.0
G4 P0.02
G1 X142.8226 Y-137.3914 F3500.0
G1 X142.7341 Y-137.1703
G1 X142.9331 Y-136.8386
G1 X142.9331 Y-136.3742
G1 X142.5351 Y-135.3570
G1 X142.0707 Y-134.9368
G1 X140.7439 Y-134.7599
G1 Z0.0000 F2500.0
G4 P0.02
G0 X142.1371 Y-137.1040 F15000.0
G1 Z11.9000 F2500.0
G4 P0.02
G1 X142.7120 Y-137.1924 F3500.0
G1 Z0.0000 F2500.0
G4 P0.02
G0 X144.0388 Y-136.5290 F15000.0
G1 Z11.9000 F2500.0
G4 P0.02
G1 X144.3926 Y-136.9049 F3500.0
G1 X144.7464 Y-137.1261
G1 X145.7637 Y-137.2145
G1 X146.0069 Y-136.8165
G1 X145.7637 Y-135.6445
G1 Z0.0000 F2500.0
G4 P0.02
G0 X145.4983 Y-135.2243 F15000.0
G1 Z11.9000 F2500.0
G4 P0.02
G1 X144.9455 Y-134.8263 F3500.0
G1 X143.8177 Y-134.9147
G1 Z0.0000 F2500.0
G4 P0.02
G0 X143.7292 Y-135.0032 F15000.0
G1 Z11.9000 F2500.0
G4 P0.02
G1 X143.6408 Y-135.5339 F3500.0
G1 X143.8177 Y-136.0204
G1 Z0.0000 F2500.0
G4 P0.02
G0 X144.8349 Y-137.2588 F15000.0
G1 Z11.9000 F2500.0
G4 P0.02
G1 X144.7464 Y-137.4799 F3500.0
G1 X144.9676 Y-138.6077
G1 X145.2551 Y-138.9394
G1 X145.8079 Y-139.2268
G1 X146.2944 Y-139.2490
G1 X146.6040 Y-138.8951
G1 X146.6261 Y-138.5192
G1 X146.5155 Y-138.2317
G1 X146.5597 Y-138.3644
G1 Z0.0000 F2500.0
G4 P0.02
G0 X146.4934 Y-138.1875 F15000.0
G1 Z11.9000 F2500.0
G4 P0.02
G1 X146.1175 Y-137.5683 F3500.0
G1 X145.8963 Y-137.3914
G1 Z0.0000 F2500.0
G4 P0.02
G0 X145.2772 Y-138.9615 F15000.0
G1 Z11.9000 F2500.0
G4 P0.02
G1 X145.3214 Y-139.0057 F3500.0
G1 Z0.0000 F2500.0
G4 P0.02
G0 X143.8352 Y-150.6018 F15000.0
G1 Z11.9000 F2500.0
G4 P0.02
G1 X143.8352 Y-152.0847 F3500.0
G1 Z0.0000 F2500.0
G4 P0.02
G0 X143.8352 Y-153.4851 F15000.0
G1 Z11.9000 F2500.0
G4 P0.02
G1 X143.8352 Y-160.4874 F3500.0
G1 Z0.0000 F2500.0
G4 P0.02
G0 X143.8352 Y-161.9702 F15000.0
G1 Z11.9000 F2500.0
G4 P0.02
G1 X143.8352 Y-163.4531 F3500.0
G1 Z0.0000 F2500.0
G4 P0.02
G0 X143.7529 Y-163.5355 F15000.0
G1 Z11.9000 F2500.0
G4 P0.02
G1 X142.5172 Y-163.7002 F3500.0
G1 X141.3638 Y-164.1945 F3500.0
G1 X140.3753 Y-165.0183 F3500.0
G1 X139.5515 Y-166.0069 F3500.0
G1 X139.1396 Y-167.2426 F3500.0
G1 X138.9748 Y-168.4783 F3500.0
G1 X139.1396 Y-169.7140 F3500.0
G1 X139.6339 Y-170.8673 F3500.0
G1 X140.4577 Y-171.8558 F3500.0
G1 X141.4462 Y-172.5972 F3500.0
G1 X142.5995 Y-173.0915 F3500.0
G1 X143.9176 Y-173.2563 F3500.0
G1 X145.1533 Y-173.0915 F3500.0
G1 X146.3066 Y-172.5972 F3500.0
G1 X147.2952 Y-171.8558 F3500.0
G1 X148.0366 Y-170.7849 F3500.0
G1 X148.5309 Y-169.6316 F3500.0
G1 X148.6956 Y-168.3959 F3500.0
G1 Z0.0000 F2500.0
G4 P0.02
G0 X148.7780 Y-168.3959 F15000.0
G1 Z11.9000 F2500.0
G4 P0.02
G1 X150.2609 Y-168.3959 F3500.0
G1 Z0.0000 F2500.0
G4 P0.02
G0 X151.7437 Y-168.3959 F15000.0
G1 Z11.9000 F2500.0
G4 P0.02
G1 X158.7460 Y-168.3959 F3500.0
G1 Z0.0000 F2500.0
G4 P0.02
G0 X160.2288 Y-168.3959 F15000.0
G1 Z11.9000 F2500.0
G4 P0.02
G1 X161.6293 Y-168.3959 F3500.0
G1 Z0.0000 F2500.0
G4 P0.02
G0 X163.1121 Y-168.3959 F15000.0
G1 Z11.9000 F2500.0
G4 P0.02
G1 X170.1144 Y-168.3959 F3500.0
G1 Z0.0000 F2500.0
G4 P0.02
G0 X162.3707 Y-152.5789 F15000.0
G1 Z11.9000 F2500.0
G4 P0.02
G1 X162.3707 Y-184.2128 F12000.0
G1 Z0.0000 F2500.0
G4 P0.02
G0 X143.8352 Y-174.8215 F15000.0
G1 Z11.9000 F2500.0
G4 P0.02
G1 X143.8352 Y-173.3387 F3500.0
G1 Z0.0000 F2500.0
G4 P0.02
G0 X143.8352 Y-171.8558 F15000.0
G1 Z11.9000 F2500.0
G4 P0.02
G1 X143.8352 Y-168.3959 F3500.0
G1 X140.3753 Y-168.3959 F3500.0
G1 Z0.0000 F2500.0
G4 P0.02
G0 X138.8924 Y-168.3959 F15000.0
G1 Z11.9000 F2500.0
G4 P0.02
G1 X137.4096 Y-168.3959 F3500.0
G1 Z0.0000 F2500.0
G4 P0.02
G0 X136.0091 Y-168.3959 F15000.0
G1 Z11.9000 F2500.0
G4 P0.02
G1 X128.9245 Y-168.3959 F3500.0
G1 Z0.0000 F2500.0
G4 P0.02
G0 X127.5240 Y-168.3959 F15000.0
G1 Z11.9000 F2500.0
G4 P0.02
G1 X126.0412 Y-168.3959 F3500.0
G1 Z0.0000 F2500.0
G4 P0.02
G0 X124.5583 Y-168.3959 F15000.0
G1 Z11.9000 F2500.0
G4 P0.02
G1 X117.5561 Y-168.3959 F3500.0
G1 Z0.0000 F2500.0
G4 P0.02
G0 X103.5715 Y-166.9712 F15000.0
G1 Z11.9000 F2500.0
G4 P0.02
G1 X103.2177 Y-168.6297 F3500.0
G1 X102.9302 Y-168.9614
G1 X101.4265 Y-169.4479
G1 Z0.0000 F2500.0
G4 P0.02
G0 X101.2496 Y-169.3816 F15000.0
G1 Z11.9000 F2500.0
G4 P0.02
G1 X101.0948 Y-169.2047 F3500.0
G1 X100.9621 Y-168.1211
G1 X100.2103 Y-168.3201
G1 Z0.0000 F2500.0
G4 P0.02
G0 X99.7238 Y-168.4970 F15000.0
G1 Z11.9000 F2500.0
G4 P0.02
G1 X98.9940 Y-168.7624 F3500.0
G1 X98.8835 Y-170.4872
G1 Z0.0000 F2500.0
G4 P0.02
G0 X99.2815 Y-167.3250 F15000.0
G1 Z11.9000 F2500.0
G4 P0.02
G1 X100.4093 Y-167.0154 F3500.0
G1 X101.0064 Y-166.4847
G1 X101.1390 Y-165.8434
G1 Z0.0000 F2500.0
G4 P0.02
G0 X101.2054 Y-166.6174 F15000.0
G1 Z11.9000 F2500.0
G4 P0.02
G1 X101.4044 Y-166.7280 F3500.0
G1 X101.7582 Y-166.7501
G1 X102.7976 Y-166.3299
G1 Z0.0000 F2500.0
G4 P0.02
G0 X103.0850 Y-166.0646 F15000.0
G1 Z11.9000 F2500.0
G4 P0.02
G1 X103.2619 Y-165.8434 F3500.0
G1 X103.5715 Y-164.2734
G1 Z0.0000 F2500.0
G4 P0.02
G0 X102.4216 Y-162.3495 F15000.0
G1 Z11.9000 F2500.0
G4 P0.02
G1 X102.2005 Y-162.4601 F3500.0
G1 Z0.0000 F2500.0
G4 P0.02
G0 X102.3332 Y-162.1062 F15000.0
G1 Z11.9000 F2500.0
G4 P0.02
G1 X102.0236 Y-161.8630 F3500.0
G1 X101.2496 Y-161.9736
G1 Z0.0000 F2500.0
G4 P0.02
G0 X100.9843 Y-162.1062 F15000.0
G1 Z11.9000 F2500.0
G4 P0.02
G1 X100.9400 Y-162.1505 F3500.0
G1 Z0.0000 F2500.0
G4 P0.02
G0 X100.5641 Y-162.5485 F15000.0
G1 Z11.9000 F2500.0
G4 P0.02
G1 X100.2987 Y-163.7869 F3500.0
G1 X100.0776 Y-163.8974
G1 Z0.0000 F2500.0
G4 P0.02
G0 X100.3651 Y-163.8311 F15000.0
G1 Z11.9000 F2500.0
G4 P0.02
G1 X100.6304 Y-164.1186 F3500.0
G1 Z0.0000 F2500.0
G4 P0.02
G0 X100.7410 Y-164.1849 F15000.0
G1 Z11.9000 F2500.0
G4 P0.02
G1 X101.3602 Y-164.1407 F3500.0
G1 X101.7582 Y-163.9417
G1 X102.2005 Y-163.5215
G1 X102.3553 Y-163.2340
G1 X102.4659 Y-162.3937
G1 X102.4216 Y-162.2610
G1 X102.9302 Y-161.9515
G1 Z0.0000 F2500.0
G4 P0.02
G0 X103.3946 Y-161.6419 F15000.0
G1 Z11.9000 F2500.0
G4 P0.02
G1 X103.4610 Y-161.5976 F3500.0
G1 Z0.0000 F2500.0
G4 P0.02
G0 X101.6034 Y-162.8581 F15000.0
G1 Z11.9000 F2500.0
G4 P0.02
G1 X100.3430 Y-163.6763 F3500.0
G1 Z0.0000 F2500.0
G4 P0.02
G0 X99.4142 Y-164.3397 F15000.0
G1 Z11.9000 F2500.0
G4 P0.02
G1 X99.2815 Y-164.4282 F3500.0
G1 Z0.0000 F2500.0
G4 P0.02
G0 X99.0604 Y-165.9098 F15000.0
G1 Z11.9000 F2500.0
G4 P0.02
G1 X99.1709 Y-167.2808 F3500.0
G1 Z0.0000 F2500.0
G4 P0.02
G0 X90.9474 Y-168.3959 F15000.0
G1 Z11.9000 F2500.0
G4 P0.02
G1 X79.9085 Y-168.3959 F12000.0
G1 Z0.0000 F2500.0
G4 P0.02
G0 X78.4256 Y-168.3959 F15000.0
G1 Z11.9000 F2500.0
G4 P0.02
G1 X76.9428 Y-168.3959 F3500.0
G1 Z0.0000 F2500.0
G4 P0.02
G0 X75.5423 Y-168.3959 F15000.0
G1 Z11.9000 F2500.0
G4 P0.02
G1 X64.5034 Y-168.3959 F12000.0
G1 Z0.0000 F2500.0
G4 P0.02
G0 X64.7506 Y-168.3959 F15000.0
G1 Z11.9000 F2500.0
G4 P0.02
G1 X64.7506 Y-111.8009 F12000.0
G1 Z0.0000 F2500.0
G4 P0.02
G0 X64.7506 Y-113.7780 F15000.0
G1 Z11.9000 F2500.0
G4 P0.02
G1 X69.6110 Y-114.3547 F3500.0
G1 X69.1167 Y-113.7780 F3500.0
G1 X69.6110 Y-113.1190 F3500.0
G1 X64.7506 Y-113.7780 F3500.0
G1 X88.0641 Y-113.7780 F12000.0
G1 X83.2037 Y-113.1190 F3500.0
G1 X83.6979 Y-113.7780 F3500.0
G1 X83.2037 Y-114.3547 F3500.0
G1 X88.0641 Y-113.7780 F3500.0
G1 Z0.0000 F2500.0
G4 P0.02
G0 X86.1129 Y-113.4897 F15000.0
G1 Z11.9000 F2500.0
G4 P0.02
G1 X85.2372 Y-113.4897 F3500.0
G1 Z0.0000 F2500.0
G4 P0.02
G0 X84.9077 Y-114.0664 F15000.0
G1 Z11.9000 F2500.0
G4 P0.02
G1 X85.7834 Y-114.0664 F3500.0
G1 Z0.0000 F2500.0
G4 P0.02
G0 X88.0641 Y-111.8009 F15000.0
G1 Z11.9000 F2500.0
G4 P0.02
G1 X88.0641 Y-168.3959 F12000.0
G1 X88.0641 Y-216.4233 F12000.0
G1 Z0.0000 F2500.0
G4 P0.02
G0 X88.0641 Y-214.4462 F15000.0
G1 Z11.9000 F2500.0
G4 P0.02
G1 X83.2037 Y-213.7872 F3500.0
G1 X83.6979 Y-214.4462 F3500.0
G1 X83.2037 Y-215.1052 F3500.0
G1 X88.0641 Y-214.4462 F3500.0
G1 X19.9359 Y-214.4462 F12000.0
G1 X24.7964 Y-215.1052 F3500.0
G1 X24.3021 Y-214.4462 F3500.0
G1 X24.7964 Y-213.7872 F3500.0
G1 X19.9359 Y-214.4462 F3500.0
G1 Z0.0000 F2500.0
G4 P0.02
G0 X19.9359 Y-216.4233 F15000.0
G1 Z11.9000 F2500.0
G4 P0.02
G1 X19.9359 Y-168.3959 F12000.0
G1 X19.9359 Y-158.6751 F12000.0
G1 X21.9131 Y-156.6979 F3500.0
G1 X58.9016 Y-156.6979 F12000.0
G1 X58.9016 Y-144.0938 F12000.0
G1 X88.0641 Y-144.0938 F12000.0
G1 Z0.0000 F2500.0
G4 P0.02
G0 X88.0641 Y-145.1648 F15000.0
G1 Z11.9000 F2500.0
G4 P0.02
G1 X86.9108 Y-144.0938 F3500.0
G1 Z0.0000 F2500.0
G4 P0.02
G0 X82.7918 Y-144.0938 F15000.0
G1 Z11.9000 F2500.0
G4 P0.02
G1 X88.0641 Y-149.2838 F3500.0
G1 Z0.0000 F2500.0
G4 P0.02
G0 X88.0641 Y-150.7666 F15000.0
G1 Z11.9000 F2500.0
G4 P0.02
G1 X85.1808 Y-153.6499 F3500.0
G1 X67.6339 Y-153.6499 F12000.0
G1 Z0.0000 F2500.0
G4 P0.02
G0 X67.6339 Y-152.2494 F15000.0
G1 Z11.9000 F2500.0
G4 P0.02
G1 X86.5812 Y-152.2494 F12000.0
G1 Z0.0000 F2500.0
G4 P0.02
G0 X86.7460 Y-152.0847 F15000.0
G1 Z11.9000 F2500.0
G4 P0.02
G1 X78.6728 Y-144.0938 F3500.0
G1 Z0.0000 F2500.0
G4 P0.02
G0 X74.5538 Y-144.0938 F15000.0
G1 Z11.9000 F2500.0
G4 P0.02
G1 X84.1922 Y-153.6499 F12000.0
G1 Z0.0000 F2500.0
G4 P0.02
G0 X80.0732 Y-153.6499 F15000.0
G1 Z11.9000 F2500.0
G4 P0.02
G1 X70.4348 Y-144.0938 F12000.0
G1 Z0.0000 F2500.0
G4 P0.02
G0 X66.3158 Y-144.0938 F15000.0
G1 Z11.9000 F2500.0
G4 P0.02
G1 X75.8719 Y-153.6499 F12000.0
G1 Z0.0000 F2500.0
G4 P0.02
G0 X75.9954 Y-154.1594 F15000.0
G1 Z11.9000 F2500.0
G4 P0.02
G1 X75.9954 Y-155.0351 F3500.0
G1 Z0.0000 F2500.0
G4 P0.02
G0 X76.1080 Y-154.6083 F15000.0
G1 Z11.9000 F2500.0
G4 P0.02
G1 X76.7891 Y-153.9272 F3500.0
G1 Z0.0000 F2500.0
G4 P0.02
G0 X77.1076 Y-155.8741 F15000.0
G1 Z11.9000 F2500.0
G4 P0.02
G1 X76.8604 Y-156.6156 F3500.0
G1 X74.6362 Y-152.2494 F3500.0
G1 X77.9314 Y-155.8741 F3500.0
G1 X77.1076 Y-155.8741 F3500.0
G1 Z0.0000 F2500.0
G4 P0.02
G0 X74.6362 Y-152.2494 F15000.0
G1 Z11.9000 F2500.0
G4 P0.02
G1 X92.9245 Y-179.1053 F12000.0
G1 X103.7162 Y-179.1053 F12000.0
G1 Z0.0000 F2500.0
G4 P0.02
G0 X106.1053 Y-180.4233 F15000.0
G1 Z11.9000 F2500.0
G4 P0.02
G1 X106.1053 Y-151.3432 F12000.0
G1 X105.4462 Y-156.2037 F3500.0
G1 X106.1053 Y-155.7094 F3500.0
G1 X106.7643 Y-156.2037 F3500.0
G1 X106.1053 Y-151.3432 F3500.0
G1 Z0.0000 F2500.0
G4 P0.02
G0 X108.0824 Y-151.3432 F15000.0
G1 Z11.9000 F2500.0
G4 P0.02
G1 X67.6339 Y-151.3432 F12000.0
G1 X64.7506 Y-151.3432 F3500.0
G1 Z0.0000 F2500.0
G4 P0.02
G0 X65.3272 Y-151.3432 F15000.0
G1 Z11.9000 F2500.0
G4 P0.02
G1 X58.9016 Y-144.9176 F3500.0
G1 Z0.0000 F2500.0
G4 P0.02
G0 X62.1968 Y-144.0938 F15000.0
G1 Z11.9000 F2500.0
G4 P0.02
G1 X71.7529 Y-153.6499 F12000.0
G1 Z0.0000 F2500.0
G4 P0.02
G0 X64.7506 Y-154.8856 F15000.0
G1 Z11.9000 F2500.0
G4 P0.02
G1 X58.9016 Y-149.0366 F3500.0
G1 Z0.0000 F2500.0
G4 P0.02
G0 X58.9016 Y-153.1556 F15000.0
G1 Z11.9000 F2500.0
G4 P0.02
G1 X64.7506 Y-159.0046 F3500.0
G1 Z0.0000 F2500.0
G4 P0.02
G0 X64.7506 Y-163.1236 F15000.0
G1 Z11.9000 F2500.0
G4 P0.02
G1 X58.3250 Y-156.6979 F3500.0
G1 Z0.0000 F2500.0
G4 P0.02
G0 X54.2060 Y-156.6979 F15000.0
G1 Z11.9000 F2500.0
G4 P0.02
G1 X60.9611 Y-163.5355 F3500.0
G1 Z0.0000 F2500.0
G4 P0.02
G0 X64.7506 Y-163.5355 F15000.0
G1 Z11.9000 F2500.0
G4 P0.02
G1 X19.9359 Y-163.5355 F12000.0
G1 Z0.0000 F2500.0
G4 P0.02
G0 X23.8078 Y-163.5355 F15000.0
G1 Z11.9000 F2500.0
G4 P0.02
G1 X19.9359 Y-159.6636 F3500.0
G1 Z0.0000 F2500.0
G4 P0.02
G0 X20.9245 Y-157.6865 F15000.0
G1 Z11.9000 F2500.0
G4 P0.02
G1 X49.1808 Y-157.6865 F12000.0
G1 X49.1808 Y-156.6979 F3500.0
G1 Z0.0000 F2500.0
G4 P0.02
G0 X50.0870 Y-156.6979 F15000.0
G1 Z11.9000 F2500.0
G4 P0.02
G1 X56.8421 Y-163.5355 F3500.0
G1 Z0.0000 F2500.0
G4 P0.02
G0 X52.7231 Y-163.5355 F15000.0
G1 Z11.9000 F2500.0
G4 P0.02
G1 X45.8856 Y-156.6979 F3500.0
G1 Z0.0000 F2500.0
G4 P0.02
G0 X41.7666 Y-156.6979 F15000.0
G1 Z11.9000 F2500.0
G4 P0.02
G1 X48.6041 Y-163.5355 F3500.0
G1 Z0.0000 F2500.0
G4 P0.02
G0 X44.4851 Y-163.5355 F15000.0
G1 Z11.9000 F2500.0
G4 P0.02
G1 X37.6476 Y-156.6979 F3500.0
G1 Z0.0000 F2500.0
G4 P0.02
G0 X33.5286 Y-156.6979 F15000.0
G1 Z11.9000 F2500.0
G4 P0.02
G1 X40.3661 Y-163.5355 F3500.0
G1 Z0.0000 F2500.0
G4 P0.02
G0 X36.2472 Y-163.5355 F15000.0
G1 Z11.9000 F2500.0
G4 P0.02
G1 X29.4096 Y-156.6979 F3500.0
G1 Z0.0000 F2500.0
G4 P0.02
G0 X25.2906 Y-156.6979 F15000.0
G1 Z11.9000 F2500.0
G4 P0.02
G1 X32.1282 Y-163.5355 F3500.0
G1 Z0.0000 F2500.0
G4 P0.02
G0 X27.9268 Y-163.5355 F15000.0
G1 Z11.9000 F2500.0
G4 P0.02
G1 X21.5012 Y-157.1098 F3500.0
G1 Z0.0000 F2500.0
G4 P0.02
G0 X21.9131 Y-156.6979 F15000.0
G1 Z11.9000 F2500.0
G4 P0.02
G1 X9.5561 Y-156.6979 F12000.0
G1 Z0.0000 F2500.0
G4 P0.02
G0 X11.5332 Y-156.6979 F15000.0
G1 Z11.9000 F2500.0
G4 P0.02
G1 X10.8742 Y-161.5583 F3500.0
G1 X11.5332 Y-161.0641 F3500.0
G1 X12.1922 Y-161.5583 F3500.0
G1 X11.5332 Y-156.6979 F3500.0
G1 X11.5332 Y-180.0938 F12000.0
G1 X12.1922 Y-175.2334 F3500.0
G1 X11.5332 Y-175.7277 F3500.0
G1 X10.8742 Y-175.2334 F3500.0
G1 X11.5332 Y-180.0938 F3500.0
G1 Z0.0000 F2500.0
G4 P0.02
G0 X9.5561 Y-180.0938 F15000.0
G1 Z11.9000 F2500.0
G4 P0.02
G1 X21.9131 Y-180.0938 F12000.0
G1 X58.9016 Y-180.0938 F12000.0
G1 Z0.0000 F2500.0
G4 P0.02
G0 X58.9016 Y-184.2128 F15000.0
G1 Z11.9000 F2500.0
G4 P0.02
G1 X68.6224 Y-184.2128 F12000.0
G1 X68.6224 Y-168.3959 F12000.0
G1 Z0.0000 F2500.0
G4 P0.02
G0 X67.6339 Y-168.3959 F15000.0
G1 Z11.9000 F2500.0
G4 P0.02
G1 X67.6339 Y-123.5812 F12000.0
G1 Z0.0000 F2500.0
G4 P0.02
G0 X67.6339 Y-125.5584 F15000.0
G1 Z11.9000 F2500.0
G4 P0.02
G1 X72.4943 Y-126.1350 F3500.0
G1 X72.0000 Y-125.5584 F3500.0
G1 X72.4943 Y-124.8993 F3500.0
G1 X67.6339 Y-125.5584 F3500.0
G1 X88.0641 Y-125.5584 F12000.0
G1 X83.2037 Y-124.8993 F3500.0
G1 X83.6979 Y-125.5584 F3500.0
G1 X83.2037 Y-126.1350 F3500.0
G1 X88.0641 Y-125.5584 F3500.0
G1 Z0.0000 F2500.0
G4 P0.02
G0 X86.1129 Y-125.2700 F15000.0
G1 Z11.9000 F2500.0
G4 P0.02
G1 X85.2372 Y-125.2700 F3500.0
G1 Z0.0000 F2500.0
G4 P0.02
G0 X84.9077 Y-125.8467 F15000.0
G1 Z11.9000 F2500.0
G4 P0.02
G1 X85.7834 Y-125.8467 F3500.0
G1 Z0.0000 F2500.0
G4 P0.02
G0 X79.1343 Y-128.2863 F15000.0
G1 Z11.9000 F2500.0
G4 P0.02
G1 X80.6380 Y-132.4437 F3500.0
G1 X80.8370 Y-132.7311
G1 Z0.0000 F2500.0
G4 P0.02
G0 X80.5274 Y-132.3552 F15000.0
G1 Z11.9000 F2500.0
G4 P0.02
G1 X79.9967 Y-132.1119 F3500.0
G1 Z0.0000 F2500.0
G4 P0.02
G0 X79.4660 Y-131.7581 F15000.0
G1 Z11.9000 F2500.0
G4 P0.02
G1 X79.2227 Y-131.5149 F3500.0
G1 Z0.0000 F2500.0
G4 P0.02
G0 X78.1500 Y-132.4979 F15000.0
G1 Z11.9000 F2500.0
G4 P0.02
G1 X78.3491 Y-132.1883 F3500.0
G1 X76.7569 Y-129.9327
G1 Z0.0000 F2500.0
G4 P0.02
G0 X77.1107 Y-128.2300 F15000.0
G1 Z11.9000 F2500.0
G4 P0.02
G1 X75.2311 Y-128.2300 F3500.0
G1 Z0.0000 F2500.0
G4 P0.02
G0 X75.2974 Y-128.4732 F15000.0
G1 Z11.9000 F2500.0
G4 P0.02
G1 X75.2089 Y-128.2300 F3500.0
G1 X74.9436 Y-128.1415
G1 Z0.0000 F2500.0
G4 P0.02
G0 X76.3146 Y-131.8566 F15000.0
G1 Z11.9000 F2500.0
G4 P0.02
G1 X77.0665 Y-132.4979 F3500.0
G1 X77.9731 Y-132.5863
G1 Z0.0000 F2500.0
G4 P0.02
G0 X80.3204 Y-136.5973 F15000.0
G1 Z11.9000 F2500.0
G4 P0.02
G1 X80.7323 Y-137.2563 F3500.0
G1 X80.3204 Y-137.9153 F3500.0
G1 X85.1808 Y-137.2563 F3500.0
G1 X80.3204 Y-136.5973 F3500.0
G1 Z0.0000 F2500.0
G4 P0.02
G0 X82.0656 Y-137.5858 F15000.0
G1 Z11.9000 F2500.0
G4 P0.02
G1 X82.9413 Y-137.5858 F3500.0
G1 Z0.0000 F2500.0
G4 P0.02
G0 X83.2296 Y-136.9680 F15000.0
G1 Z11.9000 F2500.0
G4 P0.02
G1 X82.3539 Y-136.9680 F3500.0
G1 Z0.0000 F2500.0
G4 P0.02
G0 X85.1808 Y-137.2563 F15000.0
G1 Z11.9000 F2500.0
G4 P0.02
G1 X78.3433 Y-137.2563 F3500.0
G1 Z0.0000 F2500.0
G4 P0.02
G0 X85.1808 Y-137.2563 F15000.0
G1 Z11.9000 F2500.0
G4 P0.02
G1 X88.0641 Y-137.2563 F3500.0
G1 X92.9245 Y-136.5973 F3500.0
G1 X92.4302 Y-137.2563 F3500.0
G1 X92.9245 Y-137.9153 F3500.0
G1 X88.0641 Y-137.2563 F3500.0
G1 X94.9016 Y-137.2563 F3500.0
G1 Z0.0000 F2500.0
G4 P0.02
G0 X92.9245 Y-137.2563 F15000.0
G1 Z11.9000 F2500.0
G4 P0.02
G1 X118.3799 Y-137.2563 F12000.0
G1 Z0.0000 F2500.0
G4 P0.02
G0 X115.4474 Y-134.0596 F15000.0
G1 Z11.9000 F2500.0
G4 P0.02
G1 X114.3196 Y-131.0743 F3500.0
G1 X112.7938 Y-131.1849
G1 X113.5235 Y-133.5068
G1 Z0.0000 F2500.0
G4 P0.02
G0 X113.7005 Y-133.9933 F15000.0
G1 Z11.9000 F2500.0
G4 P0.02
G1 X113.7226 Y-134.0596 F3500.0
G1 Z0.0000 F2500.0
G4 P0.02
G0 X112.8556 Y-134.2682 F15000.0
G1 Z11.9000 F2500.0
G4 P0.02
G1 X112.8335 Y-134.1797 F3500.0
G1 Z0.0000 F2500.0
G4 P0.02
G0 X112.3913 Y-133.8038 F15000.0
G1 Z11.9000 F2500.0
G4 P0.02
G1 X111.9932 Y-133.4942 F3500.0
G1 Z0.0000 F2500.0
G4 P0.02
G0 X111.6615 Y-133.2510 F15000.0
G1 Z11.9000 F2500.0
G4 P0.02
G1 X111.1308 Y-132.6981 F3500.0
G1 X110.8433 Y-132.6097
G1 X110.4011 Y-132.3222
G1 Z0.0000 F2500.0
G4 P0.02
G0 X111.1529 Y-132.6981 F15000.0
G1 Z11.9000 F2500.0
G4 P0.02
G1 X111.5510 Y-131.1502 F3500.0
G1 Z0.0000 F2500.0
G4 P0.02
G0 X109.8925 Y-131.1281 F15000.0
G1 Z11.9000 F2500.0
G4 P0.02
G1 X109.8482 Y-131.0175 F3500.0
G1 X110.9760 Y-134.0250
G1 Z0.0000 F2500.0
G4 P0.02
G0 X109.9307 Y-134.1168 F15000.0
G1 Z11.9000 F2500.0
G4 P0.02
G1 X108.4491 Y-133.9620 F3500.0
G1 X108.2722 Y-133.8072
G1 X107.8078 Y-132.6573
G1 X107.4319 Y-131.1315
G1 X108.7587 Y-130.9988
G1 Z0.0000 F2500.0
G4 P0.02
G0 X106.4315 Y-131.1423 F15000.0
G1 Z11.9000 F2500.0
G4 P0.02
G1 X106.3652 Y-131.2529 F3500.0
G1 Z0.0000 F2500.0
G4 P0.02
G0 X104.7951 Y-131.0539 F15000.0
G1 Z11.9000 F2500.0
G4 P0.02
G1 X106.0556 Y-131.1423 F3500.0
G1 X106.3652 Y-131.2529
G1 X107.2718 Y-134.1055
G1 X105.8344 Y-134.0392
G1 X105.5691 Y-133.8180
G1 X105.2595 Y-133.1325
G1 Z0.0000 F2500.0
G4 P0.02
G0 X105.0826 Y-132.6460 F15000.0
G1 Z11.9000 F2500.0
G4 P0.02
G1 X104.6845 Y-131.1644 F3500.0
G1 Z0.0000 F2500.0
G4 P0.02
G0 X103.4048 Y-131.4543 F15000.0
G1 Z11.9000 F2500.0
G4 P0.02
G1 X103.6039 Y-131.7196 F3500.0
G1 X104.2230 Y-133.7541
G1 X104.0019 Y-134.0415
G1 X103.2500 Y-134.1521
G1 Z0.0000 F2500.0
G4 P0.02
G0 X103.0731 Y-134.1079 F15000.0
G1 Z11.9000 F2500.0
G4 P0.02
G1 X103.0289 Y-133.8204 F3500.0
G1 Z0.0000 F2500.0
G4 P0.02
G0 X102.8962 Y-133.4666 F15000.0
G1 Z11.9000 F2500.0
G4 P0.02
G1 X102.0338 Y-130.9899 F3500.0
G1 X101.1271 Y-131.1004
G1 Z0.0000 F2500.0
G4 P0.02
G0 X100.9945 Y-131.2110 F15000.0
G1 Z11.9000 F2500.0
G4 P0.02
G1 X100.9281 Y-131.2995 F3500.0
G1 X100.9281 Y-131.8523
G1 X101.5473 Y-133.4666
G1 Z0.0000 F2500.0
G4 P0.02
G0 X101.3925 Y-133.1128 F15000.0
G1 Z11.9000 F2500.0
G4 P0.02
G1 X101.3704 Y-133.0464 F3500.0
G1 Z0.0000 F2500.0
G4 P0.02
G0 X102.1886 Y-134.0194 F15000.0
G1 Z11.9000 F2500.0
G4 P0.02
G1 X103.2058 Y-134.1521 F3500.0
G1 X103.4269 Y-134.8376
G1 Z0.0000 F2500.0
G4 P0.02
G0 X102.9847 Y-131.1447 F15000.0
G1 Z11.9000 F2500.0
G4 P0.02
G1 X103.0731 Y-131.2110 F3500.0
G1 X102.8520 Y-131.0783
G1 X102.0780 Y-130.9899
G1 Z0.0000 F2500.0
G4 P0.02
G0 X101.9232 Y-130.9678 F15000.0
G1 Z11.9000 F2500.0
G4 P0.02
G1 X101.4589 Y-129.5967 F3500.0
G1 Z0.0000 F2500.0
G4 P0.02
G0 X97.5978 Y-131.0720 F15000.0
G1 Z11.9000 F2500.0
G4 P0.02
G1 X95.7182 Y-131.0720 F3500.0
G1 Z0.0000 F2500.0
G4 P0.02
G0 X95.7845 Y-131.3152 F15000.0
G1 Z11.9000 F2500.0
G4 P0.02
G1 X95.6961 Y-131.0720 F3500.0
G1 X95.4307 Y-130.9835
G1 Z0.0000 F2500.0
G4 P0.02
G0 X97.2440 Y-132.7747 F15000.0
G1 Z11.9000 F2500.0
G4 P0.02
G1 X98.8362 Y-135.0303 F3500.0
G1 X98.6372 Y-135.3399
G1 Z0.0000 F2500.0
G4 P0.02
G0 X98.4602 Y-135.4283 F15000.0
G1 Z11.9000 F2500.0
G4 P0.02
G1 X97.5536 Y-135.3399 F3500.0
G1 X96.8017 Y-134.6986
G1 Z0.0000 F2500.0
G4 P0.02
G0 X95.5539 Y-139.9205 F15000.0
G1 Z11.9000 F2500.0
G4 P0.02
G1 X96.8807 Y-140.0974 F3500.0
G1 X97.3451 Y-140.5175
G1 X97.7431 Y-141.5347
G1 X97.7431 Y-141.9991
G1 X97.5441 Y-142.3308
G1 X97.6326 Y-142.5520
G1 X98.0306 Y-142.9058
G1 X98.2075 Y-143.3480
G1 X98.1633 Y-143.2375
G1 X98.3844 Y-144.0114
G1 X98.1191 Y-144.3653
G1 X97.1461 Y-144.4095
G1 Z0.0000 F2500.0
G4 P0.02
G0 X97.5220 Y-142.3529 F15000.0
G1 Z11.9000 F2500.0
G4 P0.02
G1 X96.9471 Y-142.2645 F3500.0
G1 Z0.0000 F2500.0
G4 P0.02
G0 X98.9815 Y-142.1760 F15000.0
G1 Z11.9000 F2500.0
G4 P0.02
G1 X99.9103 Y-140.6502 F3500.0
G1 X99.3132 Y-141.3136
G1 X98.3844 Y-140.7165
G1 X98.1412 Y-140.4512
G1 Z0.0000 F2500.0
G4 P0.02
G0 X97.0134 Y-140.1858 F15000.0
G1 Z11.9000 F2500.0
G4 P0.02
G1 X96.9692 Y-140.1416 F3500.0
G1 Z0.0000 F2500.0
G4 P0.02
G0 X99.6007 Y-141.5790 F15000.0
G1 Z11.9000 F2500.0
G4 P0.02
G1 X100.6621 Y-142.3087 F3500.0
G1 X100.7285 Y-142.4635
G1 X101.5278 Y-141.8980
G1 X101.1077 Y-141.0135
G1 X102.3239 Y-140.9472
G1 X102.0143 Y-140.0405
G1 Z0.0000 F2500.0
G4 P0.02
G0 X102.9210 Y-140.9472 F15000.0
G1 Z11.9000 F2500.0
G4 P0.02
G1 X102.4566 Y-140.9914 F3500.0
G1 X102.7883 Y-141.9644
G1 Z0.0000 F2500.0
G4 P0.02
G0 X101.8816 Y-142.5393 F15000.0
G1 Z11.9000 F2500.0
G4 P0.02
G1 X102.9431 Y-144.4190 F3500.0
G1 Z0.0000 F2500.0
G4 P0.02
G0 X105.0745 Y-143.6364 F15000.0
G1 Z11.9000 F2500.0
G4 P0.02
G1 X105.4062 Y-144.4103 F3500.0
G1 X106.9983 Y-144.4324
G1 Z0.0000 F2500.0
G4 P0.02
G0 X107.8121 Y-143.5151 F15000.0
G1 Z11.9000 F2500.0
G4 P0.02
G1 X107.9669 Y-144.1122 F3500.0
G1 X108.6081 Y-144.2891
G1 X108.6524 Y-143.7141
G1 X108.3428 Y-143.4709
G1 X107.8784 Y-143.4488
G1 Z0.0000 F2500.0
G4 P0.02
G0 X104.8976 Y-143.1499 F15000.0
G1 Z11.9000 F2500.0
G4 P0.02
G1 X104.6985 Y-142.3980 F3500.0
G1 X105.6494 Y-142.3096
G1 X105.9369 Y-142.1327
G1 X106.0253 Y-141.9336
G1 X105.9590 Y-141.4914
G1 X105.7158 Y-140.8058
G1 X105.1187 Y-140.0982
G1 X103.7919 Y-139.9213
G1 Z0.0000 F2500.0
G4 P0.02
G0 X91.2616 Y-137.5858 F15000.0
G1 Z11.9000 F2500.0
G4 P0.02
G1 X90.3860 Y-137.5858 F3500.0
G1 Z0.0000 F2500.0
G4 P0.02
G0 X90.0564 Y-136.9680 F15000.0
G1 Z11.9000 F2500.0
G4 P0.02
G1 X90.9321 Y-136.9680 F3500.0
G1 Z0.0000 F2500.0
G4 P0.02
G0 X85.1808 Y-135.2792 F15000.0
G1 Z11.9000 F2500.0
G4 P0.02
G1 X85.1808 Y-168.3959 F12000.0
G1 Z0.0000 F2500.0
G4 P0.02
G0 X96.3124 Y-184.0363 F15000.0
G1 Z11.9000 F2500.0
G4 P0.02
G1 X95.7596 Y-182.1567 F3500.0
G1 X95.8038 Y-182.0240
G1 X96.2682 Y-181.7807
G1 X97.5508 Y-181.8029
G1 X98.3468 Y-184.1248
G1 X97.8382 Y-184.1690
G1 Z0.0000 F2500.0
G4 P0.02
G0 X96.5335 Y-184.6334 F15000.0
G1 Z11.9000 F2500.0
G4 P0.02
G1 X96.4893 Y-184.5007 F3500.0
G1 Z0.0000 F2500.0
G4 P0.02
G0 X96.4230 Y-184.3238 F15000.0
G1 Z11.9000 F2500.0
G4 P0.02
G1 X97.0421 Y-185.7833 F3500.0
G1 X97.4402 Y-186.0929
G1 X99.0987 Y-186.2477
G1 Z0.0000 F2500.0
G4 P0.02
G0 X99.8948 Y-185.2968 F15000.0
G1 Z11.9000 F2500.0
G4 P0.02
G1 X99.7179 Y-185.0978 F3500.0
G1 Z0.0000 F2500.0
G4 P0.02
G0 X100.2044 Y-185.4958 F15000.0
G1 Z11.9000 F2500.0
G4 P0.02
G1 X100.4918 Y-185.6948 F3500.0
G1 Z0.0000 F2500.0
G4 P0.02
G0 X100.7351 Y-185.8496 F15000.0
G1 Z11.9000 F2500.0
G4 P0.02
G1 X101.0447 Y-185.9381 F3500.0
G1 Z0.0000 F2500.0
G4 P0.02
G0 X101.3100 Y-186.3140 F15000.0
G1 Z11.9000 F2500.0
G4 P0.02
G1 X101.1110 Y-185.9823 F3500.0
G1 X100.2928 Y-183.6604
G1 Z0.0000 F2500.0
G4 P0.02
G0 X100.0717 Y-183.0633 F15000.0
G1 Z11.9000 F2500.0
G4 P0.02
G1 X99.6294 Y-181.8471 F3500.0
G1 Z0.0000 F2500.0
G4 P0.02
G0 X96.7989 Y-185.3189 F15000.0
G1 Z11.9000 F2500.0
G4 P0.02
G1 X96.8431 Y-185.4295 F3500.0
G1 Z0.0000 F2500.0
G4 P0.02
G0 X88.0641 Y-192.3684 F15000.0
G1 Z11.9000 F2500.0
G4 P0.02
G1 X88.0641 Y-192.6979 F3500.0
G1 X58.9016 Y-192.6979 F12000.0
G1 Z0.0000 F2500.0
G4 P0.02
G0 X58.9016 Y-184.2128 F15000.0
G1 Z11.9000 F2500.0
G4 P0.02
G1 X63.7620 Y-168.3959 F12000.0
G1 X68.6224 Y-184.2128 F12000.0
G1 Z0.0000 F2500.0
G4 P0.02
G0 X68.6224 Y-180.6705 F15000.0
G1 Z11.9000 F2500.0
G4 P0.02
G1 X68.6224 Y-203.8192 F12000.0
G1 Z0.0000 F2500.0
G4 P0.02
G0 X68.6224 Y-201.9245 F15000.0
G1 Z11.9000 F2500.0
G4 P0.02
G1 X73.4828 Y-201.2654 F3500.0
G1 X72.9886 Y-201.9245 F3500.0
G1 X73.4828 Y-202.5011 F3500.0
G1 X68.6224 Y-201.9245 F3500.0
G1 X75.3776 Y-201.9245 F3500.0
G1 Z0.0000 F2500.0
G4 P0.02
G0 X71.8612 Y-202.2128 F15000.0
G1 Z11.9000 F2500.0
G4 P0.02
G1 X70.9855 Y-202.2128 F3500.0
G1 Z0.0000 F2500.0
G4 P0.02
G0 X70.6148 Y-201.6361 F15000.0
G1 Z11.9000 F2500.0
G4 P0.02
G1 X71.4905 Y-201.6361 F3500.0
G1 Z0.0000 F2500.0
G4 P0.02
G0 X68.6224 Y-201.9245 F15000.0
G1 Z11.9000 F2500.0
G4 P0.02
G1 X58.9016 Y-201.9245 F12000.0
G1 X54.0412 Y-201.2654 F3500.0
G1 X54.5355 Y-201.9245 F3500.0
G1 X54.0412 Y-202.5011 F3500.0
G1 X58.9016 Y-201.9245 F3500.0
G1 X19.9359 Y-201.9245 F12000.0
G1 X24.7964 Y-202.5011 F3500.0
G1 X24.3021 Y-201.9245 F3500.0
G1 X24.7964 Y-201.2654 F3500.0
G1 X19.9359 Y-201.9245 F3500.0
G1 Z0.0000 F2500.0
G4 P0.02
G0 X21.9283 Y-201.6361 F15000.0
G1 Z11.9000 F2500.0
G4 P0.02
G1 X22.8040 Y-201.6361 F3500.0
G1 Z0.0000 F2500.0
G4 P0.02
G0 X23.1747 Y-202.2128 F15000.0
G1 Z11.9000 F2500.0
G4 P0.02
G1 X22.2990 Y-202.2128 F3500.0
G1 Z0.0000 F2500.0
G4 P0.02
G0 X21.9283 Y-214.1579 F15000.0
G1 Z11.9000 F2500.0
G4 P0.02
G1 X22.8040 Y-214.1579 F3500.0
G1 Z0.0000 F2500.0
G4 P0.02
G0 X23.1335 Y-214.7757 F15000.0
G1 Z11.9000 F2500.0
G4 P0.02
G1 X22.2578 Y-214.7757 F3500.0
G1 Z0.0000 F2500.0
G4 P0.02
G0 X36.9440 Y-206.5065 F15000.0
G1 Z11.9000 F2500.0
G4 P0.02
G1 X36.5238 Y-205.6219 F3500.0
G1 X37.7401 Y-205.5556
G1 X37.4305 Y-204.6489
G1 Z0.0000 F2500.0
G4 P0.02
G0 X37.7401 Y-205.5556 F15000.0
G1 Z11.9000 F2500.0
G4 P0.02
G1 X37.8506 Y-205.5777 F3500.0
G1 X38.2044 Y-206.5728
G1 Z0.0000 F2500.0
G4 P0.02
G0 X38.3371 Y-205.5556 F15000.0
G1 Z11.9000 F2500.0
G4 P0.02
G1 X37.8949 Y-205.5777 F3500.0
G1 Z0.0000 F2500.0
G4 P0.02
G0 X39.4579 Y-205.4798 F15000.0
G1 Z11.9000 F2500.0
G4 P0.02
G1 X39.4800 Y-205.5682 F3500.0
G1 Z0.0000 F2500.0
G4 P0.02
G0 X39.6791 Y-206.0990 F15000.0
G1 Z11.9000 F2500.0
G4 P0.02
G1 X39.4137 Y-205.3250 F3500.0
G1 X39.4137 Y-204.8827
G1 X39.4800 Y-204.7721
G1 Z0.0000 F2500.0
G4 P0.02
G0 X39.6791 Y-204.5952 F15000.0
G1 Z11.9000 F2500.0
G4 P0.02
G1 X40.5415 Y-204.5510 F3500.0
G1 X41.0501 Y-204.7943
G1 Z0.0000 F2500.0
G4 P0.02
G0 X41.3597 Y-205.1039 F15000.0
G1 Z11.9000 F2500.0
G4 P0.02
G1 X42.2000 Y-207.2931 F3500.0
G1 Z0.0000 F2500.0
G4 P0.02
G0 X42.3548 Y-207.7132 F15000.0
G1 Z11.9000 F2500.0
G4 P0.02
G1 X42.4875 Y-208.7968 F3500.0
G1 Z0.0000 F2500.0
G4 P0.02
G0 X42.3769 Y-208.9074 F15000.0
G1 Z11.9000 F2500.0
G4 P0.02
G1 X41.2270 Y-208.9516 F3500.0
G1 X41.0059 Y-208.8410
G1 X40.5857 Y-208.4430
G1 X39.8117 Y-206.4528
G1 Z0.0000 F2500.0
G4 P0.02
G0 X40.6078 Y-208.4872 F15000.0
G1 Z11.9000 F2500.0
G4 P0.02
G1 X40.6520 Y-208.5314 F3500.0
G1 Z0.0000 F2500.0
G4 P0.02
G0 X38.3592 Y-209.0274 F15000.0
G1 Z11.9000 F2500.0
G4 P0.02
G1 X38.3150 Y-208.9390 F3500.0
G1 Z0.0000 F2500.0
G4 P0.02
G0 X38.0718 Y-208.4967 F15000.0
G1 Z11.9000 F2500.0
G4 P0.02
G1 X37.2978 Y-207.1478 F3500.0
G1 Z0.0000 F2500.0
G4 P0.02
G0 X37.2406 Y-196.8842 F15000.0
G1 Z11.9000 F2500.0
G4 P0.02
G1 X37.1080 Y-196.9284 F3500.0
G1 X35.8917 Y-196.7073
G1 X35.5600 Y-196.3977
G1 X34.4101 Y-193.4345
G1 X34.4322 Y-192.6827
G1 Z0.0000 F2500.0
G4 P0.02
G0 X34.5207 Y-192.5942 F15000.0
G1 Z11.9000 F2500.0
G4 P0.02
G1 X35.4937 Y-192.4615 F3500.0
G1 X35.9581 Y-192.6827
G1 X36.2676 Y-192.9480
G1 X36.5772 Y-193.6114
G1 Z0.0000 F2500.0
G4 P0.02
G0 X36.7984 Y-194.2306 F15000.0
G1 Z11.9000 F2500.0
G4 P0.02
G1 X37.4397 Y-196.7073 F3500.0
G1 Z0.0000 F2500.0
G4 P0.02
G0 X36.0244 Y-196.7958 F15000.0
G1 Z11.9000 F2500.0
G4 P0.02
G1 X35.9359 Y-196.7294 F3500.0
G1 Z0.0000 F2500.0
G4 P0.02
G0 X35.3389 Y-195.9333 F15000.0
G1 Z11.9000 F2500.0
G4 P0.02
G1 X35.3168 Y-195.8670 F3500.0
G1 Z0.0000 F2500.0
G4 P0.02
G0 X34.1005 Y-195.8670 F15000.0
G1 Z11.9000 F2500.0
G4 P0.02
G1 X34.0563 Y-195.7564 F3500.0
G1 X34.2774 Y-196.5304
G1 Z0.0000 F2500.0
G4 P0.02
G0 X34.1890 Y-196.7294 F15000.0
G1 Z11.9000 F2500.0
G4 P0.02
G1 X34.0121 Y-196.8842 F3500.0
G1 X33.0391 Y-196.9284
G1 Z0.0000 F2500.0
G4 P0.02
G0 X33.9236 Y-195.4247 F15000.0
G1 Z11.9000 F2500.0
G4 P0.02
G1 X33.5256 Y-195.0709 F3500.0
G1 X33.4371 Y-194.8498
G1 X33.6361 Y-194.5181
G1 X33.6361 Y-194.0537
G1 X33.2381 Y-193.0365
G1 X32.7737 Y-192.6163
G1 X31.4469 Y-192.4394
G1 Z0.0000 F2500.0
G4 P0.02
G0 X32.8622 Y-192.6605 F15000.0
G1 Z11.9000 F2500.0
G4 P0.02
G1 X32.9064 Y-192.7048 F3500.0
G1 Z0.0000 F2500.0
G4 P0.02
G0 X32.8401 Y-194.7834 F15000.0
G1 Z11.9000 F2500.0
G4 P0.02
G1 X33.4150 Y-194.8719 F3500.0
G1 Z0.0000 F2500.0
G4 P0.02
G0 X24.7964 Y-190.4737 F15000.0
G1 Z11.9000 F2500.0
G4 P0.02
G1 X19.9359 Y-189.8146 F3500.0
G1 X24.7964 Y-189.1556 F3500.0
G1 X24.3021 Y-189.8146 F3500.0
G1 X24.7964 Y-190.4737 F3500.0
G1 Z0.0000 F2500.0
G4 P0.02
G0 X23.1335 Y-190.1442 F15000.0
G1 Z11.9000 F2500.0
G4 P0.02
G1 X22.2578 Y-190.1442 F3500.0
G1 Z0.0000 F2500.0
G4 P0.02
G0 X21.9283 Y-189.5263 F15000.0
G1 Z11.9000 F2500.0
G4 P0.02
G1 X22.8040 Y-189.5263 F3500.0
G1 Z0.0000 F2500.0
G4 P0.02
G0 X19.9359 Y-189.8146 F15000.0
G1 Z11.9000 F2500.0
G4 P0.02
G1 X49.1808 Y-189.8146 F12000.0
G1 X44.3204 Y-189.1556 F3500.0
G1 X44.7323 Y-189.8146 F3500.0
G1 X44.3204 Y-190.4737 F3500.0
G1 X49.1808 Y-189.8146 F3500.0
G1 Z0.0000 F2500.0
G4 P0.02
G0 X49.1808 Y-191.7094 F15000.0
G1 Z11.9000 F2500.0
G4 P0.02
G1 X49.1808 Y-178.1167 F12000.0
G1 Z0.0000 F2500.0
G4 P0.02
G0 X49.1808 Y-179.1053 F15000.0
G1 Z11.9000 F2500.0
G4 P0.02
G1 X20.9245 Y-179.1053 F12000.0
G1 Z0.0000 F2500.0
G4 P0.02
G0 X21.9131 Y-180.0938 F15000.0
G1 Z11.9000 F2500.0
G4 P0.02
G1 X21.9131 Y-168.3959 F12000.0
G1 Z0.0000 F2500.0
G4 P0.02
G0 X18.3707 Y-168.3959 F15000.0
G1 Z11.9000 F2500.0
G4 P0.02
G1 X29.3272 Y-168.3959 F12000.0
G1 Z0.0000 F2500.0
G4 P0.02
G0 X30.8101 Y-168.3959 F15000.0
G1 Z11.9000 F2500.0
G4 P0.02
G1 X32.2929 Y-168.3959 F3500.0
G1 Z0.0000 F2500.0
G4 P0.02
G0 X33.7758 Y-168.3959 F15000.0
G1 Z11.9000 F2500.0
G4 P0.02
G1 X44.7323 Y-168.3959 F12000.0
G1 Z0.0000 F2500.0
G4 P0.02
G0 X46.2151 Y-168.3959 F15000.0
G1 Z11.9000 F2500.0
G4 P0.02
G1 X47.6980 Y-168.3959 F3500.0
G1 Z0.0000 F2500.0
G4 P0.02
G0 X49.0984 Y-168.3959 F15000.0
G1 Z11.9000 F2500.0
G4 P0.02
G1 X60.1373 Y-168.3959 F12000.0
G1 Z0.0000 F2500.0
G4 P0.02
G0 X58.9016 Y-168.3959 F15000.0
G1 Z11.9000 F2500.0
G4 P0.02
G1 X58.9016 Y-203.8192 F12000.0
G1 Z0.0000 F2500.0
G4 P0.02
G0 X56.6209 Y-202.2128 F15000.0
G1 Z11.9000 F2500.0
G4 P0.02
G1 X55.7452 Y-202.2128 F3500.0
G1 Z0.0000 F2500.0
G4 P0.02
G0 X56.0747 Y-201.6361 F15000.0
G1 Z11.9000 F2500.0
G4 P0.02
G1 X56.9504 Y-201.6361 F3500.0
G1 Z0.0000 F2500.0
G4 P0.02
G0 X61.9367 Y-204.6174 F15000.0
G1 Z11.9000 F2500.0
G4 P0.02
G1 X63.3519 Y-208.6862 F3500.0
G1 X63.6615 Y-209.1948
G1 Z0.0000 F2500.0
G4 P0.02
G0 X63.3298 Y-208.7083 F15000.0
G1 Z11.9000 F2500.0
G4 P0.02
G1 X63.0424 Y-208.6420 F3500.0
G1 X62.7549 Y-208.4430
G1 Z0.0000 F2500.0
G4 P0.02
G0 X62.4453 Y-208.2440 F15000.0
G1 Z11.9000 F2500.0
G4 P0.02
G1 X62.0251 Y-207.8901 F3500.0
G1 Z0.0000 F2500.0
G4 P0.02
G0 X63.6173 Y-206.4528 F15000.0
G1 Z11.9000 F2500.0
G4 P0.02
G1 X64.3913 Y-208.4430 F3500.0
G1 X64.8999 Y-208.8852
G1 X65.9834 Y-209.0179
G1 X66.1161 Y-208.9737
G1 Z0.0000 F2500.0
G4 P0.02
G0 X66.2930 Y-208.7968 F15000.0
G1 Z11.9000 F2500.0
G4 P0.02
G1 X66.1825 Y-207.7796 F3500.0
G1 X65.2095 Y-205.1702
G1 Z0.0000 F2500.0
G4 P0.02
G0 X64.8557 Y-204.7943 F15000.0
G1 Z11.9000 F2500.0
G4 P0.02
G1 X63.5731 Y-204.5731 F3500.0
G1 X63.2635 Y-204.8164
G1 X63.2193 Y-205.3250
G1 X63.4846 Y-206.0990
G1 Z0.0000 F2500.0
G4 P0.02
G0 X63.2856 Y-205.5682 F15000.0
G1 Z11.9000 F2500.0
G4 P0.02
G1 X63.2635 Y-205.4798 F3500.0
G1 Z0.0000 F2500.0
G4 P0.02
G0 X64.4134 Y-208.4872 F15000.0
G1 Z11.9000 F2500.0
G4 P0.02
G1 X64.4576 Y-208.5314 F3500.0
G1 Z0.0000 F2500.0
G4 P0.02
G0 X54.2814 Y-217.1579 F15000.0
G1 Z11.9000 F2500.0
G4 P0.02
G1 X55.1439 Y-217.1137 F3500.0
G1 X55.6525 Y-217.3569
G1 X55.9178 Y-217.6002
G1 X56.8024 Y-219.8557
G1 Z0.0000 F2500.0
G4 P0.02
G0 X56.9572 Y-220.2759 F15000.0
G1 Z11.9000 F2500.0
G4 P0.02
G1 X57.0898 Y-221.3595 F3500.0
G1 Z0.0000 F2500.0
G4 P0.02
G0 X56.8908 Y-221.5364 F15000.0
G1 Z11.9000 F2500.0
G4 P0.02
G1 X56.7581 Y-221.5806 F3500.0
G1 X55.6746 Y-221.4479
G1 X55.2102 Y-221.0499
G1 X54.0603 Y-218.0867
G1 X54.0824 Y-217.3348
G1 Z0.0000 F2500.0
G4 P0.02
G0 X52.2691 Y-218.1088 F15000.0
G1 Z11.9000 F2500.0
G4 P0.02
G1 X52.3355 Y-218.2193 F3500.0
G1 X51.6057 Y-217.0473
G1 X51.4952 Y-217.0252
G1 Z0.0000 F2500.0
G4 P0.02
G0 X52.8883 Y-219.1481 F15000.0
G1 Z11.9000 F2500.0
G4 P0.02
G1 X52.8220 Y-219.0375 F3500.0
G1 X53.7065 Y-220.5191
G1 Z0.0000 F2500.0
G4 P0.02
G0 X53.5738 Y-220.2980 F15000.0
G1 Z11.9000 F2500.0
G4 P0.02
G1 X53.5296 Y-220.2317 F3500.0
G1 Z0.0000 F2500.0
G4 P0.02
G0 X54.1488 Y-221.2710 F15000.0
G1 Z11.9000 F2500.0
G4 P0.02
G1 X54.3036 Y-221.6027 F3500.0
G1 X52.2470 Y-221.5142
G1 X52.0480 Y-221.0720
G1 X52.0922 Y-221.1825
G1 Z0.0000 F2500.0
G4 P0.02
G0 X55.0333 Y-220.6739 F15000.0
G1 Z11.9000 F2500.0
G4 P0.02
G1 X55.0775 Y-220.7845 F3500.0
G1 Z0.0000 F2500.0
G4 P0.02
G0 X84.9489 Y-214.7757 F15000.0
G1 Z11.9000 F2500.0
G4 P0.02
G1 X85.8246 Y-214.7757 F3500.0
G1 Z0.0000 F2500.0
G4 P0.02
G0 X86.1129 Y-214.1579 F15000.0
G1 Z11.9000 F2500.0
G4 P0.02
G1 X85.2372 Y-214.1579 F3500.0
G1 Z0.0000 F2500.0
G4 P0.02
G0 X46.9413 Y-190.1442 F15000.0
G1 Z11.9000 F2500.0
G4 P0.02
G1 X46.0656 Y-190.1442 F3500.0
G1 Z0.0000 F2500.0
G4 P0.02
G0 X46.3539 Y-189.5263 F15000.0
G1 Z11.9000 F2500.0
G4 P0.02
G1 X47.2296 Y-189.5263 F3500.0
G1 Z0.0000 F2500.0
G4 P0.02
G0 X49.1808 Y-180.0938 F15000.0
G1 Z11.9000 F2500.0
G4 P0.02
G1 X49.1808 Y-168.3959 F12000.0
G1 Z0.0000 F2500.0
G4 P0.02
G0 X61.6201 Y-168.3959 F15000.0
G1 Z11.9000 F2500.0
G4 P0.02
G1 X63.0206 Y-168.3959 F3500.0
G1 Z0.0000 F2500.0
G4 P0.02
G0 X21.9131 Y-180.0938 F15000.0
G1 Z11.9000 F2500.0
G4 P0.02
G1 X19.9359 Y-178.1167 F3500.0
G1 Z0.0000 F2500.0
G4 P0.02
G0 X11.8627 Y-178.1426 F15000.0
G1 Z11.9000 F2500.0
G4 P0.02
G1 X11.8627 Y-177.2670 F3500.0
G1 Z0.0000 F2500.0
G4 P0.02
G0 X11.2449 Y-176.9786 F15000.0
G1 Z11.9000 F2500.0
G4 P0.02
G1 X11.2449 Y-177.8543 F3500.0
G1 Z0.0000 F2500.0
G4 P0.02
G0 X7.8625 Y-172.3400 F15000.0
G1 Z11.9000 F2500.0
G4 P0.02
G1 X7.7740 Y-170.5489 F3500.0
G1 X7.4865 Y-170.6152
G1 Z0.0000 F2500.0
G4 P0.02
G0 X7.1991 Y-170.7700 F15000.0
G1 Z11.9000 F2500.0
G4 P0.02
G1 X6.2703 Y-171.3007 F3500.0
G1 Z0.0000 F2500.0
G4 P0.02
G0 X5.8280 Y-171.5440 F15000.0
G1 Z11.9000 F2500.0
G4 P0.02
G1 X4.8108 Y-172.1189 F3500.0
G1 Z0.0000 F2500.0
G4 P0.02
G0 X4.6339 Y-170.1729 F15000.0
G1 Z11.9000 F2500.0
G4 P0.02
G1 X4.5676 Y-170.1066 F3500.0
G1 Z0.0000 F2500.0
G4 P0.02
G0 X5.6290 Y-170.1950 F15000.0
G1 Z11.9000 F2500.0
G4 P0.02
G1 X4.8329 Y-170.2835 F3500.0
G1 X4.5455 Y-170.0624
G1 X4.4349 Y-169.8191
G1 X4.4570 Y-169.2442
G1 X5.0541 Y-168.3596
G1 X5.2310 Y-168.2491
G1 Z0.0000 F2500.0
G4 P0.02
G0 X4.5897 Y-167.3645 F15000.0
G1 Z11.9000 F2500.0
G4 P0.02
G1 X4.3243 Y-167.5414 F3500.0
G1 Z0.0000 F2500.0
G4 P0.02
G0 X4.9214 Y-164.8436 F15000.0
G1 Z11.9000 F2500.0
G4 P0.02
G1 X6.4472 Y-165.2416 F3500.0
G1 Z0.0000 F2500.0
G4 P0.02
G0 X6.6020 Y-165.1974 F15000.0
G1 Z11.9000 F2500.0
G4 P0.02
G1 X6.4472 Y-165.2637 F3500.0
G1 X6.2924 Y-165.5954
G1 X4.8772 Y-167.1876
G1 X5.1867 Y-167.1876
G1 X8.7912 Y-165.8829
G1 Z0.0000 F2500.0
G4 P0.02
G0 X8.8797 Y-167.0107 F15000.0
G1 Z11.9000 F2500.0
G4 P0.02
G1 X8.8133 Y-167.1655 F3500.0
G1 X7.1106 Y-168.7134
G1 Z0.0000 F2500.0
G4 P0.02
G0 X8.8576 Y-169.0009 F15000.0
G1 Z11.9000 F2500.0
G4 P0.02
G1 X8.8576 Y-167.2097 F3500.0
G1 Z0.0000 F2500.0
G4 P0.02
G0 X7.7077 Y-163.5168 F15000.0
G1 Z11.9000 F2500.0
G4 P0.02
G1 X8.8355 Y-163.0966 F3500.0
G1 Z0.0000 F2500.0
G4 P0.02
G0 X6.9558 Y-163.8043 F15000.0
G1 Z11.9000 F2500.0
G4 P0.02
G1 X4.8329 Y-164.7772 F3500.0
G1 X4.3243 Y-164.7772
G1 Z0.0000 F2500.0
G4 P0.02
G0 X6.9337 Y-172.1631 F15000.0
G1 Z11.9000 F2500.0
G4 P0.02
G1 X7.8404 Y-171.8757 F3500.0
G1 X7.8625 Y-171.7209
G1 X8.8797 Y-171.3670
G1 Z0.0000 F2500.0
G4 P0.02
G0 X11.2449 Y-159.8955 F15000.0
G1 Z11.9000 F2500.0
G4 P0.02
G1 X11.2449 Y-159.0198 F3500.0
G1 Z0.0000 F2500.0
G4 P0.02
G0 X11.8627 Y-158.7315 F15000.0
G1 Z11.9000 F2500.0
G4 P0.02
G1 X11.8627 Y-159.6072 F3500.0
G1 Z0.0000 F2500.0
G4 P0.02
G0 X69.6262 Y-125.2700 F15000.0
G1 Z11.9000 F2500.0
G4 P0.02
G1 X70.5019 Y-125.2700 F3500.0
G1 Z0.0000 F2500.0
G4 P0.02
G0 X70.8726 Y-125.8467 F15000.0
G1 Z11.9000 F2500.0
G4 P0.02
G1 X69.9969 Y-125.8467 F3500.0
G1 Z0.0000 F2500.0
G4 P0.02
G0 X74.3403 Y-120.0791 F15000.0
G1 Z11.9000 F2500.0
G4 P0.02
G1 X75.0921 Y-120.7204 F3500.0
G1 X75.9988 Y-120.8088
G1 Z0.0000 F2500.0
G4 P0.02
G0 X76.1757 Y-120.7204 F15000.0
G1 Z11.9000 F2500.0
G4 P0.02
G1 X76.3747 Y-120.4108 F3500.0
G1 X74.7825 Y-118.1552
G1 Z0.0000 F2500.0
G4 P0.02
G0 X75.1363 Y-116.4525 F15000.0
G1 Z11.9000 F2500.0
G4 P0.02
G1 X73.2567 Y-116.4525 F3500.0
G1 Z0.0000 F2500.0
G4 P0.02
G0 X73.3230 Y-116.6957 F15000.0
G1 Z11.9000 F2500.0
G4 P0.02
G1 X73.2346 Y-116.4525 F3500.0
G1 X72.9692 Y-116.3640
G1 Z0.0000 F2500.0
G4 P0.02
G0 X76.6622 Y-117.7572 F15000.0
G1 Z11.9000 F2500.0
G4 P0.02
G1 X76.5958 Y-117.4918 F3500.0
G1 X77.7678 Y-117.4255
G1 X77.4804 Y-116.4746
G1 Z0.0000 F2500.0
G4 P0.02
G0 X77.8121 Y-117.4255 F15000.0
G1 Z11.9000 F2500.0
G4 P0.02
G1 X77.9226 Y-117.4255 F3500.0
G1 X78.2322 Y-118.3542
G1 Z0.0000 F2500.0
G4 P0.02
G0 X78.6081 Y-117.4918 F15000.0
G1 Z11.9000 F2500.0
G4 P0.02
G1 X77.9669 Y-117.4255 F3500.0
G1 Z0.0000 F2500.0
G4 P0.02
G0 X76.8391 Y-118.0889 F15000.0
G1 Z11.9000 F2500.0
G4 P0.02
G1 X77.3919 Y-119.0619 F3500.0
G1 Z0.0000 F2500.0
G4 P0.02
G0 X77.6352 Y-119.5041 F15000.0
G1 Z11.9000 F2500.0
G4 P0.02
G1 X78.2101 Y-120.4992 F3500.0
G1 Z0.0000 F2500.0
G4 P0.02
G0 X78.3649 Y-120.7867 F15000.0
G1 Z11.9000 F2500.0
G4 P0.02
G1 X78.4091 Y-120.8752 F3500.0
G1 Z0.0000 F2500.0
G4 P0.02
G0 X67.9893 Y-114.0664 F15000.0
G1 Z11.9000 F2500.0
G4 P0.02
G1 X67.1136 Y-114.0664 F3500.0
G1 Z0.0000 F2500.0
G4 P0.02
G0 X66.7429 Y-113.4897 F15000.0
G1 Z11.9000 F2500.0
G4 P0.02
G1 X67.6186 Y-113.4897 F3500.0
G1 Z0.0000 F2500.0
G4 P0.02
G0 X63.2677 Y-58.9131 F15000.0
G1 Z11.9000 F2500.0
G4 P0.02
G1 X63.2677 Y-5.3662 F12000.0
G1 Z0.0000 F2500.0
G4 P0.02
G0 X63.2677 Y-10.2266 F15000.0
G1 Z11.9000 F2500.0
G4 P0.02
G1 X0.0000 Y-10.2266 F12000.0
G1 Z0.0000 F2500.0
G4 P0.02
G0 X0.8278 Y-10.9783 F15000.0
G1 Z11.9000 F2500.0
G4 P0.02
G1 X1.6239 Y-12.7474 F12000.0
G1 X2.8623 Y-12.7916
G1 X2.2873 Y-10.9783
G1 X1.6681 Y-13.0128
G1 X2.1767 Y-14.2732
G1 X3.5920 Y-14.1848
G1 X2.9728 Y-12.8801
G1 X4.6172 Y-13.3061
G1 X3.6221 Y-10.9842
G1 X4.2413 Y-12.1562
G1 X4.5730 Y-12.2447
G1 X5.6566 Y-13.1292
G1 X4.5951 Y-12.2226
G1 X4.8384 Y-11.1611
G1 X6.7384 Y-11.1958
G1 X5.7433 Y-11.1958
G1 X6.2961 Y-12.9870
G1 X6.5173 Y-13.1639
G1 X7.3134 Y-13.2524 F3500.0
G1 X7.4239 Y-13.1418
G1 X6.8711 Y-11.3727
G1 X7.4040 Y-11.0727
G1 X7.4040 Y-10.9842
G1 X7.8463 Y-11.9793
G1 X8.6203 Y-10.9621
G1 X8.9520 Y-12.1783
G1 X8.0453 Y-12.1783
G1 X8.0232 Y-12.3995
G1 X8.3992 Y-13.3061
G1 X9.5491 Y-13.1734
G1 X9.0626 Y-12.2447
G1 Z0.0000 F2500.0
G4 P0.02
G0 X9.4606 Y-13.0186 F15000.0
G1 Z11.9000 F2500.0
G4 P0.02
G1 X10.1365 Y-13.1463 F3500.0
G1 X9.2962 Y-10.9571
G1 X10.2250 Y-13.2348
G1 X11.8171 Y-13.2348
G1 X11.8835 Y-12.8146
G1 X11.2201 Y-10.9571
G1 X11.8607 Y-10.7018
G1 Z0.0000 F2500.0
G4 P0.02
G0 X10.4240 Y-11.4657 F15000.0
G1 Z11.9000 F2500.0
G4 P0.02
G1 X10.9768 Y-12.9031 F3500.0
G1 X13.3657 Y-11.3552
G1 X13.8743 Y-12.8147
G1 X13.7859 Y-13.2570
G1 X12.8350 Y-13.1464
G1 X11.6188 Y-10.0947
G1 X12.1274 Y-11.0677
G1 X13.2551 Y-11.2225
G1 X13.7928 Y-11.0135
G1 X13.8592 Y-11.0798
G1 Z0.0000 F2500.0
G4 P0.02
G0 X11.0653 Y-13.2127 F15000.0
G1 Z11.9000 F2500.0
G4 P0.02
G1 X10.2692 Y-10.9571 F3500.0
G1 X9.4212 Y-11.2826
G1 Z0.0000 F2500.0
G4 P0.02
G0 X7.0356 Y-8.4272 F15000.0
G1 Z11.9000 F2500.0
G4 P0.02
G1 X6.6376 Y-8.3609 F3500.0
G1 X7.0135 Y-8.4272
G1 X7.4779 Y-9.2012
G1 X7.1019 Y-9.2896
G1 X6.8587 Y-9.1570
G1 X6.9914 Y-9.2233
G1 X6.7923 Y-9.0022
G1 X6.1511 Y-7.2110
G1 X6.8366 Y-6.3043
G1 X6.0184 Y-6.2380
G1 X6.0405 Y-6.9014
G1 X5.9078 Y-6.3485
G1 X4.9348 Y-6.1495
G1 X5.6203 Y-8.2724
G1 X4.7579 Y-8.3388
G1 X3.9618 Y-6.1053
G1 X3.4974 Y-7.4763
G1 Z0.0000 F2500.0
G4 P0.02
G0 X3.2542 Y-6.8572 F15000.0
G1 Z11.9000 F2500.0
G4 P0.02
G1 X5.5319 Y-8.3609 F3500.0
G1 X3.8513 Y-8.3166
G1 X2.9888 Y-6.1053
G1 X2.4139 Y-6.5697
G1 Z0.0000 F2500.0
G4 P0.02
G0 X1.0650 Y-6.2380 F15000.0
G1 Z11.9000 F2500.0
G4 P0.02
G1 X2.4139 Y-6.5697 F3500.0
G1 X3.5859 Y-9.3117
G1 X2.1706 Y-9.4002
G1 X1.6399 Y-8.0071
G1 X1.7726 Y-8.4272
G1 X1.7947 Y-7.7638
G1 X2.7898 Y-7.6754
G1 X2.9004 Y-7.7417
G1 X1.9937 Y-8.9579
G1 X2.9567 Y-11.0798
G1 Z0.0000 F2500.0
G4 P0.02
G0 X0.0000 Y-15.0870 F15000.0
G1 Z11.9000 F2500.0
G4 P0.02
G1 X63.2677 Y-15.0870 F12000.0
G1 Z0.0000 F2500.0
G4 P0.02
G0 X66.4127 Y-15.0583 F15000.0
G1 Z11.9000 F2500.0
G4 P0.02
G1 X66.4635 Y-15.1944 F3500.0
G1 X66.9721 Y-15.6588
G1 X68.4095 Y-15.9020
G1 Z0.0000 F2500.0
G4 P0.02
G0 X66.7162 Y-15.4251 F15000.0
G1 Z11.9000 F2500.0
G4 P0.02
G1 X66.2202 Y-14.7742 F3500.0
G1 X65.0703 Y-9.8429
G1 X65.4020 Y-9.5555
G1 X66.5519 Y-9.5555
G1 X67.6889 Y-9.4356
G1 X69.0157 Y-13.7698 F12000.0
G1 X70.4973 Y-13.8804
G1 X71.8462 Y-13.7477
G1 X71.7357 Y-12.4430
G1 X70.8290 Y-9.4577
G1 X69.2590 Y-9.4577
G1 X70.5194 Y-13.8583
G1 X73.0706 Y-13.3939
G1 X72.0976 Y-10.2096
G1 X72.1418 Y-9.7010
G1 X73.6455 Y-9.6346
G1 X73.9993 Y-9.7673
G1 X74.9502 Y-13.2170
G1 X73.6897 Y-13.8362
G1 X73.3580 Y-13.7035
G1 Z0.0000 F2500.0
G4 P0.02
G0 X75.8419 Y-11.3595 F15000.0
G1 Z11.9000 F2500.0
G4 P0.02
G1 X74.3974 Y-11.2489 F3500.0
G1 X74.1541 Y-9.5904
G1 X74.0009 Y-9.7730
G1 Z0.0000 F2500.0
G4 P0.02
G0 X74.9353 Y-9.4577 F15000.0
G1 Z11.9000 F2500.0
G4 P0.02
G1 X76.8149 Y-13.3939 F3500.0
G1 X77.7879 Y-12.4430
G1 X76.9697 Y-9.6125
G1 Z0.0000 F2500.0
G4 P0.02
G0 X77.5362 Y-12.6890 F15000.0
G1 Z11.9000 F2500.0
G4 P0.02
G1 X78.0090 Y-13.1728 F12000.0
G1 X78.0975 Y-13.4823
G1 X78.0754 Y-13.8804
G1 X77.1909 Y-13.8583
G1 X77.6773 Y-12.0229
G1 X78.0754 Y-13.4381
G1 X78.4646 Y-10.9013
G1 X78.3541 Y-10.5254
G1 X79.8136 Y-9.6187
G1 X78.6194 Y-11.3878
G1 X78.6416 Y-11.4984
G1 X79.9020 Y-9.7072
G1 X80.2779 Y-10.3706
G1 X80.4549 Y-11.3657
G1 X80.3001 Y-11.6089
G1 X78.8406 Y-11.6974
G1 X79.3492 Y-13.9087
G1 Z0.0000 F2500.0
G4 P0.02
G0 X80.1711 Y-10.1820 F15000.0
G1 Z11.9000 F2500.0
G4 P0.02
G1 X80.1278 Y-10.1056 F3500.0
G1 Z0.0000 F2500.0
G4 P0.02
G0 X84.5824 Y-9.4252 F15000.0
G1 Z11.9000 F2500.0
G4 P0.02
G1 X84.6929 Y-9.6021 F12000.0
G1 X85.6217 Y-12.8086
G1 X84.9804 Y-14.4450
G1 X84.8920 Y-14.3344
G1 X85.9092 Y-15.2632
G1 X86.2630 Y-15.3958
G1 X86.5505 Y-15.8602
G1 X88.2311 Y-15.7054
G1 X89.4473 Y-15.7275
G1 X89.7569 Y-15.1747
G1 X89.6464 Y-14.4007
G1 X88.5628 Y-10.7078
G1 X88.6070 Y-10.8626
G1 X88.1205 Y-9.9559
G1 X88.3417 Y-10.2213
G1 X89.0935 Y-12.5211
G1 X87.5677 Y-15.1084
G1 X86.7937 Y-12.7865
G1 X86.6272 Y-12.7216
G1 Z0.0000 F2500.0
G4 P0.02
G0 X85.2887 Y-11.6590 F15000.0
G1 Z11.9000 F2500.0
G4 P0.02
G1 X85.2679 Y-11.5481 F3500.0
G1 X85.9976 Y-14.0690
G1 X86.2851 Y-15.3958
G1 X86.4620 Y-15.6833
G1 X86.0419 Y-14.2238
G1 X86.7053 Y-12.5211
G1 X86.2188 Y-10.8626
G1 X86.3736 Y-9.6906
G1 X86.5062 Y-9.5800
G1 X87.5898 Y-9.5800
G1 X88.1205 Y-9.9559
G1 Z0.0000 F2500.0
G4 P0.02
G0 X91.5958 Y-9.4449 F15000.0
G1 Z11.9000 F2500.0
G4 P0.02
G1 X93.4976 Y-15.7251 F3500.0
G1 X95.3994 Y-15.9020
G1 X96.4197 Y-15.0760
G1 Z0.0000 F2500.0
G4 P0.02
G0 X95.3994 Y-15.9020 F15000.0
G1 Z11.9000 F2500.0
G4 P0.02
G1 X96.7483 Y-15.4819 F12000.0
G1 X96.3723 Y-15.0175
G1 X95.0898 Y-10.8601
G1 X95.2446 Y-9.6881
G1 X95.5763 Y-9.5333
G1 X96.4608 Y-9.5776
G1 X96.9915 Y-9.9314
G1 X97.1905 Y-10.1746
G1 X98.0530 Y-12.7840
G1 X98.5837 Y-15.3492
G1 X98.4068 Y-15.6588
G1 X98.2299 Y-15.7693
G1 X97.1021 Y-15.7030
G1 X99.6230 Y-14.5089
G1 X100.0211 Y-15.2607
G1 X100.5739 Y-15.7030
G1 X101.9228 Y-15.9020
G1 X103.2328 Y-15.8382
G1 X105.3999 Y-15.9046 F12000.0
G1 X104.2058 Y-15.8161
G1 X102.4146 Y-9.5580
G1 X98.9154 Y-9.5555
G1 X98.5616 Y-9.8429
G1 X98.4731 Y-10.5284
G1 X99.4240 Y-13.8676
G1 X99.3577 Y-13.6022
G1 X99.5346 Y-14.2435
G1 X100.1775 Y-15.3858
G1 Z0.0000 F2500.0
G4 P0.02
G0 X97.4231 Y-10.8783 F15000.0
G1 Z11.9000 F2500.0
G4 P0.02
G1 X97.4780 Y-10.8601 F3500.0
G1 X97.4338 Y-10.7054
G1 X97.3726 Y-10.7256
G1 Z0.0000 F2500.0
G4 P0.02
G0 X108.1269 Y-9.4252 F15000.0
G1 Z11.9000 F2500.0
G4 P0.02
G1 X108.2374 Y-9.6021 F3500.0
G1 X109.1662 Y-12.8086
G1 X108.5249 Y-14.4450
G1 X108.4364 Y-14.3344
G1 X109.4537 Y-15.2632
G1 X109.8075 Y-15.3958
G1 X110.0949 Y-15.8602
G1 X110.0065 Y-15.6833
G1 Z0.0000 F2500.0
G4 P0.02
G0 X109.1662 Y-12.8086 F15000.0
G1 Z11.9000 F2500.0
G4 P0.02
G1 X110.3322 Y-12.7840 F12000.0
G1 X110.8850 Y-14.6194
G1 X111.3715 Y-15.4155
G1 X111.6369 Y-15.6366
G1 X112.8974 Y-15.7693
G1 X113.0743 Y-15.6588
G1 X113.2512 Y-15.3492
G1 X112.7205 Y-12.7840
G1 X111.7917 Y-10.0862
G1 X111.0620 Y-9.5555
G1 X109.8457 Y-9.7766
G1 X109.7573 Y-10.8601
G1 X110.2438 Y-12.5187
G1 X109.5863 Y-14.2238
G1 X110.0065 Y-15.6833
G1 X109.8296 Y-15.3958
G1 X109.5421 Y-14.0690
G1 X108.8124 Y-11.5481
G1 X108.8332 Y-11.6590
G1 Z0.0000 F2500.0
G4 P0.02
G0 X112.0674 Y-10.8870 F15000.0
G1 Z11.9000 F2500.0
G4 P0.02
G1 X112.1455 Y-10.8601 F3500.0
G1 X112.1013 Y-10.7054
G1 X112.9574 Y-9.4891
G1 X114.4169 Y-9.7102
G1 X114.9476 Y-10.2631
G1 X115.2793 Y-11.1918
G1 X115.3899 Y-12.5408
G1 X115.0803 Y-12.8282
G1 X114.6380 Y-15.5924
G1 X114.7043 Y-15.7472
G1 X116.5840 Y-15.9020
G1 X117.7502 Y-15.1893
G1 Z0.0000 F2500.0
G4 P0.02
G0 X115.3899 Y-12.5408 F15000.0
G1 Z11.9000 F2500.0
G4 P0.02
G1 X116.7606 Y-12.5187 F12000.0
G1 X116.2741 Y-10.8601
G1 X116.3626 Y-9.7766
G1 X117.5788 Y-9.5555
G1 X118.3085 Y-10.0862
G1 X119.2373 Y-12.7840
G1 X119.7680 Y-15.3492
G1 X119.5911 Y-15.6588
G1 X119.4142 Y-15.7693
G1 X118.1537 Y-15.6366
G1 X117.8884 Y-15.4155
G1 X117.4019 Y-14.6194
G1 X116.8490 Y-12.7840
G1 X118.6623 Y-10.8601
G1 X118.6181 Y-10.7054
G1 X119.7983 Y-11.6144
G1 X122.0760 Y-11.7470
G1 X122.9236 Y-11.2361
G1 X122.8794 Y-9.7766 F12000.0
G1 X124.0956 Y-9.5555
G1 X124.5821 Y-9.8208
G1 X124.8696 Y-10.1525
G1 X125.1350 Y-10.7496
G1 X125.3782 Y-12.5629
G1 X123.4322 Y-12.3196
G1 X123.1669 Y-11.9216
G1 X123.6976 Y-12.6071
G1 X123.9851 Y-12.7840
G1 X125.0907 Y-12.8946
G1 X125.5993 Y-13.4695
G1 X124.1177 Y-12.9609
G1 X123.9187 Y-13.5359
G1 X123.9408 Y-13.9781
G1 X124.3389 Y-15.1059
G1 X124.7590 Y-15.5482
G1 X125.7984 Y-15.7472
G1 X126.1301 Y-15.2165
G1 X125.7762 Y-13.7570
G1 X125.2676 Y-13.1599
G1 X125.2013 Y-12.7840
G1 X125.1128 Y-12.8946
G1 X124.8917 Y-15.6588
G1 X124.8254 Y-15.5924
G1 Z0.0000 F2500.0
G4 P0.02
G0 X128.2640 Y-15.5924 F15000.0
G1 Z11.9000 F2500.0
G4 P0.02
G1 X128.3303 Y-15.6588 F12000.0
G1 X128.5515 Y-12.8946
G1 X128.6399 Y-12.7840
G1 X128.7063 Y-13.1599
G1 X129.2149 Y-13.7570
G1 X129.5687 Y-15.2165
G1 X129.2370 Y-15.7472
G1 X128.1976 Y-15.5482
G1 X127.7775 Y-15.1059
G1 X127.3794 Y-13.9781
G1 X127.3573 Y-13.5359
G1 X127.5564 Y-12.9609
G1 X129.0380 Y-13.4695
G1 X128.5293 Y-12.8946
G1 X127.4237 Y-12.7840
G1 X127.1362 Y-12.6071
G1 X126.6055 Y-11.9216
G1 X126.3622 Y-11.2361
G1 X126.3180 Y-9.7766
G1 X127.5342 Y-9.5555
G1 X128.0207 Y-9.8208
G1 X128.3082 Y-10.1525
G1 X128.5736 Y-10.7496
G1 X128.8168 Y-12.5629
G1 Z0.0000 F2500.0
G4 P0.02
G0 X128.1433 Y-9.9623 F15000.0
G1 Z11.9000 F2500.0
G4 P0.02
G1 X128.1025 Y-9.9151 F3500.0
G1 Z0.0000 F2500.0
G4 P0.02
G0 X124.7047 Y-9.9623 F15000.0
G1 Z11.9000 F2500.0
G4 P0.02
G1 X124.6638 Y-9.9151 F3500.0
G1 Z0.0000 F2500.0
G4 P0.02
G0 X131.3959 Y-5.3662 F15000.0
G1 Z11.9000 F2500.0
G4 P0.02
G1 X131.3959 Y-44.3318 F12000.0
G1 Z0.0000 F2500.0
G4 P0.02
G0 X131.6523 Y-48.3866 F15000.0
G1 Z11.9000 F2500.0
G4 P0.02
G1 X130.0380 Y-48.6299 F3500.0
G1 X129.8611 Y-48.5414
G1 X127.9373 Y-48.2982
G1 X130.4803 Y-48.9394
G1 X130.6572 Y-49.1385
G1 X131.1437 Y-50.1999
G1 X131.2985 Y-51.3498
G1 X130.9447 Y-51.8142
G1 X130.3255 Y-51.7921
G1 X131.1658 Y-52.1238
G1 Z0.0000 F2500.0
G4 P0.02
G0 X130.9447 Y-51.8142 F15000.0
G1 Z11.9000 F2500.0
G4 P0.02
G1 X131.1658 Y-52.1238 F12000.0
G1 X131.7187 Y-52.6324
G1 X132.0283 Y-53.4064
G1 X132.1167 Y-54.3351
G1 X131.8513 Y-54.6226
G1 X130.3255 Y-54.6889
G1 X128.5122 Y-53.4948
G1 X128.5122 Y-53.4285
G1 X128.5564 Y-54.2467
G1 X128.5564 Y-53.6275
G1 X127.0085 Y-49.4259
G1 X126.8316 Y-49.1163
G1 X126.4336 Y-48.7404
G1 X126.1019 Y-48.5635
G1 X124.5097 Y-48.5193
G1 X124.2443 Y-48.7625
G1 X124.2001 Y-49.6913
G1 X125.8144 Y-53.9371
G1 X126.2788 Y-54.4015
G1 X126.9201 Y-54.6889
G1 X128.0700 Y-54.7110
G1 X128.4901 Y-54.4236
G1 Z0.0000 F2500.0
G4 P0.02
G0 X130.6572 Y-49.1385 F15000.0
G1 Z11.9000 F2500.0
G4 P0.02
G1 X131.6966 Y-48.4308 F12000.0
G1 X131.6523 Y-48.3866
G1 X133.6150 Y-48.7625
G1 X133.5708 Y-49.6913
G1 X135.1851 Y-53.9371
G1 X135.6495 Y-54.4015
G1 X136.2908 Y-54.6889
G1 X137.4407 Y-54.7110
G1 X137.8608 Y-54.4236
G1 X137.9272 Y-54.2467
G1 X137.9272 Y-53.6275
G1 X136.3792 Y-49.4259
G1 X133.8804 Y-48.5193
G1 X135.4726 Y-48.5635
G1 X135.8043 Y-48.7404
G1 X136.2023 Y-49.1163
G1 X137.8829 Y-48.8289
G1 X137.7502 Y-48.4529
G1 X137.4628 Y-48.3424
G1 Z0.0000 F2500.0
G4 P0.02
G0 X137.7502 Y-48.4529 F15000.0
G1 Z11.9000 F2500.0
G4 P0.02
G1 X140.3154 Y-48.4529 F3500.0
G1 Z0.0000 F2500.0
G4 P0.02
G0 X137.8829 Y-48.8289 F15000.0
G1 Z11.9000 F2500.0
G4 P0.02
G1 X141.8633 Y-52.8093 F3500.0
G1 X142.1066 Y-53.2516
G1 X142.1287 Y-54.2024
G1 X141.9297 Y-54.4457
G1 X140.6692 Y-54.6447
G1 X140.0500 Y-54.3351
G1 X139.4530 Y-53.7823
G1 X137.8829 Y-53.4948
G1 X137.8573 Y-53.4379
G1 Z0.0000 F2500.0
G4 P0.02
G0 X141.2617 Y-42.4164 F15000.0
G1 Z11.9000 F2500.0
G4 P0.02
G1 X140.4657 Y-40.1930 F3500.0
G1 Z0.0000 F2500.0
G4 P0.02
G0 X141.4166 Y-40.1487 F15000.0
G1 Z11.9000 F2500.0
G4 P0.02
G1 X142.1242 Y-42.3158 F3500.0
G1 X141.1734 Y-42.0947
G1 Z0.0000 F2500.0
G4 P0.02
G0 X142.0437 Y-42.2971 F15000.0
G1 Z11.9000 F2500.0
G4 P0.02
G1 X142.0137 Y-42.4264 F12000.0
G1 X140.3552 Y-42.4043
G1 X139.4927 Y-40.1487
G1 X138.3871 Y-41.9620
G1 X138.4313 Y-42.1168
G1 X139.8023 Y-42.4928
G1 X138.8736 Y-40.3256
G1 X137.8563 Y-40.3699
G1 X138.5861 Y-42.4928
G1 X137.3256 Y-43.3552
G1 X137.9890 Y-43.3773
G1 X136.9055 Y-40.3256
G1 X136.1094 Y-41.5640
G1 X135.2691 Y-40.3035
G1 Z0.0000 F2500.0
G4 P0.02
G0 X136.1739 Y-39.4714 F15000.0
G1 Z11.9000 F2500.0
G4 P0.02
G1 X136.1739 Y-24.8078 F12000.0
G1 Z0.0000 F2500.0
G4 P0.02
G0 X138.1464 Y-22.7234 F15000.0
G1 Z11.9000 F2500.0
G4 P0.02
G1 X138.2791 Y-22.8560 F3500.0
G1 X139.4953 Y-22.9445
G1 X140.0703 Y-22.8782
G1 X139.2300 Y-20.6889
G1 X140.1587 Y-22.9666
G1 X141.8393 Y-22.9003
G1 X141.8172 Y-22.5465
G1 X141.1759 Y-20.6889
G1 X140.2029 Y-20.6889
G1 X141.0211 Y-22.9445
G1 Z0.0000 F2500.0
G4 P0.02
G0 X141.1167 Y-24.8078 F15000.0
G1 Z11.9000 F2500.0
G4 P0.02
G1 X141.1167 Y-39.4714 F12000.0
G1 Z0.0000 F2500.0
G4 P0.02
G0 X145.9771 Y-39.4714 F15000.0
G1 Z11.9000 F2500.0
G4 P0.02
G1 X180.0000 Y-39.4714 F12000.0
G1 Z0.0000 F2500.0
G4 P0.02
G0 X176.9565 Y-40.4062 F15000.0
G1 Z11.9000 F2500.0
G4 P0.02
G1 X177.0671 Y-40.2957 F3500.0
G1 X177.8631 Y-40.3620
G1 X177.4209 Y-41.9321
G1 X177.5093 Y-42.1753
G1 X177.7305 Y-42.3522
G1 X178.5266 Y-42.4628
G1 X178.6150 Y-42.3743
G1 X178.6371 Y-42.1311
G1 X178.0843 Y-40.5389
G1 X178.4381 Y-42.5070
G1 X178.0843 Y-43.3694
G1 X177.9295 Y-43.4579
G1 X178.1064 Y-43.3694
G1 X179.1900 Y-43.3694
G1 Z0.0000 F2500.0
G4 P0.02
G0 X180.0000 Y-44.3318 F15000.0
G1 Z11.9000 F2500.0
G4 P0.02
G1 X63.2677 Y-44.3318 F12000.0
G1 X0.0000 Y-44.3318 F12000.0
G1 Z0.0000 F2500.0
G4 P0.02
G0 X0.0000 Y-49.1922 F15000.0
G1 Z11.9000 F2500.0
G4 P0.02
G1 X63.2677 Y-49.1922 F12000.0
G1 Z0.0000 F2500.0
G4 P0.02
G0 X63.2677 Y-54.0526 F15000.0
G1 Z11.9000 F2500.0
G4 P0.02
G1 X0.0000 Y-54.0526 F12000.0
G1 Z0.0000 F2500.0
G4 P0.02
G0 X0.0000 Y-58.9131 F15000.0
G1 Z11.9000 F2500.0
G4 P0.02
G1 X180.0000 Y-58.9131 F12000.0
G1 Z0.0000 F2500.0
G4 P0.02
G0 X177.4935 Y-41.6741 F15000.0
G1 Z11.9000 F2500.0
G4 P0.02
G1 X177.3103 Y-41.6225 F3500.0
G1 X176.9565 Y-40.4062
G1 X176.2943 Y-40.3015
G1 X176.2500 Y-40.4563
G1 X175.2549 Y-41.0976
G1 X175.6972 Y-42.2475
G1 X175.9183 Y-42.3802
G1 X176.8471 Y-42.4244
G1 X176.2058 Y-40.4342
G1 X175.9626 Y-40.3458
G1 X175.2328 Y-41.0534
G1 X173.6002 Y-41.2525
G1 Z0.0000 F2500.0
G4 P0.02
G0 X172.8428 Y-41.6359 F15000.0
G1 Z11.9000 F2500.0
G4 P0.02
G1 X172.2709 Y-41.8545 F3500.0
G1 Z0.0000 F2500.0
G4 P0.02
G0 X171.7844 Y-40.6604 F15000.0
G1 Z11.9000 F2500.0
G4 P0.02
G1 X171.8287 Y-40.7931 F12000.0
G1 X171.3643 Y-41.9430
G1 X171.4085 Y-42.0756
G1 X172.5363 Y-42.4958
G1 X171.6075 Y-40.3066
G1 X170.7672 Y-40.3066
G1 X170.4576 Y-41.9651
G1 X170.5019 Y-42.1199
G1 X171.5854 Y-42.4958
G1 X170.7230 Y-40.3066
G1 X169.9269 Y-40.3729
G1 X170.6567 Y-42.4958
G1 X168.6471 Y-42.2621
G1 X168.1385 Y-40.9132
G1 X169.1557 Y-40.2277
G1 X168.0943 Y-40.8026
G1 X167.3453 Y-40.3015
G1 X167.2674 Y-40.4672
G1 Z0.0000 F2500.0
G4 P0.02
G0 X167.3010 Y-40.4563 F15000.0
G1 Z11.9000 F2500.0
G4 P0.02
G1 X166.2838 Y-41.0534 F12000.0
G1 X167.0136 Y-40.3458
G1 X167.2568 Y-40.4342
G1 X167.8981 Y-42.4244
G1 X166.9693 Y-42.3802
G1 X166.7482 Y-42.2475
G1 X166.3059 Y-41.0976
G1 X165.8024 Y-42.7445
G1 X166.3110 Y-43.1204
G1 X165.2717 Y-40.3120
G1 X164.8073 Y-41.8158
G1 X164.8515 Y-41.9927
G1 X165.5813 Y-42.5455
G1 X165.0505 Y-42.0590
G1 X164.8515 Y-42.0369
G1 X164.6083 Y-42.9878
G1 X163.9227 Y-41.7052
G1 X164.6304 Y-43.4743
G1 X164.5861 Y-43.0099
G1 X164.4314 Y-42.9435
G1 X163.3257 Y-40.1572
G1 Z0.0000 F2500.0
G4 P0.02
G0 X162.5355 Y-44.3318 F15000.0
G1 Z11.9000 F2500.0
G4 P0.02
G1 X162.5355 Y-24.8078 F12000.0
G1 Z0.0000 F2500.0
G4 P0.02
G0 X160.4996 Y-22.7418 F15000.0
G1 Z11.9000 F2500.0
G4 P0.02
G1 X159.9961 Y-22.9350 F3500.0
G1 X158.6251 Y-22.7360
G1 X158.0502 Y-21.1217
G1 X158.0723 Y-20.9227
G1 X159.1779 Y-20.7679
G1 X156.5339 Y-22.0188
G1 Z0.0000 F2500.0
G4 P0.02
G0 X156.2243 Y-21.2227 F15000.0
G1 Z11.9000 F2500.0
G4 P0.02
G1 X156.2686 Y-21.3554 F3500.0
G1 X158.1261 Y-23.0360
G1 X157.2858 Y-21.0237
G1 X156.2022 Y-20.9131
G1 X156.2022 Y-21.1785
G1 X156.9320 Y-23.0360
G1 X155.6576 Y-23.8954
G1 X156.3210 Y-23.9175
G1 X155.2375 Y-20.8658
G1 X154.4414 Y-22.1042
G1 X154.3529 Y-21.9936
G1 Z0.0000 F2500.0
G4 P0.02
G0 X154.0655 Y-21.5514 F15000.0
G1 Z11.9000 F2500.0
G4 P0.02
G1 X153.6011 Y-20.8437 F3500.0
G1 Z0.0000 F2500.0
G4 P0.02
G0 X151.4142 Y-19.9474 F15000.0
G1 Z11.9000 F2500.0
G4 P0.02
G1 X151.4142 Y-24.8078 F3500.0
G1 Z0.0000 F2500.0
G4 P0.02
G0 X145.9771 Y-24.8078 F15000.0
G1 Z11.9000 F2500.0
G4 P0.02
G1 X145.9771 Y-44.3318 F12000.0
G1 Z0.0000 F2500.0
G4 P0.02
G0 X149.6892 Y-42.3906 F15000.0
G1 Z11.9000 F2500.0
G4 P0.02
G1 X148.8046 Y-40.1571 F3500.0
G1 Z0.0000 F2500.0
G4 P0.02
G0 X149.4459 Y-41.7935 F15000.0
G1 Z11.9000 F2500.0
G4 P0.02
G1 X149.9988 Y-43.0098 F12000.0
G1 X150.1314 Y-43.5184
G1 X150.1093 Y-43.0098
G1 X150.3747 Y-42.0368
G1 X151.0602 Y-42.5012
G1 X150.3747 Y-41.9926
G1 X150.3083 Y-41.8157
G1 X151.5909 Y-42.9656
G1 X151.7457 Y-42.9656
G1 X150.8391 Y-40.3783
G1 X151.7236 Y-40.4004
G1 X152.3649 Y-42.2579
G1 X152.5639 Y-42.3685
G1 X153.5148 Y-42.4569
G1 X152.9177 Y-40.4667
G1 X152.9620 Y-40.3119
G1 X152.8956 Y-40.4446
G1 X151.8121 Y-40.3119
G1 X154.7531 Y-40.2235
G1 X153.6696 Y-40.3562
G1 X153.6475 Y-40.6436
G1 X154.2003 Y-42.1916
G1 X154.4436 Y-42.3464
G1 X155.5492 Y-42.4127
G1 X156.1021 Y-42.1916
G1 Z0.0000 F2500.0
G4 P0.02
G0 X157.4510 Y-42.4127 F15000.0
G1 Z11.9000 F2500.0
G4 P0.02
G1 X156.1021 Y-42.1916 F3500.0
G1 X155.5492 Y-40.6436
G1 X155.5492 Y-40.3783
G1 X156.6770 Y-40.2235
G1 X158.5788 Y-40.4446
G1 X157.4289 Y-40.3562
G1 X157.4510 Y-40.7100
G1 X158.0480 Y-42.2579
G1 X159.1758 Y-42.4569
G1 X158.6009 Y-40.4667
G1 X158.6451 Y-40.3119
G1 X158.0923 Y-42.3021
G1 X158.2249 Y-42.3685
G1 Z0.0000 F2500.0
G4 P0.02
G0 X145.9771 Y-39.4714 F15000.0
G1 Z11.9000 F2500.0
G4 P0.02
G1 X131.3959 Y-39.4714 F12000.0
G1 Z0.0000 F2500.0
G4 P0.02
G0 X121.3237 Y-49.1827 F15000.0
G1 Z11.9000 F2500.0
G4 P0.02
G1 X122.4278 Y-48.5787 F3500.0
G1 X122.3614 Y-48.5123
G1 X121.3237 Y-49.1827
G1 Z0.0000 F2500.0
G4 P0.02
G0 X120.7046 Y-48.6520 F15000.0
G1 Z11.9000 F2500.0
G4 P0.02
G1 X120.3729 Y-48.4972 F12000.0
G1 X118.5596 Y-48.2982
G1 X120.9920 Y-48.8289
G1 X121.3237 Y-49.1827
G1 X121.9208 Y-50.6201
G1 X121.8545 Y-51.5046
G1 X121.5891 Y-51.8142
G1 X120.9699 Y-51.7921
G1 X122.3410 Y-52.6324
G1 X122.6284 Y-53.2737
G1 X122.7832 Y-54.2024
G1 X122.6505 Y-54.4678
G1 X122.4736 Y-54.6226
G1 X120.9920 Y-54.7110
G1 X122.0756 Y-52.3449
G1 X121.8102 Y-52.1238
G1 Z0.0000 F2500.0
G4 P0.02
G0 X118.5596 Y-48.2982 F15000.0
G1 Z11.9000 F2500.0
G4 P0.02
G1 X117.4609 Y-49.1163 F12000.0
G1 X117.0628 Y-48.7404
G1 X116.7311 Y-48.5635
G1 X115.1390 Y-48.5193
G1 X117.6378 Y-49.4259
G1 X119.1857 Y-53.6275
G1 X119.1857 Y-54.2467
G1 X119.1415 Y-53.4285
G1 X119.1194 Y-54.4236
G1 X118.6992 Y-54.7110
G1 X117.5493 Y-54.6889
G1 X116.9081 Y-54.4015
G1 X116.4437 Y-53.9371
G1 X114.8294 Y-49.6913
G1 X114.8736 Y-48.7625
G1 X112.9907 Y-48.5123
G1 X113.0571 Y-48.5787
G1 Z0.0000 F2500.0
G4 P0.02
G0 X109.5015 Y-48.9837 F15000.0
G1 Z11.9000 F2500.0
G4 P0.02
G1 X109.1570 Y-51.8892 F3500.0
G1 X110.2627 Y-54.7197
G1 Z0.0000 F2500.0
G4 P0.02
G0 X109.9531 Y-53.9457 F15000.0
G1 Z11.9000 F2500.0
G4 P0.02
G1 X107.2774 Y-54.6534 F3500.0
G1 X105.7958 Y-50.6287
G1 X105.9064 Y-50.9383
G1 X104.9113 Y-48.3510
G1 X103.5716 Y-48.5943 F12000.0
G1 X103.2178 Y-52.0882
G1 X102.2227 Y-52.6631
G1 X102.9524 Y-54.6533
G1 X105.9599 Y-54.7860
G1 X103.4389 Y-52.5304
G1 X103.1957 Y-52.0882
G1 X102.7092 Y-51.8892
G1 X101.8026 Y-51.2700
G1 X100.5863 Y-48.3510
G1 Z0.0000 F2500.0
G4 P0.02
G0 X101.7583 Y-51.1815 F15000.0
G1 Z11.9000 F2500.0
G4 P0.02
G1 X102.0679 Y-52.2430 F3500.0
G1 Z0.0000 F2500.0
G4 P0.02
G0 X106.1704 Y-51.6464 F15000.0
G1 Z11.9000 F2500.0
G4 P0.02
G1 X106.1275 Y-51.5133 F3500.0
G1 X106.3707 Y-51.8229
G1 X109.0465 Y-51.8229
G1 X107.8523 Y-48.3510
G1 X109.2804 Y-48.3866
G1 X111.5802 Y-54.6005 F3500.0
G1 X114.0348 Y-54.8216
G1 Z0.0000 F2500.0
G4 P0.02
G0 X109.9943 Y-33.6572 F15000.0
G1 Z11.9000 F2500.0
G4 P0.02
G1 X110.1491 Y-33.5024 F3500.0
G1 X110.1049 Y-32.5736
G1 X109.4857 Y-30.8709
G1 X109.3088 Y-30.7382
G1 X106.0126 Y-30.7278
G1 Z0.0000 F2500.0
G4 P0.02
G0 X108.1589 Y-27.6202 F15000.0
G1 Z11.9000 F2500.0
G4 P0.02
G1 X105.2621 Y-27.8414 F12000.0
G1 X105.2178 Y-28.6153
G1 X106.8985 Y-33.0822
G1 X107.4071 Y-33.5687
G1 X109.9943 Y-33.6572
G1 X107.2080 Y-33.4139
G1 X106.5004 Y-32.1977
G1 X106.5446 Y-32.3304
G1 X104.4568 Y-33.7899
G1 X102.5329 Y-28.7038
G1 X102.3118 Y-26.2713
G1 X102.6656 Y-27.5318
G1 X102.8868 Y-27.6423
G1 X102.6435 Y-27.5539
G1 X102.2467 Y-27.5832
G1 Z0.0000 F2500.0
G4 P0.02
G0 X102.4896 Y-28.2273 F15000.0
G1 Z11.9000 F2500.0
G4 P0.02
G1 X102.3560 Y-28.2394 F12000.0
G1 X102.2455 Y-27.5760
G1 X99.0833 Y-27.8414
G1 X99.0390 Y-28.6153
G1 X96.5392 Y-27.5795
G1 X93.7751 Y-27.7564
G1 X93.6203 Y-27.9554
G1 X93.6864 Y-29.0724
G1 Z0.0000 F2500.0
G4 P0.02
G0 X91.6629 Y-29.2787 F15000.0
G1 Z11.9000 F2500.0
G4 P0.02
G1 X93.7972 Y-29.0611 F3500.0
G1 X95.5662 Y-33.7933
G1 Z0.0000 F2500.0
G4 P0.02
G0 X98.1977 Y-31.6262 F15000.0
G1 Z11.9000 F2500.0
G4 P0.02
G1 X96.5613 Y-27.5574 F3500.0
G1 X96.4508 Y-26.8940
G1 X95.8095 Y-25.3902
G1 X95.3009 Y-24.9922
G1 X92.5588 Y-24.7047
G1 Z0.0000 F2500.0
G4 P0.02
G0 X91.1985 Y-27.9740 F15000.0
G1 Z11.9000 F2500.0
G4 P0.02
G1 X92.4589 Y-31.4459 F12000.0
G1 X92.9675 Y-33.3918
G1 X92.7906 Y-33.6351
G1 X90.4024 Y-33.8341
G1 X87.8372 Y-33.7456
G1 X87.7267 Y-33.6130
G1 X85.9576 Y-28.8144
G1 X85.3605 Y-27.4654
G1 X85.7365 Y-28.2173
G1 Z0.0000 F2500.0
G4 P0.02
G0 X88.5449 Y-28.2836 F15000.0
G1 Z11.9000 F2500.0
G4 P0.02
G1 X88.1468 Y-27.4654 F3500.0
G1 X88.8766 Y-29.1903
G1 X89.6284 Y-31.2689
G1 X90.4262 Y-33.8321
G1 Z0.0000 F2500.0
G4 P0.02
G0 X86.6960 Y-36.5731 F15000.0
G1 Z11.9000 F2500.0
G4 P0.02
G1 X85.5018 Y-33.4552 F3500.0
G1 X85.5239 Y-33.5215
G1 X85.3691 Y-33.1013
G1 Z0.0000 F2500.0
G4 P0.02
G0 X85.5018 Y-33.4552 F15000.0
G1 Z11.9000 F2500.0
G4 P0.02
G1 X83.3789 Y-27.7278 F12000.0
G1 X83.2241 Y-27.6172
G1 X80.7253 Y-27.5730
G1 X81.0570 Y-28.9440
G1 X83.9097 Y-36.5731
G1 X81.1234 Y-36.5510
G1 X81.2339 Y-36.6837
G1 X81.0349 Y-36.4405
G1 X79.0447 Y-31.0227
G1 X77.9390 Y-27.6172
G1 X80.6811 Y-27.5730
G1 X80.8359 Y-28.3469
G1 Z0.0000 F2500.0
G4 P0.02
G0 X63.2677 Y-29.7506 F15000.0
G1 Z11.9000 F2500.0
G4 P0.02
G1 X0.0000 Y-29.7506 F12000.0
G1 Z0.0000 F2500.0
G4 P0.02
G0 X0.9826 Y-30.8963 F15000.0
G1 Z11.9000 F2500.0
G4 P0.02
G1 X1.0047 Y-30.9626 F3500.0
G1 Z0.0000 F2500.0
G4 P0.02
G0 X3.1055 Y-33.6384 F15000.0
G1 Z11.9000 F2500.0
G4 P0.02
G1 X2.0219 Y-33.6163 F12000.0
G1 X0.8278 Y-30.4319
G1 X1.4912 Y-31.9799
G1 X2.6190 Y-32.1125
G1 X1.7123 Y-32.7759
G1 X1.7566 Y-32.9086
G1 X2.9728 Y-32.3558
G1 X3.2160 Y-32.9971
G1 X3.1939 Y-33.5499
G1 X4.4588 Y-30.9034
G1 X4.3482 Y-30.7043
G1 X3.2204 Y-30.6601
G1 X3.8175 Y-32.4955
G1 X4.9895 Y-32.7167
G1 X4.4809 Y-30.9476
G1 X4.4367 Y-30.5717
G1 X5.0962 Y-30.7783
G1 X5.1183 Y-30.6677
G1 X5.5385 Y-30.5571
G1 X5.9586 Y-30.6898
G1 X6.1134 Y-30.8225
G1 Z0.0000 F2500.0
G4 P0.02
G0 X5.9586 Y-30.6898 F15000.0
G1 Z11.9000 F2500.0
G4 P0.02
G1 X5.7596 Y-31.6628 F12000.0
G1 X6.3124 Y-31.7070
G1 X6.5336 Y-31.9945
G1 X6.6220 Y-32.6137
G1 X5.8259 Y-32.5473
G1 X5.6711 Y-32.4589
G1 X6.2461 Y-31.6186
G1 X6.1134 Y-30.8225
G1 X6.2019 Y-31.1321
G1 X6.3027 Y-29.5545
G1 X7.5189 Y-32.6062
G1 X8.4698 Y-32.7168
G1 X8.5583 Y-32.2745
G1 X8.0496 Y-30.8150
G1 X6.5459 Y-30.0853
G1 X6.5017 Y-29.9968
G1 X6.8113 Y-30.5275
G1 X7.9391 Y-30.6823
G1 X10.0230 Y-30.5717
G1 X10.0673 Y-30.9476
G1 X10.5759 Y-32.7167
G1 X9.4039 Y-32.4955
G1 X8.8068 Y-30.6601
G1 X9.9346 Y-30.7043
G1 X10.0452 Y-30.9034
G1 X10.7127 Y-30.7006
G1 Z0.0000 F2500.0
G4 P0.02
G0 X11.7179 Y-30.6832 F15000.0
G1 Z11.9000 F2500.0
G4 P0.02
G1 X10.7007 Y-30.6611 F3500.0
G1 X11.2314 Y-32.4081
G1 X11.3862 Y-32.5850
G1 X12.1602 Y-32.7398
G1 X12.3149 Y-32.6955
G1 X12.4034 Y-32.3859
G1 X11.8285 Y-30.8159
G1 X12.2611 Y-30.4733
G1 X12.3274 Y-30.5396
G1 Z0.0000 F2500.0
G4 P0.02
G0 X12.2044 Y-32.7840 F15000.0
G1 Z11.9000 F2500.0
G4 P0.02
G1 X11.8285 Y-33.6464 F12000.0
G1 X12.9784 Y-33.6464
G1 X14.5200 Y-35.3491
G1 X15.0950 Y-37.1403
G1 X15.1392 Y-37.4720
G1 X13.7239 Y-37.5605
G1 X15.0508 Y-37.5605
G1 X14.4316 Y-37.5384
G1 X13.7018 Y-35.3491
G1 X12.8836 Y-35.3491
G1 X13.6355 Y-37.4720
G1 X13.0827 Y-37.5384
G1 X11.9991 Y-37.3393
G1 X11.5347 Y-35.7914
G1 X11.5347 Y-35.4818
G1 X12.4193 Y-35.3712
G1 X10.9262 Y-35.8963
G1 Z0.0000 F2500.0
G4 P0.02
G0 X11.5347 Y-35.6145 F15000.0
G1 Z11.9000 F2500.0
G4 P0.02
G1 X10.8271 Y-35.6145 F12000.0
G1 X11.5347 Y-37.6268
G1 X10.5175 Y-37.6268
G1 X9.8983 Y-35.4818
G1 X10.7386 Y-35.4597
G1 X9.1022 Y-35.3934
G1 X10.0310 Y-38.2902
G1 X9.6551 Y-38.5335
G1 X9.2570 Y-38.0470
G1 X7.6649 Y-35.4376
G1 X6.0356 Y-35.5309
G1 X5.9250 Y-35.3983
G1 X5.4606 Y-35.4646
G1 X5.9471 Y-37.1673
G1 X6.1904 Y-37.6096
G1 X5.9250 Y-37.1895
G1 X5.1068 Y-36.4597
G1 X5.1511 Y-36.6366
G1 X5.3059 Y-36.7030
G1 X5.1289 Y-36.7030
G1 X4.9963 Y-37.1895
G1 X4.8599 Y-37.2419
G1 Z0.0000 F2500.0
G4 P0.02
G0 X4.9963 Y-37.1895 F15000.0
G1 Z11.9000 F2500.0
G4 P0.02
G1 X5.0184 Y-37.6538 F12000.0
G1 X4.1338 Y-35.3540
G1 X4.2002 Y-35.5309
G1 X3.7579 Y-36.5039
G1 X3.4483 Y-36.5261
G1 X3.4041 Y-37.4106
G1 X4.0233 Y-37.5654
G1 X4.1338 Y-37.4548
G1 X4.1117 Y-37.1010
G1 X3.8685 Y-36.5924
G1 X3.6473 Y-35.6415
G1 X3.5589 Y-35.5531
G1 X2.8955 Y-35.4867
G1 X2.8291 Y-35.7300
G1 X2.8955 Y-37.9192
G1 X2.1657 Y-35.4867
G1 X1.2591 Y-36.0174
G1 X2.7628 Y-37.9413
G1 X2.9397 Y-38.0519
G1 X3.2051 Y-38.6047
G1 X2.0110 Y-38.6268
G1 X1.1706 Y-35.9953
G1 X0.8611 Y-35.3983
G1 Z0.0000 F2500.0
G4 P0.02
G0 X0.0000 Y-34.6110 F15000.0
G1 Z11.9000 F2500.0
G4 P0.02
G1 X63.2677 Y-34.6110 F12000.0
G1 Z0.0000 F2500.0
G4 P0.02
G0 X60.1979 Y-35.8530 F15000.0
G1 Z11.9000 F2500.0
G4 P0.02
G1 X59.5799 Y-35.3491 F12000.0
G1 X60.1769 Y-37.1403
G1 X59.5135 Y-37.5384
G1 X58.7838 Y-35.3491
G1 X58.7174 Y-37.4720
G1 X57.9656 Y-35.3491
G1 X56.6609 Y-35.4376
G1 X57.5454 Y-35.5481
G1 X57.5896 Y-35.6808
G1 X57.5675 Y-35.3712
G1 X58.0098 Y-37.1403
G1 X58.0540 Y-37.5826
G1 X57.0589 Y-37.3393
G1 X56.5724 Y-35.5260
G1 X55.7542 Y-35.3934
G1 X55.7100 Y-35.1501
G1 X54.7149 Y-35.3934
G1 X55.7321 Y-35.3934
G1 X56.5945 Y-38.5335
G1 X55.9754 Y-38.5556
G1 X55.7321 Y-38.2239
G1 X54.6707 Y-35.4155
G1 X54.5159 Y-35.3934
G1 X54.2947 Y-35.1501
G1 Z0.0000 F2500.0
G4 P0.02
G0 X49.4661 Y-35.3934 F15000.0
G1 Z11.9000 F2500.0
G4 P0.02
G1 X49.7536 Y-36.0125 F12000.0
G1 X48.5595 Y-38.0027
G1 X48.5153 Y-37.8479
G1 X49.8642 Y-36.3221
G1 X50.1738 Y-37.2509
G1 X50.0632 Y-37.5605
G1 X49.1344 Y-37.5162
G1 X48.2720 Y-35.2828
G1 X47.7413 Y-35.6808
G1 X48.3826 Y-37.5826
G1 X47.5202 Y-38.5777
G1 X48.6037 Y-38.4671
G1 X48.4931 Y-37.8037
G1 X48.3605 Y-37.5826
G1 X47.2990 Y-37.4499
G1 X47.1442 Y-37.2730
G1 Z0.0000 F2500.0
G4 P0.02
G0 X47.7413 Y-35.6808 F15000.0
G1 Z11.9000 F2500.0
G4 P0.02
G1 X47.6307 Y-35.5481 F3500.0
G1 X46.6356 Y-35.4818
G1 X46.6798 Y-35.9241
G1 X47.1442 Y-37.2730
G1 X46.3924 Y-37.4720
G1 X46.2818 Y-36.8750
G1 X45.9059 Y-35.8135
G1 X45.6184 Y-35.4818
G1 X44.7118 Y-35.5260
G1 X45.1540 Y-37.0076
G1 X46.3039 Y-37.5605
G1 X43.4292 Y-38.2460
G1 Z0.0000 F2500.0
G4 P0.02
G0 X42.8763 Y-36.8307 F15000.0
G1 Z11.9000 F2500.0
G4 P0.02
G1 X43.8272 Y-35.4597 F3500.0
G1 X44.4685 Y-37.1403
G1 X44.8887 Y-38.5335
G1 X43.5397 Y-38.4892
G1 X42.3235 Y-35.3049
G1 X42.3235 Y-35.4376
G1 Z0.0000 F2500.0
G4 P0.02
G0 X35.0198 Y-37.1845 F15000.0
G1 Z11.9000 F2500.0
G4 P0.02
G1 X35.2188 Y-37.4720 F12000.0
G1 X34.9977 Y-37.2067
G1 X34.7544 Y-37.1182
G1 X34.0468 Y-36.6317
G1 X33.8920 Y-37.1624
G1 X33.8920 Y-37.6489
G1 X33.8478 Y-37.2067
G1 X33.6930 Y-37.1403
G1 X32.8969 Y-35.4155
G1 X32.8969 Y-35.2828
G1 X32.0124 Y-34.7742
G1 X32.2114 Y-35.3934
G1 X31.4595 Y-36.3000
G1 X33.2065 Y-37.6268
G1 X32.1893 Y-35.4155
G1 X31.3047 Y-35.4818
G1 X31.2384 Y-35.7693
G1 X31.9902 Y-37.6268
G1 X31.8576 Y-34.5752
G1 X30.7740 Y-34.4867
G1 X30.3317 Y-35.5039
G1 X30.0688 Y-36.5895
G1 Z0.0000 F2500.0
G4 P0.02
G0 X29.6905 Y-36.4548 F15000.0
G1 Z11.9000 F2500.0
G4 P0.02
G1 X30.1106 Y-37.6268 F12000.0
G1 X28.1646 Y-37.4720
G1 X27.4570 Y-37.8479
G1 X27.5012 Y-38.0027
G1 X29.1155 Y-37.4720
G1 X28.6511 Y-35.8135
G1 X28.4300 Y-35.5039
G1 X28.1425 Y-35.4376
G1 X27.4349 Y-35.5260
G1 X28.0098 Y-37.3172
G1 X26.6830 Y-35.6808
G1 X27.3243 Y-37.5826
G1 X26.4619 Y-38.5777
G1 X27.2801 Y-38.5335
G1 X27.5676 Y-38.4450
G1 X27.4349 Y-37.8037
G1 X27.3022 Y-37.5826
G1 X26.2408 Y-37.4499
G1 X26.0860 Y-37.2730
G1 Z0.0000 F2500.0
G4 P0.02
G0 X26.6830 Y-35.6808 F15000.0
G1 Z11.9000 F2500.0
G4 P0.02
G1 X26.5725 Y-35.5481 F3500.0
G1 X25.5552 Y-35.5260
G1 X26.0860 Y-37.2730
G1 X23.6409 Y-38.4166
G1 X24.1716 Y-38.4387
G1 X24.1053 Y-38.0185
G1 X23.7515 Y-37.2003
G1 X23.3534 Y-37.1561
G1 X23.1987 Y-37.3994
G1 X23.4861 Y-38.2176
G1 X22.4468 Y-36.6033
G1 Z0.0000 F2500.0
G4 P0.02
G0 X22.0045 Y-35.8514 F15000.0
G1 Z11.9000 F2500.0
G4 P0.02
G1 X21.9824 Y-35.5639 F3500.0
G1 Z0.0000 F2500.0
G4 P0.02
G0 X20.9652 Y-36.5812 F15000.0
G1 Z11.9000 F2500.0
G4 P0.02
G1 X21.8055 Y-38.5935 F3500.0
G1 X21.6286 Y-37.9743
G1 X21.6949 Y-37.9964
G1 X22.0045 Y-35.8514
G1 X22.3141 Y-36.2716
G1 X23.2650 Y-38.5935
G1 Z0.0000 F2500.0
G4 P0.02
G0 X21.1421 Y-37.0013 F15000.0
G1 Z11.9000 F2500.0
G4 P0.02
G1 X20.4566 Y-35.2986 F3500.0
G1 Z0.0000 F2500.0
G4 P0.02
G0 X18.8868 Y-33.2805 F15000.0
G1 Z11.9000 F2500.0
G4 P0.02
G1 X17.7147 Y-30.5606 F12000.0
G1 X17.4273 Y-30.4942
G1 X18.9531 Y-30.5606
G1 X18.9531 Y-30.3394
G1 X19.1300 Y-30.6269
G1 X18.9752 Y-30.6048
G1 X18.9973 Y-30.8259
G1 X19.9482 Y-33.4132
G1 X19.9703 Y-33.6786
G1 X19.0858 Y-33.6564
G1 X20.5844 Y-32.4468
G1 X20.0316 Y-30.6556
G1 X21.0267 Y-30.6556
G1 X20.8055 Y-32.6237
G1 X21.6016 Y-32.7122
G1 X21.7122 Y-32.6016
G1 X21.1594 Y-30.8325
G1 X21.3118 Y-29.5545
G1 X22.5280 Y-32.6062
G1 X23.4789 Y-32.7168
G1 X23.5673 Y-32.2745
G1 X23.0568 Y-30.6808
G1 Z0.0000 F2500.0
G4 P0.02
G0 X23.8159 Y-30.6556 F15000.0
G1 Z11.9000 F2500.0
G4 P0.02
G1 X24.3687 Y-32.4468 F3500.0
G1 X24.5899 Y-32.6237
G1 X25.3859 Y-32.7122
G1 X25.4965 Y-32.6016
G1 X24.9437 Y-30.8325
G1 X25.4681 Y-30.6101
G1 X26.2642 Y-31.3399
G1 X26.5296 Y-31.4725
G1 X26.7507 Y-30.5217
G1 X26.0652 Y-31.1630
G1 X25.9767 Y-31.0745
G1 X26.3306 Y-32.7551
G1 X26.5517 Y-31.7600
G1 X27.6352 Y-32.6667
G1 Z0.0000 F2500.0
G4 P0.02
G0 X26.5517 Y-31.7600 F15000.0
G1 Z11.9000 F2500.0
G4 P0.02
G1 X26.5517 Y-31.4947 F3500.0
G1 X27.2593 Y-32.3128
G1 X28.1531 Y-32.4468
G1 X27.6002 Y-30.6556
G1 X28.5953 Y-30.6556
G1 X28.7280 Y-30.8325
G1 X29.2808 Y-32.6016 F3500.0
G1 X30.9757 Y-33.6586
G1 X30.4671 Y-33.5038
G1 X29.5383 Y-30.9829
G1 X29.5383 Y-30.6070
G1 X30.4007 Y-30.6291
G1 X30.6219 Y-30.8060
G1 X30.9757 Y-31.8232
G1 Z0.0000 F2500.0
G4 P0.02
G0 X31.0420 Y-32.0001 F15000.0
G1 Z11.9000 F2500.0
G4 P0.02
G1 X30.5997 Y-32.7520 F3500.0
G1 X30.2459 Y-33.0173
G1 X31.0420 Y-33.5260
G1 X30.5776 Y-32.7520
G1 X28.3742 Y-32.6237
G1 X29.1703 Y-32.7122
G1 Z0.0000 F2500.0
G4 P0.02
G0 X29.1155 Y-35.3049 F15000.0
G1 Z11.9000 F2500.0
G4 P0.02
G1 X29.7126 Y-36.4769 F3500.0
G1 X30.0664 Y-36.5875
G1 X31.1499 Y-37.4720
G1 X31.8181 Y-37.2016
G1 Z0.0000 F2500.0
G4 P0.02
G0 X34.0468 Y-36.6317 F15000.0
G1 Z11.9000 F2500.0
G4 P0.02
G1 X33.9805 Y-36.4548 F3500.0
G1 X34.3343 Y-35.3934
G1 X34.9977 Y-37.2067
G1 Z0.0000 F2500.0
G4 P0.02
G0 X32.2625 Y-26.0384 F15000.0
G1 Z11.9000 F2500.0
G4 P0.02
G1 X32.1519 Y-25.8394 F12000.0
G1 X31.0241 Y-25.7951
G1 X31.6212 Y-27.6306
G1 X32.7932 Y-27.8517
G1 X32.2846 Y-26.0826
G1 X32.2404 Y-25.7067
G1 X30.2614 Y-25.9410
G1 X30.6816 Y-27.1352
G1 X30.2393 Y-27.8870
G1 X29.9076 Y-28.2187
G1 X29.8413 Y-27.8207
G1 X30.2172 Y-27.8870
G1 X30.6816 Y-28.6610
G1 X30.6153 Y-28.7937
G1 X30.1067 Y-28.6389
G1 X29.1779 Y-26.1179
G1 X29.1779 Y-25.7420
G1 X30.0403 Y-25.7641
G1 X28.3676 Y-25.9676
G1 X28.9204 Y-27.7366
G1 X28.8099 Y-27.8472
G1 X28.0138 Y-27.7588
G1 X28.2349 Y-25.7907
G1 X27.2398 Y-25.7907
G1 X27.7926 Y-27.5818
G1 X27.1728 Y-27.6135
G1 X27.1236 Y-27.5055
G1 Z0.0000 F2500.0
G4 P0.02
G0 X26.7747 Y-26.8395 F15000.0
G1 Z11.9000 F2500.0
G4 P0.02
G1 X27.2612 Y-27.7683 F12000.0
G1 X26.1113 Y-27.9010
G1 X25.7354 Y-26.9943
G1 X25.7575 Y-26.7732
G1 X26.6642 Y-26.7732
G1 X26.3325 Y-25.5569
G1 X25.5585 Y-26.5741
G1 X25.1162 Y-25.5790
G1 X25.1162 Y-25.6675
G1 X24.6717 Y-25.7067
G1 X24.7159 Y-26.0826
G1 X25.2246 Y-27.8517
G1 X24.0525 Y-27.6306
G1 X23.4555 Y-25.7951
G1 X24.5833 Y-25.8394
G1 X24.6938 Y-26.0384
G1 X22.7427 Y-26.2671
G1 X22.6542 Y-25.9575
G1 X22.7869 Y-26.7536
G1 X22.2120 Y-27.5939
G1 X22.3668 Y-27.6824
G1 X23.1629 Y-27.7487
G1 X23.0744 Y-27.1295
G1 X22.8533 Y-26.8421
G1 X22.3004 Y-26.7978
G1 X21.4180 Y-27.1778
G1 Z0.0000 F2500.0
G4 P0.02
G0 X20.2484 Y-27.1946 F15000.0
G1 Z11.9000 F2500.0
G4 P0.02
G1 X21.6370 Y-25.9133 F3500.0
G1 X21.6591 Y-25.8027
G1 X22.0793 Y-25.6922
G1 X22.4995 Y-25.8248
G1 X22.6542 Y-25.9575
G1 Z0.0000 F2500.0
G4 P0.02
G0 X20.0715 Y-26.7523 F15000.0
G1 Z11.9000 F2500.0
G4 P0.02
G1 X20.7349 Y-25.6909 F12000.0
G1 X19.8504 Y-25.7351
G1 X19.7398 Y-25.8678
G1 X20.5359 Y-27.9022
G1 X21.7300 Y-27.9022
G1 X20.4253 Y-24.8727
G1 X20.2926 Y-24.8064
G1 X19.2975 Y-24.7400
G1 X18.8723 Y-25.7218
G1 X19.9338 Y-28.7955
G1 X18.5849 Y-28.7513
G1 X17.3686 Y-25.5670
G1 X17.3686 Y-25.6996
G1 Z0.0000 F2500.0
G4 P0.02
G0 X18.4522 Y-28.4417 F15000.0
G1 Z11.9000 F2500.0
G4 P0.02
G1 X18.4743 Y-28.5080 F3500.0
G1 Z0.0000 F2500.0
G4 P0.02
G0 X21.5276 Y-30.0962 F15000.0
G1 Z11.9000 F2500.0
G4 P0.02
G1 X21.5108 Y-29.9968 F3500.0
G1 X21.8204 Y-30.5275
G1 X22.9482 Y-30.6823
G1 X24.8110 Y-30.6556
G1 Z0.0000 F2500.0
G4 P0.02
G0 X13.8592 Y-20.8097 F15000.0
G1 Z11.9000 F2500.0
G4 P0.02
G1 X13.7928 Y-20.7434 F3500.0
G1 X13.2551 Y-20.9524
G1 X12.1274 Y-20.7976
G1 X11.6188 Y-19.8246
G1 X12.8350 Y-22.8763
G1 X13.7859 Y-22.9868
G1 X13.8743 Y-22.5446
G1 X13.3657 Y-21.0851
G1 Z0.0000 F2500.0
G4 P0.02
G0 X11.0653 Y-22.9426 F15000.0
G1 Z11.9000 F2500.0
G4 P0.02
G1 X10.2692 Y-20.6870 F3500.0
G1 X11.2201 Y-20.6870
G1 X11.8835 Y-22.5445
G1 X11.8171 Y-22.9647
G1 X10.2250 Y-22.9647
G1 X9.2962 Y-20.6870
G1 X10.1365 Y-22.8762
G1 X9.4606 Y-22.7485
G1 Z0.0000 F2500.0
G4 P0.02
G0 X9.0626 Y-21.9746 F15000.0
G1 Z11.9000 F2500.0
G4 P0.02
G1 X9.5491 Y-22.9033 F3500.0
G1 X8.3992 Y-23.0360
G1 X8.0232 Y-22.1293
G1 X8.0453 Y-21.9082
G1 X8.9520 Y-21.9082
G1 X8.6203 Y-20.6920
G1 X7.8463 Y-21.7092
G1 X7.4040 Y-20.7141
G1 X7.4040 Y-20.8025
G1 X6.8711 Y-21.1026
G1 X7.4239 Y-22.8717
G1 X7.3134 Y-22.9823 F12000.0
G1 X6.5173 Y-22.8938
G1 X6.2961 Y-22.7169
G1 X5.7433 Y-20.9257
G1 X6.7384 Y-20.9257
G1 X4.8384 Y-20.8910
G1 X4.5951 Y-21.9524
G1 X4.2413 Y-21.8861
G1 X4.5730 Y-21.9746
G1 X5.6566 Y-22.8591
G1 X4.6172 Y-23.0360
G1 X3.6221 Y-20.7141
G1 X2.9567 Y-20.8097
G1 X2.8904 Y-20.7434
G1 X1.8397 Y-21.5504
G1 X3.5645 Y-23.9165
G1 X2.7242 Y-23.8723
G1 X1.5522 Y-20.7100
G1 X1.5522 Y-20.8427
G1 Z0.0000 F2500.0
G4 P0.02
G0 X0.0000 Y-19.9474 F15000.0
G1 Z11.9000 F2500.0
G4 P0.02
G1 X63.2677 Y-19.9474 F12000.0
G1 X131.3959 Y-19.9474 F12000.0
G1 X180.0000 Y-19.9474 F12000.0
G1 Z0.0000 F2500.0
G4 P0.02
G0 X180.0000 Y-24.8078 F15000.0
G1 Z11.9000 F2500.0
G4 P0.02
G1 X131.3959 Y-24.8078 F12000.0
G1 Z0.0000 F2500.0
G4 P0.02
G0 X133.1266 Y-20.8437 F15000.0
G1 Z11.9000 F2500.0
G4 P0.02
G1 X133.9670 Y-22.1042 F12000.0
G1 X134.7630 Y-20.8658
G1 X135.8466 Y-23.9175
G1 X135.1832 Y-23.8954
G1 X136.4437 Y-23.0330
G1 X135.7139 Y-20.9101
G1 X136.7311 Y-20.8658
G1 X137.6599 Y-23.0330
G1 X135.9129 Y-21.6840
G1 X135.8687 Y-21.5292
G1 X138.1464 Y-22.7234
G1 X137.5936 Y-21.1754
G1 X137.6157 Y-20.9101
G1 X139.2300 Y-20.6889
G1 Z0.0000 F2500.0
G4 P0.02
G0 X148.0600 Y-13.7603 F15000.0
G1 Z11.9000 F2500.0
G4 P0.02
G1 X148.0158 Y-13.6940 F3500.0
G1 X149.7628 Y-18.2273
G1 X151.6645 Y-18.2273
G1 X151.8193 Y-18.3157
G1 X151.6866 Y-18.2051
G1 X150.1608 Y-13.8267
G1 Z0.0000 F2500.0
G4 P0.02
G0 X150.2550 Y-14.0856 F15000.0
G1 Z11.9000 F2500.0
G4 P0.02
G1 X151.1493 Y-13.7603 F3500.0
G1 X151.1051 Y-13.6940
G1 X152.8520 Y-18.2273
G1 X154.5769 Y-18.3157
G1 X156.8914 Y-16.3697
G1 Z0.0000 F2500.0
G4 P0.02
G0 X156.6058 Y-15.8380 F15000.0
G1 Z11.9000 F2500.0
G4 P0.02
G1 X155.0560 Y-15.9937 F3500.0
G1 X155.4982 Y-18.2493
G1 X154.9454 Y-16.7014
G1 X154.9454 Y-16.1043
G1 X154.2820 Y-13.7382
G1 X155.6088 Y-13.9151
G1 X156.0511 Y-14.2689
G1 X156.4712 Y-15.2419
G1 X156.6260 Y-15.8168
G1 Z0.0000 F2500.0
G4 P0.02
G0 X155.7329 Y-14.0143 F15000.0
G1 Z11.9000 F2500.0
G4 P0.02
G1 X155.6973 Y-13.9593 F3500.0
G1 X157.0020 Y-16.6572
G1 X157.5990 Y-18.2493
G1 X158.4896 Y-17.9619
G1 X156.8974 Y-13.6940
G1 X159.3078 Y-14.5564
G1 Z0.0000 F2500.0
G4 P0.02
G0 X159.0424 Y-13.8267 F15000.0
G1 Z11.9000 F2500.0
G4 P0.02
G1 X160.0375 Y-16.5688 F3500.0
G1 X160.5844 Y-15.2190
G1 X160.3411 Y-14.5556
G1 X160.3633 Y-14.0249
G1 X161.7122 Y-13.7595
G1 X160.8498 Y-15.9487
G1 X161.5132 Y-17.6515
G1 X161.9112 Y-18.0274
G1 X162.2429 Y-18.1601
G1 X163.4591 Y-18.3149
G1 Z0.0000 F2500.0
G4 P0.02
G0 X161.6016 Y-17.7841 F15000.0
G1 Z11.9000 F2500.0
G4 P0.02
G1 X160.1923 Y-16.9889 F3500.0
G1 X160.5682 Y-18.2051
G1 X158.6444 Y-18.2273
G1 Z0.0000 F2500.0
G4 P0.02
G0 X160.5461 Y-18.2273 F15000.0
G1 Z11.9000 F2500.0
G4 P0.02
G1 X160.7009 Y-18.3157 F3500.0
G1 Z0.0000 F2500.0
G4 P0.02
G0 X159.9961 Y-22.9350 F15000.0
G1 Z11.9000 F2500.0
G4 P0.02
G1 X160.5512 Y-22.8762 F12000.0
G1 X159.7109 Y-20.6870
G1 X160.6397 Y-22.9647
G1 X162.2318 Y-22.9647
G1 X162.2982 Y-22.5445
G1 X161.6348 Y-20.6870
G1 X160.6839 Y-20.6870
G1 X161.4800 Y-22.9426
G1 X163.1982 Y-22.7169
G1 X162.6454 Y-20.9257
G1 X163.6405 Y-20.9257
G1 X163.4194 Y-22.8938
G1 X164.2155 Y-22.9823
G1 X164.3260 Y-22.8717
G1 X163.7732 Y-21.1026
G1 X164.5835 Y-21.1026
G1 Z0.0000 F2500.0
G4 P0.02
G0 X165.4459 Y-20.8992 F15000.0
G1 Z11.9000 F2500.0
G4 P0.02
G1 X164.5835 Y-20.8771 F3500.0
G1 X164.5835 Y-21.2530
G1 X165.5123 Y-23.7739
G1 X166.0209 Y-23.9287
G1 X165.2469 Y-22.9557
G1 X165.6228 Y-23.0221
G1 X165.6671 Y-23.1105
G1 X166.0872 Y-22.2702
G1 X165.6671 Y-21.0761
G1 X165.6892 Y-23.1547
G1 X166.0872 Y-23.7960
G1 Z0.0000 F2500.0
G4 P0.02
G0 X169.4509 Y-29.9805 F15000.0
G1 Z11.9000 F2500.0
G4 P0.02
G1 X170.9546 Y-34.1378 F3500.0
G1 X171.1536 Y-34.4253
G1 Z0.0000 F2500.0
G4 P0.02
G0 X170.8440 Y-34.0494 F15000.0
G1 Z11.9000 F2500.0
G4 P0.02
G1 X170.3133 Y-33.8061 F3500.0
G1 Z0.0000 F2500.0
G4 P0.02
G0 X169.7826 Y-33.4523 F15000.0
G1 Z11.9000 F2500.0
G4 P0.02
G1 X169.5393 Y-33.2091 F3500.0
G1 Z0.0000 F2500.0
G4 P0.02
G0 X171.4853 Y-32.7889 F15000.0
G1 Z11.9000 F2500.0
G4 P0.02
G1 X171.5517 Y-32.8331 F3500.0
G1 Z0.0000 F2500.0
G4 P0.02
G0 X172.6286 Y-33.2091 F15000.0
G1 Z11.9000 F2500.0
G4 P0.02
G1 X172.8718 Y-33.4523 F3500.0
G1 Z0.0000 F2500.0
G4 P0.02
G0 X173.4026 Y-33.8061 F15000.0
G1 Z11.9000 F2500.0
G4 P0.02
G1 X173.9333 Y-34.0494 F3500.0
G1 Z0.0000 F2500.0
G4 P0.02
G0 X174.2429 Y-34.4253 F15000.0
G1 Z11.9000 F2500.0
G4 P0.02
G1 X174.0438 Y-34.1378 F3500.0
G1 X172.5401 Y-29.9805
G1 Z0.0000 F2500.0
G4 P0.02
G0 X170.8440 Y-31.0420 F15000.0
G1 Z11.9000 F2500.0
G4 P0.02
G1 X170.7556 Y-30.9977 F3500.0
G1 Z0.0000 F2500.0
G4 P0.02
G0 X174.8851 Y-23.5820 F15000.0
G1 Z11.9000 F2500.0
G4 P0.02
G1 X174.4207 Y-23.3166 F3500.0
G1 Z0.0000 F2500.0
G4 P0.02
G0 X175.0841 Y-23.6926 F15000.0
G1 Z11.9000 F2500.0
G4 P0.02
G1 X175.2168 Y-23.6262 F3500.0
G1 X174.5755 Y-21.7687
G1 X174.1553 Y-20.7957
G1 Z0.0000 F2500.0
G4 P0.02
G0 X175.2168 Y-23.6483 F15000.0
G1 Z11.9000 F2500.0
G4 P0.02
G1 X175.3495 Y-23.8031 F3500.0
G1 Z0.0000 F2500.0
G4 P0.02
G0 X171.6517 Y-40.4106 F15000.0
G1 Z11.9000 F2500.0
G4 P0.02
G1 X172.2734 Y-40.1468 F3500.0
G1 X173.1358 Y-42.4024
G1 X173.9983 Y-42.4245
G1 X174.8386 Y-42.1370
G1 X174.1531 Y-40.1468
G1 X173.2243 Y-40.1468
G1 X174.0204 Y-42.4024
G1 Z0.0000 F2500.0
G4 P0.02
G0 X166.2663 Y-9.0742 F15000.0
G1 Z11.9000 F2500.0
G4 P0.02
G1 X165.9567 Y-8.6983 F3500.0
G1 X166.0894 Y-8.8530
G1 X166.4432 Y-10.0472
G1 X166.3547 Y-10.1356
G1 X165.5365 Y-10.0693
G1 X165.1827 Y-9.8482
G1 X165.1606 Y-8.5435
G1 X165.8682 Y-8.6098
G1 X165.9346 Y-8.4329
G1 X165.7134 Y-7.5041
G1 X165.3375 Y-7.1724
G1 X164.2982 Y-7.1282
G1 X163.6974 Y-8.6214
G1 Z0.0000 F2500.0
G4 P0.02
G0 X165.1615 Y-8.5966 F15000.0
G1 Z11.9000 F2500.0
G4 P0.02
G1 X161.7956 Y-8.6214 F12000.0
G1 X161.4082 Y-10.1103
G1 X161.1207 Y-9.2921
G1 X160.2140 Y-7.8989
G1 X160.5679 Y-8.3191
G1 X159.6833 Y-10.9727
G1 X159.4843 Y-9.2478
G1 X160.9438 Y-9.1373
G1 X160.8996 Y-8.8056
G1 X161.5187 Y-10.4199
G1 X161.6072 Y-11.2602
G1 X161.2755 Y-11.5476
G1 X160.1919 Y-11.4150
G1 X159.7497 Y-11.0611
G1 X159.4401 Y-10.4420
G1 X158.9536 Y-7.1028
G1 X159.9266 Y-7.6336
G1 Z0.0000 F2500.0
G4 P0.02
G0 X157.3182 Y-10.4099 F15000.0
G1 Z11.9000 F2500.0
G4 P0.02
G1 X158.9324 Y-11.6261 F3500.0
G1 X158.7334 Y-11.3386
G1 X157.2297 Y-7.1813
G1 X155.4501 Y-7.8777
G1 X155.4722 Y-7.9440
G1 Z0.0000 F2500.0
G4 P0.02
G0 X158.0921 Y-11.0069 F15000.0
G1 Z11.9000 F2500.0
G4 P0.02
G1 X158.6228 Y-11.2502 F3500.0
G1 X156.7548 Y-11.5706
G1 X155.1626 Y-11.5485
G1 X155.0742 Y-11.4600
G1 X154.4550 Y-9.5362
G1 X155.4059 Y-9.4477
G1 X155.6934 Y-9.2708
G1 X155.7818 Y-9.0718
G1 X155.7155 Y-8.6295
G1 X155.4280 Y-7.8334
G1 X154.8752 Y-7.2364
G1 X153.5484 Y-7.0595
G1 X153.1424 Y-8.6214
G1 X151.2407 Y-8.6214
G1 Z0.0000 F2500.0
G4 P0.02
G0 X148.6500 Y-6.9974 F15000.0
G1 Z11.9000 F2500.0
G4 P0.02
G1 X150.1537 Y-11.0663 F3500.0
G1 X150.2643 Y-11.5307
G1 X151.4584 Y-11.6413
G1 X150.2421 Y-11.5528
G1 X147.2277 Y-11.5173
G1 Z0.0000 F2500.0
G4 P0.02
G0 X148.1786 Y-11.5394 F15000.0
G1 Z11.9000 F2500.0
G4 P0.02
G1 X146.6528 Y-7.1609 F3500.0
G1 X145.4808 Y-8.9521
G1 X144.1097 Y-7.0282
G1 Z0.0000 F2500.0
G4 P0.02
G0 X150.4262 Y-14.5564 F15000.0
G1 Z11.9000 F2500.0
G4 P0.02
G1 X151.3233 Y-14.2265 F3500.0
G1 Z0.0000 F2500.0
G4 P0.02
G0 X114.8389 Y-10.1498 F15000.0
G1 Z11.9000 F2500.0
G4 P0.02
G1 X114.7956 Y-10.1047 F3500.0
G1 Z0.0000 F2500.0
G4 P0.02
G0 X109.5552 Y-25.7627 F15000.0
G1 Z11.9000 F2500.0
G4 P0.02
G1 X109.2014 Y-24.8782 F12000.0
G1 X112.3415 Y-33.4361
G1 X112.5184 Y-33.7456
G1 X115.3268 Y-33.7235
G1 X115.5258 Y-33.5466
G1 X115.5480 Y-32.6842
G1 X113.8452 Y-28.2394
G1 X113.3808 Y-27.7971
G1 X113.0049 Y-27.6866
G1 X110.3734 Y-27.5539
G1 Z0.0000 F2500.0
G4 P0.02
G0 X113.7326 Y-28.1321 F15000.0
G1 Z11.9000 F2500.0
G4 P0.02
G1 X113.7779 Y-28.1752 F3500.0
G1 Z0.0000 F2500.0
G4 P0.02
G0 X99.0390 Y-28.6153 F15000.0
G1 Z11.9000 F2500.0
G4 P0.02
G1 X100.9629 Y-33.7678 F3500.0
G1 X101.0735 Y-33.9004
G1 X99.0381 Y-33.7933
G1 X98.1977 Y-31.6262
G1 Z0.0000 F2500.0
G4 P0.02
G0 X63.2677 Y-24.8078 F15000.0
G1 Z11.9000 F2500.0
G4 P0.02
G1 X0.0000 Y-24.8078 F12000.0
G1 Z0.0000 F2500.0
G4 P0.02
G0 X0.8278 Y-25.6996 F15000.0
G1 Z11.9000 F2500.0
G4 P0.02
G1 X0.8278 Y-25.5670 F12000.0
G1 X2.0440 Y-28.7513
G1 X3.3930 Y-28.7955
G1 X2.3315 Y-25.7218
G1 X1.9335 Y-28.5080
G1 X3.5699 Y-27.0707
G1 X2.6190 Y-24.6824
G1 X2.9286 Y-25.3679
G1 X4.4986 Y-26.3630
G1 X4.7861 Y-27.1812
G1 X4.8967 Y-27.7562
G1 X3.8795 Y-27.8446
G1 X3.7247 Y-27.4908
G1 X6.5331 Y-26.7390
G1 X6.1350 Y-25.8102
G1 X5.1399 Y-25.7660
G1 X5.1620 Y-26.1198
G1 X5.7812 Y-27.7120
G1 X5.8918 Y-27.7562
G1 X6.6215 Y-26.9822
G1 X7.2664 Y-26.7554
G1 Z0.0000 F2500.0
G4 P0.02
G0 X6.6010 Y-27.0040 F15000.0
G1 Z11.9000 F2500.0
G4 P0.02
G1 X7.7272 Y-28.0658 F3500.0
G1 X7.0196 Y-26.0535
G1 X7.0417 Y-25.7439
G1 X8.2800 Y-26.3630
G1 X7.5503 Y-27.5572
G1 X7.7272 Y-27.8225
G1 X8.0810 Y-27.8889
G1 X8.5012 Y-28.7734
G1 X8.2800 Y-28.7955
G1 X7.9483 Y-28.6186
G1 X7.8599 Y-28.3975
G1 X8.1031 Y-27.8889
G1 X8.6560 Y-27.7783
G1 X8.5896 Y-27.2255
G1 X8.3242 Y-26.4736
G1 X8.6338 Y-25.6775
G1 X8.5675 Y-25.6112
G1 Z0.0000 F2500.0
G4 P0.02
G0 X2.6190 Y-24.6824 F15000.0
G1 Z11.9000 F2500.0
G4 P0.02
G1 X1.9723 Y-23.9828 F3500.0
G1 X2.7242 Y-23.8944
G1 Z0.0000 F2500.0
G4 P0.02
G0 X6.8375 Y-34.6110 F15000.0
G1 Z11.9000 F2500.0
G4 P0.02
G1 X6.8375 Y-58.9131 F12000.0
G1 Z0.0000 F2500.0
G4 P0.02
G0 X16.5584 Y-5.3662 F15000.0
G1 Z11.9000 F2500.0
G4 P0.02
G1 X16.5584 Y-58.9131 F12000.0
G1 Z0.0000 F2500.0
G4 P0.02
G0 X38.9657 Y-58.9131 F15000.0
G1 Z11.9000 F2500.0
G4 P0.02
G1 X38.9657 Y-5.3662 F12000.0
G1 Z0.0000 F2500.0
G4 P0.02
G0 X53.5469 Y-5.3662 F15000.0
G1 Z11.9000 F2500.0
G4 P0.02
G1 X53.5469 Y-58.9131 F12000.0
G1 Z0.0000 F2500.0
G4 P0.02
G0 X63.2677 Y-39.4714 F15000.0
G1 Z11.9000 F2500.0
G4 P0.02
G1 X0.0000 Y-39.4714 F12000.0
G1 Z0.0000 F2500.0
G4 P0.02
G0 X59.5135 Y-37.5384 F15000.0
G1 Z11.9000 F2500.0
G4 P0.02
G1 X58.8059 Y-37.5605 F3500.0
G1 X60.4644 Y-35.5260
G1 X60.9509 Y-37.3393
G1 X61.9460 Y-37.5826
G1 X61.9018 Y-37.1403
G1 X61.4595 Y-35.3712
G1 X61.4816 Y-35.6808
G1 X61.4374 Y-35.5481
G1 X60.5528 Y-35.4376
G1 X59.7037 Y-35.7206
G1 Z0.0000 F2500.0
G4 P0.02
G0 X125.3821 Y-130.1716 F15000.0
G1 Z11.9000 F2500.0
G4 P0.02
G1 X125.3821 Y-152.5789 F12000.0
G1 X125.3821 Y-184.2128 F12000.0
G1 Z0.0000 F2500.0
G4 P0.02
G0 X140.8284 Y-175.5889 F15000.0
G1 Z11.9000 F2500.0
G4 P0.02
G1 X140.8284 Y-174.7132 F3500.0
G1 Z0.0000 F2500.0
G4 P0.02
G0 X141.1579 Y-175.0015 F15000.0
G1 Z11.9000 F2500.0
G4 P0.02
G1 X141.1579 Y-175.8772 F3500.0
G1 Z0.0000 F2500.0
G4 P0.02
G0 X143.8352 Y-168.3959 F15000.0
G1 Z11.9000 F2500.0
G4 P0.02
G1 X147.3776 Y-168.3959 F3500.0
G1 Z0.0000 F2500.0
G4 P0.02
G0 X148.6956 Y-168.2311 F15000.0
G1 Z11.9000 F2500.0
G4 P0.02
G1 X148.5309 Y-166.9954 F3500.0
G1 X147.9542 Y-165.8421 F3500.0
G1 X147.2128 Y-164.8535 F3500.0
G1 X146.1419 Y-164.1121 F3500.0
G1 X144.9886 Y-163.7002 F3500.0
G1 X143.7529 Y-163.5355 F3500.0
G1 Z0.0000 F2500.0
G4 P0.02
G0 X143.8352 Y-164.8535 F15000.0
G1 Z11.9000 F2500.0
G4 P0.02
G1 X143.8352 Y-168.3959 F3500.0
G1 Z0.0000 F2500.0
G4 P0.02
G0 X146.8833 Y-162.1610 F15000.0
G1 Z11.9000 F2500.0
G4 P0.02
G1 X146.8833 Y-161.2853 F3500.0
G1 Z0.0000 F2500.0
G4 P0.02
G0 X146.5126 Y-161.0381 F15000.0
G1 Z11.9000 F2500.0
G4 P0.02
G1 X146.5126 Y-161.9138 F3500.0
G1 Z0.0000 F2500.0
G4 P0.02
G0 X147.3776 Y-158.2632 F15000.0
G1 Z11.9000 F2500.0
G4 P0.02
G1 X149.1075 Y-159.0870 F3500.0
G1 X150.6728 Y-160.1579 F3500.0
G1 X151.9908 Y-161.4760 F3500.0
G1 X152.9794 Y-162.7940 F3500.0
G1 Z0.0000 F2500.0
G4 P0.02
G0 X162.3707 Y-152.5789 F15000.0
G1 Z11.9000 F2500.0
G4 P0.02
G1 X162.3707 Y-130.1716 F12000.0
G1 Z0.0000 F2500.0
G4 P0.02
G0 X162.3707 Y-132.1487 F15000.0
G1 Z11.9000 F2500.0
G4 P0.02
G1 X157.5103 Y-131.4897 F3500.0
G1 X157.9222 Y-132.1487 F3500.0
G1 X157.5103 Y-132.7254 F3500.0
G1 X162.3707 Y-132.1487 F3500.0
G1 X125.3821 Y-132.1487 F12000.0
G1 X130.2426 Y-132.7254 F3500.0
G1 X129.7483 Y-132.1487 F3500.0
G1 X130.2426 Y-131.4897 F3500.0
G1 X125.3821 Y-132.1487 F3500.0
G1 Z0.0000 F2500.0
G4 P0.02
G0 X127.3745 Y-131.8604 F15000.0
G1 Z11.9000 F2500.0
G4 P0.02
G1 X128.2502 Y-131.8604 F3500.0
G1 Z0.0000 F2500.0
G4 P0.02
G0 X128.6209 Y-132.4371 F15000.0
G1 Z11.9000 F2500.0
G4 P0.02
G1 X127.7452 Y-132.4371 F3500.0
G1 Z0.0000 F2500.0
G4 P0.02
G0 X106.4348 Y-153.3768 F15000.0
G1 Z11.9000 F2500.0
G4 P0.02
G1 X106.4348 Y-154.2525 F3500.0
G1 Z0.0000 F2500.0
G4 P0.02
G0 X105.8169 Y-154.5408 F15000.0
G1 Z11.9000 F2500.0
G4 P0.02
G1 X105.8169 Y-153.6651 F3500.0
G1 Z0.0000 F2500.0
G4 P0.02
G0 X159.2143 Y-132.4371 F15000.0
G1 Z11.9000 F2500.0
G4 P0.02
G1 X160.0900 Y-132.4371 F3500.0
G1 Z0.0000 F2500.0
G4 P0.02
G0 X160.4195 Y-131.8604 F15000.0
G1 Z11.9000 F2500.0
G4 P0.02
G1 X159.5438 Y-131.8604 F3500.0
G1 Z0.0000 F2500.0
G4 P0.02
G0 X68.1282 Y-271.0412 F15000.0
G1 Z11.9000 F2500.0
G4 P0.02
G1 X0.0000 Y-271.0412 F12000.0
G1 Z0.0000 F2500.0
G4 P0.02
G0 X13.7840 Y-276.5669 F15000.0
G1 Z11.9000 F2500.0
G4 P0.02
G1 X13.5186 Y-276.0140 F3500.0
G1 X13.5849 Y-275.1516
G1 X13.9830 Y-274.8199
G1 X15.1108 Y-274.8199
G1 X15.5751 Y-275.0410
G1 X14.5579 Y-277.3408
G1 X18.2066 Y-281.0780
G1 X17.9634 Y-280.9895
G1 X16.6587 Y-281.0559
G1 X15.3540 Y-280.9674
G1 Z0.0000 F2500.0
G4 P0.02
G0 X17.8033 Y-280.6388 F15000.0
G1 Z11.9000 F2500.0
G4 P0.02
G1 X17.9634 Y-280.9674 F12000.0
G1 X19.9315 Y-280.7021
G1 X20.0421 Y-280.7684
G1 X22.0986 Y-280.6578
G1 X22.1428 Y-279.8839
G1 X20.5064 Y-275.5054
G1 X20.0199 Y-275.0189
G1 X19.3787 Y-274.7314
G1 X18.0519 Y-274.8199
G1 X17.8528 Y-275.0189
G1 X17.8307 Y-276.0804
G1 X19.2017 Y-279.8175
G1 X19.6882 Y-280.5030
G1 X20.4180 Y-280.9453
G1 X24.0399 Y-281.0338
G1 X23.8409 Y-280.8126
G1 X24.9687 Y-280.1935
G1 Z0.0000 F2500.0
G4 P0.02
G0 X28.8748 Y-280.2426 F15000.0
G1 Z11.9000 F2500.0
G4 P0.02
G1 X27.6665 Y-281.1001 F3500.0
G1 X25.8090 Y-280.8790
G1 X25.4110 Y-280.6799
G1 X24.9687 Y-280.1935
G1 X24.4159 Y-278.8003
G1 X24.4601 Y-277.9379
G1 X25.3889 Y-277.6504
G1 X24.7255 Y-277.6283
G1 X24.6591 Y-277.7389
G1 X24.4601 Y-277.2524
G1 X24.5928 Y-277.3629
G1 X23.9957 Y-276.8101
G1 X23.5756 Y-275.7265
G1 X23.5313 Y-275.2843
G1 X23.6419 Y-275.0189
G1 X23.9294 Y-274.7757
G1 X25.3225 Y-274.7314 F3500.0
G1 Z0.0000 F2500.0
G4 P0.02
G0 X29.6125 Y-275.2179 F15000.0
G1 Z11.9000 F2500.0
G4 P0.02
G1 X29.3914 Y-275.0189 F12000.0
G1 X28.7501 Y-274.7314
G1 X27.4233 Y-274.8199
G1 X27.2243 Y-275.0189
G1 X27.2022 Y-276.0804
G1 X28.5732 Y-279.8175
G1 X29.0597 Y-280.5030
G1 X29.7894 Y-280.9453
G1 X31.1605 Y-280.9453
G1 X29.4135 Y-280.7684
G1 X29.3029 Y-280.7021
G1 X31.4700 Y-280.6578
G1 X31.5143 Y-279.8839
G1 X29.8779 Y-275.5054
G1 Z0.0000 F2500.0
G4 P0.02
G0 X33.5876 Y-277.0533 F15000.0
G1 Z11.9000 F2500.0
G4 P0.02
G1 X33.3664 Y-276.8101 F3500.0
G1 X32.9463 Y-275.7265
G1 X32.9020 Y-275.2843
G1 X33.0126 Y-275.0189
G1 X33.3001 Y-274.7757
G1 X34.6932 Y-274.7314
G1 X33.9635 Y-277.3629
G1 X33.8308 Y-277.2524
G1 X34.0298 Y-277.7389
G1 X34.0962 Y-277.6283
G1 X34.7596 Y-277.6504
G1 X33.8308 Y-277.9379
G1 X33.7866 Y-278.8003
G1 X34.3394 Y-280.1935
G1 X34.7817 Y-280.6799
G1 X35.1797 Y-280.8790
G1 X37.0372 Y-281.1001
G1 X38.2394 Y-280.3040
G1 Z0.0000 F2500.0
G4 P0.02
G0 X40.8266 Y-279.6185 F15000.0
G1 Z11.9000 F2500.0
G4 P0.02
G1 X40.6718 Y-280.8347 F12000.0
G1 X40.9151 Y-280.4146
G1 X40.7824 Y-279.5079
G1 X39.1902 Y-275.4170
G1 X38.3720 Y-274.8199
G1 X36.5809 Y-275.0189
G1 X36.5587 Y-276.0804
G1 X36.4924 Y-275.2179
G1 X36.5366 Y-275.9698
G1 X38.2394 Y-280.3040
G1 X39.0355 Y-280.9011
G1 X39.2566 Y-280.9674
G1 X42.5682 Y-280.8091
G1 X42.7451 Y-280.9860
G1 Z0.0000 F2500.0
G4 P0.02
G0 X45.9740 Y-279.8621 F15000.0
G1 Z11.9000 F2500.0
G4 P0.02
G1 X46.4163 Y-281.0783 F3500.0
G1 X47.8180 Y-281.0783 F3500.0
G1 X46.6017 Y-277.5844
G1 X46.5133 Y-277.5181
G1 X45.3192 Y-274.5991
G1 X48.3266 Y-274.6654
G1 X48.5477 Y-275.1298
G1 Z0.0000 F2500.0
G4 P0.02
G0 X48.3266 Y-274.6654 F15000.0
G1 Z11.9000 F2500.0
G4 P0.02
G1 X49.7456 Y-274.6578 F12000.0
G1 X52.2665 Y-276.9133
G1 X52.4876 Y-277.3335
G1 X53.7923 Y-278.0411
G1 X54.0135 Y-278.3507
G1 X54.3009 Y-279.0362
G1 X52.4876 Y-277.3335
G1 X52.1338 Y-280.8716
G1 X50.7370 Y-281.0783
G1 X48.5477 Y-275.1298
G1 X49.3217 Y-277.6065
G1 X46.6158 Y-277.6247
G1 Z0.0000 F2500.0
G4 P0.02
G0 X46.1067 Y-280.2159 F15000.0
G1 Z11.9000 F2500.0
G4 P0.02
G1 X44.0502 Y-274.7539 F3500.0
G1 X41.6177 Y-274.5991
G1 Z0.0000 F2500.0
G4 P0.02
G0 X34.3394 Y-280.1935 F15000.0
G1 Z11.9000 F2500.0
G4 P0.02
G1 X33.1975 Y-280.8091 F3500.0
G1 X33.3744 Y-280.9860
G1 X34.3394 Y-280.1935
G1 Z0.0000 F2500.0
G4 P0.02
G0 X52.6203 Y-274.6356 F15000.0
G1 Z11.9000 F2500.0
G4 P0.02
G1 X53.7260 Y-277.4883 F3500.0
G1 X53.7998 Y-278.0516
G1 Z0.0000 F2500.0
G4 P0.02
G0 X54.3009 Y-279.0362 F15000.0
G1 Z11.9000 F2500.0
G4 P0.02
G1 X55.0749 Y-281.0707 F3500.0
G1 Z0.0000 F2500.0
G4 P0.02
G0 X68.1282 Y-284.6338 F15000.0
G1 Z11.9000 F2500.0
G4 P0.02
G1 X68.1282 Y-271.0412 F12000.0
G1 Z0.0000 F2500.0
G4 P0.02
G0 X15.5358 Y-275.1299 F15000.0
G1 Z11.9000 F2500.0
G4 P0.02
G1 X15.8847 Y-275.2843 F3500.0
G1 X16.3049 Y-275.7044
G1 X15.4491 Y-275.3259
G1 Z0.0000 F2500.0
G4 P0.02

G0 Z0.0000 F800.0
G4 P0.06
G0 X0.0000 Y0.0000 F15000.0
M5
G4 P0.10
$1=0
