$X
$1=255
G21
G90
G92 Z4.0000
G0 Z0.0000 F800.0
G4 P0.06
G92 Z0.0000
G0 Z0.0000 F800.0
G0 X0.0000 Y0.0000 F15000.0
G21
G90
G17
G91.1
G0 Z0.0000
G0 X0.0000 Y-5.0000 F15000.0
G1 Z11.9000 F8000.0
G1 X180.0000 Y-5.0000 F12000.0
G1 X180.0000 Y-285.0000
G1 X0.0000 Y-285.0000
G1 X0.0000 Y-5.0000
G1 Z0.0000 F8000.0
G0 X157.5653 Y-213.7592 F15000.0
G1 Z11.9000 F8000.0
G1 X157.2557 Y-214.1572 F12000.0
G1 X157.3884 Y-215.4840
G1 X157.9191 Y-215.5725
G1 Z0.0000 F8000.0
G0 X158.8921 Y-215.2187 F15000.0
G1 Z11.9000 F8000.0
G1 X159.0248 Y-215.1744 F12000.0
G1 Z0.0000 F8000.0
G0 X159.6440 Y-214.9533 F15000.0
G1 Z11.9000 F8000.0
G1 X159.7766 Y-214.9091 F12000.0
G1 Z0.0000 F8000.0
G0 X160.2631 Y-214.7322 F15000.0
G1 Z11.9000 F8000.0
G1 X161.0592 Y-214.3783 F12000.0
G1 X161.5015 Y-213.8919
G1 X161.5899 Y-213.6265
G1 X161.5899 Y-212.6535
G1 Z0.0000 F8000.0
G0 X161.5015 Y-212.5208 F15000.0
G1 Z11.9000 F8000.0
G1 X161.2361 Y-212.3439 F12000.0
G1 X160.5285 Y-212.4766
G1 Z0.0000 F8000.0
G0 X160.0862 Y-212.6535 F15000.0
G1 Z11.9000 F8000.0
G1 X157.8307 Y-213.5380 F12000.0
G1 Z0.0000 F8000.0
G0 X157.2999 Y-212.7862 F15000.0
G1 Z11.9000 F8000.0
G1 X161.5457 Y-211.2382 F12000.0
G1 Z0.0000 F8000.0
G0 X157.6095 Y-212.2555 F15000.0
G1 Z11.9000 F8000.0
G1 X157.5211 Y-212.6093 F12000.0
G1 Z0.0000 F8000.0
G0 X150.9199 Y-213.0458 F15000.0
G1 Z11.9000 F8000.0
G1 X150.9199 Y-181.4943 F12000.0
G1 Z0.0000 F8000.0
G0 X150.9199 Y-183.4714 F15000.0
G1 Z11.9000 F8000.0
G1 X145.9771 Y-182.8123 F12000.0
G1 X146.4714 Y-183.4714 F12000.0
G1 X145.9771 Y-184.0480 F12000.0
G1 X150.9199 Y-183.4714 F12000.0
G1 X34.1053 Y-183.4714 F12000.0
G1 X38.9657 Y-184.0480 F12000.0
G1 X38.4714 Y-183.4714 F12000.0
G1 X38.9657 Y-182.8123 F12000.0
G1 X34.1053 Y-183.4714 F12000.0
G1 Z0.0000 F8000.0
G0 X34.1053 Y-181.4943 F15000.0
G1 Z11.9000 F8000.0
G1 X34.1053 Y-213.0458 F12000.0
G1 Z0.0000 F8000.0
G0 X34.1053 Y-210.9863 F15000.0
G1 Z11.9000 F8000.0
G1 X41.0252 Y-217.9062 F12000.0
G1 Z0.0000 F8000.0
G0 X42.4256 Y-217.9062 F15000.0
G1 Z11.9000 F8000.0
G1 X42.4256 Y-208.1853 F12000.0
G1 Z0.0000 F8000.0
G0 X43.8261 Y-206.2082 F15000.0
G1 Z11.9000 F8000.0
G1 X43.8261 Y-219.8833 F12000.0
G1 Z0.0000 F8000.0
G0 X45.3089 Y-217.9062 F15000.0
G1 Z11.9000 F8000.0
G1 X45.3089 Y-208.1853 F12000.0
G1 Z0.0000 F8000.0
G0 X45.3089 Y-209.7506 F15000.0
G1 Z11.9000 F8000.0
G1 X53.4645 Y-217.9062 F12000.0
G1 Z0.0000 F8000.0
G0 X54.3707 Y-217.9062 F15000.0
G1 Z11.9000 F8000.0
G1 X53.7117 Y-215.7643 F12000.0
G1 X53.4645 Y-214.2815 F12000.0
G1 X53.4645 Y-212.8810 F12000.0
G1 X53.4645 Y-211.0686 F12000.0
G1 X53.3822 Y-209.1739 F12000.0
G1 X53.2998 Y-208.1853 F12000.0
G1 Z0.0000 F8000.0
G0 X51.9817 Y-208.1853 F15000.0
G1 Z11.9000 F8000.0
G1 X53.3822 Y-209.5858 F12000.0
G1 Z0.0000 F8000.0
G0 X53.4645 Y-213.7872 F15000.0
G1 Z11.9000 F8000.0
G1 X47.8627 Y-208.1853 F12000.0
G1 Z0.0000 F8000.0
G0 X42.4256 Y-210.9863 F15000.0
G1 Z11.9000 F8000.0
G1 X39.6247 Y-208.1853 F12000.0
G1 Z0.0000 F8000.0
G0 X35.4234 Y-208.1853 F15000.0
G1 Z11.9000 F8000.0
G1 X42.4256 Y-215.1052 F12000.0
G1 Z0.0000 F8000.0
G0 X45.3089 Y-213.8696 F15000.0
G1 Z11.9000 F8000.0
G1 X49.3455 Y-217.9062 F12000.0
G1 Z0.0000 F8000.0
G0 X36.9062 Y-217.9062 F15000.0
G1 Z11.9000 F8000.0
G1 X34.1053 Y-215.1052 F12000.0
G1 Z0.0000 F8000.0
G0 X34.1053 Y-217.9062 F15000.0
G1 Z11.9000 F8000.0
G1 X150.9199 Y-217.9062 F12000.0
G1 X150.9199 Y-208.1853 F12000.0
G1 X34.1053 Y-208.1853 F12000.0
G1 Z0.0000 F8000.0
G0 X34.1053 Y-208.1853 F15000.0
G1 Z11.9000 F8000.0
G1 X34.1053 Y-217.9062 F12000.0
G1 Z0.0000 F8000.0
G0 X36.4683 Y-183.7597 F15000.0
G1 Z11.9000 F8000.0
G1 X37.3440 Y-183.7597 F12000.0
G1 Z0.0000 F8000.0
G0 X36.9733 Y-183.1831 F15000.0
G1 Z11.9000 F8000.0
G1 X36.0976 Y-183.1831 F12000.0
G1 Z0.0000 F8000.0
G0 X33.2386 Y-176.4396 F15000.0
G1 Z11.9000 F8000.0
G1 X32.5752 Y-177.0587 F12000.0
G1 X30.4966 Y-176.0415
G1 Z0.0000 F8000.0
G0 X30.7619 Y-175.1128 F15000.0
G1 Z11.9000 F8000.0
G1 X30.5408 Y-174.8032 F12000.0
G1 Z0.0000 F8000.0
G0 X30.0543 Y-174.0071 F15000.0
G1 Z11.9000 F8000.0
G1 X29.7889 Y-173.6090 F12000.0
G1 Z0.0000 F8000.0
G0 X28.8159 Y-175.2012 F15000.0
G1 Z11.9000 F8000.0
G1 X28.2410 Y-174.9801 F12000.0
G1 Z0.0000 F8000.0
G0 X29.4351 Y-175.5108 F15000.0
G1 Z11.9000 F8000.0
G1 X30.3639 Y-175.9088 F12000.0
G1 X30.8504 Y-175.2454
G1 X31.5138 Y-174.8916
G1 X33.2829 Y-175.2897
G1 Z0.0000 F8000.0
G0 X33.4598 Y-175.3781 F15000.0
G1 Z11.9000 F8000.0
G1 X33.6809 Y-175.8204 F12000.0
G1 X33.5482 Y-176.1300
G1 Z0.0000 F8000.0
G0 X33.5924 Y-174.5378 F15000.0
G1 Z11.9000 F8000.0
G1 X35.0519 Y-174.2724 F12000.0
G1 X35.4942 Y-174.2724
G1 Z0.0000 F8000.0
G0 X35.0077 Y-173.1668 F15000.0
G1 Z11.9000 F8000.0
G1 X35.4942 Y-173.3879 F12000.0
G1 X36.1134 Y-173.4321
G1 X36.4230 Y-173.3437
G1 X36.7326 Y-173.1225
G1 Z0.0000 F8000.0
G0 X37.0864 Y-172.7687 F15000.0
G1 Z11.9000 F8000.0
G1 X37.2191 Y-172.4149 F12000.0
G1 X37.0864 Y-172.0611
G1 Z0.0000 F8000.0
G0 X36.8210 Y-171.8842 F15000.0
G1 Z11.9000 F8000.0
G1 X36.1576 Y-171.5304 F12000.0
G1 Z0.0000 F8000.0
G0 X35.0962 Y-170.9997 F15000.0
G1 Z11.9000 F8000.0
G1 X33.1944 Y-170.4689 F12000.0
G1 X32.6195 Y-170.8227
G1 X32.2656 Y-171.2650
G1 X32.3541 Y-171.7515
G1 X32.5310 Y-171.9284
G1 Z0.0000 F8000.0
G0 X33.1944 Y-172.2822 F15000.0
G1 Z11.9000 F8000.0
G1 X34.4770 Y-172.9014 F12000.0
G1 Z0.0000 F8000.0
G0 X33.1502 Y-173.1668 F15000.0
G1 Z11.9000 F8000.0
G1 X31.2042 Y-172.2380 F12000.0
G1 Z0.0000 F8000.0
G0 X24.6316 Y-174.7391 F15000.0
G1 Z11.9000 F8000.0
G1 X36.8238 Y-163.2059 F12000.0
G1 X40.7780 Y-160.3227 F12000.0
G1 X39.9542 Y-160.1579 F12000.0
G1 X39.8719 Y-159.3341 F12000.0
G1 X36.8238 Y-163.2059 F12000.0
G1 X43.8261 Y-156.4508 F12000.0
G1 X43.8261 Y-168.1487 F12000.0
G1 Z0.0000 F8000.0
G0 X41.9314 Y-166.0069 F15000.0
G1 Z11.9000 F8000.0
G1 X40.2014 Y-165.5126 F12000.0
G1 X38.6362 Y-164.6888 F12000.0
G1 X37.1533 Y-163.5355 F12000.0
G1 X36.0000 Y-162.2174 F12000.0
G1 X35.0938 Y-160.7346 F12000.0
G1 X34.4348 Y-159.0046 F12000.0
G1 X34.1877 Y-157.2746 F12000.0
G1 X34.1877 Y-155.4622 F12000.0
G1 X34.5172 Y-153.7323 F12000.0
G1 X35.1762 Y-152.0847 F12000.0
G1 X36.1648 Y-150.5194 F12000.0
G1 X37.3181 Y-149.2014 F12000.0
G1 X38.8009 Y-148.1304 F12000.0
G1 X40.3661 Y-147.3890 F12000.0
G1 X41.9314 Y-146.9771 F12000.0
G1 X88.6407 Y-137.4211 F12000.0
G1 X91.1121 Y-137.0915 F12000.0
G1 X93.6659 Y-137.0092 F12000.0
G1 X96.1373 Y-137.3387 F12000.0
G1 Z0.0000 F8000.0
G0 X96.3844 Y-137.4211 F15000.0
G1 Z11.9000 F8000.0
G1 X143.0938 Y-146.9771 F12000.0
G1 X144.5767 Y-147.3890 F12000.0
G1 X146.2242 Y-148.1304 F12000.0
G1 X147.6247 Y-149.2014 F12000.0
G1 X148.8604 Y-150.5194 F12000.0
G1 X149.8490 Y-152.0847 F12000.0
G1 X150.5080 Y-153.7323 F12000.0
G1 X150.8375 Y-155.4622 F12000.0
G1 X150.8375 Y-157.2746 F12000.0
G1 X150.5080 Y-159.0046 F12000.0
G1 X149.9313 Y-160.7346 F12000.0
G1 X149.0252 Y-162.2174 F12000.0
G1 X147.7895 Y-163.5355 F12000.0
G1 X146.3890 Y-164.6888 F12000.0
G1 X144.8238 Y-165.5126 F12000.0
G1 X143.0938 Y-166.0069 F12000.0
G1 X96.3844 Y-175.5629 F12000.0
G1 X93.9130 Y-175.8924 F12000.0
G1 X91.3593 Y-175.8924 F12000.0
G1 X88.8055 Y-175.5629 F12000.0
G1 Z0.0000 F8000.0
G0 X88.6407 Y-175.5629 F15000.0
G1 Z11.9000 F8000.0
G1 X41.9314 Y-166.0069 F12000.0
G1 Z0.0000 F8000.0
G0 X38.6251 Y-161.9401 F15000.0
G1 Z11.9000 F8000.0
G1 X39.3062 Y-161.2590 F12000.0
G1 Z0.0000 F8000.0
G0 X38.7708 Y-160.9707 F15000.0
G1 Z11.9000 F8000.0
G1 X38.0897 Y-161.6518 F12000.0
G1 Z0.0000 F8000.0
G0 X42.7552 Y-157.4394 F15000.0
G1 Z11.9000 F8000.0
G1 X43.3318 Y-157.8513 F12000.0
G1 X44.0732 Y-157.9336 F12000.0
G1 X44.7323 Y-157.6865 F12000.0
G1 X45.1442 Y-157.1098 F12000.0
G1 X45.3089 Y-156.4508 F12000.0
G1 Z0.0000 F8000.0
G0 X45.3089 Y-156.3684 F15000.0
G1 Z11.9000 F8000.0
G1 X45.0618 Y-155.7094 F12000.0
G1 X44.5675 Y-155.2151 F12000.0
G1 X43.9085 Y-155.0503 F12000.0
G1 X43.2494 Y-155.1327 F12000.0
G1 X42.6728 Y-155.5446 F12000.0
G1 X42.4256 Y-156.2037 F12000.0
G1 X42.4256 Y-156.8627 F12000.0
G1 X42.7552 Y-157.4394 F12000.0
G1 Z0.0000 F8000.0
G0 X43.8261 Y-156.4508 F15000.0
G1 Z11.9000 F8000.0
G1 X32.2105 Y-156.4508 F12000.0
G1 Z0.0000 F8000.0
G0 X43.8261 Y-156.4508 F15000.0
G1 Z11.9000 F8000.0
G1 X55.5240 Y-156.4508 F12000.0
G1 Z0.0000 F8000.0
G0 X43.8261 Y-156.4508 F15000.0
G1 Z11.9000 F8000.0
G1 X43.8261 Y-116.8261 F12000.0
G1 Z0.0000 F8000.0
G0 X43.8261 Y-118.7208 F15000.0
G1 Z11.9000 F8000.0
G1 X48.6865 Y-119.3799 F12000.0
G1 X48.1922 Y-118.7208 F12000.0
G1 X48.6865 Y-118.1442 F12000.0
G1 X43.8261 Y-118.7208 F12000.0
G1 X141.1167 Y-118.7208 F12000.0
G1 X136.2563 Y-118.1442 F12000.0
G1 X136.7506 Y-118.7208 F12000.0
G1 X136.2563 Y-119.3799 F12000.0
G1 X141.1167 Y-118.7208 F12000.0
G1 Z0.0000 F8000.0
G0 X141.1167 Y-116.8261 F15000.0
G1 Z11.9000 F8000.0
G1 X141.1167 Y-156.4508 F12000.0
G1 X141.1167 Y-168.1487 F12000.0
G1 Z0.0000 F8000.0
G0 X141.3638 Y-157.9336 F15000.0
G1 Z11.9000 F8000.0
G1 X142.0229 Y-157.6865 F12000.0
G1 X142.4348 Y-157.1098 F12000.0
G1 X142.5995 Y-156.4508 F12000.0
G1 Z0.0000 F8000.0
G0 X142.5995 Y-156.3684 F15000.0
G1 Z11.9000 F8000.0
G1 X142.3524 Y-155.7094 F12000.0
G1 X141.8581 Y-155.2151 F12000.0
G1 X141.1991 Y-155.0503 F12000.0
G1 X140.5400 Y-155.1327 F12000.0
G1 X139.9634 Y-155.5446 F12000.0
G1 X139.7162 Y-156.2037 F12000.0
G1 X139.7162 Y-156.8627 F12000.0
G1 X140.1281 Y-157.4394 F12000.0
G1 X140.7048 Y-157.8513 F12000.0
G1 X141.3638 Y-157.9336 F12000.0
G1 Z0.0000 F8000.0
G0 X141.1167 Y-156.4508 F15000.0
G1 Z11.9000 F8000.0
G1 X129.5011 Y-156.4508 F12000.0
G1 Z0.0000 F8000.0
G0 X141.1167 Y-156.4508 F15000.0
G1 Z11.9000 F8000.0
G1 X152.8146 Y-156.4508 F12000.0
G1 Z0.0000 F8000.0
G0 X148.9275 Y-183.1831 F15000.0
G1 Z11.9000 F8000.0
G1 X148.0518 Y-183.1831 F12000.0
G1 Z0.0000 F8000.0
G0 X147.7223 Y-183.7597 F15000.0
G1 Z11.9000 F8000.0
G1 X148.5980 Y-183.7597 F12000.0
G1 Z0.0000 F8000.0
G0 X142.5995 Y-197.2288 F15000.0
G1 Z11.9000 F8000.0
G1 X142.5995 Y-213.0458 F12000.0
G1 Z0.0000 F8000.0
G0 X142.5995 Y-212.1396 F15000.0
G1 Z11.9000 F8000.0
G1 X148.3661 Y-217.9062 F12000.0
G1 Z0.0000 F8000.0
G0 X150.9199 Y-217.9062 F15000.0
G1 Z11.9000 F8000.0
G1 X166.2426 Y-217.9062 F12000.0
G1 Z0.0000 F8000.0
G0 X164.3478 Y-217.9062 F15000.0
G1 Z11.9000 F8000.0
G1 X164.9245 Y-222.7666 F12000.0
G1 X164.3478 Y-222.2723 F12000.0
G1 X163.6888 Y-222.7666 F12000.0
G1 X164.3478 Y-217.9062 F12000.0
G1 X164.3478 Y-224.7437 F12000.0
G1 Z0.0000 F8000.0
G0 X164.0595 Y-221.1037 F15000.0
G1 Z11.9000 F8000.0
G1 X164.0595 Y-220.2280 F12000.0
G1 Z0.0000 F8000.0
G0 X164.6361 Y-219.9397 F15000.0
G1 Z11.9000 F8000.0
G1 X164.6361 Y-220.8154 F12000.0
G1 Z0.0000 F8000.0
G0 X164.3478 Y-217.9062 F15000.0
G1 Z11.9000 F8000.0
G1 X164.3478 Y-208.1853 F12000.0
G1 X163.6888 Y-203.3249 F12000.0
G1 X164.3478 Y-203.8192 F12000.0
G1 X164.9245 Y-203.3249 F12000.0
G1 X164.3478 Y-208.1853 F12000.0
G1 X164.3478 Y-201.3478 F12000.0
G1 Z0.0000 F8000.0
G0 X164.0595 Y-205.0702 F15000.0
G1 Z11.9000 F8000.0
G1 X164.0595 Y-205.9458 F12000.0
G1 Z0.0000 F8000.0
G0 X164.6361 Y-206.2342 F15000.0
G1 Z11.9000 F8000.0
G1 X164.6361 Y-205.3585 F12000.0
G1 Z0.0000 F8000.0
G0 X166.2426 Y-208.1853 F15000.0
G1 Z11.9000 F8000.0
G1 X125.5469 Y-208.1853 F12000.0
G1 Z0.0000 F8000.0
G0 X129.9128 Y-204.7403 F15000.0
G1 Z11.9000 F8000.0
G1 X128.8513 Y-203.0597 F12000.0
G1 Z0.0000 F8000.0
G0 X128.8513 Y-202.9270 F15000.0
G1 Z11.9000 F8000.0
G1 X130.2666 Y-203.4577 F12000.0
G1 Z0.0000 F8000.0
G0 X130.4877 Y-203.6788 F15000.0
G1 Z11.9000 F8000.0
G1 X130.7531 Y-204.2980 F12000.0
G1 X130.7088 Y-204.8730
G1 X130.4877 Y-205.1826
G1 X130.2223 Y-205.3152
G1 X129.7359 Y-205.3152
G1 X129.2051 Y-205.1383
G1 X128.8071 Y-204.8730
G1 X128.3648 Y-204.2980
G1 X128.1879 Y-203.5019
G1 X128.5860 Y-202.8828
G1 X128.2764 Y-202.3520
G1 Z0.0000 F8000.0
G0 X128.0552 Y-201.9982 F15000.0
G1 Z11.9000 F8000.0
G1 X127.8783 Y-201.8213 F12000.0
G1 Z0.0000 F8000.0
G0 X130.5319 Y-201.7771 F15000.0
G1 Z11.9000 F8000.0
G1 X132.1683 Y-202.0867 F12000.0
G1 X132.3895 Y-202.2636
G1 X133.0086 Y-203.8557
G1 Z0.0000 F8000.0
G0 X132.9202 Y-204.0327 F15000.0
G1 Z11.9000 F8000.0
G1 X132.7433 Y-204.2980 F12000.0
G1 Z0.0000 F8000.0
G0 X132.1241 Y-204.2096 F15000.0
G1 Z11.9000 F8000.0
G1 X132.7433 Y-204.2980 F12000.0
G1 X133.0529 Y-204.6518
G1 X133.5836 Y-205.9786
G1 Z0.0000 F8000.0
G0 X133.3182 Y-206.2882 F15000.0
G1 Z11.9000 F8000.0
G1 X132.4779 Y-206.4209 F12000.0
G1 Z0.0000 F8000.0
G0 X130.9300 Y-206.2440 F15000.0
G1 Z11.9000 F8000.0
G1 X130.7088 Y-205.9344 F12000.0
G1 Z0.0000 F8000.0
G0 X130.5319 Y-205.6690 F15000.0
G1 Z11.9000 F8000.0
G1 X130.3993 Y-205.3595 F12000.0
G1 Z0.0000 F8000.0
G0 X131.7254 Y-208.1853 F15000.0
G1 Z11.9000 F8000.0
G1 X131.6430 Y-209.1739 F12000.0
G1 X131.4783 Y-211.0686 F12000.0
G1 X131.5606 Y-212.8810 F12000.0
G1 X131.4783 Y-214.2815 F12000.0
G1 X131.2311 Y-215.7643 F12000.0
G1 X130.6545 Y-217.9062 F12000.0
G1 Z0.0000 F8000.0
G0 X130.9840 Y-217.0000 F15000.0
G1 Z11.9000 F8000.0
G1 X131.8902 Y-217.9062 F12000.0
G1 Z0.0000 F8000.0
G0 X136.0091 Y-217.9062 F15000.0
G1 Z11.9000 F8000.0
G1 X131.5606 Y-213.4577 F12000.0
G1 Z0.0000 F8000.0
G0 X131.6430 Y-209.4210 F15000.0
G1 Z11.9000 F8000.0
G1 X139.7162 Y-217.4943 F12000.0
G1 Z0.0000 F8000.0
G0 X139.7162 Y-217.9062 F15000.0
G1 Z11.9000 F8000.0
G1 X139.7162 Y-208.1853 F12000.0
G1 Z0.0000 F8000.0
G0 X139.7162 Y-209.1739 F15000.0
G1 Z11.9000 F8000.0
G1 X138.6453 Y-208.1853 F12000.0
G1 Z0.0000 F8000.0
G0 X141.1167 Y-206.2082 F15000.0
G1 Z11.9000 F8000.0
G1 X141.1167 Y-219.8833 F12000.0
G1 Z0.0000 F8000.0
G0 X142.5995 Y-217.9062 F15000.0
G1 Z11.9000 F8000.0
G1 X142.5995 Y-208.1853 F12000.0
G1 Z0.0000 F8000.0
G0 X142.7643 Y-208.1853 F15000.0
G1 Z11.9000 F8000.0
G1 X150.9199 Y-216.2586 F12000.0
G1 Z0.0000 F8000.0
G0 X150.9199 Y-212.1396 F15000.0
G1 Z11.9000 F8000.0
G1 X146.8833 Y-208.1853 F12000.0
G1 Z0.0000 F8000.0
G0 X147.4599 Y-199.7826 F15000.0
G1 Z11.9000 F8000.0
G1 X146.9657 Y-199.2059 F12000.0
G1 X147.4599 Y-198.5469 F12000.0
G1 X142.5995 Y-199.2059 F12000.0
G1 X147.4599 Y-199.7826 F12000.0
G1 Z0.0000 F8000.0
G0 X145.8383 Y-199.4943 F15000.0
G1 Z11.9000 F8000.0
G1 X144.9626 Y-199.4943 F12000.0
G1 Z0.0000 F8000.0
G0 X144.5919 Y-198.9176 F15000.0
G1 Z11.9000 F8000.0
G1 X145.4676 Y-198.9176 F12000.0
G1 Z0.0000 F8000.0
G0 X142.5995 Y-199.2059 F15000.0
G1 Z11.9000 F8000.0
G1 X149.4371 Y-199.2059 F12000.0
G1 Z0.0000 F8000.0
G0 X142.5995 Y-199.2059 F15000.0
G1 Z11.9000 F8000.0
G1 X139.7162 Y-199.2059 F12000.0
G1 X117.7208 Y-199.2059 F12000.0
G1 Z0.0000 F8000.0
G0 X121.6485 Y-196.7727 F15000.0
G1 Z11.9000 F8000.0
G1 X121.9138 Y-197.0381 F12000.0
G1 X122.4003 Y-197.3035
G1 X123.1522 Y-197.3919
G1 Z0.0000 F8000.0
G0 X123.5945 Y-196.9054 F15000.0
G1 Z11.9000 F8000.0
G1 X123.4618 Y-196.1978 F12000.0
G1 X120.4986 Y-193.0135
G1 X120.1890 Y-192.8808
G1 Z0.0000 F8000.0
G0 X120.4986 Y-193.0135 F15000.0
G1 Z11.9000 F8000.0
G1 X122.1350 Y-192.9250 F12000.0
G1 Z0.0000 F8000.0
G0 X125.3017 Y-193.4539 F15000.0
G1 Z11.9000 F8000.0
G1 X126.4074 Y-192.9232 F12000.0
G1 X126.6727 Y-193.0116
G1 Z0.0000 F8000.0
G0 X127.0266 Y-193.4539 F15000.0
G1 Z11.9000 F8000.0
G1 X127.8226 Y-195.8422 F12000.0
G1 X127.6900 Y-195.9748
G1 X126.4516 Y-195.9306
G1 Z0.0000 F8000.0
G0 X126.1863 Y-195.7537 F15000.0
G1 Z11.9000 F8000.0
G1 X125.3902 Y-193.6750 F12000.0
G1 Z0.0000 F8000.0
G0 X127.7784 Y-193.1443 F15000.0
G1 Z11.9000 F8000.0
G1 X128.7956 Y-195.9306 F12000.0
G1 Z0.0000 F8000.0
G0 X128.8841 Y-196.0191 F15000.0
G1 Z11.9000 F8000.0
G1 X130.1224 Y-196.0633 F12000.0
G1 X131.2723 Y-195.9748
G1 Z0.0000 F8000.0
G0 X131.4050 Y-195.8422 F15000.0
G1 Z11.9000 F8000.0
G1 X130.4320 Y-192.8790 F12000.0
G1 Z0.0000 F8000.0
G0 X129.3264 Y-193.5866 F15000.0
G1 Z11.9000 F8000.0
G1 X129.0610 Y-192.8790 F12000.0
G1 Z0.0000 F8000.0
G0 X129.4590 Y-193.9404 F15000.0
G1 Z11.9000 F8000.0
G1 X129.7244 Y-194.7365 F12000.0
G1 Z0.0000 F8000.0
G0 X129.9455 Y-195.3114 F15000.0
G1 Z11.9000 F8000.0
G1 X130.1667 Y-196.0191 F12000.0
G1 Z0.0000 F8000.0
G0 X132.2453 Y-195.6210 F15000.0
G1 Z11.9000 F8000.0
G1 X131.4935 Y-193.1001 F12000.0
G1 X132.8203 Y-193.0116
G1 X132.9972 Y-193.1443
G1 X133.2625 Y-193.5866
G1 X134.0144 Y-195.7537
G1 X133.9260 Y-195.9306
G1 X133.1299 Y-196.1075
G1 X132.5107 Y-196.0191
G1 X132.5107 Y-196.3729
G1 Z0.0000 F8000.0
G0 X132.6434 Y-196.7267 F15000.0
G1 Z11.9000 F8000.0
G1 X132.8645 Y-197.1247 F12000.0
G1 X133.0856 Y-197.3016
G1 Z0.0000 F8000.0
G0 X133.3510 Y-197.4343 F15000.0
G1 Z11.9000 F8000.0
G1 X133.8375 Y-197.2132 F12000.0
G1 X133.1299 Y-196.1517
G1 Z0.0000 F8000.0
G0 X134.8558 Y-198.5469 F15000.0
G1 Z11.9000 F8000.0
G1 X135.3501 Y-199.2059 F12000.0
G1 X134.8558 Y-199.7826 F12000.0
G1 X139.7162 Y-199.2059 F12000.0
G1 X134.8558 Y-198.5469 F12000.0
G1 Z0.0000 F8000.0
G0 X136.5599 Y-199.4943 F15000.0
G1 Z11.9000 F8000.0
G1 X137.4356 Y-199.4943 F12000.0
G1 Z0.0000 F8000.0
G0 X137.7651 Y-198.9176 F15000.0
G1 Z11.9000 F8000.0
G1 X136.8894 Y-198.9176 F12000.0
G1 Z0.0000 F8000.0
G0 X139.7162 Y-197.2288 F15000.0
G1 Z11.9000 F8000.0
G1 X139.7162 Y-213.0458 F12000.0
G1 Z0.0000 F8000.0
G0 X139.7162 Y-213.2929 F15000.0
G1 Z11.9000 F8000.0
G1 X134.5263 Y-208.1853 F12000.0
G1 Z0.0000 F8000.0
G0 X142.5995 Y-216.2586 F15000.0
G1 Z11.9000 F8000.0
G1 X144.2471 Y-217.9062 F12000.0
G1 Z0.0000 F8000.0
G0 X133.7933 Y-193.0559 F15000.0
G1 Z11.9000 F8000.0
G1 X133.7048 Y-192.9674 F12000.0
G1 Z0.0000 F8000.0
G0 X102.4806 Y-208.1853 F15000.0
G1 Z11.9000 F8000.0
G1 X102.3982 Y-208.9268 F12000.0
G1 X102.3158 Y-209.8329 F12000.0
G1 X102.3158 Y-210.4096 F12000.0
G1 Z0.0000 F8000.0
G0 X102.3158 Y-210.4920 F15000.0
G1 Z11.9000 F8000.0
G1 X102.7277 Y-211.9748 F12000.0
G1 X103.2220 Y-213.3753 F12000.0
G1 X103.3043 Y-214.2815 F12000.0
G1 X103.3043 Y-214.7757 F12000.0
G1 X102.9748 Y-216.3409 F12000.0
G1 X102.3982 Y-217.9062 F12000.0
G1 Z0.0000 F8000.0
G0 X102.5629 Y-217.4943 F15000.0
G1 Z11.9000 F8000.0
G1 X95.9725 Y-210.8215 F12000.0
G1 Z0.0000 F8000.0
G0 X95.9725 Y-208.1853 F15000.0
G1 Z11.9000 F8000.0
G1 X95.9725 Y-217.9062 F12000.0
G1 X92.5126 Y-208.1853 F12000.0
G1 X89.0526 Y-217.9062 F12000.0
G1 X89.0526 Y-208.1853 F12000.0
G1 X92.5126 Y-217.9062 F12000.0
G1 X95.9725 Y-208.1853 F12000.0
G1 Z0.0000 F8000.0
G0 X97.3730 Y-208.1853 F15000.0
G1 Z11.9000 F8000.0
G1 X103.3043 Y-214.1167 F12000.0
G1 Z0.0000 F8000.0
G0 X102.3982 Y-209.0091 F15000.0
G1 Z11.9000 F8000.0
G1 X101.4920 Y-208.1853 F12000.0
G1 Z0.0000 F8000.0
G0 X95.9725 Y-215.0229 F15000.0
G1 Z11.9000 F8000.0
G1 X98.8558 Y-217.9062 F12000.0
G1 Z0.0000 F8000.0
G0 X92.5126 Y-219.8833 F15000.0
G1 Z11.9000 F8000.0
G1 X92.5126 Y-206.2082 F12000.0
G1 Z0.0000 F8000.0
G0 X89.0526 Y-212.2220 F15000.0
G1 Z11.9000 F8000.0
G1 X85.0160 Y-208.1853 F12000.0
G1 Z0.0000 F8000.0
G0 X80.8970 Y-208.1853 F15000.0
G1 Z11.9000 F8000.0
G1 X80.7323 Y-209.0915 F12000.0
G1 X80.7323 Y-209.9153 F12000.0
G1 X80.7323 Y-210.4096 F12000.0
G1 X80.8147 Y-210.8215 F12000.0
G1 X81.5561 Y-212.3867 F12000.0
G1 X82.0503 Y-213.4577 F12000.0
G1 X82.2975 Y-214.2815 F12000.0
G1 X82.2975 Y-214.9405 F12000.0
G1 X82.0503 Y-216.4233 F12000.0
G1 X81.5561 Y-217.9062 F12000.0
G1 Z0.0000 F8000.0
G0 X81.8032 Y-217.3295 F15000.0
G1 Z11.9000 F8000.0
G1 X82.3799 Y-217.9062 F12000.0
G1 Z0.0000 F8000.0
G0 X86.4989 Y-217.9062 F15000.0
G1 Z11.9000 F8000.0
G1 X82.1327 Y-213.5400 F12000.0
G1 Z0.0000 F8000.0
G0 X80.8970 Y-208.1853 F15000.0
G1 Z11.9000 F8000.0
G1 X89.0526 Y-216.3409 F12000.0
G1 Z0.0000 F8000.0
G0 X90.8082 Y-190.5407 F15000.0
G1 Z11.9000 F8000.0
G1 X90.5429 Y-190.1869 F12000.0
G1 X89.0834 Y-186.1180
G1 Z0.0000 F8000.0
G0 X89.9679 Y-186.0296 F15000.0
G1 Z11.9000 F8000.0
G1 X90.2775 Y-186.1622 F12000.0
G1 X91.7812 Y-187.8429
G1 Z0.0000 F8000.0
G0 X91.9581 Y-186.0738 F15000.0
G1 Z11.9000 F8000.0
G1 X90.2775 Y-186.1622 F12000.0
G1 Z0.0000 F8000.0
G0 X93.3292 Y-186.3392 F15000.0
G1 Z11.9000 F8000.0
G1 X93.3292 Y-187.1795 F12000.0
G1 X94.4348 Y-189.9658
G1 X94.9656 Y-190.4523
G1 X96.1155 Y-190.5407
G1 Z0.0000 F8000.0
G0 X96.4251 Y-190.1869 F15000.0
G1 Z11.9000 F8000.0
G1 X95.6290 Y-187.6660 F12000.0
G1 Z0.0000 F8000.0
G0 X95.4963 Y-187.3121 F15000.0
G1 Z11.9000 F8000.0
G1 X95.1425 Y-186.5603 F12000.0
G1 Z0.0000 F8000.0
G0 X94.9213 Y-186.3392 F15000.0
G1 Z11.9000 F8000.0
G1 X94.2137 Y-186.0738 F12000.0
G1 X93.4176 Y-186.2507
G1 Z0.0000 F8000.0
G0 X93.2407 Y-189.3024 F15000.0
G1 Z11.9000 F8000.0
G1 X93.4176 Y-189.9658 F12000.0
G1 X93.1523 Y-190.4080
G1 X92.9311 Y-190.5407
G1 X92.2677 Y-190.4965
G1 Z0.0000 F8000.0
G0 X91.9139 Y-190.3196 F15000.0
G1 Z11.9000 F8000.0
G1 X91.6928 Y-190.1427 F12000.0
G1 Z0.0000 F8000.0
G0 X90.4987 Y-190.2311 F15000.0
G1 Z11.9000 F8000.0
G1 X90.1891 Y-190.1427 F12000.0
G1 Z0.0000 F8000.0
G0 X89.4372 Y-189.6562 F15000.0
G1 Z11.9000 F8000.0
G1 X89.2603 Y-189.4793 F12000.0
G1 Z0.0000 F8000.0
G0 X92.5126 Y-177.8696 F15000.0
G1 Z11.9000 F8000.0
G1 X92.5126 Y-166.5011 F12000.0
G1 Z0.0000 F8000.0
G0 X92.5126 Y-165.1007 F15000.0
G1 Z11.9000 F8000.0
G1 X92.5126 Y-163.6178 F12000.0
G1 Z0.0000 F8000.0
G0 X92.5126 Y-162.1350 F15000.0
G1 Z11.9000 F8000.0
G1 X92.5126 Y-156.4508 F12000.0
G1 X92.5126 Y-150.7666 F12000.0
G1 Z0.0000 F8000.0
G0 X92.5126 Y-149.3661 F15000.0
G1 Z11.9000 F8000.0
G1 X92.5126 Y-147.8833 F12000.0
G1 Z0.0000 F8000.0
G0 X92.5126 Y-146.4005 F15000.0
G1 Z11.9000 F8000.0
G1 X92.5126 Y-135.0320 F12000.0
G1 Z0.0000 F8000.0
G0 X96.3844 Y-137.4211 F15000.0
G1 Z11.9000 F8000.0
G1 X98.8558 Y-138.0801 F12000.0
G1 X100.5858 Y-138.7391 F12000.0
G1 Z0.0000 F8000.0
G0 X98.7735 Y-138.0801 F15000.0
G1 Z11.9000 F8000.0
G1 X101.2449 Y-130.5835 F12000.0
G1 X116.2380 Y-130.5835 F12000.0
G1 Z0.0000 F8000.0
G0 X112.2619 Y-134.5025 F15000.0
G1 Z11.9000 F8000.0
G1 X111.9965 Y-133.8391 F12000.0
G1 X111.5543 Y-133.4411
G1 X111.2005 Y-133.3084
G1 X110.2717 Y-133.3526
G1 Z0.0000 F8000.0
G0 X110.1390 Y-133.4411 F15000.0
G1 Z11.9000 F8000.0
G1 X110.0063 Y-133.6622 F12000.0
G1 X110.0948 Y-134.3699
G1 X111.2005 Y-137.1561
G1 X111.7312 Y-137.6426
G1 X112.8811 Y-137.7311
G1 X113.1907 Y-137.3773
G1 X112.3946 Y-134.8563
G1 Z0.0000 F8000.0
G0 X110.1390 Y-137.2446 F15000.0
G1 Z11.9000 F8000.0
G1 X110.0063 Y-136.5370 F12000.0
G1 X107.0431 Y-133.3526
G1 X106.7335 Y-133.2200
G1 Z0.0000 F8000.0
G0 X107.0431 Y-133.3526 F15000.0
G1 Z11.9000 F8000.0
G1 X108.6795 Y-133.2642 F12000.0
G1 Z0.0000 F8000.0
G0 X105.8048 Y-133.4411 F15000.0
G1 Z11.9000 F8000.0
G1 X105.4952 Y-135.2544 F12000.0
G1 Z0.0000 F8000.0
G0 X104.6549 Y-135.3428 F15000.0
G1 Z11.9000 F8000.0
G1 X105.4510 Y-135.2986 F12000.0
G1 X106.2028 Y-135.4313
G1 X106.7778 Y-135.8736
G1 X107.1316 Y-136.7581
G1 X107.2643 Y-137.3773
G1 Z0.0000 F8000.0
G0 X106.9547 Y-137.7311 F15000.0
G1 Z11.9000 F8000.0
G1 X105.4952 Y-137.7753 F12000.0
G1 Z0.0000 F8000.0
G0 X105.4067 Y-137.6869 F15000.0
G1 Z11.9000 F8000.0
G1 X104.6107 Y-135.2986 F12000.0
G1 X103.8588 Y-133.3526
G1 Z0.0000 F8000.0
G0 X108.1930 Y-137.1119 F15000.0
G1 Z11.9000 F8000.0
G1 X108.4584 Y-137.3773 F12000.0
G1 X108.9449 Y-137.6426
G1 X109.6967 Y-137.7311
G1 Z0.0000 F8000.0
G0 X98.7735 Y-138.0801 F15000.0
G1 Z11.9000 F8000.0
G1 X96.5492 Y-142.4462 F12000.0
G1 X97.3730 Y-142.1991 F12000.0
G1 X97.7849 Y-142.8581 F12000.0
G1 X98.7735 Y-138.0801 F12000.0
G1 X92.5126 Y-156.4508 F12000.0
G1 X86.8284 Y-156.4508 F12000.0
G1 Z0.0000 F8000.0
G0 X85.3455 Y-156.4508 F15000.0
G1 Z11.9000 F8000.0
G1 X83.9451 Y-156.4508 F12000.0
G1 Z0.0000 F8000.0
G0 X82.4622 Y-156.4508 F15000.0
G1 Z11.9000 F8000.0
G1 X71.0938 Y-156.4508 F12000.0
G1 Z0.0000 F8000.0
G0 X70.9291 Y-153.4851 F15000.0
G1 Z11.9000 F8000.0
G1 X67.5515 Y-156.9451 F12000.0
G1 X70.9291 Y-160.4050 F12000.0
G1 X74.3890 Y-156.9451 F12000.0
G1 X70.9291 Y-153.4851 F12000.0
G1 Z0.0000 F8000.0
G0 X71.3410 Y-150.3547 F15000.0
G1 Z11.9000 F8000.0
G1 X83.2037 Y-162.2998 F12000.0
G1 X79.3318 Y-159.3341 F12000.0
G1 X80.1556 Y-159.1693 F12000.0
G1 X80.2380 Y-158.4279 F12000.0
G1 X83.2037 Y-162.2998 F12000.0
G1 X78.4256 Y-157.5217 F12000.0
G1 Z0.0000 F8000.0
G0 X75.9134 Y-158.7614 F15000.0
G1 Z11.9000 F8000.0
G1 X75.2943 Y-158.0980 F12000.0
G1 Z0.0000 F8000.0
G0 X76.0461 Y-159.0267 F15000.0
G1 Z11.9000 F8000.0
G1 X76.0461 Y-159.9113 F12000.0
G1 Z0.0000 F8000.0
G0 X75.8250 Y-160.3535 F15000.0
G1 Z11.9000 F8000.0
G1 X75.4270 Y-161.0169 F12000.0
G1 X75.2943 Y-161.1054
G1 X74.6309 Y-160.8400
G1 Z0.0000 F8000.0
G0 X74.3213 Y-160.5747 F15000.0
G1 Z11.9000 F8000.0
G1 X74.1001 Y-160.4420 F12000.0
G1 X74.0559 Y-160.2651
G1 Z0.0000 F8000.0
G0 X73.8790 Y-160.7958 F15000.0
G1 Z11.9000 F8000.0
G1 X73.2156 Y-162.2111 F12000.0
G1 X73.7906 Y-162.9629
G1 Z0.0000 F8000.0
G0 X80.9272 Y-161.0751 F15000.0
G1 Z11.9000 F8000.0
G1 X81.6083 Y-160.3940 F12000.0
G1 Z0.0000 F8000.0
G0 X81.2155 Y-160.5808 F15000.0
G1 Z11.9000 F8000.0
G1 X81.8966 Y-159.8997 F12000.0
G1 Z0.0000 F8000.0
G0 X83.2037 Y-162.2998 F15000.0
G1 Z11.9000 F8000.0
G1 X86.6636 Y-165.7597 F12000.0
G1 X90.5355 Y-168.7254 F12000.0
G1 X89.7941 Y-168.8078 F12000.0
G1 X89.6293 Y-169.6316 F12000.0
G1 X86.6636 Y-165.7597 F12000.0
G1 X91.5240 Y-170.5378 F12000.0
G1 Z0.0000 F8000.0
G0 X88.5061 Y-167.7891 F15000.0
G1 Z11.9000 F8000.0
G1 X89.1872 Y-167.1080 F12000.0
G1 Z0.0000 F8000.0
G0 X88.6518 Y-167.3963 F15000.0
G1 Z11.9000 F8000.0
G1 X87.9707 Y-168.0774 F12000.0
G1 Z0.0000 F8000.0
G0 X85.2632 Y-167.0778 F15000.0
G1 Z11.9000 F8000.0
G1 X92.5126 Y-159.9108 F12000.0
G1 X89.0526 Y-156.4508 F12000.0
G1 X92.5126 Y-153.0732 F12000.0
G1 X95.9725 Y-156.4508 F12000.0
G1 X92.5126 Y-159.9108 F12000.0
G1 Z0.0000 F8000.0
G0 X92.5126 Y-156.4508 F15000.0
G1 Z11.9000 F8000.0
G1 X98.1968 Y-156.4508 F12000.0
G1 Z0.0000 F8000.0
G0 X99.5973 Y-156.4508 F15000.0
G1 Z11.9000 F8000.0
G1 X101.0801 Y-156.4508 F12000.0
G1 Z0.0000 F8000.0
G0 X102.5629 Y-156.4508 F15000.0
G1 Z11.9000 F8000.0
G1 X113.9313 Y-156.4508 F12000.0
G1 Z0.0000 F8000.0
G0 X98.0732 Y-141.0305 F15000.0
G1 Z11.9000 F8000.0
G1 X98.0732 Y-140.1548 F12000.0
G1 Z0.0000 F8000.0
G0 X97.6613 Y-139.9489 F15000.0
G1 Z11.9000 F8000.0
G1 X97.6613 Y-140.8246 F12000.0
G1 Z0.0000 F8000.0
G0 X96.1155 Y-125.8581 F15000.0
G1 Z11.9000 F8000.0
G1 X94.9656 Y-125.7697 F12000.0
G1 X94.4348 Y-125.2832
G1 X93.3292 Y-122.4969
G1 X93.3292 Y-121.6566
G1 Z0.0000 F8000.0
G0 X93.4176 Y-121.5681 F15000.0
G1 Z11.9000 F8000.0
G1 X94.2137 Y-121.3912 F12000.0
G1 X94.9213 Y-121.6566
G1 Z0.0000 F8000.0
G0 X95.1425 Y-121.8777 F15000.0
G1 Z11.9000 F8000.0
G1 X95.4963 Y-122.6296 F12000.0
G1 Z0.0000 F8000.0
G0 X95.6290 Y-122.9834 F15000.0
G1 Z11.9000 F8000.0
G1 X96.4251 Y-125.5043 F12000.0
G1 Z0.0000 F8000.0
G0 X93.4619 Y-125.5043 F15000.0
G1 Z11.9000 F8000.0
G1 X92.6658 Y-122.9834 F12000.0
G1 Z0.0000 F8000.0
G0 X92.5331 Y-122.6296 F15000.0
G1 Z11.9000 F8000.0
G1 X92.1793 Y-121.8777 F12000.0
G1 Z0.0000 F8000.0
G0 X91.9581 Y-121.6566 F15000.0
G1 Z11.9000 F8000.0
G1 X91.2505 Y-121.3912 F12000.0
G1 X90.4544 Y-121.5681
G1 Z0.0000 F8000.0
G0 X90.3660 Y-121.6566 F15000.0
G1 Z11.9000 F8000.0
G1 X90.3660 Y-122.4969 F12000.0
G1 X91.4716 Y-125.2832
G1 X92.0024 Y-125.7697
G1 X93.1523 Y-125.8581
G1 Z0.0000 F8000.0
G0 X90.8082 Y-125.8581 F15000.0
G1 Z11.9000 F8000.0
G1 X90.5429 Y-125.5043 F12000.0
G1 X89.0834 Y-121.4354
G1 Z0.0000 F8000.0
G0 X89.2603 Y-124.7967 F15000.0
G1 Z11.9000 F8000.0
G1 X89.4372 Y-124.9736 F12000.0
G1 Z0.0000 F8000.0
G0 X90.1891 Y-125.4601 F15000.0
G1 Z11.9000 F8000.0
G1 X90.4987 Y-125.5485 F12000.0
G1 Z0.0000 F8000.0
G0 X90.7826 Y-154.7208 F15000.0
G1 Z11.9000 F8000.0
G1 X81.8856 Y-163.7002 F12000.0
G1 Z0.0000 F8000.0
G0 X47.0237 Y-119.0503 F15000.0
G1 Z11.9000 F8000.0
G1 X46.1480 Y-119.0503 F12000.0
G1 Z0.0000 F8000.0
G0 X45.8185 Y-118.4737 F15000.0
G1 Z11.9000 F8000.0
G1 X46.6942 Y-118.4737 F12000.0
G1 Z0.0000 F8000.0
G0 X53.5469 Y-58.9131 F15000.0
G1 Z11.9000 F8000.0
G1 X53.5469 Y-5.3662 F12000.0
G1 Z0.0000 F8000.0
G0 X63.2677 Y-5.3662 F15000.0
G1 Z11.9000 F8000.0
G1 X63.2677 Y-58.9131 F12000.0
G1 Z0.0000 F8000.0
G0 X63.2677 Y-54.0526 F15000.0
G1 Z11.9000 F8000.0
G1 X0.0000 Y-54.0526 F12000.0
G1 Z0.0000 F8000.0
G0 X0.0000 Y-58.9131 F15000.0
G1 Z11.9000 F8000.0
G1 X180.0000 Y-58.9131 F12000.0
G1 Z0.0000 F8000.0
G0 X180.0000 Y-44.3318 F15000.0
G1 Z11.9000 F8000.0
G1 X63.2677 Y-44.3318 F12000.0
G1 X0.0000 Y-44.3318 F12000.0
G1 Z0.0000 F8000.0
G0 X0.0000 Y-49.1922 F15000.0
G1 Z11.9000 F8000.0
G1 X63.2677 Y-49.1922 F12000.0
G1 Z0.0000 F8000.0
G0 X63.2677 Y-39.4714 F15000.0
G1 Z11.9000 F8000.0
G1 X0.0000 Y-39.4714 F12000.0
G1 Z0.0000 F8000.0
G0 X2.0564 Y-38.8178 F15000.0
G1 Z11.9000 F8000.0
G1 X1.1277 Y-36.1200 F12000.0
G1 Z0.0000 F8000.0
G0 X1.3930 Y-36.3411 F15000.0
G1 Z11.9000 F8000.0
G1 X2.7640 Y-38.0218 F12000.0
G1 Z0.0000 F8000.0
G0 X2.9410 Y-37.9333 F15000.0
G1 Z11.9000 F8000.0
G1 X2.2333 Y-35.7662 F12000.0
G1 Z0.0000 F8000.0
G0 X2.8525 Y-35.8989 F15000.0
G1 Z11.9000 F8000.0
G1 X2.8967 Y-35.6777 F12000.0
G1 X3.6044 Y-35.7220
G1 Z0.0000 F8000.0
G0 X3.6928 Y-35.8104 F15000.0
G1 Z11.9000 F8000.0
G1 X3.9139 Y-36.5623 F12000.0
G1 X3.8255 Y-36.6950
G1 X3.4717 Y-36.6950
G1 Z0.0000 F8000.0
G0 X4.0024 Y-36.8276 F15000.0
G1 Z11.9000 F8000.0
G1 X4.0909 Y-37.0488 F12000.0
G1 Z0.0000 F8000.0
G0 X4.2235 Y-37.3584 F15000.0
G1 Z11.9000 F8000.0
G1 X4.2235 Y-37.6679 F12000.0
G1 X3.8697 Y-37.8006
G1 X3.5601 Y-37.6679
G1 Z0.0000 F8000.0
G0 X3.1179 Y-38.3314 F15000.0
G1 Z11.9000 F8000.0
G1 X3.3390 Y-38.7736 F12000.0
G1 Z0.0000 F8000.0
G0 X5.1081 Y-37.8449 F15000.0
G1 Z11.9000 F8000.0
G1 X5.0638 Y-37.4026 F12000.0
G1 X5.1965 Y-36.9603
G1 Z0.0000 F8000.0
G0 X5.2850 Y-36.8719 F15000.0
G1 Z11.9000 F8000.0
G1 X5.4177 Y-36.9161 F12000.0
G1 Z0.0000 F8000.0
G0 X5.7715 Y-37.1815 F15000.0
G1 Z11.9000 F8000.0
G1 X6.0368 Y-37.3141 F12000.0
G1 Z0.0000 F8000.0
G0 X6.3464 Y-37.7564 F15000.0
G1 Z11.9000 F8000.0
G1 X6.0811 Y-37.2699 F12000.0
G1 X5.5946 Y-35.7220
G1 Z0.0000 F8000.0
G0 X6.0368 Y-35.6335 F15000.0
G1 Z11.9000 F8000.0
G1 X6.0811 Y-35.8104 F12000.0
G1 Z0.0000 F8000.0
G0 X6.8375 Y-34.6110 F15000.0
G1 Z11.9000 F8000.0
G1 X6.8375 Y-58.9131 F12000.0
G1 Z0.0000 F8000.0
G0 X1.6620 Y-8.1760 F15000.0
G1 Z11.9000 F8000.0
G1 X1.6620 Y-8.3529 F12000.0
G1 X2.1485 Y-9.5470
G1 Z0.0000 F8000.0
G0 X3.5638 Y-9.5470 F15000.0
G1 Z11.9000 F8000.0
G1 X2.9446 Y-8.0875 F12000.0
G1 Z0.0000 F8000.0
G0 X4.6252 Y-8.3086 F15000.0
G1 Z11.9000 F8000.0
G1 X4.6695 Y-8.5298 F12000.0
G1 Z0.0000 F8000.0
G0 X6.3501 Y-8.5740 F15000.0
G1 Z11.9000 F8000.0
G1 X7.2346 Y-8.5740 F12000.0
G1 Z0.0000 F8000.0
G0 X7.3231 Y-8.4856 F15000.0
G1 Z11.9000 F8000.0
G1 X7.3673 Y-8.3971 F12000.0
G1 X6.6597 Y-6.5396
G1 X5.6867 Y-6.4511
G1 X5.6424 Y-6.7165
G1 X6.4828 Y-9.1490
G1 Z0.0000 F8000.0
G0 X6.5712 Y-9.3259 F15000.0
G1 Z11.9000 F8000.0
G1 X7.1462 Y-9.5470 F12000.0
G1 X7.1904 Y-9.4585
G1 X6.9693 Y-8.9278
G1 Z0.0000 F8000.0
G0 X7.0436 Y-11.1531 F15000.0
G1 Z11.9000 F8000.0
G1 X8.0609 Y-13.4971 F12000.0
G1 Z0.0000 F8000.0
G0 X9.1223 Y-13.2318 F15000.0
G1 Z11.9000 F8000.0
G1 X8.7685 Y-12.5683 F12000.0
G1 X8.5474 Y-12.3914
G1 X7.7070 Y-12.3914
G1 Z0.0000 F8000.0
G0 X8.5916 Y-12.3472 F15000.0
G1 Z11.9000 F8000.0
G1 X8.2378 Y-11.1531 F12000.0
G1 Z0.0000 F8000.0
G0 X8.8457 Y-11.1481 F15000.0
G1 Z11.9000 F8000.0
G1 X9.5091 Y-12.9614 F12000.0
G1 Z0.0000 F8000.0
G0 X9.6418 Y-13.2710 F15000.0
G1 Z11.9000 F8000.0
G1 X10.5705 Y-13.4479 F12000.0
G1 X11.4551 Y-13.0941
G1 X10.7917 Y-11.1481
G1 Z0.0000 F8000.0
G0 X11.4966 Y-11.3251 F15000.0
G1 Z11.9000 F8000.0
G1 X11.4966 Y-11.5020 F12000.0
G1 Z0.0000 F8000.0
G0 X11.6293 Y-11.8558 F15000.0
G1 Z11.9000 F8000.0
G1 X12.2043 Y-13.4037 F12000.0
G1 X13.1773 Y-13.4480
G1 Z0.0000 F8000.0
G0 X13.2657 Y-13.3595 F15000.0
G1 Z11.9000 F8000.0
G1 X13.3099 Y-13.1384 F12000.0
G1 Z0.0000 F8000.0
G0 X13.1330 Y-12.6519 F15000.0
G1 Z11.9000 F8000.0
G1 X12.8235 Y-11.7673 F12000.0
G1 Z0.0000 F8000.0
G0 X12.5581 Y-11.3693 F15000.0
G1 Z11.9000 F8000.0
G1 X11.4524 Y-11.2366 F12000.0
G1 X11.0102 Y-10.3078
G1 Z0.0000 F8000.0
G0 X9.8187 Y-11.1481 F15000.0
G1 Z11.9000 F8000.0
G1 X10.4379 Y-12.8729 F12000.0
G1 Z0.0000 F8000.0
G0 X10.5705 Y-13.1825 F15000.0
G1 Z11.9000 F8000.0
G1 X10.6148 Y-13.4037 F12000.0
G1 Z0.0000 F8000.0
G0 X13.0720 Y-11.2487 F15000.0
G1 Z11.9000 F8000.0
G1 X13.1604 Y-11.3372 F12000.0
G1 Z0.0000 F8000.0
G0 X16.5584 Y-5.3662 F15000.0
G1 Z11.9000 F8000.0
G1 X16.5584 Y-58.9131 F12000.0
G1 Z0.0000 F8000.0
G0 X22.2339 Y-38.7845 F15000.0
G1 Z11.9000 F8000.0
G1 X20.9071 Y-35.4675 F12000.0
G1 Z0.0000 F8000.0
G0 X22.4108 Y-35.7771 F15000.0
G1 Z11.9000 F8000.0
G1 X22.4550 Y-36.0867 F12000.0
G1 X22.1455 Y-38.1211
G1 Z0.0000 F8000.0
G0 X22.8089 Y-36.6174 F15000.0
G1 Z11.9000 F8000.0
G1 X23.6934 Y-38.7845 F12000.0
G1 Z0.0000 F8000.0
G0 X24.4895 Y-37.9442 F15000.0
G1 Z11.9000 F8000.0
G1 X24.6664 Y-38.4749 F12000.0
G1 X24.4895 Y-38.7403
G1 X24.0030 Y-38.5191
G1 X23.6492 Y-37.4135
G1 X24.1799 Y-37.3692
G1 Z0.0000 F8000.0
G0 X25.7780 Y-36.3805 F15000.0
G1 Z11.9000 F8000.0
G1 X26.2203 Y-37.5304 F12000.0
G1 X27.4144 Y-37.7957
G1 Z0.0000 F8000.0
G0 X27.6356 Y-38.6360 F15000.0
G1 Z11.9000 F8000.0
G1 X27.6356 Y-38.3264 F12000.0
G1 X27.4586 Y-37.7515
G1 X25.7338 Y-35.6286
G1 Z0.0000 F8000.0
G0 X25.6011 Y-35.7613 F15000.0
G1 Z11.9000 F8000.0
G1 X25.6011 Y-35.8940 F12000.0
G1 Z0.0000 F8000.0
G0 X27.4144 Y-35.8940 F15000.0
G1 Z11.9000 F8000.0
G1 X27.4586 Y-35.6728 F12000.0
G1 X28.2990 Y-35.6728
G1 Z0.0000 F8000.0
G0 X28.6528 Y-35.9824 F15000.0
G1 Z11.9000 F8000.0
G1 X29.1835 Y-37.5746 F12000.0
G1 X29.0066 Y-37.7957
G1 X28.0336 Y-37.5304
G1 X27.5913 Y-36.3805
G1 Z0.0000 F8000.0
G0 X29.0066 Y-35.5844 F15000.0
G1 Z11.9000 F8000.0
G1 X29.3604 Y-36.2920 F12000.0
G1 Z0.0000 F8000.0
G0 X29.9796 Y-36.7343 F15000.0
G1 Z11.9000 F8000.0
G1 X30.2007 Y-35.8055 F12000.0
G1 Z0.0000 F8000.0
G0 X31.0410 Y-35.7613 F15000.0
G1 Z11.9000 F8000.0
G1 X31.0410 Y-35.9382 F12000.0
G1 X31.8371 Y-37.8399
G1 Z0.0000 F8000.0
G0 X30.9526 Y-37.5746 F15000.0
G1 Z11.9000 F8000.0
G1 X30.7314 Y-37.3977 F12000.0
G1 Z0.0000 F8000.0
G0 X30.4661 Y-37.2208 F15000.0
G1 Z11.9000 F8000.0
G1 X29.9353 Y-36.7343 F12000.0
G1 X29.6258 Y-36.7343
G1 X29.6258 Y-36.9112
G1 X30.0238 Y-37.8399
G1 Z0.0000 F8000.0
G0 X31.1737 Y-35.6286 F15000.0
G1 Z11.9000 F8000.0
G1 X31.9698 Y-35.6286 F12000.0
G1 Z0.0000 F8000.0
G0 X30.5545 Y-34.6556 F15000.0
G1 Z11.9000 F8000.0
G1 X31.4833 Y-34.6998 F12000.0
G1 X31.9256 Y-35.2748
G1 X33.0312 Y-37.8399
G1 Z0.0000 F8000.0
G0 X33.6062 Y-37.8399 F15000.0
G1 Z11.9000 F8000.0
G1 X33.5620 Y-37.3977 F12000.0
G1 X33.4293 Y-37.3092
G1 Z0.0000 F8000.0
G0 X33.6062 Y-37.3534 F15000.0
G1 Z11.9000 F8000.0
G1 X33.7831 Y-36.8670 F12000.0
G1 X34.0042 Y-36.9112
G1 Z0.0000 F8000.0
G0 X34.2696 Y-37.0881 F15000.0
G1 Z11.9000 F8000.0
G1 X34.6676 Y-37.3092 F12000.0
G1 Z0.0000 F8000.0
G0 X34.8445 Y-37.4861 F15000.0
G1 Z11.9000 F8000.0
G1 X34.0927 Y-35.6286 F12000.0
G1 Z0.0000 F8000.0
G0 X27.5471 Y-38.7245 F15000.0
G1 Z11.9000 F8000.0
G1 X27.0164 Y-38.8129 F12000.0
G1 X26.5741 Y-38.7687
G1 Z0.0000 F8000.0
G0 X26.3869 Y-33.8735 F15000.0
G1 Z11.9000 F8000.0
G1 X26.6522 Y-33.5640 F12000.0
G1 X26.3869 Y-33.2544
G1 Z0.0000 F8000.0
G0 X26.6522 Y-32.9006 F15000.0
G1 Z11.9000 F8000.0
G1 X25.8119 Y-32.9006 F12000.0
G1 Z0.0000 F8000.0
G0 X26.0331 Y-33.6524 F15000.0
G1 Z11.9000 F8000.0
G1 X25.8562 Y-33.2986 F12000.0
G1 X25.7677 Y-32.8563
G1 X25.4581 Y-32.1929
G1 Z0.0000 F8000.0
G0 X25.3254 Y-31.8391 F15000.0
G1 Z11.9000 F8000.0
G1 X25.0601 Y-31.0430 F12000.0
G1 X25.1043 Y-30.7777
G1 X26.0331 Y-30.8219
G1 Z0.0000 F8000.0
G0 X26.2984 Y-31.2199 F15000.0
G1 Z11.9000 F8000.0
G1 X26.6080 Y-32.1045 F12000.0
G1 Z0.0000 F8000.0
G0 X26.7849 Y-32.5910 F15000.0
G1 Z11.9000 F8000.0
G1 X26.7407 Y-32.8121 F12000.0
G1 Z0.0000 F8000.0
G0 X24.9274 Y-32.8121 F15000.0
G1 Z11.9000 F8000.0
G1 X24.9716 Y-32.7679 F12000.0
G1 X24.6178 Y-31.5295
G1 Z0.0000 F8000.0
G0 X24.2640 Y-30.8219 F15000.0
G1 Z11.9000 F8000.0
G1 X23.9544 Y-30.7334 F12000.0
G1 X23.2910 Y-30.7777
G1 X23.4237 Y-31.5295
G1 X23.8659 Y-32.6794
G1 X24.8389 Y-32.9006
G1 Z0.0000 F8000.0
G0 X23.1141 Y-32.4141 F15000.0
G1 Z11.9000 F8000.0
G1 X23.2025 Y-32.9006 F12000.0
G1 X22.5391 Y-32.8121
G1 X21.3450 Y-30.7777
G1 Z0.0000 F8000.0
G0 X20.7701 Y-30.6892 F15000.0
G1 Z11.9000 F8000.0
G1 X19.6644 Y-30.9104 F12000.0
G1 X20.2393 Y-32.6794
G1 X21.2566 Y-32.9006
G1 Z0.0000 F8000.0
G0 X21.3450 Y-32.8121 F15000.0
G1 Z11.9000 F8000.0
G1 X21.3892 Y-32.7237 F12000.0
G1 X21.0796 Y-31.8391
G1 X19.9740 Y-31.7949
G1 Z0.0000 F8000.0
G0 X18.1607 Y-32.4583 F15000.0
G1 Z11.9000 F8000.0
G1 X19.3106 Y-32.1487 F12000.0
G1 X18.8241 Y-30.9546
G1 X18.6472 Y-30.8219
G1 X17.4973 Y-30.7777
G1 X18.2491 Y-32.9890
G1 Z0.0000 F8000.0
G0 X18.3376 Y-33.2101 F15000.0
G1 Z11.9000 F8000.0
G1 X19.6644 Y-33.8293 F12000.0
G1 X19.9740 Y-33.8293
G1 Z0.0000 F8000.0
G0 X22.7160 Y-31.3084 F15000.0
G1 Z11.9000 F8000.0
G1 X22.6718 Y-31.1757 F12000.0
G1 Z0.0000 F8000.0
G0 X21.6620 Y-28.0933 F15000.0
G1 Z11.9000 F8000.0
G1 X20.5564 Y-25.5281 F12000.0
G1 X19.2295 Y-24.9532
G1 Z0.0000 F8000.0
G0 X19.0493 Y-26.3108 F15000.0
G1 Z11.9000 F8000.0
G1 X19.0935 Y-26.4435 F12000.0
G1 Z0.0000 F8000.0
G0 X20.6006 Y-25.8819 F15000.0
G1 Z11.9000 F8000.0
G1 X19.6718 Y-26.0588 F12000.0
G1 X19.6718 Y-26.2357
G1 X20.4237 Y-28.0933
G1 Z0.0000 F8000.0
G0 X19.7127 Y-28.1684 F15000.0
G1 Z11.9000 F8000.0
G1 X19.6684 Y-28.0357 F12000.0
G1 Z0.0000 F8000.0
G0 X19.8453 Y-28.5222 F15000.0
G1 Z11.9000 F8000.0
G1 X19.9338 Y-29.0087 F12000.0
G1 X18.4743 Y-28.7433
G1 X18.4301 Y-28.6106
G1 Z0.0000 F8000.0
G0 X18.2974 Y-28.3010 F15000.0
G1 Z11.9000 F8000.0
G1 X17.3686 Y-25.7359 F12000.0
G1 Z0.0000 F8000.0
G0 X21.4347 Y-26.0601 F15000.0
G1 Z11.9000 F8000.0
G1 X21.9212 Y-25.8832 F12000.0
G1 X22.4077 Y-26.1043
G1 X22.5846 Y-26.5466
G1 X22.6288 Y-26.9447
G1 X22.8942 Y-27.4311
G1 X23.0269 Y-27.8734
G1 X22.8500 Y-28.0061
G1 X22.0539 Y-27.7850
G1 Z0.0000 F8000.0
G0 X22.0539 Y-26.9889 F15000.0
G1 Z11.9000 F8000.0
G1 X22.5846 Y-26.9889 F12000.0
G1 Z0.0000 F8000.0
G0 X23.2294 Y-25.9199 F15000.0
G1 Z11.9000 F8000.0
G1 X23.1409 Y-26.1852 F12000.0
G1 X23.7601 Y-27.8216
G1 X24.9542 Y-28.0427
G1 X24.3793 Y-26.0968
G1 X23.9370 Y-25.9199
G1 X23.3179 Y-25.8756
G1 Z0.0000 F8000.0
G0 X24.7558 Y-25.7480 F15000.0
G1 Z11.9000 F8000.0
G1 X25.7730 Y-28.0920 F12000.0
G1 Z0.0000 F8000.0
G0 X26.8345 Y-27.8266 F15000.0
G1 Z11.9000 F8000.0
G1 X26.4807 Y-27.1632 F12000.0
G1 X26.2595 Y-26.9863
G1 X25.4192 Y-26.9863
G1 Z0.0000 F8000.0
G0 X26.3037 Y-26.9421 F15000.0
G1 Z11.9000 F8000.0
G1 X25.9499 Y-25.7480 F12000.0
G1 Z0.0000 F8000.0
G0 X26.8335 Y-25.9154 F15000.0
G1 Z11.9000 F8000.0
G1 X26.7451 Y-26.1807 F12000.0
G1 X27.3642 Y-27.8171
G1 X27.7623 Y-28.0383
G1 X28.5141 Y-27.8613
G1 X26.9220 Y-25.8711
G1 Z0.0000 F8000.0
G0 X29.3007 Y-28.0338 F15000.0
G1 Z11.9000 F8000.0
G1 X29.7872 Y-28.0781 F12000.0
G1 X30.3179 Y-27.7685
G1 X29.6103 Y-25.9994
G1 X28.6373 Y-25.9109
G1 X28.5488 Y-26.1763
G1 X29.5218 Y-28.7857
G1 Z0.0000 F8000.0
G0 X29.8756 Y-29.0068 F15000.0
G1 Z11.9000 F8000.0
G1 X30.0968 Y-28.9626 F12000.0
G1 Z0.0000 F8000.0
G0 X30.1852 Y-28.7857 F15000.0
G1 Z11.9000 F8000.0
G1 X29.9199 Y-28.3877 F12000.0
G1 Z0.0000 F8000.0
G0 X30.4376 Y-25.9199 F15000.0
G1 Z11.9000 F8000.0
G1 X30.3492 Y-26.1852 F12000.0
G1 X30.9684 Y-27.8216
G1 X32.1625 Y-28.0427
G1 X31.5875 Y-26.0968
G1 X31.1453 Y-25.9199
G1 X30.5261 Y-25.8756
G1 Z0.0000 F8000.0
G0 X42.5488 Y-35.5844 F15000.0
G1 Z11.9000 F8000.0
G1 X43.6987 Y-38.5918 F12000.0
G1 X45.1139 Y-38.7245
G1 X45.1139 Y-38.5033
G1 X44.2294 Y-36.0266
G1 Z0.0000 F8000.0
G0 X44.8043 Y-35.8940 F15000.0
G1 Z11.9000 F8000.0
G1 X44.8043 Y-35.7613 F12000.0
G1 Z0.0000 F8000.0
G0 X44.9370 Y-35.6286 F15000.0
G1 Z11.9000 F8000.0
G1 X46.5734 Y-37.5746 F12000.0
G1 X46.5292 Y-37.6630
G1 Z0.0000 F8000.0
G0 X46.4407 Y-37.7515 F15000.0
G1 Z11.9000 F8000.0
G1 X45.6889 Y-37.7073 F12000.0
G1 X45.4235 Y-37.5304
G1 X44.9812 Y-36.3805
G1 Z0.0000 F8000.0
G0 X46.6176 Y-35.8940 F15000.0
G1 Z11.9000 F8000.0
G1 X46.6176 Y-35.7613 F12000.0
G1 Z0.0000 F8000.0
G0 X46.7503 Y-35.6286 F15000.0
G1 Z11.9000 F8000.0
G1 X48.4752 Y-37.7515 F12000.0
G1 X48.6521 Y-38.3264
G1 X48.6521 Y-38.6360
G1 Z0.0000 F8000.0
G0 X48.5636 Y-38.7245 F15000.0
G1 Z11.9000 F8000.0
G1 X48.0329 Y-38.8129 F12000.0
G1 X47.5906 Y-38.7687
G1 Z0.0000 F8000.0
G0 X48.4309 Y-37.7957 F15000.0
G1 Z11.9000 F8000.0
G1 X47.2368 Y-37.5304 F12000.0
G1 X46.7945 Y-36.3805
G1 Z0.0000 F8000.0
G0 X48.2540 Y-35.7171 F15000.0
G1 Z11.9000 F8000.0
G1 X49.0059 Y-37.5304 F12000.0
G1 Z0.0000 F8000.0
G0 X49.0943 Y-37.7073 F15000.0
G1 Z11.9000 F8000.0
G1 X50.0673 Y-37.7073 F12000.0
G1 X49.7135 Y-36.2035
G1 Z0.0000 F8000.0
G0 X50.0231 Y-35.6728 F15000.0
G1 Z11.9000 F8000.0
G1 X49.9346 Y-35.5844 F12000.0
G1 Z0.0000 F8000.0
G0 X54.2924 Y-35.3632 F15000.0
G1 Z11.9000 F8000.0
G1 X54.4251 Y-35.5401 F12000.0
G1 X54.6462 Y-35.6286
G1 X55.0443 Y-36.6016
G1 Z0.0000 F8000.0
G0 X55.2212 Y-36.9996 F15000.0
G1 Z11.9000 F8000.0
G1 X55.9288 Y-38.7245 F12000.0
G1 X56.6807 Y-38.7687
G1 X56.6807 Y-38.4149
G1 Z0.0000 F8000.0
G0 X56.4595 Y-37.7957 F15000.0
G1 Z11.9000 F8000.0
G1 X55.7961 Y-35.6286 F12000.0
G1 X54.7347 Y-35.5844
G1 Z0.0000 F8000.0
G0 X55.7519 Y-35.3632 F15000.0
G1 Z11.9000 F8000.0
G1 X55.8403 Y-35.5844 F12000.0
G1 Z0.0000 F8000.0
G0 X56.5922 Y-35.6728 F15000.0
G1 Z11.9000 F8000.0
G1 X56.6364 Y-36.2478 F12000.0
G1 X57.0787 Y-37.5304
G1 X57.3441 Y-37.7073
G1 X58.1401 Y-37.7957
G1 X57.9190 Y-36.7343
G1 X57.6094 Y-35.7613
G1 X56.6364 Y-35.6286
G1 Z0.0000 F8000.0
G0 X57.9632 Y-35.5401 F15000.0
G1 Z11.9000 F8000.0
G1 X58.7151 Y-37.6188 F12000.0
G1 X59.5554 Y-37.7515
G1 X60.3073 Y-37.7073
G1 X59.6881 Y-35.5401
G1 Z0.0000 F8000.0
G0 X60.4842 Y-35.6728 F15000.0
G1 Z11.9000 F8000.0
G1 X60.5284 Y-36.2478 F12000.0
G1 X60.9707 Y-37.5304
G1 X61.2360 Y-37.7073
G1 X62.0321 Y-37.7957
G1 X61.8110 Y-36.7343
G1 X61.5014 Y-35.7613
G1 X60.5284 Y-35.6286
G1 Z0.0000 F8000.0
G0 X58.8035 Y-35.5401 F15000.0
G1 Z11.9000 F8000.0
G1 X59.5996 Y-37.7073 F12000.0
G1 Z0.0000 F8000.0
G0 X63.2677 Y-34.6110 F15000.0
G1 Z11.9000 F8000.0
G1 X0.0000 Y-34.6110 F12000.0
G1 Z0.0000 F8000.0
G0 X0.8623 Y-35.5893 F15000.0
G1 Z11.9000 F8000.0
G1 X0.9065 Y-35.7220 F12000.0
G1 Z0.0000 F8000.0
G0 X4.1351 Y-35.5451 F15000.0
G1 Z11.9000 F8000.0
G1 X4.8427 Y-37.1815 F12000.0
G1 Z0.0000 F8000.0
G0 X7.6466 Y-35.6517 F15000.0
G1 Z11.9000 F8000.0
G1 X7.7351 Y-35.7844 F12000.0
G1 Z0.0000 F8000.0
G0 X8.0447 Y-36.2709 F15000.0
G1 Z11.9000 F8000.0
G1 X8.3543 Y-36.7574 F12000.0
G1 Z0.0000 F8000.0
G0 X8.6638 Y-37.2439 F15000.0
G1 Z11.9000 F8000.0
G1 X8.8850 Y-37.5535 F12000.0
G1 Z0.0000 F8000.0
G0 X9.3272 Y-38.2611 F15000.0
G1 Z11.9000 F8000.0
G1 X9.6368 Y-38.7034 F12000.0
G1 X10.2118 Y-38.7034
G1 X9.2830 Y-35.7402
G1 Z0.0000 F8000.0
G0 X10.8752 Y-35.8286 F15000.0
G1 Z11.9000 F8000.0
G1 X9.9022 Y-35.6959 F12000.0
G1 X9.9022 Y-36.0055
G1 X10.5656 Y-37.8188
G1 Z0.0000 F8000.0
G0 X11.6270 Y-37.8188 F15000.0
G1 Z11.9000 F8000.0
G1 X10.9636 Y-36.0498 F12000.0
G1 Z0.0000 F8000.0
G0 X12.4231 Y-35.5633 F15000.0
G1 Z11.9000 F8000.0
G1 X11.5386 Y-35.6959 F12000.0
G1 X11.9366 Y-37.3766
G1 X12.0693 Y-37.5977
G1 X13.1308 Y-37.7304
G1 Z0.0000 F8000.0
G0 X13.6173 Y-37.5092 F15000.0
G1 Z11.9000 F8000.0
G1 X13.6615 Y-37.6419 F12000.0
G1 Z0.0000 F8000.0
G0 X13.7499 Y-37.7304 F15000.0
G1 Z11.9000 F8000.0
G1 X14.4576 Y-37.7746 F12000.0
G1 X15.2979 Y-37.5535
G1 X14.5902 Y-35.5633
G1 Z0.0000 F8000.0
G0 X13.7499 Y-35.5633 F15000.0
G1 Z11.9000 F8000.0
G1 X14.5018 Y-37.7304 F12000.0
G1 Z0.0000 F8000.0
G0 X13.4846 Y-37.1997 F15000.0
G1 Z11.9000 F8000.0
G1 X12.8654 Y-35.5633 F12000.0
G1 Z0.0000 F8000.0
G0 X12.5500 Y-33.8153 F15000.0
G1 Z11.9000 F8000.0
G1 X11.4001 Y-33.8153 F12000.0
G1 X11.7096 Y-33.0192
G1 Z0.0000 F8000.0
G0 X10.3828 Y-31.5155 F15000.0
G1 Z11.9000 F8000.0
G1 X10.8693 Y-32.7096 F12000.0
G1 X11.7539 Y-32.9750
G1 X11.9750 Y-32.7981
G1 X10.3386 Y-30.7636
G1 Z0.0000 F8000.0
G0 X10.2059 Y-30.8963 F15000.0
G1 Z11.9000 F8000.0
G1 X10.2059 Y-31.0290 F12000.0
G1 Z0.0000 F8000.0
G0 X11.7204 Y-30.7085 F15000.0
G1 Z11.9000 F8000.0
G1 X11.8089 Y-30.7970 F12000.0
G1 Z0.0000 F8000.0
G0 X8.5791 Y-30.7405 F15000.0
G1 Z11.9000 F8000.0
G1 X9.1982 Y-30.7848 F12000.0
G1 X9.6405 Y-30.9617
G1 X10.2155 Y-32.9077
G1 X9.0213 Y-32.6865
G1 X8.4022 Y-31.0501
G1 X8.4906 Y-30.7848
G1 Z0.0000 F8000.0
G0 X7.8678 Y-31.2271 F15000.0
G1 Z11.9000 F8000.0
G1 X8.1774 Y-32.1117 F12000.0
G1 Z0.0000 F8000.0
G0 X8.3543 Y-32.5982 F15000.0
G1 Z11.9000 F8000.0
G1 X8.3101 Y-32.8193 F12000.0
G1 Z0.0000 F8000.0
G0 X8.2216 Y-32.9077 F15000.0
G1 Z11.9000 F8000.0
G1 X7.2486 Y-32.8635 F12000.0
G1 X6.6737 Y-31.3156
G1 Z0.0000 F8000.0
G0 X6.5410 Y-30.9618 F15000.0
G1 Z11.9000 F8000.0
G1 X6.5410 Y-30.7849 F12000.0
G1 Z0.0000 F8000.0
G0 X7.6024 Y-30.8291 F15000.0
G1 Z11.9000 F8000.0
G1 X6.4968 Y-30.6964 F12000.0
G1 X6.0545 Y-29.7676
G1 Z0.0000 F8000.0
G0 X4.8939 Y-30.9250 F15000.0
G1 Z11.9000 F8000.0
G1 X5.3804 Y-30.7481 F12000.0
G1 X5.8669 Y-30.9693
G1 X6.0438 Y-31.4115
G1 X6.0880 Y-31.8096
G1 X6.3534 Y-32.2961
G1 X6.4860 Y-32.7383
G1 X6.3091 Y-32.8710
G1 X5.5130 Y-32.6499
G1 Z0.0000 F8000.0
G0 X5.5130 Y-31.8538 F15000.0
G1 Z11.9000 F8000.0
G1 X6.0438 Y-31.8538 F12000.0
G1 Z0.0000 F8000.0
G0 X3.2630 Y-30.7405 F15000.0
G1 Z11.9000 F8000.0
G1 X3.8822 Y-30.7848 F12000.0
G1 X4.3244 Y-30.9617
G1 X4.8994 Y-32.9077
G1 X3.7053 Y-32.6865
G1 X3.0861 Y-31.0501
G1 X3.1745 Y-30.7848
G1 Z0.0000 F8000.0
G0 X1.0932 Y-31.3527 F15000.0
G1 Z11.9000 F8000.0
G1 X1.4470 Y-32.1487 F12000.0
G1 X2.0219 Y-33.8294
G1 X3.1718 Y-33.7851
G1 X3.3045 Y-33.4313
G1 X2.9949 Y-32.5910
G1 X2.7296 Y-32.3256
G1 X1.4912 Y-32.1930
G1 Z0.0000 F8000.0
G0 X0.9605 Y-31.0431 F15000.0
G1 Z11.9000 F8000.0
G1 X0.8278 Y-30.6008 F12000.0
G1 Z0.0000 F8000.0
G0 X0.0000 Y-29.7506 F15000.0
G1 Z11.9000 F8000.0
G1 X63.2677 Y-29.7506 F12000.0
G1 Z0.0000 F8000.0
G0 X63.2677 Y-24.8078 F15000.0
G1 Z11.9000 F8000.0
G1 X0.0000 Y-24.8078 F12000.0
G1 Z0.0000 F8000.0
G0 X0.8278 Y-25.7359 F15000.0
G1 Z11.9000 F8000.0
G1 X1.7566 Y-28.3010 F12000.0
G1 Z0.0000 F8000.0
G0 X1.8892 Y-28.6106 F15000.0
G1 Z11.9000 F8000.0
G1 X1.9335 Y-28.7433 F12000.0
G1 X3.3930 Y-29.0087
G1 X3.3045 Y-28.5222
G1 Z0.0000 F8000.0
G0 X3.1718 Y-28.1684 F15000.0
G1 Z11.9000 F8000.0
G1 X3.1276 Y-28.0357 F12000.0
G1 Z0.0000 F8000.0
G0 X2.5526 Y-26.4435 F15000.0
G1 Z11.9000 F8000.0
G1 X2.5084 Y-26.3108 F12000.0
G1 Z0.0000 F8000.0
G0 X3.0391 Y-25.8686 F15000.0
G1 Z11.9000 F8000.0
G1 X4.1890 Y-26.0455 F12000.0
G1 X4.8524 Y-27.7703
G1 X3.7468 Y-27.9915
G1 X2.5526 Y-24.8956
G1 Z0.0000 F8000.0
G0 X2.7021 Y-24.0854 F15000.0
G1 Z11.9000 F8000.0
G1 X1.9945 Y-24.1738 F12000.0
G1 Z0.0000 F8000.0
G0 X3.5866 Y-24.0854 F15000.0
G1 Z11.9000 F8000.0
G1 X2.7021 Y-24.0412 F12000.0
G1 X1.5522 Y-20.9895
G1 Z0.0000 F8000.0
G0 X2.8003 Y-20.9786 F15000.0
G1 Z11.9000 F8000.0
G1 X2.8887 Y-21.0671 F12000.0
G1 Z0.0000 F8000.0
G0 X3.4419 Y-20.9272 F15000.0
G1 Z11.9000 F8000.0
G1 X3.6631 Y-21.4137 F12000.0
G1 Z0.0000 F8000.0
G0 X4.6361 Y-21.1041 F15000.0
G1 Z11.9000 F8000.0
G1 X4.4149 Y-22.1213 F12000.0
G1 Z0.0000 F8000.0
G0 X4.5476 Y-22.3867 F15000.0
G1 Z11.9000 F8000.0
G1 X4.3707 Y-22.1656 F12000.0
G1 X4.0611 Y-22.1656
G1 X4.0611 Y-22.3425
G1 X4.4592 Y-23.2270
G1 Z0.0000 F8000.0
G0 X4.8130 Y-22.5636 F15000.0
G1 Z11.9000 F8000.0
G1 X5.0341 Y-22.7405 F12000.0
G1 Z0.0000 F8000.0
G0 X5.2995 Y-22.9174 F15000.0
G1 Z11.9000 F8000.0
G1 X5.3879 Y-23.0059 F12000.0
G1 Z0.0000 F8000.0
G0 X5.5172 Y-21.0504 F15000.0
G1 Z11.9000 F8000.0
G1 X5.4288 Y-21.3157 F12000.0
G1 X6.0479 Y-22.9521
G1 X6.4460 Y-23.1733
G1 X7.1978 Y-22.9964
G1 X5.6057 Y-21.0062
G1 Z0.0000 F8000.0
G0 X7.0436 Y-20.8830 F15000.0
G1 Z11.9000 F8000.0
G1 X8.0609 Y-23.2270 F12000.0
G1 Z0.0000 F8000.0
G0 X9.1223 Y-22.9617 F15000.0
G1 Z11.9000 F8000.0
G1 X8.7685 Y-22.2983 F12000.0
G1 X8.5474 Y-22.1213
G1 X7.7070 Y-22.1213
G1 Z0.0000 F8000.0
G0 X8.5916 Y-22.0771 F15000.0
G1 Z11.9000 F8000.0
G1 X8.2378 Y-20.8830 F12000.0
G1 Z0.0000 F8000.0
G0 X8.8457 Y-20.8780 F15000.0
G1 Z11.9000 F8000.0
G1 X9.5091 Y-22.6913 F12000.0
G1 Z0.0000 F8000.0
G0 X9.6418 Y-23.0009 F15000.0
G1 Z11.9000 F8000.0
G1 X10.5705 Y-23.1778 F12000.0
G1 X11.4551 Y-22.8240
G1 X10.7917 Y-20.8780
G1 Z0.0000 F8000.0
G0 X11.4966 Y-21.0550 F15000.0
G1 Z11.9000 F8000.0
G1 X11.4966 Y-21.2319 F12000.0
G1 Z0.0000 F8000.0
G0 X11.6293 Y-21.5857 F15000.0
G1 Z11.9000 F8000.0
G1 X12.2043 Y-23.1336 F12000.0
G1 X13.1773 Y-23.1779
G1 Z0.0000 F8000.0
G0 X13.2657 Y-23.0894 F15000.0
G1 Z11.9000 F8000.0
G1 X13.3099 Y-22.8683 F12000.0
G1 Z0.0000 F8000.0
G0 X13.1330 Y-22.3818 F15000.0
G1 Z11.9000 F8000.0
G1 X12.8235 Y-21.4972 F12000.0
G1 Z0.0000 F8000.0
G0 X12.5581 Y-21.0992 F15000.0
G1 Z11.9000 F8000.0
G1 X11.4524 Y-20.9665 F12000.0
G1 X11.0102 Y-20.0378
G1 Z0.0000 F8000.0
G0 X9.8187 Y-20.8780 F15000.0
G1 Z11.9000 F8000.0
G1 X10.4379 Y-22.6029 F12000.0
G1 Z0.0000 F8000.0
G0 X10.5705 Y-22.9124 F15000.0
G1 Z11.9000 F8000.0
G1 X10.6148 Y-23.1336 F12000.0
G1 Z0.0000 F8000.0
G0 X13.0720 Y-20.9786 F15000.0
G1 Z11.9000 F8000.0
G1 X13.1604 Y-21.0671 F12000.0
G1 Z0.0000 F8000.0
G0 X8.3906 Y-27.9472 F15000.0
G1 Z11.9000 F8000.0
G1 X8.3906 Y-27.6376 F12000.0
G1 X7.7714 Y-26.0013
G1 X6.7542 Y-25.9128
G1 X6.8869 Y-26.6647
G1 X7.6830 Y-28.7875
G1 Z0.0000 F8000.0
G0 X8.0368 Y-29.0087 F15000.0
G1 Z11.9000 F8000.0
G1 X8.2579 Y-28.9644 F12000.0
G1 X8.3021 Y-28.6106
G1 Z0.0000 F8000.0
G0 X8.2137 Y-28.5222 F15000.0
G1 Z11.9000 F8000.0
G1 X7.9483 Y-28.2568 F12000.0
G1 Z0.0000 F8000.0
G0 X8.3021 Y-28.0357 F15000.0
G1 Z11.9000 F8000.0
G1 X7.4618 Y-28.0357 F12000.0
G1 Z0.0000 F8000.0
G0 X6.1350 Y-26.2666 F15000.0
G1 Z11.9000 F8000.0
G1 X6.6657 Y-27.7703 F12000.0
G1 X6.5331 Y-28.0357
G1 X5.5158 Y-27.8146
G1 X4.8967 Y-26.0013
G1 X5.6043 Y-25.8686
G1 X5.9139 Y-25.9570
G1 Z0.0000 F8000.0
G0 X0.0000 Y-19.9474 F15000.0
G1 Z11.9000 F8000.0
G1 X63.2677 Y-19.9474 F12000.0
G1 X131.3959 Y-19.9474 F12000.0
G1 X180.0000 Y-19.9474 F12000.0
G1 Z0.0000 F8000.0
G0 X180.0000 Y-24.8078 F15000.0
G1 Z11.9000 F8000.0
G1 X131.3959 Y-24.8078 F12000.0
G1 Z0.0000 F8000.0
G0 X134.4142 Y-22.6048 F15000.0
G1 Z11.9000 F8000.0
G1 X134.6795 Y-22.9586 F12000.0
G1 Z0.0000 F8000.0
G0 X135.0776 Y-23.5778 F15000.0
G1 Z11.9000 F8000.0
G1 X135.1660 Y-23.6662 F12000.0
G1 Z0.0000 F8000.0
G0 X135.4756 Y-24.1085 F15000.0
G1 Z11.9000 F8000.0
G1 X136.0948 Y-24.1527 F12000.0
G1 X136.0063 Y-23.6662
G1 Z0.0000 F8000.0
G0 X135.8737 Y-23.3124 F15000.0
G1 Z11.9000 F8000.0
G1 X135.8294 Y-23.1797 F12000.0
G1 Z0.0000 F8000.0
G0 X136.5371 Y-23.2240 F15000.0
G1 Z11.9000 F8000.0
G1 X135.9179 Y-21.6760 F12000.0
G1 X135.7852 Y-21.1011
G1 X136.8909 Y-21.2338
G1 Z0.0000 F8000.0
G0 X136.9793 Y-21.4107 F15000.0
G1 Z11.9000 F8000.0
G1 X137.3331 Y-22.2952 F12000.0
G1 Z0.0000 F8000.0
G0 X137.4658 Y-22.6048 F15000.0
G1 Z11.9000 F8000.0
G1 X137.7312 Y-23.2240 F12000.0
G1 Z0.0000 F8000.0
G0 X138.0408 Y-22.6490 F15000.0
G1 Z11.9000 F8000.0
G1 X138.1735 Y-22.9586 F12000.0
G1 X139.4560 Y-23.1355
G1 Z0.0000 F8000.0
G0 X139.9425 Y-23.0028 F15000.0
G1 Z11.9000 F8000.0
G1 X140.8713 Y-23.1797 F12000.0
G1 X141.7558 Y-22.8259
G1 X141.0924 Y-20.8799
G1 Z0.0000 F8000.0
G0 X140.1194 Y-20.8799 F15000.0
G1 Z11.9000 F8000.0
G1 X140.7386 Y-22.6048 F12000.0
G1 Z0.0000 F8000.0
G0 X140.8713 Y-22.9144 F15000.0
G1 Z11.9000 F8000.0
G1 X140.9155 Y-23.1355 F12000.0
G1 Z0.0000 F8000.0
G0 X139.8099 Y-22.6933 F15000.0
G1 Z11.9000 F8000.0
G1 X139.1465 Y-20.8799 F12000.0
G1 Z0.0000 F8000.0
G0 X138.6600 Y-20.9684 F15000.0
G1 Z11.9000 F8000.0
G1 X137.5985 Y-21.1011 F12000.0
G1 X137.8639 Y-22.1625
G1 Z0.0000 F8000.0
G0 X135.2545 Y-21.5876 F15000.0
G1 Z11.9000 F8000.0
G1 X135.2103 Y-21.4549 F12000.0
G1 Z0.0000 F8000.0
G0 X134.1046 Y-22.1183 F15000.0
G1 Z11.9000 F8000.0
G1 X133.3970 Y-21.0569 F12000.0
G1 Z0.0000 F8000.0
G0 X136.1739 Y-24.8078 F15000.0
G1 Z11.9000 F8000.0
G1 X136.1739 Y-39.4714 F12000.0
G1 Z0.0000 F8000.0
G0 X135.5394 Y-40.5167 F15000.0
G1 Z11.9000 F8000.0
G1 X136.2470 Y-41.5781 F12000.0
G1 Z0.0000 F8000.0
G0 X136.5566 Y-42.0646 F15000.0
G1 Z11.9000 F8000.0
G1 X136.8220 Y-42.4184 F12000.0
G1 Z0.0000 F8000.0
G0 X137.2200 Y-43.0376 F15000.0
G1 Z11.9000 F8000.0
G1 X137.3085 Y-43.1260 F12000.0
G1 Z0.0000 F8000.0
G0 X137.6180 Y-43.5683 F15000.0
G1 Z11.9000 F8000.0
G1 X138.2372 Y-43.6125 F12000.0
G1 X138.1488 Y-43.1260
G1 Z0.0000 F8000.0
G0 X138.0161 Y-42.7722 F15000.0
G1 Z11.9000 F8000.0
G1 X137.9719 Y-42.6395 F12000.0
G1 Z0.0000 F8000.0
G0 X138.6795 Y-42.6838 F15000.0
G1 Z11.9000 F8000.0
G1 X138.0603 Y-41.1358 F12000.0
G1 X137.9276 Y-40.5609
G1 X139.0333 Y-40.6936
G1 Z0.0000 F8000.0
G0 X139.1218 Y-40.8705 F15000.0
G1 Z11.9000 F8000.0
G1 X139.4756 Y-41.7550 F12000.0
G1 Z0.0000 F8000.0
G0 X139.6083 Y-42.0646 F15000.0
G1 Z11.9000 F8000.0
G1 X139.8736 Y-42.6838 F12000.0
G1 Z0.0000 F8000.0
G0 X140.2717 Y-42.3742 F15000.0
G1 Z11.9000 F8000.0
G1 X141.2004 Y-42.6395 F12000.0
G1 X142.0407 Y-42.5953
G1 X142.1292 Y-42.5069
G1 X141.4216 Y-40.3398
G1 Z0.0000 F8000.0
G0 X141.9081 Y-40.4282 F15000.0
G1 Z11.9000 F8000.0
G1 X142.0407 Y-40.5609 F12000.0
G1 Z0.0000 F8000.0
G0 X141.1167 Y-39.4714 F15000.0
G1 Z11.9000 F8000.0
G1 X141.1167 Y-24.8078 F12000.0
G1 Z0.0000 F8000.0
G0 X145.9771 Y-24.8078 F15000.0
G1 Z11.9000 F8000.0
G1 X145.9771 Y-44.3318 F12000.0
G1 Z0.0000 F8000.0
G0 X150.0922 Y-42.9133 F15000.0
G1 Z11.9000 F8000.0
G1 X149.0749 Y-40.3482 F12000.0
G1 Z0.0000 F8000.0
G0 X151.1094 Y-40.6135 F15000.0
G1 Z11.9000 F8000.0
G1 X151.9497 Y-43.1345 F12000.0
G1 X151.4190 Y-42.7806
G1 X150.8440 Y-42.2499
G1 X150.6671 Y-42.2057
G1 Z0.0000 F8000.0
G0 X150.5787 Y-41.9846 F15000.0
G1 Z11.9000 F8000.0
G1 X150.6229 Y-42.2499 F12000.0
G1 X150.3575 Y-43.2229
G1 X150.4017 Y-43.7094
G1 Z0.0000 F8000.0
G0 X152.3035 Y-42.2499 F15000.0
G1 Z11.9000 F8000.0
G1 X151.8170 Y-40.7904 F12000.0
G1 X152.3477 Y-40.4366
G1 X152.9669 Y-40.6578
G1 X153.2323 Y-41.3212
G1 Z0.0000 F8000.0
G0 X153.3649 Y-41.6750 F15000.0
G1 Z11.9000 F8000.0
G1 X153.5861 Y-42.6480 F12000.0
G1 X152.5246 Y-42.5153
G1 Z0.0000 F8000.0
G0 X153.9841 Y-41.8519 F15000.0
G1 Z11.9000 F8000.0
G1 X153.6745 Y-40.9231 F12000.0
G1 X153.6745 Y-40.5693
G1 X154.7360 Y-40.4366
G1 Z0.0000 F8000.0
G0 X155.4436 Y-40.7904 F15000.0
G1 Z11.9000 F8000.0
G1 X155.4436 Y-40.5693 F12000.0
G1 X156.5493 Y-40.4366
G1 Z0.0000 F8000.0
G0 X157.2127 Y-40.7904 F15000.0
G1 Z11.9000 F8000.0
G1 X157.7876 Y-40.4366 F12000.0
G1 X158.4068 Y-40.6578
G1 X159.0260 Y-42.6037
G1 X157.6992 Y-42.2057
G1 Z0.0000 F8000.0
G0 X157.5665 Y-41.8519 F15000.0
G1 Z11.9000 F8000.0
G1 X157.3454 Y-41.1442 F12000.0
G1 Z0.0000 F8000.0
G0 X157.3454 Y-42.6037 F15000.0
G1 Z11.9000 F8000.0
G1 X156.6820 Y-42.6037 F12000.0
G1 X155.9301 Y-42.2057
G1 Z0.0000 F8000.0
G0 X155.7974 Y-41.8519 F15000.0
G1 Z11.9000 F8000.0
G1 X155.5763 Y-41.1442 F12000.0
G1 Z0.0000 F8000.0
G0 X155.5321 Y-42.6037 F15000.0
G1 Z11.9000 F8000.0
G1 X154.5148 Y-42.5595 F12000.0
G1 X154.1168 Y-42.2057
G1 Z0.0000 F8000.0
G0 X145.9771 Y-39.4714 F15000.0
G1 Z11.9000 F8000.0
G1 X180.0000 Y-39.4714 F12000.0
G1 Z0.0000 F8000.0
G0 X176.8745 Y-40.4935 F15000.0
G1 Z11.9000 F8000.0
G1 X178.5109 Y-42.5280 F12000.0
G1 X178.2898 Y-42.7049
G1 X177.4052 Y-42.4395
G1 X176.9187 Y-41.2454
G1 Z0.0000 F8000.0
G0 X176.7418 Y-40.7589 F15000.0
G1 Z11.9000 F8000.0
G1 X176.7418 Y-40.6262 F12000.0
G1 Z0.0000 F8000.0
G0 X175.1150 Y-40.4704 F15000.0
G1 Z11.9000 F8000.0
G1 X175.7341 Y-40.5147 F12000.0
G1 X176.1764 Y-40.6916
G1 X176.7514 Y-42.6376
G1 X175.5572 Y-42.4164
G1 X174.9380 Y-40.7800
G1 X175.0265 Y-40.5147
G1 Z0.0000 F8000.0
G0 X174.1740 Y-40.3378 F15000.0
G1 Z11.9000 F8000.0
G1 X174.8374 Y-42.2838 F12000.0
G1 X173.9528 Y-42.6376
G1 X173.0241 Y-42.4607
G1 Z0.0000 F8000.0
G0 X172.8914 Y-42.1511 F15000.0
G1 Z11.9000 F8000.0
G1 X172.2280 Y-40.3378 F12000.0
G1 Z0.0000 F8000.0
G0 X171.7498 Y-40.6524 F15000.0
G1 Z11.9000 F8000.0
G1 X172.6343 Y-42.6868 F12000.0
G1 Z0.0000 F8000.0
G0 X171.6614 Y-42.6868 F15000.0
G1 Z11.9000 F8000.0
G1 X170.8210 Y-40.5197 F12000.0
G1 X169.9807 Y-40.5639
G1 X170.0692 Y-41.1389
G1 X170.6884 Y-42.6868
G1 Z0.0000 F8000.0
G0 X170.0362 Y-42.5858 F15000.0
G1 Z11.9000 F8000.0
G1 X168.8421 Y-42.4974 F12000.0
G1 Z0.0000 F8000.0
G0 X168.5767 Y-42.0993 F15000.0
G1 Z11.9000 F8000.0
G1 X168.3114 Y-41.2590 F12000.0
G1 Z0.0000 F8000.0
G0 X168.1787 Y-40.9052 F15000.0
G1 Z11.9000 F8000.0
G1 X169.2401 Y-40.4187 F12000.0
G1 Z0.0000 F8000.0
G0 X170.8210 Y-40.5197 F15000.0
G1 Z11.9000 F8000.0
G1 X171.6614 Y-40.5197 F12000.0
G1 Z0.0000 F8000.0
G0 X173.2010 Y-40.3378 F15000.0
G1 Z11.9000 F8000.0
G1 X173.8201 Y-42.0627 F12000.0
G1 Z0.0000 F8000.0
G0 X173.9528 Y-42.3722 F15000.0
G1 Z11.9000 F8000.0
G1 X173.9971 Y-42.5934 F12000.0
G1 Z0.0000 F8000.0
G0 X178.2455 Y-42.7491 F15000.0
G1 Z11.9000 F8000.0
G1 X177.9359 Y-43.5452 F12000.0
G1 X179.0858 Y-43.5452
G1 Z0.0000 F8000.0
G0 X174.1343 Y-34.5876 F15000.0
G1 Z11.9000 F8000.0
G1 X173.8689 Y-34.2338 F12000.0
G1 X172.4094 Y-30.1649
G1 Z0.0000 F8000.0
G0 X170.9487 Y-31.3590 F15000.0
G1 Z11.9000 F8000.0
G1 X170.8160 Y-31.2264 F12000.0
G1 Z0.0000 F8000.0
G0 X169.5776 Y-30.1649 F15000.0
G1 Z11.9000 F8000.0
G1 X171.0371 Y-34.2338 F12000.0
G1 X171.3025 Y-34.5876
G1 Z0.0000 F8000.0
G0 X170.9929 Y-34.2780 F15000.0
G1 Z11.9000 F8000.0
G1 X170.6833 Y-34.1896 F12000.0
G1 Z0.0000 F8000.0
G0 X169.9314 Y-33.7031 F15000.0
G1 Z11.9000 F8000.0
G1 X169.7545 Y-33.5262 F12000.0
G1 Z0.0000 F8000.0
G0 X171.4352 Y-32.9954 F15000.0
G1 Z11.9000 F8000.0
G1 X171.6563 Y-33.1281 F12000.0
G1 Z0.0000 F8000.0
G0 X172.5863 Y-33.5262 F15000.0
G1 Z11.9000 F8000.0
G1 X172.7632 Y-33.7031 F12000.0
G1 Z0.0000 F8000.0
G0 X173.5151 Y-34.1896 F15000.0
G1 Z11.9000 F8000.0
G1 X173.8247 Y-34.2780 F12000.0
G1 Z0.0000 F8000.0
G0 X166.4651 Y-40.4704 F15000.0
G1 Z11.9000 F8000.0
G1 X167.0842 Y-40.5147 F12000.0
G1 X167.5265 Y-40.6916
G1 X168.1015 Y-42.6376
G1 X166.9073 Y-42.4164
G1 X166.2882 Y-40.7800
G1 X166.3766 Y-40.5147
G1 Z0.0000 F8000.0
G0 X165.6138 Y-40.6135 F15000.0
G1 Z11.9000 F8000.0
G1 X166.4541 Y-43.1345 F12000.0
G1 X165.9234 Y-42.7806
G1 X165.3485 Y-42.2499
G1 X165.1716 Y-42.2057
G1 Z0.0000 F8000.0
G0 X165.0831 Y-41.9846 F15000.0
G1 Z11.9000 F8000.0
G1 X165.1273 Y-42.2499 F12000.0
G1 X164.8620 Y-43.2229
G1 X164.9062 Y-43.7094
G1 Z0.0000 F8000.0
G0 X164.5966 Y-42.9133 F15000.0
G1 Z11.9000 F8000.0
G1 X163.5794 Y-40.3482 F12000.0
G1 Z0.0000 F8000.0
G0 X162.5355 Y-44.3318 F15000.0
G1 Z11.9000 F8000.0
G1 X162.5355 Y-24.8078 F12000.0
G1 Z0.0000 F8000.0
G0 X161.4800 Y-23.1336 F15000.0
G1 Z11.9000 F8000.0
G1 X161.4358 Y-22.9124 F12000.0
G1 Z0.0000 F8000.0
G0 X161.3031 Y-22.6029 F15000.0
G1 Z11.9000 F8000.0
G1 X160.6839 Y-20.8780 F12000.0
G1 Z0.0000 F8000.0
G0 X159.7109 Y-20.8780 F15000.0
G1 Z11.9000 F8000.0
G1 X160.3743 Y-22.6913 F12000.0
G1 Z0.0000 F8000.0
G0 X160.5070 Y-23.0009 F15000.0
G1 Z11.9000 F8000.0
G1 X161.4358 Y-23.1778 F12000.0
G1 X162.3203 Y-22.8240
G1 X161.6569 Y-20.8780
G1 Z0.0000 F8000.0
G0 X162.5094 Y-21.0504 F15000.0
G1 Z11.9000 F8000.0
G1 X162.4210 Y-21.3157 F12000.0
G1 X163.0402 Y-22.9521
G1 X163.4382 Y-23.1733
G1 X164.1901 Y-22.9964
G1 X162.5979 Y-21.0062
G1 Z0.0000 F8000.0
G0 X164.9766 Y-23.1689 F15000.0
G1 Z11.9000 F8000.0
G1 X165.4631 Y-23.2131 F12000.0
G1 X165.9938 Y-22.9035
G1 X165.2862 Y-21.1344
G1 X164.3132 Y-21.0460
G1 X164.2247 Y-21.3113
G1 X165.1977 Y-23.9207
G1 Z0.0000 F8000.0
G0 X165.5515 Y-24.1419 F15000.0
G1 Z11.9000 F8000.0
G1 X165.7727 Y-24.0976 F12000.0
G1 Z0.0000 F8000.0
G0 X165.8611 Y-23.9207 F15000.0
G1 Z11.9000 F8000.0
G1 X165.5958 Y-23.5227 F12000.0
G1 Z0.0000 F8000.0
G0 X160.0420 Y-23.1260 F15000.0
G1 Z11.9000 F8000.0
G1 X158.8479 Y-23.0376 F12000.0
G1 Z0.0000 F8000.0
G0 X158.5825 Y-22.6395 F15000.0
G1 Z11.9000 F8000.0
G1 X158.3172 Y-21.7992 F12000.0
G1 Z0.0000 F8000.0
G0 X158.1845 Y-21.4454 F15000.0
G1 Z11.9000 F8000.0
G1 X159.2459 Y-20.9589 F12000.0
G1 Z0.0000 F8000.0
G0 X157.7535 Y-21.8560 F15000.0
G1 Z11.9000 F8000.0
G1 X157.5766 Y-21.4579 F12000.0
G1 X156.3824 Y-21.1041
G1 X156.4709 Y-21.6791
G1 X157.0901 Y-23.2270
G1 Z0.0000 F8000.0
G0 X156.4382 Y-23.3124 F15000.0
G1 Z11.9000 F8000.0
G1 X156.3940 Y-23.1797 F12000.0
G1 Z0.0000 F8000.0
G0 X156.5709 Y-23.6662 F15000.0
G1 Z11.9000 F8000.0
G1 X156.6593 Y-24.1527 F12000.0
G1 X156.0402 Y-24.1085
G1 Z0.0000 F8000.0
G0 X155.7306 Y-23.6662 F15000.0
G1 Z11.9000 F8000.0
G1 X155.6421 Y-23.5778 F12000.0
G1 Z0.0000 F8000.0
G0 X155.2441 Y-22.9586 F15000.0
G1 Z11.9000 F8000.0
G1 X154.9787 Y-22.6048 F12000.0
G1 Z0.0000 F8000.0
G0 X154.6691 Y-22.1183 F15000.0
G1 Z11.9000 F8000.0
G1 X153.9615 Y-21.0569 F12000.0
G1 Z0.0000 F8000.0
G0 X155.7748 Y-21.4549 F15000.0
G1 Z11.9000 F8000.0
G1 X155.8190 Y-21.5876 F12000.0
G1 Z0.0000 F8000.0
G0 X157.8861 Y-22.1656 F15000.0
G1 Z11.9000 F8000.0
G1 X158.3284 Y-23.2270 F12000.0
G1 Z0.0000 F8000.0
G0 X151.4142 Y-24.8078 F15000.0
G1 Z11.9000 F8000.0
G1 X151.4142 Y-19.9474 F12000.0
G1 Z0.0000 F8000.0
G0 X154.2623 Y-16.2840 F15000.0
G1 Z11.9000 F8000.0
G1 X150.8126 Y-13.3208 F12000.0
G1 X150.4146 Y-12.2152
G1 Z0.0000 F8000.0
G0 X150.1492 Y-11.5075 F15000.0
G1 Z11.9000 F8000.0
G1 X149.5300 Y-9.8712 F12000.0
G1 Z0.0000 F8000.0
G0 X148.3927 Y-10.0038 F15000.0
G1 Z11.9000 F8000.0
G1 X150.4714 Y-15.5322 F12000.0
G1 X150.5598 Y-16.2398
G1 X146.6679 Y-13.3208
G1 X146.2698 Y-12.2152
G1 Z0.0000 F8000.0
G0 X146.0045 Y-11.5075 F15000.0
G1 Z11.9000 F8000.0
G1 X145.3853 Y-9.8712 F12000.0
G1 Z0.0000 F8000.0
G0 X153.7968 Y-9.8577 F15000.0
G1 Z11.9000 F8000.0
G1 X155.8755 Y-10.2115 F12000.0
G1 Z0.0000 F8000.0
G0 X156.0966 Y-10.3884 F15000.0
G1 Z11.9000 F8000.0
G1 X156.5389 Y-11.0961 F12000.0
G1 X157.0254 Y-12.3344
G1 X157.0696 Y-12.8209
G1 X155.0352 Y-12.9536
G1 X154.7698 Y-13.1747
G1 X154.6371 Y-13.5728
G1 X155.4774 Y-16.1821
G1 Z0.0000 F8000.0
G0 X158.0868 Y-15.2534 F15000.0
G1 Z11.9000 F8000.0
G1 X158.1310 Y-15.3861 F12000.0
G1 Z0.0000 F8000.0
G0 X158.2637 Y-15.7399 F15000.0
G1 Z11.9000 F8000.0
G1 X158.3079 Y-15.8726 F12000.0
G1 Z0.0000 F8000.0
G0 X157.9541 Y-14.8996 F15000.0
G1 Z11.9000 F8000.0
G1 X157.6003 Y-13.9266 F12000.0
G1 Z0.0000 F8000.0
G0 X157.4676 Y-13.5728 F15000.0
G1 Z11.9000 F8000.0
G1 X157.4234 Y-13.4401 F12000.0
G1 Z0.0000 F8000.0
G0 X157.2907 Y-13.0863 F15000.0
G1 Z11.9000 F8000.0
G1 X157.2465 Y-12.9536 F12000.0
G1 Z0.0000 F8000.0
G0 X158.1634 Y-12.2152 F15000.0
G1 Z11.9000 F8000.0
G1 X158.5615 Y-13.3208 F12000.0
G1 X162.4534 Y-16.2398
G1 X162.3650 Y-15.5322
G1 X160.2863 Y-10.0038
G1 Z0.0000 F8000.0
G0 X162.1264 Y-10.0923 F15000.0
G1 Z11.9000 F8000.0
G1 X161.9495 Y-10.3134 F12000.0
G1 X161.8610 Y-10.6672
G1 X163.3647 Y-15.0457
G1 X163.6301 Y-15.4437
G1 Z0.0000 F8000.0
G0 X164.0281 Y-15.8418 F15000.0
G1 Z11.9000 F8000.0
G1 X166.1510 Y-16.2840 F12000.0
G1 Z0.0000 F8000.0
G0 X163.8955 Y-9.9596 F15000.0
G1 Z11.9000 F8000.0
G1 X162.3475 Y-9.9596 F12000.0
G1 Z0.0000 F8000.0
G0 X157.8981 Y-11.5075 F15000.0
G1 Z11.9000 F8000.0
G1 X157.2789 Y-9.8712 F12000.0
G1 Z0.0000 F8000.0
G0 X174.2446 Y-21.0531 F15000.0
G1 Z11.9000 F8000.0
G1 X174.4215 Y-21.3627 F12000.0
G1 X175.2618 Y-23.7067
G1 Z0.0000 F8000.0
G0 X174.8195 Y-23.7067 F15000.0
G1 Z11.9000 F8000.0
G1 X174.5984 Y-23.5740 F12000.0
G1 Z0.0000 F8000.0
G0 X145.9771 Y-39.4714 F15000.0
G1 Z11.9000 F8000.0
G1 X131.3959 Y-39.4714 F12000.0
G1 Z0.0000 F8000.0
G0 X131.3959 Y-44.3318 F15000.0
G1 Z11.9000 F8000.0
G1 X131.3959 Y-5.3662 F12000.0
G1 Z0.0000 F8000.0
G0 X105.6880 Y-10.5536 F15000.0
G1 Z11.9000 F8000.0
G1 X105.9976 Y-11.7919 F12000.0
G1 X105.7764 Y-12.0131
G1 X103.9189 Y-12.1458
G1 X104.5823 Y-14.2244
G1 Z0.0000 F8000.0
G0 X103.2060 Y-13.5769 F15000.0
G1 Z11.9000 F8000.0
G1 X103.2944 Y-13.7980 F12000.0
G1 X103.2944 Y-14.2845
G1 X101.9234 Y-14.1076
G1 Z0.0000 F8000.0
G0 X103.0733 Y-13.2231 F15000.0
G1 Z11.9000 F8000.0
G1 X103.0291 Y-13.0904 F12000.0
G1 Z0.0000 F8000.0
G0 X102.8964 Y-12.7366 F15000.0
G1 Z11.9000 F8000.0
G1 X101.8792 Y-9.9945 F12000.0
G1 Z0.0000 F8000.0
G0 X103.2113 Y-10.5094 F15000.0
G1 Z11.9000 F8000.0
G1 X103.0786 Y-9.8902 F12000.0
G1 X105.2457 Y-10.0229
G1 Z0.0000 F8000.0
G0 X103.3440 Y-10.8632 F15000.0
G1 Z11.9000 F8000.0
G1 X103.6536 Y-11.7477 F12000.0
G1 Z0.0000 F8000.0
G0 X97.7123 Y-14.1519 F15000.0
G1 Z11.9000 F8000.0
G1 X99.7909 Y-14.2403 F12000.0
G1 X98.4641 Y-10.1714
G1 X97.9334 Y-9.9503
G1 X96.2970 Y-9.9061
G1 Z0.0000 F8000.0
G0 X96.0759 Y-10.1272 F15000.0
G1 Z11.9000 F8000.0
G1 X97.1373 Y-13.5327 F12000.0
G1 Z0.0000 F8000.0
G0 X97.3142 Y-13.8423 F15000.0
G1 Z11.9000 F8000.0
G1 X97.4027 Y-13.9307 F12000.0
G1 Z0.0000 F8000.0
G0 X95.5625 Y-12.3828 F15000.0
G1 Z11.9000 F8000.0
G1 X96.0048 Y-13.9750 F12000.0
G1 X95.7836 Y-14.1961
G1 X94.1472 Y-14.2845
G1 X91.4494 Y-11.8521
G1 X91.4052 Y-11.7194
G1 Z0.0000 F8000.0
G0 X91.1398 Y-11.0118 F15000.0
G1 Z11.9000 F8000.0
G1 X90.6975 Y-9.8619 F12000.0
G1 Z0.0000 F8000.0
G0 X89.5678 Y-9.9596 F15000.0
G1 Z11.9000 F8000.0
G1 X88.0199 Y-9.9596 F12000.0
G1 Z0.0000 F8000.0
G0 X87.7988 Y-10.0923 F15000.0
G1 Z11.9000 F8000.0
G1 X87.6218 Y-10.3134 F12000.0
G1 X87.5334 Y-10.6672
G1 X89.0371 Y-15.0457
G1 X89.3025 Y-15.4437
G1 Z0.0000 F8000.0
G0 X89.7005 Y-15.8418 F15000.0
G1 Z11.9000 F8000.0
G1 X91.8234 Y-16.2840 F12000.0
G1 Z0.0000 F8000.0
G0 X94.1915 Y-14.2403 F15000.0
G1 Z11.9000 F8000.0
G1 X93.2185 Y-11.3656 F12000.0
G1 Z0.0000 F8000.0
G0 X92.9531 Y-10.6579 F15000.0
G1 Z11.9000 F8000.0
G1 X92.6435 Y-9.8619 F12000.0
G1 Z0.0000 F8000.0
G0 X94.6780 Y-10.0388 F15000.0
G1 Z11.9000 F8000.0
G1 X94.7222 Y-10.1714 F12000.0
G1 Z0.0000 F8000.0
G0 X94.8549 Y-10.5253 F15000.0
G1 Z11.9000 F8000.0
G1 X95.4298 Y-12.0290 F12000.0
G1 Z0.0000 F8000.0
G0 X95.8072 Y-28.2102 F15000.0
G1 Z11.9000 F8000.0
G1 X98.0628 Y-28.2102 F12000.0
G1 Z0.0000 F8000.0
G0 X98.5050 Y-28.4756 F15000.0
G1 Z11.9000 F8000.0
G1 X98.7704 Y-28.6967 F12000.0
G1 Z0.0000 F8000.0
G0 X98.9473 Y-29.0063 F15000.0
G1 Z11.9000 F8000.0
G1 X99.0800 Y-29.3159 F12000.0
G1 Z0.0000 F8000.0
G0 X99.2127 Y-29.6255 F15000.0
G1 Z11.9000 F8000.0
G1 X99.7876 Y-31.3061 F12000.0
G1 Z0.0000 F8000.0
G0 X100.0972 Y-32.1464 F15000.0
G1 Z11.9000 F8000.0
G1 X100.5837 Y-33.9155 F12000.0
G1 X100.5395 Y-34.0039
G1 Z0.0000 F8000.0
G0 X100.2741 Y-34.2693 F15000.0
G1 Z11.9000 F8000.0
G1 X99.5222 Y-34.4020 F12000.0
G1 X97.6205 Y-34.0482
G1 X97.3551 Y-33.7828
G1 X96.8244 Y-32.6771
G1 Z0.0000 F8000.0
G0 X96.4706 Y-31.7041 F15000.0
G1 Z11.9000 F8000.0
G1 X95.4976 Y-28.5198 F12000.0
G1 Z0.0000 F8000.0
G0 X93.3940 Y-28.1860 F15000.0
G1 Z11.9000 F8000.0
G1 X92.9959 Y-30.7511 F12000.0
G1 Z0.0000 F8000.0
G0 X92.7748 Y-31.7683 F15000.0
G1 Z11.9000 F8000.0
G1 X92.3768 Y-33.8912 F12000.0
G1 X92.4210 Y-34.3335
G1 Z0.0000 F8000.0
G0 X90.6400 Y-34.4462 F15000.0
G1 Z11.9000 F8000.0
G1 X90.5073 Y-34.3135 F12000.0
G1 X90.3304 Y-33.5174
G1 X88.6056 Y-28.5640
G1 X85.5097 Y-28.2102
G1 Z0.0000 F8000.0
G0 X85.2001 Y-28.5198 F15000.0
G1 Z11.9000 F8000.0
G1 X86.1731 Y-31.7041 F12000.0
G1 Z0.0000 F8000.0
G0 X86.5269 Y-32.6771 F15000.0
G1 Z11.9000 F8000.0
G1 X87.0576 Y-33.7828 F12000.0
G1 X87.3230 Y-34.0482
G1 X90.4631 Y-34.3578
G1 Z0.0000 F8000.0
G0 X94.7208 Y-33.1836 F15000.0
G1 Z11.9000 F8000.0
G1 X93.6593 Y-32.0337 F12000.0
G1 X92.9075 Y-31.5914
G1 X92.8633 Y-30.8396
G1 X92.4210 Y-30.6627
G1 X90.7846 Y-28.9820
G1 Z0.0000 F8000.0
G0 X90.3423 Y-28.4955 F15000.0
G1 Z11.9000 F8000.0
G1 X90.2096 Y-28.3629 F12000.0
G1 Z0.0000 F8000.0
G0 X88.9152 Y-28.1660 F15000.0
G1 Z11.9000 F8000.0
G1 X88.8267 Y-28.2987 F12000.0
G1 Z0.0000 F8000.0
G0 X83.2840 Y-28.2949 F15000.0
G1 Z11.9000 F8000.0
G1 X85.5396 Y-34.5308 F12000.0
G1 Z0.0000 F8000.0
G0 X85.6723 Y-34.8847 F15000.0
G1 Z11.9000 F8000.0
G1 X85.7165 Y-35.0173 F12000.0
G1 Z0.0000 F8000.0
G0 X85.8492 Y-35.3712 F15000.0
G1 Z11.9000 F8000.0
G1 X85.9819 Y-36.1230 F12000.0
G1 Z0.0000 F8000.0
G0 X86.2030 Y-36.5653 F15000.0
G1 Z11.9000 F8000.0
G1 X85.9376 Y-36.1672 F12000.0
G1 X85.4069 Y-35.9903
G1 Z0.0000 F8000.0
G0 X84.5666 Y-35.1500 F15000.0
G1 Z11.9000 F8000.0
G1 X82.0457 Y-32.9387 F12000.0
G1 X81.9572 Y-32.6733
G1 Z0.0000 F8000.0
G0 X81.6476 Y-34.3097 F15000.0
G1 Z11.9000 F8000.0
G1 X80.9400 Y-36.2999 F12000.0
G1 X80.9842 Y-37.0076
G1 Z0.0000 F8000.0
G0 X80.6304 Y-36.1230 F15000.0
G1 Z11.9000 F8000.0
G1 X80.3208 Y-35.4596 F12000.0
G1 X79.4363 Y-33.0271
G1 Z0.0000 F8000.0
G0 X79.3036 Y-32.6733 F15000.0
G1 Z11.9000 F8000.0
G1 X79.2594 Y-32.5406 F12000.0
G1 Z0.0000 F8000.0
G0 X78.9940 Y-31.8330 F15000.0
G1 Z11.9000 F8000.0
G1 X78.9498 Y-31.7003 F12000.0
G1 Z0.0000 F8000.0
G0 X78.6844 Y-30.9927 F15000.0
G1 Z11.9000 F8000.0
G1 X78.6402 Y-30.8600 F12000.0
G1 Z0.0000 F8000.0
G0 X78.5075 Y-30.5062 F15000.0
G1 Z11.9000 F8000.0
G1 X77.6672 Y-28.2064 F12000.0
G1 Z0.0000 F8000.0
G0 X86.3799 Y-36.8749 F15000.0
G1 Z11.9000 F8000.0
G1 X86.6453 Y-37.2729 F12000.0
G1 Z0.0000 F8000.0
G0 X94.9419 Y-33.4489 F15000.0
G1 Z11.9000 F8000.0
G1 X95.1631 Y-33.6701 F12000.0
G1 Z0.0000 F8000.0
G0 X100.6512 Y-28.5064 F15000.0
G1 Z11.9000 F8000.0
G1 X102.4203 Y-33.9020 F12000.0
G1 X102.6415 Y-34.2116
G1 X103.1279 Y-35.8922
G1 X103.5260 Y-36.5999
G1 Z0.0000 F8000.0
G0 X103.7471 Y-36.7768 F15000.0
G1 Z11.9000 F8000.0
G1 X103.8356 Y-36.8652 F12000.0
G1 X104.7643 Y-37.1306
G1 X105.1182 Y-36.9979
G1 Z0.0000 F8000.0
G0 X105.3393 Y-36.7326 F15000.0
G1 Z11.9000 F8000.0
G1 X105.2951 Y-36.0692 F12000.0
G1 Z0.0000 F8000.0
G0 X105.1624 Y-35.8038 F15000.0
G1 Z11.9000 F8000.0
G1 X104.0125 Y-34.7423 F12000.0
G1 X103.8798 Y-34.4770
G1 X102.7299 Y-34.3001
G1 Z0.0000 F8000.0
G0 X103.9240 Y-34.4770 F15000.0
G1 Z11.9000 F8000.0
G1 X105.4277 Y-34.2559 F12000.0
G1 X105.7373 Y-33.9020
G1 X105.1624 Y-31.9118
G1 Z0.0000 F8000.0
G0 X105.0297 Y-31.5580 F15000.0
G1 Z11.9000 F8000.0
G1 X104.3663 Y-29.6563 F12000.0
G1 Z0.0000 F8000.0
G0 X104.2336 Y-29.3467 F15000.0
G1 Z11.9000 F8000.0
G1 X104.1009 Y-29.0371 F12000.0
G1 Z0.0000 F8000.0
G0 X103.9240 Y-28.7275 F15000.0
G1 Z11.9000 F8000.0
G1 X103.7913 Y-28.5948 F12000.0
G1 Z0.0000 F8000.0
G0 X103.2164 Y-28.1968 F15000.0
G1 Z11.9000 F8000.0
G1 X100.9608 Y-28.1968 F12000.0
G1 Z0.0000 F8000.0
G0 X106.1047 Y-29.8024 F15000.0
G1 Z11.9000 F8000.0
G1 X105.7951 Y-28.6083 F12000.0
G1 X108.4929 Y-28.1218
G1 X108.9352 Y-28.2544
G1 X110.1293 Y-31.4388
G1 Z0.0000 F8000.0
G0 X111.5511 Y-30.6869 F15000.0
G1 Z11.9000 F8000.0
G1 X111.8607 Y-31.0850 F12000.0
G1 X112.3030 Y-32.7656
G1 Z0.0000 F8000.0
G0 X112.6126 Y-33.6059 F15000.0
G1 Z11.9000 F8000.0
G1 X112.8780 Y-34.3135 F12000.0
G1 Z0.0000 F8000.0
G0 X111.1908 Y-34.3135 F15000.0
G1 Z11.9000 F8000.0
G1 X110.9254 Y-33.6059 F12000.0
G1 Z0.0000 F8000.0
G0 X110.7927 Y-33.2521 F15000.0
G1 Z11.9000 F8000.0
G1 X110.7485 Y-33.1194 F12000.0
G1 Z0.0000 F8000.0
G0 X111.9050 Y-31.1292 F15000.0
G1 Z11.9000 F8000.0
G1 X113.1433 Y-31.5272 F12000.0
G1 X113.6298 Y-32.1906
G1 X116.2392 Y-34.2251
G1 Z0.0000 F8000.0
G0 X113.2318 Y-31.3061 F15000.0
G1 Z11.9000 F8000.0
G1 X113.9394 Y-28.7409 F12000.0
G1 Z0.0000 F8000.0
G0 X111.1973 Y-29.7582 F15000.0
G1 Z11.9000 F8000.0
G1 X111.4185 Y-30.3773 F12000.0
G1 Z0.0000 F8000.0
G0 X111.0647 Y-29.4043 F15000.0
G1 Z11.9000 F8000.0
G1 X111.0204 Y-29.2717 F12000.0
G1 Z0.0000 F8000.0
G0 X106.3700 Y-30.5100 F15000.0
G1 Z11.9000 F8000.0
G1 X107.3430 Y-33.2521 F12000.0
G1 Z0.0000 F8000.0
G0 X107.6084 Y-33.9597 F15000.0
G1 Z11.9000 F8000.0
G1 X107.7853 Y-34.3578 F12000.0
G1 Z0.0000 F8000.0
G0 X107.2760 Y-48.7773 F15000.0
G1 Z11.9000 F8000.0
G1 X107.4087 Y-49.0869 F12000.0
G1 Z0.0000 F8000.0
G0 X107.5856 Y-49.5291 F15000.0
G1 Z11.9000 F8000.0
G1 X108.1606 Y-51.0328 F12000.0
G1 Z0.0000 F8000.0
G0 X108.2933 Y-51.3424 F15000.0
G1 Z11.9000 F8000.0
G1 X108.4259 Y-51.5636 F12000.0
G1 Z0.0000 F8000.0
G0 X109.0893 Y-52.0058 F15000.0
G1 Z11.9000 F8000.0
G1 X108.5586 Y-51.8289 F12000.0
G1 X109.6201 Y-55.1017
G1 Z0.0000 F8000.0
G0 X110.7700 Y-53.5096 F15000.0
G1 Z11.9000 F8000.0
G1 X110.6373 Y-53.3769 F12000.0
G1 Z0.0000 F8000.0
G0 X110.3719 Y-53.1557 F15000.0
G1 Z11.9000 F8000.0
G1 X110.0181 Y-52.8019 F12000.0
G1 X109.8412 Y-52.4039
G1 X109.3105 Y-52.1827
G1 Z0.0000 F8000.0
G0 X109.8854 Y-52.3597 F15000.0
G1 Z11.9000 F8000.0
G1 X110.1950 Y-48.9542 F12000.0
G1 Z0.0000 F8000.0
G0 X111.4208 Y-48.7773 F15000.0
G1 Z11.9000 F8000.0
G1 X111.7304 Y-49.5734 F12000.0
G1 Z0.0000 F8000.0
G0 X111.9515 Y-50.1484 F15000.0
G1 Z11.9000 F8000.0
G1 X113.7648 Y-55.1018 F12000.0
G1 Z0.0000 F8000.0
G0 X112.4948 Y-55.0575 F15000.0
G1 Z11.9000 F8000.0
G1 X112.3621 Y-54.9248 F12000.0
G1 Z0.0000 F8000.0
G0 X112.0525 Y-54.6595 F15000.0
G1 Z11.9000 F8000.0
G1 X111.9199 Y-54.5268 F12000.0
G1 Z0.0000 F8000.0
G0 X111.6545 Y-54.3056 F15000.0
G1 Z11.9000 F8000.0
G1 X111.4776 Y-54.1287 F12000.0
G1 Z0.0000 F8000.0
G0 X111.2122 Y-53.9076 F15000.0
G1 Z11.9000 F8000.0
G1 X111.0796 Y-53.7749 F12000.0
G1 Z0.0000 F8000.0
G0 X112.8803 Y-52.2270 F15000.0
G1 Z11.9000 F8000.0
G1 X115.4897 Y-52.2270 F12000.0
G1 X114.3398 Y-48.7773
G1 Z0.0000 F8000.0
G0 X115.5655 Y-48.7908 F15000.0
G1 Z11.9000 F8000.0
G1 X116.1846 Y-50.4272 F12000.0
G1 Z0.0000 F8000.0
G0 X116.4500 Y-51.1348 F15000.0
G1 Z11.9000 F8000.0
G1 X116.8480 Y-52.2405 F12000.0
G1 X120.2977 Y-55.2037
G1 Z0.0000 F8000.0
G0 X122.2357 Y-54.0538 F15000.0
G1 Z11.9000 F8000.0
G1 X121.8819 Y-53.2134 F12000.0
G1 Z0.0000 F8000.0
G0 X121.7492 Y-52.8596 F15000.0
G1 Z11.9000 F8000.0
G1 X121.7050 Y-52.7270 F12000.0
G1 Z0.0000 F8000.0
G0 X121.5723 Y-52.3731 F15000.0
G1 Z11.9000 F8000.0
G1 X121.4838 Y-52.1078 F12000.0
G1 Z0.0000 F8000.0
G0 X121.3511 Y-51.7540 F15000.0
G1 Z11.9000 F8000.0
G1 X121.2627 Y-51.4886 F12000.0
G1 Z0.0000 F8000.0
G0 X121.1300 Y-51.1348 F15000.0
G1 Z11.9000 F8000.0
G1 X121.0858 Y-51.0021 F12000.0
G1 Z0.0000 F8000.0
G0 X120.9531 Y-50.6483 F15000.0
G1 Z11.9000 F8000.0
G1 X120.7762 Y-50.1618 F12000.0
G1 X120.8204 Y-49.1446
G1 Z0.0000 F8000.0
G0 X121.1300 Y-48.8792 F15000.0
G1 Z11.9000 F8000.0
G1 X122.3684 Y-48.8350 F12000.0
G1 X122.6337 Y-48.9234
G1 Z0.0000 F8000.0
G0 X122.9875 Y-49.1003 F15000.0
G1 Z11.9000 F8000.0
G1 X123.4740 Y-49.5426 F12000.0
G1 Z0.0000 F8000.0
G0 X123.6952 Y-49.9407 F15000.0
G1 Z11.9000 F8000.0
G1 X123.9605 Y-50.6483 F12000.0
G1 Z0.0000 F8000.0
G0 X124.0932 Y-51.0021 F15000.0
G1 Z11.9000 F8000.0
G1 X124.1374 Y-51.1348 F12000.0
G1 Z0.0000 F8000.0
G0 X124.2701 Y-51.4886 F15000.0
G1 Z11.9000 F8000.0
G1 X124.3586 Y-51.7540 F12000.0
G1 Z0.0000 F8000.0
G0 X124.4912 Y-52.1078 F15000.0
G1 Z11.9000 F8000.0
G1 X124.5797 Y-52.3731 F12000.0
G1 Z0.0000 F8000.0
G0 X124.7124 Y-52.7270 F15000.0
G1 Z11.9000 F8000.0
G1 X124.7566 Y-52.8596 F12000.0
G1 Z0.0000 F8000.0
G0 X124.8893 Y-53.2134 F15000.0
G1 Z11.9000 F8000.0
G1 X125.1104 Y-53.8768 F12000.0
G1 X125.1546 Y-54.5403
G1 X125.0662 Y-54.7614
G1 Z0.0000 F8000.0
G0 X124.8893 Y-54.9383 F15000.0
G1 Z11.9000 F8000.0
G1 X124.2701 Y-55.1594 F12000.0
G1 X123.0318 Y-54.8941
G1 X122.8991 Y-54.8056
G1 Z0.0000 F8000.0
G0 X122.6337 Y-54.5845 F15000.0
G1 Z11.9000 F8000.0
G1 X122.4126 Y-54.3633 F12000.0
G1 Z0.0000 F8000.0
G0 X126.2158 Y-53.7024 F15000.0
G1 Z11.9000 F8000.0
G1 X127.3657 Y-54.4985 F12000.0
G1 X128.0291 Y-54.7638
G1 X128.2945 Y-55.1619
G1 Z0.0000 F8000.0
G0 X127.9407 Y-54.6311 F15000.0
G1 Z11.9000 F8000.0
G1 X127.8522 Y-54.1004 F12000.0
G1 Z0.0000 F8000.0
G0 X127.7195 Y-53.7466 F15000.0
G1 Z11.9000 F8000.0
G1 X127.6753 Y-53.6139 F12000.0
G1 Z0.0000 F8000.0
G0 X127.5426 Y-53.2601 F15000.0
G1 Z11.9000 F8000.0
G1 X127.1004 Y-52.0218 F12000.0
G1 Z0.0000 F8000.0
G0 X126.9677 Y-51.6680 F15000.0
G1 Z11.9000 F8000.0
G1 X126.9235 Y-51.5353 F12000.0
G1 Z0.0000 F8000.0
G0 X126.7908 Y-51.1815 F15000.0
G1 Z11.9000 F8000.0
G1 X125.9505 Y-48.9259 F12000.0
G1 Z0.0000 F8000.0
G0 X128.7368 Y-49.1470 F15000.0
G1 Z11.9000 F8000.0
G1 X128.6925 Y-50.1642 F12000.0
G1 Z0.0000 F8000.0
G0 X129.0463 Y-51.0930 F15000.0
G1 Z11.9000 F8000.0
G1 X129.0906 Y-51.2257 F12000.0
G1 Z0.0000 F8000.0
G0 X129.6213 Y-52.6409 F15000.0
G1 Z11.9000 F8000.0
G1 X129.6655 Y-52.7736 F12000.0
G1 Z0.0000 F8000.0
G0 X130.0193 Y-53.7024 F15000.0
G1 Z11.9000 F8000.0
G1 X130.3289 Y-54.3216 F12000.0
G1 Z0.0000 F8000.0
G0 X130.5943 Y-54.5869 F15000.0
G1 Z11.9000 F8000.0
G1 X130.8154 Y-54.8081 F12000.0
G1 Z0.0000 F8000.0
G0 X131.1692 Y-54.9850 F15000.0
G1 Z11.9000 F8000.0
G1 X131.3904 Y-55.0734 F12000.0
G1 X132.9825 Y-54.8081
G1 X133.0710 Y-53.9677
G1 X132.8056 Y-53.2159
G1 Z0.0000 F8000.0
G0 X132.6729 Y-52.8621 F15000.0
G1 Z11.9000 F8000.0
G1 X132.6287 Y-52.7294 F12000.0
G1 Z0.0000 F8000.0
G0 X132.4960 Y-52.3756 F15000.0
G1 Z11.9000 F8000.0
G1 X132.4076 Y-52.1102 F12000.0
G1 Z0.0000 F8000.0
G0 X132.2749 Y-51.7564 F15000.0
G1 Z11.9000 F8000.0
G1 X132.1865 Y-51.4910 F12000.0
G1 Z0.0000 F8000.0
G0 X132.0538 Y-51.1372 F15000.0
G1 Z11.9000 F8000.0
G1 X132.0095 Y-51.0045 F12000.0
G1 Z0.0000 F8000.0
G0 X131.8769 Y-50.6507 F15000.0
G1 Z11.9000 F8000.0
G1 X131.6115 Y-49.9431 F12000.0
G1 Z0.0000 F8000.0
G0 X131.3904 Y-49.5451 F15000.0
G1 Z11.9000 F8000.0
G1 X131.1250 Y-49.2797 F12000.0
G1 Z0.0000 F8000.0
G0 X130.5943 Y-48.9259 F15000.0
G1 Z11.9000 F8000.0
G1 X130.3289 Y-48.8374 F12000.0
G1 X129.0463 Y-48.8817
G1 Z0.0000 F8000.0
G0 X133.8795 Y-48.9259 F15000.0
G1 Z11.9000 F8000.0
G1 X134.7198 Y-51.1815 F12000.0
G1 Z0.0000 F8000.0
G0 X134.8525 Y-51.5353 F15000.0
G1 Z11.9000 F8000.0
G1 X134.8967 Y-51.6680 F12000.0
G1 Z0.0000 F8000.0
G0 X135.0294 Y-52.0218 F15000.0
G1 Z11.9000 F8000.0
G1 X135.4717 Y-53.2601 F12000.0
G1 Z0.0000 F8000.0
G0 X135.6044 Y-53.6139 F15000.0
G1 Z11.9000 F8000.0
G1 X135.6486 Y-53.7466 F12000.0
G1 Z0.0000 F8000.0
G0 X135.7813 Y-54.1004 F15000.0
G1 Z11.9000 F8000.0
G1 X135.8697 Y-54.6311 F12000.0
G1 Z0.0000 F8000.0
G0 X136.2235 Y-55.1619 F15000.0
G1 Z11.9000 F8000.0
G1 X135.9582 Y-54.7638 F12000.0
G1 X135.2948 Y-54.4985
G1 X134.1449 Y-53.7024
G1 Z0.0000 F8000.0
G0 X137.3969 Y-41.0474 F15000.0
G1 Z11.9000 F8000.0
G1 X137.3527 Y-40.9147 F12000.0
G1 Z0.0000 F8000.0
G0 X139.4756 Y-40.3398 F15000.0
G1 Z11.9000 F8000.0
G1 X140.1390 Y-42.0646 F12000.0
G1 Z0.0000 F8000.0
G0 X141.0677 Y-42.0646 F15000.0
G1 Z11.9000 F8000.0
G1 X140.4486 Y-40.3398 F12000.0
G1 Z0.0000 F8000.0
G0 X141.2004 Y-42.3742 F15000.0
G1 Z11.9000 F8000.0
G1 X141.2446 Y-42.5953 F12000.0
G1 Z0.0000 F8000.0
G0 X119.2410 Y-48.9165 F15000.0
G1 Z11.9000 F8000.0
G1 X119.0464 Y-48.9165 F12000.0
G1 Z0.0000 F8000.0
G0 X115.6223 Y-52.2712 F15000.0
G1 Z11.9000 F8000.0
G1 X116.4626 Y-54.4384 F12000.0
G1 Z0.0000 F8000.0
G0 X63.2677 Y-15.0870 F15000.0
G1 Z11.9000 F8000.0
G1 X0.0000 Y-15.0870 F12000.0
G1 Z0.0000 F8000.0
G0 X2.1546 Y-14.4642 F15000.0
G1 Z11.9000 F8000.0
G1 X1.6681 Y-13.2701 F12000.0
G1 X1.6681 Y-13.0048
G1 Z0.0000 F8000.0
G0 X3.0392 Y-13.1817 F15000.0
G1 Z11.9000 F8000.0
G1 X3.5257 Y-14.2873 F12000.0
G1 Z0.0000 F8000.0
G0 X4.4592 Y-13.4971 F15000.0
G1 Z11.9000 F8000.0
G1 X4.0611 Y-12.6126 F12000.0
G1 X4.0611 Y-12.4357
G1 X4.3707 Y-12.4357
G1 X4.5476 Y-12.6568
G1 Z0.0000 F8000.0
G0 X4.4149 Y-12.3914 F15000.0
G1 Z11.9000 F8000.0
G1 X4.6361 Y-11.3742 F12000.0
G1 Z0.0000 F8000.0
G0 X5.5172 Y-11.3205 F15000.0
G1 Z11.9000 F8000.0
G1 X5.4288 Y-11.5858 F12000.0
G1 X6.0479 Y-13.2222
G1 X6.4460 Y-13.4434
G1 X7.1978 Y-13.2665
G1 X5.6057 Y-11.2763
G1 Z0.0000 F8000.0
G0 X4.8130 Y-12.8337 F15000.0
G1 Z11.9000 F8000.0
G1 X5.0341 Y-13.0106 F12000.0
G1 Z0.0000 F8000.0
G0 X5.2995 Y-13.1875 F15000.0
G1 Z11.9000 F8000.0
G1 X5.3879 Y-13.2760 F12000.0
G1 Z0.0000 F8000.0
G0 X3.6631 Y-11.6838 F15000.0
G1 Z11.9000 F8000.0
G1 X3.4419 Y-11.1973 F12000.0
G1 Z0.0000 F8000.0
G0 X2.8887 Y-11.3372 F15000.0
G1 Z11.9000 F8000.0
G1 X2.8003 Y-11.2487 F12000.0
G1 Z0.0000 F8000.0
G0 X2.2873 Y-11.1472 F15000.0
G1 Z11.9000 F8000.0
G1 X2.8623 Y-12.7394 F12000.0
G1 X2.8180 Y-12.9605
G1 X1.6681 Y-12.9605
G1 X1.4912 Y-12.7836
G1 X0.8278 Y-11.1472
G1 Z0.0000 F8000.0
G0 X0.0000 Y-10.2266 F15000.0
G1 Z11.9000 F8000.0
G1 X63.2677 Y-10.2266 F12000.0
G1 Z0.0000 F8000.0
G0 X38.9657 Y-5.3662 F15000.0
G1 Z11.9000 F8000.0
G1 X38.9657 Y-58.9131 F12000.0
G1 Z0.0000 F8000.0
G0 X138.2898 Y-118.4737 F15000.0
G1 Z11.9000 F8000.0
G1 X139.1655 Y-118.4737 F12000.0
G1 Z0.0000 F8000.0
G0 X138.8772 Y-119.0503 F15000.0
G1 Z11.9000 F8000.0
G1 X138.0015 Y-119.0503 F12000.0
G1 Z0.0000 F8000.0
G0 X68.1282 Y-271.0412 F15000.0
G1 Z11.9000 F8000.0
G1 X0.0000 Y-271.0412 F12000.0
G1 Z0.0000 F8000.0
G0 X19.5762 Y-274.4601 F15000.0
G1 Z11.9000 F8000.0
G1 X19.7089 Y-274.6370 F12000.0
G1 X19.8416 Y-275.2119
G1 X21.7876 Y-280.4749
G1 Z0.0000 F8000.0
G0 X24.1203 Y-279.5682 F15000.0
G1 Z11.9000 F8000.0
G1 X23.7665 Y-278.7279 F12000.0
G1 Z0.0000 F8000.0
G0 X23.6338 Y-278.3740 F15000.0
G1 Z11.9000 F8000.0
G1 X23.5896 Y-278.2414 F12000.0
G1 Z0.0000 F8000.0
G0 X23.4569 Y-277.8875 F15000.0
G1 Z11.9000 F8000.0
G1 X23.3684 Y-277.6222 F12000.0
G1 Z0.0000 F8000.0
G0 X23.2357 Y-277.2684 F15000.0
G1 Z11.9000 F8000.0
G1 X23.1473 Y-277.0030 F12000.0
G1 Z0.0000 F8000.0
G0 X23.0146 Y-276.6492 F15000.0
G1 Z11.9000 F8000.0
G1 X22.9704 Y-276.5165 F12000.0
G1 Z0.0000 F8000.0
G0 X22.8377 Y-276.1627 F15000.0
G1 Z11.9000 F8000.0
G1 X22.6608 Y-275.6762 F12000.0
G1 X22.6166 Y-274.7474
G1 X22.7492 Y-274.5705
G1 X23.0588 Y-274.3936
G1 X24.5625 Y-274.4379
G1 Z0.0000 F8000.0
G0 X25.0933 Y-274.7917 F15000.0
G1 Z11.9000 F8000.0
G1 X25.3586 Y-275.0570 F12000.0
G1 Z0.0000 F8000.0
G0 X25.5798 Y-275.4551 F15000.0
G1 Z11.9000 F8000.0
G1 X25.8451 Y-276.1627 F12000.0
G1 Z0.0000 F8000.0
G0 X25.9778 Y-276.5165 F15000.0
G1 Z11.9000 F8000.0
G1 X26.0220 Y-276.6492 F12000.0
G1 Z0.0000 F8000.0
G0 X26.1547 Y-277.0030 F15000.0
G1 Z11.9000 F8000.0
G1 X26.2432 Y-277.2684 F12000.0
G1 Z0.0000 F8000.0
G0 X26.3758 Y-277.6222 F15000.0
G1 Z11.9000 F8000.0
G1 X26.4643 Y-277.8875 F12000.0
G1 Z0.0000 F8000.0
G0 X26.5970 Y-278.2414 F15000.0
G1 Z11.9000 F8000.0
G1 X26.6412 Y-278.3740 F12000.0
G1 Z0.0000 F8000.0
G0 X26.7739 Y-278.7279 F15000.0
G1 Z11.9000 F8000.0
G1 X26.9950 Y-279.3913 F12000.0
G1 X27.0392 Y-280.0547
G1 X26.9508 Y-280.2758
G1 Z0.0000 F8000.0
G0 X26.7739 Y-280.4527 F15000.0
G1 Z11.9000 F8000.0
G1 X25.2702 Y-280.5854 F12000.0
G1 Z0.0000 F8000.0
G0 X25.0048 Y-280.4527 F15000.0
G1 Z11.9000 F8000.0
G1 X24.7837 Y-280.3200 F12000.0
G1 Z0.0000 F8000.0
G0 X29.6929 Y-280.4527 F15000.0
G1 Z11.9000 F8000.0
G1 X27.7027 Y-274.6590 F12000.0
G1 X27.5257 Y-274.3936
G1 Z0.0000 F8000.0
G0 X27.7911 Y-274.7032 F15000.0
G1 Z11.9000 F8000.0
G1 X28.9852 Y-275.4108 F12000.0
G1 Z0.0000 F8000.0
G0 X30.7668 Y-276.1627 F15000.0
G1 Z11.9000 F8000.0
G1 X30.5898 Y-275.6762 F12000.0
G1 X30.5456 Y-274.7474
G1 X30.6783 Y-274.5705
G1 X30.9879 Y-274.3936
G1 X32.4916 Y-274.4379
G1 Z0.0000 F8000.0
G0 X33.0223 Y-274.7917 F15000.0
G1 Z11.9000 F8000.0
G1 X33.2877 Y-275.0570 F12000.0
G1 Z0.0000 F8000.0
G0 X33.5088 Y-275.4551 F15000.0
G1 Z11.9000 F8000.0
G1 X33.7742 Y-276.1627 F12000.0
G1 Z0.0000 F8000.0
G0 X33.9069 Y-276.5165 F15000.0
G1 Z11.9000 F8000.0
G1 X33.9511 Y-276.6492 F12000.0
G1 Z0.0000 F8000.0
G0 X34.0838 Y-277.0030 F15000.0
G1 Z11.9000 F8000.0
G1 X34.1722 Y-277.2684 F12000.0
G1 Z0.0000 F8000.0
G0 X34.3049 Y-277.6222 F15000.0
G1 Z11.9000 F8000.0
G1 X34.3934 Y-277.8875 F12000.0
G1 Z0.0000 F8000.0
G0 X34.5260 Y-278.2414 F15000.0
G1 Z11.9000 F8000.0
G1 X34.5703 Y-278.3740 F12000.0
G1 Z0.0000 F8000.0
G0 X34.7029 Y-278.7279 F15000.0
G1 Z11.9000 F8000.0
G1 X34.9241 Y-279.3913 F12000.0
G1 X34.9683 Y-280.0547
G1 X34.8799 Y-280.2758
G1 Z0.0000 F8000.0
G0 X34.7029 Y-280.4527 F15000.0
G1 Z11.9000 F8000.0
G1 X33.1992 Y-280.5854 F12000.0
G1 Z0.0000 F8000.0
G0 X32.9339 Y-280.4527 F15000.0
G1 Z11.9000 F8000.0
G1 X32.7127 Y-280.3200 F12000.0
G1 Z0.0000 F8000.0
G0 X32.0493 Y-279.5682 F15000.0
G1 Z11.9000 F8000.0
G1 X31.6955 Y-278.7279 F12000.0
G1 Z0.0000 F8000.0
G0 X31.5628 Y-278.3740 F15000.0
G1 Z11.9000 F8000.0
G1 X31.5186 Y-278.2414 F12000.0
G1 Z0.0000 F8000.0
G0 X31.3859 Y-277.8875 F15000.0
G1 Z11.9000 F8000.0
G1 X31.2975 Y-277.6222 F12000.0
G1 Z0.0000 F8000.0
G0 X31.1648 Y-277.2684 F15000.0
G1 Z11.9000 F8000.0
G1 X31.0763 Y-277.0030 F12000.0
G1 Z0.0000 F8000.0
G0 X30.9437 Y-276.6492 F15000.0
G1 Z11.9000 F8000.0
G1 X30.8994 Y-276.5165 F12000.0
G1 Z0.0000 F8000.0
G0 X35.4211 Y-274.2392 F15000.0
G1 Z11.9000 F8000.0
G1 X37.8978 Y-274.7257 F12000.0
G1 X39.2246 Y-278.3081
G1 Z0.0000 F8000.0
G0 X39.5784 Y-279.2368 F15000.0
G1 Z11.9000 F8000.0
G1 X40.1091 Y-280.6521 F12000.0
G1 Z0.0000 F8000.0
G0 X41.3085 Y-280.6521 F15000.0
G1 Z11.9000 F8000.0
G1 X40.8220 Y-279.3253 F12000.0
G1 Z0.0000 F8000.0
G0 X40.5566 Y-278.6176 F15000.0
G1 Z11.9000 F8000.0
G1 X40.0701 Y-277.1582 F12000.0
G1 X39.0087 Y-274.4603
G1 Z0.0000 F8000.0
G0 X41.8834 Y-274.3719 F15000.0
G1 Z11.9000 F8000.0
G1 X42.0603 Y-274.7257 F12000.0
G1 X42.8122 Y-277.2466
G1 X40.2028 Y-277.2466
G1 Z0.0000 F8000.0
G0 X42.9891 Y-277.3351 F15000.0
G1 Z11.9000 F8000.0
G1 X43.6967 Y-279.2368 F12000.0
G1 Z0.0000 F8000.0
G0 X43.9178 Y-279.8118 F15000.0
G1 Z11.9000 F8000.0
G1 X44.2274 Y-280.6521 F12000.0
G1 Z0.0000 F8000.0
G0 X45.4441 Y-280.5338 F15000.0
G1 Z11.9000 F8000.0
G1 X45.7979 Y-276.9514 F12000.0
G1 X46.1960 Y-277.0841
G1 X46.5940 Y-277.4379
G1 X47.0805 Y-277.6149
G1 X47.2574 Y-277.8360
G1 X48.1862 Y-280.1800
G1 Z0.0000 F8000.0
G0 X47.1247 Y-277.5706 F15000.0
G1 Z11.9000 F8000.0
G1 X46.1517 Y-274.6074 F12000.0
G1 Z0.0000 F8000.0
G0 X45.3114 Y-276.2880 F15000.0
G1 Z11.9000 F8000.0
G1 X45.4441 Y-276.4207 F12000.0
G1 Z0.0000 F8000.0
G0 X45.6652 Y-276.6419 F15000.0
G1 Z11.9000 F8000.0
G1 X45.7979 Y-276.9514 F12000.0
G1 Z0.0000 F8000.0
G0 X44.4711 Y-275.5362 F15000.0
G1 Z11.9000 F8000.0
G1 X44.3826 Y-275.4477 F12000.0
G1 Z0.0000 F8000.0
G0 X44.0288 Y-275.1381 F15000.0
G1 Z11.9000 F8000.0
G1 X43.8962 Y-275.0055 F12000.0
G1 Z0.0000 F8000.0
G0 X43.6308 Y-274.7843 F15000.0
G1 Z11.9000 F8000.0
G1 X43.3654 Y-274.5190 F12000.0
G1 Z0.0000 F8000.0
G0 X36.6529 Y-280.5155 F15000.0
G1 Z11.9000 F8000.0
G1 X36.4583 Y-280.5155 F12000.0
G1 Z0.0000 F8000.0
G0 X21.5222 Y-275.7427 F15000.0
G1 Z11.9000 F8000.0
G1 X20.2396 Y-274.8581 F12000.0
G1 X19.8416 Y-274.7254
G1 Z0.0000 F8000.0
G0 X68.1282 Y-271.0412 F15000.0
G1 Z11.9000 F8000.0
G1 X68.1282 Y-284.6338 F12000.0
G1 Z0.0000 F8000.0

G0 Z0.0000 F800.0
G4 P0.06
G0 X0.0000 Y0.0000 F15000.0
M5
G4 P0.10
$1=0
