$X
$1=255
G21
G90
G92 Z4.0000
G0 Z0.0000 F800.0
G4 P0.06
G92 Z0.0000
G0 Z0.0000 F800.0
G4 P0.06
G92 Z0.0000
G0 X0.0000 Y0.0000 F15000.0
G21
G90
G17
G91.1
G0 Z0.0000
G0 X180.0000 Y-100.8558 F15000.0
G1 Z11.9000 F2500.0
G4 P0.02
G1 X169.6845 Y-100.8558 F12000.0
G1 Z0.0000 F2500.0
G4 P0.02
G0 X168.3814 Y-100.8558 F15000.0
G1 Z11.9000 F2500.0
G4 P0.02
G1 X167.0784 Y-100.8558 F12000.0
G1 Z0.0000 F2500.0
G4 P0.02
G0 X165.7754 Y-100.8558 F15000.0
G1 Z11.9000 F2500.0
G4 P0.02
G1 X148.8360 Y-100.8558 F12000.0
G1 Z0.0000 F2500.0
G4 P0.02
G0 X180.0000 Y-106.3214 F15000.0
G1 Z11.9000 F2500.0
G4 P0.02
G1 X178.0094 Y-108.3120 F12000.0
G1 Z0.0000 F2500.0
G4 P0.02
G0 X180.0000 Y-103.9325 F15000.0
G1 Z11.9000 F2500.0
G4 P0.02
G1 X175.6206 Y-108.3120 F12000.0
G1 Z0.0000 F2500.0
G4 P0.02
G0 X178.5162 Y-102.9551 F15000.0
G1 Z11.9000 F2500.0
G4 P0.02
G1 X173.1592 Y-108.3120 F12000.0
G1 Z0.0000 F2500.0
G4 P0.02
G0 X176.1273 Y-102.9551 F15000.0
G1 Z11.9000 F2500.0
G4 P0.02
G1 X170.7703 Y-108.3120 F12000.0
G1 Z0.0000 F2500.0
G4 P0.02
G0 X180.0000 Y-96.6211 F15000.0
G1 Z11.9000 F2500.0
G4 P0.02
G1 X177.9370 Y-98.6841 F12000.0
G1 Z0.0000 F2500.0
G4 P0.02
G0 X173.6660 Y-102.9551 F15000.0
G1 Z11.9000 F2500.0
G4 P0.02
G1 X168.3814 Y-108.3120 F12000.0
G1 Z0.0000 F2500.0
G4 P0.02
G0 X171.2771 Y-102.9551 F15000.0
G1 Z11.9000 F2500.0
G4 P0.02
G1 X165.9202 Y-108.3120 F12000.0
G1 Z0.0000 F2500.0
G4 P0.02
G0 X180.0000 Y-94.2323 F15000.0
G1 Z11.9000 F2500.0
G4 P0.02
G1 X175.5481 Y-98.6841 F12000.0
G1 Z0.0000 F2500.0
G4 P0.02
G0 X178.4438 Y-93.3272 F15000.0
G1 Z11.9000 F2500.0
G4 P0.02
G1 X173.1592 Y-98.6841 F12000.0
G1 Z0.0000 F2500.0
G4 P0.02
G0 X168.8882 Y-102.9551 F15000.0
G1 Z11.9000 F2500.0
G4 P0.02
G1 X163.5313 Y-108.3120 F12000.0
G1 Z0.0000 F2500.0
G4 P0.02
G0 X162.9522 Y-108.8912 F15000.0
G1 Z11.9000 F2500.0
G4 P0.02
G1 X161.1424 Y-110.6286 F12000.0
G1 Z0.0000 F2500.0
G4 P0.02
G0 X166.4269 Y-102.9551 F15000.0
G1 Z11.9000 F2500.0
G4 P0.02
G1 X158.7535 Y-110.6286 F12000.0
G1 Z0.0000 F2500.0
G4 P0.02
G0 X176.0549 Y-93.3272 F15000.0
G1 Z11.9000 F2500.0
G4 P0.02
G1 X170.6980 Y-98.6841 F12000.0
G1 Z0.0000 F2500.0
G4 P0.02
G0 X173.6660 Y-93.3272 F15000.0
G1 Z11.9000 F2500.0
G4 P0.02
G1 X168.3091 Y-98.6841 F12000.0
G1 Z0.0000 F2500.0
G4 P0.02
G0 X164.0381 Y-102.9551 F15000.0
G1 Z11.9000 F2500.0
G4 P0.02
G1 X158.6811 Y-108.3120 F12000.0
G1 Z0.0000 F2500.0
G4 P0.02
G0 X161.5767 Y-102.9551 F15000.0
G1 Z11.9000 F2500.0
G4 P0.02
G1 X158.6811 Y-105.9231 F12000.0
G1 Z0.0000 F2500.0
G4 P0.02
G0 X171.2047 Y-93.3272 F15000.0
G1 Z11.9000 F2500.0
G4 P0.02
G1 X165.8478 Y-98.6841 F12000.0
G1 Z0.0000 F2500.0
G4 P0.02
G0 X168.8158 Y-93.3272 F15000.0
G1 Z11.9000 F2500.0
G4 P0.02
G1 X163.4589 Y-98.6841 F12000.0
G1 Z0.0000 F2500.0
G4 P0.02
G0 X159.1878 Y-102.9551 F15000.0
G1 Z11.9000 F2500.0
G4 P0.02
G1 X158.6811 Y-103.4619 F12000.0
G1 Z0.0000 F2500.0
G4 P0.02
G0 X166.3545 Y-93.3272 F15000.0
G1 Z11.9000 F2500.0
G4 P0.02
G1 X161.0700 Y-98.6841 F12000.0
G1 Z0.0000 F2500.0
G4 P0.02
G0 X163.9656 Y-93.3272 F15000.0
G1 Z11.9000 F2500.0
G4 P0.02
G1 X158.6811 Y-98.6841 F12000.0
G1 Z0.0000 F2500.0
G4 P0.02
G0 X162.9522 Y-91.9517 F15000.0
G1 Z11.9000 F2500.0
G4 P0.02
G1 X158.6811 Y-96.2227 F12000.0
G1 Z0.0000 F2500.0
G4 P0.02
G0 X161.5043 Y-91.0106 F15000.0
G1 Z11.9000 F2500.0
G4 P0.02
G1 X158.6811 Y-93.8338 F12000.0
G1 Z0.0000 F2500.0
G4 P0.02
G0 X159.0431 Y-91.0106 F15000.0
G1 Z11.9000 F2500.0
G4 P0.02
G1 X158.6811 Y-91.3726 F12000.0
G1 Z0.0000 F2500.0
G4 P0.02
G0 X152.4555 Y-117.5781 F15000.0
G1 Z11.9000 F2500.0
G4 P0.02
G1 X150.5009 Y-115.6959 F12000.0
G1 Z0.0000 F2500.0
G4 P0.02
G0 X154.8444 Y-117.5781 F15000.0
G1 Z11.9000 F2500.0
G4 P0.02
G1 X150.7181 Y-113.4518 F12000.0
G1 Z0.0000 F2500.0
G4 P0.02
G0 X157.3057 Y-117.5781 F15000.0
G1 Z11.9000 F2500.0
G4 P0.02
G1 X152.2383 Y-112.5831 F12000.0
G1 Z0.0000 F2500.0
G4 P0.02
G0 X159.6946 Y-117.5781 F15000.0
G1 Z11.9000 F2500.0
G4 P0.02
G1 X154.6996 Y-112.5831 F12000.0
G1 Z0.0000 F2500.0
G4 P0.02
G0 X162.1558 Y-117.5781 F15000.0
G1 Z11.9000 F2500.0
G4 P0.02
G1 X157.0885 Y-112.5831 F12000.0
G1 Z0.0000 F2500.0
G4 P0.02
G0 X164.5447 Y-117.5781 F15000.0
G1 Z11.9000 F2500.0
G4 P0.02
G1 X160.4909 Y-113.5241 F12000.0
G1 Z0.0000 F2500.0
G4 P0.02
G0 X165.7030 Y-116.3474 F15000.0
G1 Z11.9000 F2500.0
G4 P0.02
G1 X162.7350 Y-113.3794 F12000.0
G1 Z0.0000 F2500.0
G4 P0.02
G0 X166.5717 Y-114.8272 F15000.0
G1 Z11.9000 F2500.0
G4 P0.02
G1 X162.9522 Y-111.1352 F12000.0
G1 Z0.0000 F2500.0
G4 P0.02
G0 X166.7889 Y-112.5831 F15000.0
G1 Z11.9000 F2500.0
G4 P0.02
G1 X163.9656 Y-109.8322 F12000.0
G1 Z0.0000 F2500.0
G4 P0.02
G0 X166.7889 Y-110.1942 F15000.0
G1 Z11.9000 F2500.0
G4 P0.02
G1 X166.4269 Y-109.8322 F12000.0
G1 Z0.0000 F2500.0
G4 P0.02
G0 X152.9623 Y-89.0560 F15000.0
G1 Z11.9000 F2500.0
G4 P0.02
G1 X150.5009 Y-86.6671 F12000.0
G1 Z0.0000 F2500.0
G4 P0.02
G0 X155.3512 Y-89.0560 F15000.0
G1 Z11.9000 F2500.0
G4 P0.02
G1 X150.5009 Y-84.2782 F12000.0
G1 Z0.0000 F2500.0
G4 P0.02
G0 X157.7401 Y-89.0560 F15000.0
G1 Z11.9000 F2500.0
G4 P0.02
G1 X152.7451 Y-84.0611 F12000.0
G1 Z0.0000 F2500.0
G4 P0.02
G0 X159.7669 Y-88.6941 F15000.0
G1 Z11.9000 F2500.0
G4 P0.02
G1 X155.1340 Y-84.0611 F12000.0
G1 Z0.0000 F2500.0
G4 P0.02
G0 X165.4134 Y-91.8793 F15000.0
G1 Z11.9000 F2500.0
G4 P0.02
G1 X162.9522 Y-89.4181 F12000.0
G1 Z0.0000 F2500.0
G4 P0.02
G0 X161.6492 Y-88.1150 F15000.0
G1 Z11.9000 F2500.0
G4 P0.02
G1 X157.5952 Y-84.0611 F12000.0
G1 Z0.0000 F2500.0
G4 P0.02
G0 X166.7889 Y-90.7934 F15000.0
G1 Z11.9000 F2500.0
G4 P0.02
G1 X159.9841 Y-84.0611 F12000.0
G1 Z0.0000 F2500.0
G4 P0.02
G0 X166.7889 Y-88.4045 F15000.0
G1 Z11.9000 F2500.0
G4 P0.02
G1 X162.4454 Y-84.0611 F12000.0
G1 Z0.0000 F2500.0
G4 P0.02
G0 X165.1963 Y-84.4231 F15000.0
G1 Z11.9000 F2500.0
G4 P0.02
G1 X164.8343 Y-84.0611 F12000.0
G1 Z0.0000 F2500.0
G4 P0.02
G0 X179.4572 Y-111.9316 F15000.0
G1 Z11.9000 F2500.0
G4 P0.02
G1 X175.8377 Y-108.3120 F12000.0
G1 Z0.0000 F2500.0
G4 P0.02
G0 X180.0000 Y-108.8548 F15000.0
G1 Z11.9000 F2500.0
G4 P0.02
G1 X178.8057 Y-107.6605 F12000.0
G1 Z0.0000 F2500.0
G4 P0.02
G0 X179.6021 Y-93.9787 F15000.0
G1 Z11.9000 F2500.0
G4 P0.02
G1 X175.7653 Y-90.1419 F12000.0
G1 Z0.0000 F2500.0
G4 P0.02
G0 X180.0000 Y-90.7570 F15000.0
G1 Z11.9000 F2500.0
G4 P0.02
G1 X178.9506 Y-89.7076 F12000.0
G1 Z0.0000 F2500.0
G4 P0.02
G0 X158.6811 Y-98.6841 F15000.0
G1 Z11.9000 F2500.0
G4 P0.02
G1 X158.6811 Y-102.9551 F12000.0
G1 X180.0000 Y-102.9551 F12000.0
G1 Z0.0000 F2500.0
G4 P0.02
G0 X162.9522 Y-110.6286 F15000.0
G1 Z11.9000 F2500.0
G4 P0.02
G1 X162.9522 Y-108.3120 F12000.0
G1 Z0.0000 F2500.0
G4 P0.02
G0 X158.6811 Y-110.6286 F15000.0
G1 Z11.9000 F2500.0
G4 P0.02
G1 X162.9522 Y-110.6286 F12000.0
G1 Z0.0000 F2500.0
G4 P0.02
G0 X158.6811 Y-98.6841 F15000.0
G1 Z11.9000 F2500.0
G4 P0.02
G1 X158.6811 Y-91.0106 F12000.0
G1 Z0.0000 F2500.0
G4 P0.02
G0 X162.9522 Y-93.3272 F15000.0
G1 Z11.9000 F2500.0
G4 P0.02
G1 X180.0000 Y-93.3272 F12000.0
G1 Z0.0000 F2500.0
G4 P0.02
G0 X158.6811 Y-91.0106 F15000.0
G1 Z11.9000 F2500.0
G4 P0.02
G1 X162.9522 Y-91.0106 F12000.0
G1 Z0.0000 F2500.0
G4 P0.02
G0 X162.9522 Y-108.3120 F15000.0
G1 Z11.9000 F2500.0
G4 P0.02
G1 X180.0000 Y-108.3120 F12000.0
G1 Z0.0000 F2500.0
G4 P0.02
G0 X158.6811 Y-98.6841 F15000.0
G1 Z11.9000 F2500.0
G4 P0.02
G1 X180.0000 Y-98.6841 F12000.0
G1 Z0.0000 F2500.0
G4 P0.02
G0 X162.9522 Y-93.3272 F15000.0
G1 Z11.9000 F2500.0
G4 P0.02
G1 X162.9522 Y-91.0106 F12000.0
G1 Z0.0000 F2500.0
G4 P0.02
G0 X158.6811 Y-110.6286 F15000.0
G1 Z11.9000 F2500.0
G4 P0.02
G1 X158.6811 Y-102.9551 F12000.0
G1 Z0.0000 F2500.0
G4 P0.02
G0 X166.7889 Y-109.8322 F15000.0
G1 Z11.9000 F2500.0
G4 P0.02
G1 X166.7889 Y-108.3120 F12000.0
G1 Z0.0000 F2500.0
G4 P0.02
G0 X166.7889 Y-93.3272 F15000.0
G1 Z11.9000 F2500.0
G4 P0.02
G1 X166.7889 Y-91.8793 F12000.0
G1 Z0.0000 F2500.0
G4 P0.02
G0 X151.5868 Y-112.5831 F15000.0
G1 Z11.9000 F2500.0
G4 P0.02
G1 X151.5868 Y-89.0560 F12000.0
G1 Z0.0000 F2500.0
G4 P0.02
G0 X150.5009 Y-113.6690 F15000.0
G1 Z11.9000 F2500.0
G4 P0.02
G1 X150.5009 Y-87.9702 F12000.0
G1 Z0.0000 F2500.0
G4 P0.02
G0 X159.4050 Y-112.5831 F15000.0
G1 Z11.9000 F2500.0
G4 P0.02
G1 X159.4050 Y-110.6286 F12000.0
G1 Z0.0000 F2500.0
G4 P0.02
G0 X159.4050 Y-91.0106 F15000.0
G1 Z11.9000 F2500.0
G4 P0.02
G1 X159.4050 Y-89.0560 F12000.0
G1 Z0.0000 F2500.0
G4 P0.02
G0 X159.4050 Y-112.5831 F15000.0
G1 Z11.9000 F2500.0
G4 P0.02
G1 X151.5868 Y-112.5831 F12000.0
G1 Z0.0000 F2500.0
G4 P0.02
G0 X160.2737 Y-88.2598 F15000.0
G1 Z11.9000 F2500.0
G4 P0.02
G1 X160.5633 Y-88.1150 F12000.0
G1 Z0.0000 F2500.0
G4 P0.02
G0 X162.2283 Y-113.5241 F15000.0
G1 Z11.9000 F2500.0
G4 P0.02
G1 X160.5633 Y-113.5241 F12000.0
G1 Z0.0000 F2500.0
G4 P0.02
G0 X162.2283 Y-88.1150 F15000.0
G1 Z11.9000 F2500.0
G4 P0.02
G1 X162.6626 Y-88.2598 F12000.0
G1 X162.8798 Y-88.6217 F12000.0
G1 Z0.0000 F2500.0
G4 P0.02
G0 X166.7889 Y-91.8793 F15000.0
G1 Z11.9000 F2500.0
G4 P0.02
G1 X162.9522 Y-91.8793 F12000.0
G1 Z0.0000 F2500.0
G4 P0.02
G0 X150.5009 Y-117.5781 F15000.0
G1 Z11.9000 F2500.0
G4 P0.02
G1 X150.5009 Y-113.6690 F12000.0
G1 Z0.0000 F2500.0
G4 P0.02
G0 X166.7889 Y-91.8793 F15000.0
G1 Z11.9000 F2500.0
G4 P0.02
G1 X166.7889 Y-87.1739 F12000.0
G1 X164.9791 Y-84.0611 F12000.0
G1 Z0.0000 F2500.0
G4 P0.02
G0 X150.5009 Y-87.9702 F15000.0
G1 Z11.9000 F2500.0
G4 P0.02
G1 X150.5009 Y-84.0611 F12000.0
G1 Z0.0000 F2500.0
G4 P0.02
G0 X159.4050 Y-89.0560 F15000.0
G1 Z11.9000 F2500.0
G4 P0.02
G1 X151.5868 Y-89.0560 F12000.0
G1 Z0.0000 F2500.0
G4 P0.02
G0 X160.2737 Y-88.2598 F15000.0
G1 Z11.9000 F2500.0
G4 P0.02
G1 X159.4050 Y-89.0560 F12000.0
G1 Z0.0000 F2500.0
G4 P0.02
G0 X160.2737 Y-113.4518 F15000.0
G1 Z11.9000 F2500.0
G4 P0.02
G1 X159.4050 Y-112.5831 F12000.0
G1 Z0.0000 F2500.0
G4 P0.02
G0 X166.7889 Y-114.5377 F15000.0
G1 Z11.9000 F2500.0
G4 P0.02
G1 X164.9791 Y-117.5781 F12000.0
G1 Z0.0000 F2500.0
G4 P0.02
G0 X166.7889 Y-109.8322 F15000.0
G1 Z11.9000 F2500.0
G4 P0.02
G1 X162.9522 Y-109.8322 F12000.0
G1 Z0.0000 F2500.0
G4 P0.02
G0 X150.5009 Y-113.6690 F15000.0
G1 Z11.9000 F2500.0
G4 P0.02
G1 X151.5868 Y-112.5831 F12000.0
G1 Z0.0000 F2500.0
G4 P0.02
G0 X162.2283 Y-113.5241 F15000.0
G1 Z11.9000 F2500.0
G4 P0.02
G1 X162.6626 Y-113.3794 F12000.0
G1 X162.8798 Y-113.0175 F12000.0
G1 Z0.0000 F2500.0
G4 P0.02
G0 X150.5009 Y-87.9702 F15000.0
G1 Z11.9000 F2500.0
G4 P0.02
G1 X151.5868 Y-89.0560 F12000.0
G1 Z0.0000 F2500.0
G4 P0.02
G0 X162.9522 Y-88.7665 F15000.0
G1 Z11.9000 F2500.0
G4 P0.02
G1 X162.9522 Y-91.8793 F12000.0
G1 Z0.0000 F2500.0
G4 P0.02
G0 X164.9791 Y-84.0611 F15000.0
G1 Z11.9000 F2500.0
G4 P0.02
G1 X150.5009 Y-84.0611 F12000.0
G1 Z0.0000 F2500.0
G4 P0.02
G0 X150.5009 Y-117.5781 F15000.0
G1 Z11.9000 F2500.0
G4 P0.02
G1 X164.9791 Y-117.5781 F12000.0
G1 Z0.0000 F2500.0
G4 P0.02
G0 X166.7889 Y-114.5377 F15000.0
G1 Z11.9000 F2500.0
G4 P0.02
G1 X166.7889 Y-109.8322 F12000.0
G1 Z0.0000 F2500.0
G4 P0.02
G0 X160.2737 Y-113.4518 F15000.0
G1 Z11.9000 F2500.0
G4 P0.02
G1 X160.5633 Y-113.5241 F12000.0
G1 Z0.0000 F2500.0
G4 P0.02
G0 X162.2283 Y-88.1150 F15000.0
G1 Z11.9000 F2500.0
G4 P0.02
G1 X160.5633 Y-88.1150 F12000.0
G1 Z0.0000 F2500.0
G4 P0.02
G0 X162.9522 Y-109.8322 F15000.0
G1 Z11.9000 F2500.0
G4 P0.02
G1 X162.9522 Y-112.8726 F12000.0
G1 Z0.0000 F2500.0
G4 P0.02
G0 X180.0000 Y-111.9316 F15000.0
G1 Z11.9000 F2500.0
G4 P0.02
G1 X175.7653 Y-111.9316 F12000.0
G1 Z0.0000 F2500.0
G4 P0.02
G0 X175.7653 Y-108.3120 F15000.0
G1 Z11.9000 F2500.0
G4 P0.02
G1 X175.7653 Y-111.9316 F12000.0
G1 Z0.0000 F2500.0
G4 P0.02
G0 X175.7653 Y-93.3272 F15000.0
G1 Z11.9000 F2500.0
G4 P0.02
G1 X176.4168 Y-93.9787 F12000.0
G1 Z0.0000 F2500.0
G4 P0.02
G0 X180.0000 Y-89.7076 F15000.0
G1 Z11.9000 F2500.0
G4 P0.02
G1 X175.7653 Y-89.7076 F12000.0
G1 Z0.0000 F2500.0
G4 P0.02
G0 X180.0000 Y-93.9787 F15000.0
G1 Z11.9000 F2500.0
G4 P0.02
G1 X176.4168 Y-93.9787 F12000.0
G1 Z0.0000 F2500.0
G4 P0.02
G0 X175.7653 Y-108.3120 F15000.0
G1 Z11.9000 F2500.0
G4 P0.02
G1 X176.4168 Y-107.6605 F12000.0
G1 Z0.0000 F2500.0
G4 P0.02
G0 X180.0000 Y-107.6605 F15000.0
G1 Z11.9000 F2500.0
G4 P0.02
G1 X176.4168 Y-107.6605 F12000.0
G1 Z0.0000 F2500.0
G4 P0.02
G0 X175.7653 Y-89.7076 F15000.0
G1 Z11.9000 F2500.0
G4 P0.02
G1 X175.7653 Y-93.3272 F12000.0
G1 Z0.0000 F2500.0
G4 P0.02
G0 X180.0000 Y-51.4128 F15000.0
G1 Z11.9000 F2500.0
G4 P0.02
G1 X174.0279 Y-51.4128 F12000.0
G1 Z0.0000 F2500.0
G4 P0.02
G0 X158.0267 Y-85.7290 F15000.0
G1 Z11.9000 F2500.0
G4 P0.02
G1 X157.4534 Y-86.3023 F12000.0
G1 Z0.0000 F2500.0
G4 P0.02
G0 X130.6659 Y-51.4128 F15000.0
G1 Z11.9000 F2500.0
G4 P0.02
G1 X157.7401 Y-86.0156 F12000.0
G1 Z0.0000 F2500.0
G4 P0.02
G0 X130.6659 Y-51.4128 F15000.0
G1 Z11.9000 F2500.0
G4 P0.02
G1 X121.2550 Y-51.4128 F12000.0
G1 Z0.0000 F2500.0
G4 P0.02
G0 X163.2388 Y-96.2618 F15000.0
G1 Z11.9000 F2500.0
G4 P0.02
G1 X162.6655 Y-96.8352 F12000.0
G1 Z0.0000 F2500.0
G4 P0.02
G0 X130.6659 Y-67.4836 F15000.0
G1 Z11.9000 F2500.0
G4 P0.02
G1 X162.9522 Y-96.5123 F12000.0
G1 Z0.0000 F2500.0
G4 P0.02
G0 X130.6659 Y-67.4836 F15000.0
G1 Z11.9000 F2500.0
G4 P0.02
G1 X121.8341 Y-67.4836 F12000.0
G1 Z0.0000 F2500.0
G4 P0.02
G0 X78.0377 Y-48.6620 F15000.0
G1 Z11.9000 F2500.0
G4 P0.02
G1 X78.0377 Y-62.7782 F12000.0
G1 Z0.0000 F2500.0
G4 P0.02
G0 X78.0377 Y-64.0813 F15000.0
G1 Z11.9000 F2500.0
G4 P0.02
G1 X78.0377 Y-65.3843 F12000.0
G1 Z0.0000 F2500.0
G4 P0.02
G0 X78.0377 Y-66.6873 F15000.0
G1 Z11.9000 F2500.0
G4 P0.02
G1 X78.0377 Y-80.8035 F12000.0
G1 Z0.0000 F2500.0
G4 P0.02
G0 X78.0377 Y-82.1065 F15000.0
G1 Z11.9000 F2500.0
G4 P0.02
G1 X78.0377 Y-83.4820 F12000.0
G1 Z0.0000 F2500.0
G4 P0.02
G0 X78.0377 Y-84.7126 F15000.0
G1 Z11.9000 F2500.0
G4 P0.02
G1 X78.0377 Y-98.9012 F12000.0
G1 Z0.0000 F2500.0
G4 P0.02
G0 X78.0377 Y-100.1319 F15000.0
G1 Z11.9000 F2500.0
G4 P0.02
G1 X78.0377 Y-101.5073 F12000.0
G1 Z0.0000 F2500.0
G4 P0.02
G0 X78.0377 Y-102.7379 F15000.0
G1 Z11.9000 F2500.0
G4 P0.02
G1 X78.0377 Y-116.9266 F12000.0
G1 Z0.0000 F2500.0
G4 P0.02
G0 X78.0377 Y-118.1572 F15000.0
G1 Z11.9000 F2500.0
G4 P0.02
G1 X78.0377 Y-119.5326 F12000.0
G1 Z0.0000 F2500.0
G4 P0.02
G0 X78.0377 Y-120.8357 F15000.0
G1 Z11.9000 F2500.0
G4 P0.02
G1 X78.0377 Y-134.9518 F12000.0
G1 Z0.0000 F2500.0
G4 P0.02
G0 X78.0377 Y-136.2549 F15000.0
G1 Z11.9000 F2500.0
G4 P0.02
G1 X78.0377 Y-137.5579 F12000.0
G1 Z0.0000 F2500.0
G4 P0.02
G0 X78.0377 Y-138.8609 F15000.0
G1 Z11.9000 F2500.0
G4 P0.02
G1 X78.0377 Y-152.9772 F12000.0
G1 Z0.0000 F2500.0
G4 P0.02
G0 X78.0377 Y-117.9400 F15000.0
G1 Z11.9000 F2500.0
G4 P0.02
G1 X78.0377 Y-109.1084 F12000.0
G1 Z0.0000 F2500.0
G4 P0.02
G0 X78.0377 Y-105.2716 F15000.0
G1 Z11.9000 F2500.0
G4 P0.02
G1 X78.0377 Y-100.8558 F12000.0
G1 Z0.0000 F2500.0
G4 P0.02
G0 X78.0377 Y-83.6992 F15000.0
G1 Z11.9000 F2500.0
G4 P0.02
G1 X78.0377 Y-92.5308 F12000.0
G1 Z0.0000 F2500.0
G4 P0.02
G0 X78.0377 Y-96.4399 F15000.0
G1 Z11.9000 F2500.0
G4 P0.02
G1 X78.0377 Y-100.8558 F12000.0
G1 Z0.0000 F2500.0
G4 P0.02
G0 X60.8811 Y-100.8558 F15000.0
G1 Z11.9000 F2500.0
G4 P0.02
G1 X69.7128 Y-100.8558 F12000.0
G1 Z0.0000 F2500.0
G4 P0.02
G0 X71.0158 Y-100.8558 F15000.0
G1 Z11.9000 F2500.0
G4 P0.02
G1 X72.3189 Y-100.8558 F12000.0
G1 Z0.0000 F2500.0
G4 P0.02
G0 X73.6219 Y-100.8558 F15000.0
G1 Z11.9000 F2500.0
G4 P0.02
G1 X78.0377 Y-100.8558 F12000.0
G1 Z0.0000 F2500.0
G4 P0.02
G0 X95.1220 Y-100.8558 F15000.0
G1 Z11.9000 F2500.0
G4 P0.02
G1 X86.2902 Y-100.8558 F12000.0
G1 Z0.0000 F2500.0
G4 P0.02
G0 X84.9872 Y-100.8558 F15000.0
G1 Z11.9000 F2500.0
G4 P0.02
G1 X83.6842 Y-100.8558 F12000.0
G1 Z0.0000 F2500.0
G4 P0.02
G0 X82.4535 Y-100.8558 F15000.0
G1 Z11.9000 F2500.0
G4 P0.02
G1 X78.0377 Y-100.8558 F12000.0
G1 Z0.0000 F2500.0
G4 P0.02
G0 X72.0293 Y-146.9687 F15000.0
G1 Z11.9000 F2500.0
G4 P0.02
G1 X78.0377 Y-146.9687 F12000.0
G1 Z0.0000 F2500.0
G4 P0.02
G0 X83.9738 Y-146.9687 F15000.0
G1 Z11.9000 F2500.0
G4 P0.02
G1 X78.0377 Y-146.9687 F12000.0
G1 Z0.0000 F2500.0
G4 P0.02
G0 X70.7986 Y-146.3896 F15000.0
G1 Z11.9000 F2500.0
G4 P0.02
G1 X73.6219 Y-110.2666 F12000.0
G1 Z0.0000 F2500.0
G4 P0.02
G0 X85.2768 Y-146.3896 F15000.0
G1 Z11.9000 F2500.0
G4 P0.02
G1 X85.2044 Y-147.8374 F12000.0
G1 X84.9149 Y-149.2852 F12000.0
G1 X84.3357 Y-150.5883 F12000.0
G1 X83.4670 Y-151.7465 F12000.0
G1 X82.4535 Y-152.7600 F12000.0
G1 X81.1505 Y-153.5563 F12000.0
G1 X79.8475 Y-154.0630 F12000.0
G1 X78.3997 Y-154.2802 F12000.0
G1 X76.9518 Y-154.2079 F12000.0
G1 X75.5764 Y-153.8458 F12000.0
G1 X74.2010 Y-153.1943 F12000.0
G1 X73.0428 Y-152.3256 F12000.0
G1 X72.1017 Y-151.2398 F12000.0
G1 X71.3777 Y-150.0092 F12000.0
G1 X70.9434 Y-148.6337 F12000.0
G1 X70.7262 Y-147.1859 F12000.0
G1 X70.7986 Y-146.3896 F12000.0
G1 Z0.0000 F2500.0
G4 P0.02
G0 X82.3811 Y-110.2666 F15000.0
G1 Z11.9000 F2500.0
G4 P0.02
G1 X85.2768 Y-146.3896 F12000.0
G1 Z0.0000 F2500.0
G4 P0.02
G0 X78.0377 Y-91.4449 F15000.0
G1 Z11.9000 F2500.0
G4 P0.02
G1 X79.6303 Y-91.5898 F12000.0
G1 X81.2229 Y-92.0241 F12000.0
G1 X82.7431 Y-92.6757 F12000.0
G1 X84.1185 Y-93.6167 F12000.0
G1 X85.2768 Y-94.8474 F12000.0
G1 X86.1455 Y-96.1504 F12000.0
G1 X86.8694 Y-97.6706 F12000.0
G1 X87.3038 Y-99.2632 F12000.0
G1 X87.4485 Y-100.9281 F12000.0
G1 X87.2313 Y-102.5208 F12000.0
G1 X86.7970 Y-104.1134 F12000.0
G1 X86.0731 Y-105.6336 F12000.0
G1 X85.1320 Y-106.9366 F12000.0
G1 X83.9738 Y-108.0948 F12000.0
G1 X82.5983 Y-109.0359 F12000.0
G1 X81.0781 Y-109.6875 F12000.0
G1 X79.4855 Y-110.1218 F12000.0
G1 X77.8205 Y-110.1942 F12000.0
G1 X76.2280 Y-110.0494 F12000.0
G1 X74.6353 Y-109.6150 F12000.0
G1 X73.1151 Y-108.8912 F12000.0
G1 X71.8121 Y-107.8777 F12000.0
G1 X70.6539 Y-106.7195 F12000.0
G1 X69.7852 Y-105.3440 F12000.0
G1 X69.0613 Y-103.8238 F12000.0
G1 X68.6993 Y-102.2312 F12000.0
G1 X68.6269 Y-100.5662 F12000.0
G1 X68.7717 Y-98.9012 F12000.0
G1 X69.2784 Y-97.3810 F12000.0
G1 X70.0024 Y-95.8608 F12000.0
G1 X71.0158 Y-94.5578 F12000.0
G1 X72.1741 Y-93.3995 F12000.0
G1 X73.5495 Y-92.5308 F12000.0
G1 X75.0697 Y-91.8793 F12000.0
G1 X76.6623 Y-91.5174 F12000.0
G1 X78.0377 Y-91.4449 F12000.0
G1 Z0.0000 F2500.0
G4 P0.02
G0 X83.1051 Y-108.6740 F15000.0
G1 Z11.9000 F2500.0
G4 P0.02
G1 X82.6707 Y-109.1807 F12000.0
G1 X82.3811 Y-109.8322 F12000.0
G1 X82.3811 Y-110.2666 F12000.0
G1 Z0.0000 F2500.0
G4 P0.02
G0 X72.8979 Y-108.6740 F15000.0
G1 Z11.9000 F2500.0
G4 P0.02
G1 X73.4047 Y-109.1807 F12000.0
G1 X73.6219 Y-109.8322 F12000.0
G1 X73.6219 Y-110.2666 F12000.0
G1 Z0.0000 F2500.0
G4 P0.02
G0 X78.0377 Y-142.6977 F15000.0
G1 Z11.9000 F2500.0
G4 P0.02
G1 X79.1235 Y-142.8425 F12000.0
G1 X80.1371 Y-143.2768 F12000.0
G1 X81.0058 Y-143.9283 F12000.0
G1 X81.7296 Y-144.8694 F12000.0
G1 X82.1640 Y-145.8829 F12000.0
G1 X82.3088 Y-146.9687 F12000.0
G1 X82.1640 Y-148.0546 F12000.0
G1 X81.7296 Y-149.0680 F12000.0
G1 X81.0781 Y-150.0092 F12000.0
G1 X80.2094 Y-150.6607 F12000.0
G1 X79.1960 Y-151.0950 F12000.0
G1 X78.1101 Y-151.2398 F12000.0
G1 X76.9518 Y-151.1674 F12000.0
G1 X75.9384 Y-150.7331 F12000.0
G1 X75.0697 Y-150.0816 F12000.0
G1 X74.3458 Y-149.2129 F12000.0
G1 X73.9115 Y-148.1994 F12000.0
G1 X73.7666 Y-147.1135 F12000.0
G1 X73.8391 Y-146.0276 F12000.0
G1 X74.2734 Y-144.9418 F12000.0
G1 X74.9249 Y-144.0731 F12000.0
G1 X75.7936 Y-143.3492 F12000.0
G1 X76.8071 Y-142.9149 F12000.0
G1 X77.8929 Y-142.6977 F12000.0
G1 Z0.0000 F2500.0
G4 P0.02
G0 X94.2533 Y-110.1942 F15000.0
G1 Z11.9000 F2500.0
G4 P0.02
G1 X94.2533 Y-91.4449 F12000.0
G1 Z0.0000 F2500.0
G4 P0.02
G0 X78.0377 Y-82.0342 F15000.0
G1 Z11.9000 F2500.0
G4 P0.02
G1 X61.7498 Y-91.4449 F12000.0
G1 X61.7498 Y-110.1942 F12000.0
G1 Z0.0000 F2500.0
G4 P0.02
G0 X78.0377 Y-85.4365 F15000.0
G1 Z11.9000 F2500.0
G4 P0.02
G1 X75.9384 Y-85.5813 F12000.0
G1 X73.8391 Y-86.0156 F12000.0
G1 X71.8845 Y-86.7396 F12000.0
G1 X70.0024 Y-87.6807 F12000.0
G1 X68.2650 Y-88.9113 F12000.0
G1 X66.7448 Y-90.3591 F12000.0
G1 X65.3693 Y-92.0241 F12000.0
G1 X64.2835 Y-93.8338 F12000.0
G1 X63.4872 Y-95.7161 F12000.0
G1 X62.9080 Y-97.8154 F12000.0
G1 X62.6185 Y-99.8423 F12000.0
G1 X62.6908 Y-102.0140 F12000.0
G1 X62.9804 Y-104.0410 F12000.0
G1 X63.5595 Y-106.0679 F12000.0
G1 X64.4282 Y-108.0225 F12000.0
G1 X65.5141 Y-109.8322 F12000.0
G1 X66.8895 Y-111.4248 F12000.0
G1 X68.4097 Y-112.8726 F12000.0
G1 X70.1471 Y-114.0309 F12000.0
G1 X72.0293 Y-115.0444 F12000.0
G1 X73.2600 Y-115.4787 F12000.0
G1 Z0.0000 F2500.0
G4 P0.02
G0 X82.8155 Y-115.4787 F15000.0
G1 Z11.9000 F2500.0
G4 P0.02
G1 X84.7700 Y-114.6824 F12000.0
G1 X86.5798 Y-113.5966 F12000.0
G1 X88.2448 Y-112.2935 F12000.0
G1 X89.6927 Y-110.8457 F12000.0
G1 X90.9957 Y-109.1084 F12000.0
G1 X92.0091 Y-107.2986 F12000.0
G1 X92.7331 Y-105.2716 F12000.0
G1 X93.2398 Y-103.2447 F12000.0
G1 X93.3846 Y-101.1453 F12000.0
G1 X93.3122 Y-99.0460 F12000.0
G1 X92.8778 Y-96.9467 F12000.0
G1 X92.2263 Y-94.9921 F12000.0
G1 X91.2852 Y-93.0376 F12000.0
G1 X90.1270 Y-91.3002 F12000.0
G1 X88.6791 Y-89.7800 F12000.0
G1 X87.0866 Y-88.4045 F12000.0
G1 X85.2768 Y-87.2463 F12000.0
G1 X83.3947 Y-86.3776 F12000.0
G1 X81.3677 Y-85.7985 F12000.0
G1 X79.2684 Y-85.5090 F12000.0
G1 X78.0377 Y-85.4365 F12000.0
G1 Z0.0000 F2500.0
G4 P0.02
G0 X61.7498 Y-110.1942 F15000.0
G1 Z11.9000 F2500.0
G4 P0.02
G1 X73.1151 Y-116.7817 F12000.0
G1 Z0.0000 F2500.0
G4 P0.02
G0 X94.2533 Y-91.4449 F15000.0
G1 Z11.9000 F2500.0
G4 P0.02
G1 X78.0377 Y-82.0342 F12000.0
G1 Z0.0000 F2500.0
G4 P0.02
G0 X78.0377 Y-108.2397 F15000.0
G1 Z11.9000 F2500.0
G4 P0.02
G1 X84.4081 Y-104.5477 F12000.0
G1 X84.4081 Y-97.0914 F12000.0
G1 Z0.0000 F2500.0
G4 P0.02
G0 X78.0377 Y-93.3995 F15000.0
G1 Z11.9000 F2500.0
G4 P0.02
G1 X71.5949 Y-97.0914 F12000.0
G1 Z0.0000 F2500.0
G4 P0.02
G0 X78.0377 Y-94.7025 F15000.0
G1 Z11.9000 F2500.0
G4 P0.02
G1 X79.3407 Y-94.8474 F12000.0
G1 X80.5714 Y-95.2817 F12000.0
G1 X81.7296 Y-96.0056 F12000.0
G1 X82.6707 Y-96.8743 F12000.0
G1 X83.3947 Y-98.0325 F12000.0
G1 X83.9013 Y-99.2632 F12000.0
G1 X84.1185 Y-100.5662 F12000.0
G1 X83.9738 Y-101.8692 F12000.0
G1 X83.6118 Y-103.1723 F12000.0
G1 X83.0326 Y-104.3306 F12000.0
G1 X82.0916 Y-105.3440 F12000.0
G1 X81.0781 Y-106.0679 F12000.0
G1 X79.8475 Y-106.6470 F12000.0
G1 X78.5444 Y-106.8642 F12000.0
G1 X77.2414 Y-106.8642 F12000.0
G1 X75.9384 Y-106.5746 F12000.0
G1 X74.7078 Y-105.9955 F12000.0
G1 X73.6943 Y-105.1268 F12000.0
G1 X72.8979 Y-104.1134 F12000.0
G1 X72.3189 Y-102.8827 F12000.0
G1 X71.9569 Y-101.6521 F12000.0
G1 X71.9569 Y-100.2766 F12000.0
G1 X72.1741 Y-98.9737 F12000.0
G1 X72.7532 Y-97.8154 F12000.0
G1 X73.4771 Y-96.7295 F12000.0
G1 X74.4906 Y-95.8608 F12000.0
G1 X75.6489 Y-95.2093 F12000.0
G1 X76.9518 Y-94.8474 F12000.0
G1 X78.0377 Y-94.7025 F12000.0
G1 Z0.0000 F2500.0
G4 P0.02
G0 X84.4081 Y-97.0914 F15000.0
G1 Z11.9000 F2500.0
G4 P0.02
G1 X78.0377 Y-93.3995 F12000.0
G1 Z0.0000 F2500.0
G4 P0.02
G0 X71.5949 Y-97.0914 F15000.0
G1 Z11.9000 F2500.0
G4 P0.02
G1 X71.5949 Y-104.5477 F12000.0
G1 X78.0377 Y-108.2397 F12000.0
G1 Z0.0000 F2500.0
G4 P0.02
G0 X78.0377 Y-96.5123 F15000.0
G1 Z11.9000 F2500.0
G4 P0.02
G1 X79.1235 Y-96.6571 F12000.0
G1 X80.1371 Y-97.0914 F12000.0
G1 X81.0058 Y-97.8154 F12000.0
G1 X81.7296 Y-98.6841 F12000.0
G1 X82.1640 Y-99.6975 F12000.0
G1 X82.3088 Y-100.7834 F12000.0
G1 X82.1640 Y-101.8692 F12000.0
G1 X81.7296 Y-102.9551 F12000.0
G1 X81.0781 Y-103.8238 F12000.0
G1 X80.2094 Y-104.4753 F12000.0
G1 X79.1960 Y-104.9097 F12000.0
G1 X78.1101 Y-105.1268 F12000.0
G1 X76.9518 Y-104.9821 F12000.0
G1 X75.9384 Y-104.5477 F12000.0
G1 X75.0697 Y-103.8962 F12000.0
G1 X74.3458 Y-103.0275 F12000.0
G1 X73.9115 Y-102.0140 F12000.0
G1 X73.7666 Y-100.9281 F12000.0
G1 X73.8391 Y-99.8423 F12000.0
G1 X74.2734 Y-98.7565 F12000.0
G1 X74.9249 Y-97.8878 F12000.0
G1 X75.7936 Y-97.1639 F12000.0
G1 X76.8071 Y-96.7295 F12000.0
G1 X77.8929 Y-96.5848 F12000.0
G1 Z0.0000 F2500.0
G4 P0.02
G0 X82.0192 Y-99.3356 F15000.0
G1 Z11.9000 F2500.0
G4 P0.02
G1 X82.2364 Y-100.4214 F12000.0
G1 X82.2364 Y-101.5796 F12000.0
G1 X81.8744 Y-102.5932 F12000.0
G1 X81.2953 Y-103.5342 F12000.0
G1 X80.4990 Y-104.3306 F12000.0
G1 X79.4855 Y-104.8372 F12000.0
G1 X78.3997 Y-105.0544 F12000.0
G1 X77.3138 Y-105.0544 F12000.0
G1 X76.2280 Y-104.6925 F12000.0
G1 X75.2868 Y-104.1134 F12000.0
G1 X74.5630 Y-103.3170 F12000.0
G1 X73.9838 Y-102.3760 F12000.0
G1 X73.7666 Y-101.2901 F12000.0
G1 X73.7666 Y-100.1319 F12000.0
G1 X74.1287 Y-99.1184 F12000.0
G1 X74.7078 Y-98.1773 F12000.0
G1 X75.5040 Y-97.3810 F12000.0
G1 X76.4451 Y-96.8743 F12000.0
G1 Z0.0000 F2500.0
G4 P0.02
G0 X95.1220 Y-120.9080 F15000.0
G1 Z11.9000 F2500.0
G4 P0.02
G1 X83.2498 Y-120.9080 F12000.0
G1 Z0.0000 F2500.0
G4 P0.02
G0 X72.8256 Y-120.9080 F15000.0
G1 Z11.9000 F2500.0
G4 P0.02
G1 X60.8811 Y-120.9080 F12000.0
G1 Z0.0000 F2500.0
G4 P0.02
G0 X95.1220 Y-79.8625 F15000.0
G1 Z11.9000 F2500.0
G4 P0.02
G1 X60.8811 Y-79.8625 F12000.0
G1 Z0.0000 F2500.0
G4 P0.02
G0 X60.8811 Y-100.8558 F15000.0
G1 Z11.9000 F2500.0
G4 P0.02
G1 X61.0259 Y-98.6116 F12000.0
G1 X61.4602 Y-96.4399 F12000.0
G1 X61.7498 Y-95.4989 F12000.0
G1 Z0.0000 F2500.0
G4 P0.02
G0 X65.2969 Y-89.4181 F15000.0
G1 Z11.9000 F2500.0
G4 P0.02
G1 X66.8171 Y-87.8979 F12000.0
G1 X68.6269 Y-86.5224 F12000.0
G1 X70.5815 Y-85.4365 F12000.0
G1 X72.6084 Y-84.5678 F12000.0
G1 X74.4906 Y-84.0611 F12000.0
G1 Z0.0000 F2500.0
G4 P0.02
G0 X81.5124 Y-84.0611 F15000.0
G1 Z11.9000 F2500.0
G4 P0.02
G1 X83.6842 Y-84.7126 F12000.0
G1 X85.7111 Y-85.5813 F12000.0
G1 X87.5933 Y-86.6671 F12000.0
G1 X89.4031 Y-88.0426 F12000.0
G1 X90.7785 Y-89.4181 F12000.0
G1 Z0.0000 F2500.0
G4 P0.02
G0 X94.2533 Y-95.4989 F15000.0
G1 Z11.9000 F2500.0
G4 P0.02
G1 X94.8324 Y-97.6706 F12000.0
G1 X95.0496 Y-99.8423 F12000.0
G1 X95.0496 Y-102.0864 F12000.0
G1 X94.7600 Y-104.2581 F12000.0
G1 X94.2533 Y-106.1403 F12000.0
G1 Z0.0000 F2500.0
G4 P0.02
G0 X90.7785 Y-112.2211 F15000.0
G1 Z11.9000 F2500.0
G4 P0.02
G1 X89.1859 Y-113.8137 F12000.0
G1 X87.3761 Y-115.1168 F12000.0
G1 X85.4215 Y-116.2026 F12000.0
G1 X83.3947 Y-117.0713 F12000.0
G1 X82.8879 Y-117.2161 F12000.0
G1 Z0.0000 F2500.0
G4 P0.02
G0 X73.1151 Y-117.2161 F15000.0
G1 Z11.9000 F2500.0
G4 P0.02
G1 X71.0158 Y-116.4198 F12000.0
G1 X69.0613 Y-115.4064 F12000.0
G1 X67.2515 Y-114.1033 F12000.0
G1 X65.5865 Y-112.5831 F12000.0
G1 X65.2969 Y-112.2211 F12000.0
G1 Z0.0000 F2500.0
G4 P0.02
G0 X61.7498 Y-106.1403 F15000.0
G1 Z11.9000 F2500.0
G4 P0.02
G1 X61.2430 Y-104.0410 F12000.0
G1 X60.9535 Y-101.7968 F12000.0
G1 X60.8811 Y-100.8558 F12000.0
G1 Z0.0000 F2500.0
G4 P0.02
G0 X60.8811 Y-120.9080 F15000.0
G1 Z11.9000 F2500.0
G4 P0.02
G1 X60.8811 Y-100.8558 F12000.0
G1 Z0.0000 F2500.0
G4 P0.02
G0 X95.1220 Y-100.8558 F15000.0
G1 Z11.9000 F2500.0
G4 P0.02
G1 X95.1220 Y-79.8625 F12000.0
G1 Z0.0000 F2500.0
G4 P0.02
G0 X100.2617 Y-120.9080 F15000.0
G1 Z11.9000 F2500.0
G4 P0.02
G1 X100.2617 Y-79.8625 F12000.0
G1 Z0.0000 F2500.0
G4 P0.02
G0 X95.1220 Y-120.9080 F15000.0
G1 Z11.9000 F2500.0
G4 P0.02
G1 X100.2617 Y-120.9080 F12000.0
G1 Z0.0000 F2500.0
G4 P0.02
G0 X60.8811 Y-79.8625 F15000.0
G1 Z11.9000 F2500.0
G4 P0.02
G1 X55.8137 Y-79.8625 F12000.0
G1 Z0.0000 F2500.0
G4 P0.02
G0 X60.8811 Y-100.8558 F15000.0
G1 Z11.9000 F2500.0
G4 P0.02
G1 X60.8811 Y-79.8625 F12000.0
G1 Z0.0000 F2500.0
G4 P0.02
G0 X100.2617 Y-79.8625 F15000.0
G1 Z11.9000 F2500.0
G4 P0.02
G1 X95.1220 Y-79.8625 F12000.0
G1 Z0.0000 F2500.0
G4 P0.02
G0 X95.1220 Y-120.9080 F15000.0
G1 Z11.9000 F2500.0
G4 P0.02
G1 X95.1220 Y-100.8558 F12000.0
G1 Z0.0000 F2500.0
G4 P0.02
G0 X55.8137 Y-120.9080 F15000.0
G1 Z11.9000 F2500.0
G4 P0.02
G1 X55.8137 Y-79.8625 F12000.0
G1 Z0.0000 F2500.0
G4 P0.02
G0 X95.9907 Y-79.8625 F15000.0
G1 Z11.9000 F2500.0
G4 P0.02
G1 X95.9907 Y-76.4600 F12000.0
G1 X60.0848 Y-76.4600 F12000.0
G1 Z0.0000 F2500.0
G4 P0.02
G0 X60.0848 Y-79.8625 F15000.0
G1 Z11.9000 F2500.0
G4 P0.02
G1 X60.0848 Y-76.4600 F12000.0
G1 Z0.0000 F2500.0
G4 P0.02
G0 X66.0208 Y-76.4600 F15000.0
G1 Z11.9000 F2500.0
G4 P0.02
G1 X66.0208 Y-51.4128 F12000.0
G1 Z0.0000 F2500.0
G4 P0.02
G0 X89.9822 Y-76.4600 F15000.0
G1 Z11.9000 F2500.0
G4 P0.02
G1 X89.9822 Y-51.4128 F12000.0
G1 X88.8963 Y-50.3994 F12000.0
G1 Z0.0000 F2500.0
G4 P0.02
G0 X89.9822 Y-51.4128 F15000.0
G1 Z11.9000 F2500.0
G4 P0.02
G1 X66.0208 Y-51.4128 F12000.0
G1 X67.1067 Y-50.3994 F12000.0
G1 Z0.0000 F2500.0
G4 P0.02
G0 X88.8963 Y-50.3994 F15000.0
G1 Z11.9000 F2500.0
G4 P0.02
G1 X67.1067 Y-50.3994 F12000.0
G1 Z0.0000 F2500.0
G4 P0.02
G0 X72.8979 Y-105.9231 F15000.0
G1 Z11.9000 F2500.0
G4 P0.02
G1 X72.8979 Y-105.2716 F12000.0
G1 Z0.0000 F2500.0
G4 P0.02
G0 X72.8979 Y-96.3676 F15000.0
G1 Z11.9000 F2500.0
G4 P0.02
G1 X72.8979 Y-95.7161 F12000.0
G1 Z0.0000 F2500.0
G4 P0.02
G0 X83.1051 Y-95.7161 F15000.0
G1 Z11.9000 F2500.0
G4 P0.02
G1 X83.1051 Y-96.3676 F12000.0
G1 Z0.0000 F2500.0
G4 P0.02
G0 X83.1051 Y-105.2716 F15000.0
G1 Z11.9000 F2500.0
G4 P0.02
G1 X83.1051 Y-105.9231 F12000.0
G1 X81.9468 Y-105.9231 F12000.0
G1 Z0.0000 F2500.0
G4 P0.02
G0 X74.0562 Y-105.9231 F15000.0
G1 Z11.9000 F2500.0
G4 P0.02
G1 X72.8979 Y-105.9231 F12000.0
G1 Z0.0000 F2500.0
G4 P0.02
G0 X72.8979 Y-95.7161 F15000.0
G1 Z11.9000 F2500.0
G4 P0.02
G1 X74.0562 Y-95.7161 F12000.0
G1 Z0.0000 F2500.0
G4 P0.02
G0 X81.9468 Y-95.7161 F15000.0
G1 Z11.9000 F2500.0
G4 P0.02
G1 X83.1051 Y-95.7161 F12000.0
G1 Z0.0000 F2500.0
G4 P0.02
G0 X78.0377 Y-97.3810 F15000.0
G1 Z11.9000 F2500.0
G4 P0.02
G1 X78.9788 Y-97.5258 F12000.0
G1 X79.9199 Y-97.9601 F12000.0
G1 X80.6437 Y-98.6116 F12000.0
G1 X81.1505 Y-99.4803 F12000.0
G1 X81.4401 Y-100.4214 F12000.0
G1 X81.3677 Y-101.4349 F12000.0
G1 X81.0781 Y-102.3760 F12000.0
G1 X80.4990 Y-103.1723 F12000.0
G1 X79.7027 Y-103.8238 F12000.0
G1 X78.7616 Y-104.1857 F12000.0
G1 X77.8205 Y-104.2581 F12000.0
G1 X76.8071 Y-104.0410 F12000.0
G1 X75.9384 Y-103.5342 F12000.0
G1 X75.2868 Y-102.8827 F12000.0
G1 X74.7802 Y-101.9417 F12000.0
G1 X74.5630 Y-101.0005 F12000.0
G1 X74.7078 Y-99.9871 F12000.0
G1 X75.0697 Y-99.1184 F12000.0
G1 X75.6489 Y-98.3221 F12000.0
G1 X76.5175 Y-97.7430 F12000.0
G1 X77.4586 Y-97.4535 F12000.0
G1 X78.0377 Y-97.3810 F12000.0
G1 Z0.0000 F2500.0
G4 P0.02
G0 X82.8879 Y-116.7817 F15000.0
G1 Z11.9000 F2500.0
G4 P0.02
G1 X94.2533 Y-110.1942 F12000.0
G1 Z0.0000 F2500.0
G4 P0.02
G0 X89.2583 Y-64.0813 F15000.0
G1 Z11.9000 F2500.0
G4 P0.02
G1 X89.2583 Y-51.4128 F12000.0
G1 X89.2583 Y-50.7613 F12000.0
G1 Z0.0000 F2500.0
G4 P0.02
G0 X66.7448 Y-64.0813 F15000.0
G1 Z11.9000 F2500.0
G4 P0.02
G1 X66.7448 Y-51.4128 F12000.0
G1 X66.7448 Y-50.7613 F12000.0
G1 Z0.0000 F2500.0
G4 P0.02
G0 X89.9822 Y-64.0813 F15000.0
G1 Z11.9000 F2500.0
G4 P0.02
G1 X66.0208 Y-64.0813 F12000.0
G1 Z0.0000 F2500.0
G4 P0.02
G0 X67.1067 Y-50.3994 F15000.0
G1 Z11.9000 F2500.0
G4 P0.02
G1 X35.1823 Y-50.3994 F12000.0
G1 Z0.0000 F2500.0
G4 P0.02
G0 X60.8811 Y-120.9080 F15000.0
G1 Z11.9000 F2500.0
G4 P0.02
G1 X35.1823 Y-120.9080 F12000.0
G1 Z0.0000 F2500.0
G4 P0.02
G0 X100.2617 Y-120.9080 F15000.0
G1 Z11.9000 F2500.0
G4 P0.02
G1 X100.2617 Y-169.3375 F12000.0
G1 Z0.0000 F2500.0
G4 P0.02
G0 X55.8137 Y-120.9080 F15000.0
G1 Z11.9000 F2500.0
G4 P0.02
G1 X55.8137 Y-169.3375 F12000.0
G1 Z0.0000 F2500.0
G4 P0.02
G0 X88.8963 Y-50.3994 F15000.0
G1 Z11.9000 F2500.0
G4 P0.02
G1 X114.8123 Y-50.3994 F12000.0
G1 Z0.0000 F2500.0
G4 P0.02
G0 X78.0377 Y-154.2802 F15000.0
G1 Z11.9000 F2500.0
G4 P0.02
G1 X114.8123 Y-154.2802 F12000.0
G1 Z0.0000 F2500.0
G4 P0.02
G0 X36.8474 Y-50.3994 F15000.0
G1 Z11.9000 F2500.0
G4 P0.02
G1 X36.3406 Y-54.6704 F12000.0
G1 X36.8474 Y-54.2361 F12000.0
G1 X37.4265 Y-54.6704 F12000.0
G1 X36.8474 Y-50.3994 F12000.0
G1 Z0.0000 F2500.0
G4 P0.02
G0 X36.5939 Y-52.1139 F15000.0
G1 Z11.9000 F2500.0
G4 P0.02
G1 X36.5939 Y-52.8835 F12000.0
G1 Z0.0000 F2500.0
G4 P0.02
G0 X37.1007 Y-52.3673 F15000.0
G1 Z11.9000 F2500.0
G4 P0.02
G1 X37.1007 Y-53.1368 F12000.0
G1 Z0.0000 F2500.0
G4 P0.02
G0 X36.8474 Y-120.9080 F15000.0
G1 Z11.9000 F2500.0
G4 P0.02
G1 X37.4265 Y-116.6370 F12000.0
G1 X36.8474 Y-117.0713 F12000.0
G1 X36.3406 Y-116.6370 F12000.0
G1 X36.8474 Y-120.9080 F12000.0
G1 Z0.0000 F2500.0
G4 P0.02
G0 X37.1007 Y-118.0982 F15000.0
G1 Z11.9000 F2500.0
G4 P0.02
G1 X37.1007 Y-118.8677 F12000.0
G1 Z0.0000 F2500.0
G4 P0.02
G0 X36.5939 Y-118.3515 F15000.0
G1 Z11.9000 F2500.0
G4 P0.02
G1 X36.5939 Y-119.1210 F12000.0
G1 Z0.0000 F2500.0
G4 P0.02
G0 X36.8474 Y-50.3994 F15000.0
G1 Z11.9000 F2500.0
G4 P0.02
G1 X36.8474 Y-120.9080 F12000.0
G1 Z0.0000 F2500.0
G4 P0.02
G0 X100.2617 Y-167.6001 F15000.0
G1 Z11.9000 F2500.0
G4 P0.02
G1 X95.9907 Y-167.0210 F12000.0
G1 X96.4250 Y-167.6001 F12000.0
G1 X95.9907 Y-168.1792 F12000.0
G1 X100.2617 Y-167.6001 F12000.0
G1 Z0.0000 F2500.0
G4 P0.02
G0 X98.2214 Y-167.3106 F15000.0
G1 Z11.9000 F2500.0
G4 P0.02
G1 X97.4519 Y-167.3106 F12000.0
G1 Z0.0000 F2500.0
G4 P0.02
G0 X98.5109 Y-167.8535 F15000.0
G1 Z11.9000 F2500.0
G4 P0.02
G1 X97.7414 Y-167.8535 F12000.0
G1 Z0.0000 F2500.0
G4 P0.02
G0 X55.8137 Y-167.6001 F15000.0
G1 Z11.9000 F2500.0
G4 P0.02
G1 X60.0848 Y-168.1792 F12000.0
G1 X59.6504 Y-167.6001 F12000.0
G1 X60.0848 Y-167.0210 F12000.0
G1 X55.8137 Y-167.6001 F12000.0
G1 Z0.0000 F2500.0
G4 P0.02
G0 X58.2978 Y-167.8535 F15000.0
G1 Z11.9000 F2500.0
G4 P0.02
G1 X57.5283 Y-167.8535 F12000.0
G1 Z0.0000 F2500.0
G4 P0.02
G0 X58.5512 Y-167.3106 F15000.0
G1 Z11.9000 F2500.0
G4 P0.02
G1 X57.7817 Y-167.3106 F12000.0
G1 Z0.0000 F2500.0
G4 P0.02
G0 X100.2617 Y-167.6001 F15000.0
G1 Z11.9000 F2500.0
G4 P0.02
G1 X55.8137 Y-167.6001 F12000.0
G1 Z0.0000 F2500.0
G4 P0.02
G0 X113.0749 Y-50.3994 F15000.0
G1 Z11.9000 F2500.0
G4 P0.02
G1 X112.5681 Y-54.6704 F12000.0
G1 X113.0749 Y-54.2361 F12000.0
G1 X113.6540 Y-54.6704 F12000.0
G1 X113.0749 Y-50.3994 F12000.0
G1 Z0.0000 F2500.0
G4 P0.02
G0 X112.8215 Y-52.1139 F15000.0
G1 Z11.9000 F2500.0
G4 P0.02
G1 X112.8215 Y-52.8835 F12000.0
G1 Z0.0000 F2500.0
G4 P0.02
G0 X113.3282 Y-52.3673 F15000.0
G1 Z11.9000 F2500.0
G4 P0.02
G1 X113.3282 Y-53.1368 F12000.0
G1 Z0.0000 F2500.0
G4 P0.02
G0 X113.0749 Y-154.2802 F15000.0
G1 Z11.9000 F2500.0
G4 P0.02
G1 X113.6540 Y-150.0092 F12000.0
G1 X113.0749 Y-150.4435 F12000.0
G1 X112.5681 Y-150.0092 F12000.0
G1 X113.0749 Y-154.2802 F12000.0
G1 Z0.0000 F2500.0
G4 P0.02
G0 X113.3282 Y-151.4704 F15000.0
G1 Z11.9000 F2500.0
G4 P0.02
G1 X113.3282 Y-152.2399 F12000.0
G1 Z0.0000 F2500.0
G4 P0.02
G0 X112.8215 Y-151.7237 F15000.0
G1 Z11.9000 F2500.0
G4 P0.02
G1 X112.8215 Y-152.4932 F12000.0
G1 Z0.0000 F2500.0
G4 P0.02
G0 X113.0749 Y-50.3994 F15000.0
G1 Z11.9000 F2500.0
G4 P0.02
G1 X113.0749 Y-154.2802 F12000.0
G1 Z0.0000 F2500.0
G4 P0.02
G0 X180.0000 Y-185.1911 F15000.0
G1 Z11.9000 F2500.0
G4 P0.02
G1 X169.6845 Y-185.1911 F12000.0
G1 Z0.0000 F2500.0
G4 P0.02
G0 X168.3814 Y-185.1911 F15000.0
G1 Z11.9000 F2500.0
G4 P0.02
G1 X167.0784 Y-185.1911 F12000.0
G1 Z0.0000 F2500.0
G4 P0.02
G0 X165.7754 Y-185.1911 F15000.0
G1 Z11.9000 F2500.0
G4 P0.02
G1 X148.8360 Y-185.1911 F12000.0
G1 Z0.0000 F2500.0
G4 P0.02
G0 X166.7889 Y-177.7348 F15000.0
G1 Z11.9000 F2500.0
G4 P0.02
G1 X175.7653 Y-177.7348 F12000.0
G1 Z0.0000 F2500.0
G4 P0.02
G0 X166.7889 Y-192.7198 F15000.0
G1 Z11.9000 F2500.0
G4 P0.02
G1 X175.7653 Y-192.7198 F12000.0
G1 Z0.0000 F2500.0
G4 P0.02
G0 X150.5009 Y-170.6406 F15000.0
G1 Z11.9000 F2500.0
G4 P0.02
G1 X164.9791 Y-170.6406 F12000.0
G1 Z0.0000 F2500.0
G4 P0.02
G0 X150.5009 Y-185.1911 F15000.0
G1 Z11.9000 F2500.0
G4 P0.02
G1 X150.5009 Y-170.6406 F12000.0
G1 Z0.0000 F2500.0
G4 P0.02
G0 X150.5009 Y-199.7416 F15000.0
G1 Z11.9000 F2500.0
G4 P0.02
G1 X164.9791 Y-199.7416 F12000.0
G1 Z0.0000 F2500.0
G4 P0.02
G0 X166.7889 Y-171.5093 F15000.0
G1 Z11.9000 F2500.0
G4 P0.02
G1 X166.2821 Y-170.6406 F12000.0
G1 Z0.0000 F2500.0
G4 P0.02
G0 X166.7889 Y-198.8729 F15000.0
G1 Z11.9000 F2500.0
G4 P0.02
G1 X166.7889 Y-171.5093 F12000.0
G1 Z0.0000 F2500.0
G4 P0.02
G0 X166.7889 Y-198.8729 F15000.0
G1 Z11.9000 F2500.0
G4 P0.02
G1 X166.2821 Y-199.7416 F12000.0
G1 Z0.0000 F2500.0
G4 P0.02
G0 X164.9791 Y-170.6406 F15000.0
G1 Z11.9000 F2500.0
G4 P0.02
G1 X165.4134 Y-171.9436 F12000.0
G1 X165.9202 Y-174.3325 F12000.0
G1 X166.2821 Y-176.7937 F12000.0
G1 X166.2821 Y-178.9655 F12000.0
G1 X165.9926 Y-181.0649 F12000.0
G1 X165.4859 Y-183.4538 F12000.0
G1 X164.9791 Y-185.1911 F12000.0
G1 X165.4134 Y-186.4942 F12000.0
G1 X165.9202 Y-188.8830 F12000.0
G1 X166.2821 Y-191.3443 F12000.0
G1 X166.2821 Y-193.5160 F12000.0
G1 X165.9926 Y-195.6153 F12000.0
G1 X165.4859 Y-198.0042 F12000.0
G1 X164.9791 Y-199.7416 F12000.0
G1 Z0.0000 F2500.0
G4 P0.02
G0 X180.0000 Y-174.1153 F15000.0
G1 Z11.9000 F2500.0
G4 P0.02
G1 X175.7653 Y-174.1153 F12000.0
G1 X175.7653 Y-196.3393 F12000.0
G1 Z0.0000 F2500.0
G4 P0.02
G0 X180.0000 Y-196.3393 F15000.0
G1 Z11.9000 F2500.0
G4 P0.02
G1 X175.7653 Y-196.3393 F12000.0
G1 Z0.0000 F2500.0
G4 P0.02
G0 X166.2821 Y-170.6406 F15000.0
G1 Z11.9000 F2500.0
G4 P0.02
G1 X164.9791 Y-170.6406 F12000.0
G1 Z0.0000 F2500.0
G4 P0.02
G0 X164.9791 Y-199.7416 F15000.0
G1 Z11.9000 F2500.0
G4 P0.02
G1 X166.2821 Y-199.7416 F12000.0
G1 Z0.0000 F2500.0
G4 P0.02
G0 X150.5009 Y-185.1911 F15000.0
G1 Z11.9000 F2500.0
G4 P0.02
G1 X150.5009 Y-219.1424 F12000.0
G1 Z0.0000 F2500.0
G4 P0.02
G0 X150.5009 Y-217.4050 F15000.0
G1 Z11.9000 F2500.0
G4 P0.02
G1 X154.8444 Y-217.9841 F12000.0
G1 X154.4100 Y-217.4050 F12000.0
G1 X154.8444 Y-216.8983 F12000.0
G1 X150.5009 Y-217.4050 F12000.0
G1 Z0.0000 F2500.0
G4 P0.02
G0 X153.0213 Y-217.6584 F15000.0
G1 Z11.9000 F2500.0
G4 P0.02
G1 X152.2517 Y-217.6584 F12000.0
G1 Z0.0000 F2500.0
G4 P0.02
G0 X153.3108 Y-217.1517 F15000.0
G1 Z11.9000 F2500.0
G4 P0.02
G1 X152.5412 Y-217.1517 F12000.0
G1 Z0.0000 F2500.0
G4 P0.02
G0 X180.0000 Y-217.4050 F15000.0
G1 Z11.9000 F2500.0
G4 P0.02
G1 X150.5009 Y-217.4050 F12000.0
G1 Z0.0000 F2500.0
G4 P0.02
G0 X29.1015 Y-143.5664 F15000.0
G1 Z11.9000 F2500.0
G4 P0.02
G1 X29.1015 Y-155.2213 F12000.0
G1 Z0.0000 F2500.0
G4 P0.02
G0 X29.1015 Y-156.5243 F15000.0
G1 Z11.9000 F2500.0
G4 P0.02
G1 X29.1015 Y-157.8998 F12000.0
G1 Z0.0000 F2500.0
G4 P0.02
G0 X29.1015 Y-159.1304 F15000.0
G1 Z11.9000 F2500.0
G4 P0.02
G1 X29.1015 Y-170.7853 F12000.0
G1 Z0.0000 F2500.0
G4 P0.02
G0 X29.1015 Y-172.0884 F15000.0
G1 Z11.9000 F2500.0
G4 P0.02
G1 X29.1015 Y-173.4638 F12000.0
G1 Z0.0000 F2500.0
G4 P0.02
G0 X29.1015 Y-174.6944 F15000.0
G1 Z11.9000 F2500.0
G4 P0.02
G1 X29.1015 Y-186.3493 F12000.0
G1 Z0.0000 F2500.0
G4 P0.02
G0 X29.1015 Y-190.3309 F15000.0
G1 Z11.9000 F2500.0
G4 P0.02
G1 X29.1015 Y-201.9858 F12000.0
G1 Z0.0000 F2500.0
G4 P0.02
G0 X29.1015 Y-205.8949 F15000.0
G1 Z11.9000 F2500.0
G4 P0.02
G1 X29.1015 Y-217.5498 F12000.0
G1 Z0.0000 F2500.0
G4 P0.02
G0 X29.1015 Y-206.4016 F15000.0
G1 Z11.9000 F2500.0
G4 P0.02
G1 X29.1015 Y-195.7602 F12000.0
G1 Z0.0000 F2500.0
G4 P0.02
G0 X29.1015 Y-185.0463 F15000.0
G1 Z11.9000 F2500.0
G4 P0.02
G1 X29.1015 Y-195.7602 F12000.0
G1 Z0.0000 F2500.0
G4 P0.02
G0 X18.4600 Y-195.7602 F15000.0
G1 Z11.9000 F2500.0
G4 P0.02
G1 X29.1015 Y-195.7602 F12000.0
G1 Z0.0000 F2500.0
G4 P0.02
G0 X39.8154 Y-195.7602 F15000.0
G1 Z11.9000 F2500.0
G4 P0.02
G1 X29.1015 Y-195.7602 F12000.0
G1 Z0.0000 F2500.0
G4 P0.02
G0 X34.6032 Y-219.2147 F15000.0
G1 Z11.9000 F2500.0
G4 P0.02
G1 X34.3136 Y-215.8124 F12000.0
G1 Z0.0000 F2500.0
G4 P0.02
G0 X23.8893 Y-215.8124 F15000.0
G1 Z11.9000 F2500.0
G4 P0.02
G1 X23.6722 Y-219.2147 F12000.0
G1 Z0.0000 F2500.0
G4 P0.02
G0 X22.0796 Y-194.0228 F15000.0
G1 Z11.9000 F2500.0
G4 P0.02
G1 X22.5140 Y-192.6473 F12000.0
G1 X23.3102 Y-191.4167 F12000.0
G1 X24.2514 Y-190.3309 F12000.0
G1 X25.4095 Y-189.4622 F12000.0
G1 X26.7126 Y-188.8830 F12000.0
G1 X28.1605 Y-188.5211 F12000.0
G1 X29.6082 Y-188.4487 F12000.0
G1 X31.0560 Y-188.7382 F12000.0
G1 X32.3591 Y-189.2450 F12000.0
G1 X33.5898 Y-189.9688 F12000.0
G1 X34.6756 Y-190.9824 F12000.0
G1 X35.4719 Y-192.2130 F12000.0
G1 X36.0510 Y-193.5160 F12000.0
G1 X36.1958 Y-194.0228 F12000.0
G1 Z0.0000 F2500.0
G4 P0.02
G0 X18.8944 Y-194.0228 F15000.0
G1 Z11.9000 F2500.0
G4 P0.02
G1 X22.0796 Y-194.0228 F12000.0
G1 Z0.0000 F2500.0
G4 P0.02
G0 X39.3810 Y-194.0228 F15000.0
G1 Z11.9000 F2500.0
G4 P0.02
G1 X39.3810 Y-197.4251 F12000.0
G1 X36.1958 Y-197.4251 F12000.0
G1 Z0.0000 F2500.0
G4 P0.02
G0 X18.8944 Y-197.4251 F15000.0
G1 Z11.9000 F2500.0
G4 P0.02
G1 X18.8944 Y-194.0228 F12000.0
G1 Z0.0000 F2500.0
G4 P0.02
G0 X36.1958 Y-194.0228 F15000.0
G1 Z11.9000 F2500.0
G4 P0.02
G1 X39.3810 Y-194.0228 F12000.0
G1 Z0.0000 F2500.0
G4 P0.02
G0 X36.1958 Y-197.4251 F15000.0
G1 Z11.9000 F2500.0
G4 P0.02
G1 X35.6891 Y-198.8006 F12000.0
G1 X34.9651 Y-200.0312 F12000.0
G1 X34.0241 Y-201.1171 F12000.0
G1 X32.7934 Y-201.9858 F12000.0
G1 X31.4904 Y-202.5649 F12000.0
G1 X30.1150 Y-202.9269 F12000.0
G1 X28.6671 Y-202.9992 F12000.0
G1 X27.2193 Y-202.7097 F12000.0
G1 X25.8439 Y-202.2029 F12000.0
G1 X24.6133 Y-201.4790 F12000.0
G1 X23.5998 Y-200.4656 F12000.0
G1 X22.8035 Y-199.2349 F12000.0
G1 X22.2244 Y-197.9319 F12000.0
G1 X22.0796 Y-197.4251 F12000.0
G1 X18.8944 Y-197.4251 F12000.0
G1 Z0.0000 F2500.0
G4 P0.02
G0 X30.8389 Y-186.9285 F15000.0
G1 Z11.9000 F2500.0
G4 P0.02
G1 X29.2463 Y-186.7837 F12000.0
G1 X27.6537 Y-186.8561 F12000.0
G1 Z0.0000 F2500.0
G4 P0.02
G0 X21.4281 Y-145.3038 F15000.0
G1 Z11.9000 F2500.0
G4 P0.02
G1 X36.8474 Y-145.3038 F12000.0
G1 Z0.0000 F2500.0
G4 P0.02
G0 X21.4281 Y-162.3880 F15000.0
G1 Z11.9000 F2500.0
G4 P0.02
G1 X36.8474 Y-162.3880 F12000.0
G1 Z0.0000 F2500.0
G4 P0.02
G0 X27.4365 Y-168.3964 F15000.0
G1 Z11.9000 F2500.0
G4 P0.02
G1 X30.8389 Y-168.3964 F12000.0
G1 Z0.0000 F2500.0
G4 P0.02
G0 X11.1486 Y-174.7668 F15000.0
G1 Z11.9000 F2500.0
G4 P0.02
G1 X11.1486 Y-171.3644 F12000.0
G1 Z0.0000 F2500.0
G4 P0.02
G0 X47.0544 Y-174.7668 F15000.0
G1 Z11.9000 F2500.0
G4 P0.02
G1 X51.3255 Y-174.7668 F12000.0
G1 Z0.0000 F2500.0
G4 P0.02
G0 X27.4365 Y-186.9285 F15000.0
G1 Z11.9000 F2500.0
G4 P0.02
G1 X25.8439 Y-187.3629 F12000.0
G1 X24.3961 Y-188.0867 F12000.0
G1 X23.1655 Y-189.0278 F12000.0
G1 X22.0072 Y-190.1860 F12000.0
G1 X21.1385 Y-191.5615 F12000.0
G1 X20.6317 Y-192.7198 F12000.0
G1 Z0.0000 F2500.0
G4 P0.02
G0 X37.5712 Y-192.7198 F15000.0
G1 Z11.9000 F2500.0
G4 P0.02
G1 X36.9197 Y-191.2719 F12000.0
G1 X35.9787 Y-189.9688 F12000.0
G1 X34.8204 Y-188.8107 F12000.0
G1 X33.5174 Y-187.8695 F12000.0
G1 X32.0696 Y-187.2180 F12000.0
G1 X30.8389 Y-186.9285 F12000.0
G1 Z0.0000 F2500.0
G4 P0.02
G0 X21.4281 Y-162.3880 F15000.0
G1 Z11.9000 F2500.0
G4 P0.02
G1 X21.4281 Y-145.3038 F12000.0
G1 Z0.0000 F2500.0
G4 P0.02
G0 X36.8474 Y-162.3880 F15000.0
G1 Z11.9000 F2500.0
G4 P0.02
G1 X36.8474 Y-145.3038 F12000.0
G1 Z0.0000 F2500.0
G4 P0.02
G0 X20.6317 Y-198.7282 F15000.0
G1 Z11.9000 F2500.0
G4 P0.02
G1 X17.5913 Y-198.7282 F12000.0
G1 Z0.0000 F2500.0
G4 P0.02
G0 X11.1486 Y-171.3644 F15000.0
G1 Z11.9000 F2500.0
G4 P0.02
G1 X17.1570 Y-171.3644 F12000.0
G1 Z0.0000 F2500.0
G4 P0.02
G0 X47.0544 Y-174.7668 F15000.0
G1 Z11.9000 F2500.0
G4 P0.02
G1 X47.0544 Y-171.3644 F12000.0
G1 Z0.0000 F2500.0
G4 P0.02
G0 X17.1570 Y-171.3644 F15000.0
G1 Z11.9000 F2500.0
G4 P0.02
G1 X17.1570 Y-146.3172 F12000.0
G1 Z0.0000 F2500.0
G4 P0.02
G0 X40.6841 Y-192.7198 F15000.0
G1 Z11.9000 F2500.0
G4 P0.02
G1 X40.6841 Y-198.7282 F12000.0
G1 Z0.0000 F2500.0
G4 P0.02
G0 X27.4365 Y-186.9285 F15000.0
G1 Z11.9000 F2500.0
G4 P0.02
G1 X27.4365 Y-168.3964 F12000.0
G1 Z0.0000 F2500.0
G4 P0.02
G0 X6.8775 Y-215.8124 F15000.0
G1 Z11.9000 F2500.0
G4 P0.02
G1 X6.8775 Y-174.7668 F12000.0
G1 Z0.0000 F2500.0
G4 P0.02
G0 X41.1184 Y-171.3644 F15000.0
G1 Z11.9000 F2500.0
G4 P0.02
G1 X41.1184 Y-146.3172 F12000.0
G1 Z0.0000 F2500.0
G4 P0.02
G0 X30.8389 Y-186.9285 F15000.0
G1 Z11.9000 F2500.0
G4 P0.02
G1 X30.8389 Y-168.3964 F12000.0
G1 Z0.0000 F2500.0
G4 P0.02
G0 X17.5913 Y-192.7198 F15000.0
G1 Z11.9000 F2500.0
G4 P0.02
G1 X20.6317 Y-192.7198 F12000.0
G1 Z0.0000 F2500.0
G4 P0.02
G0 X20.6317 Y-198.7282 F15000.0
G1 Z11.9000 F2500.0
G4 P0.02
G1 X21.3557 Y-200.1760 F12000.0
G1 X22.2244 Y-201.4790 F12000.0
G1 X23.3827 Y-202.6373 F12000.0
G1 X24.7580 Y-203.5784 F12000.0
G1 X26.2059 Y-204.2299 F12000.0
G1 X27.7261 Y-204.5918 F12000.0
G1 X29.3911 Y-204.7366 F12000.0
G1 X30.9837 Y-204.5194 F12000.0
G1 X32.5039 Y-204.0127 F12000.0
G1 X33.9517 Y-203.2888 F12000.0
G1 X35.1823 Y-202.3477 F12000.0
G1 X36.2682 Y-201.1171 F12000.0
G1 X37.1369 Y-199.7416 F12000.0
G1 X37.5712 Y-198.7282 F12000.0
G1 Z0.0000 F2500.0
G4 P0.02
G0 X40.0325 Y-145.3038 F15000.0
G1 Z11.9000 F2500.0
G4 P0.02
G1 X36.8474 Y-145.3038 F12000.0
G1 Z0.0000 F2500.0
G4 P0.02
G0 X51.3255 Y-174.7668 F15000.0
G1 Z11.9000 F2500.0
G4 P0.02
G1 X51.3255 Y-215.8124 F12000.0
G1 Z0.0000 F2500.0
G4 P0.02
G0 X41.1184 Y-146.3172 F15000.0
G1 Z11.9000 F2500.0
G4 P0.02
G1 X40.0325 Y-145.3038 F12000.0
G1 Z0.0000 F2500.0
G4 P0.02
G0 X6.8775 Y-174.7668 F15000.0
G1 Z11.9000 F2500.0
G4 P0.02
G1 X11.1486 Y-174.7668 F12000.0
G1 Z0.0000 F2500.0
G4 P0.02
G0 X30.8389 Y-168.3964 F15000.0
G1 Z11.9000 F2500.0
G4 P0.02
G1 X36.8474 Y-162.3880 F12000.0
G1 Z0.0000 F2500.0
G4 P0.02
G0 X17.1570 Y-146.3172 F15000.0
G1 Z11.9000 F2500.0
G4 P0.02
G1 X18.2428 Y-145.3038 F12000.0
G1 Z0.0000 F2500.0
G4 P0.02
G0 X40.6841 Y-198.7282 F15000.0
G1 Z11.9000 F2500.0
G4 P0.02
G1 X37.5712 Y-198.7282 F12000.0
G1 Z0.0000 F2500.0
G4 P0.02
G0 X21.4281 Y-145.3038 F15000.0
G1 Z11.9000 F2500.0
G4 P0.02
G1 X18.2428 Y-145.3038 F12000.0
G1 Z0.0000 F2500.0
G4 P0.02
G0 X27.4365 Y-168.3964 F15000.0
G1 Z11.9000 F2500.0
G4 P0.02
G1 X21.4281 Y-162.3880 F12000.0
G1 Z0.0000 F2500.0
G4 P0.02
G0 X37.5712 Y-192.7198 F15000.0
G1 Z11.9000 F2500.0
G4 P0.02
G1 X40.6841 Y-192.7198 F12000.0
G1 Z0.0000 F2500.0
G4 P0.02
G0 X17.5913 Y-198.7282 F15000.0
G1 Z11.9000 F2500.0
G4 P0.02
G1 X17.5913 Y-192.7198 F12000.0
G1 Z0.0000 F2500.0
G4 P0.02
G0 X6.8775 Y-215.8124 F15000.0
G1 Z11.9000 F2500.0
G4 P0.02
G1 X51.3255 Y-215.8124 F12000.0
G1 Z0.0000 F2500.0
G4 P0.02
G0 X41.1184 Y-171.3644 F15000.0
G1 Z11.9000 F2500.0
G4 P0.02
G1 X47.0544 Y-171.3644 F12000.0
G1 Z0.0000 F2500.0
G4 P0.02
G0 X36.8474 Y-158.9856 F15000.0
G1 Z11.9000 F2500.0
G4 P0.02
G1 X41.1184 Y-158.9856 F12000.0
G1 Z0.0000 F2500.0
G4 P0.02
G0 X40.3945 Y-158.9856 F15000.0
G1 Z11.9000 F2500.0
G4 P0.02
G1 X40.3945 Y-145.6657 F12000.0
G1 Z0.0000 F2500.0
G4 P0.02
G0 X21.4281 Y-158.9856 F15000.0
G1 Z11.9000 F2500.0
G4 P0.02
G1 X23.9618 Y-158.9856 F12000.0
G1 Z0.0000 F2500.0
G4 P0.02
G0 X25.6991 Y-158.9856 F15000.0
G1 Z11.9000 F2500.0
G4 P0.02
G1 X28.3052 Y-158.9856 F12000.0
G1 Z0.0000 F2500.0
G4 P0.02
G0 X29.9702 Y-158.9856 F15000.0
G1 Z11.9000 F2500.0
G4 P0.02
G1 X32.5762 Y-158.9856 F12000.0
G1 Z0.0000 F2500.0
G4 P0.02
G0 X34.2413 Y-158.9856 F15000.0
G1 Z11.9000 F2500.0
G4 P0.02
G1 X36.8474 Y-158.9856 F12000.0
G1 Z0.0000 F2500.0
G4 P0.02
G0 X17.8809 Y-158.9856 F15000.0
G1 Z11.9000 F2500.0
G4 P0.02
G1 X17.8809 Y-145.6657 F12000.0
G1 Z0.0000 F2500.0
G4 P0.02
G0 X17.1570 Y-158.9856 F15000.0
G1 Z11.9000 F2500.0
G4 P0.02
G1 X21.4281 Y-158.9856 F12000.0
G1 Z0.0000 F2500.0
G4 P0.02
G0 X39.3810 Y-196.3393 F15000.0
G1 Z11.9000 F2500.0
G4 P0.02
G1 X38.2952 Y-197.4251 F12000.0
G1 Z0.0000 F2500.0
G4 P0.02
G0 X36.0510 Y-197.8595 F15000.0
G1 Z11.9000 F2500.0
G4 P0.02
G1 X31.2732 Y-202.7097 F12000.0
G1 Z0.0000 F2500.0
G4 P0.02
G0 X39.3810 Y-194.5295 F15000.0
G1 Z11.9000 F2500.0
G4 P0.02
G1 X36.4854 Y-197.4251 F12000.0
G1 Z0.0000 F2500.0
G4 P0.02
G0 X38.0780 Y-194.0228 F15000.0
G1 Z11.9000 F2500.0
G4 P0.02
G1 X29.1015 Y-202.9992 F12000.0
G1 Z0.0000 F2500.0
G4 P0.02
G0 X36.2682 Y-194.0228 F15000.0
G1 Z11.9000 F2500.0
G4 P0.02
G1 X27.5089 Y-202.7820 F12000.0
G1 Z0.0000 F2500.0
G4 P0.02
G0 X35.7615 Y-192.7198 F15000.0
G1 Z11.9000 F2500.0
G4 P0.02
G1 X26.1335 Y-202.3477 F12000.0
G1 Z0.0000 F2500.0
G4 P0.02
G0 X35.1100 Y-191.5615 F15000.0
G1 Z11.9000 F2500.0
G4 P0.02
G1 X24.9752 Y-201.6962 F12000.0
G1 Z0.0000 F2500.0
G4 P0.02
G0 X34.2413 Y-190.6204 F15000.0
G1 Z11.9000 F2500.0
G4 P0.02
G1 X23.9618 Y-200.8999 F12000.0
G1 Z0.0000 F2500.0
G4 P0.02
G0 X33.3002 Y-189.7517 F15000.0
G1 Z11.9000 F2500.0
G4 P0.02
G1 X23.1655 Y-199.8865 F12000.0
G1 Z0.0000 F2500.0
G4 P0.02
G0 X32.1419 Y-189.1002 F15000.0
G1 Z11.9000 F2500.0
G4 P0.02
G1 X22.5140 Y-198.7282 F12000.0
G1 Z0.0000 F2500.0
G4 P0.02
G0 X30.7665 Y-188.6659 F15000.0
G1 Z11.9000 F2500.0
G4 P0.02
G1 X22.0072 Y-197.4251 F12000.0
G1 Z0.0000 F2500.0
G4 P0.02
G0 X29.1739 Y-188.4487 F15000.0
G1 Z11.9000 F2500.0
G4 P0.02
G1 X20.1974 Y-197.4251 F12000.0
G1 Z0.0000 F2500.0
G4 P0.02
G0 X21.7900 Y-194.0228 F15000.0
G1 Z11.9000 F2500.0
G4 P0.02
G1 X18.8944 Y-196.9184 F12000.0
G1 Z0.0000 F2500.0
G4 P0.02
G0 X27.0022 Y-188.7382 F15000.0
G1 Z11.9000 F2500.0
G4 P0.02
G1 X22.1520 Y-193.6608 F12000.0
G1 Z0.0000 F2500.0
G4 P0.02
G0 X19.9802 Y-194.0228 F15000.0
G1 Z11.9000 F2500.0
G4 P0.02
G1 X18.8944 Y-195.1087 F12000.0
G1 Z0.0000 F2500.0
G4 P0.02
G0 X9.0493 Y-215.8124 F15000.0
G1 Z11.9000 F2500.0
G4 P0.02
G1 X6.8775 Y-213.6407 F12000.0
G1 Z0.0000 F2500.0
G4 P0.02
G0 X12.6688 Y-215.8124 F15000.0
G1 Z11.9000 F2500.0
G4 P0.02
G1 X6.8775 Y-210.0212 F12000.0
G1 Z0.0000 F2500.0
G4 P0.02
G0 X16.3607 Y-215.8124 F15000.0
G1 Z11.9000 F2500.0
G4 P0.02
G1 X6.8775 Y-206.4016 F12000.0
G1 Z0.0000 F2500.0
G4 P0.02
G0 X19.9802 Y-215.8124 F15000.0
G1 Z11.9000 F2500.0
G4 P0.02
G1 X6.8775 Y-202.7820 F12000.0
G1 Z0.0000 F2500.0
G4 P0.02
G0 X23.5998 Y-215.8124 F15000.0
G1 Z11.9000 F2500.0
G4 P0.02
G1 X6.8775 Y-199.1625 F12000.0
G1 Z0.0000 F2500.0
G4 P0.02
G0 X27.2193 Y-215.8124 F15000.0
G1 Z11.9000 F2500.0
G4 P0.02
G1 X6.8775 Y-195.5430 F12000.0
G1 Z0.0000 F2500.0
G4 P0.02
G0 X30.8389 Y-215.8124 F15000.0
G1 Z11.9000 F2500.0
G4 P0.02
G1 X6.8775 Y-191.8511 F12000.0
G1 Z0.0000 F2500.0
G4 P0.02
G0 X34.4585 Y-215.8124 F15000.0
G1 Z11.9000 F2500.0
G4 P0.02
G1 X6.8775 Y-188.2316 F12000.0
G1 Z0.0000 F2500.0
G4 P0.02
G0 X38.0780 Y-215.8124 F15000.0
G1 Z11.9000 F2500.0
G4 P0.02
G1 X26.6403 Y-204.3747 F12000.0
G1 Z0.0000 F2500.0
G4 P0.02
G0 X17.5913 Y-195.3258 F15000.0
G1 Z11.9000 F2500.0
G4 P0.02
G1 X6.8775 Y-184.6120 F12000.0
G1 Z0.0000 F2500.0
G4 P0.02
G0 X18.6049 Y-192.7198 F15000.0
G1 Z11.9000 F2500.0
G4 P0.02
G1 X6.8775 Y-180.9924 F12000.0
G1 Z0.0000 F2500.0
G4 P0.02
G0 X41.6975 Y-215.8124 F15000.0
G1 Z11.9000 F2500.0
G4 P0.02
G1 X30.4769 Y-204.5918 F12000.0
G1 Z0.0000 F2500.0
G4 P0.02
G0 X45.3171 Y-215.8124 F15000.0
G1 Z11.9000 F2500.0
G4 P0.02
G1 X33.2278 Y-203.7231 F12000.0
G1 Z0.0000 F2500.0
G4 P0.02
G0 X21.1385 Y-191.6339 F15000.0
G1 Z11.9000 F2500.0
G4 P0.02
G1 X6.8775 Y-177.3729 F12000.0
G1 Z0.0000 F2500.0
G4 P0.02
G0 X22.6587 Y-189.5345 F15000.0
G1 Z11.9000 F2500.0
G4 P0.02
G1 X7.9634 Y-174.7668 F12000.0
G1 Z0.0000 F2500.0
G4 P0.02
G0 X48.9366 Y-215.8124 F15000.0
G1 Z11.9000 F2500.0
G4 P0.02
G1 X35.3272 Y-202.2029 F12000.0
G1 Z0.0000 F2500.0
G4 P0.02
G0 X51.3255 Y-214.5818 F15000.0
G1 Z11.9000 F2500.0
G4 P0.02
G1 X36.9197 Y-200.1760 F12000.0
G1 Z0.0000 F2500.0
G4 P0.02
G0 X24.6857 Y-187.9420 F15000.0
G1 Z11.9000 F2500.0
G4 P0.02
G1 X11.1486 Y-174.4048 F12000.0
G1 Z0.0000 F2500.0
G4 P0.02
G0 X27.3641 Y-186.9285 F15000.0
G1 Z11.9000 F2500.0
G4 P0.02
G1 X11.8001 Y-171.3644 F12000.0
G1 Z0.0000 F2500.0
G4 P0.02
G0 X51.3255 Y-210.9623 F15000.0
G1 Z11.9000 F2500.0
G4 P0.02
G1 X39.0914 Y-198.7282 F12000.0
G1 Z0.0000 F2500.0
G4 P0.02
G0 X51.3255 Y-207.3427 F15000.0
G1 Z11.9000 F2500.0
G4 P0.02
G1 X40.6841 Y-196.6289 F12000.0
G1 Z0.0000 F2500.0
G4 P0.02
G0 X27.4365 Y-183.3813 F15000.0
G1 Z11.9000 F2500.0
G4 P0.02
G1 X15.4197 Y-171.3644 F12000.0
G1 Z0.0000 F2500.0
G4 P0.02
G0 X27.4365 Y-179.7618 F15000.0
G1 Z11.9000 F2500.0
G4 P0.02
G1 X17.1570 Y-169.4823 F12000.0
G1 Z0.0000 F2500.0
G4 P0.02
G0 X40.3945 Y-192.7198 F15000.0
G1 Z11.9000 F2500.0
G4 P0.02
G1 X30.8389 Y-183.1642 F12000.0
G1 Z0.0000 F2500.0
G4 P0.02
G0 X51.3255 Y-203.7231 F15000.0
G1 Z11.9000 F2500.0
G4 P0.02
G1 X40.6841 Y-193.0093 F12000.0
G1 Z0.0000 F2500.0
G4 P0.02
G0 X51.3255 Y-200.0312 F15000.0
G1 Z11.9000 F2500.0
G4 P0.02
G1 X30.8389 Y-179.5446 F12000.0
G1 Z0.0000 F2500.0
G4 P0.02
G0 X27.4365 Y-176.1422 F15000.0
G1 Z11.9000 F2500.0
G4 P0.02
G1 X17.1570 Y-165.8628 F12000.0
G1 Z0.0000 F2500.0
G4 P0.02
G0 X27.4365 Y-172.5227 F15000.0
G1 Z11.9000 F2500.0
G4 P0.02
G1 X17.1570 Y-162.2432 F12000.0
G1 Z0.0000 F2500.0
G4 P0.02
G0 X51.3255 Y-196.4117 F15000.0
G1 Z11.9000 F2500.0
G4 P0.02
G1 X30.8389 Y-175.9250 F12000.0
G1 Z0.0000 F2500.0
G4 P0.02
G0 X51.3255 Y-192.7921 F15000.0
G1 Z11.9000 F2500.0
G4 P0.02
G1 X30.8389 Y-172.3055 F12000.0
G1 Z0.0000 F2500.0
G4 P0.02
G0 X27.4365 Y-168.9032 F15000.0
G1 Z11.9000 F2500.0
G4 P0.02
G1 X17.1570 Y-158.6236 F12000.0
G1 Z0.0000 F2500.0
G4 P0.02
G0 X21.4281 Y-159.2752 F15000.0
G1 Z11.9000 F2500.0
G4 P0.02
G1 X17.1570 Y-155.0041 F12000.0
G1 Z0.0000 F2500.0
G4 P0.02
G0 X51.3255 Y-189.1726 F15000.0
G1 Z11.9000 F2500.0
G4 P0.02
G1 X30.8389 Y-168.6860 F12000.0
G1 Z0.0000 F2500.0
G4 P0.02
G0 X51.3255 Y-185.5531 F15000.0
G1 Z11.9000 F2500.0
G4 P0.02
G1 X32.5039 Y-166.7315 F12000.0
G1 Z0.0000 F2500.0
G4 P0.02
G0 X21.4281 Y-155.6556 F15000.0
G1 Z11.9000 F2500.0
G4 P0.02
G1 X17.1570 Y-151.3846 F12000.0
G1 Z0.0000 F2500.0
G4 P0.02
G0 X21.4281 Y-152.0361 F15000.0
G1 Z11.9000 F2500.0
G4 P0.02
G1 X17.1570 Y-147.7650 F12000.0
G1 Z0.0000 F2500.0
G4 P0.02
G0 X51.3255 Y-181.9335 F15000.0
G1 Z11.9000 F2500.0
G4 P0.02
G1 X34.3136 Y-164.9217 F12000.0
G1 Z0.0000 F2500.0
G4 P0.02
G0 X51.3255 Y-178.3139 F15000.0
G1 Z11.9000 F2500.0
G4 P0.02
G1 X47.8508 Y-174.7668 F12000.0
G1 Z0.0000 F2500.0
G4 P0.02
G0 X47.0544 Y-174.0429 F15000.0
G1 Z11.9000 F2500.0
G4 P0.02
G1 X44.4484 Y-171.3644 F12000.0
G1 Z0.0000 F2500.0
G4 P0.02
G0 X41.1184 Y-168.0345 F15000.0
G1 Z11.9000 F2500.0
G4 P0.02
G1 X36.1234 Y-163.0395 F12000.0
G1 Z0.0000 F2500.0
G4 P0.02
G0 X21.4281 Y-148.3442 F15000.0
G1 Z11.9000 F2500.0
G4 P0.02
G1 X18.3153 Y-145.3038 F12000.0
G1 Z0.0000 F2500.0
G4 P0.02
G0 X41.1184 Y-164.4149 F15000.0
G1 Z11.9000 F2500.0
G4 P0.02
G1 X36.8474 Y-160.1439 F12000.0
G1 Z0.0000 F2500.0
G4 P0.02
G0 X41.1184 Y-160.7954 F15000.0
G1 Z11.9000 F2500.0
G4 P0.02
G1 X36.8474 Y-156.5243 F12000.0
G1 Z0.0000 F2500.0
G4 P0.02
G0 X41.1184 Y-157.1759 F15000.0
G1 Z11.9000 F2500.0
G4 P0.02
G1 X36.8474 Y-152.9048 F12000.0
G1 Z0.0000 F2500.0
G4 P0.02
G0 X41.1184 Y-153.5563 F15000.0
G1 Z11.9000 F2500.0
G4 P0.02
G1 X36.8474 Y-149.2852 F12000.0
G1 Z0.0000 F2500.0
G4 P0.02
G0 X41.1184 Y-149.9367 F15000.0
G1 Z11.9000 F2500.0
G4 P0.02
G1 X36.8474 Y-145.5933 F12000.0
G1 Z0.0000 F2500.0
G4 P0.02
G0 X180.0000 Y-29.2612 F15000.0
G1 Z11.9000 F2500.0
G4 P0.02
G1 X4.7782 Y-29.2612 F12000.0
G1 X4.7782 Y-274.6662 F12000.0
G1 X180.0000 Y-274.6662 F12000.0
G1 Z0.0000 F2500.0
G4 P0.02
G0 X162.9522 Y-227.6121 F15000.0
G1 Z11.9000 F2500.0
G4 P0.02
G1 X4.7782 Y-227.6121 F12000.0
G1 Z0.0000 F2500.0
G4 P0.02
G0 X162.9522 Y-236.1542 F15000.0
G1 Z11.9000 F2500.0
G4 P0.02
G1 X107.3560 Y-236.1542 F12000.0
G1 Z0.0000 F2500.0
G4 P0.02
G0 X162.9522 Y-240.4253 F15000.0
G1 Z11.9000 F2500.0
G4 P0.02
G1 X107.3560 Y-240.4253 F12000.0
G1 Z0.0000 F2500.0
G4 P0.02
G0 X162.9522 Y-253.2384 F15000.0
G1 Z11.9000 F2500.0
G4 P0.02
G1 X107.3560 Y-253.2384 F12000.0
G1 Z0.0000 F2500.0
G4 P0.02
G0 X162.9522 Y-257.5819 F15000.0
G1 Z11.9000 F2500.0
G4 P0.02
G1 X107.3560 Y-257.5819 F12000.0
G1 Z0.0000 F2500.0
G4 P0.02
G0 X162.9522 Y-261.8530 F15000.0
G1 Z11.9000 F2500.0
G4 P0.02
G1 X107.3560 Y-261.8530 F12000.0
G1 Z0.0000 F2500.0
G4 P0.02
G0 X162.9522 Y-266.1240 F15000.0
G1 Z11.9000 F2500.0
G4 P0.02
G1 X107.3560 Y-266.1240 F12000.0
G1 Z0.0000 F2500.0
G4 P0.02
G0 X162.9522 Y-270.3951 F15000.0
G1 Z11.9000 F2500.0
G4 P0.02
G1 X107.3560 Y-270.3951 F12000.0
G1 Z0.0000 F2500.0
G4 P0.02
G0 X162.9522 Y-274.6662 F15000.0
G1 Z11.9000 F2500.0
G4 P0.02
G1 X162.9522 Y-227.6121 F12000.0
G1 Z0.0000 F2500.0
G4 P0.02
G0 X162.9522 Y-231.8832 F15000.0
G1 Z11.9000 F2500.0
G4 P0.02
G1 X107.3560 Y-231.8832 F12000.0
G1 Z0.0000 F2500.0
G4 P0.02
G0 X148.4016 Y-274.6662 F15000.0
G1 Z11.9000 F2500.0
G4 P0.02
G1 X148.4016 Y-227.6121 F12000.0
G1 Z0.0000 F2500.0
G4 P0.02
G0 X128.7113 Y-274.6662 F15000.0
G1 Z11.9000 F2500.0
G4 P0.02
G1 X128.7113 Y-227.6121 F12000.0
G1 Z0.0000 F2500.0
G4 P0.02
G0 X115.8981 Y-274.6662 F15000.0
G1 Z11.9000 F2500.0
G4 P0.02
G1 X115.8981 Y-227.6121 F12000.0
G1 Z0.0000 F2500.0
G4 P0.02
G0 X107.3560 Y-274.6662 F15000.0
G1 Z11.9000 F2500.0
G4 P0.02
G1 X107.3560 Y-227.6121 F12000.0
G1 Z0.0000 F2500.0
G4 P0.02
G0 X47.4887 Y-274.6662 F15000.0
G1 Z11.9000 F2500.0
G4 P0.02
G1 X47.4887 Y-240.4253 F12000.0
G1 Z0.0000 F2500.0
G4 P0.02
G0 X34.6756 Y-257.5819 F15000.0
G1 Z11.9000 F2500.0
G4 P0.02
G1 X34.6756 Y-240.4253 F12000.0
G1 Z0.0000 F2500.0
G4 P0.02
G0 X20.1251 Y-257.5819 F15000.0
G1 Z11.9000 F2500.0
G4 P0.02
G1 X20.1251 Y-240.4253 F12000.0
G1 Z0.0000 F2500.0
G4 P0.02
G0 X162.9522 Y-244.6964 F15000.0
G1 Z11.9000 F2500.0
G4 P0.02
G1 X107.3560 Y-244.6964 F12000.0
G1 Z0.0000 F2500.0
G4 P0.02
G0 X162.9522 Y-248.9674 F15000.0
G1 Z11.9000 F2500.0
G4 P0.02
G1 X107.3560 Y-248.9674 F12000.0
G1 Z0.0000 F2500.0
G4 P0.02
G0 X47.4887 Y-261.8530 F15000.0
G1 Z11.9000 F2500.0
G4 P0.02
G1 X4.7782 Y-261.8530 F12000.0
G1 Z0.0000 F2500.0
G4 P0.02
G0 X34.6756 Y-244.6964 F15000.0
G1 Z11.9000 F2500.0
G4 P0.02
G1 X4.7782 Y-244.6964 F12000.0
G1 Z0.0000 F2500.0
G4 P0.02
G0 X47.4887 Y-244.6964 F15000.0
G1 Z11.9000 F2500.0
G4 P0.02
G1 X34.6756 Y-244.6964 F12000.0
G1 Z0.0000 F2500.0
G4 P0.02
G0 X107.3560 Y-240.4253 F15000.0
G1 Z11.9000 F2500.0
G4 P0.02
G1 X4.7782 Y-240.4253 F12000.0
G1 Z0.0000 F2500.0
G4 P0.02
G0 X107.3560 Y-261.8530 F15000.0
G1 Z11.9000 F2500.0
G4 P0.02
G1 X47.4887 Y-261.8530 F12000.0
G1 Z0.0000 F2500.0
G4 P0.02
G0 X47.4887 Y-257.5819 F15000.0
G1 Z11.9000 F2500.0
G4 P0.02
G1 X4.7782 Y-257.5819 F12000.0
G1 Z0.0000 F2500.0
G4 P0.02
G0 X29.8978 Y-261.8530 F15000.0
G1 Z11.9000 F2500.0
G4 P0.02
G1 X29.8978 Y-257.5819 F12000.0
G1 Z0.0000 F2500.0
G4 P0.02
G0 X43.2177 Y-257.5819 F15000.0
G1 Z11.9000 F2500.0
G4 P0.02
G1 X43.2177 Y-244.6964 F12000.0
G1 Z0.0000 F2500.0
G4 P0.02
G0 X38.9467 Y-257.5819 F15000.0
G1 Z11.9000 F2500.0
G4 P0.02
G1 X38.9467 Y-244.6964 F12000.0
G1 Z0.0000 F2500.0
G4 P0.02
G0 X156.9437 Y-248.9674 F15000.0
G1 Z11.9000 F2500.0
G4 P0.02
G1 X156.9437 Y-227.6121 F12000.0
G1 Z0.0000 F2500.0
G4 P0.02
G0 X77.3174 Y-231.6647 F15000.0
G1 Z11.9000 F2500.0
G4 P0.02
G1 X77.4465 Y-232.1993 F12000.0
G1 X77.7442 Y-232.4835
G1 X77.3174 Y-236.0253
G1 Z0.0000 F2500.0
G4 P0.02
G0 X80.3100 Y-236.0253 F15000.0
G1 Z11.9000 F2500.0
G4 P0.02
G1 X80.2778 Y-232.4855 F12000.0
G1 X80.1983 Y-232.3511
G1 X80.3324 Y-231.8008
G1 X80.1817 Y-232.4350
G1 X78.8169 Y-233.8152
G1 X78.6507 Y-233.7663
G1 X77.7877 Y-232.4342
G1 Z0.0000 F2500.0
G4 P0.02
G0 X78.7709 Y-233.8023 F15000.0
G1 Z11.9000 F2500.0
G4 P0.02
G1 X78.8137 Y-234.1443 F12000.0
G1 Z0.0000 F2500.0
G4 P0.02
G0 X75.8211 Y-233.1610 F15000.0
G1 Z11.9000 F2500.0
G4 P0.02
G1 X75.7716 Y-234.0465 F12000.0
G1 X75.4409 Y-234.4654
G1 X73.9269 Y-234.5986
G1 X73.8119 Y-235.9398
G1 Z0.0000 F2500.0
G4 P0.02
G0 X73.8546 Y-234.5290 F15000.0
G1 Z11.9000 F2500.0
G4 P0.02
G1 X73.8119 Y-233.2465 F12000.0
G1 Z0.0000 F2500.0
G4 P0.02
G0 X72.2729 Y-232.2205 F15000.0
G1 Z11.9000 F2500.0
G4 P0.02
G1 X71.8912 Y-231.7624 F12000.0
G1 X72.2712 Y-232.3310
G1 X72.2935 Y-235.4359
G1 X72.1761 Y-235.6026
G1 X71.0476 Y-236.0444
G1 X70.8374 Y-236.0153
G1 X70.6046 Y-235.7973
G1 X70.3675 Y-235.3126
G1 X70.7625 Y-231.8951
G1 X70.8641 Y-231.7394
G1 X71.1746 Y-231.6476
G1 X71.8453 Y-231.7075
G1 Z0.0000 F2500.0
G4 P0.02
G0 X68.7673 Y-232.2205 F15000.0
G1 Z11.9000 F2500.0
G4 P0.02
G1 X68.7276 Y-235.5370 F12000.0
G1 X67.5306 Y-236.0469
G1 X67.3206 Y-236.0118
G1 X66.9193 Y-235.5033
G1 X66.8612 Y-235.3010
G1 X67.2588 Y-231.8834
G1 X67.3673 Y-231.7337
G1 X67.6808 Y-231.6458
G1 X68.2276 Y-231.6943
G1 X68.7246 Y-232.1350
G1 Z0.0000 F2500.0
G4 P0.02
G0 X72.2729 Y-235.5123 F15000.0
G1 Z11.9000 F2500.0
G4 P0.02
G1 X72.2301 Y-235.5978 F12000.0
G1 Z0.0000 F2500.0
G4 P0.02
G0 X63.7227 Y-233.5457 F15000.0
G1 Z11.9000 F2500.0
G4 P0.02
G1 X62.2889 Y-233.7096 F12000.0
G1 X61.9619 Y-233.9744
G1 X61.8844 Y-234.1689
G1 X61.8487 Y-235.3891
G1 X61.9340 Y-235.7027
G1 X62.1668 Y-235.9616
G1 X63.2812 Y-236.0268
G1 X63.7027 Y-235.6891
G1 X63.8009 Y-235.3862
G1 X63.7226 Y-233.6102
G1 X63.5820 Y-232.9636
G1 X62.4402 Y-231.6647
G1 Z0.0000 F2500.0
G4 P0.02
G0 X62.1837 Y-233.7167 F15000.0
G1 Z11.9000 F2500.0
G4 P0.02
G1 X61.8845 Y-234.0588 F12000.0
G1 Z0.0000 F2500.0
G4 P0.02
G0 X60.2600 Y-235.5123 F15000.0
G1 Z11.9000 F2500.0
G4 P0.02
G1 X60.2172 Y-235.5978 F12000.0
G1 Z0.0000 F2500.0
G4 P0.02
G0 X60.2600 Y-232.2205 F15000.0
G1 Z11.9000 F2500.0
G4 P0.02
G1 X59.8783 Y-231.7624 F12000.0
G1 X60.2583 Y-232.3310
G1 X60.2806 Y-235.4359
G1 X60.1633 Y-235.6026
G1 X59.0347 Y-236.0444
G1 X58.8245 Y-236.0153
G1 X58.5917 Y-235.7973
G1 X58.3546 Y-235.3126
G1 X58.7496 Y-231.8951
G1 X58.8512 Y-231.7394
G1 X59.1618 Y-231.6476
G1 X59.8324 Y-231.7075
G1 Z0.0000 F2500.0
G4 P0.02
G0 X55.2581 Y-232.2205 F15000.0
G1 Z11.9000 F2500.0
G4 P0.02
G1 X55.2185 Y-235.5370 F12000.0
G1 X54.0221 Y-236.0443
G1 X53.7229 Y-235.9506
G1 X53.3522 Y-235.2990
G1 X53.7499 Y-231.8815
G1 X53.8596 Y-231.7328
G1 X54.1736 Y-231.6455
G1 X54.7203 Y-231.6947
G1 X55.2154 Y-232.1350
G1 Z0.0000 F2500.0
G4 P0.02
G0 X51.7526 Y-232.2205 F15000.0
G1 Z11.9000 F2500.0
G4 P0.02
G1 X51.7129 Y-235.5370 F12000.0
G1 X50.5166 Y-236.0443
G1 X50.2173 Y-235.9506
G1 X49.8466 Y-235.2990
G1 X50.2444 Y-231.8815
G1 X50.3541 Y-231.7328
G1 X50.6681 Y-231.6455
G1 X51.2147 Y-231.6947
G1 X51.7098 Y-232.1350
G1 Z0.0000 F2500.0
G4 P0.02
G0 X46.7509 Y-232.2205 F15000.0
G1 Z11.9000 F2500.0
G4 P0.02
G1 X46.3691 Y-231.7624 F12000.0
G1 X46.7492 Y-232.3310
G1 X46.7715 Y-235.4359
G1 X46.6541 Y-235.6026
G1 X45.5262 Y-236.0420
G1 X45.2235 Y-235.9589
G1 X44.8456 Y-235.3106
G1 X45.2407 Y-231.8932
G1 X45.3434 Y-231.7384
G1 X45.6545 Y-231.6474
G1 X46.3233 Y-231.7075
G1 Z0.0000 F2500.0
G4 P0.02
G0 X43.2452 Y-232.2205 F15000.0
G1 Z11.9000 F2500.0
G4 P0.02
G1 X42.8636 Y-231.7624 F12000.0
G1 X43.2436 Y-232.3310
G1 X43.2659 Y-235.4359
G1 X43.1486 Y-235.6026
G1 X42.0200 Y-236.0444
G1 X41.8098 Y-236.0153
G1 X41.5770 Y-235.7973
G1 X41.3399 Y-235.3126
G1 X41.7349 Y-231.8951
G1 X41.8364 Y-231.7394
G1 X42.1471 Y-231.6476
G1 X42.8177 Y-231.7075
G1 Z0.0000 F2500.0
G4 P0.02
G0 X43.2452 Y-235.5123 F15000.0
G1 Z11.9000 F2500.0
G4 P0.02
G1 X43.2025 Y-235.5978 F12000.0
G1 Z0.0000 F2500.0
G4 P0.02
G0 X46.7080 Y-235.5978 F15000.0
G1 Z11.9000 F2500.0
G4 P0.02
G1 X46.7509 Y-235.5123 F12000.0
G1 Z0.0000 F2500.0
G4 P0.02
G0 X35.1227 Y-231.6220 F15000.0
G1 Z11.9000 F2500.0
G4 P0.02
G1 X36.2271 Y-231.7342 F12000.0
G1 X36.3928 Y-231.8150
G1 X36.9413 Y-235.1982
G1 X36.8103 Y-235.6041
G1 X36.4046 Y-235.9644
G1 X35.1227 Y-236.0680
G1 Z0.0000 F2500.0
G4 P0.02
G0 X33.4127 Y-235.5978 F15000.0
G1 Z11.9000 F2500.0
G4 P0.02
G1 X33.3734 Y-233.5124 F12000.0
G1 X32.9687 Y-233.1757
G1 X32.2584 Y-233.0327
G1 Z0.0000 F2500.0
G4 P0.02
G0 X31.6171 Y-231.6220 F15000.0
G1 Z11.9000 F2500.0
G4 P0.02
G1 X33.2156 Y-231.6428 F12000.0
G1 X33.0617 Y-231.7322
G1 X32.9178 Y-232.1069
G1 X32.2283 Y-233.0537
G1 X31.6976 Y-233.3435
G1 X31.5140 Y-235.5190
G1 X31.5914 Y-235.7214
G1 X31.8173 Y-235.9576
G1 X32.0122 Y-236.0293
G1 X32.8941 Y-236.0392
G1 X33.3606 Y-235.6621
G1 X32.9852 Y-236.0253
G1 Z0.0000 F2500.0
G4 P0.02
G0 X42.6163 Y-241.6667 F15000.0
G1 Z11.9000 F2500.0
G4 P0.02
G1 X41.9750 Y-243.9325 F12000.0
G1 Z0.0000 F2500.0
G4 P0.02
G0 X43.2576 Y-243.9325 F15000.0
G1 Z11.9000 F2500.0
G4 P0.02
G1 X42.6590 Y-241.7522 F12000.0
G1 Z0.0000 F2500.0
G4 P0.02
G0 X41.1628 Y-242.4790 F15000.0
G1 Z11.9000 F2500.0
G4 P0.02
G1 X41.1602 Y-243.6897 F12000.0
G1 X41.0160 Y-243.8220
G1 X40.1857 Y-243.9652
G1 X40.0940 Y-242.4790
G1 Z0.0000 F2500.0
G4 P0.02
G0 X38.4695 Y-242.3935 F15000.0
G1 Z11.9000 F2500.0
G4 P0.02
G1 X37.7627 Y-243.9481 F12000.0
G1 X38.4661 Y-243.9438
G1 X38.5157 Y-242.4231
G1 X39.2818 Y-243.9753
G1 Z0.0000 F2500.0
G4 P0.02
G0 X30.1254 Y-241.6240 F15000.0
G1 Z11.9000 F2500.0
G4 P0.02
G1 X30.2092 Y-241.9417 F12000.0
G1 X30.7968 Y-242.6661
G1 X31.0396 Y-242.6844
G1 X31.6811 Y-242.0599
G1 X31.7478 Y-242.2886
G1 X31.7499 Y-243.9325
G1 Z0.0000 F2500.0
G4 P0.02
G0 X30.9376 Y-242.7355 F15000.0
G1 Z11.9000 F2500.0
G4 P0.02
G1 X31.3210 Y-242.2920 F12000.0
G1 X30.9164 Y-242.6971
G1 X30.2371 Y-242.0678
G1 X30.1254 Y-243.9753
G1 Z0.0000 F2500.0
G4 P0.02
G0 X28.2443 Y-243.8470 F15000.0
G1 Z11.9000 F2500.0
G4 P0.02
G1 X28.8955 Y-242.4341 F12000.0
G1 X29.2699 Y-243.6401
G1 X28.5081 Y-243.9783
G1 X28.1161 Y-243.9325
G1 Z0.0000 F2500.0
G4 P0.02
G0 X26.6198 Y-244.0180 F15000.0
G1 Z11.9000 F2500.0
G4 P0.02
G1 X27.3339 Y-243.6250 F12000.0
G1 X26.6198 Y-242.3507
G1 Z0.0000 F2500.0
G4 P0.02
G0 X24.9953 Y-242.3507 F15000.0
G1 Z11.9000 F2500.0
G4 P0.02
G1 X25.7022 Y-243.6723 F12000.0
G1 X24.9953 Y-244.0180
G1 Z0.0000 F2500.0
G4 P0.02
G0 X23.0715 Y-243.8470 F15000.0
G1 Z11.9000 F2500.0
G4 P0.02
G1 X23.7227 Y-242.4341 F12000.0
G1 X24.0971 Y-243.6401
G1 X23.3353 Y-243.9783
G1 X22.9433 Y-243.9325
G1 Z0.0000 F2500.0
G4 P0.02
G0 X6.6034 Y-241.6453 F15000.0
G1 Z11.9000 F2500.0
G4 P0.02
G1 X5.9035 Y-241.6694 F12000.0
G1 X6.1658 Y-242.2878
G1 X5.9868 Y-242.4868
G1 X5.8521 Y-243.5746
G1 X5.9575 Y-243.8993
G1 X5.9239 Y-243.8404
G1 X6.4905 Y-243.9729
G1 X6.6873 Y-243.8916
G1 X6.8072 Y-243.7183
G1 X6.7768 Y-242.6314
G1 X6.6309 Y-242.4769
G1 X6.2742 Y-242.3093
G1 X6.6463 Y-241.7308
G1 Z0.0000 F2500.0
G4 P0.02
G0 X7.5868 Y-243.8256 F15000.0
G1 Z11.9000 F2500.0
G4 P0.02
G1 X7.3729 Y-243.9539 F12000.0
G1 Z0.0000 F2500.0
G4 P0.02
G0 X8.3989 Y-243.9539 F15000.0
G1 Z11.9000 F2500.0
G4 P0.02
G1 X8.5623 Y-243.8018 F12000.0
G1 X8.2408 Y-243.9790
G1 X7.8034 Y-243.9276
G1 X7.6317 Y-243.8332
G1 X7.7067 Y-242.4499
G1 X8.2289 Y-242.4163
G1 X8.5097 Y-242.5352
G1 X8.6021 Y-242.7231
G1 X8.6421 Y-243.6969
G1 X9.3283 Y-243.8715
G1 X9.5239 Y-242.5413
G1 X9.8006 Y-242.4167
G1 X10.8556 Y-242.4742
G1 X10.9313 Y-243.8609
G1 X10.2396 Y-243.8789
G1 X10.2373 Y-242.4149
G1 Z0.0000 F2500.0
G4 P0.02
G0 X11.6907 Y-242.5004 F15000.0
G1 Z11.9000 F2500.0
G4 P0.02
G1 X12.4024 Y-243.8791 F12000.0
G1 X12.5030 Y-243.9539
G1 Z0.0000 F2500.0
G4 P0.02
G0 X12.5030 Y-242.5004 F15000.0
G1 Z11.9000 F2500.0
G4 P0.02
G1 X12.5312 Y-243.9227 F12000.0
G1 X12.6995 Y-243.9805
G1 X13.0232 Y-243.9326
G1 X13.1818 Y-243.7995
G1 X13.2725 Y-242.5004
G1 Z0.0000 F2500.0
G4 P0.02
G0 X14.0421 Y-242.4149 F15000.0
G1 Z11.9000 F2500.0
G4 P0.02
G1 X14.5781 Y-242.4619 F12000.0
G1 X14.7221 Y-242.6136
G1 X14.7177 Y-243.8048
G1 X14.5568 Y-243.9351
G1 X14.0421 Y-243.9966
G1 Z0.0000 F2500.0
G4 P0.02
G0 X15.5383 Y-243.8256 F15000.0
G1 Z11.9000 F2500.0
G4 P0.02
G1 X15.3996 Y-243.9225 F12000.0
G1 X15.7093 Y-243.9111
G1 Z0.0000 F2500.0
G4 P0.02
G0 X16.3505 Y-243.9539 F15000.0
G1 Z11.9000 F2500.0
G4 P0.02
G1 X16.5139 Y-243.8018 F12000.0
G1 X16.1924 Y-243.9790
G1 X15.7550 Y-243.9276
G1 X15.5833 Y-243.8332
G1 Z0.0000 F2500.0
G4 P0.02
G0 X15.6583 Y-242.4499 F15000.0
G1 Z11.9000 F2500.0
G4 P0.02
G1 X16.3815 Y-242.4671 F12000.0
G1 X16.5215 Y-242.6225
G1 X16.5644 Y-243.7401
G1 Z0.0000 F2500.0
G4 P0.02
G0 X17.3338 Y-243.9111 F15000.0
G1 Z11.9000 F2500.0
G4 P0.02
G1 X17.4121 Y-242.2458 F12000.0
G1 X17.3523 Y-241.8137
G1 X17.4305 Y-242.0743
G1 X18.1076 Y-242.7650
G1 X18.5702 Y-242.2641
G1 X18.8123 Y-242.1236
G1 X18.9019 Y-241.8465
G1 X18.9156 Y-243.9111
G1 Z0.0000 F2500.0
G4 P0.02
G0 X87.6526 Y-243.1349 F15000.0
G1 Z11.9000 F2500.0
G4 P0.02
G1 X89.3995 Y-243.0397 F12000.0
G1 X89.4640 Y-243.2075
G1 X89.5589 Y-245.0307
G1 X87.7001 Y-245.0214
G1 X87.5090 Y-245.0901
G1 X87.0618 Y-245.5782
G1 X86.9259 Y-245.8775
G1 X86.8566 Y-246.4241
G1 X87.1080 Y-247.0199
G1 X87.6590 Y-247.4739
G1 X87.9172 Y-247.4511
G1 X89.6191 Y-245.0586
G1 Z0.0000 F2500.0
G4 P0.02
G0 X87.5244 Y-244.9731 F15000.0
G1 Z11.9000 F2500.0
G4 P0.02
G1 X87.2219 Y-244.5082 F12000.0
G1 X87.1253 Y-244.1966
G1 X87.5671 Y-243.1776
G1 Z0.0000 F2500.0
G4 P0.02
G0 X87.1824 Y-244.4601 F15000.0
G1 Z11.9000 F2500.0
G4 P0.02
G1 X87.4389 Y-244.8021 F12000.0
G1 Z0.0000 F2500.0
G4 P0.02
G0 X85.4723 Y-245.9991 F15000.0
G1 Z11.9000 F2500.0
G4 P0.02
G1 X85.1544 Y-244.8194 F12000.0
G1 X85.0353 Y-244.6552
G1 X84.2795 Y-244.5678
G1 X83.5457 Y-245.0258
G1 X83.5385 Y-246.0238
G1 X85.2822 Y-246.0046
G1 X85.4338 Y-246.0583
G1 X85.1784 Y-247.3292
G1 X85.0364 Y-247.4643
G1 X81.9930 Y-247.4783
G1 X81.9668 Y-246.0846
G1 Z0.0000 F2500.0
G4 P0.02
G0 X81.9668 Y-244.5884 F15000.0
G1 Z11.9000 F2500.0
G4 P0.02
G1 X81.9456 Y-246.0117 F12000.0
G1 X81.8881 Y-246.0641
G1 X80.0364 Y-246.0687
G1 X79.9599 Y-246.2303
G1 X79.9042 Y-247.5095
G1 X78.5152 Y-247.5101
G1 X78.3242 Y-244.6157
G1 X76.9846 Y-244.5820
G1 X76.9136 Y-247.3834
G1 X75.4579 Y-247.4323
G1 X75.7674 Y-244.7244
G1 X75.9500 Y-244.6345
G1 X76.9222 Y-244.5456
G1 Z0.0000 F2500.0
G4 P0.02
G0 X73.9297 Y-244.5884 F15000.0
G1 Z11.9000 F2500.0
G4 P0.02
G1 X73.6467 Y-247.2400 F12000.0
G1 X73.5666 Y-247.4206
G1 X73.2646 Y-247.5007
G1 X70.5509 Y-247.5348
G1 X70.3762 Y-247.4486
G1 X68.5590 Y-244.6154
G1 X68.4149 Y-247.5382
G1 Z0.0000 F2500.0
G4 P0.02
G0 X66.9186 Y-246.0846 F15000.0
G1 Z11.9000 F2500.0
G4 P0.02
G1 X66.8033 Y-247.4922 F12000.0
G1 X65.1911 Y-247.3913
G1 X65.0410 Y-247.2507
G1 X64.9338 Y-246.9407
G1 X65.0246 Y-246.4140
G1 X65.2480 Y-246.1808
G1 X66.8693 Y-246.0557
G1 X66.9186 Y-244.5884
G1 Z0.0000 F2500.0
G4 P0.02
G0 X65.2086 Y-247.4099 F15000.0
G1 Z11.9000 F2500.0
G4 P0.02
G1 X65.2941 Y-247.4954 F12000.0
G1 Z0.0000 F2500.0
G4 P0.02
G0 X71.9204 Y-247.4527 F15000.0
G1 Z11.9000 F2500.0
G4 P0.02
G1 X71.9204 Y-244.5884 F12000.0
G1 Z0.0000 F2500.0
G4 P0.02
G0 X79.9575 Y-244.5884 F15000.0
G1 Z11.9000 F2500.0
G4 P0.02
G1 X79.9575 Y-245.9991 F12000.0
G1 Z0.0000 F2500.0
G4 P0.02
G0 X142.7480 Y-245.8990 F15000.0
G1 Z11.9000 F2500.0
G4 P0.02
G1 X142.7527 Y-247.0975 F12000.0
G1 X142.8459 Y-247.2987
G1 X143.3439 Y-246.8350
G1 X143.7725 Y-246.2935
G1 X143.8577 Y-246.5033
G1 X143.8596 Y-247.7800
G1 Z0.0000 F2500.0
G4 P0.02
G0 X143.3465 Y-246.8395 F15000.0
G1 Z11.9000 F2500.0
G4 P0.02
G1 X143.5606 Y-246.4442 F12000.0
G1 X143.0749 Y-247.1927
G1 X142.9190 Y-247.2670
G1 Z0.0000 F2500.0
G4 P0.02
G0 X141.9785 Y-246.6685 F15000.0
G1 Z11.9000 F2500.0
G4 P0.02
G1 X142.2088 Y-246.5575 F12000.0
G1 X142.1737 Y-245.8705
G1 X141.9677 Y-245.7824
G1 X141.8280 Y-245.9883
G1 X141.9235 Y-246.6399
G1 X141.8930 Y-246.5830
G1 Z0.0000 F2500.0
G4 P0.02
G0 X139.6273 Y-245.6853 F15000.0
G1 Z11.9000 F2500.0
G4 P0.02
G1 X138.9865 Y-245.7760 F12000.0
G1 X138.8984 Y-245.9491
G1 X138.9096 Y-246.3477
G1 X139.5326 Y-246.4875
G1 X139.6928 Y-246.6029
G1 X139.7825 Y-247.3632
G1 X139.6622 Y-247.6446
G1 X139.1515 Y-247.7939
G1 X138.9711 Y-247.6990
G1 X138.8980 Y-247.5097
G1 X138.8347 Y-246.4371
G1 X138.1766 Y-246.6244
G1 X137.5673 Y-246.4342
G1 X138.0968 Y-246.6555
G1 X138.0769 Y-247.6132
G1 X137.5831 Y-247.7974
G1 X137.3127 Y-247.6611
G1 X137.2547 Y-247.4705
G1 X137.3682 Y-246.5108
G1 X136.5809 Y-246.4938
G1 X136.4775 Y-247.0936
G1 X136.0238 Y-247.1204
G1 X136.0709 Y-246.9149
G1 X136.4285 Y-247.1485
G1 X136.5492 Y-247.7800
G1 Z0.0000 F2500.0
G4 P0.02
G0 X134.7537 Y-248.5068 F15000.0
G1 Z11.9000 F2500.0
G4 P0.02
G1 X134.1247 Y-248.4367 F12000.0
G1 X134.0401 Y-248.3038
G1 X134.0165 Y-247.8891
G1 X134.8091 Y-247.6276
G1 X134.9138 Y-247.3356
G1 X134.8123 Y-246.5194
G1 X133.9799 Y-246.5324
G1 X133.9134 Y-247.7538
G1 X133.3022 Y-247.7080
G1 X133.2897 Y-246.4855
G1 X133.1895 Y-246.6959
G1 X132.8636 Y-246.9537
G1 X132.5744 Y-246.9989
G1 X132.1792 Y-246.6420
G1 X132.1305 Y-246.4882
G1 X132.5272 Y-246.9856
G1 X132.2052 Y-246.7864
G1 X132.1032 Y-247.7800
G1 Z0.0000 F2500.0
G4 P0.02
G0 X135.7370 Y-247.6518 F15000.0
G1 Z11.9000 F2500.0
G4 P0.02
G1 X135.9935 Y-247.1815 F12000.0
G1 Z0.0000 F2500.0
G4 P0.02
G0 X139.6700 Y-246.4975 F15000.0
G1 Z11.9000 F2500.0
G4 P0.02
G1 X139.7128 Y-246.5830 F12000.0
G1 Z0.0000 F2500.0
G4 P0.02
G0 X124.9211 Y-248.1974 F15000.0
G1 Z11.9000 F2500.0
G4 P0.02
G1 X124.8019 Y-246.0111 F12000.0
G1 X123.9496 Y-245.9761
G1 X123.7884 Y-246.0395
G1 X123.6206 Y-248.1558
G1 X122.9410 Y-247.9426
G1 X122.8794 Y-246.9745
G1 X122.7494 Y-246.8098
G1 X122.5540 Y-246.7461
G1 X122.2328 Y-246.7804
G1 X122.0705 Y-246.9006
G1 X121.9889 Y-247.8716
G1 X122.1128 Y-248.0248
G1 X122.5138 Y-248.2004
G1 X122.8570 Y-248.0604
G1 X122.7217 Y-248.1636
G1 X122.1857 Y-248.1407
G1 X122.0140 Y-247.9836
G1 Z0.0000 F2500.0
G4 P0.02
G0 X121.1590 Y-246.9149 F15000.0
G1 Z11.9000 F2500.0
G4 P0.02
G1 X121.0040 Y-245.9963 F12000.0
G1 X120.4819 Y-246.0124
G1 X120.3246 Y-246.2673
G1 X120.3055 Y-246.6719
G1 X121.0300 Y-246.8058
G1 X121.1515 Y-246.9108
G1 X121.1523 Y-248.0697
G1 X120.9811 Y-248.1668
G1 X120.5484 Y-248.2160
G1 X120.3812 Y-248.1119
G1 X120.2613 Y-246.7866
G1 Z0.0000 F2500.0
G4 P0.02
G0 X120.3040 Y-248.0264 F15000.0
G1 Z11.9000 F2500.0
G4 P0.02
G1 X120.2153 Y-248.1221 F12000.0
G1 X119.5847 Y-248.1629
G1 X119.4265 Y-246.8040
G1 X118.9280 Y-246.7458
G1 X118.7257 Y-246.8042
G1 X118.6081 Y-246.9748
G1 X118.5512 Y-248.1974
G1 Z0.0000 F2500.0
G4 P0.02
G0 X160.9675 Y-246.1493 F15000.0
G1 Z11.9000 F2500.0
G4 P0.02
G1 X161.1386 Y-246.6503 F12000.0
G1 X161.0244 Y-247.9351
G1 X160.9461 Y-248.0884
G1 X159.7777 Y-248.1329
G1 X159.5954 Y-247.9681
G1 X159.6722 Y-247.4717
G1 X159.8571 Y-247.4625
G1 X159.6267 Y-247.3617
G1 X159.5906 Y-247.2734
G1 X159.7318 Y-246.8922
G1 X160.2835 Y-246.9188
G1 Z0.0000 F2500.0
G4 P0.02
G0 X161.1812 Y-246.6623 F15000.0
G1 Z11.9000 F2500.0
G4 P0.02
G1 X161.4096 Y-246.8960 F12000.0
G1 X161.7477 Y-247.4680
G1 X161.9817 Y-247.6988
G1 X162.1010 Y-247.9899
G1 X162.0443 Y-247.6058
G1 X162.1217 Y-246.1920
G1 Z0.0000 F2500.0
G4 P0.02
G0 X158.8727 Y-246.8760 F15000.0
G1 Z11.9000 F2500.0
G4 P0.02
G1 X158.8169 Y-247.1375 F12000.0
G1 X158.5883 Y-247.2576
G1 X158.8416 Y-248.0276
G1 X158.5676 Y-247.2827
G1 X158.2281 Y-247.3915
G1 X157.7575 Y-246.8789
G1 X158.1001 Y-247.3447
G1 X157.7612 Y-248.1158
G1 Z0.0000 F2500.0
G4 P0.02
G0 X153.9136 Y-248.1158 F15000.0
G1 Z11.9000 F2500.0
G4 P0.02
G1 X153.9839 Y-246.2282 F12000.0
G1 X155.0251 Y-248.1586
G1 Z0.0000 F2500.0
G4 P0.02
G0 X153.2296 Y-246.8760 F15000.0
G1 Z11.9000 F2500.0
G4 P0.02
G1 X153.1688 Y-247.9551 F12000.0
G1 X152.4475 Y-248.1256
G1 X152.3750 Y-248.0770
G1 X152.2993 Y-246.9256
G1 X151.7168 Y-247.0501
G1 X151.1374 Y-246.8584
G1 X151.5198 Y-246.9704
G1 X151.6680 Y-247.0955
G1 X151.6365 Y-247.9471
G1 X151.0271 Y-248.1472
G1 X150.3833 Y-248.0843
G1 X149.6852 Y-246.8668
G1 X149.6493 Y-248.0691
G1 X149.0770 Y-248.0313
G1 X149.2188 Y-246.8849
G1 X149.6386 Y-246.8333
G1 Z0.0000 F2500.0
G4 P0.02
G0 X114.8591 Y-248.0743 F15000.0
G1 Z11.9000 F2500.0
G4 P0.02
G1 X114.0087 Y-248.0656 F12000.0
G1 X114.0352 Y-246.0292
G1 X114.6236 Y-246.1353
G1 X114.8815 Y-248.0511
G1 X115.0456 Y-248.2786
G1 X113.9737 Y-248.1071
G1 X113.7242 Y-248.2748
G1 X113.0133 Y-247.8502
G1 X112.9334 Y-246.8927
G1 X112.1335 Y-246.7023
G1 X112.0584 Y-248.0146
G1 X111.9138 Y-248.0615
G1 X112.4028 Y-248.0878
G1 X112.9354 Y-247.9461
G1 Z0.0000 F2500.0
G4 P0.02
G0 X111.3108 Y-248.0743 F15000.0
G1 Z11.9000 F2500.0
G4 P0.02
G1 X110.6302 Y-246.6931 F12000.0
G1 X110.5872 Y-248.0000
G1 X109.9760 Y-248.0498
G1 X109.9226 Y-247.9974
G1 X109.9931 Y-246.8132
G1 X110.1543 Y-246.6855
G1 X110.5841 Y-246.6636
G1 Z0.0000 F2500.0
G4 P0.02
G0 X109.1733 Y-246.9201 F15000.0
G1 Z11.9000 F2500.0
G4 P0.02
G1 X109.1250 Y-247.8963 F12000.0
G1 X108.6306 Y-248.0849
G1 X108.1088 Y-248.0531
G1 X108.2123 Y-247.9002
G1 X108.3011 Y-246.7243
G1 X109.1306 Y-246.8346
G1 Z0.0000 F2500.0
G4 P0.02
G0 X108.2328 Y-247.9461 F15000.0
G1 Z11.9000 F2500.0
G4 P0.02
G1 X108.2756 Y-248.0316 F12000.0
G1 Z0.0000 F2500.0
G4 P0.02
G0 X10.1725 Y-253.4602 F15000.0
G1 Z11.9000 F2500.0
G4 P0.02
G1 X11.6505 Y-253.3422 F12000.0
G1 X11.4719 Y-252.7572
G1 X10.1620 Y-250.6937
G1 X10.1065 Y-250.4887
G1 X10.2006 Y-249.9533
G1 X10.7803 Y-249.4626
G1 X11.4202 Y-249.4971
G1 X11.8825 Y-249.8692
G1 Z0.0000 F2500.0
G4 P0.02
G0 X10.4290 Y-251.0662 F15000.0
G1 Z11.9000 F2500.0
G4 P0.02
G1 X10.3066 Y-250.9572 F12000.0
G1 X10.5145 Y-251.2372
G1 Z0.0000 F2500.0
G4 P0.02
G0 X14.6185 Y-249.7837 F15000.0
G1 Z11.9000 F2500.0
G4 P0.02
G1 X14.5330 Y-253.3747 F12000.0
G1 Z0.0000 F2500.0
G4 P0.02
G0 X160.4931 Y-250.1404 F15000.0
G1 Z11.9000 F2500.0
G4 P0.02
G1 X160.7944 Y-249.9837 F12000.0
G1 X161.5542 Y-251.1610
G1 X161.5604 Y-251.9859
G1 X161.5066 Y-251.2076
G1 X161.3629 Y-251.1182
G1 X160.6309 Y-251.0198
G1 X160.3968 Y-250.6790
G1 X160.4162 Y-250.2937
G1 X159.5659 Y-250.7640
G1 X159.2869 Y-250.6558
G1 X158.7722 Y-250.6948
G1 X158.7054 Y-251.7707
G1 X158.7731 Y-251.9382
G1 X159.2873 Y-252.0837
G1 X159.5944 Y-251.9059
G1 X159.4858 Y-252.0141
G1 X159.6232 Y-251.7925
G1 X159.6381 Y-250.9099
G1 Z0.0000 F2500.0
G4 P0.02
G0 X158.6976 Y-251.9359 F15000.0
G1 Z11.9000 F2500.0
G4 P0.02
G1 X158.4928 Y-252.0049 F12000.0
G1 X157.9429 Y-251.9946
G1 X157.5141 Y-252.0770
G1 X157.1898 Y-251.8592
G1 X157.2636 Y-251.3557
G1 X157.4988 Y-251.3543
G1 X157.1864 Y-251.1270
G1 X157.2742 Y-250.7330
G1 X157.4644 Y-250.6726
G1 X157.9708 Y-250.7389
G1 Z0.0000 F2500.0
G4 P0.02
G0 X157.2013 Y-251.9359 F15000.0
G1 Z11.9000 F2500.0
G4 P0.02
G1 X157.2461 Y-252.0481 F12000.0
G1 X156.4006 Y-252.1003
G1 X155.5429 Y-251.9458
G1 X155.4665 Y-251.7679
G1 X155.5945 Y-250.7983
G1 X155.7617 Y-250.7198
G1 X156.2873 Y-250.6861
G1 X156.3891 Y-252.7909
G1 Z0.0000 F2500.0
G4 P0.02
G0 X154.7218 Y-251.8504 F15000.0
G1 Z11.9000 F2500.0
G4 P0.02
G1 X154.6825 Y-250.9630 F12000.0
G1 X154.6105 Y-250.7699
G1 X154.4378 Y-250.6656
G1 X153.9045 Y-250.6713
G1 X153.8212 Y-250.8149
G1 X153.8136 Y-251.9001
G1 X154.3033 Y-252.0771
G1 X154.6705 Y-251.9206
G1 X154.4464 Y-252.0413
G1 X153.7955 Y-251.9576
G1 X153.6103 Y-252.0214
G1 Z0.0000 F2500.0
G4 P0.02
G0 X154.7218 Y-250.9099 F15000.0
G1 Z11.9000 F2500.0
G4 P0.02
G1 X154.6790 Y-250.8244 F12000.0
G1 Z0.0000 F2500.0
G4 P0.02
G0 X152.7980 Y-250.6534 F15000.0
G1 Z11.9000 F2500.0
G4 P0.02
G1 X152.5993 Y-250.5857 F12000.0
G1 X152.5227 Y-250.4677
G1 X152.2464 Y-250.7556
G1 X152.1482 Y-251.8233
G1 X152.7211 Y-252.0783
G1 X152.9931 Y-251.9338
G1 X153.0525 Y-251.7320
G1 X153.0075 Y-250.8601
G1 X152.6337 Y-250.3699
G1 X152.7993 Y-249.9513
G1 X152.1568 Y-249.9859
G1 X152.2674 Y-250.6764
G1 X152.1568 Y-250.7817
G1 Z0.0000 F2500.0
G4 P0.02
G0 X143.1706 Y-250.0031 F15000.0
G1 Z11.9000 F2500.0
G4 P0.02
G1 X142.5298 Y-250.0938 F12000.0
G1 X142.4417 Y-250.2669
G1 X142.4530 Y-250.6655
G1 X143.0759 Y-250.8053
G1 X143.2361 Y-250.9207
G1 X143.3052 Y-251.7879
G1 X143.2055 Y-251.9624
G1 X142.6949 Y-252.1117
G1 X142.4866 Y-252.0551
G1 Z0.0000 F2500.0
G4 P0.02
G0 X140.0926 Y-252.0979 F15000.0
G1 Z11.9000 F2500.0
G4 P0.02
G1 X139.9858 Y-250.7946 F12000.0
G1 X139.8213 Y-250.7520
G1 X139.2863 Y-250.8327
G1 X139.1952 Y-250.9964
G1 X139.1712 Y-251.8773
G1 X139.3206 Y-252.0853
G1 X140.0360 Y-252.1811
G1 X140.0497 Y-252.7391
G1 Z0.0000 F2500.0
G4 P0.02
G0 X138.4253 Y-250.9863 F15000.0
G1 Z11.9000 F2500.0
G4 P0.02
G1 X137.8741 Y-250.7556 F12000.0
G1 X138.3561 Y-250.9206
G1 X138.4397 Y-251.7692
G1 X138.2643 Y-252.0060
G1 X137.9502 Y-252.1056
G1 X137.6868 Y-252.0655
G1 X137.5500 Y-251.7560
G1 X137.6544 Y-250.8064
G1 X136.8051 Y-250.7681
G1 X136.3953 Y-250.6747
G1 X136.3550 Y-250.5031
G1 X136.4499 Y-250.0864
G1 X136.8002 Y-250.7146
G1 X135.9613 Y-251.8406
G1 X135.9823 Y-252.0036
G1 X136.1103 Y-252.0978
G1 X136.3161 Y-252.1028
G1 X136.7191 Y-251.9542
G1 X136.8271 Y-251.6627
G1 X136.7791 Y-250.7856
G1 X136.3035 Y-250.2032
G1 X136.4160 Y-250.0031
G1 Z0.0000 F2500.0
G4 P0.02
G0 X140.9476 Y-250.7726 F15000.0
G1 Z11.9000 F2500.0
G4 P0.02
G1 X140.8060 Y-251.8622 F12000.0
G1 X141.0149 Y-252.0890
G1 X141.2183 Y-252.1034
G1 X141.6140 Y-251.9412
G1 X141.6696 Y-251.0831
G1 X141.5857 Y-250.9090
G1 X141.0331 Y-250.7298
G1 Z0.0000 F2500.0
G4 P0.02
G0 X142.4011 Y-250.6871 F15000.0
G1 Z11.9000 F2500.0
G4 P0.02
G1 X142.4437 Y-251.9696 F12000.0
G1 Z0.0000 F2500.0
G4 P0.02
G0 X144.0255 Y-252.1406 F15000.0
G1 Z11.9000 F2500.0
G4 P0.02
G1 X144.7848 Y-252.0393 F12000.0
G1 X144.8911 Y-251.8805
G1 X144.9304 Y-251.2245
G1 X144.8417 Y-250.8495
G1 X144.2360 Y-250.7569
G1 X144.1221 Y-250.8793
G1 X144.9233 Y-251.4138
G1 Z0.0000 F2500.0
G4 P0.02
G0 X145.7784 Y-251.4566 F15000.0
G1 Z11.9000 F2500.0
G4 P0.02
G1 X145.9066 Y-251.5421 F12000.0
G1 Z0.0000 F2500.0
G4 P0.02
G0 X146.4624 Y-252.0979 F15000.0
G1 Z11.9000 F2500.0
G4 P0.02
G1 X146.5281 Y-251.6974 F12000.0
G1 X146.9340 Y-251.5873
G1 X147.1025 Y-251.4607
G1 X147.1944 Y-250.7265
G1 X146.9755 Y-250.4968
G1 X146.4928 Y-250.3064
G1 X146.4624 Y-250.1385
G1 X146.4101 Y-251.5938
G1 X145.9024 Y-251.5262
G1 X145.6988 Y-251.2843
G1 X145.7368 Y-250.7523
G1 X146.0016 Y-250.4336
G1 X145.7355 Y-250.6871
G1 Z0.0000 F2500.0
G4 P0.02
G0 X146.8899 Y-250.3878 F15000.0
G1 Z11.9000 F2500.0
G4 P0.02
G1 X147.1891 Y-250.6443 F12000.0
G1 Z0.0000 F2500.0
G4 P0.02
G0 X130.4309 Y-250.9436 F15000.0
G1 Z11.9000 F2500.0
G4 P0.02
G1 X131.2963 Y-250.8833 F12000.0
G1 X131.3531 Y-250.7296
G1 X131.2765 Y-250.0880
G1 X131.0213 Y-250.0491
G1 X130.3003 Y-250.2356
G1 X130.2429 Y-250.6489
G1 X130.3731 Y-250.9173
G1 X130.1769 Y-251.2223
G1 X130.1281 Y-251.7492
G1 X130.3375 Y-251.9918
G1 X131.0848 Y-252.1206
G1 X131.2601 Y-252.0872
G1 X131.3714 Y-250.9863
G1 Z0.0000 F2500.0
G4 P0.02
G0 X130.1317 Y-251.7986 F15000.0
G1 Z11.9000 F2500.0
G4 P0.02
G1 X130.1744 Y-251.8841 F12000.0
G1 Z0.0000 F2500.0
G4 P0.02
G0 X132.7395 Y-252.0551 F15000.0
G1 Z11.9000 F2500.0
G4 P0.02
G1 X133.4580 Y-250.8945 F12000.0
G1 X133.7974 Y-250.8530
G1 X133.8489 Y-250.1624
G1 X133.8510 Y-252.0551
G1 Z0.0000 F2500.0
G4 P0.02
G0 X101.8148 Y-252.9972 F15000.0
G1 Z11.9000 F2500.0
G4 P0.02
G1 X103.0264 Y-253.0949 F12000.0
G1 X103.4530 Y-253.4593
G1 X103.5409 Y-256.5088
G1 X103.4652 Y-256.7112
G1 X103.1139 Y-257.0834
G1 X101.8148 Y-257.2295
G1 Z0.0000 F2500.0
G4 P0.02
G0 X100.1475 Y-254.7072 F15000.0
G1 Z11.9000 F2500.0
G4 P0.02
G1 X99.7065 Y-253.6098 F12000.0
G1 X99.9057 Y-253.1192
G1 X99.7522 Y-253.4495
G1 X99.8341 Y-253.0243
G1 X98.5230 Y-252.9972
G1 Z0.0000 F2500.0
G4 P0.02
G0 X99.6345 Y-253.6384 F15000.0
G1 Z11.9000 F2500.0
G4 P0.02
G1 X99.3422 Y-253.9468 F12000.0
G1 X99.1787 Y-254.3039
G1 X99.9833 Y-254.5564
G1 X100.1030 Y-254.7112
G1 X100.2605 Y-256.5867
G1 X100.1557 Y-256.8952
G1 X100.0144 Y-257.0434
G1 X99.1499 Y-257.2103
G1 X98.8355 Y-257.1285
G1 X98.6840 Y-256.9895
G1 X98.4069 Y-256.2817
G1 X98.5215 Y-254.8436
G1 X98.7429 Y-254.4964
G1 X98.5230 Y-254.7499
G1 Z0.0000 F2500.0
G4 P0.02
G0 X98.5230 Y-256.8875 F15000.0
G1 Z11.9000 F2500.0
G4 P0.02
G1 X98.6512 Y-257.0585 F12000.0
G1 Z0.0000 F2500.0
G4 P0.02
G0 X96.9412 Y-256.7164 F15000.0
G1 Z11.9000 F2500.0
G4 P0.02
G1 X96.8954 Y-254.8445 F12000.0
G1 X96.6056 Y-254.5263
G1 X95.8475 Y-254.4228
G1 X95.4454 Y-254.5646
G1 X95.2737 Y-254.8186
G1 X95.1168 Y-256.2519
G1 X95.2454 Y-256.7851
G1 X95.4706 Y-257.0874
G1 X96.0955 Y-257.2096
G1 X96.5198 Y-257.1176
G1 X96.8903 Y-256.8057
G1 X96.6890 Y-257.0225
G1 X96.4938 Y-257.0895
G1 X95.4072 Y-257.0049
G1 X95.2739 Y-256.8875
G1 Z0.0000 F2500.0
G4 P0.02
G0 X93.6921 Y-257.2722 F15000.0
G1 Z11.9000 F2500.0
G4 P0.02
G1 X93.6457 Y-254.4609 F12000.0
G1 X92.1934 Y-254.5192
G1 X91.9659 Y-254.7359
G1 X91.8235 Y-256.3875
G1 X92.0315 Y-257.0058
G1 X92.2102 Y-257.1042
G1 X93.6248 Y-257.2566
G1 X93.6904 Y-257.4332
G1 X93.6921 Y-258.5120
G1 Z0.0000 F2500.0
G4 P0.02
G0 X90.3576 Y-256.7164 F15000.0
G1 Z11.9000 F2500.0
G4 P0.02
G1 X90.3597 Y-255.0553 F12000.0
G1 X90.2573 Y-254.7505
G1 X90.0220 Y-254.5263
G1 X89.2639 Y-254.4228
G1 X88.8619 Y-254.5646
G1 X88.6901 Y-254.8186
G1 X88.5393 Y-256.3607
G1 X88.7966 Y-257.0106
G1 X88.9090 Y-257.0971
G1 X89.5463 Y-257.2112
G1 X89.9670 Y-257.1030
G1 X90.3168 Y-256.7754
G1 X90.0156 Y-257.1012
G1 Z0.0000 F2500.0
G4 P0.02
G0 X87.1086 Y-254.4079 F15000.0
G1 Z11.9000 F2500.0
G4 P0.02
G1 X86.9121 Y-255.5893 F12000.0
G1 X85.3017 Y-255.8415
G1 X85.2470 Y-255.9127
G1 X85.2275 Y-257.1012
G1 Z0.0000 F2500.0
G4 P0.02
G0 X85.2275 Y-255.7759 F15000.0
G1 Z11.9000 F2500.0
G4 P0.02
G1 X85.1969 Y-254.5813 F12000.0
G1 X83.8491 Y-254.4546
G1 X83.8168 Y-257.1012
G1 Z0.0000 F2500.0
G4 P0.02
G0 X83.8168 Y-255.7759 F15000.0
G1 Z11.9000 F2500.0
G4 P0.02
G1 X81.9785 Y-255.8187 F12000.0
G1 Z0.0000 F2500.0
G4 P0.02
G0 X81.9358 Y-257.1012 F15000.0
G1 Z11.9000 F2500.0
G4 P0.02
G1 X81.9126 Y-254.6013 F12000.0
G1 X81.7564 Y-254.5216
G1 X80.5716 Y-254.4434
G1 X80.4786 Y-257.1439
G1 X80.1930 Y-257.1951
G1 X79.3466 Y-257.0003
G1 X79.1859 Y-256.7338
G1 X79.3268 Y-256.0275
G1 X79.5857 Y-255.8905
G1 X80.5250 Y-255.7759
G1 Z0.0000 F2500.0
G4 P0.02
G0 X79.2852 Y-256.9730 F15000.0
G1 Z11.9000 F2500.0
G4 P0.02
G1 X79.1958 Y-257.0601 F12000.0
G1 X78.2318 Y-257.0607
G1 X78.1835 Y-254.5803
G1 X76.8117 Y-254.5660
G1 X76.6038 Y-256.9437
G1 X76.3377 Y-257.0770
G1 X75.0232 Y-257.2052
G1 X74.9261 Y-257.0603
G1 X74.8819 Y-254.5362
G1 Z0.0000 F2500.0
G4 P0.02
G0 X75.7897 Y-251.5741 F15000.0
G1 Z11.9000 F2500.0
G4 P0.02
G1 X76.6019 Y-251.5741 F12000.0
G1 Z0.0000 F2500.0
G4 P0.02
G0 X70.9916 Y-254.4079 F15000.0
G1 Z11.9000 F2500.0
G4 P0.02
G1 X70.7951 Y-255.5893 F12000.0
G1 X69.1847 Y-255.8415
G1 X69.1301 Y-255.9127
G1 X69.1106 Y-257.1012
G1 Z0.0000 F2500.0
G4 P0.02
G0 X69.1106 Y-255.7759 F15000.0
G1 Z11.9000 F2500.0
G4 P0.02
G1 X69.1106 Y-254.5362 F12000.0
G1 Z0.0000 F2500.0
G4 P0.02
G0 X67.6571 Y-255.8187 F15000.0
G1 Z11.9000 F2500.0
G4 P0.02
G1 X65.9007 Y-255.7104 F12000.0
G1 X65.8485 Y-255.6451
G1 X66.0052 Y-254.6884
G1 X66.1551 Y-254.5374
G1 X67.0233 Y-254.4228
G1 X67.3307 Y-254.5227
G1 X67.5417 Y-254.6862
G1 X67.6912 Y-255.8710
G1 X67.5342 Y-256.9574
G1 X67.3657 Y-257.0614
G1 X66.0428 Y-257.2173
G1 X64.4349 Y-257.1293
G1 X64.3822 Y-254.5026
G1 X64.2756 Y-254.4167
G1 X62.9738 Y-254.5010
G1 X62.7124 Y-254.6765
G1 X62.5426 Y-256.4278
G1 X62.6630 Y-256.8531
G1 X62.8745 Y-257.0613
G1 X64.3733 Y-257.2893
G1 X64.4080 Y-258.5120
G1 Z0.0000 F2500.0
G4 P0.02
G0 X61.1162 Y-257.1012 F15000.0
G1 Z11.9000 F2500.0
G4 P0.02
G1 X61.1041 Y-254.5523 F12000.0
G1 X61.0345 Y-254.4237
G1 X59.7324 Y-254.4093
G1 X58.6410 Y-254.5387
G1 X58.4796 Y-254.6779
G1 X58.4096 Y-254.9910
G1 X58.3375 Y-257.1012
G1 Z0.0000 F2500.0
G4 P0.02
G0 X59.7055 Y-257.1012 F15000.0
G1 Z11.9000 F2500.0
G4 P0.02
G1 X59.7483 Y-254.4079 F12000.0
G1 Z0.0000 F2500.0
G4 P0.02
G0 X56.8413 Y-255.8187 F15000.0
G1 Z11.9000 F2500.0
G4 P0.02
G1 X55.0848 Y-255.7104 F12000.0
G1 X55.0326 Y-255.6451
G1 X55.1893 Y-254.6884
G1 X55.3392 Y-254.5374
G1 X56.2075 Y-254.4228
G1 X56.5148 Y-254.5227
G1 X56.7259 Y-254.6862
G1 X56.8753 Y-255.8710
G1 X56.7183 Y-256.9574
G1 X56.5498 Y-257.0614
G1 X55.2269 Y-257.2169
G1 X53.5786 Y-257.0718
G1 X52.9639 Y-256.1944
G1 X53.0384 Y-256.2720
G1 X52.7849 Y-255.8713
G1 X52.2310 Y-255.7684
G1 X52.2669 Y-254.5362
G1 Z0.0000 F2500.0
G4 P0.02
G0 X53.5922 Y-254.5362 F15000.0
G1 Z11.9000 F2500.0
G4 P0.02
G1 X52.9228 Y-255.4837 F12000.0
G1 X52.7796 Y-256.1825
G1 X52.2363 Y-257.0178
G1 X51.6035 Y-256.1035
G1 X50.9416 Y-257.1012
G1 Z0.0000 F2500.0
G4 P0.02
G0 X51.6256 Y-255.5622 F15000.0
G1 Z11.9000 F2500.0
G4 P0.02
G1 X50.9803 Y-254.6025 F12000.0
G1 X51.7101 Y-255.8298
G1 X51.6801 Y-255.9818
G1 X52.2460 Y-255.8911
G1 X52.9081 Y-256.1179
G1 Z0.0000 F2500.0
G4 P0.02
G0 X161.5754 Y-255.7316 F15000.0
G1 Z11.9000 F2500.0
G4 P0.02
G1 X161.4561 Y-253.5453 F12000.0
G1 X160.5064 Y-253.5245
G1 X160.4179 Y-253.6635
G1 X160.3411 Y-255.5474
G1 X160.2725 Y-255.7071
G1 X159.6573 Y-255.7018
G1 X159.5000 Y-254.3363
G1 X159.3313 Y-254.2794
G1 X158.7979 Y-254.3399
G1 X158.6814 Y-254.5115
G1 X158.6355 Y-255.3943
G1 X158.6973 Y-255.5971
G1 X158.8561 Y-255.7207
G1 X159.5782 Y-255.8397
G1 X159.6089 Y-256.4584
G1 Z0.0000 F2500.0
G4 P0.02
G0 X157.8561 Y-255.5179 F15000.0
G1 Z11.9000 F2500.0
G4 P0.02
G1 X157.8515 Y-254.6299 F12000.0
G1 X157.7815 Y-254.4318
G1 X157.6198 Y-254.3007
G1 X157.2974 Y-254.2844
G1 X157.1022 Y-254.3609
G1 X156.9607 Y-254.6302
G1 X156.9767 Y-255.5130
G1 X157.0979 Y-255.6805
G1 X157.4068 Y-255.7602
G1 X157.6153 Y-255.7246
G1 X157.8105 Y-255.5772
G1 X157.6422 Y-255.7316
G1 Z0.0000 F2500.0
G4 P0.02
G0 X156.1033 Y-254.2781 F15000.0
G1 Z11.9000 F2500.0
G4 P0.02
G1 X155.4824 Y-254.2767 F12000.0
G1 X155.5660 Y-253.7603
G1 X155.3390 Y-254.3830
G1 X155.2212 Y-255.3743
G1 X155.2666 Y-255.5797
G1 X155.4150 Y-255.7249
G1 X155.9468 Y-255.6803
G1 X156.1102 Y-255.5749
G1 X156.1288 Y-253.7135
G1 X156.0645 Y-253.6009
G1 X155.6418 Y-253.6400
G1 X155.7440 Y-253.5379
G1 X156.0178 Y-253.5086
G1 Z0.0000 F2500.0
G4 P0.02
G0 X155.2483 Y-255.5606 F15000.0
G1 Z11.9000 F2500.0
G4 P0.02
G1 X155.2910 Y-255.6461 F12000.0
G1 Z0.0000 F2500.0
G4 P0.02
G0 X137.0761 Y-254.1926 F15000.0
G1 Z11.9000 F2500.0
G4 P0.02
G1 X136.7502 Y-254.2998 F12000.0
G1 X137.2014 Y-254.3850
G1 X137.1967 Y-254.9073
G1 X136.3599 Y-256.1508
G1 X136.5021 Y-256.2691
G1 X137.0273 Y-256.3125
G1 X137.1967 Y-256.1848
G1 X137.0334 Y-256.3302
G1 Z0.0000 F2500.0
G4 P0.02
G0 X135.5799 Y-256.1164 F15000.0
G1 Z11.9000 F2500.0
G4 P0.02
G1 X135.5799 Y-255.1759 F12000.0
G1 Z0.0000 F2500.0
G4 P0.02
G0 X134.6394 Y-256.2019 F15000.0
G1 Z11.9000 F2500.0
G4 P0.02
G1 X134.4684 Y-256.2874 F12000.0
G1 Z0.0000 F2500.0
G4 P0.02
G0 X135.3661 Y-256.3302 F15000.0
G1 Z11.9000 F2500.0
G4 P0.02
G1 X135.5295 Y-256.1780 F12000.0
G1 X135.2096 Y-256.3479
G1 X134.7009 Y-256.1944
G1 X134.7255 Y-254.9515
G1 X135.3513 Y-254.9436
G1 X135.5371 Y-255.0904
G1 Z0.0000 F2500.0
G4 P0.02
G0 X136.6913 Y-254.2781 F15000.0
G1 Z11.9000 F2500.0
G4 P0.02
G1 X136.6643 Y-254.6076 F12000.0
G1 X136.7990 Y-254.8710
G1 X137.1755 Y-255.0248
G1 X137.2472 Y-256.1164
G1 Z0.0000 F2500.0
G4 P0.02
G0 X138.7861 Y-256.2447 F15000.0
G1 Z11.9000 F2500.0
G4 P0.02
G1 X138.3325 Y-256.3499 F12000.0
G1 X138.1446 Y-256.2919
G1 X137.9820 Y-255.9717
G1 X138.0448 Y-255.1056
G1 X138.2872 Y-254.9568
G1 X138.7056 Y-254.9741
G1 X138.9119 Y-255.2908
G1 X138.9143 Y-256.0737
G1 Z0.0000 F2500.0
G4 P0.02
G0 X139.6412 Y-256.2874 F15000.0
G1 Z11.9000 F2500.0
G4 P0.02
G1 X139.6443 Y-255.0829 F12000.0
G1 X139.7467 Y-255.6188
G1 X140.5547 Y-255.5471
G1 X140.5817 Y-255.0575
G1 X140.5817 Y-256.3302
G1 Z0.0000 F2500.0
G4 P0.02
G0 X141.1375 Y-256.2874 F15000.0
G1 Z11.9000 F2500.0
G4 P0.02
G1 X141.3084 Y-256.2019 F12000.0
G1 Z0.0000 F2500.0
G4 P0.02
G0 X142.0352 Y-256.3302 F15000.0
G1 Z11.9000 F2500.0
G4 P0.02
G1 X142.1986 Y-256.1780 F12000.0
G1 X141.8787 Y-256.3479
G1 X141.3699 Y-256.1944
G1 X141.3946 Y-254.9515
G1 X142.0204 Y-254.9436
G1 X142.1796 Y-255.0792
G1 X142.2456 Y-255.2793
G1 X142.2489 Y-256.1164
G1 Z0.0000 F2500.0
G4 P0.02
G0 X143.0612 Y-256.2019 F15000.0
G1 Z11.9000 F2500.0
G4 P0.02
G1 X143.1466 Y-256.3302 F12000.0
G1 Z0.0000 F2500.0
G4 P0.02
G0 X143.8307 Y-256.2447 F15000.0
G1 Z11.9000 F2500.0
G4 P0.02
G1 X143.3001 Y-256.3342 F12000.0
G1 X143.0564 Y-256.1497
G1 X143.1124 Y-255.6407
G1 X143.3651 Y-255.6150
G1 X143.0519 Y-255.4173
G1 X143.0676 Y-255.1083
G1 X143.1961 Y-254.9606
G1 X143.8307 Y-255.0049
G1 Z0.0000 F2500.0
G4 P0.02
G0 X144.5575 Y-255.0049 F15000.0
G1 Z11.9000 F2500.0
G4 P0.02
G1 X144.5575 Y-256.3302 F12000.0
G1 Z0.0000 F2500.0
G4 P0.02
G0 X145.3697 Y-257.0997 F15000.0
G1 Z11.9000 F2500.0
G4 P0.02
G1 X144.6571 Y-256.9120 F12000.0
G1 X144.6118 Y-256.4174
G1 X145.3355 Y-256.2866
G1 X145.4701 Y-256.1316
G1 X145.4980 Y-254.9621
G1 Z0.0000 F2500.0
G4 P0.02
G0 X146.2247 Y-256.3302 F15000.0
G1 Z11.9000 F2500.0
G4 P0.02
G1 X146.2798 Y-254.2718 F12000.0
G1 X147.4217 Y-256.3302
G1 Z0.0000 F2500.0
G4 P0.02
G0 X161.5754 Y-257.7837 F15000.0
G1 Z11.9000 F2500.0
G4 P0.02
G1 X160.4639 Y-257.7837 F12000.0
G1 Z0.0000 F2500.0
G4 P0.02
G0 X161.3423 Y-258.5104 F15000.0
G1 Z11.9000 F2500.0
G4 P0.02
G1 X161.2568 Y-260.5625 F12000.0
G1 Z0.0000 F2500.0
G4 P0.02
G0 X159.2903 Y-260.5625 F15000.0
G1 Z11.9000 F2500.0
G4 P0.02
G1 X159.1672 Y-259.9232 F12000.0
G1 X158.5741 Y-259.4800
G1 X158.8045 Y-259.7579
G1 X158.3925 Y-259.2372
G1 Z0.0000 F2500.0
G4 P0.02
G0 X159.2903 Y-259.2799 F15000.0
G1 Z11.9000 F2500.0
G4 P0.02
G1 X159.1965 Y-259.8925 F12000.0
G1 X158.8048 Y-259.9694
G1 X158.3498 Y-260.5625
G1 Z0.0000 F2500.0
G4 P0.02
G0 X156.8107 Y-260.5625 F15000.0
G1 Z11.9000 F2500.0
G4 P0.02
G1 X156.7276 Y-260.4486 F12000.0
G1 X157.0387 Y-260.6269
G1 X157.4468 Y-260.5137
G1 X157.5607 Y-260.3515
G1 X157.5160 Y-259.3912
G1 X157.3999 Y-259.2746
G1 X156.9814 Y-259.2127
G1 X156.7976 Y-259.2993
G1 X156.6933 Y-259.4810
G1 X156.6559 Y-260.3427
G1 X155.9813 Y-260.5644
G1 X155.9130 Y-259.3206
G1 X155.8390 Y-259.8613
G1 X155.1950 Y-259.9109
G1 X155.0343 Y-259.8530
G1 X154.9743 Y-259.3194
G1 X154.9394 Y-260.5634
G1 X154.3239 Y-260.5902
G1 X154.1837 Y-260.4627
G1 X153.5799 Y-259.2245
G1 X153.4914 Y-260.5446
G1 X152.8807 Y-260.5706
G1 X152.8998 Y-259.4031
G1 X153.1285 Y-259.2071
G1 X153.5190 Y-259.1944
G1 Z0.0000 F2500.0
G4 P0.02
G0 X152.0654 Y-260.6480 F15000.0
G1 Z11.9000 F2500.0
G4 P0.02
G1 X151.4055 Y-260.5965 F12000.0
G1 X151.2436 Y-260.4772
G1 X151.1786 Y-260.2757
G1 X151.2362 Y-259.3984
G1 X151.3249 Y-259.2687
G1 X151.4422 Y-259.2754
G1 X152.0722 Y-260.5482
G1 X152.1082 Y-261.3320
G1 Z0.0000 F2500.0
G4 P0.02
G0 X40.5763 Y-259.4594 F15000.0
G1 Z11.9000 F2500.0
G4 P0.02
G1 X41.1216 Y-259.5466 F12000.0
G1 X41.2996 Y-259.7142
G1 X41.3760 Y-260.6966
G1 X41.3251 Y-260.9034
G1 X41.1897 Y-261.0514
G1 X40.5463 Y-261.1628
G1 X39.7084 Y-261.0779
G1 X39.6447 Y-259.5810
G1 X38.8507 Y-259.5154
G1 X38.7409 Y-261.0670
G1 X38.1093 Y-261.0823
G1 X37.9520 Y-261.0193
G1 X37.9852 Y-259.7209
G1 X38.1012 Y-259.5697
G1 X38.6199 Y-259.4688
G1 X39.6357 Y-259.4594
G1 Z0.0000 F2500.0
G4 P0.02
G0 X42.2436 Y-259.5022 F15000.0
G1 Z11.9000 F2500.0
G4 P0.02
G1 X42.9350 Y-261.1115 F12000.0
G1 X43.2039 Y-261.0514
G1 X43.3079 Y-260.8893
G1 X43.3979 Y-259.5022
G1 Z0.0000 F2500.0
G4 P0.02
G0 X44.2528 Y-261.0839 F15000.0
G1 Z11.9000 F2500.0
G4 P0.02
G1 X44.9330 Y-258.6795 F12000.0
G1 X45.6636 Y-261.1267
G1 Z0.0000 F2500.0
G4 P0.02
G0 X26.1411 Y-260.9947 F15000.0
G1 Z11.9000 F2500.0
G4 P0.02
G1 X26.1957 Y-258.8150 F12000.0
G1 X27.1465 Y-260.1705
G1 X27.3381 Y-260.9092
G1 Z0.0000 F2500.0
G4 P0.02
G0 X25.3716 Y-259.5840 F15000.0
G1 Z11.9000 F2500.0
G4 P0.02
G1 X25.3317 Y-260.6944 F12000.0
G1 X25.2003 Y-260.9743
G1 X25.0213 Y-261.0339
G1 X24.3090 Y-259.6219
G1 X23.5910 Y-259.7692
G1 X23.4614 Y-260.9188
G1 X23.2847 Y-261.0294
G1 X22.8066 Y-261.0802
G1 Z0.0000 F2500.0
G4 P0.02
G0 X23.4906 Y-259.6694 F15000.0
G1 Z11.9000 F2500.0
G4 P0.02
G1 X23.2250 Y-259.5054 F12000.0
G1 X22.8066 Y-259.4984
G1 Z0.0000 F2500.0
G4 P0.02
G0 X22.0370 Y-260.9947 F15000.0
G1 Z11.9000 F2500.0
G4 P0.02
G1 X21.9352 Y-259.5726 F12000.0
G1 X21.8757 Y-259.5179
G1 X20.8941 Y-259.4999
G1 X20.6086 Y-259.6101
G1 X20.4166 Y-260.9505
G1 X19.7279 Y-260.7602
G1 X19.6694 Y-259.8047
G1 X19.4908 Y-259.5464
G1 X19.5752 Y-259.6152
G1 X19.2931 Y-259.5006
G1 X18.8808 Y-259.5787
G1 X18.7891 Y-259.7533
G1 X18.7618 Y-260.8369
G1 X18.9033 Y-260.9939
G1 X19.4195 Y-261.0225
G1 X19.6330 Y-260.8457
G1 X19.4293 Y-261.0374
G1 Z0.0000 F2500.0
G4 P0.02
G0 X21.2675 Y-260.9947 F15000.0
G1 Z11.9000 F2500.0
G4 P0.02
G1 X21.3103 Y-259.4984 F12000.0
G1 Z0.0000 F2500.0
G4 P0.02
G0 X17.8475 Y-258.8999 F15000.0
G1 Z11.9000 F2500.0
G4 P0.02
G1 X17.8629 Y-259.5080 F12000.0
G1 X17.4477 Y-259.5142
G1 X16.9795 Y-259.6797
G1 X17.2687 Y-259.4576
G1 X16.9738 Y-259.7694
G1 X17.0805 Y-260.9938
G1 X17.5712 Y-261.0549
G1 X17.7658 Y-260.9695
G1 X17.9028 Y-260.6906
G1 X17.2751 Y-259.1854
G1 X17.4391 Y-258.8081
G1 X17.8047 Y-258.8144
G1 Z0.0000 F2500.0
G4 P0.02
G0 X9.6343 Y-258.3947 F15000.0
G1 Z11.9000 F2500.0
G4 P0.02
G1 X9.5812 Y-258.3696 F12000.0
G1 X9.5488 Y-261.4727
G1 Z0.0000 F2500.0
G4 P0.02
G0 X35.2087 Y-265.8223 F15000.0
G1 Z11.9000 F2500.0
G4 P0.02
G1 X34.0406 Y-265.8764 F12000.0
G1 X34.0544 Y-270.3539
G1 Z0.0000 F2500.0
G4 P0.02
G0 X36.8332 Y-270.3539 F15000.0
G1 Z11.9000 F2500.0
G4 P0.02
G1 X36.9287 Y-265.9525 F12000.0
G1 X39.3982 Y-270.3966
G1 Z0.0000 F2500.0
G4 P0.02
G0 X34.0117 Y-265.8223 F15000.0
G1 Z11.9000 F2500.0
G4 P0.02
G1 X32.9001 Y-265.8223 F12000.0
G1 Z0.0000 F2500.0
G4 P0.02
G0 X31.1474 Y-268.8576 F15000.0
G1 Z11.9000 F2500.0
G4 P0.02
G1 X29.3518 Y-268.8576 F12000.0
G1 Z0.0000 F2500.0
G4 P0.02
G0 X27.5991 Y-270.3966 F15000.0
G1 Z11.9000 F2500.0
G4 P0.02
G1 X26.1738 Y-270.2715 F12000.0
G1 X25.8638 Y-269.9666
G1 X25.6887 Y-269.4499
G1 X25.7809 Y-268.4597
G1 X26.0497 Y-268.1211
G1 X26.3237 Y-267.9548
G1 X27.5340 Y-267.8041
G1 X27.6942 Y-267.7093
G1 X27.5890 Y-265.8921
G1 X25.8036 Y-265.8223
G1 Z0.0000 F2500.0
G4 P0.02
G0 X23.6660 Y-266.3353 F15000.0
G1 Z11.9000 F2500.0
G4 P0.02
G1 X23.2615 Y-266.1711 F12000.0
G1 X23.1339 Y-265.9477
G1 X23.1935 Y-266.3753
G1 X23.1531 Y-270.3966
G1 Z0.0000 F2500.0
G4 P0.02
G0 X20.8872 Y-270.3539 F15000.0
G1 Z11.9000 F2500.0
G4 P0.02
G1 X20.5310 Y-270.1028 F12000.0
G1 X20.9037 Y-270.3506
G1 X20.1523 Y-269.6969
G1 X19.9409 Y-269.3895
G1 X20.4108 Y-270.0008
G1 X19.9257 Y-269.3496
G1 X19.5825 Y-268.0783
G1 X19.8959 Y-266.0134
G1 X20.3983 Y-265.8370
G1 X21.0592 Y-265.8969
G1 X21.2514 Y-265.9806
G1 X21.4755 Y-266.2195
G1 X21.6028 Y-267.5327
G1 X21.4308 Y-268.0465
G1 X21.0870 Y-268.2941
G1 X19.6902 Y-268.3446
G1 Z0.0000 F2500.0
G4 P0.02
G0 X17.9375 Y-268.8576 F15000.0
G1 Z11.9000 F2500.0
G4 P0.02
G1 X16.1420 Y-268.8576 F12000.0
G1 Z0.0000 F2500.0
G4 P0.02
G0 X14.3891 Y-270.3966 F15000.0
G1 Z11.9000 F2500.0
G4 P0.02
G1 X13.0612 Y-270.3028 F12000.0
G1 X12.6569 Y-269.9542
G1 X12.5534 Y-269.6476
G1 X12.5569 Y-268.6497
G1 X13.0212 Y-267.8744
G1 Z0.0000 F2500.0
G4 P0.02
G0 X13.8761 Y-267.8744 F15000.0
G1 Z11.9000 F2500.0
G4 P0.02
G1 X13.0003 Y-267.8080 F12000.0
G1 X12.6812 Y-267.4601
G1 X12.9310 Y-267.7746
G1 X12.5699 Y-267.1785
G1 X12.6345 Y-266.4092
G1 X12.7637 Y-266.1393
G1 X13.0106 Y-265.9724
G1 X14.3891 Y-265.8223
G1 Z0.0000 F2500.0
G4 P0.02
G0 X161.5988 Y-267.0819 F15000.0
G1 Z11.9000 F2500.0
G4 P0.02
G1 X161.5988 Y-269.1339 F12000.0
G1 Z0.0000 F2500.0
G4 P0.02
G0 X161.5988 Y-267.9369 F15000.0
G1 Z11.9000 F2500.0
G4 P0.02
G1 X160.5201 Y-267.9431 F12000.0
G1 X160.4077 Y-267.1587
G1 X160.4018 Y-269.0912
G1 Z0.0000 F2500.0
G4 P0.02
G0 X159.0339 Y-269.0912 F15000.0
G1 Z11.9000 F2500.0
G4 P0.02
G1 X158.9107 Y-268.4519 F12000.0
G1 X158.3176 Y-268.0087
G1 X158.5480 Y-268.2866
G1 X158.1360 Y-267.7659
G1 Z0.0000 F2500.0
G4 P0.02
G0 X159.0339 Y-267.8087 F15000.0
G1 Z11.9000 F2500.0
G4 P0.02
G1 X158.9400 Y-268.4212 F12000.0
G1 X158.5483 Y-268.4982
G1 X158.0933 Y-269.0912
G1 Z0.0000 F2500.0
G4 P0.02
G0 X156.5542 Y-269.0912 F15000.0
G1 Z11.9000 F2500.0
G4 P0.02
G1 X156.4712 Y-268.9773 F12000.0
G1 X156.7823 Y-269.1557
G1 X157.1904 Y-269.0424
G1 X157.3042 Y-268.8803
G1 X157.2595 Y-267.9199
G1 X157.1434 Y-267.8034
G1 X156.7249 Y-267.7414
G1 X156.5411 Y-267.8280
G1 X156.4368 Y-268.0097
G1 X156.3995 Y-268.8715
G1 X155.7249 Y-269.0931
G1 X155.6565 Y-267.8493
G1 X155.5825 Y-268.3901
G1 X154.9386 Y-268.4396
G1 X154.7778 Y-268.3817
G1 X154.7178 Y-267.8482
G1 X154.6829 Y-269.0920
G1 X154.0674 Y-269.1190
G1 X153.9272 Y-268.9915
G1 X153.3235 Y-267.7532
G1 X153.2349 Y-269.0733
G1 X152.6243 Y-269.0993
G1 X152.6433 Y-267.9318
G1 X152.8721 Y-267.7358
G1 X153.2624 Y-267.7232
G1 Z0.0000 F2500.0
G4 P0.02
G0 X151.8089 Y-269.1767 F15000.0
G1 Z11.9000 F2500.0
G4 P0.02
G1 X151.1490 Y-269.1252 F12000.0
G1 X150.9871 Y-269.0059
G1 X150.9221 Y-268.8045
G1 X150.9797 Y-267.9271
G1 X151.0684 Y-267.7974
G1 X151.1858 Y-267.8041
G1 X151.8157 Y-269.0769
G1 X151.8518 Y-269.8607
G1 Z0.0000 F2500.0
G4 P0.02
G0 X161.6070 Y-271.6325 F15000.0
G1 Z11.9000 F2500.0
G4 P0.02
G1 X161.4841 Y-272.7177 F12000.0
G1 X161.3119 Y-272.7972
G1 X160.3577 Y-272.8996
G1 X161.2651 Y-273.8983
G1 Z0.0000 F2500.0
G4 P0.02
G0 X160.2817 Y-272.8296 F15000.0
G1 Z11.9000 F2500.0
G4 P0.02
G1 X160.2817 Y-271.6325 F12000.0
G1 Z0.0000 F2500.0
G4 P0.02
G0 X159.5122 Y-273.8556 F15000.0
G1 Z11.9000 F2500.0
G4 P0.02
G1 X158.7173 Y-272.4356 F12000.0
G1 X157.9305 Y-273.8556
G1 Z0.0000 F2500.0
G4 P0.02
G0 X158.7000 Y-273.8128 F15000.0
G1 Z11.9000 F2500.0
G4 P0.02
G1 X158.7000 Y-272.3593 F12000.0
G1 Z0.0000 F2500.0
G4 P0.02
G0 X157.1182 Y-272.4020 F15000.0
G1 Z11.9000 F2500.0
G4 P0.02
G1 X157.0346 Y-271.6847 F12000.0
G1 X156.9064 Y-271.5943
G1 X156.7070 Y-271.5955
G1 X156.5723 Y-271.7413
G1 X156.5101 Y-272.0535
G1 X156.6656 Y-272.3088
G1 X157.0481 Y-272.4425
G1 X157.1413 Y-273.5215
G1 X156.9248 Y-273.8474
G1 X156.2613 Y-273.5246
G1 X156.1396 Y-273.3909
G1 X156.6052 Y-272.3165
G1 Z0.0000 F2500.0
G4 P0.02

G0 Z0.0000 F800.0
G4 P0.06
G0 X0.0000 Y0.0000 F15000.0
M5
G4 P0.10
