$X
$1=255
G21
G90
G92 Z4.0000
G0 Z0.0000 F800.0
G4 P0.06
G92 Z0.0000
G0 Z0.0000 F800.0
G0 X0.0000 Y0.0000 F15000.0
G21
G90
G17
G91.1
G0 Z0.0000
G0 X180.0000 Y-80.4605 F15000.0
G1 Z11.9000 F8000.0
G1 X144.2791 Y-80.4605 F12000.0
G1 Z0.0000 F8000.0
G0 X180.0000 Y-135.6650 F15000.0
G1 Z11.9000 F8000.0
G1 X144.2791 Y-135.6650 F12000.0
G1 Z0.0000 F8000.0
G0 X180.0000 Y-82.3292 F15000.0
G1 Z11.9000 F8000.0
G1 X157.7494 Y-82.3292 F12000.0
G1 Z0.0000 F8000.0
G0 X180.0000 Y-133.7963 F15000.0
G1 Z11.9000 F8000.0
G1 X157.7494 Y-133.7963 F12000.0
G1 Z0.0000 F8000.0
G0 X178.3051 Y-63.6422 F15000.0
G1 Z11.9000 F8000.0
G1 X166.8594 Y-63.6422 F12000.0
G1 Z0.0000 F8000.0
G0 X146.1478 Y-80.4605 F15000.0
G1 Z11.9000 F8000.0
G1 X145.5250 Y-85.0543 F12000.0
G1 X146.1478 Y-84.5872 F12000.0
G1 X146.7708 Y-85.0543 F12000.0
G1 X146.1478 Y-80.4605 F12000.0
G1 Z0.0000 F8000.0
G0 X145.8365 Y-82.3046 F15000.0
G1 Z11.9000 F8000.0
G1 X145.8365 Y-83.1323 F12000.0
G1 Z0.0000 F8000.0
G0 X146.4204 Y-82.5771 F15000.0
G1 Z11.9000 F8000.0
G1 X146.4204 Y-83.4048 F12000.0
G1 Z0.0000 F8000.0
G0 X146.1478 Y-135.6650 F15000.0
G1 Z11.9000 F8000.0
G1 X146.7708 Y-131.0710 F12000.0
G1 X146.1478 Y-131.5382 F12000.0
G1 X145.5250 Y-131.0710 F12000.0
G1 X146.1478 Y-135.6650 F12000.0
G1 Z0.0000 F8000.0
G0 X146.4204 Y-132.6427 F15000.0
G1 Z11.9000 F8000.0
G1 X146.4204 Y-133.4704 F12000.0
G1 Z0.0000 F8000.0
G0 X145.8365 Y-132.9153 F15000.0
G1 Z11.9000 F8000.0
G1 X145.8365 Y-133.7429 F12000.0
G1 Z0.0000 F8000.0
G0 X146.1478 Y-80.4605 F15000.0
G1 Z11.9000 F8000.0
G1 X146.1478 Y-135.6650 F12000.0
G1 Z0.0000 F8000.0
G0 X159.5402 Y-82.3292 F15000.0
G1 Z11.9000 F8000.0
G1 X158.9952 Y-86.9230 F12000.0
G1 X159.5402 Y-86.4559 F12000.0
G1 X160.1631 Y-86.9230 F12000.0
G1 X159.5402 Y-82.3292 F12000.0
G1 Z0.0000 F8000.0
G0 X159.2678 Y-84.1733 F15000.0
G1 Z11.9000 F8000.0
G1 X159.2678 Y-85.0010 F12000.0
G1 Z0.0000 F8000.0
G0 X159.8127 Y-84.4458 F15000.0
G1 Z11.9000 F8000.0
G1 X159.8127 Y-85.2735 F12000.0
G1 Z0.0000 F8000.0
G0 X159.5402 Y-133.7963 F15000.0
G1 Z11.9000 F8000.0
G1 X160.1631 Y-129.2023 F12000.0
G1 X159.5402 Y-129.6695 F12000.0
G1 X158.9952 Y-129.2023 F12000.0
G1 X159.5402 Y-133.7963 F12000.0
G1 Z0.0000 F8000.0
G0 X159.8127 Y-130.7740 F15000.0
G1 Z11.9000 F8000.0
G1 X159.8127 Y-131.6017 F12000.0
G1 Z0.0000 F8000.0
G0 X159.2678 Y-131.0466 F15000.0
G1 Z11.9000 F8000.0
G1 X159.2678 Y-131.8742 F12000.0
G1 Z0.0000 F8000.0
G0 X159.5402 Y-82.3292 F15000.0
G1 Z11.9000 F8000.0
G1 X159.5402 Y-133.7963 F12000.0
G1 Z0.0000 F8000.0
G0 X180.0000 Y-64.0352 F15000.0
G1 Z11.9000 F8000.0
G1 X178.3051 Y-64.2650 F12000.0
G1 X178.7722 Y-63.6422 F12000.0
G1 X178.3051 Y-63.0971 F12000.0
G1 X180.0000 Y-63.2982 F12000.0
G1 Z0.0000 F8000.0
G0 X180.0000 Y-63.6422 F15000.0
G1 Z11.9000 F8000.0
G1 X176.4364 Y-63.6422 F12000.0
G1 Z0.0000 F8000.0
G0 X180.0000 Y-63.3696 F15000.0
G1 Z11.9000 F8000.0
G1 X179.8378 Y-63.3696 F12000.0
G1 Z0.0000 F8000.0
G0 X82.0670 Y-140.8817 F15000.0
G1 Z11.9000 F8000.0
G1 X82.0670 Y-131.0710 F12000.0
G1 Z0.0000 F8000.0
G0 X82.0670 Y-129.6695 F15000.0
G1 Z11.9000 F8000.0
G1 X82.0670 Y-128.2680 F12000.0
G1 Z0.0000 F8000.0
G0 X82.0670 Y-126.9444 F15000.0
G1 Z11.9000 F8000.0
G1 X82.0670 Y-117.1337 F12000.0
G1 Z0.0000 F8000.0
G0 X82.0670 Y-115.7321 F15000.0
G1 Z11.9000 F8000.0
G1 X82.0670 Y-114.3306 F12000.0
G1 Z0.0000 F8000.0
G0 X82.0670 Y-112.9291 F15000.0
G1 Z11.9000 F8000.0
G1 X82.0670 Y-108.0237 F12000.0
G1 Z0.0000 F8000.0
G0 X82.0670 Y-75.2437 F15000.0
G1 Z11.9000 F8000.0
G1 X82.0670 Y-85.0543 F12000.0
G1 Z0.0000 F8000.0
G0 X82.0670 Y-86.4559 F15000.0
G1 Z11.9000 F8000.0
G1 X82.0670 Y-87.7795 F12000.0
G1 Z0.0000 F8000.0
G0 X82.0670 Y-89.1810 F15000.0
G1 Z11.9000 F8000.0
G1 X82.0670 Y-98.9917 F12000.0
G1 Z0.0000 F8000.0
G0 X82.0670 Y-100.3932 F15000.0
G1 Z11.9000 F8000.0
G1 X82.0670 Y-101.7948 F12000.0
G1 Z0.0000 F8000.0
G0 X82.0670 Y-103.1184 F15000.0
G1 Z11.9000 F8000.0
G1 X82.0670 Y-108.0237 F12000.0
G1 Z0.0000 F8000.0
G0 X49.2090 Y-108.0237 F15000.0
G1 Z11.9000 F8000.0
G1 X59.0197 Y-108.0237 F12000.0
G1 Z0.0000 F8000.0
G0 X60.4212 Y-108.0237 F15000.0
G1 Z11.9000 F8000.0
G1 X61.8228 Y-108.0237 F12000.0
G1 Z0.0000 F8000.0
G0 X63.2243 Y-108.0237 F15000.0
G1 Z11.9000 F8000.0
G1 X73.0350 Y-108.0237 F12000.0
G1 Z0.0000 F8000.0
G0 X74.3587 Y-108.0237 F15000.0
G1 Z11.9000 F8000.0
G1 X75.7602 Y-108.0237 F12000.0
G1 Z0.0000 F8000.0
G0 X77.1617 Y-108.0237 F15000.0
G1 Z11.9000 F8000.0
G1 X82.0670 Y-108.0237 F12000.0
G1 Z0.0000 F8000.0
G0 X114.8472 Y-108.0237 F15000.0
G1 Z11.9000 F8000.0
G1 X105.0365 Y-108.0237 F12000.0
G1 Z0.0000 F8000.0
G0 X103.7129 Y-108.0237 F15000.0
G1 Z11.9000 F8000.0
G1 X102.3113 Y-108.0237 F12000.0
G1 Z0.0000 F8000.0
G0 X100.9098 Y-108.0237 F15000.0
G1 Z11.9000 F8000.0
G1 X91.0991 Y-108.0237 F12000.0
G1 Z0.0000 F8000.0
G0 X89.6976 Y-108.0237 F15000.0
G1 Z11.9000 F8000.0
G1 X88.3739 Y-108.0237 F12000.0
G1 Z0.0000 F8000.0
G0 X86.9723 Y-108.0237 F15000.0
G1 Z11.9000 F8000.0
G1 X82.0670 Y-108.0237 F12000.0
G1 Z0.0000 F8000.0
G0 X117.0273 Y-128.2680 F15000.0
G1 Z11.9000 F8000.0
G1 X117.0273 Y-87.8574 F12000.0
G1 Z0.0000 F8000.0
G0 X82.0670 Y-67.6910 F15000.0
G1 Z11.9000 F8000.0
G1 X47.1067 Y-87.8574 F12000.0
G1 X47.1067 Y-128.2680 F12000.0
G1 Z0.0000 F8000.0
G0 X82.0670 Y-148.4344 F15000.0
G1 Z11.9000 F8000.0
G1 X117.0273 Y-128.2680 F12000.0
G1 Z0.0000 F8000.0
G0 X47.1067 Y-128.2680 F15000.0
G1 Z11.9000 F8000.0
G1 X82.0670 Y-148.4344 F12000.0
G1 Z0.0000 F8000.0
G0 X117.0273 Y-87.8574 F15000.0
G1 Z11.9000 F8000.0
G1 X82.0670 Y-67.6910 F12000.0
G1 Z0.0000 F8000.0
G0 X64.5480 Y-108.0237 F15000.0
G1 Z11.9000 F8000.0
G1 X64.7037 Y-105.6879 F12000.0
G1 X65.1709 Y-103.4299 F12000.0
G1 X65.9495 Y-101.2497 F12000.0
G1 X67.0396 Y-99.1474 F12000.0
G1 X68.3632 Y-97.2009 F12000.0
G1 X69.9205 Y-95.4879 F12000.0
G1 X71.7113 Y-94.0085 F12000.0
G1 X73.6579 Y-92.7627 F12000.0
G1 X75.7602 Y-91.7505 F12000.0
G1 X78.0182 Y-91.0497 F12000.0
G1 X80.2762 Y-90.6604 F12000.0
G1 X82.6121 Y-90.5826 F12000.0
G1 X84.9480 Y-90.8161 F12000.0
G1 X87.2059 Y-91.3612 F12000.0
G1 X89.3861 Y-92.2177 F12000.0
G1 X91.4105 Y-93.3077 F12000.0
G1 X93.2792 Y-94.7092 F12000.0
G1 X94.9922 Y-96.2666 F12000.0
G1 X96.4716 Y-98.1353 F12000.0
G1 X97.6396 Y-100.1597 F12000.0
G1 X98.5739 Y-102.2619 F12000.0
G1 X99.1968 Y-104.5199 F12000.0
G1 X99.5083 Y-106.8558 F12000.0
G1 X99.5083 Y-109.1917 F12000.0
G1 X99.1968 Y-111.4498 F12000.0
G1 X98.5739 Y-113.7077 F12000.0
G1 X97.7174 Y-115.8879 F12000.0
G1 X96.4716 Y-117.9123 F12000.0
G1 X95.0701 Y-119.7031 F12000.0
G1 X93.4350 Y-121.3382 F12000.0
G1 X91.4884 Y-122.7398 F12000.0
G1 X89.4640 Y-123.8298 F12000.0
G1 X87.2838 Y-124.6864 F12000.0
G1 X85.0258 Y-125.2313 F12000.0
G1 X82.7678 Y-125.5428 F12000.0
G1 X80.4319 Y-125.4649 F12000.0
G1 X78.0960 Y-125.0756 F12000.0
G1 X75.8380 Y-124.3749 F12000.0
G1 X73.7357 Y-123.4405 F12000.0
G1 X71.7892 Y-122.1947 F12000.0
G1 X69.9983 Y-120.7154 F12000.0
G1 X68.4411 Y-119.0024 F12000.0
G1 X67.1175 Y-117.0559 F12000.0
G1 X66.0273 Y-114.9536 F12000.0
G1 X65.2488 Y-112.7734 F12000.0
G1 X64.7816 Y-110.5154 F12000.0
G1 X64.5480 Y-108.1795 F12000.0
G1 Z0.0000 F8000.0
G0 X48.9754 Y-108.0237 F15000.0
G1 Z11.9000 F8000.0
G1 X49.1312 Y-104.8314 F12000.0
G1 X49.5984 Y-101.6391 F12000.0
G1 X50.3770 Y-98.5245 F12000.0
G1 X51.3892 Y-95.5658 F12000.0
G1 X52.7907 Y-92.6070 F12000.0
G1 X54.4259 Y-89.8818 F12000.0
G1 X56.2946 Y-87.2344 F12000.0
G1 X58.3968 Y-84.8986 F12000.0
G1 X60.8106 Y-82.7185 F12000.0
G1 X63.3022 Y-80.7719 F12000.0
G1 X66.1052 Y-79.0590 F12000.0
G1 X68.9862 Y-77.6574 F12000.0
G1 X71.9449 Y-76.4895 F12000.0
G1 X75.0595 Y-75.7108 F12000.0
G1 X78.2518 Y-75.1658 F12000.0
G1 X81.4441 Y-74.9322 F12000.0
G1 X84.6365 Y-75.0101 F12000.0
G1 X87.8289 Y-75.4772 F12000.0
G1 X90.9433 Y-76.1780 F12000.0
G1 X93.9800 Y-77.1903 F12000.0
G1 X96.9388 Y-78.5139 F12000.0
G1 X99.7419 Y-80.0711 F12000.0
G1 X102.3891 Y-81.9398 F12000.0
G1 X104.8029 Y-83.9643 F12000.0
G1 X106.9831 Y-86.3002 F12000.0
G1 X109.0075 Y-88.7917 F12000.0
G1 X110.7204 Y-91.5169 F12000.0
G1 X112.1998 Y-94.3979 F12000.0
G1 X113.3678 Y-97.3566 F12000.0
G1 X114.3021 Y-100.4711 F12000.0
G1 X114.8472 Y-103.5856 F12000.0
G1 X115.1586 Y-106.7780 F12000.0
G1 X115.0808 Y-110.0482 F12000.0
G1 X114.7693 Y-113.2406 F12000.0
G1 X114.0685 Y-116.3551 F12000.0
G1 X113.1342 Y-119.3916 F12000.0
G1 X111.8883 Y-122.3505 F12000.0
G1 X110.4090 Y-125.2313 F12000.0
G1 X108.6182 Y-127.8787 F12000.0
G1 X106.5159 Y-130.3703 F12000.0
G1 X104.2578 Y-132.6283 F12000.0
G1 X101.7663 Y-134.6527 F12000.0
G1 X99.1189 Y-136.4436 F12000.0
G1 X96.3159 Y-137.9230 F12000.0
G1 X93.3571 Y-139.1688 F12000.0
G1 X90.2426 Y-140.1032 F12000.0
G1 X87.1281 Y-140.8039 F12000.0
G1 X83.9357 Y-141.1153 F12000.0
G1 X80.7434 Y-141.1153 F12000.0
G1 X77.5510 Y-140.8817 F12000.0
G1 X74.3587 Y-140.2589 F12000.0
G1 X71.2442 Y-139.3245 F12000.0
G1 X68.2854 Y-138.1566 F12000.0
G1 X65.4045 Y-136.6771 F12000.0
G1 X62.7571 Y-134.9642 F12000.0
G1 X60.2655 Y-132.9397 F12000.0
G1 X57.9297 Y-130.6818 F12000.0
G1 X55.8274 Y-128.2680 F12000.0
G1 X54.0366 Y-125.6207 F12000.0
G1 X52.4015 Y-122.8177 F12000.0
G1 X51.1556 Y-119.9367 F12000.0
G1 X50.1434 Y-116.8223 F12000.0
G1 X49.4426 Y-113.7077 F12000.0
G1 X49.0533 Y-110.5154 F12000.0
G1 X48.9754 Y-108.0237 F12000.0
G1 Z0.0000 F8000.0
G0 X117.0273 Y-128.2680 F15000.0
G1 Z11.9000 F8000.0
G1 X117.0273 Y-173.5840 F12000.0
G1 Z0.0000 F8000.0
G0 X47.1067 Y-128.2680 F15000.0
G1 Z11.9000 F8000.0
G1 X47.1067 Y-173.5840 F12000.0
G1 Z0.0000 F8000.0
G0 X82.0670 Y-148.4344 F15000.0
G1 Z11.9000 F8000.0
G1 X15.8839 Y-148.4344 F12000.0
G1 Z0.0000 F8000.0
G0 X82.0670 Y-67.6910 F15000.0
G1 Z11.9000 F8000.0
G1 X15.8839 Y-67.6910 F12000.0
G1 Z0.0000 F8000.0
G0 X117.0273 Y-171.7153 F15000.0
G1 Z11.9000 F8000.0
G1 X112.4334 Y-171.0924 F12000.0
G1 X112.9006 Y-171.7153 F12000.0
G1 X112.4334 Y-172.3382 F12000.0
G1 X117.0273 Y-171.7153 F12000.0
G1 Z0.0000 F8000.0
G0 X114.8327 Y-171.4038 F15000.0
G1 Z11.9000 F8000.0
G1 X114.0051 Y-171.4038 F12000.0
G1 Z0.0000 F8000.0
G0 X115.1442 Y-171.9878 F15000.0
G1 Z11.9000 F8000.0
G1 X114.3166 Y-171.9878 F12000.0
G1 Z0.0000 F8000.0
G0 X47.1067 Y-171.7153 F15000.0
G1 Z11.9000 F8000.0
G1 X51.7007 Y-172.3382 F12000.0
G1 X51.2335 Y-171.7153 F12000.0
G1 X51.7007 Y-171.0924 F12000.0
G1 X47.1067 Y-171.7153 F12000.0
G1 Z0.0000 F8000.0
G0 X49.7787 Y-171.9878 F15000.0
G1 Z11.9000 F8000.0
G1 X48.9510 Y-171.9878 F12000.0
G1 Z0.0000 F8000.0
G0 X50.0511 Y-171.4038 F15000.0
G1 Z11.9000 F8000.0
G1 X49.2235 Y-171.4038 F12000.0
G1 Z0.0000 F8000.0
G0 X117.0273 Y-171.7153 F15000.0
G1 Z11.9000 F8000.0
G1 X47.1067 Y-171.7153 F12000.0
G1 Z0.0000 F8000.0
G0 X17.7526 Y-148.4344 F15000.0
G1 Z11.9000 F8000.0
G1 X18.3755 Y-143.8406 F12000.0
G1 X17.7526 Y-144.2298 F12000.0
G1 X17.1297 Y-143.8406 F12000.0
G1 X17.7526 Y-148.4344 F12000.0
G1 Z0.0000 F8000.0
G0 X18.0252 Y-145.4122 F15000.0
G1 Z11.9000 F8000.0
G1 X18.0252 Y-146.2399 F12000.0
G1 Z0.0000 F8000.0
G0 X17.4412 Y-145.6847 F15000.0
G1 Z11.9000 F8000.0
G1 X17.4412 Y-146.5124 F12000.0
G1 Z0.0000 F8000.0
G0 X17.7526 Y-67.6910 F15000.0
G1 Z11.9000 F8000.0
G1 X17.1297 Y-72.2849 F12000.0
G1 X17.7526 Y-71.8177 F12000.0
G1 X18.3755 Y-72.2849 F12000.0
G1 X17.7526 Y-67.6910 F12000.0
G1 Z0.0000 F8000.0
G0 X17.4412 Y-69.5352 F15000.0
G1 Z11.9000 F8000.0
G1 X17.4412 Y-70.3629 F12000.0
G1 Z0.0000 F8000.0
G0 X18.0252 Y-69.8077 F15000.0
G1 Z11.9000 F8000.0
G1 X18.0252 Y-70.6354 F12000.0
G1 Z0.0000 F8000.0
G0 X17.7526 Y-148.4344 F15000.0
G1 Z11.9000 F8000.0
G1 X17.7526 Y-67.6910 F12000.0
G1 Z0.0000 F8000.0
G0 X180.0000 Y-11.7857 F15000.0
G1 Z11.9000 F8000.0
G1 X0.0000 Y-11.7857 F12000.0
G1 X0.0000 Y-275.7396 F12000.0
G1 X180.0000 Y-275.7396 F12000.0
G1 Z0.0000 F8000.0
G0 X170.1296 Y-225.1290 F15000.0
G1 Z11.9000 F8000.0
G1 X0.0000 Y-225.1290 F12000.0
G1 Z0.0000 F8000.0
G0 X170.1296 Y-234.3167 F15000.0
G1 Z11.9000 F8000.0
G1 X110.3311 Y-234.3167 F12000.0
G1 Z0.0000 F8000.0
G0 X170.1296 Y-238.9107 F15000.0
G1 Z11.9000 F8000.0
G1 X110.3311 Y-238.9107 F12000.0
G1 Z0.0000 F8000.0
G0 X170.1296 Y-252.6923 F15000.0
G1 Z11.9000 F8000.0
G1 X110.3311 Y-252.6923 F12000.0
G1 Z0.0000 F8000.0
G0 X170.1296 Y-257.3640 F15000.0
G1 Z11.9000 F8000.0
G1 X110.3311 Y-257.3640 F12000.0
G1 Z0.0000 F8000.0
G0 X170.1296 Y-261.9580 F15000.0
G1 Z11.9000 F8000.0
G1 X110.3311 Y-261.9580 F12000.0
G1 Z0.0000 F8000.0
G0 X170.1296 Y-266.5518 F15000.0
G1 Z11.9000 F8000.0
G1 X110.3311 Y-266.5518 F12000.0
G1 Z0.0000 F8000.0
G0 X170.1296 Y-271.1457 F15000.0
G1 Z11.9000 F8000.0
G1 X110.3311 Y-271.1457 F12000.0
G1 Z0.0000 F8000.0
G0 X170.1296 Y-275.7396 F15000.0
G1 Z11.9000 F8000.0
G1 X170.1296 Y-225.1290 F12000.0
G1 Z0.0000 F8000.0
G0 X170.1296 Y-229.7229 F15000.0
G1 Z11.9000 F8000.0
G1 X110.3311 Y-229.7229 F12000.0
G1 Z0.0000 F8000.0
G0 X154.4792 Y-275.7396 F15000.0
G1 Z11.9000 F8000.0
G1 X154.4792 Y-225.1290 F12000.0
G1 Z0.0000 F8000.0
G0 X133.3006 Y-275.7396 F15000.0
G1 Z11.9000 F8000.0
G1 X133.3006 Y-225.1290 F12000.0
G1 Z0.0000 F8000.0
G0 X119.5189 Y-275.7396 F15000.0
G1 Z11.9000 F8000.0
G1 X119.5189 Y-225.1290 F12000.0
G1 Z0.0000 F8000.0
G0 X110.3311 Y-275.7396 F15000.0
G1 Z11.9000 F8000.0
G1 X110.3311 Y-225.1290 F12000.0
G1 Z0.0000 F8000.0
G0 X45.9388 Y-275.7396 F15000.0
G1 Z11.9000 F8000.0
G1 X45.9388 Y-238.9107 F12000.0
G1 Z0.0000 F8000.0
G0 X32.1572 Y-257.3640 F15000.0
G1 Z11.9000 F8000.0
G1 X32.1572 Y-238.9107 F12000.0
G1 Z0.0000 F8000.0
G0 X16.5068 Y-257.3640 F15000.0
G1 Z11.9000 F8000.0
G1 X16.5068 Y-238.9107 F12000.0
G1 Z0.0000 F8000.0
G0 X170.1296 Y-243.5045 F15000.0
G1 Z11.9000 F8000.0
G1 X110.3311 Y-243.5045 F12000.0
G1 Z0.0000 F8000.0
G0 X170.1296 Y-248.0984 F15000.0
G1 Z11.9000 F8000.0
G1 X110.3311 Y-248.0984 F12000.0
G1 Z0.0000 F8000.0
G0 X45.9388 Y-261.9580 F15000.0
G1 Z11.9000 F8000.0
G1 X0.0000 Y-261.9580 F12000.0
G1 Z0.0000 F8000.0
G0 X32.1572 Y-243.5045 F15000.0
G1 Z11.9000 F8000.0
G1 X0.0000 Y-243.5045 F12000.0
G1 Z0.0000 F8000.0
G0 X45.9388 Y-243.5045 F15000.0
G1 Z11.9000 F8000.0
G1 X32.1572 Y-243.5045 F12000.0
G1 Z0.0000 F8000.0
G0 X110.3311 Y-238.9107 F15000.0
G1 Z11.9000 F8000.0
G1 X0.0000 Y-238.9107 F12000.0
G1 Z0.0000 F8000.0
G0 X110.3311 Y-261.9580 F15000.0
G1 Z11.9000 F8000.0
G1 X45.9388 Y-261.9580 F12000.0
G1 Z0.0000 F8000.0
G0 X45.9388 Y-257.3640 F15000.0
G1 Z11.9000 F8000.0
G1 X0.0000 Y-257.3640 F12000.0
G1 Z0.0000 F8000.0
G0 X27.0183 Y-261.9580 F15000.0
G1 Z11.9000 F8000.0
G1 X27.0183 Y-257.3640 F12000.0
G1 Z0.0000 F8000.0
G0 X41.3449 Y-257.3640 F15000.0
G1 Z11.9000 F8000.0
G1 X41.3449 Y-243.5045 F12000.0
G1 Z0.0000 F8000.0
G0 X36.7511 Y-257.3640 F15000.0
G1 Z11.9000 F8000.0
G1 X36.7511 Y-243.5045 F12000.0
G1 Z0.0000 F8000.0
G0 X163.6669 Y-248.0984 F15000.0
G1 Z11.9000 F8000.0
G1 X163.6669 Y-225.1290 F12000.0
G1 Z0.0000 F8000.0
G0 X176.3381 Y-56.4806 F15000.0
G1 Z11.9000 F8000.0
G1 X176.3769 Y-56.5979 F12000.0
G1 X176.2617 Y-56.4840
G1 X174.7747 Y-56.4806
G1 Z0.0000 F8000.0
G0 X176.4300 Y-56.6645 F15000.0
G1 Z11.9000 F8000.0
G1 X176.4077 Y-58.1552 F12000.0
G1 X176.2488 Y-58.2439
G1 X175.5595 Y-58.3235
G1 X175.0435 Y-58.5659
G1 X174.8367 Y-58.9376
G1 X174.7034 Y-59.7339
G1 X174.7952 Y-60.0617
G1 X175.1952 Y-60.4682
G1 X176.4300 Y-60.5270
G1 Z0.0000 F8000.0
G0 X175.0506 Y-60.4350 F15000.0
G1 Z11.9000 F8000.0
G1 X174.8666 Y-60.1591 F12000.0
G1 Z0.0000 F8000.0
G0 X173.4872 Y-60.9868 F15000.0
G1 Z11.9000 F8000.0
G1 X173.3952 Y-60.8948 F12000.0
G1 X173.4872 Y-61.0788
G1 X173.4872 Y-60.9868
G1 Z0.0000 F8000.0
G0 X172.0158 Y-60.5270 F15000.0
G1 Z11.9000 F8000.0
G1 X170.7484 Y-60.4825 F12000.0
G1 X170.3994 Y-60.0867
G1 X170.2883 Y-59.6518
G1 X170.4449 Y-58.8582
G1 X170.6077 Y-58.5847
G1 X171.1142 Y-58.3298
G1 X171.9845 Y-58.1791
G1 X171.9958 Y-56.7048
G1 X171.8704 Y-56.4957
G1 X170.3604 Y-56.4806
G1 Z0.0000 F8000.0
G0 X147.3191 Y-100.3875 F15000.0
G1 Z11.9000 F8000.0
G1 X146.7595 Y-100.4891 F12000.0
G1 X146.6433 Y-100.6499
G1 X146.6163 Y-100.8661
G1 X146.7786 Y-101.1387
G1 X147.0526 Y-101.1932
G1 X146.7475 Y-101.2223
G1 X146.6624 Y-101.4138
G1 X146.6594 Y-101.9862
G1 X146.8209 Y-102.1990
G1 Z0.0000 F8000.0
G0 X148.0438 Y-102.0631 F15000.0
G1 Z11.9000 F8000.0
G1 X148.5577 Y-101.9634 F12000.0
G1 X148.2180 Y-101.9067
G1 X148.4854 Y-101.8559
G1 X148.3607 Y-101.6101
G1 X148.3037 Y-101.7144
G1 X148.4257 Y-101.4742
G1 X148.3345 Y-101.4640
G1 X148.0765 Y-101.1778
G1 X148.4896 Y-101.3391
G1 X148.6620 Y-101.1552
G1 X148.1779 Y-101.3111
G1 X148.7230 Y-102.1085
G1 Z0.0000 F8000.0
G0 X149.4024 Y-102.0179 F15000.0
G1 Z11.9000 F8000.0
G1 X149.4229 Y-100.6209 F12000.0
G1 X149.5577 Y-100.4903
G1 X149.9055 Y-100.4356
G1 Z0.0000 F8000.0
G0 X149.5582 Y-100.4753 F15000.0
G1 Z11.9000 F8000.0
G1 X150.0852 Y-100.5972 F12000.0
G1 X150.1428 Y-101.9731
G1 X149.9110 Y-102.1857
G1 X149.6849 Y-102.1919
G1 X149.4514 Y-102.0752
G1 X149.5382 Y-102.1990
G1 Z0.0000 F8000.0
G0 X150.8969 Y-101.2933 F15000.0
G1 Z11.9000 F8000.0
G1 X150.8707 Y-102.0773 F12000.0
G1 X151.0635 Y-102.1637
G1 X151.4777 Y-102.1094
G1 X151.5145 Y-101.2001
G1 X151.0105 Y-100.5009
G1 X151.0303 Y-101.2054
G1 X151.5309 Y-101.1574
G1 Z0.0000 F8000.0
G0 X152.2102 Y-100.7498 F15000.0
G1 Z11.9000 F8000.0
G1 X152.1649 Y-102.1990 F12000.0
G1 Z0.0000 F8000.0
G0 X153.3424 Y-102.1537 F15000.0
G1 Z11.9000 F8000.0
G1 X153.0228 Y-101.0460 F12000.0
G1 X153.3002 Y-100.8209
G1 X153.3060 Y-100.5149
G1 X152.7772 Y-101.2182
G1 X152.6264 Y-101.1816
G1 X152.2734 Y-100.8044
G1 X152.3914 Y-100.8404
G1 Z0.0000 F8000.0
G0 X23.2708 Y-101.3977 F15000.0
G1 Z11.9000 F8000.0
G1 X23.1654 Y-101.2467 F12000.0
G1 X22.6299 Y-101.2693
G1 X22.5711 Y-101.6290
G1 X22.9554 Y-102.9941
G1 X22.9949 Y-102.9611
G1 Z0.0000 F8000.0
G0 X24.0065 Y-102.9611 F15000.0
G1 Z11.9000 F8000.0
G1 X24.0984 Y-103.0530 F12000.0
G1 X24.0065 Y-103.0530
G1 X24.0065 Y-102.9611
G1 Z0.0000 F8000.0
G0 X24.0984 Y-102.0414 F15000.0
G1 Z11.9000 F8000.0
G1 X24.0065 Y-101.6736 F12000.0
G1 X24.2824 Y-101.2137
G1 X24.4663 Y-101.2137
G1 X24.8341 Y-101.4896
G1 X24.8341 Y-102.0414
G1 X24.6502 Y-102.1334
G1 X24.9261 Y-102.5012
G1 X24.9261 Y-102.8691
G1 X24.6502 Y-103.1450
G1 X24.1904 Y-103.1450
G1 X23.9145 Y-102.7771
G1 X24.0065 Y-102.4093
G1 X24.1904 Y-102.1334
G1 X24.0984 Y-102.2253
G1 X24.0984 Y-102.0414
G1 Z0.0000 F8000.0
G0 X21.8913 Y-103.2369 F15000.0
G1 Z11.9000 F8000.0
G1 X21.8913 Y-103.6048 F12000.0
G1 Z0.0000 F8000.0
G0 X21.1556 Y-102.5012 F15000.0
G1 Z11.9000 F8000.0
G1 X20.9433 Y-102.1633 F12000.0
G1 X21.0636 Y-102.3173
G1 Z0.0000 F8000.0
G0 X20.3279 Y-102.0414 F15000.0
G1 Z11.9000 F8000.0
G1 X20.2360 Y-101.6736 F12000.0
G1 X20.5119 Y-101.2137
G1 X20.6958 Y-101.2137
G1 X21.0636 Y-101.4896
G1 X21.0636 Y-102.0414
G1 X20.9717 Y-102.1334
G1 X21.1556 Y-102.8691
G1 X21.0636 Y-103.0530
G1 X20.8797 Y-103.1450
G1 X20.4199 Y-103.1450
G1 X20.1440 Y-102.7771
G1 X20.2360 Y-102.4093
G1 X20.4199 Y-102.1334
G1 X20.3279 Y-102.2253
G1 X20.3279 Y-102.0414
G1 Z0.0000 F8000.0
G0 X20.2360 Y-102.9611 F15000.0
G1 Z11.9000 F8000.0
G1 X20.3279 Y-103.0530 F12000.0
G1 X20.2360 Y-103.0530
G1 X20.2360 Y-102.9611
G1 Z0.0000 F8000.0
G0 X163.9364 Y-104.6614 F15000.0
G1 Z11.9000 F8000.0
G1 X164.9348 Y-104.4478 F12000.0
G1 X165.0197 Y-104.1955
G1 X164.8442 Y-103.3380
G1 X163.7525 Y-103.2819
G1 Z0.0000 F8000.0
G0 X163.8444 Y-104.7533 F15000.0
G1 Z11.9000 F8000.0
G1 X163.7646 Y-105.7421 F12000.0
G1 X163.9537 Y-106.0549
G1 X164.1212 Y-106.1382
G1 X164.9480 Y-106.2248
G1 Z0.0000 F8000.0
G0 X163.9364 Y-106.0408 F15000.0
G1 Z11.9000 F8000.0
G1 X163.8444 Y-105.9489 F12000.0
G1 Z0.0000 F8000.0
G0 X162.7409 Y-104.5694 F15000.0
G1 Z11.9000 F8000.0
G1 X162.8180 Y-105.5235 F12000.0
G1 X162.6891 Y-105.9895
G1 X162.5465 Y-106.1147
G1 X161.8711 Y-106.2032
G1 X161.6630 Y-106.1069
G1 X161.5634 Y-105.8978
G1 X161.6942 Y-104.6517
G1 X162.6870 Y-104.4526
G1 X162.4664 Y-103.8591
G1 X161.8212 Y-103.2819
G1 Z0.0000 F8000.0
G0 X166.5114 Y-103.9257 F15000.0
G1 Z11.9000 F8000.0
G1 X166.7147 Y-103.8005 F12000.0
G1 X166.9968 Y-103.7729
G1 X167.2699 Y-103.8716
G1 X167.5725 Y-104.1094
G1 X167.7604 Y-105.1459
G1 X167.5318 Y-105.4592
G1 X167.1173 Y-105.6436
G1 X166.5214 Y-103.8010
G1 X166.0644 Y-104.2403
G1 X165.9826 Y-105.1143
G1 X166.3453 Y-105.5623
G1 X167.2319 Y-105.6901
G1 X167.2471 Y-105.5810
G1 Z0.0000 F8000.0
G0 X85.0766 Y-169.1225 F15000.0
G1 Z11.9000 F8000.0
G1 X84.8437 Y-168.5747 F12000.0
G1 X83.9009 Y-164.9993
G1 X84.0036 Y-164.5647
G1 X85.5223 Y-164.5260
G1 X85.7075 Y-164.5917
G1 X85.8123 Y-164.9841
G1 Z0.0000 F8000.0
G0 X82.1338 Y-166.5475 F15000.0
G1 Z11.9000 F8000.0
G1 X80.7099 Y-166.6545 F12000.0
G1 X80.3623 Y-166.9541
G1 X80.2880 Y-167.1655
G1 X80.2192 Y-168.5930
G1 X80.4596 Y-168.9771
G1 X81.4883 Y-169.1933
G1 X81.9234 Y-169.0223
G1 X82.2014 Y-168.6535
G1 X82.0871 Y-166.3985
G1 X81.7578 Y-165.3782
G1 X81.2141 Y-164.8002
G1 Z0.0000 F8000.0
G0 X80.5704 Y-166.7314 F15000.0
G1 Z11.9000 F8000.0
G1 X80.3865 Y-166.9154 F12000.0
G1 Z0.0000 F8000.0
G0 X80.2945 Y-168.8466 F15000.0
G1 Z11.9000 F8000.0
G1 X80.4784 Y-169.0305 F12000.0
G1 Z0.0000 F8000.0
G0 X165.4697 Y-205.6533 F15000.0
G1 Z11.9000 F8000.0
G1 X165.4968 Y-205.5955 F12000.0
G1 X165.4697 Y-208.4122
G1 Z0.0000 F8000.0
G0 X159.9519 Y-206.8948 F15000.0
G1 Z11.9000 F8000.0
G1 X159.8686 Y-205.3446 F12000.0
G1 X159.7917 Y-205.1762
G1 X158.7434 Y-205.1980
G1 X158.4501 Y-205.3402
G1 X158.2241 Y-205.6791
G1 X158.2299 Y-206.3835
G1 X158.5976 Y-206.8249
G1 X159.8739 Y-206.9680
G1 X159.9497 Y-207.1527
G1 X159.9519 Y-208.2743
G1 Z0.0000 F8000.0
G0 X158.4345 Y-206.7569 F15000.0
G1 Z11.9000 F8000.0
G1 X158.1276 Y-206.4195 F12000.0
G1 X157.0940 Y-206.5796
G1 X157.0116 Y-206.7479
G1 X156.9736 Y-208.0461
G1 X156.7973 Y-208.2689
G1 X156.9512 Y-208.1263
G1 X156.5907 Y-208.3462
G1 X155.6711 Y-208.1993
G1 X155.5970 Y-207.9003
G1 X155.7203 Y-206.2642
G1 X155.9185 Y-206.2153
G1 X156.7385 Y-206.2873
G1 X156.9631 Y-206.4810
G1 Z0.0000 F8000.0
G0 X155.5836 Y-208.1823 F15000.0
G1 Z11.9000 F8000.0
G1 X155.2550 Y-208.3055 F12000.0
G1 X154.0815 Y-208.3496
G1 X153.4968 Y-208.2716
G1 X153.3637 Y-208.1699
G1 X153.2910 Y-207.8564
G1 X153.3788 Y-206.4396
G1 X153.6463 Y-206.2474
G1 X154.3032 Y-206.3148
G1 X153.3891 Y-207.0338
G1 X153.4684 Y-207.2627
G1 Z0.0000 F8000.0
G0 X152.1350 Y-206.7569 F15000.0
G1 Z11.9000 F8000.0
G1 X152.1323 Y-208.2032 F12000.0
G1 X151.3578 Y-207.5288
G1 X150.9916 Y-207.0995
G1 X151.2021 Y-207.2594
G1 X151.3895 Y-207.1931
G1 X151.7355 Y-206.8783
G1 X152.0933 Y-206.6974
G1 X152.1809 Y-206.3430
G1 Z0.0000 F8000.0
G0 X150.3417 Y-206.2970 F15000.0
G1 Z11.9000 F8000.0
G1 X150.4486 Y-206.6301 F12000.0
G1 X150.8465 Y-206.9904
G1 X150.3876 Y-208.2743
G1 Z0.0000 F8000.0
G0 X149.2841 Y-207.2167 F15000.0
G1 Z11.9000 F8000.0
G1 X148.9673 Y-206.3277 F12000.0
G1 X148.4285 Y-206.2181
G1 X148.0122 Y-206.3844
G1 X147.8916 Y-207.1445
G1 X149.2166 Y-207.2441
G1 X149.2713 Y-207.4185
G1 X149.1839 Y-208.1157
G1 X149.0196 Y-208.2726
G1 X146.7969 Y-208.3842
G1 X146.6452 Y-206.3309
G1 X146.5827 Y-206.2680
G1 X145.7721 Y-206.2340
G1 X145.5602 Y-206.3235
G1 X145.4601 Y-206.5152
G1 X145.3653 Y-208.0509
G1 X145.5894 Y-208.2967
G1 X146.5323 Y-208.3609
G1 X146.7210 Y-208.4356
G1 X146.7551 Y-209.3778
G1 Z0.0000 F8000.0
G0 X144.2261 Y-207.2167 F15000.0
G1 Z11.9000 F8000.0
G1 X143.4152 Y-207.3475 F12000.0
G1 X143.2173 Y-207.5815
G1 X143.1960 Y-208.0452
G1 X143.3357 Y-208.2784
G1 X143.2716 Y-208.2094
G1 X143.4631 Y-208.3047
G1 X144.1391 Y-208.2837
G1 X144.2261 Y-206.3430
G1 Z0.0000 F8000.0
G0 X142.4328 Y-206.3430 F15000.0
G1 Z11.9000 F8000.0
G1 X142.4328 Y-208.2743 F12000.0
G1 Z0.0000 F8000.0
G0 X161.0554 Y-205.6533 F15000.0
G1 Z11.9000 F8000.0
G1 X161.5794 Y-205.6803 F12000.0
G1 X161.3313 Y-205.1935
G1 Z0.0000 F8000.0
G0 X161.9291 Y-205.2395 F15000.0
G1 Z11.9000 F8000.0
G1 X161.3830 Y-206.0865 F12000.0
G1 X161.7403 Y-205.8915
G1 X161.8746 Y-206.0808
G1 X161.7911 Y-205.8832
G1 Z0.0000 F8000.0
G0 X139.3060 Y-205.1015 F15000.0
G1 Z11.9000 F8000.0
G1 X138.5907 Y-205.1443 F12000.0
G1 X138.3801 Y-205.2233
G1 X138.2759 Y-205.4187
G1 X138.1950 Y-206.1001
G1 X139.1876 Y-206.2676
G1 X139.5160 Y-206.5770
G1 X139.5632 Y-207.8816
G1 X139.3305 Y-208.2714
G1 X139.1163 Y-208.3467
G1 X138.5262 Y-208.2882
G1 X138.3193 Y-208.1976
G1 X138.1820 Y-208.0207
G1 X138.1565 Y-206.2511
G1 Z0.0000 F8000.0
G0 X137.0069 Y-208.3202 F15000.0
G1 Z11.9000 F8000.0
G1 X136.1869 Y-206.2408 F12000.0
G1 X135.7529 Y-206.2661
G1 X135.6911 Y-206.3311
G1 X135.5526 Y-208.3068
G1 X134.4337 Y-208.1974
G1 X133.8766 Y-207.3274
G1 X133.1290 Y-207.1541
G1 X133.1924 Y-206.2612
G1 X134.1048 Y-206.2537
G1 X134.2845 Y-206.3234
G1 X134.4913 Y-206.7221
G1 X134.3280 Y-207.1229
G1 X134.0163 Y-207.2731
G1 X133.1264 Y-207.2784
G1 X133.0525 Y-208.3662
G1 Z0.0000 F8000.0
G0 X119.5338 Y-206.1591 F15000.0
G1 Z11.9000 F8000.0
G1 X119.3682 Y-205.7175 F12000.0
G1 X119.4441 Y-205.2683
G1 X119.6304 Y-205.1668
G1 X120.0772 Y-205.2356
G1 X120.1757 Y-205.3730
G1 X120.2497 Y-206.0705
G1 X120.1667 Y-208.1199
G1 X119.8984 Y-208.3292
G1 X119.1119 Y-208.2882
G1 X118.9471 Y-206.4287
G1 X119.1119 Y-206.2841
G1 X119.5684 Y-206.1799
G1 X120.0910 Y-206.2852
G1 X119.0822 Y-206.2892
G1 X118.8172 Y-206.4730
G1 X117.7786 Y-206.6294
G1 X117.7172 Y-206.6942
G1 X117.6694 Y-207.9787
G1 X117.4376 Y-208.2710
G1 X117.6392 Y-208.0656
G1 X117.2150 Y-208.3349
G1 X116.4281 Y-208.1120
G1 X116.3304 Y-207.8001
G1 X116.4928 Y-206.4016
G1 X116.7798 Y-206.2364
G1 X117.3605 Y-206.2740
G1 X117.6486 Y-206.5270
G1 Z0.0000 F8000.0
G0 X116.4071 Y-208.1363 F15000.0
G1 Z11.9000 F8000.0
G1 X116.5161 Y-208.3008 F12000.0
G1 X115.2933 Y-208.2383
G1 X115.1328 Y-207.4700
G1 X114.5233 Y-207.1488
G1 X113.7861 Y-206.2511
G1 Z0.0000 F8000.0
G0 X114.5678 Y-207.2167 F15000.0
G1 Z11.9000 F8000.0
G1 X113.7861 Y-208.3662 F12000.0
G1 Z0.0000 F8000.0
G0 X115.1656 Y-207.4466 F15000.0
G1 Z11.9000 F8000.0
G1 X115.2575 Y-206.3430 F12000.0
G1 Z0.0000 F8000.0
G0 X121.0512 Y-208.3202 F15000.0
G1 Z11.9000 F8000.0
G1 X121.3271 Y-208.1823 F12000.0
G1 Z0.0000 F8000.0
G0 X122.4767 Y-208.3202 F15000.0
G1 Z11.9000 F8000.0
G1 X122.6977 Y-208.1204 F12000.0
G1 X122.4285 Y-208.3229
G1 X121.6127 Y-208.3026
G1 X121.3547 Y-208.1229
G1 X121.4637 Y-206.2644
G1 X121.6619 Y-206.2153
G1 X122.4818 Y-206.2872
G1 X122.7138 Y-206.5364
G1 X122.7526 Y-208.0444
G1 Z0.0000 F8000.0
G0 X125.3275 Y-208.4122 F15000.0
G1 Z11.9000 F8000.0
G1 X125.2144 Y-206.3234 F12000.0
G1 X125.0442 Y-206.2424
G1 X124.2238 Y-206.2731
G1 X124.0314 Y-206.5252
G1 X123.9414 Y-208.0602
G1 X124.1832 Y-208.2727
G1 X125.2346 Y-208.3861
G1 X125.3245 Y-208.5579
G1 X125.3275 Y-209.3778
G1 Z0.0000 F8000.0
G0 X126.3851 Y-208.3662 F15000.0
G1 Z11.9000 F8000.0
G1 X126.5737 Y-206.4674 F12000.0
G1 X126.7039 Y-206.2974
G1 X127.0412 Y-206.2143
G1 X127.7226 Y-206.2847
G1 X127.8565 Y-208.2743
G1 Z0.0000 F8000.0
G0 X129.0061 Y-208.3662 F15000.0
G1 Z11.9000 F8000.0
G1 X129.6010 Y-208.3214 F12000.0
G1 X129.8114 Y-208.2349
G1 X129.9473 Y-208.0505
G1 X130.0110 Y-207.7057
G1 X129.9268 Y-206.5266
G1 X129.5682 Y-206.2548
G1 X129.0061 Y-206.2051
G1 Z0.0000 F8000.0
G0 X61.5808 Y-227.7959 F15000.0
G1 Z11.9000 F8000.0
G1 X62.3495 Y-228.4403 F12000.0
G1 X62.1938 Y-228.2828
G1 X62.5729 Y-228.8605
G1 X62.7682 Y-229.5493
G1 X62.8559 Y-231.0982
G1 X62.7202 Y-231.5494
G1 X62.5866 Y-231.7139
G1 X61.6638 Y-231.8279
G1 X61.2165 Y-231.6272
G1 X61.2852 Y-231.7024
G1 X61.0932 Y-231.2775
G1 X61.2432 Y-229.8132
G1 X61.5236 Y-229.7062
G1 X62.7763 Y-229.5433
G1 Z0.0000 F8000.0
G0 X59.4656 Y-227.9799 F15000.0
G1 Z11.9000 F8000.0
G1 X59.6536 Y-231.1626 F12000.0
G1 X59.3656 Y-231.6746
G1 X58.9396 Y-231.8220
G1 X58.1495 Y-231.6810
G1 X57.9146 Y-231.2205
G1 X58.0504 Y-228.1216
G1 X58.1782 Y-227.9542
G1 X58.6183 Y-227.7866
G1 X59.4197 Y-227.9339
G1 Z0.0000 F8000.0
G0 X59.5116 Y-231.5665 F15000.0
G1 Z11.9000 F8000.0
G1 X59.3737 Y-231.7044 F12000.0
G1 Z0.0000 F8000.0
G0 X54.9594 Y-231.5665 F15000.0
G1 Z11.9000 F8000.0
G1 X54.8215 Y-231.7044 F12000.0
G1 Z0.0000 F8000.0
G0 X51.7867 Y-231.5665 F15000.0
G1 Z11.9000 F8000.0
G1 X51.6487 Y-231.7044 F12000.0
G1 Z0.0000 F8000.0
G0 X51.7407 Y-227.9799 F15000.0
G1 Z11.9000 F8000.0
G1 X51.9287 Y-231.1626 F12000.0
G1 X51.6406 Y-231.6746
G1 X51.2147 Y-231.8220
G1 X50.4245 Y-231.6810
G1 X50.1896 Y-231.2205
G1 X50.3255 Y-228.1216
G1 X50.4532 Y-227.9542
G1 X50.8933 Y-227.7866
G1 X51.6947 Y-227.9339
G1 Z0.0000 F8000.0
G0 X54.8675 Y-227.9339 F15000.0
G1 Z11.9000 F8000.0
G1 X54.0590 Y-227.7879 F12000.0
G1 X53.6202 Y-227.9580
G1 X53.4968 Y-228.1287
G1 X53.3630 Y-231.2277
G1 X53.6030 Y-231.6852
G1 X54.3946 Y-231.8220
G1 X54.8179 Y-231.6691
G1 X55.1038 Y-231.1558
G1 X54.9134 Y-227.9799
G1 Z0.0000 F8000.0
G0 X47.1885 Y-227.9799 F15000.0
G1 Z11.9000 F8000.0
G1 X47.3765 Y-231.1626 F12000.0
G1 X47.0884 Y-231.6746
G1 X46.6625 Y-231.8220
G1 X45.8723 Y-231.6810
G1 X45.6374 Y-231.2205
G1 X45.7733 Y-228.1216
G1 X45.9010 Y-227.9542
G1 X46.3411 Y-227.7866
G1 X47.1425 Y-227.9339
G1 Z0.0000 F8000.0
G0 X47.2345 Y-231.5665 F15000.0
G1 Z11.9000 F8000.0
G1 X47.0965 Y-231.7044 F12000.0
G1 Z0.0000 F8000.0
G0 X42.6363 Y-231.7964 F15000.0
G1 Z11.9000 F8000.0
G1 X42.6771 Y-230.8412 F12000.0
G1 X42.5801 Y-230.1937
G1 X42.1728 Y-230.9029
G1 X44.0947 Y-230.8473
G1 X44.0731 Y-230.3112
G1 X43.3260 Y-227.7959
G1 Z0.0000 F8000.0
G0 X67.1446 Y-227.9339 F15000.0
G1 Z11.9000 F8000.0
G1 X66.3362 Y-227.7879 F12000.0
G1 X65.8973 Y-227.9580
G1 X65.7740 Y-228.1287
G1 X65.6402 Y-231.2277
G1 X65.8801 Y-231.6852
G1 X66.6717 Y-231.8220
G1 X67.0950 Y-231.6691
G1 X67.3810 Y-231.1558
G1 X67.1906 Y-227.9799
G1 Z0.0000 F8000.0
G0 X70.3174 Y-227.9339 F15000.0
G1 Z11.9000 F8000.0
G1 X69.5089 Y-227.7879 F12000.0
G1 X69.0701 Y-227.9580
G1 X68.9467 Y-228.1287
G1 X68.8129 Y-231.2277
G1 X69.0529 Y-231.6852
G1 X69.8445 Y-231.8220
G1 X70.2678 Y-231.6691
G1 X70.5537 Y-231.1558
G1 X70.3633 Y-227.9799
G1 Z0.0000 F8000.0
G0 X71.9267 Y-229.2674 F15000.0
G1 Z11.9000 F8000.0
G1 X71.9727 Y-230.4169 F12000.0
G1 Z0.0000 F8000.0
G0 X71.9267 Y-231.7504 F15000.0
G1 Z11.9000 F8000.0
G1 X71.9898 Y-230.5676 F12000.0
G1 X72.1482 Y-230.4584
G1 X73.3368 Y-230.3780
G1 X73.5271 Y-230.2985
G1 X73.6329 Y-230.1100
G1 X73.7660 Y-229.2674
G1 Z0.0000 F8000.0
G0 X75.0995 Y-227.8419 F15000.0
G1 Z11.9000 F8000.0
G1 X75.3796 Y-228.4972 F12000.0
G1 X75.7830 Y-228.9178
G1 X76.2494 Y-229.6624
G1 X76.2076 Y-229.6012
G1 X76.4536 Y-229.8123
G1 X76.7473 Y-229.6237
G1 X77.3308 Y-228.7252
G1 X77.5883 Y-228.5349
G1 X77.4400 Y-228.6370
G1 X77.7512 Y-228.4902
G1 X77.8439 Y-227.9221
G1 X77.7863 Y-228.4428
G1 X77.8584 Y-231.7504
G1 Z0.0000 F8000.0
G0 X76.4329 Y-229.8192 F15000.0
G1 Z11.9000 F8000.0
G1 X75.5529 Y-228.6619 F12000.0
G1 X75.2837 Y-228.5035
G1 X75.0995 Y-231.7504
G1 Z0.0000 F8000.0
G0 X70.4093 Y-231.5665 F15000.0
G1 Z11.9000 F8000.0
G1 X70.2714 Y-231.7044 F12000.0
G1 Z0.0000 F8000.0
G0 X67.2366 Y-231.5665 F15000.0
G1 Z11.9000 F8000.0
G1 X67.0986 Y-231.7044 F12000.0
G1 Z0.0000 F8000.0
G0 X41.8132 Y-239.1502 F15000.0
G1 Z11.9000 F8000.0
G1 X41.4282 Y-239.2061 F12000.0
G1 X41.3074 Y-241.0814
G1 Z0.0000 F8000.0
G0 X42.4110 Y-241.1274 F15000.0
G1 Z11.9000 F8000.0
G1 X41.8589 Y-239.3247 F12000.0
G1 X41.7860 Y-239.2984
G1 X40.6492 Y-239.8659
G1 X40.5287 Y-241.0160
G1 X40.3535 Y-241.1095
G1 X39.8205 Y-241.0252
G1 X39.7568 Y-239.8911
G1 X38.5211 Y-239.8679
G1 X38.4286 Y-240.9729
G1 X37.9130 Y-241.0597
G1 X37.8343 Y-240.9238
G1 X37.9995 Y-239.8917
G1 X38.1971 Y-239.8150
G1 X38.9991 Y-239.8289
G1 X39.1463 Y-241.1274
G1 Z0.0000 F8000.0
G0 X28.0461 Y-239.1502 F15000.0
G1 Z11.9000 F8000.0
G1 X28.2411 Y-239.5725 F12000.0
G1 X28.7578 Y-240.0357
G1 X28.9514 Y-239.9652
G1 X29.4077 Y-239.4534
G1 X29.5057 Y-239.2334
G1 X29.5175 Y-241.1734
G1 Z0.0000 F8000.0
G0 X28.8278 Y-240.0698 F15000.0
G1 Z11.9000 F8000.0
G1 X28.2004 Y-239.5347 F12000.0
G1 X28.0220 Y-241.0569
G1 X27.4150 Y-240.9296
G1 X27.3099 Y-240.0426
G1 X26.4691 Y-239.8482
G1 X26.3130 Y-241.1735
G1 X26.7527 Y-241.1966
G1 X27.3104 Y-241.0354
G1 Z0.0000 F8000.0
G0 X25.0113 Y-241.2193 F15000.0
G1 Z11.9000 F8000.0
G1 X25.6535 Y-240.9748 F12000.0
G1 X25.6661 Y-240.0588
G1 X25.4957 Y-239.9346
G1 X25.0113 Y-239.7939
G1 Z0.0000 F8000.0
G0 X23.5858 Y-239.7939 F15000.0
G1 Z11.9000 F8000.0
G1 X24.2280 Y-240.0384 F12000.0
G1 X24.2407 Y-240.9544
G1 X24.0703 Y-241.0786
G1 X23.5858 Y-241.2193
G1 Z0.0000 F8000.0
G0 X22.8501 Y-240.0698 F15000.0
G1 Z11.9000 F8000.0
G1 X22.7898 Y-240.9962 F12000.0
G1 X22.1410 Y-241.1785
G1 X21.9467 Y-241.0803
G1 X21.8931 Y-240.8807
G1 X21.9629 Y-239.8482
G1 X22.8041 Y-239.9778
G1 Z0.0000 F8000.0
G0 X15.8084 Y-239.1502 F15000.0
G1 Z11.9000 F8000.0
G1 X15.7503 Y-239.4916 F12000.0
G1 X15.5633 Y-239.6303
G1 X15.7799 Y-239.6499
G1 X15.8084 Y-241.2193
G1 Z0.0000 F8000.0
G0 X14.3829 Y-241.2193 F15000.0
G1 Z11.9000 F8000.0
G1 X14.5209 Y-239.6860 F12000.0
G1 X14.4102 Y-239.2298
G1 X14.6121 Y-239.6236
G1 X14.9069 Y-239.9446
G1 X15.2480 Y-240.0073
G1 X15.3922 Y-239.8161
G1 X15.0804 Y-240.0600
G1 X14.6897 Y-240.0022
G1 X13.7651 Y-240.1324
G1 X13.6549 Y-241.0064
G1 X13.0278 Y-241.2351
G1 X12.7560 Y-241.0638
G1 X12.7971 Y-239.9134
G1 X13.6472 Y-240.0238
G1 Z0.0000 F8000.0
G0 X11.3481 Y-239.8399 F15000.0
G1 Z11.9000 F8000.0
G1 X11.9902 Y-240.0844 F12000.0
G1 X12.0029 Y-241.0004
G1 X11.8326 Y-241.1246
G1 X11.3481 Y-241.2653
G1 Z0.0000 F8000.0
G0 X9.8767 Y-241.2193 F15000.0
G1 Z11.9000 F8000.0
G1 X9.9227 Y-239.8859 F12000.0
G1 Z0.0000 F8000.0
G0 X10.6124 Y-239.8859 F15000.0
G1 Z11.9000 F8000.0
G1 X10.6108 Y-240.8419 F12000.0
G1 X10.5476 Y-241.0486
G1 X10.0015 Y-241.2385
G1 X9.3013 Y-241.2388
G1 X9.1875 Y-240.9536
G1 X9.1870 Y-239.8859
G1 Z0.0000 F8000.0
G0 X7.7156 Y-239.8399 F15000.0
G1 Z11.9000 F8000.0
G1 X7.0718 Y-241.2193 F12000.0
G1 Z0.0000 F8000.0
G0 X7.8075 Y-241.2193 F15000.0
G1 Z11.9000 F8000.0
G1 X7.7940 Y-239.8791 F12000.0
G1 X8.4973 Y-241.2193
G1 Z0.0000 F8000.0
G0 X6.3821 Y-240.1158 F15000.0
G1 Z11.9000 F8000.0
G1 X6.3217 Y-241.0422 F12000.0
G1 X5.7846 Y-241.2347
G1 X5.4828 Y-241.1160
G1 X5.4248 Y-240.9083
G1 X5.5027 Y-239.8852
G1 X6.3361 Y-240.0238
G1 Z0.0000 F8000.0
G0 X4.4968 Y-239.2421 F15000.0
G1 Z11.9000 F8000.0
G1 X4.2293 Y-239.7327 F12000.0
G1 X4.5882 Y-239.9805
G1 X4.7125 Y-240.1570
G1 X4.7049 Y-240.9795
G1 X4.5486 Y-241.1189
G1 X4.0971 Y-241.2336
G1 X3.8383 Y-241.0469
G1 X3.8646 Y-240.0040
G1 X4.2000 Y-239.6833
G1 X4.4917 Y-239.1980
G1 X3.8071 Y-239.1502
G1 Z0.0000 F8000.0
G0 X148.9087 Y-243.9323 F15000.0
G1 Z11.9000 F8000.0
G1 X148.5821 Y-243.7884 F12000.0
G1 X148.4000 Y-244.6842
G1 X148.4775 Y-244.8182
G1 X148.9054 Y-244.0866
G1 X149.3651 Y-245.4509
G1 X149.4947 Y-245.5577
G1 X149.7502 Y-245.5130
G1 X149.4925 Y-245.6173
G1 X150.5318 Y-244.3608
G1 X150.6552 Y-244.6381
G1 X150.6560 Y-246.0474
G1 Z0.0000 F8000.0
G0 X149.8283 Y-245.4037 F15000.0
G1 Z11.9000 F8000.0
G1 X150.2810 Y-244.6332 F12000.0
G1 X150.5640 Y-244.3001
G1 Z0.0000 F8000.0
G0 X148.9087 Y-244.6680 F15000.0
G1 Z11.9000 F8000.0
G1 X148.7639 Y-244.7981 F12000.0
G1 X148.5408 Y-244.8519
G1 Z0.0000 F8000.0
G0 X145.9199 Y-243.7483 F15000.0
G1 Z11.9000 F8000.0
G1 X145.2327 Y-243.8642 F12000.0
G1 X145.1154 Y-244.4601
G1 X145.7862 Y-244.5585
G1 X146.0277 Y-244.7925
G1 X146.0217 Y-245.8467
G1 X145.7639 Y-246.0528
G1 X145.2108 Y-245.9501
G1 X145.0462 Y-244.5760
G1 Z0.0000 F8000.0
G0 X144.2645 Y-245.7715 F15000.0
G1 Z11.9000 F8000.0
G1 X144.2438 Y-244.8296 F12000.0
G1 X144.1327 Y-244.6445
G1 X143.8417 Y-244.5459
G1 X143.4941 Y-244.5924
G1 X143.3373 Y-244.7215
G1 X143.2748 Y-245.7579
G1 X143.4215 Y-245.9115
G1 X143.8610 Y-246.0636
G1 X144.2025 Y-245.8448
G1 X144.0736 Y-245.9878
G1 X143.6168 Y-246.0185
G1 X143.1694 Y-245.8900
G1 X142.5345 Y-245.9206
G1 X142.4378 Y-245.3741
G1 X142.1492 Y-245.2409
G1 X142.4183 Y-245.2683
G1 X142.4909 Y-244.6908
G1 X142.1238 Y-245.1758
G1 X142.3215 Y-245.3068
G1 X141.9178 Y-245.3927
G1 X141.5976 Y-245.9095
G1 Z0.0000 F8000.0
G0 X140.5400 Y-246.8751 F15000.0
G1 Z11.9000 F8000.0
G1 X139.7736 Y-246.6732 F12000.0
G1 X139.7247 Y-246.1412
G1 X140.5031 Y-246.0005
G1 X140.6479 Y-245.8339
G1 X140.6597 Y-244.6668
G1 X140.6054 Y-244.6042
G1 X139.7107 Y-244.6558
G1 X139.6275 Y-246.0094
G1 X138.9687 Y-246.0270
G1 X138.9072 Y-245.9689
G1 X138.8715 Y-244.6271
G1 X138.7947 Y-244.8113
G1 X138.2228 Y-245.2393
G1 X138.4652 Y-245.0974
G1 X138.0888 Y-245.1430
G1 X137.8888 Y-244.9550
G1 X138.0026 Y-245.0716
G1 X137.7460 Y-244.8964
G1 X137.6373 Y-245.9603
G1 X138.0570 Y-245.1278
G1 Z0.0000 F8000.0
G0 X130.2023 Y-245.6804 F15000.0
G1 Z11.9000 F8000.0
G1 X130.2002 Y-244.0076 F12000.0
G1 X130.1332 Y-243.8090
G1 X129.1315 Y-245.6329
G1 X128.4631 Y-245.5768
G1 X128.2710 Y-245.6804
G1 Z0.0000 F8000.0
G0 X128.3630 Y-244.4849 F15000.0
G1 Z11.9000 F8000.0
G1 X128.4713 Y-245.3979 F12000.0
G1 X128.2555 Y-245.6514
G1 X127.8286 Y-245.6519
G1 X127.6442 Y-245.1780
G1 X127.7298 Y-244.5946
G1 X127.9836 Y-244.4137
G1 X128.3170 Y-244.4389
G1 Z0.0000 F8000.0
G0 X126.8456 Y-243.7492 F15000.0
G1 Z11.9000 F8000.0
G1 X126.3836 Y-243.8214 F12000.0
G1 X126.2026 Y-244.3057
G1 X126.8376 Y-244.4808
G1 X126.9677 Y-244.6520
G1 X126.9815 Y-245.3640
G1 X126.8381 Y-245.6459
G1 X126.4005 Y-245.6123
G1 X126.1546 Y-244.4470
G1 X125.6227 Y-244.5079
G1 X125.5302 Y-245.6127
G1 X125.3554 Y-245.6576
G1 X124.7194 Y-245.5239
G1 X124.8563 Y-244.5068
G1 X125.5121 Y-244.3929
G1 Z0.0000 F8000.0
G0 X169.5695 Y-243.9530 F15000.0
G1 Z11.9000 F8000.0
G1 X169.5536 Y-245.5692 F12000.0
G1 X169.4703 Y-245.2928
G1 X168.7292 Y-244.3942
G1 X168.5772 Y-244.0306
G1 X168.8831 Y-244.6410
G1 X168.5289 Y-245.6216
G1 X167.8393 Y-245.6891
G1 X167.3126 Y-245.5242
G1 X167.3164 Y-244.8724
G1 X167.5332 Y-244.4955
G1 X167.7909 Y-244.5017
G1 X166.6919 Y-244.5735
G1 X166.5839 Y-244.8121
G1 X166.3081 Y-245.0314
G1 X166.5871 Y-245.5851
G1 X166.2603 Y-245.0695
G1 X165.9746 Y-244.9731
G1 X165.6466 Y-244.6351
G1 X165.8865 Y-245.0275
G1 X165.6151 Y-245.6544
G1 Z0.0000 F8000.0
G0 X162.1205 Y-245.6544 F15000.0
G1 Z11.9000 F8000.0
G1 X162.2271 Y-243.9347 F12000.0
G1 X163.1321 Y-245.7004
G1 Z0.0000 F8000.0
G0 X161.4767 Y-245.5624 F15000.0
G1 Z11.9000 F8000.0
G1 X161.4966 Y-244.6282 F12000.0
G1 X161.3377 Y-244.5428
G1 X160.7689 Y-244.5336
G1 X160.7168 Y-244.5954
G1 X160.7766 Y-245.6168
G1 X161.2132 Y-245.6873
G1 X161.4211 Y-245.6306
G1 X161.3388 Y-245.7004
G1 Z0.0000 F8000.0
G0 X159.5455 Y-245.7004 F15000.0
G1 Z11.9000 F8000.0
G1 X159.9882 Y-245.6331 F12000.0
G1 X160.0808 Y-245.4347
G1 X159.9822 Y-244.5675
G1 X159.4360 Y-244.4765
G1 X158.9234 Y-244.6278
G1 X158.8417 Y-245.6293
G1 X158.3095 Y-245.6445
G1 X157.8382 Y-244.5990
G1 X157.8886 Y-244.5240
G1 X158.8498 Y-244.4984
G1 X157.7868 Y-244.6047
G1 X157.7090 Y-244.7851
G1 X157.7062 Y-245.7004
G1 Z0.0000 F8000.0
G0 X118.6978 Y-244.7506 F15000.0
G1 Z11.9000 F8000.0
G1 X118.5839 Y-243.9573 F12000.0
G1 X118.0521 Y-245.5603
G1 X117.8314 Y-245.8758
G1 X118.1680 Y-245.7584
G1 X118.7524 Y-245.7435
G1 X118.9931 Y-245.8860
G1 X118.7843 Y-245.5565
G1 X118.7438 Y-244.8425
G1 Z0.0000 F8000.0
G0 X117.0884 Y-244.6586 F15000.0
G1 Z11.9000 F8000.0
G1 X116.9042 Y-244.5595 F12000.0
G1 X116.5275 Y-244.5274
G1 X116.9322 Y-244.5719
G1 X117.1077 Y-244.6879
G1 X117.1708 Y-245.3873
G1 X117.0652 Y-245.6959
G1 X116.2533 Y-245.7488
G1 X116.3927 Y-245.6922
G1 X116.4122 Y-244.5776
G1 X115.7924 Y-244.6470
G1 X115.7369 Y-245.6707
G1 X115.4691 Y-245.7402
G1 X115.1852 Y-245.6470
G1 X115.2032 Y-244.5206
G1 Z0.0000 F8000.0
G0 X115.7090 Y-244.5206 F15000.0
G1 Z11.9000 F8000.0
G1 X114.6929 Y-244.5952 F12000.0
G1 X114.5535 Y-244.8720
G1 X114.5134 Y-245.7162
G1 Z0.0000 F8000.0
G0 X113.0880 Y-245.6242 F15000.0
G1 Z11.9000 F8000.0
G1 X112.9041 Y-245.7622 F12000.0
G1 Z0.0000 F8000.0
G0 X113.1800 Y-244.5206 F15000.0
G1 Z11.9000 F8000.0
G1 X113.8697 Y-244.7046 F12000.0
G1 X113.9157 Y-245.5322
G1 X113.7318 Y-245.7622
G1 X113.1800 Y-245.7162
G1 X113.1800 Y-244.5206
G1 X113.7318 Y-244.5666
G1 Z0.0000 F8000.0
G0 X89.4959 Y-244.4072 F15000.0
G1 Z11.9000 F8000.0
G1 X91.6457 Y-244.4511 F12000.0
G1 X91.8172 Y-244.5237
G1 X91.9330 Y-250.2009
G1 Z0.0000 F8000.0
G0 X87.0589 Y-250.0169 F15000.0
G1 Z11.9000 F8000.0
G1 X86.8693 Y-250.1348 F12000.0
G1 X85.2226 Y-250.1188
G1 X86.4714 Y-250.2717
G1 X87.0045 Y-250.0355
G1 X87.1840 Y-249.8219
G1 X87.3265 Y-249.2552
G1 X87.2023 Y-246.9882
G1 X86.9174 Y-246.5258
G1 X84.9235 Y-246.4023
G1 X84.7250 Y-249.7127
G1 X84.7947 Y-249.9060
G1 X85.0419 Y-250.0723
G1 X84.4695 Y-250.0524
G1 X84.0701 Y-250.2928
G1 Z0.0000 F8000.0
G0 X82.7366 Y-246.4763 F15000.0
G1 Z11.9000 F8000.0
G1 X82.7682 Y-246.9496 F12000.0
G1 X82.5411 Y-249.9162
G1 X82.3969 Y-250.0832
G1 X82.2018 Y-250.1603
G1 X80.4154 Y-250.2797
G1 X80.2012 Y-250.2373
G1 X80.0865 Y-246.5351
G1 X79.9030 Y-246.4827
G1 X78.2673 Y-246.5595
G1 X78.1313 Y-248.6288
G1 X78.2304 Y-250.1549
G1 Z0.0000 F8000.0
G0 X78.0924 Y-248.5915 F15000.0
G1 Z11.9000 F8000.0
G1 X77.4726 Y-248.3714 F12000.0
G1 X76.9309 Y-248.3450
G1 X76.8532 Y-248.1787
G1 X76.8473 Y-247.7333
G1 X76.6406 Y-247.4895
G1 X77.0364 Y-248.0956
G1 X76.9622 Y-247.8825
G1 X76.0692 Y-246.8442
G1 Z0.0000 F8000.0
G0 X76.8509 Y-248.3616 F15000.0
G1 Z11.9000 F8000.0
G1 X75.7014 Y-250.1089 F12000.0
G1 Z0.0000 F8000.0
G0 X73.2643 Y-250.0169 F15000.0
G1 Z11.9000 F8000.0
G1 X73.0747 Y-250.1348 F12000.0
G1 X71.4281 Y-250.1188
G1 X72.7884 Y-250.2460
G1 X73.3374 Y-249.9065
G1 X73.5300 Y-249.2553
G1 X73.3287 Y-246.7413
G1 X72.9990 Y-246.4847
G1 X71.1379 Y-246.3825
G1 X70.9309 Y-249.6850
G1 X70.9827 Y-249.8882
G1 X71.2381 Y-250.0867
G1 X70.6982 Y-250.0423
G1 X70.2755 Y-250.2928
G1 Z0.0000 F8000.0
G0 X80.9433 Y-244.4072 F15000.0
G1 Z11.9000 F8000.0
G1 X81.9089 Y-244.4072 F12000.0
G1 Z0.0000 F8000.0
G0 X86.9209 Y-246.5223 F15000.0
G1 Z11.9000 F8000.0
G1 X86.9669 Y-246.6143 F12000.0
G1 Z0.0000 F8000.0
G0 X26.2403 Y-249.2565 F15000.0
G1 Z11.9000 F8000.0
G1 X25.8937 Y-248.0146 F12000.0
G1 X25.9865 Y-247.4567
G1 X27.0282 Y-247.4415
G1 X27.1599 Y-247.6931
G1 Z0.0000 F8000.0
G0 X26.3322 Y-249.4404 F15000.0
G1 Z11.9000 F8000.0
G1 X26.5593 Y-250.3931 F12000.0
G1 X26.5162 Y-250.3601
G1 Z0.0000 F8000.0
G0 X28.1715 Y-250.4520 F15000.0
G1 Z11.9000 F8000.0
G1 X28.2635 Y-251.1877 F12000.0
G1 Z0.0000 F8000.0
G0 X29.2751 Y-250.4520 F15000.0
G1 Z11.9000 F8000.0
G1 X29.3028 Y-247.8404 F12000.0
G1 X29.3670 Y-247.8770
G1 Z0.0000 F8000.0
G0 X24.7689 Y-248.9806 F15000.0
G1 Z11.9000 F8000.0
G1 X24.7672 Y-250.0728 F12000.0
G1 X24.6451 Y-250.4237
G1 X24.3823 Y-250.5557
G1 X23.7060 Y-250.5910
G1 X23.4290 Y-250.3338
G1 X23.3919 Y-249.3511
G1 X23.4888 Y-249.0800
G1 X23.6248 Y-248.9434
G1 X24.7260 Y-248.9363
G1 X24.5267 Y-248.2284
G1 X24.0042 Y-247.6429
G1 X24.3418 Y-247.9097
G1 X24.2171 Y-247.7851
G1 Z0.0000 F8000.0
G0 X11.3008 Y-247.4451 F15000.0
G1 Z11.9000 F8000.0
G1 X11.2088 Y-251.3076 F12000.0
G1 Z0.0000 F8000.0
G0 X7.3463 Y-251.3076 F15000.0
G1 Z11.9000 F8000.0
G1 X7.4383 Y-247.4451 F12000.0
G1 Z0.0000 F8000.0
G0 X169.5894 Y-248.3579 F15000.0
G1 Z11.9000 F8000.0
G1 X168.8212 Y-248.4949 F12000.0
G1 X168.6149 Y-249.0197
G1 X168.6761 Y-249.2266
G1 X168.8306 Y-249.3887
G1 X169.6005 Y-249.5296
G1 X169.6354 Y-250.1898
G1 X169.6354 Y-248.4499
G1 Z0.0000 F8000.0
G0 X167.0144 Y-250.2432 F15000.0
G1 Z11.9000 F8000.0
G1 X167.1253 Y-249.0771 F12000.0
G1 X167.2974 Y-249.0183
G1 X167.7435 Y-249.0917
G1 X167.8335 Y-249.2309
G1 X167.7986 Y-250.2684
G1 X167.5135 Y-250.3414
G1 X167.0476 Y-250.2682
G1 X165.9924 Y-250.3710
G1 X165.6996 Y-250.3099
G1 X165.5952 Y-250.0604
G1 X165.6562 Y-249.8396
G1 X165.6361 Y-249.1857
G1 X166.2170 Y-249.1024
G1 X165.6276 Y-249.2649
G1 X165.6210 Y-249.4698
G1 X165.8712 Y-249.7171
G1 X165.6136 Y-250.0215
G1 X165.6201 Y-250.3634
G1 X164.3332 Y-250.3657
G1 X164.1459 Y-250.2693
G1 X164.0504 Y-250.0630
G1 X164.1833 Y-249.1387
G1 X164.7176 Y-249.0138
G1 X164.8569 Y-249.0662
G1 X164.8992 Y-250.9329
G1 Z0.0000 F8000.0
G0 X162.4622 Y-250.2432 F15000.0
G1 Z11.9000 F8000.0
G1 X162.5731 Y-249.0771 F12000.0
G1 X162.7452 Y-249.0183
G1 X163.2532 Y-249.1490
G1 X163.2464 Y-250.2684
G1 X163.0742 Y-250.3517
G1 X162.4955 Y-250.2682
G1 X162.2783 Y-250.3351
G1 Z0.0000 F8000.0
G0 X161.6345 Y-249.0477 F15000.0
G1 Z11.9000 F8000.0
G1 X161.6783 Y-249.1042 F12000.0
G1 X161.2857 Y-249.0094
G1 X160.9345 Y-249.9870
G1 X161.0560 Y-250.3334
G1 X161.5129 Y-250.3688
G1 X161.6760 Y-250.2669
G1 X161.3077 Y-248.9404
G1 X161.5361 Y-248.4789
G1 X161.3683 Y-248.3927
G1 X160.9448 Y-248.3579
G1 Z0.0000 F8000.0
G0 X149.8193 Y-248.3465 F15000.0
G1 Z11.9000 F8000.0
G1 X149.1461 Y-248.5223 F12000.0
G1 X149.0738 Y-248.9403
G1 X149.9198 Y-249.2377
G1 X149.9803 Y-249.3210
G1 X149.9437 Y-250.2372
G1 X149.3019 Y-250.4099
G1 X149.1308 Y-250.2747
G1 X148.9983 Y-249.0471
G1 X148.4156 Y-249.3452
G1 X148.3295 Y-250.1364
G1 X148.2073 Y-250.3150
G1 X147.7619 Y-250.4365
G1 X147.5680 Y-250.3744
G1 X147.4293 Y-250.0055
G1 X147.4345 Y-249.4100
G1 X147.5079 Y-249.1969
G1 X147.6707 Y-249.0615
G1 X148.1214 Y-249.1015
G1 X148.3019 Y-249.2662
G1 Z0.0000 F8000.0
G0 X146.6466 Y-250.4617 F15000.0
G1 Z11.9000 F8000.0
G1 X145.8453 Y-250.2957 F12000.0
G1 X145.7761 Y-249.3817
G1 X145.8600 Y-249.1944
G1 X146.6155 Y-249.0941
G1 X146.6925 Y-251.1054
G1 Z0.0000 F8000.0
G0 X144.9452 Y-250.3237 F15000.0
G1 Z11.9000 F8000.0
G1 X144.4848 Y-250.4335 F12000.0
G1 X144.2874 Y-250.3901
G1 X144.0881 Y-250.0452
G1 X144.1315 Y-249.3372
G1 X144.3220 Y-249.0770
G1 X144.7738 Y-249.0878
G1 X144.9169 Y-249.1724
G1 X145.0337 Y-249.4715
G1 X145.0372 Y-250.1398
G1 Z0.0000 F8000.0
G0 X143.3359 Y-249.0822 F15000.0
G1 Z11.9000 F8000.0
G1 X142.9951 Y-248.9761 F12000.0
G1 X142.8383 Y-248.8314
G1 X142.8194 Y-248.6094
G1 X142.9101 Y-248.4148
G1 X143.3102 Y-248.5041
G1 X143.3635 Y-248.5961
G1 X143.3241 Y-250.2344
G1 X142.9036 Y-250.4087
G1 X142.6839 Y-250.4111
G1 X142.4739 Y-250.1741
G1 X142.4706 Y-249.3432
G1 X142.5621 Y-249.1399
G1 X142.8761 Y-248.9443
G1 Z0.0000 F8000.0
G0 X150.6930 Y-249.6800 F15000.0
G1 Z11.9000 F8000.0
G1 X150.8136 Y-249.1988 F12000.0
G1 X151.3689 Y-249.0687
G1 X151.6157 Y-249.2665
G1 X151.6252 Y-250.1926
G1 X151.4542 Y-250.3086
G1 X150.7895 Y-250.4176
G1 X150.8284 Y-249.8047
G1 X151.6586 Y-249.7260
G1 Z0.0000 F8000.0
G0 X152.6242 Y-249.9099 F15000.0
G1 Z11.9000 F8000.0
G1 X152.4221 Y-249.6486 F12000.0
G1 X152.3970 Y-249.1799
G1 X152.4640 Y-248.9764
G1 X152.7622 Y-248.7144
G1 Z0.0000 F8000.0
G0 X153.1760 Y-249.9559 F15000.0
G1 Z11.9000 F8000.0
G1 X153.2273 Y-248.7261 F12000.0
G1 X153.9237 Y-249.0873
G1 X154.0015 Y-249.4095
G1 X153.9336 Y-249.6185
G1 X153.3114 Y-249.9507
G1 X152.6985 Y-249.9336
G1 X153.1642 Y-250.0284
G1 X153.1689 Y-250.3237
G1 X153.1760 Y-250.0478
G1 Z0.0000 F8000.0
G0 X139.1975 Y-248.3465 F15000.0
G1 Z11.9000 F8000.0
G1 X139.9030 Y-249.1564 F12000.0
G1 X140.3930 Y-250.4157
G1 Z0.0000 F8000.0
G0 X140.3011 Y-249.3121 F15000.0
G1 Z11.9000 F8000.0
G1 X140.0066 Y-249.1715 F12000.0
G1 X140.3734 Y-248.4709
G1 X140.2743 Y-249.3005
G1 X139.7592 Y-249.4919
G1 X139.2435 Y-250.4157
G1 Z0.0000 F8000.0
G0 X137.8640 Y-249.2202 F15000.0
G1 Z11.9000 F8000.0
G1 X136.9265 Y-249.2332 F12000.0
G1 X136.7477 Y-248.9601
G1 X136.8286 Y-248.5178
G1 X137.6144 Y-248.3683
G1 X137.7930 Y-248.4133
G1 X137.8523 Y-249.2162
G1 X137.7801 Y-249.4315
G1 X137.1002 Y-250.3946
G1 X136.9076 Y-250.3957
G1 X136.7247 Y-250.2563
G1 X136.7929 Y-250.3208
G1 X136.6022 Y-249.9775
G1 X136.7745 Y-249.1054
G1 X136.8352 Y-249.3141
G1 X136.6350 Y-249.6400
G1 X136.6685 Y-250.1858
G1 Z0.0000 F8000.0
G0 X169.6354 Y-254.8300 F15000.0
G1 Z11.9000 F8000.0
G1 X169.5664 Y-252.9586 F12000.0
G1 X168.5643 Y-254.7865
G1 X168.0144 Y-254.7679
G1 X167.9553 Y-254.7034
G1 X167.8691 Y-253.5852
G1 X167.2660 Y-253.6317
G1 X167.0854 Y-254.2872
G1 X167.2701 Y-254.7977
G1 X167.9057 Y-254.8495
G1 X167.9340 Y-255.4737
G1 Z0.0000 F8000.0
G0 X166.3707 Y-254.6920 F15000.0
G1 Z11.9000 F8000.0
G1 X166.2327 Y-254.8300 F12000.0
G1 Z0.0000 F8000.0
G0 X166.3247 Y-253.6344 F15000.0
G1 Z11.9000 F8000.0
G1 X166.4331 Y-254.5474 F12000.0
G1 X166.2173 Y-254.8010
G1 X165.7904 Y-254.8015
G1 X165.6060 Y-254.3275
G1 X165.6916 Y-253.7441
G1 X165.9453 Y-253.5632
G1 X166.2787 Y-253.5885
G1 Z0.0000 F8000.0
G0 X164.9452 Y-253.0367 F15000.0
G1 Z11.9000 F8000.0
G1 X164.9612 Y-253.4959 F12000.0
G1 X164.2423 Y-253.6763
G1 X164.1903 Y-253.7667
G1 X164.2555 Y-254.7840
G1 Z0.0000 F8000.0
G0 X164.7613 Y-254.8300 F15000.0
G1 Z11.9000 F8000.0
G1 X164.3411 Y-254.8134 F12000.0
G1 X164.7908 Y-254.7973
G1 X164.9706 Y-254.5341
G1 X164.8639 Y-253.6162
G1 X164.6047 Y-253.4855
G1 X164.9005 Y-253.0346
G1 X164.5578 Y-252.9848
G1 X164.8533 Y-252.9447
G1 Z0.0000 F8000.0
G0 X153.9594 Y-253.0299 F15000.0
G1 Z11.9000 F8000.0
G1 X153.1798 Y-253.0932 F12000.0
G1 X153.0826 Y-254.4896
G1 X153.0148 Y-254.6396
G1 X152.5288 Y-254.5627
G1 X152.4572 Y-253.6798
G1 X151.8442 Y-253.6434
G1 X151.7915 Y-253.6949
G1 X151.8401 Y-254.6303
G1 X152.2328 Y-254.7025
G1 X152.4340 Y-254.6472
G1 X151.8420 Y-254.7475
G1 X151.9608 Y-255.2048
G1 X152.4006 Y-255.2627
G1 Z0.0000 F8000.0
G0 X151.1368 Y-254.7150 F15000.0
G1 Z11.9000 F8000.0
G1 X150.6429 Y-254.5818 F12000.0
G1 X150.6533 Y-254.2899
G1 X150.6052 Y-254.4738
G1 X150.6806 Y-253.7255
G1 X151.1217 Y-253.6539
G1 X150.8262 Y-253.6103
G1 X151.0861 Y-253.6823
G1 X150.8670 Y-254.1259
G1 X150.6734 Y-254.1252
G1 Z0.0000 F8000.0
G0 X149.2410 Y-254.6308 F15000.0
G1 Z11.9000 F8000.0
G1 X149.3861 Y-253.6069 F12000.0
G1 X149.8735 Y-253.6650
G1 X149.9459 Y-253.7998
G1 X149.9037 Y-254.6398
G1 X148.7843 Y-254.6699
G1 X148.7195 Y-254.6184
G1 X148.6933 Y-253.7345
G1 X148.6638 Y-254.0781
G1 X148.0792 Y-254.1880
G1 X147.9799 Y-254.6017
G1 X147.9459 Y-253.7967
G1 X147.8703 Y-253.6425
G1 X146.8129 Y-253.6822
G1 X147.2614 Y-253.7082
G1 X147.3251 Y-253.8028
G1 X147.3416 Y-254.4463
G1 X147.1929 Y-254.6928
G1 X146.8816 Y-254.6971
G1 X146.7271 Y-254.6192
G1 X146.7736 Y-254.6765
G1 X146.6746 Y-254.4409
G1 X146.7041 Y-253.7337
G1 X146.0758 Y-254.5166
G1 X146.0301 Y-253.6058
G1 X145.7598 Y-253.5827
G1 X145.6447 Y-253.2095
G1 X145.7746 Y-253.0951
G1 X145.9596 Y-253.1387
G1 X146.0556 Y-253.6387
G1 X145.4186 Y-254.5937
G1 X145.8829 Y-254.6911
G1 X145.9915 Y-254.6457
G1 Z0.0000 F8000.0
G0 X144.0170 Y-254.6308 F15000.0
G1 Z11.9000 F8000.0
G1 X144.1621 Y-253.6069 F12000.0
G1 X144.6496 Y-253.6650
G1 X144.7256 Y-253.7997
G1 X144.7404 Y-254.5468
G1 X144.5148 Y-254.6950
G1 X144.0851 Y-254.6498
G1 X143.8485 Y-254.7150
G1 Z0.0000 F8000.0
G0 X154.0015 Y-254.6729 F15000.0
G1 Z11.9000 F8000.0
G1 X154.0015 Y-253.1141 F12000.0
G1 Z0.0000 F8000.0
G0 X166.9224 Y-258.2786 F15000.0
G1 Z11.9000 F8000.0
G1 X166.5127 Y-258.3675 F12000.0
G1 X166.4804 Y-260.0029
G1 Z0.0000 F8000.0
G0 X164.8887 Y-260.0029 F15000.0
G1 Z11.9000 F8000.0
G1 X164.8115 Y-258.9359 F12000.0
G1 X164.1673 Y-258.9495
G1 X164.5375 Y-259.4268
G1 X164.7069 Y-259.5013
G1 X164.4484 Y-259.5638
G1 X164.0933 Y-259.9695
G1 X162.8826 Y-260.0322
G1 X162.7819 Y-259.9476
G1 X163.0476 Y-260.0448
G1 X163.3517 Y-259.9672
G1 X163.4254 Y-259.7686
G1 X163.3422 Y-258.9901
G1 X162.8728 Y-258.9636
G1 X162.9752 Y-258.8813
G1 X163.2183 Y-258.8971
G1 X162.7753 Y-259.0291
G1 X162.6612 Y-259.8565
G1 X162.1551 Y-259.9613
G1 X162.1033 Y-259.0370
G1 X162.0383 Y-259.4063
G1 X161.4226 Y-259.5216
G1 X161.3578 Y-259.9065
G1 X161.2896 Y-258.9695
G1 X161.1229 Y-258.9136
G1 X160.8040 Y-258.9595
G1 X160.6672 Y-259.9824
G1 X160.1570 Y-259.9865
G1 X159.7115 Y-258.9794
G1 X159.8610 Y-258.8754
G1 X160.6734 Y-258.8818
G1 X159.6554 Y-259.0012
G1 X159.5856 Y-259.1778
G1 X159.5650 Y-259.9611
G1 X159.4176 Y-260.0317
G1 X159.0320 Y-259.9343
G1 X159.0018 Y-259.0398
G1 X158.9309 Y-258.8808
G1 X158.4389 Y-258.9200
G1 X158.3354 Y-259.0825
G1 X158.2818 Y-259.8736
G1 X158.4098 Y-260.0195
G1 X158.9456 Y-260.0340
G1 X159.0083 Y-260.5777
G1 Z0.0000 F8000.0
G0 X166.0382 Y-258.2786 F15000.0
G1 Z11.9000 F8000.0
G1 X166.4804 Y-258.3228 F12000.0
G1 Z0.0000 F8000.0
G0 X39.9757 Y-258.2461 F15000.0
G1 Z11.9000 F8000.0
G1 X40.4439 Y-258.3024 F12000.0
G1 X40.5805 Y-258.4024
G1 X40.6957 Y-259.1939
G1 X40.5585 Y-259.6257
G1 X40.0036 Y-259.7513
G1 X39.2153 Y-259.6516
G1 X39.0785 Y-258.3110
G1 X38.5414 Y-258.2465
G1 X37.9498 Y-258.3121
G1 X37.7646 Y-258.4083
G1 X37.6306 Y-259.6716
G1 Z0.0000 F8000.0
G0 X38.4123 Y-259.7176 F15000.0
G1 Z11.9000 F8000.0
G1 X38.4583 Y-258.2461 F12000.0
G1 Z0.0000 F8000.0
G0 X41.4011 Y-258.3381 F15000.0
G1 Z11.9000 F8000.0
G1 X42.0900 Y-259.6935 F12000.0
G1 X42.3439 Y-259.5655
G1 X42.4504 Y-259.1166
G1 X42.4127 Y-258.3381
G1 Z0.0000 F8000.0
G0 X43.1944 Y-259.7176 F15000.0
G1 Z11.9000 F8000.0
G1 X43.2637 Y-257.5429 F12000.0
G1 X44.4359 Y-259.7176
G1 Z0.0000 F8000.0
G0 X24.9990 Y-259.4716 F15000.0
G1 Z11.9000 F8000.0
G1 X24.4672 Y-257.6198 F12000.0
G1 X24.3313 Y-257.5429
G1 X24.0104 Y-257.5664
G1 X23.9389 Y-257.7377
G1 X23.8612 Y-259.6038
G1 X23.3217 Y-259.5195
G1 X23.1461 Y-259.4212
G1 X23.1321 Y-258.3935
G1 X23.0693 Y-258.3357
G1 X22.3027 Y-258.3096
G1 X22.9394 Y-259.6029
G1 X23.0069 Y-259.5968
G1 X22.9758 Y-259.6555
G1 Z0.0000 F8000.0
G0 X20.8607 Y-259.6555 F15000.0
G1 Z11.9000 F8000.0
G1 X21.3210 Y-259.6312 F12000.0
G1 X21.5079 Y-259.4153
G1 X20.8821 Y-258.3080
G1 X19.6068 Y-258.2979
G1 X19.5456 Y-258.3582
G1 X19.4812 Y-259.6095
G1 Z0.0000 F8000.0
G0 X20.1709 Y-259.6095 F15000.0
G1 Z11.9000 F8000.0
G1 X19.5352 Y-258.3440 F12000.0
G1 X19.4620 Y-258.3215
G1 X18.7915 Y-259.5635
G1 Z0.0000 F8000.0
G0 X17.3201 Y-259.6555 F15000.0
G1 Z11.9000 F8000.0
G1 X17.2467 Y-259.5415 F12000.0
G1 X17.6275 Y-259.6536
G1 X17.8445 Y-259.6063
G1 X17.9956 Y-259.4605
G1 X18.0187 Y-259.2428
G1 X17.7842 Y-258.3656
G1 X17.1984 Y-259.3973
G1 X16.4248 Y-259.4999
G1 X16.2625 Y-259.6555
G1 Z0.0000 F8000.0
G0 X15.8946 Y-257.6783 F15000.0
G1 Z11.9000 F8000.0
G1 X15.9322 Y-257.6369 F12000.0
G1 X16.3755 Y-258.2993
G1 X16.4374 Y-259.2371
G1 X16.3199 Y-259.5372
G1 X15.6744 Y-259.6140
G1 X15.5672 Y-259.3781
G1 X16.4017 Y-258.2471
G1 X16.2464 Y-257.6002
G1 X15.9866 Y-257.5863
G1 Z0.0000 F8000.0
G0 X6.4440 Y-257.5700 F15000.0
G1 Z11.9000 F8000.0
G1 X6.3868 Y-257.5431 F12000.0
G1 X6.3520 Y-260.8807
G1 Z0.0000 F8000.0
G0 X34.5374 Y-264.5719 F15000.0
G1 Z11.9000 F8000.0
G1 X32.5142 Y-264.5719 F12000.0
G1 Z0.0000 F8000.0
G0 X33.5718 Y-264.5719 F15000.0
G1 Z11.9000 F8000.0
G1 X33.5258 Y-268.6183 F12000.0
G1 Z0.0000 F8000.0
G0 X36.0088 Y-268.5724 F15000.0
G1 Z11.9000 F8000.0
G1 X36.1352 Y-264.6636 F12000.0
G1 X37.0385 Y-264.6202
G1 X37.1773 Y-264.6928
G1 X38.2619 Y-268.4804
G1 Z0.0000 F8000.0
G0 X30.9049 Y-267.2849 F15000.0
G1 Z11.9000 F8000.0
G1 X29.3415 Y-267.2849 F12000.0
G1 Z0.0000 F8000.0
G0 X27.7321 Y-268.6643 F15000.0
G1 Z11.9000 F8000.0
G1 X26.5459 Y-268.5867 F12000.0
G1 X26.2774 Y-268.3700
G1 X26.0948 Y-267.9459
G1 X26.2112 Y-266.8833
G1 X26.5040 Y-266.5572
G1 X26.7190 Y-266.4651
G1 X27.6675 Y-266.3754
G1 X27.8396 Y-266.2818
G1 X27.7456 Y-264.6635
G1 X26.1687 Y-264.5719
G1 Z0.0000 F8000.0
G0 X24.2835 Y-265.1237 F15000.0
G1 Z11.9000 F8000.0
G1 X23.8968 Y-265.0090 F12000.0
G1 X23.7777 Y-268.6183
G1 Z0.0000 F8000.0
G0 X21.9384 Y-268.6643 F15000.0
G1 Z11.9000 F8000.0
G1 X21.5534 Y-268.4761 F12000.0
G1 X21.0286 Y-267.8834
G1 X20.7887 Y-267.3378
G1 X20.6609 Y-266.6516
G1 X20.7648 Y-264.8778
G1 X21.2449 Y-264.6119
G1 X22.1529 Y-264.7300
G1 X22.3031 Y-264.9571
G1 X22.4124 Y-266.2558
G1 X22.2944 Y-266.5906
G1 X22.0364 Y-266.7840
G1 X20.6969 Y-266.8710
G1 Z0.0000 F8000.0
G0 X19.1335 Y-267.2849 F15000.0
G1 Z11.9000 F8000.0
G1 X17.5701 Y-267.2849 F12000.0
G1 Z0.0000 F8000.0
G0 X16.0067 Y-268.6643 F15000.0
G1 Z11.9000 F8000.0
G1 X14.6050 Y-268.4650 F12000.0
G1 X14.3880 Y-268.1357
G1 X14.4490 Y-268.2544
G1 X14.3164 Y-267.7376
G1 X14.3779 Y-267.0280
G1 X14.6938 Y-266.3569
G1 X14.3755 Y-265.7600
G1 X14.4989 Y-264.9507
G1 X14.6328 Y-264.7867
G1 X14.9425 Y-264.6293
G1 X16.0067 Y-264.5719
G1 Z0.0000 F8000.0
G0 X15.5469 Y-266.4112 F15000.0
G1 Z11.9000 F8000.0
G1 X14.7652 Y-266.4112 F12000.0
G1 Z0.0000 F8000.0
G0 X26.2147 Y-268.2965 F15000.0
G1 Z11.9000 F8000.0
G1 X26.3527 Y-268.4804 F12000.0
G1 Z0.0000 F8000.0
G0 X108.4060 Y-265.5478 F15000.0
G1 Z11.9000 F8000.0
G1 X109.2317 Y-265.6466 F12000.0
G1 X109.4887 Y-265.9148
G1 X109.5503 Y-267.8192
G1 X109.4900 Y-268.0393
G1 X109.2568 Y-268.2493
G1 X108.4395 Y-268.3437
G1 X107.5008 Y-268.2453
G1 X106.4789 Y-266.5471
G1 X106.4441 Y-268.2047
G1 X105.5922 Y-268.2602
G1 X105.6192 Y-266.7537
G1 X105.7684 Y-266.6137
G1 X106.4288 Y-266.5134
G1 Z0.0000 F8000.0
G0 X104.4976 Y-266.6973 F15000.0
G1 Z11.9000 F8000.0
G1 X104.3798 Y-266.6111 F12000.0
G1 X103.5180 Y-266.5189
G1 X104.2732 Y-266.5740
G1 X104.5203 Y-266.7844
G1 X104.5421 Y-267.9684
G1 X104.4855 Y-268.1796
G1 X103.9420 Y-268.3308
G1 X103.1151 Y-268.2924
G1 X103.4400 Y-266.5134
G1 Z0.0000 F8000.0
G0 X103.3480 Y-268.1687 F15000.0
G1 Z11.9000 F8000.0
G1 X103.4441 Y-268.2530 F12000.0
G1 X102.4450 Y-268.3158
G1 X101.3031 Y-266.5890
G1 X101.1459 Y-268.1900
G1 X100.2925 Y-267.4378
G1 X99.3622 Y-267.4821
G1 X99.1055 Y-267.6847
G1 X99.1095 Y-268.1350
G1 X99.1917 Y-268.2418
G1 X99.5143 Y-268.2884
G1 X100.2223 Y-267.5048
G1 X100.3132 Y-266.6054
G1 Z0.0000 F8000.0
G0 X93.0021 Y-265.5938 F15000.0
G1 Z11.9000 F8000.0
G1 X93.5795 Y-265.6387 F12000.0
G1 X93.8208 Y-265.9259
G1 X93.9118 Y-267.8047
G1 X93.8018 Y-268.1784
G1 X93.5818 Y-268.3547
G1 X93.0081 Y-268.3974
G1 X92.6601 Y-268.0690
G1 X92.8393 Y-265.7168
G1 X92.9414 Y-265.6337
G1 X92.8182 Y-265.7777
G1 Z0.0000 F8000.0
G0 X95.0253 Y-265.7777 F15000.0
G1 Z11.9000 F8000.0
G1 X94.8761 Y-266.4396 F12000.0
G1 X95.6524 Y-267.6971
G1 X95.9007 Y-268.3099
G1 X94.9334 Y-268.4446
G1 Z0.0000 F8000.0
G0 X92.8182 Y-268.2607 F15000.0
G1 Z11.9000 F8000.0
G1 X92.9102 Y-268.3527 F12000.0
G1 X92.8182 Y-268.3527
G1 X92.8182 Y-268.2607
G1 Z0.0000 F8000.0
G0 X95.1173 Y-265.6857 F15000.0
G1 Z11.9000 F8000.0
G1 X95.7625 Y-265.6275 F12000.0
G1 X96.0369 Y-265.8696
G1 Z0.0000 F8000.0
G0 X86.8865 Y-265.5478 F15000.0
G1 Z11.9000 F8000.0
G1 X88.0821 Y-268.2607 F12000.0
G1 Z0.0000 F8000.0
G0 X84.5415 Y-268.2147 F15000.0
G1 Z11.9000 F8000.0
G1 X84.5013 Y-268.1595 F12000.0
G1 X84.8590 Y-268.3300
G1 X85.6474 Y-268.2141
G1 X85.7842 Y-268.0536
G1 X85.8267 Y-266.0341
G1 X85.7671 Y-265.8127
G1 X85.6013 Y-265.6647
G1 X84.7777 Y-265.6095
G1 X84.4615 Y-265.8041
G1 X84.3970 Y-266.1268
G1 X84.4035 Y-268.0308
G1 Z0.0000 F8000.0
G0 X82.2424 Y-268.3527 F15000.0
G1 Z11.9000 F8000.0
G1 X83.0649 Y-268.2593 F12000.0
G1 X83.2414 Y-268.1556
G1 X83.3588 Y-267.9639
G1 X83.3477 Y-266.0611
G1 X83.2388 Y-265.7591
G1 X83.0988 Y-265.6542
G1 X82.2757 Y-265.5543
G1 X79.7594 Y-265.5478
G1 Z0.0000 F8000.0
G0 X80.4951 Y-265.5478 F15000.0
G1 Z11.9000 F8000.0
G1 X80.4951 Y-268.2607 F12000.0
G1 Z0.0000 F8000.0
G0 X74.3335 Y-265.5938 F15000.0
G1 Z11.9000 F8000.0
G1 X74.9109 Y-265.6387 F12000.0
G1 X75.1522 Y-265.9259
G1 X75.2432 Y-267.8047
G1 X75.1331 Y-268.1784
G1 X74.9132 Y-268.3547
G1 X74.3395 Y-268.3974
G1 X73.9915 Y-268.0690
G1 X74.1706 Y-265.7168
G1 X74.2728 Y-265.6337
G1 X74.1934 Y-265.7305
G1 X74.1496 Y-265.6857
G1 Z0.0000 F8000.0
G0 X76.2647 Y-265.9616 F15000.0
G1 Z11.9000 F8000.0
G1 X76.1728 Y-268.3527 F12000.0
G1 Z0.0000 F8000.0
G0 X74.1496 Y-268.2607 F15000.0
G1 Z11.9000 F8000.0
G1 X74.2415 Y-268.3527 F12000.0
G1 X74.1496 Y-268.3527
G1 X74.1496 Y-268.2607
G1 Z0.0000 F8000.0
G0 X72.9540 Y-268.4446 F15000.0
G1 Z11.9000 F8000.0
G1 X71.9980 Y-268.2888 F12000.0
G1 X71.7729 Y-267.8790
G1 X71.8607 Y-267.1952
G1 X72.2038 Y-266.8795
G1 X72.8874 Y-266.7877
G1 X73.0240 Y-266.6812
G1 X73.0275 Y-265.8054
G1 X72.9165 Y-265.6579
G1 X72.7440 Y-265.5961
G1 X71.8505 Y-265.5938
G1 Z0.0000 F8000.0
G0 X69.9192 Y-265.5938 F15000.0
G1 Z11.9000 F8000.0
G1 X70.4966 Y-265.6387 F12000.0
G1 X70.7379 Y-265.9259
G1 X70.8290 Y-267.8047
G1 X70.7189 Y-268.1784
G1 X70.4989 Y-268.3547
G1 X69.9252 Y-268.3974
G1 X69.5772 Y-268.0690
G1 X69.7564 Y-265.7168
G1 X69.8586 Y-265.6337
G1 X69.7792 Y-265.7305
G1 X69.7353 Y-265.6857
G1 Z0.0000 F8000.0
G0 X68.5398 Y-267.5250 F15000.0
G1 Z11.9000 F8000.0
G1 X67.4362 Y-267.5250 F12000.0
G1 Z0.0000 F8000.0
G0 X66.3327 Y-265.8696 F15000.0
G1 Z11.9000 F8000.0
G1 X66.1203 Y-265.6641 F12000.0
G1 X65.9508 Y-265.6144
G1 X65.3842 Y-265.7396
G1 X65.1685 Y-266.4305
G1 X65.9900 Y-267.7749
G1 X66.1964 Y-268.3027
G1 X65.2291 Y-268.4446
G1 Z0.0000 F8000.0
G0 X63.1139 Y-268.2607 F15000.0
G1 Z11.9000 F8000.0
G1 X63.2059 Y-268.3527 F12000.0
G1 X63.1139 Y-268.3527
G1 X63.1139 Y-268.2607
G1 Z0.0000 F8000.0
G0 X61.3666 Y-268.3527 F15000.0
G1 Z11.9000 F8000.0
G1 X61.4586 Y-265.9616 F12000.0
G1 Z0.0000 F8000.0
G0 X60.3550 Y-265.5938 F15000.0
G1 Z11.9000 F8000.0
G1 X59.4846 Y-265.6499 F12000.0
G1 X59.3611 Y-265.7911
G1 X59.2701 Y-266.5685
G1 X59.4084 Y-266.9154
G1 X59.1864 Y-267.8672
G1 X59.5217 Y-268.3235
G1 X60.3550 Y-268.4446
G1 Z0.0000 F8000.0
G0 X63.1139 Y-265.6857 F15000.0
G1 Z11.9000 F8000.0
G1 X63.1599 Y-265.7280 F12000.0
G1 X63.2408 Y-265.6324
G1 X63.1088 Y-265.7942
G1 X62.9540 Y-268.0611
G1 X63.1366 Y-268.2815
G1 X63.3865 Y-268.4233
G1 X63.9561 Y-268.3189
G1 X64.0925 Y-268.1852
G1 X64.2061 Y-267.8133
G1 X64.1185 Y-265.9339
G1 X63.7978 Y-265.6070
G1 X63.2979 Y-265.5938
G1 Z0.0000 F8000.0
G0 X69.7353 Y-268.2607 F15000.0
G1 Z11.9000 F8000.0
G1 X69.8273 Y-268.3527 F12000.0
G1 X69.7353 Y-268.3527
G1 X69.7353 Y-268.2607
G1 Z0.0000 F8000.0
G0 X169.6354 Y-266.7393 F15000.0
G1 Z11.9000 F8000.0
G1 X169.6024 Y-268.6162 F12000.0
G1 X168.6057 Y-268.5604
G1 X168.5338 Y-268.3874
G1 X168.5354 Y-266.8755
G1 X168.6028 Y-267.5030
G1 X169.6354 Y-267.5209
G1 Z0.0000 F8000.0
G0 X167.2903 Y-267.4290 F15000.0
G1 Z11.9000 F8000.0
G1 X167.2100 Y-267.9820 F12000.0
G1 X166.9160 Y-268.0347
G1 X166.4626 Y-268.6245
G1 Z0.0000 F8000.0
G0 X167.2903 Y-268.6245 F15000.0
G1 Z11.9000 F8000.0
G1 X166.9309 Y-268.0041 F12000.0
G1 X166.4916 Y-267.4481
G1 X165.2177 Y-267.3631
G1 X165.0981 Y-267.4489
G1 X165.6093 Y-267.5069
G1 X165.6972 Y-267.6918
G1 X165.7460 Y-268.3981
G1 X165.5362 Y-268.6312
G1 X165.2009 Y-268.6565
G1 X165.0013 Y-268.5568
G1 X165.0667 Y-268.6313
G1 X164.9102 Y-268.1715
G1 X164.9602 Y-267.4488
G1 X164.3148 Y-267.4165
G1 X164.2555 Y-268.5932
G1 X164.1988 Y-268.0150
G1 X163.6342 Y-268.0166
G1 X163.4518 Y-268.0875
G1 X163.3841 Y-268.5340
G1 X163.3206 Y-267.4583
G1 X162.7865 Y-267.4633
G1 X162.7167 Y-268.5890
G1 X162.6570 Y-268.6489
G1 X162.1305 Y-268.6225
G1 X162.1403 Y-267.3370
G1 Z0.0000 F8000.0
G0 X162.6921 Y-267.3370 F15000.0
G1 Z11.9000 F8000.0
G1 X161.8960 Y-267.3543 F12000.0
G1 X161.5695 Y-267.4443
G1 X161.3802 Y-268.6401
G1 X160.0343 Y-268.6051
G1 X160.0159 Y-267.5092
G1 X160.2923 Y-267.3715
G1 X160.7261 Y-267.3600
G1 X160.8056 Y-267.6204
G1 X160.8069 Y-269.3142
G1 Z0.0000 F8000.0
G0 X169.6354 Y-271.3373 F15000.0
G1 Z11.9000 F8000.0
G1 X169.5097 Y-272.2686 F12000.0
G1 X169.3415 Y-272.3759
G1 X168.5646 Y-272.4030
G1 X168.5409 Y-272.8448
G1 X168.7407 Y-273.2396
G1 X169.2759 Y-273.2479
G1 X168.5498 Y-272.3013
G1 X168.4855 Y-271.4525
G1 X167.8933 Y-271.9658
G1 X166.8433 Y-271.9973
G1 X166.6886 Y-272.2612
G1 X166.6466 Y-273.2686
G1 Z0.0000 F8000.0
G0 X167.2903 Y-273.2686 F15000.0
G1 Z11.9000 F8000.0
G1 X167.3363 Y-271.9351 F12000.0
G1 Z0.0000 F8000.0
G0 X167.9340 Y-272.0271 F15000.0
G1 Z11.9000 F8000.0
G1 X167.9340 Y-273.2686 F12000.0
G1 Z0.0000 F8000.0
G0 X165.2671 Y-273.2686 F15000.0
G1 Z11.9000 F8000.0
G1 X165.2328 Y-273.2081 F12000.0
G1 X165.7712 Y-273.2446
G1 X165.9435 Y-273.0119
G1 X165.8989 Y-272.0743
G1 X165.5616 Y-271.8813
G1 X165.5216 Y-271.4960
G1 X165.8108 Y-271.4317
G1 X165.5590 Y-271.4069
G1 X165.7861 Y-271.3556
G1 X165.9166 Y-271.5012
G1 X165.9453 Y-271.9318
G1 X165.3959 Y-272.0285
G1 X165.2253 Y-272.1366
G1 X165.1751 Y-273.1306
G1 Z0.0000 F8000.0

G0 Z0.0000 F800.0
G4 P0.06
G0 X0.0000 Y0.0000 F15000.0
M5
G4 P0.10
$1=0
