$X
$1=255
G21
G90
G92 Z4.0000
G0 Z0.0000 F800.0
G4 P0.06
G92 Z0.0000
G0 Z0.0000 F800.0
G0 X0.0000 Y0.0000 F15000.0
G21
G90
G17
G91.1
G0 Z0.0000
G0 X0.0000 Y-5.0000 F15000.0
G1 Z11.9000 F8000.0
G1 X180.0000 Y-5.0000 F12000.0
G1 X180.0000 Y-285.0000
G1 X0.0000 Y-285.0000
G1 X0.0000 Y-5.0000
G1 Z0.0000 F8000.0
G0 X3.2851 Y-177.9294 F15000.0
G1 Z11.9000 F8000.0
G1 X3.8159 Y-177.0006 F12000.0
G1 Z0.0000 F8000.0
G0 X4.3023 Y-176.5141 F15000.0
G1 Z11.9000 F8000.0
G1 X4.5235 Y-176.2930 F12000.0
G1 X5.2311 Y-175.9392
G1 X5.4522 Y-177.4429
G1 Z0.0000 F8000.0
G0 X5.7618 Y-177.6640 F15000.0
G1 Z11.9000 F8000.0
G1 X6.1599 Y-177.6198 F12000.0
G1 X7.0886 Y-177.2660
G1 X7.2655 Y-177.1333
G1 Z0.0000 F8000.0
G0 X7.5751 Y-176.7353 F15000.0
G1 Z11.9000 F8000.0
G1 X7.7520 Y-175.7623 F12000.0
G1 X7.5751 Y-175.3642
G1 X7.3540 Y-175.2316
G1 X5.8503 Y-175.6296
G1 Z0.0000 F8000.0
G0 X5.4965 Y-175.7623 F15000.0
G1 Z11.9000 F8000.0
G1 X5.2753 Y-175.9392 F12000.0
G1 Z0.0000 F8000.0
G0 X5.3638 Y-174.9662 F15000.0
G1 Z11.9000 F8000.0
G1 X3.6832 Y-175.4527 F12000.0
G1 Z0.0000 F8000.0
G0 X3.3294 Y-175.1873 F15000.0
G1 Z11.9000 F8000.0
G1 X3.3294 Y-174.0374 F12000.0
G1 Z0.0000 F8000.0
G0 X3.4178 Y-173.8605 F15000.0
G1 Z11.9000 F8000.0
G1 X3.7274 Y-173.5067 F12000.0
G1 X5.2753 Y-173.0202
G1 X5.7176 Y-174.7008
G1 X6.4695 Y-174.3470
G1 Z0.0000 F8000.0
G0 X6.9117 Y-173.9490 F15000.0
G1 Z11.9000 F8000.0
G1 X7.0002 Y-173.8605 F12000.0
G1 Z0.0000 F8000.0
G0 X7.5309 Y-173.0644 F15000.0
G1 Z11.9000 F8000.0
G1 X7.7078 Y-172.7549 F12000.0
G1 Z0.0000 F8000.0
G0 X5.7176 Y-174.7008 F15000.0
G1 Z11.9000 F8000.0
G1 X5.6292 Y-174.8335 F12000.0
G1 Z0.0000 F8000.0
G0 X17.8764 Y-175.3982 F15000.0
G1 Z11.9000 F8000.0
G1 X27.1854 Y-175.3982 F12000.0
G1 Z0.0000 F8000.0
G0 X28.6682 Y-175.3982 F15000.0
G1 Z11.9000 F8000.0
G1 X30.4806 Y-175.3982 F12000.0
G1 Z0.0000 F8000.0
G0 X31.9634 Y-175.3982 F15000.0
G1 Z11.9000 F8000.0
G1 X41.2723 Y-175.3982 F12000.0
G1 Z0.0000 F8000.0
G0 X39.2952 Y-175.3982 F15000.0
G1 Z11.9000 F8000.0
G1 X39.2952 Y-190.9680 F12000.0
G1 X33.4462 Y-190.9680 F12000.0
G1 X33.4462 Y-222.1075 F12000.0
G1 X33.2815 Y-223.5904 F12000.0
G1 X32.7872 Y-224.9908 F12000.0
G1 X32.0458 Y-226.2265 F12000.0
G1 X30.9748 Y-227.2975 F12000.0
G1 X29.7391 Y-228.1213 F12000.0
G1 X28.3387 Y-228.6979 F12000.0
G1 X26.8559 Y-228.8627 F12000.0
G1 X25.3730 Y-228.7803 F12000.0
G1 X23.9726 Y-228.2860 F12000.0
G1 X22.6545 Y-227.5446 F12000.0
G1 X21.5835 Y-226.5560 F12000.0
G1 X20.6774 Y-225.3204 F12000.0
G1 X20.1007 Y-223.9199 F12000.0
G1 X19.8536 Y-222.5194 F12000.0
G1 X19.8536 Y-222.1075 F12000.0
G1 X19.8536 Y-175.3982 F12000.0
G1 X19.8536 Y-128.6888 F12000.0
G1 X33.4462 Y-128.6888 F12000.0
G1 X33.4462 Y-159.8284 F12000.0
G1 X39.2952 Y-159.8284 F12000.0
G1 X39.2952 Y-175.3982 F12000.0
G1 Z0.0000 F8000.0
G0 X43.2319 Y-175.0249 F15000.0
G1 Z11.9000 F8000.0
G1 X43.1877 Y-176.1748 F12000.0
G1 Z0.0000 F8000.0
G0 X43.3204 Y-176.3517 F15000.0
G1 Z11.9000 F8000.0
G1 X43.4530 Y-176.4402 F12000.0
G1 X44.1607 Y-176.3075
G1 Z0.0000 F8000.0
G0 X44.6914 Y-176.0864 F15000.0
G1 Z11.9000 F8000.0
G1 X45.1337 Y-175.5999 F12000.0
G1 X45.3106 Y-174.9807
G1 Z0.0000 F8000.0
G0 X45.3548 Y-175.6883 F15000.0
G1 Z11.9000 F8000.0
G1 X45.9297 Y-175.8652 F12000.0
G1 X47.1239 Y-175.3345
G1 Z0.0000 F8000.0
G0 X47.3008 Y-175.1134 F15000.0
G1 Z11.9000 F8000.0
G1 X47.7430 Y-173.3885 F12000.0
G1 Z0.0000 F8000.0
G0 X46.4162 Y-171.6637 F15000.0
G1 Z11.9000 F8000.0
G1 X46.6374 Y-171.6195 F12000.0
G1 X46.1066 Y-173.0347
G1 X45.8855 Y-173.2116
G1 X45.0894 Y-173.4770
G1 X44.8683 Y-173.3885
G1 Z0.0000 F8000.0
G0 X44.2933 Y-173.1232 F15000.0
G1 Z11.9000 F8000.0
G1 X45.0894 Y-172.5482 F12000.0
G1 Z0.0000 F8000.0
G0 X44.4703 Y-172.8578 F15000.0
G1 Z11.9000 F8000.0
G1 X44.8683 Y-171.6195 F12000.0
G1 Z0.0000 F8000.0
G0 X45.0894 Y-171.3983 F15000.0
G1 Z11.9000 F8000.0
G1 X46.1951 Y-171.0887 F12000.0
G1 Z0.0000 F8000.0
G0 X46.3720 Y-171.1772 F15000.0
G1 Z11.9000 F8000.0
G1 X46.4605 Y-171.2656 F12000.0
G1 Z0.0000 F8000.0
G0 X46.6374 Y-171.4425 F15000.0
G1 Z11.9000 F8000.0
G1 X47.6104 Y-170.8676 F12000.0
G1 Z0.0000 F8000.0
G0 X46.0624 Y-171.8848 F15000.0
G1 Z11.9000 F8000.0
G1 X45.9740 Y-171.9733 F12000.0
G1 Z0.0000 F8000.0
G0 X43.9395 Y-173.3443 F15000.0
G1 Z11.9000 F8000.0
G1 X43.4530 Y-173.6981 F12000.0
G1 Z0.0000 F8000.0
G0 X43.7626 Y-177.5459 F15000.0
G1 Z11.9000 F8000.0
G1 X46.0182 Y-176.6613 F12000.0
G1 Z0.0000 F8000.0
G0 X46.4605 Y-176.4844 F15000.0
G1 Z11.9000 F8000.0
G1 X47.1681 Y-176.3517 F12000.0
G1 X47.4335 Y-176.5286
G1 Z0.0000 F8000.0
G0 X47.5219 Y-176.6613 F15000.0
G1 Z11.9000 F8000.0
G1 X47.5219 Y-177.6343 F12000.0
G1 X47.4335 Y-177.8997
G1 X46.9912 Y-178.3862
G1 X46.1951 Y-178.7400
G1 Z0.0000 F8000.0
G0 X45.7086 Y-178.9169 F15000.0
G1 Z11.9000 F8000.0
G1 X45.5759 Y-178.9611 F12000.0
G1 Z0.0000 F8000.0
G0 X44.9568 Y-179.1822 F15000.0
G1 Z11.9000 F8000.0
G1 X44.8241 Y-179.2265 F12000.0
G1 Z0.0000 F8000.0
G0 X43.8511 Y-179.5803 F15000.0
G1 Z11.9000 F8000.0
G1 X43.3204 Y-179.4918 F12000.0
G1 X43.1877 Y-178.1650
G1 X43.4973 Y-177.7670
G1 Z0.0000 F8000.0
G0 X39.2952 Y-183.1419 F15000.0
G1 Z11.9000 F8000.0
G1 X34.4348 Y-183.1419 F12000.0
G1 X19.8536 Y-183.1419 F12000.0
G1 X39.2952 Y-167.5721 F12000.0
G1 X34.4348 Y-167.5721 F12000.0
G1 X19.8536 Y-167.5721 F12000.0
G1 X39.2952 Y-183.1419 F12000.0
G1 Z0.0000 F8000.0
G0 X39.2952 Y-183.9657 F15000.0
G1 Z11.9000 F8000.0
G1 X19.8536 Y-203.4073 F12000.0
G1 Z0.0000 F8000.0
G0 X19.8536 Y-202.1716 F15000.0
G1 Z11.9000 F8000.0
G1 X33.4462 Y-215.8467 F12000.0
G1 Z0.0000 F8000.0
G0 X33.4462 Y-214.5286 F15000.0
G1 Z11.9000 F8000.0
G1 X25.9497 Y-222.1075 F12000.0
G1 X19.8536 Y-215.9290 F12000.0
G1 Z0.0000 F8000.0
G0 X19.8536 Y-217.1647 F15000.0
G1 Z11.9000 F8000.0
G1 X33.4462 Y-203.5721 F12000.0
G1 Z0.0000 F8000.0
G0 X33.4462 Y-204.8078 F15000.0
G1 Z11.9000 F8000.0
G1 X19.8536 Y-191.2151 F12000.0
G1 Z0.0000 F8000.0
G0 X19.8536 Y-192.3684 F15000.0
G1 Z11.9000 F8000.0
G1 X29.0801 Y-183.1419 F12000.0
G1 Z0.0000 F8000.0
G0 X28.3387 Y-183.1419 F15000.0
G1 Z11.9000 F8000.0
G1 X36.0824 Y-190.9680 F12000.0
G1 Z0.0000 F8000.0
G0 X35.0938 Y-190.9680 F15000.0
G1 Z11.9000 F8000.0
G1 X39.2952 Y-186.6842 F12000.0
G1 Z0.0000 F8000.0
G0 X39.2952 Y-185.8604 F15000.0
G1 Z11.9000 F8000.0
G1 X36.5767 Y-183.1419 F12000.0
G1 Z0.0000 F8000.0
G0 X37.3181 Y-183.1419 F15000.0
G1 Z11.9000 F8000.0
G1 X19.8536 Y-200.6888 F12000.0
G1 Z0.0000 F8000.0
G0 X19.8536 Y-199.4531 F15000.0
G1 Z11.9000 F8000.0
G1 X33.4462 Y-213.0458 F12000.0
G1 Z0.0000 F8000.0
G0 X33.4462 Y-211.8101 F15000.0
G1 Z11.9000 F8000.0
G1 X23.2311 Y-222.1075 F12000.0
G1 X19.8536 Y-218.7300 F12000.0
G1 Z0.0000 F8000.0
G0 X19.8536 Y-219.8833 F15000.0
G1 Z11.9000 F8000.0
G1 X33.4462 Y-206.2906 F12000.0
G1 Z0.0000 F8000.0
G0 X33.4462 Y-207.5263 F15000.0
G1 Z11.9000 F8000.0
G1 X19.8536 Y-193.9336 F12000.0
G1 Z0.0000 F8000.0
G0 X19.8536 Y-195.1693 F15000.0
G1 Z11.9000 F8000.0
G1 X31.8810 Y-183.1419 F12000.0
G1 Z0.0000 F8000.0
G0 X31.0572 Y-183.1419 F15000.0
G1 Z11.9000 F8000.0
G1 X38.8833 Y-190.9680 F12000.0
G1 Z0.0000 F8000.0
G0 X39.2952 Y-190.9680 F15000.0
G1 Z11.9000 F8000.0
G1 X52.2288 Y-190.9680 F12000.0
G1 Z0.0000 F8000.0
G0 X50.3341 Y-190.9680 F15000.0
G1 Z11.9000 F8000.0
G1 X50.9108 Y-186.1075 F12000.0
G1 X50.3341 Y-186.5194 F12000.0
G1 X49.6751 Y-186.1075 F12000.0
G1 X50.3341 Y-190.9680 F12000.0
G1 X50.3341 Y-159.8284 F12000.0
G1 X49.6751 Y-164.6888 F12000.0
G1 X50.3341 Y-164.1945 F12000.0
G1 X50.9108 Y-164.6888 F12000.0
G1 X50.3341 Y-159.8284 F12000.0
G1 Z0.0000 F8000.0
G0 X52.2288 Y-159.8284 F15000.0
G1 Z11.9000 F8000.0
G1 X39.2952 Y-159.8284 F12000.0
G1 X39.2952 Y-97.7963 F12000.0
G1 Z0.0000 F8000.0
G0 X39.2952 Y-99.7735 F15000.0
G1 Z11.9000 F8000.0
G1 X34.4348 Y-99.1144 F12000.0
G1 X34.9291 Y-99.7735 F12000.0
G1 X34.4348 Y-100.4325 F12000.0
G1 X39.2952 Y-99.7735 F12000.0
G1 X19.8536 Y-99.7735 F12000.0
G1 X24.7140 Y-100.4325 F12000.0
G1 X24.2197 Y-99.7735 F12000.0
G1 X24.7140 Y-99.1144 F12000.0
G1 X19.8536 Y-99.7735 F12000.0
G1 Z0.0000 F8000.0
G0 X19.8536 Y-97.7963 F15000.0
G1 Z11.9000 F8000.0
G1 X19.8536 Y-128.6888 F12000.0
G1 X8.4851 Y-128.6888 F12000.0
G1 Z0.0000 F8000.0
G0 X10.3799 Y-128.6888 F15000.0
G1 Z11.9000 F8000.0
G1 X9.7208 Y-133.5492 F12000.0
G1 X10.3799 Y-133.0549 F12000.0
G1 X11.0389 Y-133.5492 F12000.0
G1 X10.3799 Y-128.6888 F12000.0
G1 X10.3799 Y-222.1075 F12000.0
G1 X11.0389 Y-217.2471 F12000.0
G1 X10.3799 Y-217.6590 F12000.0
G1 X9.7208 Y-217.2471 F12000.0
G1 X10.3799 Y-222.1075 F12000.0
G1 Z0.0000 F8000.0
G0 X8.4851 Y-222.1075 F15000.0
G1 Z11.9000 F8000.0
G1 X19.8536 Y-222.1075 F12000.0
G1 X33.4462 Y-222.1075 F12000.0
G1 Z0.0000 F8000.0
G0 X33.4462 Y-221.2837 F15000.0
G1 Z11.9000 F8000.0
G1 X19.8536 Y-207.6911 F12000.0
G1 Z0.0000 F8000.0
G0 X19.8536 Y-208.9268 F15000.0
G1 Z11.9000 F8000.0
G1 X33.4462 Y-195.2517 F12000.0
G1 Z0.0000 F8000.0
G0 X33.4462 Y-196.5698 F15000.0
G1 Z11.9000 F8000.0
G1 X20.1007 Y-183.1419 F12000.0
G1 Z0.0000 F8000.0
G0 X20.8421 Y-183.1419 F15000.0
G1 Z11.9000 F8000.0
G1 X19.8536 Y-184.1304 F12000.0
G1 Z0.0000 F8000.0
G0 X19.8536 Y-185.6956 F15000.0
G1 Z11.9000 F8000.0
G1 X33.4462 Y-199.2883 F12000.0
G1 Z0.0000 F8000.0
G0 X33.4462 Y-198.0526 F15000.0
G1 Z11.9000 F8000.0
G1 X19.8536 Y-211.6453 F12000.0
G1 Z0.0000 F8000.0
G0 X19.8536 Y-210.4920 F15000.0
G1 Z11.9000 F8000.0
G1 X31.4691 Y-222.1075 F12000.0
G1 X33.4462 Y-220.0480 F12000.0
G1 Z0.0000 F8000.0
G0 X33.4462 Y-218.5652 F15000.0
G1 Z11.9000 F8000.0
G1 X19.8536 Y-204.9725 F12000.0
G1 Z0.0000 F8000.0
G0 X19.8536 Y-206.1258 F15000.0
G1 Z11.9000 F8000.0
G1 X33.4462 Y-192.5332 F12000.0
G1 Z0.0000 F8000.0
G0 X33.4462 Y-193.7689 F15000.0
G1 Z11.9000 F8000.0
G1 X22.8192 Y-183.1419 F12000.0
G1 Z0.0000 F8000.0
G0 X23.5607 Y-183.1419 F15000.0
G1 Z11.9000 F8000.0
G1 X19.8536 Y-186.8490 F12000.0
G1 Z0.0000 F8000.0
G0 X19.8536 Y-188.4142 F15000.0
G1 Z11.9000 F8000.0
G1 X33.4462 Y-202.0892 F12000.0
G1 Z0.0000 F8000.0
G0 X33.4462 Y-200.7712 F15000.0
G1 Z11.9000 F8000.0
G1 X19.8536 Y-214.4462 F12000.0
G1 Z0.0000 F8000.0
G0 X19.8536 Y-213.2105 F15000.0
G1 Z11.9000 F8000.0
G1 X28.7506 Y-222.1075 F12000.0
G1 Z0.0000 F8000.0
G0 X28.6682 Y-222.1075 F15000.0
G1 Z11.9000 F8000.0
G1 X33.4462 Y-217.3295 F12000.0
G1 Z0.0000 F8000.0
G0 X33.4462 Y-210.3272 F15000.0
G1 Z11.9000 F8000.0
G1 X19.8536 Y-196.6522 F12000.0
G1 Z0.0000 F8000.0
G0 X19.8536 Y-197.8879 F15000.0
G1 Z11.9000 F8000.0
G1 X34.5996 Y-183.1419 F12000.0
G1 Z0.0000 F8000.0
G0 X33.8581 Y-183.1419 F15000.0
G1 Z11.9000 F8000.0
G1 X39.2952 Y-188.6613 F12000.0
G1 Z0.0000 F8000.0
G0 X39.2952 Y-189.4851 F15000.0
G1 Z11.9000 F8000.0
G1 X37.8124 Y-190.9680 F12000.0
G1 Z0.0000 F8000.0
G0 X33.4462 Y-191.0503 F15000.0
G1 Z11.9000 F8000.0
G1 X25.5378 Y-183.1419 F12000.0
G1 Z0.0000 F8000.0
G0 X26.3616 Y-183.1419 F15000.0
G1 Z11.9000 F8000.0
G1 X19.8536 Y-189.6499 F12000.0
G1 Z0.0000 F8000.0
G0 X19.8536 Y-167.5721 F15000.0
G1 Z11.9000 F8000.0
G1 X33.4462 Y-153.9794 F12000.0
G1 Z0.0000 F8000.0
G0 X33.4462 Y-155.2975 F15000.0
G1 Z11.9000 F8000.0
G1 X19.8536 Y-141.6224 F12000.0
G1 Z0.0000 F8000.0
G0 X19.8536 Y-142.8581 F15000.0
G1 Z11.9000 F8000.0
G1 X33.4462 Y-129.2654 F12000.0
G1 Z0.0000 F8000.0
G0 X33.4462 Y-128.6888 F15000.0
G1 Z11.9000 F8000.0
G1 X33.2815 Y-127.2060 F12000.0
G1 X32.7872 Y-125.7231 F12000.0
G1 X32.0458 Y-124.4874 F12000.0
G1 X30.9748 Y-123.4165 F12000.0
G1 X29.7391 Y-122.5927 F12000.0
G1 X28.3387 Y-122.0984 F12000.0
G1 X26.8559 Y-121.8513 F12000.0
G1 X25.3730 Y-122.0160 F12000.0
G1 X23.9726 Y-122.4279 F12000.0
G1 X22.6545 Y-123.1693 F12000.0
G1 X21.5835 Y-124.1579 F12000.0
G1 X20.6774 Y-125.3936 F12000.0
G1 X20.1007 Y-126.7941 F12000.0
G1 X19.8536 Y-128.2769 F12000.0
G1 Z0.0000 F8000.0
G0 X20.2655 Y-128.6888 F15000.0
G1 Z11.9000 F8000.0
G1 X19.8536 Y-129.1007 F12000.0
G1 Z0.0000 F8000.0
G0 X20.5950 Y-128.6888 F15000.0
G1 Z11.9000 F8000.0
G1 X33.4462 Y-141.5400 F12000.0
G1 Z0.0000 F8000.0
G0 X33.4462 Y-140.2220 F15000.0
G1 Z11.9000 F8000.0
G1 X19.8536 Y-153.8970 F12000.0
G1 Z0.0000 F8000.0
G0 X19.8536 Y-152.6613 F15000.0
G1 Z11.9000 F8000.0
G1 X34.7643 Y-167.5721 F12000.0
G1 Z0.0000 F8000.0
G0 X33.6110 Y-167.5721 F15000.0
G1 Z11.9000 F8000.0
G1 X39.2952 Y-161.8879 F12000.0
G1 Z0.0000 F8000.0
G0 X39.2952 Y-161.1464 F15000.0
G1 Z11.9000 F8000.0
G1 X37.9771 Y-159.8284 F12000.0
G1 Z0.0000 F8000.0
G0 X38.7185 Y-159.8284 F15000.0
G1 Z11.9000 F8000.0
G1 X30.8925 Y-167.5721 F12000.0
G1 Z0.0000 F8000.0
G0 X32.0458 Y-167.5721 F15000.0
G1 Z11.9000 F8000.0
G1 X19.8536 Y-155.3799 F12000.0
G1 Z0.0000 F8000.0
G0 X19.8536 Y-156.6156 F15000.0
G1 Z11.9000 F8000.0
G1 X33.4462 Y-143.0229 F12000.0
G1 Z0.0000 F8000.0
G0 X33.4462 Y-144.2586 F15000.0
G1 Z11.9000 F8000.0
G1 X19.8536 Y-130.6659 F12000.0
G1 Z0.0000 F8000.0
G0 X19.8536 Y-131.8192 F15000.0
G1 Z11.9000 F8000.0
G1 X23.0664 Y-128.6888 F12000.0
G1 Z0.0000 F8000.0
G0 X23.3959 Y-128.6888 F15000.0
G1 Z11.9000 F8000.0
G1 X33.4462 Y-138.7391 F12000.0
G1 Z0.0000 F8000.0
G0 X33.4462 Y-137.5034 F15000.0
G1 Z11.9000 F8000.0
G1 X19.8536 Y-151.0961 F12000.0
G1 Z0.0000 F8000.0
G0 X19.8536 Y-149.9428 F15000.0
G1 Z11.9000 F8000.0
G1 X37.5652 Y-167.5721 F12000.0
G1 Z0.0000 F8000.0
G0 X36.4119 Y-167.5721 F15000.0
G1 Z11.9000 F8000.0
G1 X39.2952 Y-164.6888 F12000.0
G1 Z0.0000 F8000.0
G0 X39.2952 Y-163.8650 F15000.0
G1 Z11.9000 F8000.0
G1 X35.2586 Y-159.8284 F12000.0
G1 Z0.0000 F8000.0
G0 X35.9176 Y-159.8284 F15000.0
G1 Z11.9000 F8000.0
G1 X28.1739 Y-167.5721 F12000.0
G1 Z0.0000 F8000.0
G0 X29.2449 Y-167.5721 F15000.0
G1 Z11.9000 F8000.0
G1 X19.8536 Y-158.1808 F12000.0
G1 Z0.0000 F8000.0
G0 X19.8536 Y-159.3341 F15000.0
G1 Z11.9000 F8000.0
G1 X33.4462 Y-145.7414 F12000.0
G1 Z0.0000 F8000.0
G0 X33.4462 Y-146.9771 F15000.0
G1 Z11.9000 F8000.0
G1 X19.8536 Y-133.3844 F12000.0
G1 Z0.0000 F8000.0
G0 X19.8536 Y-134.6201 F15000.0
G1 Z11.9000 F8000.0
G1 X25.7849 Y-128.6888 F12000.0
G1 Z0.0000 F8000.0
G0 X26.1144 Y-128.6888 F15000.0
G1 Z11.9000 F8000.0
G1 X33.4462 Y-136.0206 F12000.0
G1 Z0.0000 F8000.0
G0 X33.4462 Y-134.7025 F15000.0
G1 Z11.9000 F8000.0
G1 X19.8536 Y-148.3776 F12000.0
G1 Z0.0000 F8000.0
G0 X19.8536 Y-147.1419 F15000.0
G1 Z11.9000 F8000.0
G1 X39.2952 Y-166.5835 F12000.0
G1 Z0.0000 F8000.0
G0 X33.4462 Y-159.4989 F15000.0
G1 Z11.9000 F8000.0
G1 X25.3730 Y-167.5721 F12000.0
G1 Z0.0000 F8000.0
G0 X26.5263 Y-167.5721 F15000.0
G1 Z11.9000 F8000.0
G1 X19.8536 Y-160.8993 F12000.0
G1 Z0.0000 F8000.0
G0 X19.8536 Y-162.1350 F15000.0
G1 Z11.9000 F8000.0
G1 X33.4462 Y-148.4600 F12000.0
G1 Z0.0000 F8000.0
G0 X33.4462 Y-149.7780 F15000.0
G1 Z11.9000 F8000.0
G1 X19.8536 Y-136.1854 F12000.0
G1 Z0.0000 F8000.0
G0 X19.8536 Y-137.3387 F15000.0
G1 Z11.9000 F8000.0
G1 X28.5034 Y-128.6888 F12000.0
G1 Z0.0000 F8000.0
G0 X28.9153 Y-128.6888 F15000.0
G1 Z11.9000 F8000.0
G1 X33.4462 Y-133.2197 F12000.0
G1 Z0.0000 F8000.0
G0 X33.4462 Y-131.9840 F15000.0
G1 Z11.9000 F8000.0
G1 X19.8536 Y-145.5767 F12000.0
G1 Z0.0000 F8000.0
G0 X19.8536 Y-144.4233 F15000.0
G1 Z11.9000 F8000.0
G1 X33.4462 Y-158.0160 F12000.0
G1 Z0.0000 F8000.0
G0 X33.4462 Y-156.7803 F15000.0
G1 Z11.9000 F8000.0
G1 X22.6545 Y-167.5721 F12000.0
G1 Z0.0000 F8000.0
G0 X23.8078 Y-167.5721 F15000.0
G1 Z11.9000 F8000.0
G1 X19.8536 Y-163.7002 F12000.0
G1 Z0.0000 F8000.0
G0 X19.8536 Y-164.8535 F15000.0
G1 Z11.9000 F8000.0
G1 X33.4462 Y-151.2609 F12000.0
G1 Z0.0000 F8000.0
G0 X33.4462 Y-152.4966 F15000.0
G1 Z11.9000 F8000.0
G1 X19.8536 Y-138.9039 F12000.0
G1 Z0.0000 F8000.0
G0 X19.8536 Y-140.1396 F15000.0
G1 Z11.9000 F8000.0
G1 X31.3044 Y-128.6888 F12000.0
G1 Z0.0000 F8000.0
G0 X31.6339 Y-128.6888 F15000.0
G1 Z11.9000 F8000.0
G1 X33.4462 Y-130.5011 F12000.0
G1 Z0.0000 F8000.0
G0 X33.4462 Y-128.6888 F15000.0
G1 Z11.9000 F8000.0
G1 X33.4462 Y-109.9886 F12000.0
G1 Z0.0000 F8000.0
G0 X33.4462 Y-111.9657 F15000.0
G1 Z11.9000 F8000.0
G1 X28.5858 Y-111.3066 F12000.0
G1 X29.0801 Y-111.9657 F12000.0
G1 X28.5858 Y-112.5423 F12000.0
G1 X33.4462 Y-111.9657 F12000.0
G1 X19.8536 Y-111.9657 F12000.0
G1 X24.7140 Y-112.5423 F12000.0
G1 X24.2197 Y-111.9657 F12000.0
G1 X24.7140 Y-111.3066 F12000.0
G1 X19.8536 Y-111.9657 F12000.0
G1 Z0.0000 F8000.0
G0 X21.8459 Y-111.6774 F15000.0
G1 Z11.9000 F8000.0
G1 X22.7216 Y-111.6774 F12000.0
G1 Z0.0000 F8000.0
G0 X23.0923 Y-112.2540 F15000.0
G1 Z11.9000 F8000.0
G1 X22.2166 Y-112.2540 F12000.0
G1 Z0.0000 F8000.0
G0 X24.9854 Y-114.6124 F15000.0
G1 Z11.9000 F8000.0
G1 X26.4449 Y-118.6813 F12000.0
G1 X26.7103 Y-119.0351
G1 Z0.0000 F8000.0
G0 X26.4007 Y-118.7255 F15000.0
G1 Z11.9000 F8000.0
G1 X26.0911 Y-118.6371 F12000.0
G1 Z0.0000 F8000.0
G0 X25.3392 Y-118.1506 F15000.0
G1 Z11.9000 F8000.0
G1 X25.1623 Y-117.9737 F12000.0
G1 Z0.0000 F8000.0
G0 X26.0026 Y-114.5682 F15000.0
G1 Z11.9000 F8000.0
G1 X27.6390 Y-115.0105 F12000.0
G1 Z0.0000 F8000.0
G0 X27.7275 Y-115.0989 F15000.0
G1 Z11.9000 F8000.0
G1 X28.2140 Y-116.2488 F12000.0
G1 X26.8872 Y-117.0891
G1 X27.4621 Y-118.8140
G1 X29.2312 Y-119.1236
G1 Z0.0000 F8000.0
G0 X30.2899 Y-112.2540 F15000.0
G1 Z11.9000 F8000.0
G1 X31.1655 Y-112.2540 F12000.0
G1 Z0.0000 F8000.0
G0 X31.4951 Y-111.6774 F15000.0
G1 Z11.9000 F8000.0
G1 X30.6194 Y-111.6774 F12000.0
G1 Z0.0000 F8000.0
G0 X29.1245 Y-106.8775 F15000.0
G1 Z11.9000 F8000.0
G1 X28.3727 Y-106.7890 F12000.0
G1 X27.8862 Y-106.5236
G1 X27.6208 Y-106.2583
G1 Z0.0000 F8000.0
G0 X29.5668 Y-106.3910 F15000.0
G1 Z11.9000 F8000.0
G1 X29.4341 Y-105.6833 F12000.0
G1 X26.4709 Y-102.4990
G1 X26.1613 Y-102.3663
G1 Z0.0000 F8000.0
G0 X26.4709 Y-102.4990 F15000.0
G1 Z11.9000 F8000.0
G1 X28.1073 Y-102.4105 F12000.0
G1 Z0.0000 F8000.0
G0 X29.5668 Y-102.5874 F15000.0
G1 Z11.9000 F8000.0
G1 X29.4341 Y-102.8086 F12000.0
G1 X29.5226 Y-103.5162
G1 X30.6282 Y-106.3025
G1 X31.1589 Y-106.7890
G1 X32.3088 Y-106.8775
G1 X32.6184 Y-106.5236
G1 X31.8223 Y-104.0027
G1 Z0.0000 F8000.0
G0 X31.6897 Y-103.6489 F15000.0
G1 Z11.9000 F8000.0
G1 X31.4243 Y-102.9855 F12000.0
G1 X30.9820 Y-102.5874
G1 X30.6282 Y-102.4548
G1 X29.6995 Y-102.4990
G1 Z0.0000 F8000.0
G0 X36.1800 Y-100.1030 F15000.0
G1 Z11.9000 F8000.0
G1 X37.0557 Y-100.1030 F12000.0
G1 Z0.0000 F8000.0
G0 X37.3440 Y-99.4851 F15000.0
G1 Z11.9000 F8000.0
G1 X36.4683 Y-99.4851 F12000.0
G1 Z0.0000 F8000.0
G0 X23.0511 Y-100.1030 F15000.0
G1 Z11.9000 F8000.0
G1 X22.1754 Y-100.1030 F12000.0
G1 Z0.0000 F8000.0
G0 X21.8459 Y-99.4851 F15000.0
G1 Z11.9000 F8000.0
G1 X22.7216 Y-99.4851 F12000.0
G1 Z0.0000 F8000.0
G0 X10.7094 Y-130.7223 F15000.0
G1 Z11.9000 F8000.0
G1 X10.7094 Y-131.5980 F12000.0
G1 Z0.0000 F8000.0
G0 X10.0916 Y-131.8864 F15000.0
G1 Z11.9000 F8000.0
G1 X10.0916 Y-131.0107 F12000.0
G1 Z0.0000 F8000.0
G0 X19.8536 Y-166.4188 F15000.0
G1 Z11.9000 F8000.0
G1 X21.0069 Y-167.5721 F12000.0
G1 Z0.0000 F8000.0
G0 X50.0458 Y-163.0259 F15000.0
G1 Z11.9000 F8000.0
G1 X50.0458 Y-162.1503 F12000.0
G1 Z0.0000 F8000.0
G0 X50.6224 Y-161.8619 F15000.0
G1 Z11.9000 F8000.0
G1 X50.6224 Y-162.7376 F12000.0
G1 Z0.0000 F8000.0
G0 X67.2220 Y-167.5721 F15000.0
G1 Z11.9000 F8000.0
G1 X68.7872 Y-167.9016 F12000.0
G1 X70.2700 Y-168.4783 F12000.0
G1 X71.5881 Y-169.3844 F12000.0
G1 X72.7414 Y-170.5378 F12000.0
G1 X73.5652 Y-171.8558 F12000.0
G1 X74.1419 Y-173.3387 F12000.0
G1 X74.3890 Y-174.9039 F12000.0
G1 X74.3066 Y-176.5515 F12000.0
G1 X73.8947 Y-178.1167 F12000.0
G1 X73.2357 Y-179.5172 F12000.0
G1 X72.2471 Y-180.7529 F12000.0
G1 X71.0114 Y-181.8238 F12000.0
G1 X69.6110 Y-182.5652 F12000.0
G1 X68.0458 Y-183.0595 F12000.0
G1 X67.2220 Y-183.1419 F12000.0
G1 X67.3044 Y-183.8009 F12000.0
G1 X68.1282 Y-187.9199 F12000.0
G1 X69.2815 Y-191.8741 F12000.0
G1 X70.7643 Y-195.8284 F12000.0
G1 X72.5767 Y-199.5355 F12000.0
G1 X74.6362 Y-203.1602 F12000.0
G1 X76.9428 Y-206.6201 F12000.0
G1 X77.6018 Y-206.1258 F12000.0
G1 X79.0023 Y-205.3020 F12000.0
G1 X80.5675 Y-204.8901 F12000.0
G1 X82.1327 Y-204.7254 F12000.0
G1 X83.7803 Y-204.9725 F12000.0
G1 X85.2632 Y-205.4668 F12000.0
G1 X86.6636 Y-206.2906 F12000.0
G1 X87.8169 Y-207.3615 F12000.0
G1 X88.8055 Y-208.5972 F12000.0
G1 X89.3822 Y-210.0801 F12000.0
G1 X89.7941 Y-211.6453 F12000.0
G1 X89.7941 Y-213.2105 F12000.0
G1 X89.4645 Y-214.8581 F12000.0
G1 X88.8055 Y-216.2586 F12000.0
G1 X87.8993 Y-217.5766 F12000.0
G1 X88.4760 Y-217.9885 F12000.0
G1 X91.9359 Y-220.2952 F12000.0
G1 X95.6430 Y-222.3547 F12000.0
G1 X99.4325 Y-224.0847 F12000.0
G1 X103.3043 Y-225.4851 F12000.0
G1 X107.3410 Y-226.5560 F12000.0
G1 X111.3776 Y-227.2975 F12000.0
G1 X111.5423 Y-226.8856 F12000.0
G1 X112.0366 Y-225.2380 F12000.0
G1 X112.8604 Y-223.7551 F12000.0
G1 X113.9313 Y-222.5194 F12000.0
G1 X115.2494 Y-221.4485 F12000.0
G1 X116.7323 Y-220.7071 F12000.0
G1 X118.2975 Y-220.2128 F12000.0
G1 X120.0275 Y-220.1304 F12000.0
G1 X121.6751 Y-220.2952 F12000.0
G1 X123.2403 Y-220.7895 F12000.0
G1 X124.7231 Y-221.6133 F12000.0
G1 X126.0412 Y-222.6842 F12000.0
G1 X127.0297 Y-224.0023 F12000.0
G1 X127.8535 Y-225.4851 F12000.0
G1 X128.2654 Y-227.1327 F12000.0
G1 X131.7254 Y-226.3913 F12000.0
G1 X135.7620 Y-225.2380 F12000.0
G1 X139.6339 Y-223.7551 F12000.0
G1 X143.3410 Y-222.0252 F12000.0
G1 X146.9657 Y-219.9657 F12000.0
G1 X150.4256 Y-217.5766 F12000.0
G1 X149.9313 Y-216.9176 F12000.0
G1 X149.1075 Y-215.5171 F12000.0
G1 X148.6956 Y-213.9519 F12000.0
G1 X148.5309 Y-212.3867 F12000.0
G1 X148.7780 Y-210.8215 F12000.0
G1 X149.2723 Y-209.2563 F12000.0
G1 X150.0961 Y-207.9382 F12000.0
G1 X151.1670 Y-206.7025 F12000.0
G1 X152.4027 Y-205.7963 F12000.0
G1 X153.8856 Y-205.1373 F12000.0
G1 X155.4508 Y-204.8078 F12000.0
G1 X157.0984 Y-204.8078 F12000.0
G1 X158.6636 Y-205.0549 F12000.0
G1 X160.0641 Y-205.7139 F12000.0
G1 X161.3821 Y-206.6201 F12000.0
G1 X161.7940 Y-206.0435 F12000.0
G1 X164.1007 Y-202.5835 F12000.0
G1 X166.1602 Y-198.9588 F12000.0
G1 X167.8901 Y-195.1693 F12000.0
G1 X169.2906 Y-191.2151 F12000.0
G1 X170.3615 Y-187.1785 F12000.0
G1 X171.1030 Y-183.1419 F12000.0
G1 X170.2792 Y-183.0595 F12000.0
G1 X168.7139 Y-182.5652 F12000.0
G1 X167.3135 Y-181.8238 F12000.0
G1 X166.0778 Y-180.7529 F12000.0
G1 X165.1716 Y-179.5172 F12000.0
G1 X164.4302 Y-178.1167 F12000.0
G1 X164.0183 Y-176.5515 F12000.0
G1 X163.9359 Y-174.9039 F12000.0
G1 X164.1831 Y-173.3387 F12000.0
G1 X164.7597 Y-171.8558 F12000.0
G1 X165.6659 Y-170.5378 F12000.0
G1 X166.7368 Y-169.3844 F12000.0
G1 X168.0549 Y-168.4783 F12000.0
G1 X169.5377 Y-167.9016 F12000.0
G1 X171.1030 Y-167.5721 F12000.0
G1 X171.0206 Y-166.9130 F12000.0
G1 X170.1968 Y-162.7940 F12000.0
G1 X169.0435 Y-158.8398 F12000.0
G1 X167.5606 Y-154.9680 F12000.0
G1 X165.8307 Y-151.1785 F12000.0
G1 X163.7712 Y-147.5538 F12000.0
G1 X161.3821 Y-144.0938 F12000.0
G1 X160.7231 Y-144.6705 F12000.0
G1 X159.3226 Y-145.4119 F12000.0
G1 X157.7574 Y-145.8238 F12000.0
G1 X156.1922 Y-145.9886 F12000.0
G1 X154.6270 Y-145.8238 F12000.0
G1 X153.0618 Y-145.3295 F12000.0
G1 X151.7437 Y-144.5057 F12000.0
G1 X150.5080 Y-143.4348 F12000.0
G1 X149.6018 Y-142.1167 F12000.0
G1 X148.9428 Y-140.6339 F12000.0
G1 X148.6133 Y-139.0687 F12000.0
G1 X148.6133 Y-137.5034 F12000.0
G1 X148.8604 Y-135.9382 F12000.0
G1 X149.5194 Y-134.4554 F12000.0
G1 X150.4256 Y-133.1373 F12000.0
G1 X149.8490 Y-132.7254 F12000.0
G1 X146.3890 Y-130.4188 F12000.0
G1 X142.7643 Y-128.4417 F12000.0
G1 X138.9748 Y-126.7117 F12000.0
G1 X135.0206 Y-125.3112 F12000.0
G1 X131.0664 Y-124.1579 F12000.0
G1 X126.9474 Y-123.4165 F12000.0
G1 X126.8650 Y-123.9108 F12000.0
G1 X126.3707 Y-125.4760 F12000.0
G1 X125.5469 Y-126.9588 F12000.0
G1 X124.4760 Y-128.1945 F12000.0
G1 X123.1579 Y-129.2654 F12000.0
G1 X121.6751 Y-130.0069 F12000.0
G1 X120.0275 Y-130.5011 F12000.0
G1 X118.3799 Y-130.6659 F12000.0
G1 X116.6499 Y-130.4188 F12000.0
G1 X115.0847 Y-129.9245 F12000.0
G1 X113.6018 Y-129.1007 F12000.0
G1 X112.3661 Y-128.0298 F12000.0
G1 X111.2952 Y-126.7117 F12000.0
G1 X110.5538 Y-125.2288 F12000.0
G1 X110.0595 Y-123.6636 F12000.0
G1 X106.5995 Y-124.3227 F12000.0
G1 X102.6453 Y-125.4760 F12000.0
G1 X98.7735 Y-126.9588 F12000.0
G1 X94.9840 Y-128.7712 F12000.0
G1 X91.3593 Y-130.8307 F12000.0
G1 X87.8993 Y-133.1373 F12000.0
G1 X88.4760 Y-133.7963 F12000.0
G1 X89.2174 Y-135.1968 F12000.0
G1 X89.7117 Y-136.7620 F12000.0
G1 X89.7941 Y-138.3272 F12000.0
G1 X89.6293 Y-139.9748 F12000.0
G1 X89.1350 Y-141.4577 F12000.0
G1 X88.3112 Y-142.8581 F12000.0
G1 X87.2403 Y-144.0114 F12000.0
G1 X85.9222 Y-144.9176 F12000.0
G1 X84.4394 Y-145.5767 F12000.0
G1 X82.8741 Y-145.9886 F12000.0
G1 X81.3089 Y-145.9886 F12000.0
G1 X79.7437 Y-145.6590 F12000.0
G1 X78.2609 Y-145.0000 F12000.0
G1 X76.9428 Y-144.0938 F12000.0
G1 X76.5309 Y-144.6705 F12000.0
G1 X74.2243 Y-148.1304 F12000.0
G1 X72.2471 Y-151.8375 F12000.0
G1 X70.5172 Y-155.6270 F12000.0
G1 X69.1167 Y-159.4989 F12000.0
G1 X67.9634 Y-163.5355 F12000.0
G1 X67.2220 Y-167.5721 F12000.0
G1 Z0.0000 F8000.0
G0 X62.7735 Y-175.3982 F15000.0
G1 Z11.9000 F8000.0
G1 X77.2723 Y-175.3982 F12000.0
G1 Z0.0000 F8000.0
G0 X78.7552 Y-175.3982 F15000.0
G1 Z11.9000 F8000.0
G1 X80.1556 Y-175.3982 F12000.0
G1 Z0.0000 F8000.0
G0 X81.6384 Y-175.3982 F15000.0
G1 Z11.9000 F8000.0
G1 X96.1373 Y-175.3982 F12000.0
G1 Z0.0000 F8000.0
G0 X97.6201 Y-175.3982 F15000.0
G1 Z11.9000 F8000.0
G1 X99.1030 Y-175.3982 F12000.0
G1 Z0.0000 F8000.0
G0 X100.5034 Y-175.3982 F15000.0
G1 Z11.9000 F8000.0
G1 X115.0023 Y-175.3982 F12000.0
G1 Z0.0000 F8000.0
G0 X116.4851 Y-175.3982 F15000.0
G1 Z11.9000 F8000.0
G1 X117.9680 Y-175.3982 F12000.0
G1 Z0.0000 F8000.0
G0 X119.2037 Y-176.1396 F15000.0
G1 Z11.9000 F8000.0
G1 X119.2037 Y-174.6567 F12000.0
G1 Z0.0000 F8000.0
G0 X119.4508 Y-175.3982 F15000.0
G1 Z11.9000 F8000.0
G1 X133.9497 Y-175.3982 F12000.0
G1 Z0.0000 F8000.0
G0 X134.1682 Y-176.6064 F15000.0
G1 Z11.9000 F8000.0
G1 X133.8586 Y-176.9602 F12000.0
G1 Z0.0000 F8000.0
G0 X133.4606 Y-177.5794 F15000.0
G1 Z11.9000 F8000.0
G1 X133.3721 Y-177.9774 F12000.0
G1 X133.1510 Y-178.1101
G1 Z0.0000 F8000.0
G0 X133.4164 Y-177.9774 F15000.0
G1 Z11.9000 F8000.0
G1 X137.4852 Y-176.4737 F12000.0
G1 Z0.0000 F8000.0
G0 X137.4852 Y-177.5352 F15000.0
G1 Z11.9000 F8000.0
G1 X137.5295 Y-177.9332 F12000.0
G1 X137.3525 Y-178.7735
G1 Z0.0000 F8000.0
G0 X137.1756 Y-179.0389 F15000.0
G1 Z11.9000 F8000.0
G1 X136.9987 Y-179.2158 F12000.0
G1 X135.6719 Y-179.7465
G1 X135.0085 Y-178.3755
G1 X133.1510 Y-179.0389
G1 X133.0183 Y-180.6753
G1 Z0.0000 F8000.0
G0 X135.4325 Y-175.3982 F15000.0
G1 Z11.9000 F8000.0
G1 X136.8329 Y-175.3982 F12000.0
G1 Z0.0000 F8000.0
G0 X138.3158 Y-175.3982 F15000.0
G1 Z11.9000 F8000.0
G1 X152.8146 Y-175.3982 F12000.0
G1 Z0.0000 F8000.0
G0 X154.2975 Y-175.3982 F15000.0
G1 Z11.9000 F8000.0
G1 X155.7803 Y-175.3982 F12000.0
G1 Z0.0000 F8000.0
G0 X157.1808 Y-175.3982 F15000.0
G1 Z11.9000 F8000.0
G1 X171.6796 Y-175.3982 F12000.0
G1 Z0.0000 F8000.0
G0 X142.1053 Y-182.2357 F15000.0
G1 Z11.9000 F8000.0
G1 X126.0412 Y-182.2357 F12000.0
G1 X112.2838 Y-182.2357 F12000.0
G1 X112.2838 Y-168.4783 F12000.0
G1 X126.0412 Y-168.4783 F12000.0
G1 X126.0412 Y-182.2357 F12000.0
G1 Z0.0000 F8000.0
G0 X119.2037 Y-177.5400 F15000.0
G1 Z11.9000 F8000.0
G1 X119.2037 Y-191.7094 F12000.0
G1 Z0.0000 F8000.0
G0 X119.2037 Y-193.1098 F15000.0
G1 Z11.9000 F8000.0
G1 X119.2037 Y-194.5927 F12000.0
G1 Z0.0000 F8000.0
G0 X119.2037 Y-196.0755 F15000.0
G1 Z11.9000 F8000.0
G1 X119.2037 Y-210.1625 F12000.0
G1 Z0.0000 F8000.0
G0 X119.2037 Y-211.6453 F15000.0
G1 Z11.9000 F8000.0
G1 X119.2037 Y-213.1281 F12000.0
G1 Z0.0000 F8000.0
G0 X119.2037 Y-214.5286 F15000.0
G1 Z11.9000 F8000.0
G1 X119.2037 Y-228.6979 F12000.0
G1 Z0.0000 F8000.0
G0 X91.2769 Y-214.0343 F15000.0
G1 Z11.9000 F8000.0
G1 X87.8993 Y-217.5766 F12000.0
G1 X72.8238 Y-237.8421 F12000.0
G1 X55.4417 Y-237.8421 F12000.0
G1 Z0.0000 F8000.0
G0 X58.3348 Y-240.4789 F15000.0
G1 Z11.9000 F8000.0
G1 X58.7328 Y-240.9654 F12000.0
G1 Z0.0000 F8000.0
G0 X58.9539 Y-241.3192 F15000.0
G1 Z11.9000 F8000.0
G1 X59.3077 Y-241.8057 F12000.0
G1 Z0.0000 F8000.0
G0 X59.1751 Y-241.4961 F15000.0
G1 Z11.9000 F8000.0
G1 X59.9269 Y-241.5404 F12000.0
G1 X60.5019 Y-241.9384
G1 X60.8115 Y-242.2922
G1 Z0.0000 F8000.0
G0 X60.9441 Y-242.6018 F15000.0
G1 Z11.9000 F8000.0
G1 X60.9884 Y-243.2210 F12000.0
G1 Z0.0000 F8000.0
G0 X60.8999 Y-243.3537 F15000.0
G1 Z11.9000 F8000.0
G1 X60.8115 Y-243.4421 F12000.0
G1 Z0.0000 F8000.0
G0 X60.6346 Y-243.7075 F15000.0
G1 Z11.9000 F8000.0
G1 X61.2537 Y-244.6805 F12000.0
G1 Z0.0000 F8000.0
G0 X60.5019 Y-243.6632 F15000.0
G1 Z11.9000 F8000.0
G1 X60.4576 Y-243.7075 F12000.0
G1 X59.3962 Y-243.4421
G1 Z0.0000 F8000.0
G0 X58.9097 Y-242.9556 F15000.0
G1 Z11.9000 F8000.0
G1 X58.6443 Y-242.3807 F12000.0
G1 X58.8213 Y-241.7173
G1 Z0.0000 F8000.0
G0 X62.0889 Y-240.5542 F15000.0
G1 Z11.9000 F8000.0
G1 X63.5484 Y-244.6231 F12000.0
G1 X63.8138 Y-244.9769
G1 Z0.0000 F8000.0
G0 X63.5042 Y-244.6673 F15000.0
G1 Z11.9000 F8000.0
G1 X63.1946 Y-244.5789 F12000.0
G1 Z0.0000 F8000.0
G0 X62.4427 Y-244.0924 F15000.0
G1 Z11.9000 F8000.0
G1 X62.2658 Y-243.9155 F12000.0
G1 Z0.0000 F8000.0
G0 X63.3715 Y-240.7754 F15000.0
G1 Z11.9000 F8000.0
G1 X63.3715 Y-241.6157 F12000.0
G1 X64.4772 Y-244.4020
G1 X65.0079 Y-244.8885
G1 X66.1578 Y-244.9769
G1 Z0.0000 F8000.0
G0 X66.4674 Y-244.6231 F15000.0
G1 Z11.9000 F8000.0
G1 X65.6713 Y-242.1022 F12000.0
G1 Z0.0000 F8000.0
G0 X65.5386 Y-241.7484 F15000.0
G1 Z11.9000 F8000.0
G1 X65.1848 Y-240.9965 F12000.0
G1 Z0.0000 F8000.0
G0 X64.9636 Y-240.7754 F15000.0
G1 Z11.9000 F8000.0
G1 X64.2560 Y-240.5100 F12000.0
G1 X63.4599 Y-240.6869
G1 Z0.0000 F8000.0
G0 X66.3347 Y-240.7754 F15000.0
G1 Z11.9000 F8000.0
G1 X66.3347 Y-241.6157 F12000.0
G1 X67.4404 Y-244.4020
G1 X67.9711 Y-244.8885
G1 X69.1210 Y-244.9769
G1 Z0.0000 F8000.0
G0 X69.4306 Y-244.6231 F15000.0
G1 Z11.9000 F8000.0
G1 X68.6345 Y-242.1022 F12000.0
G1 Z0.0000 F8000.0
G0 X68.5018 Y-241.7484 F15000.0
G1 Z11.9000 F8000.0
G1 X68.1480 Y-240.9965 F12000.0
G1 Z0.0000 F8000.0
G0 X67.9268 Y-240.7754 F15000.0
G1 Z11.9000 F8000.0
G1 X67.2192 Y-240.5100 F12000.0
G1 X66.4231 Y-240.6869
G1 Z0.0000 F8000.0
G0 X72.8238 Y-222.1075 F15000.0
G1 Z11.9000 F8000.0
G1 X41.6842 Y-222.1075 F12000.0
G1 Z0.0000 F8000.0
G0 X44.2769 Y-224.5724 F15000.0
G1 Z11.9000 F8000.0
G1 X45.0288 Y-226.5184 F12000.0
G1 X45.8249 Y-228.9066
G1 Z0.0000 F8000.0
G0 X45.9133 Y-228.9951 F15000.0
G1 Z11.9000 F8000.0
G1 X47.3728 Y-228.9509 F12000.0
G1 Z0.0000 F8000.0
G0 X47.6824 Y-228.5970 F15000.0
G1 Z11.9000 F8000.0
G1 X47.5497 Y-227.9779 F12000.0
G1 X47.1959 Y-227.0933
G1 X46.6210 Y-226.6511
G1 X45.8691 Y-226.5184
G1 X45.0730 Y-226.5626
G1 Z0.0000 F8000.0
G0 X45.9133 Y-226.4742 F15000.0
G1 Z11.9000 F8000.0
G1 X46.2229 Y-224.6609 F12000.0
G1 Z0.0000 F8000.0
G0 X47.5497 Y-224.7493 F15000.0
G1 Z11.9000 F8000.0
G1 X47.4613 Y-225.3243 F12000.0
G1 X47.8593 Y-226.2088
G1 Z0.0000 F8000.0
G0 X48.2131 Y-226.6068 F15000.0
G1 Z11.9000 F8000.0
G1 X48.4343 Y-226.7837 F12000.0
G1 Z0.0000 F8000.0
G0 X49.8053 Y-226.6511 F15000.0
G1 Z11.9000 F8000.0
G1 X49.6284 Y-226.9607 F12000.0
G1 X48.6554 Y-227.0049
G1 X48.5227 Y-227.2702
G1 X48.6112 Y-227.9779
G1 X48.7439 Y-228.2432
G1 Z0.0000 F8000.0
G0 X48.9208 Y-228.5086 F15000.0
G1 Z11.9000 F8000.0
G1 X49.1861 Y-228.7740 F12000.0
G1 Z0.0000 F8000.0
G0 X49.5399 Y-228.9509 F15000.0
G1 Z11.9000 F8000.0
G1 X50.1591 Y-228.9509 F12000.0
G1 X50.4687 Y-228.2432
G1 X49.8053 Y-227.1376
G1 Z0.0000 F8000.0
G0 X49.8938 Y-226.4742 F15000.0
G1 Z11.9000 F8000.0
G1 X49.5399 Y-225.2358 F12000.0
G1 Z0.0000 F8000.0
G0 X49.4073 Y-224.9704 F15000.0
G1 Z11.9000 F8000.0
G1 X49.3188 Y-224.8820 F12000.0
G1 Z0.0000 F8000.0
G0 X48.8323 Y-224.5724 F15000.0
G1 Z11.9000 F8000.0
G1 X47.7266 Y-224.5724 F12000.0
G1 Z0.0000 F8000.0
G0 X47.2626 Y-221.0949 F15000.0
G1 Z11.9000 F8000.0
G1 X46.5992 Y-221.1392 F12000.0
G1 Z0.0000 F8000.0
G0 X47.4395 Y-220.8738 F15000.0
G1 Z11.9000 F8000.0
G1 X47.5279 Y-220.7854 F12000.0
G1 X47.2184 Y-219.7239
G1 Z0.0000 F8000.0
G0 X47.0414 Y-219.5028 F15000.0
G1 Z11.9000 F8000.0
G1 X46.7761 Y-219.2816 F12000.0
G1 Z0.0000 F8000.0
G0 X45.7589 Y-220.4315 F15000.0
G1 Z11.9000 F8000.0
G1 X45.5377 Y-219.8124 F12000.0
G1 X45.5377 Y-219.5028
G1 X45.6704 Y-219.1932
G1 X46.6434 Y-219.1490
G1 X46.9088 Y-218.7067
G1 X46.5992 Y-217.4683
G1 Z0.0000 F8000.0
G0 X46.4665 Y-217.2030 F15000.0
G1 Z11.9000 F8000.0
G1 X46.0685 Y-216.8492 F12000.0
G1 Z0.0000 F8000.0
G0 X45.8915 Y-216.7607 F15000.0
G1 Z11.9000 F8000.0
G1 X44.7859 Y-216.7607 F12000.0
G1 Z0.0000 F8000.0
G0 X44.6532 Y-216.8492 F15000.0
G1 Z11.9000 F8000.0
G1 X44.5647 Y-217.6895 F12000.0
G1 X44.8743 Y-218.3971
G1 Z0.0000 F8000.0
G0 X45.0955 Y-218.6625 F15000.0
G1 Z11.9000 F8000.0
G1 X45.2281 Y-218.7951 F12000.0
G1 Z0.0000 F8000.0
G0 X49.1901 Y-216.6534 F15000.0
G1 Z11.9000 F8000.0
G1 X50.6939 Y-216.8303 F12000.0
G1 X50.8708 Y-216.9630
G1 X51.5784 Y-218.6878
G1 Z0.0000 F8000.0
G0 X51.7995 Y-219.2628 F15000.0
G1 Z11.9000 F8000.0
G1 X51.8437 Y-219.4839 F12000.0
G1 X50.2516 Y-219.7493
G1 X48.7036 Y-215.5919
G1 Z0.0000 F8000.0
G0 X51.8787 Y-217.1849 F15000.0
G1 Z11.9000 F8000.0
G1 X53.0286 Y-216.6984 F12000.0
G1 X53.5594 Y-216.8753
G1 X53.6920 Y-217.2733
G1 Z0.0000 F8000.0
G0 X53.8690 Y-217.7598 F15000.0
G1 Z11.9000 F8000.0
G1 X54.1785 Y-218.7328 F12000.0
G1 Z0.0000 F8000.0
G0 X54.3555 Y-219.2193 F15000.0
G1 Z11.9000 F8000.0
G1 X54.4439 Y-219.7942 F12000.0
G1 X52.9402 Y-219.6173
G1 Z0.0000 F8000.0
G0 X52.7633 Y-219.4846 F15000.0
G1 Z11.9000 F8000.0
G1 X51.9672 Y-217.4060 F12000.0
G1 Z0.0000 F8000.0
G0 X54.4556 Y-217.1860 F15000.0
G1 Z11.9000 F8000.0
G1 X55.5612 Y-216.6995 F12000.0
G1 X55.9151 Y-216.8765
G1 Z0.0000 F8000.0
G0 X56.0477 Y-216.9649 F15000.0
G1 Z11.9000 F8000.0
G1 X56.9765 Y-219.3532 F12000.0
G1 X57.0207 Y-219.8397
G1 X55.4286 Y-219.5301
G1 Z0.0000 F8000.0
G0 X55.2959 Y-219.3974 F15000.0
G1 Z11.9000 F8000.0
G1 X54.6767 Y-217.7610 F12000.0
G1 Z0.0000 F8000.0
G0 X57.0717 Y-216.8294 F15000.0
G1 Z11.9000 F8000.0
G1 X58.0005 Y-219.8368 F12000.0
G1 Z0.0000 F8000.0
G0 X57.2419 Y-220.1935 F15000.0
G1 Z11.9000 F8000.0
G1 X57.3745 Y-221.0780 F12000.0
G1 X56.0035 Y-221.2107
G1 Z0.0000 F8000.0
G0 X59.6811 Y-219.6599 F15000.0
G1 Z11.9000 F8000.0
G1 X59.6369 Y-219.5272 F12000.0
G1 Z0.0000 F8000.0
G0 X60.4136 Y-219.3962 F15000.0
G1 Z11.9000 F8000.0
G1 X60.4578 Y-219.5289 F12000.0
G1 Z0.0000 F8000.0
G0 X60.2367 Y-218.9098 F15000.0
G1 Z11.9000 F8000.0
G1 X60.1482 Y-218.6444 F12000.0
G1 Z0.0000 F8000.0
G0 X59.9713 Y-218.1579 F15000.0
G1 Z11.9000 F8000.0
G1 X59.8829 Y-217.8925 F12000.0
G1 Z0.0000 F8000.0
G0 X59.7502 Y-217.5387 F15000.0
G1 Z11.9000 F8000.0
G1 X59.5733 Y-216.9195 F12000.0
G1 Z0.0000 F8000.0
G0 X59.7502 Y-216.7426 F15000.0
G1 Z11.9000 F8000.0
G1 X60.9886 Y-216.6542 F12000.0
G1 Z0.0000 F8000.0
G0 X62.2205 Y-216.8202 F15000.0
G1 Z11.9000 F8000.0
G1 X62.3089 Y-217.5279 F12000.0
G1 X63.0608 Y-219.4738
G1 X63.2377 Y-219.6065
G1 X64.7856 Y-219.8277
G1 Z0.0000 F8000.0
G0 X65.6351 Y-219.4839 F15000.0
G1 Z11.9000 F8000.0
G1 X64.8391 Y-217.4052 F12000.0
G1 Z0.0000 F8000.0
G0 X64.7506 Y-217.1841 F15000.0
G1 Z11.9000 F8000.0
G1 X65.9005 Y-216.6976 F12000.0
G1 X66.2543 Y-216.8745
G1 Z0.0000 F8000.0
G0 X66.4754 Y-217.1841 F15000.0
G1 Z11.9000 F8000.0
G1 X67.2715 Y-219.5724 F12000.0
G1 X67.1831 Y-219.7050
G1 X66.9177 Y-219.8377
G1 X65.8120 Y-219.6166
G1 Z0.0000 F8000.0
G0 X68.1235 Y-219.4125 F15000.0
G1 Z11.9000 F8000.0
G1 X67.4159 Y-217.4223 F12000.0
G1 Z0.0000 F8000.0
G0 X67.3274 Y-217.2012 F15000.0
G1 Z11.9000 F8000.0
G1 X68.4331 Y-216.6704 F12000.0
G1 X68.8311 Y-216.8916
G1 X69.0965 Y-217.3338
G1 X69.8483 Y-219.5010
G1 X69.7599 Y-219.6779
G1 X68.9638 Y-219.8548
G1 X69.0523 Y-220.0759
G1 X69.4061 Y-220.3855
G1 X69.6714 Y-220.9604
G1 X69.1849 Y-221.1816
G1 Z0.0000 F8000.0
G0 X68.9196 Y-221.0489 F15000.0
G1 Z11.9000 F8000.0
G1 X68.7427 Y-220.9162 F12000.0
G1 X68.3446 Y-219.8106
G1 X68.9196 Y-219.8548
G1 Z0.0000 F8000.0
G0 X72.8238 Y-222.1075 F15000.0
G1 Z11.9000 F8000.0
G1 X87.4050 Y-206.9496 F12000.0
G1 X83.6156 Y-209.9977 F12000.0
G1 X84.3570 Y-210.0801 F12000.0
G1 X84.5217 Y-210.8215 F12000.0
G1 X87.4050 Y-206.9496 F12000.0
G1 Z0.0000 F8000.0
G0 X85.8097 Y-208.2155 F15000.0
G1 Z11.9000 F8000.0
G1 X85.1286 Y-208.8966 F12000.0
G1 Z0.0000 F8000.0
G0 X85.5103 Y-209.0091 F15000.0
G1 Z11.9000 F8000.0
G1 X91.4417 Y-203.1602 F12000.0
G1 Z0.0000 F8000.0
G0 X86.0980 Y-208.7098 F15000.0
G1 Z11.9000 F8000.0
G1 X85.4169 Y-209.3909 F12000.0
G1 Z0.0000 F8000.0
G0 X84.5217 Y-210.0801 F15000.0
G1 Z11.9000 F8000.0
G1 X83.4508 Y-211.0686 F12000.0
G1 Z0.0000 F8000.0
G0 X82.4622 Y-212.1396 F15000.0
G1 Z11.9000 F8000.0
G1 X76.5309 Y-217.9885 F12000.0
G1 Z0.0000 F8000.0
G0 X87.8993 Y-217.5766 F15000.0
G1 Z11.9000 F8000.0
G1 X90.2883 Y-213.2929 F12000.0
G1 X90.4531 Y-214.0343 F12000.0
G1 X91.2769 Y-214.0343 F12000.0
G1 Z0.0000 F8000.0
G0 X90.0522 Y-215.3414 F15000.0
G1 Z11.9000 F8000.0
G1 X89.3711 Y-216.0225 F12000.0
G1 Z0.0000 F8000.0
G0 X89.2586 Y-215.8314 F15000.0
G1 Z11.9000 F8000.0
G1 X89.2586 Y-214.9557 F12000.0
G1 Z0.0000 F8000.0
G0 X87.8993 Y-217.5766 F15000.0
G1 Z11.9000 F8000.0
G1 X150.5080 Y-133.1373 F12000.0
G1 X147.0480 Y-136.6796 F12000.0
G1 X147.8718 Y-136.6796 F12000.0
G1 X148.1190 Y-137.5034 F12000.0
G1 X150.5080 Y-133.1373 F12000.0
G1 Z0.0000 F8000.0
G0 X149.4481 Y-135.1446 F15000.0
G1 Z11.9000 F8000.0
G1 X148.7670 Y-135.8257 F12000.0
G1 Z0.0000 F8000.0
G0 X154.7918 Y-139.7277 F15000.0
G1 Z11.9000 F8000.0
G1 X146.9657 Y-147.6362 F12000.0
G1 Z0.0000 F8000.0
G0 X155.7803 Y-138.7391 F15000.0
G1 Z11.9000 F8000.0
G1 X156.8512 Y-137.6682 F12000.0
G1 Z0.0000 F8000.0
G0 X157.8398 Y-136.6796 F15000.0
G1 Z11.9000 F8000.0
G1 X165.7483 Y-128.8536 F12000.0
G1 Z0.0000 F8000.0
G0 X142.1053 Y-168.4783 F15000.0
G1 Z11.9000 F8000.0
G1 X126.0412 Y-168.4783 F12000.0
G1 Z0.0000 F8000.0
G0 X132.7963 Y-169.3021 F15000.0
G1 Z11.9000 F8000.0
G1 X137.6567 Y-169.3021 F12000.0
G1 X137.6567 Y-174.1625 F12000.0
G1 X132.7963 Y-174.1625 F12000.0
G1 X132.7963 Y-169.3021 F12000.0
G1 Z0.0000 F8000.0
G0 X139.8810 Y-170.8413 F15000.0
G1 Z11.9000 F8000.0
G1 X139.8810 Y-171.7170 F12000.0
G1 Z0.0000 F8000.0
G0 X140.4577 Y-171.3875 F15000.0
G1 Z11.9000 F8000.0
G1 X140.4577 Y-170.5118 F12000.0
G1 Z0.0000 F8000.0
G0 X140.1281 Y-168.4783 F15000.0
G1 Z11.9000 F8000.0
G1 X139.5515 Y-173.3387 F12000.0
G1 X140.1281 Y-172.8444 F12000.0
G1 X140.7872 Y-173.3387 F12000.0
G1 X140.1281 Y-168.4783 F12000.0
G1 X140.1281 Y-182.2357 F12000.0
G1 X140.7872 Y-177.3753 F12000.0
G1 X140.1281 Y-177.8696 F12000.0
G1 X139.5515 Y-177.3753 F12000.0
G1 X140.1281 Y-182.2357 F12000.0
G1 Z0.0000 F8000.0
G0 X140.4577 Y-180.2845 F15000.0
G1 Z11.9000 F8000.0
G1 X140.4577 Y-179.4088 F12000.0
G1 Z0.0000 F8000.0
G0 X139.8810 Y-179.0793 F15000.0
G1 Z11.9000 F8000.0
G1 X139.8810 Y-179.9550 F12000.0
G1 Z0.0000 F8000.0
G0 X119.2037 Y-173.1739 F15000.0
G1 Z11.9000 F8000.0
G1 X119.2037 Y-159.0870 F12000.0
G1 Z0.0000 F8000.0
G0 X119.2037 Y-157.6041 F15000.0
G1 Z11.9000 F8000.0
G1 X119.2037 Y-156.1213 F12000.0
G1 Z0.0000 F8000.0
G0 X119.2037 Y-154.7208 F15000.0
G1 Z11.9000 F8000.0
G1 X119.2037 Y-140.5515 F12000.0
G1 Z0.0000 F8000.0
G0 X119.2037 Y-139.0687 F15000.0
G1 Z11.9000 F8000.0
G1 X119.2037 Y-137.6682 F12000.0
G1 Z0.0000 F8000.0
G0 X119.2037 Y-136.1854 F15000.0
G1 Z11.9000 F8000.0
G1 X119.2037 Y-122.0984 F12000.0
G1 Z0.0000 F8000.0
G0 X91.4417 Y-147.6362 F15000.0
G1 Z11.9000 F8000.0
G1 X85.5103 Y-141.7048 F12000.0
G1 Z0.0000 F8000.0
G0 X84.5217 Y-140.7162 F15000.0
G1 Z11.9000 F8000.0
G1 X83.4508 Y-139.6453 F12000.0
G1 Z0.0000 F8000.0
G0 X82.4622 Y-138.5744 F15000.0
G1 Z11.9000 F8000.0
G1 X76.5309 Y-132.7254 F12000.0
G1 Z0.0000 F8000.0
G0 X50.0458 Y-187.8528 F15000.0
G1 Z11.9000 F8000.0
G1 X50.0458 Y-188.7285 F12000.0
G1 Z0.0000 F8000.0
G0 X50.6224 Y-189.0168 F15000.0
G1 Z11.9000 F8000.0
G1 X50.6224 Y-188.1411 F12000.0
G1 Z0.0000 F8000.0
G0 X33.4462 Y-209.0091 F15000.0
G1 Z11.9000 F8000.0
G1 X20.4302 Y-222.1075 F12000.0
G1 X19.8536 Y-221.4485 F12000.0
G1 Z0.0000 F8000.0
G0 X10.7094 Y-220.1564 F15000.0
G1 Z11.9000 F8000.0
G1 X10.7094 Y-219.2807 F12000.0
G1 Z0.0000 F8000.0
G0 X10.0916 Y-218.9923 F15000.0
G1 Z11.9000 F8000.0
G1 X10.0916 Y-219.8680 F12000.0
G1 Z0.0000 F8000.0
G0 X57.1602 Y-216.7409 F15000.0
G1 Z11.9000 F8000.0
G1 X58.5312 Y-216.6967 F12000.0
G1 Z0.0000 F8000.0
G0 X58.6197 Y-216.7851 F15000.0
G1 Z11.9000 F8000.0
G1 X59.0619 Y-217.9793 F12000.0
G1 Z0.0000 F8000.0
G0 X59.1946 Y-218.3331 F15000.0
G1 Z11.9000 F8000.0
G1 X59.2388 Y-218.4657 F12000.0
G1 Z0.0000 F8000.0
G0 X59.2195 Y-215.3274 F15000.0
G1 Z11.9000 F8000.0
G1 X61.0328 Y-216.6100 F12000.0
G1 X62.2711 Y-219.7058
G1 Z0.0000 F8000.0
G0 X62.3089 Y-216.7318 F15000.0
G1 Z11.9000 F8000.0
G1 X63.8126 Y-216.7318 F12000.0
G1 Z0.0000 F8000.0
G0 X68.1282 Y-271.0412 F15000.0
G1 Z11.9000 F8000.0
G1 X0.0000 Y-271.0412 F12000.0
G1 Z0.0000 F8000.0
G0 X11.2792 Y-276.3288 F15000.0
G1 Z11.9000 F8000.0
G1 X11.2792 Y-279.9288 F12000.0
G1 Z0.0000 F8000.0
G0 X11.3279 Y-280.0261 F15000.0
G1 Z11.9000 F8000.0
G1 X11.4335 Y-280.0442 F12000.0
G1 X12.9501 Y-276.7575
G1 X13.2216 Y-276.5556
G1 X13.4206 Y-276.6544
G1 X14.7111 Y-279.9216
G1 X14.9571 Y-280.0355
G1 X15.1712 Y-276.2801
G1 Z0.0000 F8000.0
G0 X13.3712 Y-276.6207 F15000.0
G1 Z11.9000 F8000.0
G1 X13.2219 Y-276.4800 F12000.0
G1 X13.2252 Y-276.3288
G1 Z0.0000 F8000.0
G0 X14.6360 Y-279.8802 F15000.0
G1 Z11.9000 F8000.0
G1 X14.8306 Y-280.0261 F12000.0
G1 Z0.0000 F8000.0
G0 X16.4361 Y-279.1018 F15000.0
G1 Z11.9000 F8000.0
G1 X16.5646 Y-277.9683 F12000.0
G1 X16.8771 Y-277.5891
G1 X17.2180 Y-277.4683
G1 X18.5643 Y-277.6021
G1 X18.6241 Y-277.4172
G1 X18.6253 Y-276.2801
G1 Z0.0000 F8000.0
G0 X18.6253 Y-277.6423 F15000.0
G1 Z11.9000 F8000.0
G1 X18.6253 Y-279.1018 F12000.0
G1 Z0.0000 F8000.0
G0 X20.1334 Y-279.6856 F15000.0
G1 Z11.9000 F8000.0
G1 X20.5461 Y-280.2875 F12000.0
G1 X20.1253 Y-279.5723
G1 X19.9550 Y-278.0655
G1 X20.2119 Y-276.8389
G1 X20.3328 Y-276.6258
G1 X20.9315 Y-276.2184
G1 X21.8938 Y-276.4589
G1 X22.2054 Y-276.8856
G1 X22.4036 Y-277.6126
G1 X22.1296 Y-279.8682
G1 X21.9222 Y-280.2128
G1 X21.6406 Y-280.3902
G1 X20.8951 Y-280.4479
G1 X20.6686 Y-280.3667
G1 Z0.0000 F8000.0
G0 X23.7822 Y-279.6856 F15000.0
G1 Z11.9000 F8000.0
G1 X24.0389 Y-280.1135 F12000.0
G1 X24.5473 Y-280.4470
G1 X25.2916 Y-280.3891
G1 X25.5725 Y-280.2117
G1 X25.7438 Y-279.9776
G1 X26.0535 Y-277.6097
G1 X25.9050 Y-277.0008
G1 X25.6662 Y-276.5416
G1 X25.8185 Y-276.8034
G1 X25.4001 Y-276.3359
G1 X24.6625 Y-276.2089
G1 X24.4409 Y-276.2786
G1 X23.9887 Y-276.6190
G1 X23.8035 Y-276.9919
G1 X23.6076 Y-278.1046
G1 X23.7835 Y-279.6095
G1 X24.1822 Y-280.2423
G1 X24.4633 Y-280.4640
G1 Z0.0000 F8000.0
G0 X23.9768 Y-276.5720 F15000.0
G1 Z11.9000 F8000.0
G1 X24.4633 Y-276.2315 F12000.0
G1 Z0.0000 F8000.0
G0 X21.9821 Y-276.5234 F15000.0
G1 Z11.9000 F8000.0
G1 X21.6995 Y-276.3277 F12000.0
G1 X20.8237 Y-276.2503
G1 X20.5998 Y-276.3342
G1 X20.3280 Y-276.5720
G1 Z0.0000 F8000.0
G0 X29.6201 Y-276.3774 F15000.0
G1 Z11.9000 F8000.0
G1 X29.2709 Y-276.9337 F12000.0
G1 X29.6757 Y-276.4331
G1 X30.6490 Y-276.2101
G1 X31.0866 Y-276.3694
G1 X31.4031 Y-276.7768
G1 X31.6321 Y-277.6157
G1 X31.3606 Y-278.4321
G1 X30.4835 Y-278.8779
G1 X29.4483 Y-278.7223
G1 X31.4688 Y-280.4153
G1 Z0.0000 F8000.0
G0 X32.9283 Y-279.7829 F15000.0
G1 Z11.9000 F8000.0
G1 X33.2655 Y-280.2580 F12000.0
G1 X33.1391 Y-280.1397
G1 X33.2370 Y-280.1826
G1 X33.0465 Y-279.9571
G1 X33.5932 Y-280.4164
G1 X34.0876 Y-280.4949
G1 X34.6857 Y-280.3517
G1 X34.8576 Y-280.1995
G1 X35.1799 Y-279.1364
G1 X34.8737 Y-278.5393
G1 X35.0071 Y-278.7134
G1 X34.2813 Y-277.8905
G1 X34.7069 Y-278.3200
G1 X33.5451 Y-277.2558
G1 Z0.0000 F8000.0
G0 X34.1243 Y-277.7468 F15000.0
G1 Z11.9000 F8000.0
G1 X33.3876 Y-277.1201 F12000.0
G1 X33.6562 Y-277.3649
G1 X33.1540 Y-276.8753
G1 X32.9824 Y-276.4146
G1 X32.8168 Y-276.2023
G1 X35.2148 Y-276.2315
G1 Z0.0000 F8000.0
G0 X38.7176 Y-276.5720 F15000.0
G1 Z11.9000 F8000.0
G1 X38.9894 Y-276.3342 F12000.0
G1 X39.2128 Y-276.2536
G1 X40.2924 Y-276.4346
G1 X40.4203 Y-276.5720
G1 Z0.0000 F8000.0
G0 X42.5122 Y-276.4261 F15000.0
G1 Z11.9000 F8000.0
G1 X42.9400 Y-276.2477 F12000.0
G1 X43.8132 Y-276.3449
G1 X43.9580 Y-276.4505
G1 X43.6214 Y-276.3031
G1 X42.8894 Y-276.2391
G1 X42.3778 Y-276.5916
G1 X42.1610 Y-277.0394
G1 X41.9919 Y-278.0315
G1 X42.2229 Y-279.7797
G1 X42.3961 Y-280.0904
G1 X42.7697 Y-280.4074
G1 X43.6308 Y-280.4026
G1 X44.1204 Y-280.0269
G1 X44.4419 Y-277.6631
G1 X44.3156 Y-277.0498
G1 X44.0581 Y-276.5458
G1 X44.3123 Y-277.0099
G1 Z0.0000 F8000.0
G0 X47.9123 Y-276.5720 F15000.0
G1 Z11.9000 F8000.0
G1 X48.1841 Y-276.3342 F12000.0
G1 X48.4073 Y-276.2550
G1 X49.3943 Y-276.4414
G1 X49.6151 Y-276.5720
G1 Z0.0000 F8000.0
G0 X51.6583 Y-276.3774 F15000.0
G1 Z11.9000 F8000.0
G1 X51.3091 Y-276.9337 F12000.0
G1 X51.7140 Y-276.4331
G1 X52.6872 Y-276.2101
G1 X53.1248 Y-276.3694
G1 X53.4414 Y-276.7768
G1 X53.6704 Y-277.6157
G1 X53.3988 Y-278.4321
G1 X52.5218 Y-278.8779
G1 X51.4866 Y-278.7223
G1 X53.5070 Y-280.4153
G1 Z0.0000 F8000.0
G0 X48.3988 Y-280.4640 F15000.0
G1 Z11.9000 F8000.0
G1 X49.2664 Y-280.3688 F12000.0
G1 X49.5926 Y-280.1199
G1 X49.6983 Y-279.9428
G1 X49.9831 Y-277.5649
G1 X49.7144 Y-276.7280
G1 X49.3248 Y-276.3052
G1 X48.4706 Y-276.2283
G1 X47.9187 Y-276.6229
G1 X47.7741 Y-276.8867
G1 X47.5376 Y-277.9933
G1 X47.6985 Y-279.5010
G1 X47.8317 Y-279.8432
G1 X48.3233 Y-280.4123
G1 X47.9072 Y-280.0356
G1 X47.7177 Y-279.6856
G1 Z0.0000 F8000.0
G0 X39.0581 Y-280.3667 F15000.0
G1 Z11.9000 F8000.0
G1 X39.2846 Y-280.4479 F12000.0
G1 X40.0301 Y-280.3902
G1 X40.3117 Y-280.2128
G1 X40.5191 Y-279.8682
G1 X40.7931 Y-277.6126
G1 X40.5422 Y-276.7712
G1 X40.1958 Y-276.3299
G1 X39.3168 Y-276.2137
G1 X38.7219 Y-276.6264
G1 X38.5988 Y-276.8439
G1 X38.3420 Y-277.9460
G1 X38.5510 Y-279.6955
G1 X38.9934 Y-280.3107
G1 X38.5230 Y-279.6856
G1 Z0.0000 F8000.0
G0 X68.1282 Y-284.6338 F15000.0
G1 Z11.9000 F8000.0
G1 X68.1282 Y-271.0412 F12000.0
G1 Z0.0000 F8000.0
G0 X146.9657 Y-203.1602 F15000.0
G1 Z11.9000 F8000.0
G1 X152.8146 Y-209.0091 F12000.0
G1 Z0.0000 F8000.0
G0 X153.8856 Y-210.0801 F15000.0
G1 Z11.9000 F8000.0
G1 X154.8741 Y-211.0686 F12000.0
G1 Z0.0000 F8000.0
G0 X155.9451 Y-212.1396 F15000.0
G1 Z11.9000 F8000.0
G1 X161.7940 Y-217.9885 F12000.0
G1 Z0.0000 F8000.0
G0 X180.0000 Y-58.9131 F15000.0
G1 Z11.9000 F8000.0
G1 X0.0000 Y-58.9131 F12000.0
G1 Z0.0000 F8000.0
G0 X0.0000 Y-10.2266 F15000.0
G1 Z11.9000 F8000.0
G1 X63.2677 Y-10.2266 F12000.0
G1 Z0.0000 F8000.0
G0 X63.2677 Y-15.0870 F15000.0
G1 Z11.9000 F8000.0
G1 X0.0000 Y-15.0870 F12000.0
G1 Z0.0000 F8000.0
G0 X0.8804 Y-14.3918 F15000.0
G1 Z11.9000 F8000.0
G1 X0.8804 Y-12.5481 F12000.0
G1 X0.9349 Y-13.4792
G1 X2.2523 Y-13.5090
G1 X2.3362 Y-14.2929
G1 X2.3399 Y-12.3971
G1 Z0.0000 F8000.0
G0 X1.6976 Y-11.5119 F15000.0
G1 Z11.9000 F8000.0
G1 X2.3541 Y-10.4452 F12000.0
G1 X2.6934 Y-10.5286
G1 X2.5338 Y-10.3534
G1 X2.7057 Y-10.5165
G1 X2.6180 Y-10.3647
G1 Z0.0000 F8000.0
G0 X3.1495 Y-11.3979 F15000.0
G1 Z11.9000 F8000.0
G1 X2.2465 Y-9.6252 F12000.0
G1 X1.9708 Y-9.5745
G1 X2.7968 Y-10.5750
G1 X3.4736 Y-10.8999
G1 X4.5593 Y-10.9767
G1 X4.1650 Y-10.9163
G1 X4.2436 Y-9.6863
G1 X5.2698 Y-10.3262
G1 X5.8956 Y-10.3001
G1 X6.2002 Y-10.1560
G1 X6.1367 Y-10.7353
G1 X6.2159 Y-9.7344
G1 X5.8958 Y-9.6287
G1 X5.3379 Y-10.1214
G1 X5.2411 Y-10.3096
G1 X5.9788 Y-10.9767
G1 Z0.0000 F8000.0
G0 X3.9940 Y-12.3971 F15000.0
G1 Z11.9000 F8000.0
G1 X4.0185 Y-13.0138 F12000.0
G1 X4.5122 Y-13.3358
G1 X4.8697 Y-13.8080
G1 Z0.0000 F8000.0
G0 X3.9940 Y-13.7593 F15000.0
G1 Z11.9000 F8000.0
G1 X4.0688 Y-13.1917 F12000.0
G1 X4.5320 Y-12.9236
G1 X4.4475 Y-13.1616
G1 X4.4462 Y-13.0537
G1 X4.8419 Y-12.4773
G1 X5.3742 Y-12.8527
G1 X5.4642 Y-13.4566
G1 X5.7231 Y-13.7626
G1 X5.6613 Y-13.7138
G1 X6.0546 Y-13.8066
G1 X6.3885 Y-13.6940
G1 X6.4976 Y-13.5011
G1 X6.5914 Y-12.7606
G1 X6.4655 Y-12.5662
G1 X6.0061 Y-12.3867
G1 X5.7840 Y-12.4346
G1 X5.4501 Y-12.7348
G1 X5.6066 Y-12.5057
G1 X5.7943 Y-12.4117
G1 X7.1476 Y-12.4311
G1 X7.2049 Y-13.6758
G1 X7.2495 Y-13.1636
G1 X8.1852 Y-13.0414
G1 X8.2694 Y-12.5023
G1 X8.3082 Y-13.7027
G1 X8.7533 Y-13.7983
G1 X9.9293 Y-13.8080
G1 Z0.0000 F8000.0
G0 X9.3455 Y-13.8080 F15000.0
G1 Z11.9000 F8000.0
G1 X9.4267 Y-12.4567 F12000.0
G1 X10.5015 Y-12.5258
G1 X11.2125 Y-12.4151
G1 X11.5085 Y-12.6368
G1 X11.6087 Y-12.8475
G1 X11.5147 Y-13.5858
G1 X11.2233 Y-13.7401
G1 X10.6242 Y-13.6397
G1 X10.4828 Y-12.8160
G1 X10.5400 Y-11.8412
G1 X11.5347 Y-12.6404
G1 Z0.0000 F8000.0
G0 X16.5584 Y-5.3662 F15000.0
G1 Z11.9000 F8000.0
G1 X16.5584 Y-58.9131 F12000.0
G1 Z0.0000 F8000.0
G0 X6.8375 Y-58.9131 F15000.0
G1 Z11.9000 F8000.0
G1 X6.8375 Y-34.6110 F12000.0
G1 Z0.0000 F8000.0
G0 X7.0322 Y-33.7740 F15000.0
G1 Z11.9000 F8000.0
G1 X6.9835 Y-33.6767 F12000.0
G1 Z0.0000 F8000.0
G0 X6.0105 Y-33.6281 F15000.0
G1 Z11.9000 F8000.0
G1 X6.6090 Y-33.4656 F12000.0
G1 X6.9537 Y-33.6738
G1 X7.0534 Y-33.8835
G1 X6.9541 Y-34.6183
G1 X6.7913 Y-34.7864
G1 X6.3112 Y-34.7830
G1 X6.0347 Y-34.5866
G1 X5.9619 Y-32.8497
G1 Z0.0000 F8000.0
G0 X4.5997 Y-33.4821 F15000.0
G1 Z11.9000 F8000.0
G1 X4.9537 Y-33.5084 F12000.0
G1 X5.2593 Y-33.6790
G1 X5.1374 Y-34.0914
G1 X4.9895 Y-34.1613
G1 X5.1659 Y-34.2345
G1 X5.2064 Y-34.6867
G1 X4.9093 Y-34.8190
G1 X4.6829 Y-34.7871
G1 X4.5024 Y-34.6011
G1 Z0.0000 F8000.0
G0 X3.7240 Y-34.7957 F15000.0
G1 Z11.9000 F8000.0
G1 X3.8463 Y-34.3069 F12000.0
G1 X3.8469 Y-33.5404
G1 X3.5339 Y-33.6381
G1 X3.1633 Y-34.0785
G1 X3.7874 Y-34.1648
G1 X3.9082 Y-33.5007
G1 X3.0396 Y-33.4782
G1 X2.9063 Y-33.9705
G1 X3.0307 Y-34.0547
G1 X2.8451 Y-33.6594
G1 X2.9294 Y-34.5656
G1 X3.6267 Y-34.8443
G1 Z0.0000 F8000.0
G0 X2.3132 Y-34.7470 F15000.0
G1 Z11.9000 F8000.0
G1 X2.2216 Y-35.1175 F12000.0
G1 X1.0302 Y-35.3861
G1 X0.9447 Y-35.2305
G1 X0.9053 Y-33.5713
G1 X1.0077 Y-34.3380
G1 X2.2645 Y-34.6497
G1 Z0.0000 F8000.0
G0 X0.0000 Y-34.6110 F15000.0
G1 Z11.9000 F8000.0
G1 X63.2677 Y-34.6110 F12000.0
G1 Z0.0000 F8000.0
G0 X61.3329 Y-36.7023 F15000.0
G1 Z11.9000 F8000.0
G1 X61.2824 Y-36.6252 F12000.0
G1 X60.9984 Y-36.5812
G1 X61.0648 Y-36.6541
G1 Z0.0000 F8000.0
G0 X61.2816 Y-37.3549 F15000.0
G1 Z11.9000 F8000.0
G1 X61.3474 Y-36.6094 F12000.0
G1 X60.3198 Y-36.5687
G1 X60.1327 Y-36.8465
G1 X60.3872 Y-37.2479
G1 X61.2813 Y-37.5499
G1 X61.2491 Y-37.8853
G1 X60.9553 Y-38.0884
G1 X60.4653 Y-38.0569
G1 X60.2930 Y-37.9560
G1 X60.3350 Y-38.0163
G1 Z0.0000 F8000.0
G0 X59.6540 Y-38.0650 F15000.0
G1 Z11.9000 F8000.0
G1 X58.6492 Y-38.0623 F12000.0
G1 X58.4294 Y-37.9866
G1 X57.9675 Y-37.4165
G1 X57.9578 Y-36.6936
G1 X57.1985 Y-36.5360
G1 X56.9629 Y-36.5688
G1 X56.7759 Y-36.8465
G1 X57.1354 Y-37.3017
G1 X57.8557 Y-37.4793
G1 X57.9366 Y-37.7767
G1 X57.8111 Y-37.9723
G1 X57.5985 Y-38.0884
G1 X57.1085 Y-38.0569
G1 X56.9361 Y-37.9560
G1 X56.9782 Y-38.0163
G1 Z0.0000 F8000.0
G0 X59.0215 Y-38.0650 F15000.0
G1 Z11.9000 F8000.0
G1 X59.0702 Y-36.6055 F12000.0
G1 Z0.0000 F8000.0
G0 X54.8377 Y-38.7461 F15000.0
G1 Z11.9000 F8000.0
G1 X55.8761 Y-38.6868 F12000.0
G1 X55.9716 Y-36.6351
G1 X56.1225 Y-36.5474
G1 X56.1820 Y-36.1239
G1 X55.8424 Y-36.5848
G1 X54.6102 Y-36.6260
G1 X54.3136 Y-36.1157
G1 X54.3171 Y-36.4289
G1 X54.5878 Y-36.7915
G1 X54.6894 Y-37.1528
G1 X54.7890 Y-38.6488
G1 Z0.0000 F8000.0
G0 X49.2865 Y-36.9298 F15000.0
G1 Z11.9000 F8000.0
G1 X49.2072 Y-38.2124 F12000.0
G1 X48.2633 Y-36.9441
G1 X47.7139 Y-36.5114
G1 X47.5586 Y-36.8775
G1 X46.5107 Y-36.9283
G1 X47.3807 Y-36.9077
G1 X47.4543 Y-36.9689
G1 X47.3954 Y-38.2060
G1 X46.5014 Y-37.0417
G1 X46.2428 Y-36.5750
G1 X46.2703 Y-36.8811
G1 Z0.0000 F8000.0
G0 X45.7838 Y-38.0974 F15000.0
G1 Z11.9000 F8000.0
G1 X45.5674 Y-38.2400 F12000.0
G1 X45.7428 Y-37.9999
G1 X45.8491 Y-37.2640
G1 X45.6728 Y-36.9892
G1 X45.7160 Y-37.0621
G1 X45.3069 Y-36.9132
G1 X44.9611 Y-36.9921
G1 X44.8081 Y-37.1641
G1 X44.6905 Y-37.5151
G1 X44.9079 Y-38.1448
G1 X45.4919 Y-38.2920
G1 Z0.0000 F8000.0
G0 X44.0324 Y-36.9298 F15000.0
G1 Z11.9000 F8000.0
G1 X43.9278 Y-38.7791 F12000.0
G1 X42.5729 Y-36.9298
G1 Z0.0000 F8000.0
G0 X34.5082 Y-36.5338 F15000.0
G1 Z11.9000 F8000.0
G1 X34.3498 Y-37.4550 F12000.0
G1 X34.3794 Y-37.8143
G1 X34.1258 Y-37.5532
G1 X33.8991 Y-36.9142
G1 X34.0281 Y-37.3307
G1 X33.6914 Y-36.6984
G1 X33.8481 Y-36.8372
G1 X33.9963 Y-37.2386
G1 X33.6660 Y-36.7443
G1 X33.0367 Y-37.7423
G1 X33.1669 Y-37.6071
G1 X32.9255 Y-37.6175
G1 X32.8259 Y-36.5536
G1 X32.6352 Y-36.5128
G1 X31.6516 Y-36.6630
G1 X31.0541 Y-37.8960
G1 Z0.0000 F8000.0
G0 X30.6163 Y-38.1392 F15000.0
G1 Z11.9000 F8000.0
G1 X31.0174 Y-37.9527 F12000.0
G1 X30.9953 Y-37.8981
G1 X30.4582 Y-37.9739
G1 Z0.0000 F8000.0
G0 X30.4217 Y-38.0419 F15000.0
G1 Z11.9000 F8000.0
G1 X29.9079 Y-37.3857 F12000.0
G1 X29.5460 Y-37.9933
G1 Z0.0000 F8000.0
G0 X30.0008 Y-37.4039 F15000.0
G1 Z11.9000 F8000.0
G1 X29.5802 Y-37.2167 F12000.0
G1 X29.5668 Y-36.5604
G1 X30.0119 Y-37.1416
G1 X30.9841 Y-35.9171
G1 X31.1605 Y-35.8070
G1 X31.4522 Y-35.9718
G1 X31.5847 Y-36.5690
G1 X31.8436 Y-36.9362
G1 X32.2703 Y-38.0419
G1 Z0.0000 F8000.0
G0 X27.6000 Y-37.7014 F15000.0
G1 Z11.9000 F8000.0
G1 X27.9870 Y-38.0419 F12000.0
G1 X28.3563 Y-38.0691
G1 X28.5549 Y-37.9578
G1 X28.8290 Y-37.0028
G1 X28.7664 Y-36.7797
G1 X28.5353 Y-36.4941
G1 X28.3092 Y-36.4197
G1 X27.6537 Y-36.7215
G1 X27.5625 Y-36.9445
G1 X27.5513 Y-37.6041
G1 Z0.0000 F8000.0
G0 X26.7729 Y-36.5338 F15000.0
G1 Z11.9000 F8000.0
G1 X26.9468 Y-36.3845 F12000.0
G1 X27.0162 Y-35.9500
G1 Z0.0000 F8000.0
G0 X25.3135 Y-35.9500 F15000.0
G1 Z11.9000 F8000.0
G1 X25.3621 Y-36.4365 F12000.0
G1 Z0.0000 F8000.0
G0 X25.8486 Y-38.0419 F15000.0
G1 Z11.9000 F8000.0
G1 X26.7729 Y-36.5338 F12000.0
G1 X25.3621 Y-36.4365
G1 X25.5567 Y-36.7284
G1 X25.8486 Y-38.0419
G1 Z0.0000 F8000.0
G0 X23.8905 Y-37.2635 F15000.0
G1 Z11.9000 F8000.0
G1 X23.9627 Y-37.4967 F12000.0
G1 X23.8667 Y-37.9891
G1 X23.3762 Y-38.1340
G1 X23.7258 Y-38.1115
G1 X23.8531 Y-38.0128
G1 X23.1657 Y-37.9823
G1 X23.1522 Y-37.3051
G1 X23.8548 Y-36.6452
G1 X23.8385 Y-37.2178
G1 X23.4743 Y-37.1102
G1 X23.3067 Y-37.1662
G1 Z0.0000 F8000.0
G0 X22.5283 Y-38.6257 F15000.0
G1 Z11.9000 F8000.0
G1 X22.4906 Y-36.9600 F12000.0
G1 X22.4003 Y-36.7401
G1 X22.1252 Y-36.9200
G1 X21.5721 Y-37.8089
G1 X21.0741 Y-38.2770
G1 X20.9735 Y-38.0344
G1 X20.9715 Y-36.4851
G1 Z0.0000 F8000.0
G0 X21.1107 Y-33.0887 F15000.0
G1 Z11.9000 F8000.0
G1 X20.7335 Y-32.0970 F12000.0
G1 X20.8036 Y-32.2262
G1 X20.6249 Y-32.0133
G1 X20.4934 Y-31.4411
G1 X20.3553 Y-31.2467
G1 X20.2027 Y-31.1878
G1 X20.5189 Y-32.0103
G1 X20.4321 Y-32.1380
G1 Z0.0000 F8000.0
G0 X20.8171 Y-32.3197 F15000.0
G1 Z11.9000 F8000.0
G1 X20.4535 Y-32.1925 F12000.0
G1 X20.0271 Y-33.1581
G1 X19.5877 Y-33.3443
G1 X19.2628 Y-33.6451
G1 X18.5532 Y-33.7383
G1 X18.1860 Y-33.5339
G1 X18.3780 Y-33.7017
G1 X18.1133 Y-33.3952
G1 X17.9470 Y-32.8080
G1 X17.9795 Y-32.5730
G1 X18.2497 Y-31.9957
G1 Z0.0000 F8000.0
G0 X18.3920 Y-31.9008 F15000.0
G1 Z11.9000 F8000.0
G1 X18.9595 Y-31.7996 F12000.0
G1 X19.3817 Y-32.0162
G1 X19.3087 Y-31.9434
G1 X19.5307 Y-32.2804
G1 Z0.0000 F8000.0
G0 X19.5930 Y-30.7423 F15000.0
G1 Z11.9000 F8000.0
G1 X20.1114 Y-29.6187 F12000.0
G1 X20.1860 Y-29.5994
G1 X20.3382 Y-29.7468
G1 X20.7088 Y-30.6599
G1 X21.2570 Y-30.5877
G1 X21.8491 Y-30.7027
G1 X22.0807 Y-30.3485
G1 X21.9260 Y-30.6753
G1 X22.0339 Y-30.1406
G1 X21.9904 Y-30.0534
G1 X21.7820 Y-30.0125
G1 X22.0155 Y-29.8905
G1 X22.1027 Y-29.4425
G1 X21.7937 Y-29.3049
G1 X21.3782 Y-29.3912
G1 X21.4904 Y-29.3314
G1 Z0.0000 F8000.0
G0 X20.2255 Y-29.5747 F15000.0
G1 Z11.9000 F8000.0
G1 X20.0410 Y-28.9597 F12000.0
G1 X19.7650 Y-28.7037
G1 X19.9716 Y-28.8326
G1 X19.9336 Y-28.6990
G1 Z0.0000 F8000.0
G0 X18.9119 Y-29.3314 F15000.0
G1 Z11.9000 F8000.0
G1 X18.8440 Y-31.2917 F12000.0
G1 X17.4038 Y-29.3801
G1 Z0.0000 F8000.0
G0 X21.6657 Y-32.5650 F15000.0
G1 Z11.9000 F8000.0
G1 X22.4854 Y-32.4528 F12000.0
G1 X22.5819 Y-32.1177
G1 X22.5671 Y-31.8534
G1 Z0.0000 F8000.0
G0 X22.5671 Y-33.0395 F15000.0
G1 Z11.9000 F8000.0
G1 X22.4925 Y-33.1201 F12000.0
G1 X22.6576 Y-32.0816
G1 X22.6578 Y-32.1922
G1 X22.6269 Y-31.9493
G1 X22.3977 Y-31.8437
G1 X21.7045 Y-32.4779
G1 X21.7864 Y-32.6594
G1 X22.4672 Y-33.1505
G1 X23.2796 Y-33.0145
G1 X23.8963 Y-33.1651
G1 X23.3901 Y-32.9920
G1 X23.2198 Y-32.5433
G1 X23.2325 Y-32.3097
G1 X23.3846 Y-31.9861
G1 X23.6904 Y-31.8319
G1 X24.1410 Y-31.9680
G1 X24.3390 Y-32.2438
G1 X24.2128 Y-32.9542
G1 X24.0715 Y-33.1323
G1 X24.3129 Y-33.0291
G1 X24.8824 Y-33.1365
G1 X24.9857 Y-32.8543
G1 X24.9446 Y-31.3223
G1 X25.0105 Y-31.9210
G1 X25.5365 Y-31.8362
G1 X25.8473 Y-31.9464
G1 X26.0103 Y-32.3224
G1 X25.9236 Y-32.9270
G1 X25.6772 Y-33.1550
G1 X25.4391 Y-33.1519
G1 X24.9867 Y-32.9920
G1 Z0.0000 F8000.0
G0 X24.2751 Y-32.0431 F15000.0
G1 Z11.9000 F8000.0
G1 X24.0853 Y-31.8534 F12000.0
G1 Z0.0000 F8000.0
G0 X24.6039 Y-30.6936 F15000.0
G1 Z11.9000 F8000.0
G1 X24.6039 Y-29.3314 F12000.0
G1 Z0.0000 F8000.0
G0 X22.9012 Y-29.3314 F15000.0
G1 Z11.9000 F8000.0
G1 X23.8457 Y-29.4547 F12000.0
G1 X23.9376 Y-30.1187
G1 X25.6336 Y-29.9753
G1 X25.7172 Y-29.4362
G1 X25.7562 Y-30.6360
G1 X25.9514 Y-30.7002
G1 X27.2060 Y-30.7115
G1 X27.4720 Y-30.5053
G1 X27.5943 Y-30.1692
G1 X27.4667 Y-29.5630
G1 X27.2775 Y-29.3521
G1 X26.9148 Y-29.3021
G1 X26.7025 Y-29.4008
G1 X26.4015 Y-29.7930
G1 X26.3863 Y-30.2599
G1 X26.5871 Y-30.5939
G1 X26.4194 Y-30.3032
G1 X26.4514 Y-29.6789
G1 X26.5416 Y-29.4743
G1 X26.7445 Y-29.3314
G1 Z0.0000 F8000.0
G0 X28.2040 Y-30.0612 F15000.0
G1 Z11.9000 F8000.0
G1 X29.2536 Y-29.7713 F12000.0
G1 X28.9677 Y-29.3452
G1 X28.2489 Y-29.9647
G1 X28.3245 Y-30.1438
G1 X29.0378 Y-30.6347
G1 X29.1249 Y-30.6229
G1 X29.2014 Y-30.4265
G1 X29.1697 Y-29.9644
G1 X29.3050 Y-29.8837
G1 X30.1007 Y-30.6333
G1 X30.7103 Y-30.7124
G1 X30.9806 Y-30.4917
G1 X30.9641 Y-30.1795
G1 X30.1391 Y-29.9677
G1 X29.8944 Y-29.6591
G1 X29.9456 Y-29.4434
G1 X30.2534 Y-29.3098
G1 X30.9686 Y-29.4719
G1 X31.0257 Y-30.1585
G1 Z0.0000 F8000.0
G0 X30.7778 Y-31.8534 F15000.0
G1 Z11.9000 F8000.0
G1 X31.9840 Y-31.8412 F12000.0
G1 X32.0383 Y-31.9196
G1 X31.9879 Y-33.6762
G1 X30.8652 Y-31.9864
G1 X30.6048 Y-31.4195
G1 X30.7026 Y-31.7808
G1 X32.0320 Y-31.8428
G1 X32.2232 Y-31.7554
G1 X32.2960 Y-31.3315
G1 Z0.0000 F8000.0
G0 X33.9565 Y-31.9957 F15000.0
G1 Z11.9000 F8000.0
G1 X33.8480 Y-32.1132 F12000.0
G1 X33.6585 Y-32.6901
G1 X33.8627 Y-33.5117
G1 X34.2290 Y-33.7343
G1 X34.9413 Y-33.6590
G1 X35.1854 Y-33.2978
G1 X35.1890 Y-32.2026
G1 X35.0261 Y-31.9572
G1 X34.5633 Y-31.7881
G1 X34.0989 Y-31.9008
G1 Z0.0000 F8000.0
G0 X29.2092 Y-31.8534 F15000.0
G1 Z11.9000 F8000.0
G1 X29.2991 Y-32.1262 F12000.0
G1 X29.2474 Y-32.3533
G1 X28.9593 Y-32.5242
G1 X28.2441 Y-32.5000
G1 X27.4538 Y-31.8534
G1 Z0.0000 F8000.0
G0 X27.6436 Y-32.9920 F15000.0
G1 Z11.9000 F8000.0
G1 X27.4254 Y-33.1380 F12000.0
G1 X27.6269 Y-32.8084
G1 X27.7103 Y-32.3246
G1 X27.6546 Y-32.1127
G1 X27.2617 Y-31.8550
G1 X27.0260 Y-31.8394
G1 X26.8149 Y-31.9375
G1 X26.5941 Y-32.3430
G1 X26.6868 Y-32.9151
G1 X26.8046 Y-33.0505
G1 X27.3589 Y-33.1818
G1 Z0.0000 F8000.0
G0 X29.0669 Y-33.1818 F15000.0
G1 Z11.9000 F8000.0
G1 X28.3473 Y-32.5218 F12000.0
G1 X28.4500 Y-32.3396
G1 X28.9960 Y-31.8600
G1 X29.1004 Y-31.8454
G1 X29.3236 Y-32.0690
G1 X29.2092 Y-33.0395
G1 Z0.0000 F8000.0
G0 X22.9012 Y-30.6450 F15000.0
G1 Z11.9000 F8000.0
G1 X23.5261 Y-30.7150 F12000.0
G1 X23.7356 Y-30.6119
G1 X23.8589 Y-30.4115
G1 X23.8355 Y-30.1953
G1 X23.1348 Y-30.0196
G1 X22.7632 Y-29.7205
G1 X22.7524 Y-29.5594
G1 X22.9985 Y-30.0125
G1 Z0.0000 F8000.0
G0 X14.3694 Y-36.6704 F15000.0
G1 Z11.9000 F8000.0
G1 X14.3208 Y-38.0326 F12000.0
G1 Z0.0000 F8000.0
G0 X14.8559 Y-38.0326 F15000.0
G1 Z11.9000 F8000.0
G1 X13.0674 Y-37.9914 F12000.0
G1 X12.4959 Y-37.7658
G1 X12.3917 Y-37.2966
G1 X12.4578 Y-36.9420
G1 X12.9832 Y-36.6595
G1 X13.3836 Y-36.8306
G1 X13.3478 Y-36.7677
G1 Z0.0000 F8000.0
G0 X11.7424 Y-36.6704 F15000.0
G1 Z11.9000 F8000.0
G1 X11.5659 Y-37.6688 F12000.0
G1 X11.3268 Y-37.4909
G1 X10.9797 Y-36.9938
G1 X10.8329 Y-36.9311
G1 X10.9307 Y-36.9836
G1 X10.7395 Y-37.0044
G1 X10.6721 Y-37.9839
G1 Z0.0000 F8000.0
G0 X11.5478 Y-37.7407 F15000.0
G1 Z11.9000 F8000.0
G1 X11.6994 Y-37.8903 F12000.0
G1 X11.1046 Y-37.1771
G1 X10.5732 Y-36.8567
G1 X9.9979 Y-36.7203
G1 X9.8765 Y-38.5222
G1 X9.8166 Y-38.5904
G1 X8.8720 Y-38.6164
G1 Z0.0000 F8000.0
G0 X8.8234 Y-38.5191 F15000.0
G1 Z11.9000 F8000.0
G1 X8.7731 Y-36.8402 F12000.0
G1 X8.6933 Y-36.6474
G1 X8.5315 Y-36.5731
G1 Z0.0000 F8000.0
G0 X10.5836 Y-35.4768 F15000.0
G1 Z11.9000 F8000.0
G1 X9.6173 Y-35.2891 F12000.0
G1 X9.4924 Y-35.1482
G1 X9.3992 Y-34.8069
G1 X9.4899 Y-33.7655
G1 X9.6343 Y-33.5729
G1 X9.9705 Y-33.4726
G1 X10.3237 Y-33.5917
G1 X10.5022 Y-33.7469
G1 X10.5565 Y-33.9754
G1 X10.3751 Y-34.6918
G1 X10.1723 Y-34.8043
G1 X9.8054 Y-34.8052
G1 X9.5413 Y-34.6749
G1 X10.2082 Y-34.7658
G1 X10.4049 Y-34.6748
G1 X10.4834 Y-34.4761
G1 X10.4376 Y-33.6281
G1 Z0.0000 F8000.0
G0 X8.7349 Y-33.4821 F15000.0
G1 Z11.9000 F8000.0
G1 X8.6209 Y-33.6613 F12000.0
G1 X8.6682 Y-34.2704
G1 X8.5311 Y-34.7407
G1 X8.3403 Y-34.8017
G1 X7.7749 Y-34.5888
G1 X7.6683 Y-33.7499
G1 X7.7411 Y-33.5371
G1 X7.9521 Y-33.4574
G1 X8.7254 Y-33.4945
G1 X8.6082 Y-34.1567
G1 X7.9771 Y-34.0853
G1 X8.4327 Y-33.5833
G1 X8.5890 Y-33.5794
G1 Z0.0000 F8000.0
G0 X6.2009 Y-36.6704 F15000.0
G1 Z11.9000 F8000.0
G1 X6.0898 Y-37.6477 F12000.0
G1 X5.8790 Y-37.5132
G1 X5.5110 Y-36.7663
G1 X4.8497 Y-37.7274
G1 X4.7488 Y-36.7520
G1 X4.7498 Y-37.6480
G1 X3.4042 Y-37.8453
G1 X3.6421 Y-38.0124
G1 X3.9859 Y-37.9376
G1 X4.0303 Y-37.4951
G1 X3.8251 Y-37.3522
G1 X3.9809 Y-37.2610
G1 X4.1049 Y-36.9371
G1 X4.0720 Y-36.8517
G1 X3.6407 Y-36.6576
G1 X2.6675 Y-36.6995
G1 X2.5824 Y-36.8839
G1 X2.4756 Y-38.1372
G1 X2.5614 Y-38.4000
G1 X2.0595 Y-37.8634
G1 X2.2524 Y-38.1163
G1 X1.5503 Y-37.1432
G1 X1.2391 Y-36.8376
G1 X1.1413 Y-38.5677
G1 Z0.0000 F8000.0
G0 X0.0000 Y-39.4714 F15000.0
G1 Z11.9000 F8000.0
G1 X63.2677 Y-39.4714 F12000.0
G1 Z0.0000 F8000.0
G0 X63.2677 Y-44.3318 F15000.0
G1 Z11.9000 F8000.0
G1 X0.0000 Y-44.3318 F12000.0
G1 Z0.0000 F8000.0
G0 X0.0000 Y-49.1922 F15000.0
G1 Z11.9000 F8000.0
G1 X63.2677 Y-49.1922 F12000.0
G1 Z0.0000 F8000.0
G0 X63.2677 Y-44.3318 F15000.0
G1 Z11.9000 F8000.0
G1 X180.0000 Y-44.3318 F12000.0
G1 Z0.0000 F8000.0
G0 X178.0591 Y-43.6779 F15000.0
G1 Z11.9000 F8000.0
G1 X176.9660 Y-43.3808 F12000.0
G1 X176.7468 Y-43.0607
G1 X176.7453 Y-42.7254
G1 X177.7972 Y-42.7511
G1 X178.0533 Y-42.3572
G1 X178.0890 Y-42.1113
G1 X178.0186 Y-41.8944
G1 X177.2979 Y-41.2470
G1 X177.0255 Y-41.4300
G1 X176.7385 Y-42.5029
G1 X177.0472 Y-42.7633
G1 X176.7456 Y-42.5589
G1 Z0.0000 F8000.0
G0 X175.9186 Y-42.2670 F15000.0
G1 Z11.9000 F8000.0
G1 X175.9507 Y-41.6397 F12000.0
G1 X175.8626 Y-41.4231
G1 X175.2391 Y-41.2300
G1 X174.7806 Y-41.5036
G1 X175.7846 Y-42.1852
G1 X175.9075 Y-42.3709
G1 X175.8661 Y-42.7165
G1 X175.1660 Y-42.8767
G1 X174.8989 Y-42.8121
G1 X174.9942 Y-42.8995
G1 Z0.0000 F8000.0
G0 X174.1672 Y-42.8995 F15000.0
G1 Z11.9000 F8000.0
G1 X172.9509 Y-42.8995 F12000.0
G1 Z0.0000 F8000.0
G0 X172.4158 Y-42.8508 F15000.0
G1 Z11.9000 F8000.0
G1 X171.3941 Y-41.2940 F12000.0
G1 Z0.0000 F8000.0
G0 X171.3455 Y-42.8508 F15000.0
G1 Z11.9000 F8000.0
G1 X171.3216 Y-41.3499 F12000.0
G1 X171.1500 Y-41.2638
G1 X170.5251 Y-41.3247
G1 X170.3494 Y-41.4187
G1 X170.3239 Y-42.8508
G1 Z0.0000 F8000.0
G0 X169.6428 Y-42.6076 F15000.0
G1 Z11.9000 F8000.0
G1 X169.4021 Y-42.8716 F12000.0
G1 X168.8039 Y-42.8487
G1 X168.5683 Y-42.5704
G1 X168.4480 Y-41.9606
G1 X168.6910 Y-41.4003
G1 X169.1316 Y-41.2344
G1 X169.4757 Y-41.3608
G1 X169.6481 Y-41.5575
G1 X169.5941 Y-41.4400
G1 Z0.0000 F8000.0
G0 X167.7454 Y-41.4886 F15000.0
G1 Z11.9000 F8000.0
G1 X167.7469 Y-42.1683 F12000.0
G1 X167.6793 Y-41.4261
G1 X167.0521 Y-41.2339
G1 X166.6130 Y-41.5116
G1 X167.6239 Y-42.1938
G1 X167.7380 Y-42.3843
G1 X167.6839 Y-42.7261
G1 X166.9777 Y-42.8780
G1 X166.7289 Y-42.8173
G1 X166.8211 Y-42.8995
G1 Z0.0000 F8000.0
G0 X165.6048 Y-43.2887 F15000.0
G1 Z11.9000 F8000.0
G1 X165.2099 Y-42.6448 F12000.0
G1 X165.5914 Y-43.1900
G1 X165.7021 Y-41.2940
G1 Z0.0000 F8000.0
G0 X164.7292 Y-41.4886 F15000.0
G1 Z11.9000 F8000.0
G1 X164.9769 Y-41.9893 F12000.0
G1 X164.8955 Y-41.7140
G1 X165.0802 Y-42.2796
G1 X164.6877 Y-41.5621
G1 X163.8576 Y-43.0450
G1 X163.6737 Y-43.2327
G1 X163.6952 Y-43.3461
G1 X163.6102 Y-41.3427
G1 Z0.0000 F8000.0
G0 X162.5355 Y-44.3318 F15000.0
G1 Z11.9000 F8000.0
G1 X162.5355 Y-24.8078 F12000.0
G1 Z0.0000 F8000.0
G0 X162.1612 Y-23.4200 F15000.0
G1 Z11.9000 F8000.0
G1 X162.6130 Y-23.4835 F12000.0
G1 X163.1348 Y-23.1734
G1 X163.2609 Y-22.5704
G1 X163.1758 Y-22.2080
G1 X163.0306 Y-22.0385
G1 X162.3170 Y-21.8495
G1 X162.2137 Y-21.8951
G1 X161.8674 Y-22.4043
G1 X161.9184 Y-23.0138
G1 X162.1011 Y-23.3509
G1 X161.9145 Y-23.1484
G1 X161.3014 Y-23.4577
G1 X160.1666 Y-23.4687
G1 Z0.0000 F8000.0
G0 X160.7017 Y-23.4687 F15000.0
G1 Z11.9000 F8000.0
G1 X160.7504 Y-21.8632 F12000.0
G1 Z0.0000 F8000.0
G0 X159.7287 Y-22.2524 F15000.0
G1 Z11.9000 F8000.0
G1 X159.5250 Y-21.9935 F12000.0
G1 X158.9307 Y-21.8460
G1 X158.6205 Y-21.9900
G1 X158.4495 Y-22.3132
G1 X158.4643 Y-22.9340
G1 X158.7160 Y-23.3495
G1 X159.0511 Y-23.4895
G1 X159.5341 Y-23.3714
G1 Z0.0000 F8000.0
G0 X157.6854 Y-21.9119 F15000.0
G1 Z11.9000 F8000.0
G1 X157.2445 Y-22.8060 F12000.0
G1 X157.2684 Y-22.9071
G1 X157.5614 Y-23.1283
G1 X157.3008 Y-22.9627
G1 X156.8882 Y-22.3737
G1 X156.5475 Y-22.2240
G1 X156.5131 Y-23.3567
G1 X157.1846 Y-22.9317
G1 X156.9194 Y-22.4237
G1 X156.5207 Y-22.0279
G1 X156.5179 Y-22.1065
G1 Z0.0000 F8000.0
G0 X155.5935 Y-21.9119 F15000.0
G1 Z11.9000 F8000.0
G1 X155.5264 Y-24.1184 F12000.0
G1 X154.1724 Y-21.9013
G1 X153.9881 Y-21.8146
G1 Z0.0000 F8000.0
G0 X151.4142 Y-19.9474 F15000.0
G1 Z11.9000 F8000.0
G1 X151.4142 Y-24.8078 F12000.0
G1 Z0.0000 F8000.0
G0 X145.9771 Y-24.8078 F15000.0
G1 Z11.9000 F8000.0
G1 X145.9771 Y-44.3318 F12000.0
G1 Z0.0000 F8000.0
G0 X149.1025 Y-41.8025 F15000.0
G1 Z11.9000 F8000.0
G1 X149.1742 Y-43.4877 F12000.0
G1 X149.2512 Y-43.5929
G1 X150.0412 Y-42.0961
G1 X150.2055 Y-42.0810
G1 X150.4701 Y-42.6473
G1 X150.1206 Y-42.0041
G1 X150.1728 Y-42.0458
G1 Z0.0000 F8000.0
G0 X151.0971 Y-41.8512 F15000.0
G1 Z11.9000 F8000.0
G1 X150.9527 Y-43.3852 F12000.0
G1 X151.0153 Y-43.6464
G1 X150.6757 Y-43.1939
G1 X150.5340 Y-42.8048
G1 X150.6106 Y-43.0674
G1 Z0.0000 F8000.0
G0 X151.9728 Y-43.1647 F15000.0
G1 Z11.9000 F8000.0
G1 X152.1740 Y-43.2581 F12000.0
G1 X152.8658 Y-42.6887
G1 X151.9688 Y-42.3983
G1 X151.8150 Y-42.0845
G1 X151.9854 Y-41.7893
G1 X152.2098 Y-41.7400
G1 X152.8986 Y-41.9402
G1 X152.9788 Y-41.8908
G1 X152.9261 Y-42.5430
G1 X153.6850 Y-42.8988
G1 X153.6515 Y-42.3258
G1 X153.8419 Y-41.8821
G1 X154.1513 Y-41.7352
G1 X154.6972 Y-41.8998
G1 Z0.0000 F8000.0
G0 X154.7458 Y-43.0674 F15000.0
G1 Z11.9000 F8000.0
G1 X154.5447 Y-43.2517 F12000.0
G1 X154.0692 Y-43.2820
G1 X153.8369 Y-43.1208
G1 X154.1929 Y-43.2734
G1 X155.3393 Y-42.9095
G1 X155.3093 Y-42.3099
G1 X155.5078 Y-41.8735
G1 X155.8210 Y-41.7341
G1 X156.2826 Y-41.8934
G1 X156.3913 Y-42.0855
G1 X156.3694 Y-43.0956
G1 X156.1100 Y-43.2889
G1 X155.6380 Y-43.2349
G1 X155.4269 Y-43.0674
G1 Z0.0000 F8000.0
G0 X157.1296 Y-43.1647 F15000.0
G1 Z11.9000 F8000.0
G1 X157.3309 Y-43.2581 F12000.0
G1 X158.0226 Y-42.6887
G1 X157.1257 Y-42.3983
G1 X156.9718 Y-42.0845
G1 X157.1423 Y-41.7893
G1 X157.3666 Y-41.7400
G1 X158.0554 Y-41.9402
G1 X158.1356 Y-41.8908
G1 X158.1026 Y-42.5809
G1 Z0.0000 F8000.0
G0 X145.9771 Y-39.4714 F15000.0
G1 Z11.9000 F8000.0
G1 X180.0000 Y-39.4714 F12000.0
G1 Z0.0000 F8000.0
G0 X177.0375 Y-41.3427 F15000.0
G1 Z11.9000 F8000.0
G1 X176.8915 Y-41.4886 F12000.0
G1 Z0.0000 F8000.0
G0 X173.5834 Y-41.2940 F15000.0
G1 Z11.9000 F8000.0
G1 X173.5347 Y-42.8995 F12000.0
G1 Z0.0000 F8000.0
G0 X174.1343 Y-34.6217 F15000.0
G1 Z11.9000 F8000.0
G1 X173.8689 Y-34.2679 F12000.0
G1 X172.4094 Y-30.1990
G1 Z0.0000 F8000.0
G0 X170.9487 Y-31.3931 F15000.0
G1 Z11.9000 F8000.0
G1 X170.8160 Y-31.2605 F12000.0
G1 Z0.0000 F8000.0
G0 X169.5776 Y-30.1990 F15000.0
G1 Z11.9000 F8000.0
G1 X171.0371 Y-34.2679 F12000.0
G1 X171.3025 Y-34.6217
G1 Z0.0000 F8000.0
G0 X170.9929 Y-34.3121 F15000.0
G1 Z11.9000 F8000.0
G1 X170.6833 Y-34.2237 F12000.0
G1 Z0.0000 F8000.0
G0 X169.9314 Y-33.7372 F15000.0
G1 Z11.9000 F8000.0
G1 X169.7545 Y-33.5603 F12000.0
G1 Z0.0000 F8000.0
G0 X171.4352 Y-33.0295 F15000.0
G1 Z11.9000 F8000.0
G1 X171.6563 Y-33.1622 F12000.0
G1 Z0.0000 F8000.0
G0 X172.5863 Y-33.5603 F15000.0
G1 Z11.9000 F8000.0
G1 X172.7632 Y-33.7372 F12000.0
G1 Z0.0000 F8000.0
G0 X173.5151 Y-34.2237 F15000.0
G1 Z11.9000 F8000.0
G1 X173.8247 Y-34.3121 F12000.0
G1 Z0.0000 F8000.0
G0 X174.8195 Y-23.7306 F15000.0
G1 Z11.9000 F8000.0
G1 X174.5984 Y-23.5979 F12000.0
G1 Z0.0000 F8000.0
G0 X175.2618 Y-23.7306 F15000.0
G1 Z11.9000 F8000.0
G1 X174.4215 Y-21.3866 F12000.0
G1 X174.2446 Y-21.0770
G1 Z0.0000 F8000.0
G0 X180.0000 Y-19.9474 F15000.0
G1 Z11.9000 F8000.0
G1 X131.3959 Y-19.9474 F12000.0
G1 X63.2677 Y-19.9474 F12000.0
G1 X0.0000 Y-19.9474 F12000.0
G1 Z0.0000 F8000.0
G0 X2.2817 Y-21.9791 F15000.0
G1 Z11.9000 F8000.0
G1 X2.2330 Y-24.0224 F12000.0
G1 Z0.0000 F8000.0
G0 X1.6006 Y-24.0224 F15000.0
G1 Z11.9000 F8000.0
G1 X3.0601 Y-24.0224 F12000.0
G1 Z0.0000 F8000.0
G0 X4.1304 Y-23.3413 F15000.0
G1 Z11.9000 F8000.0
G1 X4.1667 Y-22.8025 F12000.0
G1 X4.6840 Y-22.4992
G1 X4.6119 Y-22.7582
G1 X5.0061 Y-21.9791
G1 Z0.0000 F8000.0
G0 X4.1304 Y-21.9791 F15000.0
G1 Z11.9000 F8000.0
G1 X4.1548 Y-22.5958 F12000.0
G1 X4.6486 Y-22.9177
G1 X5.0449 Y-23.3318
G1 X5.5440 Y-23.0372
G1 X5.5606 Y-22.4524
G1 X5.7825 Y-22.0812
G1 X5.5872 Y-22.3432
G1 X5.9849 Y-21.9780
G1 X6.4567 Y-22.0709
G1 X6.7158 Y-22.3048
G1 X6.6419 Y-23.0414
G1 X6.5458 Y-23.2447
G1 X5.9608 Y-23.3593
G1 X5.6385 Y-23.1467
G1 Z0.0000 F8000.0
G0 X7.3899 Y-23.3413 F15000.0
G1 Z11.9000 F8000.0
G1 X7.3899 Y-22.0729 F12000.0
G1 X7.4113 Y-22.6183
G1 X7.5773 Y-22.6972
G1 X8.3897 Y-22.5870
G1 X8.4571 Y-22.0612
G1 X8.5193 Y-23.3136
G1 X10.0656 Y-23.3899
G1 Z0.0000 F8000.0
G0 X9.4818 Y-23.3899 F15000.0
G1 Z11.9000 F8000.0
G1 X9.5631 Y-22.0387 F12000.0
G1 X10.6378 Y-22.1078
G1 X11.3489 Y-21.9970
G1 X11.6449 Y-22.2187
G1 X11.7451 Y-22.4295
G1 X11.6510 Y-23.1678
G1 X11.3597 Y-23.3221
G1 X10.7605 Y-23.2217
G1 X10.6191 Y-22.3980
G1 X10.6763 Y-21.4231
G1 X11.6710 Y-22.2223
G1 Z0.0000 F8000.0
G0 X7.4225 Y-28.9491 F15000.0
G1 Z11.9000 F8000.0
G1 X7.4412 Y-30.0302 F12000.0
G1 X7.3492 Y-30.2350
G1 X7.2588 Y-30.2572
G1 X6.5388 Y-29.6405
G1 X6.6388 Y-29.4528
G1 X7.1970 Y-28.9615
G1 X7.4823 Y-29.0570
G1 X7.5125 Y-29.2953
G1 X7.5169 Y-29.2020
G1 X7.4835 Y-29.4302
G1 X7.3906 Y-29.5275
G1 X6.4325 Y-29.7304
G1 X5.6009 Y-30.2591
G1 X5.7242 Y-30.1254
G1 X5.8883 Y-29.4023
G1 X5.7075 Y-29.0083
G1 X5.7517 Y-29.0801
G1 X5.3401 Y-28.9325
G1 X4.9944 Y-29.0114
G1 X4.8414 Y-29.1833
G1 X4.7238 Y-29.5344
G1 X4.9412 Y-30.1641
G1 X5.5252 Y-30.3112
G1 Z0.0000 F8000.0
G0 X3.0927 Y-29.0950 F15000.0
G1 Z11.9000 F8000.0
G1 X3.6911 Y-28.9325 F12000.0
G1 X4.0455 Y-29.1321
G1 X4.1392 Y-29.3440
G1 X4.0382 Y-30.0816
G1 X3.8772 Y-30.2516
G1 X3.3975 Y-30.2509
G1 X3.1179 Y-30.0572
G1 X3.0440 Y-28.3166
G1 Z0.0000 F8000.0
G0 X2.3143 Y-28.9491 F15000.0
G1 Z11.9000 F8000.0
G1 X2.2097 Y-30.7984 F12000.0
G1 X0.8548 Y-28.9491
G1 Z0.0000 F8000.0
G0 X0.0000 Y-29.7506 F15000.0
G1 Z11.9000 F8000.0
G1 X63.2677 Y-29.7506 F12000.0
G1 Z0.0000 F8000.0
G0 X63.2677 Y-24.8078 F15000.0
G1 Z11.9000 F8000.0
G1 X0.0000 Y-24.8078 F12000.0
G1 Z0.0000 F8000.0
G0 X0.0000 Y-54.0526 F15000.0
G1 Z11.9000 F8000.0
G1 X63.2677 Y-54.0526 F12000.0
G1 Z0.0000 F8000.0
G0 X63.2677 Y-58.9131 F15000.0
G1 Z11.9000 F8000.0
G1 X63.2677 Y-5.3662 F12000.0
G1 Z0.0000 F8000.0
G0 X53.5469 Y-5.3662 F15000.0
G1 Z11.9000 F8000.0
G1 X53.5469 Y-58.9131 F12000.0
G1 Z0.0000 F8000.0
G0 X38.9657 Y-58.9131 F15000.0
G1 Z11.9000 F8000.0
G1 X38.9657 Y-5.3662 F12000.0
G1 Z0.0000 F8000.0
G0 X81.2210 Y-8.6234 F15000.0
G1 Z11.9000 F8000.0
G1 X83.0210 Y-11.6883 F12000.0
G1 Z0.0000 F8000.0
G0 X83.6048 Y-9.4018 F15000.0
G1 Z11.9000 F8000.0
G1 X83.4902 Y-10.0126 F12000.0
G1 X84.1108 Y-11.5158
G1 X84.5586 Y-11.7157
G1 X85.0601 Y-11.7352
G1 X85.4187 Y-11.6403
G1 X85.8426 Y-11.3999
G1 X86.1412 Y-11.0108
G1 X86.2788 Y-10.5320
G1 X86.2452 Y-9.5272
G1 X85.8952 Y-8.8817
G1 X85.3387 Y-8.6004
G1 X84.5956 Y-8.5607
G1 Z0.0000 F8000.0
G0 X84.6265 Y-8.5261 F15000.0
G1 Z11.9000 F8000.0
G1 X83.9887 Y-8.8587 F12000.0
G1 X83.6598 Y-9.3147
G1 X84.0433 Y-8.8536
G1 Z0.0000 F8000.0
G0 X87.4968 Y-11.0072 F15000.0
G1 Z11.9000 F8000.0
G1 X87.3244 Y-9.8903 F12000.0
G1 X87.5505 Y-9.1742
G1 X88.2007 Y-8.6060
G1 X88.9471 Y-8.5394
G1 X89.7629 Y-9.0796
G1 X89.8765 Y-9.2609
G1 X89.7347 Y-9.0126
G1 Z0.0000 F8000.0
G0 X90.0752 Y-10.9586 F15000.0
G1 Z11.9000 F8000.0
G1 X89.4453 Y-11.5458 F12000.0
G1 X88.8556 Y-11.7540
G1 X88.0055 Y-11.5774
G1 X87.5454 Y-11.1045
G1 Z0.0000 F8000.0
G0 X90.5617 Y-11.6883 F15000.0
G1 Z11.9000 F8000.0
G1 X92.8482 Y-11.6883 F12000.0
G1 Z0.0000 F8000.0
G0 X91.6320 Y-11.6883 F15000.0
G1 Z11.9000 F8000.0
G1 X91.6806 Y-8.6234 F12000.0
G1 Z0.0000 F8000.0
G0 X95.0420 Y-10.1802 F15000.0
G1 Z11.9000 F8000.0
G1 X95.3339 Y-9.8883 F12000.0
G1 Z0.0000 F8000.0
G0 X96.2096 Y-9.8883 F15000.0
G1 Z11.9000 F8000.0
G1 X96.6961 Y-10.1802 F12000.0
G1 Z0.0000 F8000.0
G0 X96.7934 Y-9.9856 F15000.0
G1 Z11.9000 F8000.0
G1 X96.6187 Y-9.0665 F12000.0
G1 X96.4189 Y-8.7512
G1 X96.1676 Y-8.5424
G1 X95.5482 Y-8.5288
G1 X95.0868 Y-8.8514
G1 X95.4312 Y-8.5261
G1 Z0.0000 F8000.0
G0 X97.6691 Y-10.0829 F15000.0
G1 Z11.9000 F8000.0
G1 X97.6773 Y-9.2772 F12000.0
G1 X97.9132 Y-8.8229
G1 X98.2480 Y-8.5358
G1 X98.9340 Y-8.5261
G1 Z0.0000 F8000.0
G0 X99.3232 Y-8.9153 F15000.0
G1 Z11.9000 F8000.0
G1 X98.9943 Y-8.5745 F12000.0
G1 X99.4073 Y-9.1230
G1 X99.2677 Y-10.1440
G1 X99.1522 Y-10.2721
G1 X98.6758 Y-10.4475
G1 X98.3722 Y-10.4027
G1 X98.0274 Y-10.1987
G1 X97.6555 Y-10.1348
G1 X97.5985 Y-10.2828
G1 X97.7661 Y-10.9847
G1 X97.9957 Y-11.3688
G1 X97.9023 Y-11.2111
G1 X98.1264 Y-11.4540
G1 X98.7243 Y-11.6144
G1 X99.3232 Y-11.3478
G1 Z0.0000 F8000.0
G0 X100.5881 Y-11.3478 F15000.0
G1 Z11.9000 F8000.0
G1 X100.6854 Y-11.4451 F12000.0
G1 Z0.0000 F8000.0
G0 X100.8800 Y-11.5424 F15000.0
G1 Z11.9000 F8000.0
G1 X101.3998 Y-11.6050 F12000.0
G1 X101.9165 Y-11.3340
G1 X101.9406 Y-10.6149
G1 X101.7092 Y-10.1877
G1 X102.1284 Y-9.6499
G1 X102.1238 Y-9.0350
G1 X101.7033 Y-8.5328
G1 X100.7624 Y-8.5803
G1 X100.5224 Y-8.8513
G1 X100.8800 Y-8.5261
G1 Z0.0000 F8000.0
G0 X103.4097 Y-8.5261 F15000.0
G1 Z11.9000 F8000.0
G1 X103.4497 Y-8.5571 F12000.0
G1 X103.1492 Y-8.8481
G1 X103.5570 Y-8.5412
G1 X104.2763 Y-8.5504
G1 X104.7405 Y-9.1590
G1 X104.8692 Y-9.9856
G1 Z0.0000 F8000.0
G0 X104.7719 Y-10.1802 F15000.0
G1 Z11.9000 F8000.0
G1 X104.3534 Y-9.9109 F12000.0
G1 X104.6746 Y-10.0829
G1 Z0.0000 F8000.0
G0 X105.7449 Y-9.5964 F15000.0
G1 Z11.9000 F8000.0
G1 X106.5233 Y-9.5964 F12000.0
G1 Z0.0000 F8000.0
G0 X107.8855 Y-8.5261 F15000.0
G1 Z11.9000 F8000.0
G1 X108.8192 Y-10.8933 F12000.0
G1 X108.6978 Y-10.7316
G1 X108.7489 Y-10.8907
G1 X108.7659 Y-10.8328
G1 X109.0262 Y-11.4320
G1 X108.9485 Y-11.5970
G1 X107.3990 Y-11.6397
G1 Z0.0000 F8000.0
G0 X110.6099 Y-10.8613 F15000.0
G1 Z11.9000 F8000.0
G1 X110.9449 Y-11.1073 F12000.0
G1 X111.2602 Y-11.1915
G1 X111.2910 Y-8.6234
G1 Z0.0000 F8000.0
G0 X104.4800 Y-8.8180 F15000.0
G1 Z11.9000 F8000.0
G1 X104.1881 Y-8.5261 F12000.0
G1 Z0.0000 F8000.0
G0 X103.4097 Y-9.8883 F15000.0
G1 Z11.9000 F8000.0
G1 X103.1178 Y-10.1802 F12000.0
G1 Z0.0000 F8000.0
G0 X103.2151 Y-11.2505 F15000.0
G1 Z11.9000 F8000.0
G1 X103.4736 Y-11.4775 F12000.0
G1 X103.2109 Y-11.1842
G1 X103.0459 Y-10.3667
G1 X103.1098 Y-10.1924
G1 X103.4846 Y-9.8356
G1 X104.1944 Y-9.8151
G1 X104.7077 Y-10.1560
G1 X104.6484 Y-11.1567
G1 X104.3973 Y-11.4374
G1 X104.0203 Y-11.6067
G1 X103.5070 Y-11.5424
G1 Z0.0000 F8000.0
G0 X100.5609 Y-15.4566 F15000.0
G1 Z11.9000 F8000.0
G1 X99.0689 Y-17.4751 F12000.0
G1 X98.4723 Y-15.4002
G1 X97.7611 Y-15.4820
G1 X96.1825 Y-17.5486
G1 Z0.0000 F8000.0
G0 X94.5986 Y-16.9582 F15000.0
G1 Z11.9000 F8000.0
G1 X95.0960 Y-17.4288 F12000.0
G1 X96.0614 Y-17.4232
G1 X96.1321 Y-17.2409
G1 X96.1338 Y-15.4080
G1 Z0.0000 F8000.0
G0 X95.0635 Y-15.4566 F15000.0
G1 Z11.9000 F8000.0
G1 X94.9237 Y-17.1444 F12000.0
G1 X94.5531 Y-16.9050
G1 X93.8682 Y-15.8617
G1 X93.5262 Y-15.7882
G1 X93.4095 Y-17.4999
G1 Z0.0000 F8000.0
G0 X93.9881 Y-16.0313 F15000.0
G1 Z11.9000 F8000.0
G1 X93.3803 Y-15.5155 F12000.0
G1 X92.4248 Y-15.5078
G1 X92.3860 Y-17.4159
G1 X92.3063 Y-16.5326
G1 X92.1035 Y-16.4861
G1 X90.7685 Y-16.5810
G1 X90.7337 Y-17.3929
G1 X90.6958 Y-15.4566
G1 X89.7519 Y-15.4739
G1 X89.6831 Y-15.5377
G1 X89.5512 Y-17.1130
G1 X89.0506 Y-16.7300
G1 X88.7807 Y-16.3532
G1 X89.1959 Y-16.9930
G1 X88.5228 Y-15.9038
G1 X88.2505 Y-15.7500
G1 X88.4693 Y-15.8591
G1 X88.1321 Y-15.7760
G1 X88.0094 Y-17.4999
G1 Z0.0000 F8000.0
G0 X86.4526 Y-17.1594 F15000.0
G1 Z11.9000 F8000.0
G1 X86.4503 Y-17.0624 F12000.0
G1 X86.7319 Y-16.6986
G1 X86.9537 Y-16.1242
G1 X86.8270 Y-15.7203
G1 X86.3096 Y-15.4615
G1 X84.8518 Y-16.9855
G1 X84.9199 Y-18.4478
G1 X85.1072 Y-18.4950
G1 X86.3601 Y-18.3470
G1 X86.5547 Y-18.2477
G1 X86.7443 Y-17.5539
G1 X86.4205 Y-17.0910
G1 X86.4864 Y-17.1956
G1 X84.7985 Y-17.1107
G1 Z0.0000 F8000.0
G0 X88.0580 Y-15.5053 F15000.0
G1 Z11.9000 F8000.0
G1 X88.6022 Y-16.0587 F12000.0
G1 X89.0820 Y-16.7980
G1 X89.5394 Y-17.2189
G1 X89.6148 Y-17.4513
G1 Z0.0000 F8000.0
G0 X93.5068 Y-15.6999 F15000.0
G1 Z11.9000 F8000.0
G1 X93.5068 Y-15.6512 F12000.0
G1 Z0.0000 F8000.0
G0 X95.4312 Y-11.5424 F15000.0
G1 Z11.9000 F8000.0
G1 X95.9126 Y-11.6136 F12000.0
G1 X96.3816 Y-11.4045
G1 X96.5979 Y-11.0967
G1 X96.6517 Y-10.1795
G1 X96.0525 Y-9.8008
G1 X95.5318 Y-9.7952
G1 X95.3537 Y-9.8725
G1 X94.9720 Y-10.3353
G1 X95.1233 Y-11.1529
G1 X95.3709 Y-11.5016
G1 X95.1393 Y-11.2505
G1 Z0.0000 F8000.0
G0 X101.5339 Y-17.1594 F15000.0
G1 Z11.9000 F8000.0
G1 X101.7974 Y-17.4129 F12000.0
G1 X102.1190 Y-17.5493
G1 X103.1507 Y-16.7185
G1 X101.9264 Y-16.4153
G1 X101.6735 Y-16.2846
G1 X101.5140 Y-15.7246
G1 X101.6163 Y-15.5141
G1 X101.9385 Y-15.3521
G1 X102.1773 Y-15.3653
G1 X103.1192 Y-15.6996
G1 X103.2251 Y-15.8959
G1 X103.2704 Y-16.6256
G1 X104.1763 Y-16.8730
G1 X104.2321 Y-16.8222
G1 X104.2283 Y-16.0944
G1 X104.5146 Y-15.5690
G1 X105.0730 Y-15.3364
G1 X105.4727 Y-15.4036
G1 X105.6947 Y-15.5527
G1 X105.5470 Y-15.4563
G1 X105.7780 Y-15.6486
G1 X105.9610 Y-15.9431
G1 Z0.0000 F8000.0
G0 X105.7664 Y-17.3053 F15000.0
G1 Z11.9000 F8000.0
G1 X105.3851 Y-17.5679 F12000.0
G1 X104.8928 Y-17.5749
G1 X104.4916 Y-17.3416
G1 X104.3070 Y-17.0134
G1 Z0.0000 F8000.0
G0 X106.4962 Y-17.5486 F15000.0
G1 Z11.9000 F8000.0
G1 X108.1503 Y-17.5486 F12000.0
G1 Z0.0000 F8000.0
G0 X107.2746 Y-17.5486 F15000.0
G1 Z11.9000 F8000.0
G1 X107.3232 Y-15.4080 F12000.0
G1 Z0.0000 F8000.0
G0 X109.0618 Y-31.4836 F15000.0
G1 Z11.9000 F8000.0
G1 X109.0270 Y-33.3214 F12000.0
G1 X107.5831 Y-33.1507
G1 X106.8301 Y-33.2291
G1 X106.3821 Y-33.4439
G1 X106.2067 Y-33.6125
G1 X105.9547 Y-34.1817
G1 X105.8996 Y-35.5701
G1 Z0.0000 F8000.0
G0 X103.7104 Y-35.0350 F15000.0
G1 Z11.9000 F8000.0
G1 X103.9740 Y-35.3393 F12000.0
G1 X103.9132 Y-34.9533
G1 X104.0509 Y-31.4836
G1 Z0.0000 F8000.0
G0 X101.9099 Y-32.6773 F15000.0
G1 Z11.9000 F8000.0
G1 X103.3342 Y-34.8438 F12000.0
G1 X103.4905 Y-34.9047
G1 X103.2747 Y-34.7824
G1 X101.7153 Y-32.3011
G1 X100.9847 Y-31.9308
G1 X100.8401 Y-35.5701
G1 Z0.0000 F8000.0
G0 X102.3442 Y-33.3436 F15000.0
G1 Z11.9000 F8000.0
G1 X101.7195 Y-32.3095 F12000.0
G1 X101.0030 Y-31.8299
G1 X100.8887 Y-31.6295
G1 Z0.0000 F8000.0
G0 X98.6995 Y-31.6782 F15000.0
G1 Z11.9000 F8000.0
G1 X98.8236 Y-32.9109 F12000.0
G1 X98.9265 Y-32.2473
G1 X98.7888 Y-31.9081
G1 X98.5448 Y-31.6386
G1 X97.9397 Y-31.4172
G1 X95.8295 Y-33.5800
G1 X98.1676 Y-33.5661
G1 X98.7449 Y-33.0562
G1 X98.3756 Y-33.6133
G1 X98.7187 Y-34.6831
G1 X98.5838 Y-35.1630
G1 X98.3563 Y-35.4323
G1 X98.0061 Y-35.5292
G1 X95.8894 Y-35.5838
G1 X95.8248 Y-35.3933
G1 X95.7805 Y-33.6241
G1 Z0.0000 F8000.0
G0 X93.1534 Y-31.6295 F15000.0
G1 Z11.9000 F8000.0
G1 X92.5697 Y-31.3376 F12000.0
G1 Z0.0000 F8000.0
G0 X89.2615 Y-31.0944 F15000.0
G1 Z11.9000 F8000.0
G1 X88.3344 Y-31.9263 F12000.0
G1 X87.7322 Y-32.7929
G1 X87.1221 Y-33.3702
G1 X86.4553 Y-32.6752
G1 X87.0709 Y-33.3948
G1 X87.1601 Y-33.7822
G1 X87.1294 Y-33.5321
G1 X87.0584 Y-33.8594
G1 X86.3382 Y-34.7266
G1 X86.6374 Y-34.2948
G1 X87.1937 Y-33.9509
G1 X87.8282 Y-34.6140
G1 X88.5734 Y-35.6308
G1 X89.0058 Y-35.8606
G1 X89.2301 Y-35.8214
G1 X90.6009 Y-35.0571
G1 X91.5757 Y-35.6787
G1 X92.3222 Y-35.7143
G1 X92.6805 Y-35.6185
G1 X93.2328 Y-35.3241
G1 X93.6273 Y-34.8613
G1 X93.7538 Y-34.5100
G1 X93.9049 Y-33.3821
G1 X93.8866 Y-33.0098
G1 X93.6743 Y-32.2843
G1 X93.3849 Y-31.8142
G1 X93.0868 Y-31.6069
G1 X91.8573 Y-31.3198
G1 X91.6175 Y-31.3413
G1 X90.6657 Y-31.9117
G1 X90.2432 Y-32.8949
G1 X90.2180 Y-33.2618
G1 X90.4889 Y-34.8771
G1 X90.6433 Y-35.0629
G1 X91.5967 Y-35.7161
G1 Z0.0000 F8000.0
G0 X85.3209 Y-35.8620 F15000.0
G1 Z11.9000 F8000.0
G1 X86.2634 Y-34.8417 F12000.0
G1 X87.0274 Y-33.4057
G1 X85.5279 Y-31.3591
G1 X85.0995 Y-31.1354
G1 X85.7348 Y-31.6230
G1 X85.9047 Y-31.8728
G1 Z0.0000 F8000.0
G0 X83.7641 Y-31.3863 F15000.0
G1 Z11.9000 F8000.0
G1 X83.2512 Y-31.8114 F12000.0
G1 Z0.0000 F8000.0
G0 X83.0343 Y-31.7755 F15000.0
G1 Z11.9000 F8000.0
G1 X83.4836 Y-32.0040 F12000.0
G1 X83.6230 Y-32.1786
G1 X83.6668 Y-33.9160
G1 Z0.0000 F8000.0
G0 X82.6254 Y-31.5249 F15000.0
G1 Z11.9000 F8000.0
G1 X83.1855 Y-31.8244 F12000.0
G1 X82.4169 Y-31.4775
G1 X81.1725 Y-31.3172
G1 X80.6150 Y-31.5473
G1 X80.3360 Y-32.0715
G1 X80.5450 Y-33.0346
G1 X81.0646 Y-33.3754
G1 X81.4139 Y-33.5043
G1 X82.6633 Y-33.6964
G1 X83.6053 Y-33.9380
G1 X83.6451 Y-34.1425
G1 X83.5153 Y-35.1395
G1 X83.3895 Y-35.3290
G1 X82.3493 Y-35.7346
G1 X81.2299 Y-35.5903
G1 X80.7270 Y-35.2409
G1 X80.4073 Y-34.7917
G1 Z0.0000 F8000.0
G0 X77.9261 Y-37.0783 F15000.0
G1 Z11.9000 F8000.0
G1 X77.7315 Y-36.9323 F12000.0
G1 Z0.0000 F8000.0
G0 X78.2180 Y-31.4836 F15000.0
G1 Z11.9000 F8000.0
G1 X77.9598 Y-37.0753 F12000.0
G1 X77.5207 Y-36.7848
G1 X77.1940 Y-36.1158
G1 X75.7436 Y-31.9805
G1 X75.9435 Y-32.4204
G1 X75.6496 Y-31.9070
G1 X76.0053 Y-32.6530
G1 X75.5238 Y-31.8460
G1 X75.3875 Y-31.7389
G1 X72.7570 Y-37.1588
G1 X72.6357 Y-37.0720
G1 X72.5760 Y-36.7753
G1 X72.5747 Y-31.4836
G1 Z0.0000 F8000.0
G0 X98.9938 Y-50.9589 F15000.0
G1 Z11.9000 F8000.0
G1 X98.9938 Y-54.5589 F12000.0
G1 Z0.0000 F8000.0
G0 X99.0425 Y-54.6562 F15000.0
G1 Z11.9000 F8000.0
G1 X99.1481 Y-54.6743 F12000.0
G1 X100.6647 Y-51.3876
G1 X100.9362 Y-51.1857
G1 X101.1352 Y-51.2845
G1 X102.4257 Y-54.5517
G1 X102.6717 Y-54.6656
G1 X102.8858 Y-50.9102
G1 Z0.0000 F8000.0
G0 X101.0858 Y-51.2508 F15000.0
G1 Z11.9000 F8000.0
G1 X100.9365 Y-51.1101 F12000.0
G1 X100.9398 Y-50.9589
G1 Z0.0000 F8000.0
G0 X102.3506 Y-54.5103 F15000.0
G1 Z11.9000 F8000.0
G1 X102.5452 Y-54.6562 F12000.0
G1 Z0.0000 F8000.0
G0 X104.1507 Y-53.7319 F15000.0
G1 Z11.9000 F8000.0
G1 X104.2792 Y-52.5984 F12000.0
G1 X104.5917 Y-52.2192
G1 X104.9326 Y-52.0984
G1 X106.2789 Y-52.2322
G1 X106.3388 Y-52.0473
G1 X106.3399 Y-50.9102
G1 Z0.0000 F8000.0
G0 X106.3399 Y-52.2724 F15000.0
G1 Z11.9000 F8000.0
G1 X106.3399 Y-53.7319 F12000.0
G1 Z0.0000 F8000.0
G0 X107.8480 Y-54.3157 F15000.0
G1 Z11.9000 F8000.0
G1 X108.2607 Y-54.9176 F12000.0
G1 X107.8399 Y-54.2024
G1 X107.6696 Y-52.6956
G1 X107.9265 Y-51.4690
G1 X108.0474 Y-51.2559
G1 X108.6461 Y-50.8485
G1 X109.6084 Y-51.0890
G1 X109.9200 Y-51.5156
G1 X110.1182 Y-52.2427
G1 X109.8442 Y-54.4983
G1 X109.6368 Y-54.8429
G1 X109.3552 Y-55.0203
G1 X108.6097 Y-55.0780
G1 X108.3832 Y-54.9968
G1 Z0.0000 F8000.0
G0 X111.7535 Y-54.7435 F15000.0
G1 Z11.9000 F8000.0
G1 X112.2619 Y-55.0771 F12000.0
G1 X113.0062 Y-55.0192
G1 X113.2871 Y-54.8418
G1 X113.4584 Y-54.6077
G1 X113.7670 Y-52.2401
G1 X113.5148 Y-51.3989
G1 X113.3462 Y-51.1343
G1 X113.1329 Y-50.9712
G1 X112.2777 Y-50.8467
G1 X111.6948 Y-51.2578
G1 X111.4929 Y-51.7259
G1 X111.3160 Y-52.5904
G1 X111.4935 Y-54.2214
G1 X111.8853 Y-54.8570
G1 X112.1779 Y-55.0941
G1 Z0.0000 F8000.0
G0 X109.6967 Y-51.1535 F15000.0
G1 Z11.9000 F8000.0
G1 X109.4141 Y-50.9578 F12000.0
G1 X108.5383 Y-50.8804
G1 X108.3144 Y-50.9643
G1 X108.0426 Y-51.2021
G1 Z0.0000 F8000.0
G0 X117.3347 Y-51.0075 F15000.0
G1 Z11.9000 F8000.0
G1 X116.9855 Y-51.5638 F12000.0
G1 X117.3903 Y-51.0632
G1 X118.3636 Y-50.8402
G1 X118.8012 Y-50.9994
G1 X119.1177 Y-51.4069
G1 X119.3467 Y-52.2458
G1 X119.0752 Y-53.0622
G1 X118.1981 Y-53.5080
G1 X117.1629 Y-53.3524
G1 X119.1834 Y-55.0454
G1 Z0.0000 F8000.0
G0 X120.6429 Y-54.4130 F15000.0
G1 Z11.9000 F8000.0
G1 X120.8784 Y-54.7730 F12000.0
G1 X121.2402 Y-55.0292
G1 X121.7328 Y-55.1214
G1 X122.1046 Y-55.0876
G1 X122.4465 Y-54.9544
G1 X122.5962 Y-54.7826
G1 X122.9010 Y-53.8341
G1 X122.7331 Y-53.3697
G1 X122.0275 Y-52.5448
G1 X122.4252 Y-52.9511
G1 X120.7988 Y-51.3858
G1 X120.6905 Y-51.0309
G1 X120.5392 Y-50.8303
G1 X122.9294 Y-50.8616
G1 Z0.0000 F8000.0
G0 X126.4322 Y-51.2021 F15000.0
G1 Z11.9000 F8000.0
G1 X126.7040 Y-50.9643 F12000.0
G1 X127.0514 Y-50.8771
G1 X127.8036 Y-50.9578
G1 X128.1349 Y-51.2021
G1 Z0.0000 F8000.0
G0 X130.0809 Y-51.2021 F15000.0
G1 Z11.9000 F8000.0
G1 X130.5674 Y-50.8616 F12000.0
G1 Z0.0000 F8000.0
G0 X129.8863 Y-54.3157 F15000.0
G1 Z11.9000 F8000.0
G1 X130.0638 Y-54.6490 F12000.0
G1 X130.3608 Y-54.9485
G1 X129.9615 Y-54.4164
G1 X129.8582 Y-54.0627
G1 X129.7064 Y-52.5550
G1 X129.9720 Y-51.4553
G1 X130.0867 Y-51.2545
G1 X130.7001 Y-50.8427
G1 X131.5554 Y-50.9873
G1 X131.9282 Y-51.4562
G1 X131.7775 Y-51.1723
G1 X131.9651 Y-51.5186
G1 X132.1575 Y-52.2454
G1 X131.8818 Y-54.5012
G1 X131.6727 Y-54.8438
G1 X131.3908 Y-55.0216
G1 X130.5674 Y-55.0941
G1 Z0.0000 F8000.0
G0 X126.7727 Y-54.9968 F15000.0
G1 Z11.9000 F8000.0
G1 X126.9992 Y-55.0780 F12000.0
G1 X127.7447 Y-55.0203
G1 X128.0263 Y-54.8429
G1 X128.2337 Y-54.4983
G1 X128.5077 Y-52.2427
G1 X128.2568 Y-51.4013
G1 X128.0893 Y-51.1298
G1 X127.8103 Y-50.9247
G1 X127.1903 Y-50.8356
G1 X126.9578 Y-50.8740
G1 X126.4392 Y-51.2527
G1 X126.0787 Y-52.4127
G1 X126.2517 Y-54.2892
G1 X126.7065 Y-54.9457
G1 X126.2376 Y-54.3157
G1 Z0.0000 F8000.0
G0 X135.4323 Y-54.3157 F15000.0
G1 Z11.9000 F8000.0
G1 X135.8584 Y-54.9207 F12000.0
G1 X135.4306 Y-54.2273
G1 X135.2633 Y-52.4723
G1 X135.4986 Y-51.4920
G1 X135.6444 Y-51.2452
G1 X136.2080 Y-50.8492
G1 X137.1116 Y-50.9639
G1 X137.4960 Y-51.4968
G1 X137.7023 Y-52.2224
G1 X137.4015 Y-54.5945
G1 X137.2283 Y-54.8291
G1 X136.9573 Y-55.0116
G1 X136.2137 Y-55.0803
G1 X135.9675 Y-54.9968
G1 Z0.0000 F8000.0
G0 X135.6269 Y-51.2021 F15000.0
G1 Z11.9000 F8000.0
G1 X135.8987 Y-50.9643 F12000.0
G1 X136.1221 Y-50.8837
G1 X137.2018 Y-51.0647
G1 X137.3297 Y-51.2021
G1 Z0.0000 F8000.0
G0 X139.3729 Y-51.0075 F15000.0
G1 Z11.9000 F8000.0
G1 X139.0237 Y-51.5638 F12000.0
G1 X139.4286 Y-51.0632
G1 X140.4018 Y-50.8402
G1 X140.8394 Y-50.9994
G1 X141.1560 Y-51.4069
G1 X141.3850 Y-52.2458
G1 X141.1134 Y-53.0622
G1 X140.2364 Y-53.5080
G1 X139.2012 Y-53.3524
G1 X141.2216 Y-55.0454
G1 Z0.0000 F8000.0
G0 X140.6920 Y-42.9817 F15000.0
G1 Z11.9000 F8000.0
G1 X139.4758 Y-42.9817 F12000.0
G1 Z0.0000 F8000.0
G0 X140.0596 Y-42.9817 F15000.0
G1 Z11.9000 F8000.0
G1 X140.1082 Y-41.4736 F12000.0
G1 Z0.0000 F8000.0
G0 X138.8920 Y-41.4249 F15000.0
G1 Z11.9000 F8000.0
G1 X138.8274 Y-42.6435 F12000.0
G1 X138.4344 Y-42.3235
G1 X138.0462 Y-41.8260
G1 X137.8788 Y-41.7230
G1 X137.8062 Y-41.8878
G1 X137.7514 Y-42.8450
G1 X138.4241 Y-42.3791
G1 X138.7765 Y-42.6946
G1 X138.8920 Y-42.9330
G1 Z0.0000 F8000.0
G0 X138.3082 Y-42.1547 F15000.0
G1 Z11.9000 F8000.0
G1 X137.9677 Y-41.7168 F12000.0
G1 Z0.0000 F8000.0
G0 X136.9460 Y-41.4736 F15000.0
G1 Z11.9000 F8000.0
G1 X136.8838 Y-43.5687 F12000.0
G1 X135.5838 Y-41.4736
G1 Z0.0000 F8000.0
G0 X136.1739 Y-39.4714 F15000.0
G1 Z11.9000 F8000.0
G1 X136.1739 Y-24.8078 F12000.0
G1 Z0.0000 F8000.0
G0 X136.0870 Y-23.4369 F15000.0
G1 Z11.9000 F8000.0
G1 X136.1595 Y-22.0592 F12000.0
G1 X136.5888 Y-22.2956
G1 Z0.0000 F8000.0
G0 X136.8638 Y-22.7631 F15000.0
G1 Z11.9000 F8000.0
G1 X136.5321 Y-22.2086 F12000.0
G1 X136.7025 Y-22.5003
G1 X137.2654 Y-23.0686
G1 X137.4006 Y-21.7828
G1 Z0.0000 F8000.0
G0 X136.1357 Y-21.9774 F15000.0
G1 Z11.9000 F8000.0
G1 X136.4423 Y-22.1587 F12000.0
G1 X137.3648 Y-23.3140
G1 X137.5604 Y-23.3552
G1 X138.2664 Y-23.2146
G1 X138.1704 Y-22.2738
G1 X138.3273 Y-21.9380
G1 X138.4955 Y-21.7756
G1 X138.7120 Y-21.7359
G1 X139.4981 Y-22.0247
G1 X140.5645 Y-21.8209
G1 X140.6570 Y-21.9602
G1 X140.5928 Y-23.4117
G1 X139.9790 Y-23.4855
G1 Z0.0000 F8000.0
G0 X139.3952 Y-23.2423 F15000.0
G1 Z11.9000 F8000.0
G1 X138.9701 Y-23.4926 F12000.0
G1 X138.3735 Y-23.3396
G1 Z0.0000 F8000.0
G0 X140.6601 Y-23.4369 F15000.0
G1 Z11.9000 F8000.0
G1 X141.2925 Y-23.4855 F12000.0
G1 Z0.0000 F8000.0
G0 X141.1167 Y-24.8078 F15000.0
G1 Z11.9000 F8000.0
G1 X141.1167 Y-39.4714 F12000.0
G1 Z0.0000 F8000.0
G0 X145.9771 Y-39.4714 F15000.0
G1 Z11.9000 F8000.0
G1 X131.3959 Y-39.4714 F12000.0
G1 Z0.0000 F8000.0
G0 X131.3959 Y-44.3318 F15000.0
G1 Z11.9000 F8000.0
G1 X131.3959 Y-5.3662 F12000.0
G1 Z0.0000 F8000.0
G0 X143.7874 Y-12.0142 F15000.0
G1 Z11.9000 F8000.0
G1 X144.1097 Y-12.0845 F12000.0
G1 X144.2947 Y-12.2141
G1 X144.4028 Y-12.4702
G1 X144.5988 Y-16.0952
G1 X144.8003 Y-16.1486
G1 X146.6596 Y-16.1116
G1 X146.7550 Y-12.1115
G1 Z0.0000 F8000.0
G0 X149.5767 Y-12.1601 F15000.0
G1 Z11.9000 F8000.0
G1 X149.5280 Y-16.1494 F12000.0
G1 Z0.0000 F8000.0
G0 X148.0199 Y-16.1494 F15000.0
G1 Z11.9000 F8000.0
G1 X151.0848 Y-16.1494 F12000.0
G1 Z0.0000 F8000.0
G0 X152.0092 Y-13.4737 F15000.0
G1 Z11.9000 F8000.0
G1 X153.1281 Y-13.4737 F12000.0
G1 Z0.0000 F8000.0
G0 X155.0723 Y-12.0344 F15000.0
G1 Z11.9000 F8000.0
G1 X154.8602 Y-12.1436 F12000.0
G1 X154.2986 Y-12.7258
G1 X154.5852 Y-12.2827
G1 X154.8688 Y-12.1041
G1 X156.1873 Y-12.2905
G1 X156.2903 Y-12.4034
G1 Z0.0000 F8000.0
G0 X155.9366 Y-12.1499 F15000.0
G1 Z11.9000 F8000.0
G1 X156.3617 Y-12.4952 F12000.0
G1 X156.5601 Y-13.7133
G1 X156.2924 Y-14.2616
G1 X156.0153 Y-14.4592
G1 X155.5398 Y-14.6132
G1 X154.4651 Y-14.4134
G1 X154.6062 Y-15.7926
G1 X154.7212 Y-16.0769
G1 X156.4363 Y-16.1007
G1 Z0.0000 F8000.0
G0 X159.4039 Y-16.1980 F15000.0
G1 Z11.9000 F8000.0
G1 X159.3335 Y-15.8266 F12000.0
G1 X159.2162 Y-15.6317
G1 X158.2303 Y-15.1248
G1 X159.2729 Y-15.5999
G1 X159.3553 Y-12.1115
G1 Z0.0000 F8000.0
G0 X162.0310 Y-12.0628 F15000.0
G1 Z11.9000 F8000.0
G1 X161.6040 Y-12.4178 F12000.0
G1 X162.0878 Y-12.0596
G1 X162.9427 Y-12.1114
G1 X163.4113 Y-12.4912
G1 X163.6620 Y-13.0033
G1 X163.7625 Y-13.6223
G1 X163.6720 Y-14.1493
G1 X163.2959 Y-13.9602
G1 Z0.0000 F8000.0
G0 X161.9823 Y-13.7656 F15000.0
G1 Z11.9000 F8000.0
G1 X161.6438 Y-14.0357 F12000.0
G1 X161.3928 Y-14.4933
G1 X161.4958 Y-14.2521
G1 Z0.0000 F8000.0
G0 X161.4472 Y-15.4197 F15000.0
G1 Z11.9000 F8000.0
G1 X161.9585 Y-16.0468 F12000.0
G1 X161.4917 Y-15.4518
G1 X161.5488 Y-14.2244
G1 X162.0931 Y-13.7208
G1 X162.9565 Y-13.7716
G1 X163.6913 Y-14.2168
G1 X163.6748 Y-15.2022
G1 X163.4219 Y-15.7522
G1 X163.1602 Y-15.9692
G1 X162.4510 Y-16.1738
G1 X162.0310 Y-16.1007
G1 Z0.0000 F8000.0
G0 X164.8527 Y-13.4737 F15000.0
G1 Z11.9000 F8000.0
G1 X165.9840 Y-13.4469 F12000.0
G1 X167.0710 Y-12.8247
G1 X167.3138 Y-12.4070
G1 X167.5740 Y-12.1673
G1 X168.5527 Y-12.0510
G1 X168.9549 Y-12.2169
G1 X168.7786 Y-12.1132
G1 X169.1524 Y-12.4021
G1 X169.3964 Y-12.9076
G1 X169.1277 Y-13.8632
G1 X168.7446 Y-14.3007
G1 Z0.0000 F8000.0
G0 X168.0149 Y-14.1061 F15000.0
G1 Z11.9000 F8000.0
G1 X168.7235 Y-14.3221 F12000.0
G1 X169.0168 Y-14.6820
G1 X169.2034 Y-15.1290
G1 X169.0456 Y-15.7250
G1 X168.1878 Y-16.1657
G1 X167.4296 Y-15.8847
G1 X167.2822 Y-15.7107
G1 X167.1878 Y-15.4197
G1 Z0.0000 F8000.0
G0 X164.9342 Y-22.6903 F15000.0
G1 Z11.9000 F8000.0
G1 X164.0875 Y-22.7850 F12000.0
G1 X164.7519 Y-23.4060
G1 X165.0749 Y-23.0911
G1 X165.0162 Y-22.6294
G1 X165.1348 Y-22.0476
G1 X165.0252 Y-21.9254
G1 X164.0896 Y-21.9203
G1 X164.0099 Y-22.6416
G1 Z0.0000 F8000.0
G0 X162.1612 Y-21.9119 F15000.0
G1 Z11.9000 F8000.0
G1 X161.9180 Y-22.2038 F12000.0
G1 Z0.0000 F8000.0
G0 X180.0000 Y-24.8078 F15000.0
G1 Z11.9000 F8000.0
G1 X131.3959 Y-24.8078 F12000.0
G1 Z0.0000 F8000.0
G0 X133.4113 Y-21.6855 F15000.0
G1 Z11.9000 F8000.0
G1 X135.0973 Y-24.1267 F12000.0
G1 X135.1627 Y-21.7828
G1 Z0.0000 F8000.0
G0 X119.5701 Y-31.0457 F15000.0
G1 Z11.9000 F8000.0
G1 X118.9640 Y-31.4001 F12000.0
G1 X118.1283 Y-32.7947
G1 X117.4895 Y-33.5076
G1 X117.5324 Y-33.7139
G1 X117.8671 Y-34.0860
G1 X118.5341 Y-35.3798
G1 X119.0837 Y-35.6188
G1 Z0.0000 F8000.0
G0 X116.4566 Y-35.5701 F15000.0
G1 Z11.9000 F8000.0
G1 X116.4865 Y-33.5960 F12000.0
G1 X116.6731 Y-33.5392
G1 X117.4296 Y-33.5755
G1 Z0.0000 F8000.0
G0 X116.4566 Y-33.5268 F15000.0
G1 Z11.9000 F8000.0
G1 X116.4566 Y-31.4836 F12000.0
G1 Z0.0000 F8000.0
G0 X114.4619 Y-32.5052 F15000.0
G1 Z11.9000 F8000.0
G1 X113.8429 Y-31.6357 F12000.0
G1 X113.2944 Y-31.3863
G1 Z0.0000 F8000.0
G0 X111.1538 Y-32.1647 F15000.0
G1 Z11.9000 F8000.0
G1 X110.9592 Y-32.6025 F12000.0
G1 Z0.0000 F8000.0
G0 X109.0618 Y-33.2836 F15000.0
G1 Z11.9000 F8000.0
G1 X109.0618 Y-35.5701 F12000.0
G1 Z0.0000 F8000.0
G0 X111.2511 Y-34.9863 F15000.0
G1 Z11.9000 F8000.0
G1 X112.1638 Y-35.6421 F12000.0
G1 X113.0267 Y-35.7133
G1 X113.8336 Y-35.3831
G1 X114.1816 Y-35.0341
G1 X114.4091 Y-34.6046
G1 X114.5845 Y-33.1043
G1 X114.3954 Y-32.3746
G1 X113.9542 Y-31.7126
G1 X113.6168 Y-31.5685
G1 X112.3873 Y-31.3180
G1 X111.2769 Y-31.9989
G1 X110.8828 Y-33.0391
G1 X111.1296 Y-34.7846
G1 X111.3400 Y-35.0778
G1 X112.2727 Y-35.7161
G1 Z0.0000 F8000.0

G0 Z0.0000 F800.0
G4 P0.06
G0 X0.0000 Y0.0000 F15000.0
M5
G4 P0.10
$1=0
