$X
$1=255
G21
G90
G92 Z4.0000
G0 Z0.0000 F800.0
G4 P0.06
G92 Z0.0000
G0 Z0.0000 F800.0
G0 X0.0000 Y0.0000 F15000.0
G21
G90
G17
G91.1
G0 Z0.0000
G0 X0.0000 Y-155.6848 F15000.0
G1 Z11.9000 F2500.0
G4 P0.02
G1 X13.3343 Y-155.6848 F12000.0
G1 Z0.0000 F2500.0
G4 P0.02
G0 X0.0000 Y-195.7313 F15000.0
G1 Z11.9000 F2500.0
G4 P0.02
G1 X0.8037 Y-196.5788 F3500.0
G1 X0.0000 Y-196.8260
G1 X0.4684 Y-196.9141
G1 X1.1389 Y-196.2436
G1 Z0.0000 F2500.0
G4 P0.02
G0 X0.0000 Y-107.7234 F15000.0
G1 Z11.9000 F2500.0
G4 P0.02
G1 X0.8037 Y-106.9168 F3500.0
G1 X0.0000 Y-107.0974
G1 X0.4684 Y-107.2945
G1 X1.1389 Y-106.6239
G1 Z0.0000 F2500.0
G4 P0.02
G0 X0.8037 Y-106.9168 F15000.0
G1 Z11.9000 F2500.0
G4 P0.02
G1 X0.8037 Y-196.5788 F12000.0
G1 Z0.0000 F2500.0
G4 P0.02
G0 X0.0000 Y-190.2288 F15000.0
G1 Z11.9000 F2500.0
G4 P0.02
G1 X19.8537 Y-190.2288 F12000.0
G1 Z0.0000 F2500.0
G4 P0.02
G0 X25.7803 Y-151.7055 F15000.0
G1 Z11.9000 F2500.0
G4 P0.02
G1 X0.0000 Y-87.4230 F12000.0
G1 Z0.0000 F2500.0
G4 P0.02
G0 X16.3823 Y-128.2528 F15000.0
G1 Z11.9000 F2500.0
G4 P0.02
G1 X0.0000 Y-134.8228 F12000.0
G1 Z0.0000 F2500.0
G4 P0.02
G0 X0.0000 Y-121.2484 F15000.0
G1 Z11.9000 F2500.0
G4 P0.02
G1 X11.6410 Y-116.5688 F12000.0
G1 Z0.0000 F2500.0
G4 P0.02
G0 X0.0000 Y-110.8393 F15000.0
G1 Z11.9000 F2500.0
G4 P0.02
G1 X40.1737 Y-94.7248 F12000.0
G1 Z0.0000 F2500.0
G4 P0.02
G0 X44.7457 Y-89.3062 F15000.0
G1 Z11.9000 F2500.0
G4 P0.02
G1 X0.8037 Y-106.9168 F12000.0
G1 Z0.0000 F2500.0
G4 P0.02
G0 X0.0000 Y-96.7940 F15000.0
G1 Z11.9000 F2500.0
G4 P0.02
G1 X3.2590 Y-95.4868 F3500.0
G1 Z0.0000 F2500.0
G4 P0.02
G0 X11.6410 Y-116.5688 F15000.0
G1 Z11.9000 F2500.0
G4 P0.02
G1 X26.7963 Y-110.5575 F12000.0
G1 Z0.0000 F2500.0
G4 P0.02
G0 X3.2590 Y-95.4868 F15000.0
G1 Z11.9000 F2500.0
G4 P0.02
G1 X58.1230 Y-73.4735 F12000.0
G1 Z0.0000 F2500.0
G4 P0.02
G0 X79.8823 Y-102.7682 F15000.0
G1 Z11.9000 F2500.0
G4 P0.02
G1 X16.3823 Y-128.2528 F12000.0
G1 Z0.0000 F2500.0
G4 P0.02
G0 X26.7963 Y-110.5575 F15000.0
G1 Z11.9000 F2500.0
G4 P0.02
G1 X58.1230 Y-73.4735 F12000.0
G1 Z0.0000 F2500.0
G4 P0.02
G0 X27.1887 Y-110.1652 F15000.0
G1 Z11.9000 F2500.0
G4 P0.02
G1 X26.4887 Y-110.8652 F3500.0
G1 Z0.0000 F2500.0
G4 P0.02
G0 X39.8384 Y-95.1025 F15000.0
G1 Z11.9000 F2500.0
G4 P0.02
G1 X40.5089 Y-94.4319 F3500.0
G1 Z0.0000 F2500.0
G4 P0.02
G0 X44.4380 Y-89.6562 F15000.0
G1 Z11.9000 F2500.0
G4 P0.02
G1 X45.1380 Y-88.9562 F3500.0
G1 Z0.0000 F2500.0
G4 P0.02
G0 X57.7307 Y-73.8658 F15000.0
G1 Z11.9000 F2500.0
G4 P0.02
G1 X58.4307 Y-73.1658 F3500.0
G1 Z0.0000 F2500.0
G4 P0.02
G0 X80.1900 Y-102.4605 F15000.0
G1 Z11.9000 F2500.0
G4 P0.02
G1 X79.4900 Y-103.1605 F3500.0
G1 Z0.0000 F2500.0
G4 P0.02
G0 X79.8823 Y-102.7682 F15000.0
G1 Z11.9000 F2500.0
G4 P0.02
G1 X52.7043 Y-79.9082 F12000.0
G1 X0.0000 Y-101.0268 F12000.0
G1 Z0.0000 F2500.0
G4 P0.02
G0 X52.3967 Y-80.2158 F15000.0
G1 Z11.9000 F2500.0
G4 P0.02
G1 X53.0967 Y-79.5158 F3500.0
G1 Z0.0000 F2500.0
G4 P0.02
G0 X8.0850 Y-107.5942 F15000.0
G1 Z11.9000 F2500.0
G4 P0.02
G1 X8.8470 Y-109.6262 F3500.0
G1 X6.8997 Y-110.3882
G1 X6.0530 Y-108.4408
G1 Z0.0000 F2500.0
G4 P0.02
G0 X52.7043 Y-79.9082 F15000.0
G1 Z11.9000 F2500.0
G4 P0.02
G1 X54.3977 Y-81.2628 F3500.0
G1 X52.9583 Y-82.9562
G1 X51.3497 Y-81.5168
G1 Z0.0000 F2500.0
G4 P0.02
G0 X1.0577 Y-86.3428 F15000.0
G1 Z11.9000 F2500.0
G4 P0.02
G1 X0.0000 Y-83.6676 F3500.0
G1 Z0.0000 F2500.0
G4 P0.02
G0 X42.4597 Y-120.0402 F15000.0
G1 Z11.9000 F2500.0
G4 P0.02
G1 X48.1323 Y-113.6055 F3500.0
G1 Z0.0000 F2500.0
G4 P0.02
G0 X122.7237 Y-130.9622 F15000.0
G1 Z11.9000 F2500.0
G4 P0.02
G1 X180.0000 Y-130.9622 F12000.0
G1 Z0.0000 F2500.0
G4 P0.02
G0 X171.2377 Y-145.5248 F15000.0
G1 Z11.9000 F2500.0
G4 P0.02
G1 X171.2377 Y-80.5855 F12000.0
G1 Z0.0000 F2500.0
G4 P0.02
G0 X132.8837 Y-97.3495 F15000.0
G1 Z11.9000 F2500.0
G4 P0.02
G1 X132.8837 Y-154.3302 F12000.0
G1 X171.2377 Y-145.5248 F12000.0
G1 X180.0000 Y-149.2521 F12000.0
G1 Z0.0000 F2500.0
G4 P0.02
G0 X166.8350 Y-168.8082 F15000.0
G1 Z11.9000 F2500.0
G4 P0.02
G1 X132.8837 Y-154.3302 F12000.0
G1 Z0.0000 F2500.0
G4 P0.02
G0 X166.8350 Y-168.8082 F15000.0
G1 Z11.9000 F2500.0
G4 P0.02
G1 X180.0000 Y-165.7924 F12000.0
G1 Z0.0000 F2500.0
G4 P0.02
G0 X132.8837 Y-97.3495 F15000.0
G1 Z11.9000 F2500.0
G4 P0.02
G1 X171.2377 Y-80.5855 F12000.0
G1 X180.0000 Y-88.1708 F12000.0
G1 Z0.0000 F2500.0
G4 P0.02
G0 X166.8350 Y-126.8135 F15000.0
G1 Z11.9000 F2500.0
G4 P0.02
G1 X132.8837 Y-97.3495 F12000.0
G1 Z0.0000 F2500.0
G4 P0.02
G0 X166.8350 Y-126.8135 F15000.0
G1 Z11.9000 F2500.0
G4 P0.02
G1 X180.0000 Y-121.0720 F12000.0
G1 Z0.0000 F2500.0
G4 P0.02
G0 X166.8350 Y-126.8135 F15000.0
G1 Z11.9000 F2500.0
G4 P0.02
G1 X166.8350 Y-168.8082 F12000.0
G1 Z0.0000 F2500.0
G4 P0.02
G0 X180.0000 Y-97.3495 F15000.0
G1 Z11.9000 F2500.0
G4 P0.02
G1 X132.8837 Y-97.3495 F12000.0
G1 Z0.0000 F2500.0
G4 P0.02
G0 X132.8837 Y-154.3302 F15000.0
G1 Z11.9000 F2500.0
G4 P0.02
G1 X180.0000 Y-153.9157 F12000.0
G1 Z0.0000 F2500.0
G4 P0.02
G0 X180.0000 Y-168.6867 F15000.0
G1 Z11.9000 F2500.0
G4 P0.02
G1 X166.8350 Y-168.8082 F12000.0
G1 Z0.0000 F2500.0
G4 P0.02
G0 X171.2377 Y-145.5248 F15000.0
G1 Z11.9000 F2500.0
G4 P0.02
G1 X180.0000 Y-145.4529 F12000.0
G1 Z0.0000 F2500.0
G4 P0.02
G0 X171.6300 Y-145.2172 F15000.0
G1 Z11.9000 F2500.0
G4 P0.02
G1 X170.9300 Y-145.9172 F3500.0
G1 Z0.0000 F2500.0
G4 P0.02
G0 X167.1427 Y-168.5005 F15000.0
G1 Z11.9000 F2500.0
G4 P0.02
G1 X166.4427 Y-169.2005 F3500.0
G1 Z0.0000 F2500.0
G4 P0.02
G0 X133.1913 Y-154.0225 F15000.0
G1 Z11.9000 F2500.0
G4 P0.02
G1 X132.4913 Y-154.7225 F3500.0
G1 Z0.0000 F2500.0
G4 P0.02
G0 X132.4913 Y-97.6572 F15000.0
G1 Z11.9000 F2500.0
G4 P0.02
G1 X133.1913 Y-96.9572 F3500.0
G1 Z0.0000 F2500.0
G4 P0.02
G0 X166.4427 Y-127.2058 F15000.0
G1 Z11.9000 F2500.0
G4 P0.02
G1 X167.1427 Y-126.5058 F3500.0
G1 Z0.0000 F2500.0
G4 P0.02
G0 X170.9300 Y-80.8932 F15000.0
G1 Z11.9000 F2500.0
G4 P0.02
G1 X171.6300 Y-80.1932 F3500.0
G1 Z0.0000 F2500.0
G4 P0.02
G0 X175.8097 Y-99.2968 F15000.0
G1 Z11.9000 F2500.0
G4 P0.02
G1 X180.0000 Y-99.2968 F3500.0
G1 Z0.0000 F2500.0
G4 P0.02
G0 X84.0310 Y-7.0948 F15000.0
G1 Z11.9000 F2500.0
G4 P0.02
G1 X84.0310 Y-285.0000 F12000.0
G1 Z0.0000 F2500.0
G4 P0.02
G0 X84.0310 Y-7.0948 F15000.0
G1 Z11.9000 F2500.0
G4 P0.02
G1 X0.0000 Y-7.0948 F12000.0
G1 Z0.0000 F2500.0
G4 P0.02
G0 X0.0000 Y-17.0855 F15000.0
G1 Z11.9000 F2500.0
G4 P0.02
G1 X84.0310 Y-17.0855 F12000.0
G1 Z0.0000 F2500.0
G4 P0.02
G0 X84.0310 Y-256.0148 F15000.0
G1 Z11.9000 F2500.0
G4 P0.02
G1 X0.0000 Y-256.0148 F12000.0
G1 Z0.0000 F2500.0
G4 P0.02
G0 X109.8543 Y-285.0000 F15000.0
G1 Z11.9000 F2500.0
G4 P0.02
G1 X109.8543 Y-7.0948 F12000.0
G1 X180.0000 Y-7.0948 F12000.0
G1 Z0.0000 F2500.0
G4 P0.02
G0 X180.0000 Y-17.0855 F15000.0
G1 Z11.9000 F2500.0
G4 P0.02
G1 X109.8543 Y-17.0855 F12000.0
G1 Z0.0000 F2500.0
G4 P0.02
G0 X148.8857 Y-256.0148 F15000.0
G1 Z11.9000 F2500.0
G4 P0.02
G1 X148.8857 Y-285.0000 F12000.0
G1 Z0.0000 F2500.0
G4 P0.02
G0 X180.0000 Y-256.0148 F15000.0
G1 Z11.9000 F2500.0
G4 P0.02
G1 X109.8543 Y-256.0148 F12000.0
G1 Z0.0000 F2500.0
G4 P0.02
G0 X173.0157 Y-17.0855 F15000.0
G1 Z11.9000 F2500.0
G4 P0.02
G1 X173.0157 Y-7.0948 F12000.0
G1 Z0.0000 F2500.0
G4 P0.02
G0 X5.4091 Y-198.1425 F15000.0
G1 Z11.9000 F2500.0
G4 P0.02
G1 X5.5000 Y-198.5970 F3500.0
G1 X5.4546 Y-198.0516
G1 X5.7273 Y-197.7789
G1 X6.9091 Y-197.7334
G1 Z0.0000 F2500.0
G4 P0.02
G0 X5.5909 Y-198.8243 F15000.0
G1 Z11.9000 F2500.0
G4 P0.02
G1 X6.6364 Y-201.6425 F3500.0
G1 Z0.0000 F2500.0
G4 P0.02
G0 X7.0909 Y-202.0970 F15000.0
G1 Z11.9000 F2500.0
G4 P0.02
G1 X8.5909 Y-202.3698 F3500.0
G1 Z0.0000 F2500.0
G4 P0.02
G0 X9.2207 Y-201.6986 F15000.0
G1 Z11.9000 F2500.0
G4 P0.02
G1 X9.6298 Y-202.3349 F3500.0
G1 Z0.0000 F2500.0
G4 P0.02
G0 X10.0389 Y-201.8349 F15000.0
G1 Z11.9000 F2500.0
G4 P0.02
G1 X9.9480 Y-201.6986 F3500.0
G1 X10.3116 Y-202.3349
G1 Z0.0000 F2500.0
G4 P0.02
G0 X0.2669 Y-189.5025 F15000.0
G1 Z11.9000 F2500.0
G4 P0.02
G1 X0.0397 Y-189.0934 F3500.0
G1 Z0.0000 F2500.0
G4 P0.02
G0 X0.0419 Y-103.4062 F15000.0
G1 Z11.9000 F2500.0
G4 P0.02
G1 X0.0000 Y-103.3433 F3500.0
G1 Z0.0000 F2500.0
G4 P0.02
G0 X0.1950 Y-117.4284 F15000.0
G1 Z11.9000 F2500.0
G4 P0.02
G1 X0.5132 Y-118.0193 F3500.0
G1 Z0.0000 F2500.0
G4 P0.02
G0 X49.5704 Y-90.4730 F15000.0
G1 Z11.9000 F2500.0
G4 P0.02
G1 X49.4795 Y-90.0185 F3500.0
G1 X49.7977 Y-89.6549
G1 X50.9795 Y-89.6094
G1 Z0.0000 F2500.0
G4 P0.02
G0 X49.6613 Y-90.7003 F15000.0
G1 Z11.9000 F2500.0
G4 P0.02
G1 X50.7068 Y-93.5185 F3500.0
G1 Z0.0000 F2500.0
G4 P0.02
G0 X51.1613 Y-93.9730 F15000.0
G1 Z11.9000 F2500.0
G4 P0.02
G1 X52.6613 Y-94.2458 F3500.0
G1 Z0.0000 F2500.0
G4 P0.02
G0 X53.8121 Y-93.8775 F15000.0
G1 Z11.9000 F2500.0
G4 P0.02
G1 X53.7212 Y-93.6048 F3500.0
G1 Z0.0000 F2500.0
G4 P0.02
G0 X53.9485 Y-94.2412 F15000.0
G1 Z11.9000 F2500.0
G4 P0.02
G1 X53.9939 Y-94.3775 F3500.0
G1 Z0.0000 F2500.0
G4 P0.02
G0 X54.3576 Y-95.3775 F15000.0
G1 Z11.9000 F2500.0
G4 P0.02
G1 X54.4030 Y-95.5139 F3500.0
G1 Z0.0000 F2500.0
G4 P0.02
G0 X54.7938 Y-93.5784 F15000.0
G1 Z11.9000 F2500.0
G4 P0.02
G1 X54.7029 Y-93.2602 F3500.0
G1 X54.9756 Y-95.5784
G1 Z0.0000 F2500.0
G4 P0.02
G0 X55.6574 Y-94.6693 F15000.0
G1 Z11.9000 F2500.0
G4 P0.02
G1 X55.0211 Y-93.7602 F3500.0
G1 Z0.0000 F2500.0
G4 P0.02
G0 X55.8847 Y-95.0329 F15000.0
G1 Z11.9000 F2500.0
G4 P0.02
G1 X56.2938 Y-95.6239 F3500.0
G1 Z0.0000 F2500.0
G4 P0.02
G0 X41.8357 Y-98.9594 F15000.0
G1 Z11.9000 F2500.0
G4 P0.02
G1 X41.6085 Y-98.6866 F3500.0
G1 Z0.0000 F2500.0
G4 P0.02
G0 X42.6994 Y-100.1866 F15000.0
G1 Z11.9000 F2500.0
G4 P0.02
G1 X44.2448 Y-102.7776 F3500.0
G1 X44.5175 Y-102.9139
G1 X44.6539 Y-103.3685
G1 Z0.0000 F2500.0
G4 P0.02
G0 X44.5175 Y-102.9139 F15000.0
G1 Z11.9000 F2500.0
G4 P0.02
G1 X44.2448 Y-100.1412 F3500.0
G1 X42.7448 Y-100.1412
G1 Z0.0000 F2500.0
G4 P0.02
G0 X44.2903 Y-100.0957 F15000.0
G1 Z11.9000 F2500.0
G4 P0.02
G1 X44.1994 Y-98.7776 F3500.0
G1 Z0.0000 F2500.0
G4 P0.02
G0 X46.9964 Y-102.7677 F15000.0
G1 Z11.9000 F2500.0
G4 P0.02
G1 X47.2692 Y-103.5404 F3500.0
G1 Z0.0000 F2500.0
G4 P0.02
G0 X47.6328 Y-104.5404 F15000.0
G1 Z11.9000 F2500.0
G4 P0.02
G1 X47.6783 Y-104.6768 F3500.0
G1 Z0.0000 F2500.0
G4 P0.02
G0 X48.0690 Y-102.7413 F15000.0
G1 Z11.9000 F2500.0
G4 P0.02
G1 X47.9781 Y-102.4231 F3500.0
G1 X48.2508 Y-104.7413
G1 Z0.0000 F2500.0
G4 P0.02
G0 X48.9327 Y-103.8322 F15000.0
G1 Z11.9000 F2500.0
G4 P0.02
G1 X48.2963 Y-102.9231 F3500.0
G1 Z0.0000 F2500.0
G4 P0.02
G0 X49.1599 Y-104.1958 F15000.0
G1 Z11.9000 F2500.0
G4 P0.02
G1 X49.5690 Y-104.7867 F3500.0
G1 Z0.0000 F2500.0
G4 P0.02
G0 X42.8938 Y-73.8131 F15000.0
G1 Z11.9000 F2500.0
G4 P0.02
G1 X42.5756 Y-73.6767 F3500.0
G1 Z0.0000 F2500.0
G4 P0.02
G0 X42.8938 Y-73.8131 F15000.0
G1 Z11.9000 F2500.0
G4 P0.02
G1 X45.7120 Y-76.7676 F3500.0
G1 X45.9392 Y-77.1313
G1 X46.1211 Y-77.7222
G1 X46.0302 Y-77.9949
G1 X45.5302 Y-78.3585
G1 X44.6665 Y-78.1313
G1 X44.0302 Y-77.6313
G1 Z0.0000 F2500.0
G4 P0.02
G0 X44.7120 Y-73.7676 F15000.0
G1 Z11.9000 F2500.0
G4 P0.02
G1 X42.8938 Y-73.8131 F3500.0
G1 Z0.0000 F2500.0
G4 P0.02
G0 X47.5133 Y-77.7559 F15000.0
G1 Z11.9000 F2500.0
G4 P0.02
G1 X47.7860 Y-78.5286 F3500.0
G1 Z0.0000 F2500.0
G4 P0.02
G0 X48.1497 Y-79.5286 F15000.0
G1 Z11.9000 F2500.0
G4 P0.02
G1 X48.1951 Y-79.6650 F3500.0
G1 Z0.0000 F2500.0
G4 P0.02
G0 X48.5859 Y-77.7295 F15000.0
G1 Z11.9000 F2500.0
G4 P0.02
G1 X48.4950 Y-77.4113 F3500.0
G1 X48.7677 Y-79.7295
G1 Z0.0000 F2500.0
G4 P0.02
G0 X49.4495 Y-78.8204 F15000.0
G1 Z11.9000 F2500.0
G4 P0.02
G1 X48.8132 Y-77.9113 F3500.0
G1 Z0.0000 F2500.0
G4 P0.02
G0 X49.6768 Y-79.1841 F15000.0
G1 Z11.9000 F2500.0
G4 P0.02
G1 X50.0859 Y-79.7750 F3500.0
G1 Z0.0000 F2500.0
G4 P0.02
G0 X55.7556 Y-67.1028 F15000.0
G1 Z11.9000 F2500.0
G4 P0.02
G1 X55.6647 Y-66.7391 F3500.0
G1 X57.3011 Y-66.7846
G1 X57.5738 Y-66.9664
G1 X57.4829 Y-66.8755
G1 X57.9374 Y-67.3301
G1 X58.2102 Y-68.0119
G1 X58.3920 Y-68.7846
G1 X58.3011 Y-68.9210
G1 X58.3011 Y-69.4664
G1 X58.1193 Y-69.1937
G1 X56.6193 Y-69.1937
G1 X56.6647 Y-69.6028
G1 X55.8465 Y-67.3301
G1 Z0.0000 F2500.0
G4 P0.02
G0 X56.8920 Y-70.1937 F15000.0
G1 Z11.9000 F2500.0
G4 P0.02
G1 X57.3465 Y-71.3301 F3500.0
G1 X58.7556 Y-71.2391
G1 X58.9829 Y-70.9210
G1 X58.8011 Y-70.1482
G1 X58.6193 Y-69.7391
G1 X58.3920 Y-69.5119
G1 Z0.0000 F2500.0
G4 P0.02
G0 X60.6475 Y-70.7346 F15000.0
G1 Z11.9000 F2500.0
G4 P0.02
G1 X60.9202 Y-71.5073 F3500.0
G1 Z0.0000 F2500.0
G4 P0.02
G0 X61.2838 Y-72.5073 F15000.0
G1 Z11.9000 F2500.0
G4 P0.02
G1 X61.3293 Y-72.6437 F3500.0
G1 Z0.0000 F2500.0
G4 P0.02
G0 X61.7200 Y-70.7082 F15000.0
G1 Z11.9000 F2500.0
G4 P0.02
G1 X61.6291 Y-70.3900 F3500.0
G1 X61.9019 Y-72.7082
G1 Z0.0000 F2500.0
G4 P0.02
G0 X62.5837 Y-71.7991 F15000.0
G1 Z11.9000 F2500.0
G4 P0.02
G1 X61.9473 Y-70.8900 F3500.0
G1 Z0.0000 F2500.0
G4 P0.02
G0 X62.8110 Y-72.1627 F15000.0
G1 Z11.9000 F2500.0
G4 P0.02
G1 X63.2200 Y-72.7536 F3500.0
G1 Z0.0000 F2500.0
G4 P0.02
G0 X69.1839 Y-104.0492 F15000.0
G1 Z11.9000 F2500.0
G4 P0.02
G1 X69.7749 Y-103.9128 F3500.0
G1 X70.9112 Y-104.1401
G1 X71.1839 Y-104.3673
G1 X71.0476 Y-104.2310
G1 X71.3658 Y-104.5946
G1 X71.5476 Y-105.2764
G1 Z0.0000 F2500.0
G4 P0.02
G0 X70.5021 Y-107.0037 F15000.0
G1 Z11.9000 F2500.0
G4 P0.02
G1 X70.5021 Y-107.6401 F3500.0
G1 X70.7749 Y-108.0946
G1 X72.3658 Y-108.5492
G1 X72.6839 Y-108.4128
G1 Z0.0000 F2500.0
G4 P0.02
G0 X74.0910 Y-107.9537 F15000.0
G1 Z11.9000 F2500.0
G4 P0.02
G1 X74.3637 Y-108.7264 F3500.0
G1 Z0.0000 F2500.0
G4 P0.02
G0 X74.7274 Y-109.7264 F15000.0
G1 Z11.9000 F2500.0
G4 P0.02
G1 X74.7728 Y-109.8628 F3500.0
G1 Z0.0000 F2500.0
G4 P0.02
G0 X75.1636 Y-107.9273 F15000.0
G1 Z11.9000 F2500.0
G4 P0.02
G1 X75.0727 Y-107.6091 F3500.0
G1 X75.3454 Y-109.9273
G1 Z0.0000 F2500.0
G4 P0.02
G0 X76.0272 Y-109.0182 F15000.0
G1 Z11.9000 F2500.0
G4 P0.02
G1 X75.3909 Y-108.1091 F3500.0
G1 Z0.0000 F2500.0
G4 P0.02
G0 X76.2545 Y-109.3818 F15000.0
G1 Z11.9000 F2500.0
G4 P0.02
G1 X76.6636 Y-109.9727 F3500.0
G1 Z0.0000 F2500.0
G4 P0.02
G0 X28.7705 Y-114.5124 F15000.0
G1 Z11.9000 F2500.0
G4 P0.02
G1 X28.6341 Y-114.0124 F3500.0
G1 X30.2705 Y-114.0578
G1 X30.5432 Y-114.2396
G1 X30.4523 Y-114.1487
G1 X30.8614 Y-114.5124
G1 X31.4523 Y-115.9669
G1 X32.1341 Y-118.1942
G1 X31.9069 Y-118.5124
G1 X30.2705 Y-118.5578
G1 X29.3160 Y-115.9669
G1 Z0.0000 F2500.0
G4 P0.02
G0 X28.8160 Y-114.6033 F15000.0
G1 Z11.9000 F2500.0
G4 P0.02
G1 X29.0432 Y-115.2396 F3500.0
G1 Z0.0000 F2500.0
G4 P0.02
G0 X33.4846 Y-118.0078 F15000.0
G1 Z11.9000 F2500.0
G4 P0.02
G1 X33.7573 Y-118.7805 F3500.0
G1 Z0.0000 F2500.0
G4 P0.02
G0 X34.1209 Y-119.7805 F15000.0
G1 Z11.9000 F2500.0
G4 P0.02
G1 X34.1664 Y-119.9169 F3500.0
G1 Z0.0000 F2500.0
G4 P0.02
G0 X34.5571 Y-117.9814 F15000.0
G1 Z11.9000 F2500.0
G4 P0.02
G1 X34.4662 Y-117.6632 F3500.0
G1 X34.7390 Y-119.9814
G1 Z0.0000 F2500.0
G4 P0.02
G0 X35.4208 Y-119.0723 F15000.0
G1 Z11.9000 F2500.0
G4 P0.02
G1 X34.7844 Y-118.1632 F3500.0
G1 Z0.0000 F2500.0
G4 P0.02
G0 X35.6481 Y-119.4359 F15000.0
G1 Z11.9000 F2500.0
G4 P0.02
G1 X36.0571 Y-120.0268 F3500.0
G1 Z0.0000 F2500.0
G4 P0.02
G0 X0.9184 Y-76.2966 F15000.0
G1 Z11.9000 F2500.0
G4 P0.02
G1 X0.0000 Y-76.2149 F3500.0
G1 Z0.0000 F2500.0
G4 P0.02
G0 X0.9639 Y-76.2511 F15000.0
G1 Z11.9000 F2500.0
G4 P0.02
G1 X0.0000 Y-73.3997 F3500.0
G1 Z0.0000 F2500.0
G4 P0.02
G0 X0.8273 Y-72.8820 F15000.0
G1 Z11.9000 F2500.0
G4 P0.02
G1 X0.6455 Y-72.4274 F3500.0
G1 X1.4182 Y-72.2911
G1 X1.3273 Y-71.9274
G1 Z0.0000 F2500.0
G4 P0.02
G0 X0.9637 Y-73.1547 F15000.0
G1 Z11.9000 F2500.0
G4 P0.02
G1 X1.0546 Y-73.2911 F3500.0
G1 Z0.0000 F2500.0
G4 P0.02
G0 X1.5092 Y-74.1547 F15000.0
G1 Z11.9000 F2500.0
G4 P0.02
G1 X1.9182 Y-74.9274 F3500.0
G1 Z0.0000 F2500.0
G4 P0.02
G0 X1.6455 Y-72.8820 F15000.0
G1 Z11.9000 F2500.0
G4 P0.02
G1 X1.6001 Y-72.3365 F3500.0
G1 X1.9182 Y-72.3365
G1 Z0.0000 F2500.0
G4 P0.02
G0 X1.7364 Y-73.1092 F15000.0
G1 Z11.9000 F2500.0
G4 P0.02
G1 X1.6910 Y-72.9729 F3500.0
G1 Z0.0000 F2500.0
G4 P0.02
G0 X123.3603 Y-133.6549 F15000.0
G1 Z11.9000 F2500.0
G4 P0.02
G1 X124.9512 Y-138.0185 F3500.0
G1 X127.0421 Y-138.1549
G1 X125.7239 Y-134.2913
G1 Z0.0000 F2500.0
G4 P0.02
G0 X125.6330 Y-134.0640 F15000.0
G1 Z11.9000 F2500.0
G4 P0.02
G1 X125.4512 Y-133.5185 F3500.0
G1 Z0.0000 F2500.0
G4 P0.02
G0 X126.5013 Y-133.5428 F15000.0
G1 Z11.9000 F2500.0
G4 P0.02
G1 X126.2740 Y-133.4974 F3500.0
G1 X126.5467 Y-133.5883
G1 X126.5922 Y-133.7701
G1 X126.5922 Y-133.5428
G1 X127.6831 Y-133.4974
G1 Z0.0000 F2500.0
G4 P0.02
G0 X127.3194 Y-136.2246 F15000.0
G1 Z11.9000 F2500.0
G4 P0.02
G1 X127.7285 Y-136.5883 F3500.0
G1 X128.4104 Y-136.7246
G1 X128.7285 Y-136.4064
G1 X128.5922 Y-135.8155
G1 X128.4558 Y-135.6337
G1 X128.5467 Y-135.7246
G1 Z0.0000 F2500.0
G4 P0.02
G0 X123.3012 Y-125.9051 F15000.0
G1 Z11.9000 F2500.0
G4 P0.02
G1 X122.3921 Y-123.3596 F3500.0
G1 Z0.0000 F2500.0
G4 P0.02
G0 X123.3466 Y-125.9960 F15000.0
G1 Z11.9000 F2500.0
G4 P0.02
G1 X123.9830 Y-127.7232 F3500.0
G1 X126.0739 Y-127.8596
G1 X124.4830 Y-123.2232
G1 Z0.0000 F2500.0
G4 P0.02
G0 X126.7750 Y-125.1516 F15000.0
G1 Z11.9000 F2500.0
G4 P0.02
G1 X126.0477 Y-123.1971 F3500.0
G1 Z0.0000 F2500.0
G4 P0.02
G0 X126.3204 Y-125.7880 F15000.0
G1 Z11.9000 F2500.0
G4 P0.02
G1 X127.0477 Y-126.1516 F3500.0
G1 X127.0477 Y-125.8789
G1 Z0.0000 F2500.0
G4 P0.02
G0 X114.3484 Y-129.7519 F15000.0
G1 Z11.9000 F2500.0
G4 P0.02
G1 X114.0302 Y-129.4337 F3500.0
G1 X115.0757 Y-130.5701
G1 X115.5302 Y-130.8428
G1 X115.5302 Y-131.3428
G1 X115.2575 Y-132.6610
G1 Z0.0000 F2500.0
G4 P0.02
G0 X115.5302 Y-130.8428 F15000.0
G1 Z11.9000 F2500.0
G4 P0.02
G1 X115.5757 Y-131.2973 F3500.0
G1 X115.8939 Y-131.4337
G1 X116.4393 Y-132.0246
G1 Z0.0000 F2500.0
G4 P0.02
G0 X115.6211 Y-130.7519 F15000.0
G1 Z11.9000 F2500.0
G4 P0.02
G1 X115.8484 Y-129.5246 F3500.0
G1 X115.8030 Y-129.4792
G1 Z0.0000 F2500.0
G4 P0.02
G0 X118.1084 Y-131.3529 F15000.0
G1 Z11.9000 F2500.0
G4 P0.02
G1 X117.3811 Y-129.3984 F3500.0
G1 Z0.0000 F2500.0
G4 P0.02
G0 X117.6538 Y-131.9893 F15000.0
G1 Z11.9000 F2500.0
G4 P0.02
G1 X118.3811 Y-132.3529 F3500.0
G1 X118.3811 Y-132.0802
G1 Z0.0000 F2500.0
G4 P0.02
G0 X118.3480 Y-129.4488 F15000.0
G1 Z11.9000 F2500.0
G4 P0.02
G1 X118.1208 Y-129.4033 F3500.0
G1 X118.3935 Y-129.4943
G1 X118.4389 Y-129.6761
G1 X118.4389 Y-129.4488
G1 X119.5299 Y-129.4033
G1 Z0.0000 F2500.0
G4 P0.02
G0 X119.1662 Y-132.1306 F15000.0
G1 Z11.9000 F2500.0
G4 P0.02
G1 X119.5753 Y-132.4943 F3500.0
G1 X120.2571 Y-132.6306
G1 X120.5753 Y-132.3124
G1 X120.4389 Y-131.7215
G1 X120.3026 Y-131.5397
G1 X120.3935 Y-131.6306
G1 Z0.0000 F2500.0
G4 P0.02
G0 X121.6495 Y-153.2718 F15000.0
G1 Z11.9000 F2500.0
G4 P0.02
G1 X121.8767 Y-153.5445 F3500.0
G1 Z0.0000 F2500.0
G4 P0.02
G0 X122.7404 Y-154.7718 F15000.0
G1 Z11.9000 F2500.0
G4 P0.02
G1 X124.2858 Y-157.3627 F3500.0
G1 X124.5586 Y-157.4991
G1 X124.6949 Y-157.9536
G1 Z0.0000 F2500.0
G4 P0.02
G0 X124.5586 Y-157.4991 F15000.0
G1 Z11.9000 F2500.0
G4 P0.02
G1 X124.2858 Y-154.7263 F3500.0
G1 X122.7858 Y-154.7263
G1 Z0.0000 F2500.0
G4 P0.02
G0 X124.3313 Y-154.6809 F15000.0
G1 Z11.9000 F2500.0
G4 P0.02
G1 X124.2404 Y-153.3627 F3500.0
G1 Z0.0000 F2500.0
G4 P0.02
G0 X126.6073 Y-157.3226 F15000.0
G1 Z11.9000 F2500.0
G4 P0.02
G1 X127.0164 Y-157.9590 F3500.0
G1 Z0.0000 F2500.0
G4 P0.02
G0 X127.4255 Y-157.4590 F15000.0
G1 Z11.9000 F2500.0
G4 P0.02
G1 X127.3346 Y-157.3226 F3500.0
G1 X127.6983 Y-157.9590
G1 Z0.0000 F2500.0
G4 P0.02
G0 X126.6495 Y-88.5433 F15000.0
G1 Z11.9000 F2500.0
G4 P0.02
G1 X126.4222 Y-88.2706 F3500.0
G1 Z0.0000 F2500.0
G4 P0.02
G0 X127.5131 Y-89.7706 F15000.0
G1 Z11.9000 F2500.0
G4 P0.02
G1 X129.0586 Y-92.3615 F3500.0
G1 X129.3313 Y-92.4978
G1 X129.4676 Y-92.9524
G1 Z0.0000 F2500.0
G4 P0.02
G0 X129.3313 Y-92.4978 F15000.0
G1 Z11.9000 F2500.0
G4 P0.02
G1 X129.0586 Y-89.7251 F3500.0
G1 X127.5586 Y-89.7251
G1 Z0.0000 F2500.0
G4 P0.02
G0 X129.1040 Y-89.6797 F15000.0
G1 Z11.9000 F2500.0
G4 P0.02
G1 X129.0131 Y-88.3615 F3500.0
G1 Z0.0000 F2500.0
G4 P0.02
G0 X131.1665 Y-91.8276 F15000.0
G1 Z11.9000 F2500.0
G4 P0.02
G1 X131.4847 Y-92.4185 F3500.0
G1 Z0.0000 F2500.0
G4 P0.02
G0 X157.5741 Y-156.6774 F15000.0
G1 Z11.9000 F2500.0
G4 P0.02
G1 X158.7104 Y-159.9047 F3500.0
G1 X158.8922 Y-159.9956
G1 X158.9832 Y-160.4956
G1 X158.9377 Y-159.9502
G1 X159.4832 Y-159.9956
G1 Z0.0000 F2500.0
G4 P0.02
G0 X159.0286 Y-160.5865 F15000.0
G1 Z11.9000 F2500.0
G4 P0.02
G1 X159.3468 Y-161.1320 F3500.0
G1 X159.9377 Y-161.4047
G1 Z0.0000 F2500.0
G4 P0.02
G0 X160.6770 Y-160.7327 F15000.0
G1 Z11.9000 F2500.0
G4 P0.02
G1 X161.0861 Y-161.3691 F3500.0
G1 Z0.0000 F2500.0
G4 P0.02
G0 X161.4952 Y-160.8691 F15000.0
G1 Z11.9000 F2500.0
G4 P0.02
G1 X161.4043 Y-160.7327 F3500.0
G1 X161.7679 Y-161.3691
G1 Z0.0000 F2500.0
G4 P0.02
G0 X166.7543 Y-175.4439 F15000.0
G1 Z11.9000 F2500.0
G4 P0.02
G1 X166.8452 Y-175.8076 F3500.0
G1 X166.7997 Y-175.3985
G1 X168.3906 Y-175.4894
G1 X168.6634 Y-175.6712
G1 X168.5724 Y-175.5803
G1 X169.0270 Y-176.0349
G1 X169.2997 Y-176.7167
G1 X169.4815 Y-177.4894
G1 X169.3906 Y-177.6258
G1 X169.3906 Y-178.1712
G1 X169.2088 Y-177.8985
G1 X167.7088 Y-177.8985
G1 X167.7543 Y-178.3076
G1 X166.9361 Y-176.0349
G1 Z0.0000 F2500.0
G4 P0.02
G0 X167.9815 Y-178.8985 F15000.0
G1 Z11.9000 F2500.0
G4 P0.02
G1 X168.4361 Y-180.0349 F3500.0
G1 X169.8452 Y-179.9439
G1 X170.0724 Y-179.6258
G1 X169.8906 Y-178.8530
G1 X169.7088 Y-178.4439
G1 X169.4815 Y-178.2167
G1 Z0.0000 F2500.0
G4 P0.02
G0 X171.3069 Y-179.4091 F15000.0
G1 Z11.9000 F2500.0
G4 P0.02
G1 X171.7160 Y-180.0455 F3500.0
G1 Z0.0000 F2500.0
G4 P0.02
G0 X172.1251 Y-179.5455 F15000.0
G1 Z11.9000 F2500.0
G4 P0.02
G1 X172.0342 Y-179.4091 F3500.0
G1 X172.3978 Y-180.0455
G1 Z0.0000 F2500.0
G4 P0.02
G0 X163.1437 Y-118.1367 F15000.0
G1 Z11.9000 F2500.0
G4 P0.02
G1 X163.0528 Y-117.7730 F3500.0
G1 X164.6892 Y-117.8185
G1 X164.9619 Y-118.0003
G1 X164.8710 Y-117.9094
G1 X165.3255 Y-118.3640
G1 X165.5983 Y-119.0458
G1 X165.7801 Y-119.8185
G1 X165.6892 Y-119.9549
G1 X165.6892 Y-120.5003
G1 X165.5074 Y-120.2276
G1 X164.0074 Y-120.2276
G1 X164.0528 Y-120.6367
G1 X163.2346 Y-118.3640
G1 Z0.0000 F2500.0
G4 P0.02
G0 X164.2801 Y-121.2276 F15000.0
G1 Z11.9000 F2500.0
G4 P0.02
G1 X164.7346 Y-122.3640 F3500.0
G1 X166.1437 Y-122.2730
G1 X166.3710 Y-121.9549
G1 X166.1892 Y-121.1821
G1 X166.0074 Y-120.7730
G1 X165.7801 Y-120.5458
G1 Z0.0000 F2500.0
G4 P0.02
G0 X167.5282 Y-121.5172 F15000.0
G1 Z11.9000 F2500.0
G4 P0.02
G1 X167.3919 Y-121.2445 F3500.0
G1 X167.7100 Y-121.8354
G1 Z0.0000 F2500.0
G4 P0.02
G0 X171.1608 Y-73.3814 F15000.0
G1 Z11.9000 F2500.0
G4 P0.02
G1 X171.0244 Y-72.8814 F3500.0
G1 X172.6608 Y-72.9268
G1 X172.9335 Y-73.1086
G1 X172.8426 Y-73.0177
G1 X173.2517 Y-73.3814
G1 X173.8426 Y-74.8359
G1 X174.5244 Y-77.0632
G1 X174.2972 Y-77.3814
G1 X172.6608 Y-77.4268
G1 X171.7062 Y-74.8359
G1 Z0.0000 F2500.0
G4 P0.02
G0 X171.2062 Y-73.4723 F15000.0
G1 Z11.9000 F2500.0
G4 P0.02
G1 X171.4335 Y-74.1086 F3500.0
G1 Z0.0000 F2500.0
G4 P0.02
G0 X175.3675 Y-76.6255 F15000.0
G1 Z11.9000 F2500.0
G4 P0.02
G1 X175.2312 Y-76.3528 F3500.0
G1 X175.5494 Y-76.9437
G1 Z0.0000 F2500.0
G4 P0.02
G0 X174.2522 Y-138.2066 F15000.0
G1 Z11.9000 F2500.0
G4 P0.02
G1 X174.6613 Y-139.4339 F3500.0
G1 Z0.0000 F2500.0
G4 P0.02
G0 X174.2977 Y-138.1611 F15000.0
G1 Z11.9000 F2500.0
G4 P0.02
G1 X175.8886 Y-138.2520 F3500.0
G1 X176.1613 Y-138.4339
G1 X176.0704 Y-138.3429
G1 X176.4795 Y-138.7066
G1 X177.0704 Y-140.1611
G1 X177.7522 Y-142.3884
G1 X177.5249 Y-142.7066
G1 X175.8886 Y-142.7520
G1 X174.9340 Y-140.1611
G1 Z0.0000 F2500.0
G4 P0.02
G0 X178.6725 Y-142.1718 F15000.0
G1 Z11.9000 F2500.0
G4 P0.02
G1 X179.0816 Y-142.8081 F3500.0
G1 Z0.0000 F2500.0
G4 P0.02
G0 X179.4907 Y-142.3081 F15000.0
G1 Z11.9000 F2500.0
G4 P0.02
G1 X179.3998 Y-142.1718 F3500.0
G1 X179.7635 Y-142.8081
G1 Z0.0000 F2500.0
G4 P0.02
G0 X1.0432 Y-282.1032 F15000.0
G1 Z11.9000 F2500.0
G4 P0.02
G1 X0.0000 Y-282.0359 F3500.0
G1 Z0.0000 F2500.0
G4 P0.02
G0 X0.1341 Y-283.6941 F15000.0
G1 Z11.9000 F2500.0
G4 P0.02
G1 X0.5694 Y-285.0000 F3500.0
G1 Z0.0000 F2500.0
G4 P0.02
G0 X0.1796 Y-283.6032 F15000.0
G1 Z11.9000 F2500.0
G4 P0.02
G1 X1.6341 Y-283.4214 F3500.0
G1 Z0.0000 F2500.0
G4 P0.02
G0 X1.3159 Y-282.3759 F15000.0
G1 Z11.9000 F2500.0
G4 P0.02
G1 X1.1341 Y-282.1941 F3500.0
G1 Z0.0000 F2500.0
G4 P0.02
G0 X1.4523 Y-282.6486 F15000.0
G1 Z11.9000 F2500.0
G4 P0.02
G1 X2.2250 Y-284.7395 F3500.0
G1 Z0.0000 F2500.0
G4 P0.02
G0 X3.0252 Y-283.7156 F15000.0
G1 Z11.9000 F2500.0
G4 P0.02
G1 X2.7070 Y-283.3974 F3500.0
G1 X3.7524 Y-284.5337
G1 X4.2070 Y-284.8065
G1 X4.2070 Y-285.0000
G1 X4.5252 Y-283.4883
G1 X4.4797 Y-283.4428
G1 Z0.0000 F2500.0
G4 P0.02
G0 X7.7393 Y-283.6407 F15000.0
G1 Z11.9000 F2500.0
G4 P0.02
G1 X8.2378 Y-285.0000 F3500.0
G1 Z0.0000 F2500.0
G4 P0.02
G0 X9.4666 Y-283.5498 F15000.0
G1 Z11.9000 F2500.0
G4 P0.02
G1 X9.4212 Y-283.3680 F3500.0
G1 Z0.0000 F2500.0
G4 P0.02
G0 X9.6030 Y-283.9135 F15000.0
G1 Z11.9000 F2500.0
G4 P0.02
G1 X9.9642 Y-285.0000 F3500.0
G1 Z0.0000 F2500.0
G4 P0.02
G0 X10.4723 Y-283.5605 F15000.0
G1 Z11.9000 F2500.0
G4 P0.02
G1 X10.3813 Y-283.3786 F3500.0
G1 X11.2904 Y-284.9241
G1 Z0.0000 F2500.0
G4 P0.02
G0 X12.3813 Y-283.9241 F15000.0
G1 Z11.9000 F2500.0
G4 P0.02
G1 X12.1995 Y-283.3786 F3500.0
G1 Z0.0000 F2500.0
G4 P0.02
G0 X12.4723 Y-284.1514 F15000.0
G1 Z11.9000 F2500.0
G4 P0.02
G1 X12.7551 Y-285.0000 F3500.0
G1 Z0.0000 F2500.0
G4 P0.02
G0 X13.4015 Y-283.9589 F15000.0
G1 Z11.9000 F2500.0
G4 P0.02
G1 X14.5834 Y-283.4589 F3500.0
G1 X14.9470 Y-283.6407
G1 X14.8561 Y-283.5498
G1 X15.1743 Y-283.9589
G1 X15.5213 Y-285.0000
G1 Z0.0000 F2500.0
G4 P0.02
G0 X13.6288 Y-284.5498 F15000.0
G1 Z11.9000 F2500.0
G4 P0.02
G1 X13.7980 Y-285.0000 F3500.0
G1 Z0.0000 F2500.0
G4 P0.02
G0 X16.7084 Y-285.0000 F15000.0
G1 Z11.9000 F2500.0
G4 P0.02
G1 X16.2251 Y-283.5961 F3500.0
G1 X16.3160 Y-283.5052
G1 X17.7251 Y-283.4597
G1 Z0.0000 F2500.0
G4 P0.02
G0 X18.8100 Y-283.5288 F15000.0
G1 Z11.9000 F2500.0
G4 P0.02
G1 X19.3100 Y-284.8015 F3500.0
G1 Z0.0000 F2500.0
G4 P0.02
G0 X20.1093 Y-285.0000 F15000.0
G1 Z11.9000 F2500.0
G4 P0.02
G1 X20.1736 Y-284.7106 F3500.0
G1 Z0.0000 F2500.0
G4 P0.02
G0 X20.3554 Y-284.0743 F15000.0
G1 Z11.9000 F2500.0
G4 P0.02
G1 X20.4918 Y-283.5288 F3500.0
G1 Z0.0000 F2500.0
G4 P0.02
G0 X21.7359 Y-283.9589 F15000.0
G1 Z11.9000 F2500.0
G4 P0.02
G1 X22.9177 Y-283.4589 F3500.0
G1 X23.2814 Y-283.6407
G1 X23.1905 Y-283.5498
G1 X23.5086 Y-283.9589
G1 X23.8557 Y-285.0000
G1 Z0.0000 F2500.0
G4 P0.02
G0 X21.9632 Y-284.5498 F15000.0
G1 Z11.9000 F2500.0
G4 P0.02
G1 X22.1324 Y-285.0000 F3500.0
G1 Z0.0000 F2500.0
G4 P0.02
G0 X25.0428 Y-285.0000 F15000.0
G1 Z11.9000 F2500.0
G4 P0.02
G1 X24.5595 Y-283.5961 F3500.0
G1 X24.6504 Y-283.5052
G1 X26.0595 Y-283.4597
G1 Z0.0000 F2500.0
G4 P0.02
G0 X27.1862 Y-283.6407 F15000.0
G1 Z11.9000 F2500.0
G4 P0.02
G1 X27.6846 Y-285.0000 F3500.0
G1 Z0.0000 F2500.0
G4 P0.02
G0 X28.9589 Y-284.6862 F15000.0
G1 Z11.9000 F2500.0
G4 P0.02
G1 X28.4589 Y-283.3680 F3500.0
G1 Z0.0000 F2500.0
G4 P0.02
G0 X29.0044 Y-284.7771 F15000.0
G1 Z11.9000 F2500.0
G4 P0.02
G1 X29.0787 Y-285.0000 F3500.0
G1 Z0.0000 F2500.0
G4 P0.02
G0 X30.4494 Y-285.0000 F15000.0
G1 Z11.9000 F2500.0
G4 P0.02
G1 X29.9135 Y-283.3680 F3500.0
G1 Z0.0000 F2500.0
G4 P0.02
G0 X31.4384 Y-283.5953 F15000.0
G1 Z11.9000 F2500.0
G4 P0.02
G1 X31.8020 Y-284.9589 F3500.0
G1 Z0.0000 F2500.0
G4 P0.02
G0 X31.5293 Y-283.5044 F15000.0
G1 Z11.9000 F2500.0
G4 P0.02
G1 X32.9384 Y-283.4589 F3500.0
G1 Z0.0000 F2500.0
G4 P0.02
G0 X34.2168 Y-283.5961 F15000.0
G1 Z11.9000 F2500.0
G4 P0.02
G1 X34.5778 Y-285.0000 F3500.0
G1 Z0.0000 F2500.0
G4 P0.02
G0 X34.3077 Y-283.5052 F15000.0
G1 Z11.9000 F2500.0
G4 P0.02
G1 X35.7622 Y-283.5052 F3500.0
G1 X36.3211 Y-285.0000
G1 Z0.0000 F2500.0
G4 P0.02
G0 X39.0511 Y-283.9135 F15000.0
G1 Z11.9000 F2500.0
G4 P0.02
G1 X38.9602 Y-283.6407 F3500.0
G1 X39.4586 Y-285.0000
G1 Z0.0000 F2500.0
G4 P0.02
G0 X40.6875 Y-283.5498 F15000.0
G1 Z11.9000 F2500.0
G4 P0.02
G1 X40.6420 Y-283.3680 F3500.0
G1 Z0.0000 F2500.0
G4 P0.02
G0 X40.8238 Y-283.9135 F15000.0
G1 Z11.9000 F2500.0
G4 P0.02
G1 X41.1851 Y-285.0000 F3500.0
G1 Z0.0000 F2500.0
G4 P0.02
G0 X41.4911 Y-283.0044 F15000.0
G1 Z11.9000 F2500.0
G4 P0.02
G1 X41.1729 Y-282.0953 F3500.0
G1 Z0.0000 F2500.0
G4 P0.02
G0 X41.5365 Y-283.0953 F15000.0
G1 Z11.9000 F2500.0
G4 P0.02
G1 X42.2544 Y-285.0000 F3500.0
G1 Z0.0000 F2500.0
G4 P0.02
G0 X41.7638 Y-283.4135 F15000.0
G1 Z11.9000 F2500.0
G4 P0.02
G1 X43.2638 Y-283.5498 F3500.0
G1 X43.4456 Y-283.6862
G1 X43.7183 Y-284.1862
G1 X44.0048 Y-285.0000
G1 Z0.0000 F2500.0
G4 P0.02
G0 X44.6224 Y-283.9589 F15000.0
G1 Z11.9000 F2500.0
G4 P0.02
G1 X45.8042 Y-283.4589 F3500.0
G1 X46.1678 Y-283.6407
G1 X46.0769 Y-283.5498
G1 X46.3951 Y-283.9589
G1 X46.7421 Y-285.0000
G1 Z0.0000 F2500.0
G4 P0.02
G0 X44.8496 Y-284.5498 F15000.0
G1 Z11.9000 F2500.0
G4 P0.02
G1 X45.0188 Y-285.0000 F3500.0
G1 Z0.0000 F2500.0
G4 P0.02
G0 X47.8093 Y-284.9589 F15000.0
G1 Z11.9000 F2500.0
G4 P0.02
G1 X47.4457 Y-283.5953 F3500.0
G1 X47.5366 Y-283.5044
G1 X48.9457 Y-283.4589
G1 Z0.0000 F2500.0
G4 P0.02
G0 X50.0308 Y-283.5288 F15000.0
G1 Z11.9000 F2500.0
G4 P0.02
G1 X50.5308 Y-284.8015 F3500.0
G1 Z0.0000 F2500.0
G4 P0.02
G0 X51.3301 Y-285.0000 F15000.0
G1 Z11.9000 F2500.0
G4 P0.02
G1 X51.3944 Y-284.7106 F3500.0
G1 Z0.0000 F2500.0
G4 P0.02
G0 X51.5762 Y-284.0743 F15000.0
G1 Z11.9000 F2500.0
G4 P0.02
G1 X51.7126 Y-283.5288 F3500.0
G1 Z0.0000 F2500.0
G4 P0.02
G0 X53.3539 Y-285.0000 F15000.0
G1 Z11.9000 F2500.0
G4 P0.02
G1 X52.9543 Y-283.6415 F3500.0
G1 X54.5907 Y-283.4142
G1 X55.1575 Y-285.0000
G1 Z0.0000 F2500.0
G4 P0.02
G0 X54.8179 Y-283.3688 F15000.0
G1 Z11.9000 F2500.0
G4 P0.02
G1 X54.6361 Y-282.6869 F3500.0
G1 Z0.0000 F2500.0
G4 P0.02
G0 X56.1772 Y-283.5961 F15000.0
G1 Z11.9000 F2500.0
G4 P0.02
G1 X56.5382 Y-285.0000 F3500.0
G1 Z0.0000 F2500.0
G4 P0.02
G0 X56.2681 Y-283.5052 F15000.0
G1 Z11.9000 F2500.0
G4 P0.02
G1 X57.7227 Y-283.5052 F3500.0
G1 X58.2815 Y-285.0000
G1 Z0.0000 F2500.0
G4 P0.02
G0 X59.3163 Y-285.0000 F15000.0
G1 Z11.9000 F2500.0
G4 P0.02
G1 X58.9553 Y-283.5961 F3500.0
G1 X59.0462 Y-283.5052
G1 X60.5008 Y-283.5052
G1 X61.0597 Y-285.0000
G1 Z0.0000 F2500.0
G4 P0.02
G0 X0.0595 Y-277.7134 F15000.0
G1 Z11.9000 F2500.0
G4 P0.02
G1 X0.0000 Y-277.7117 F3500.0
G1 X0.1049 Y-277.7589
G1 X0.5140 Y-279.0316
G1 X0.0000 Y-279.2653
G1 X0.1504 Y-279.3043
G1 X0.4231 Y-279.1679
G1 Z0.0000 F2500.0
G4 P0.02
G0 X1.1103 Y-277.5770 F15000.0
G1 Z11.9000 F2500.0
G4 P0.02
G1 X0.7467 Y-276.2134 F3500.0
G1 X0.8376 Y-276.1225
G1 X2.2467 Y-276.0770
G1 Z0.0000 F2500.0
G4 P0.02
G0 X1.1558 Y-277.7134 F15000.0
G1 Z11.9000 F2500.0
G4 P0.02
G1 X1.5649 Y-278.8498 F3500.0
G1 X1.7012 Y-278.9861
G1 X2.9285 Y-279.3043
G1 X3.2922 Y-279.0316
G1 X2.8376 Y-277.7134
G1 X1.2012 Y-277.6679
G1 Z0.0000 F2500.0
G4 P0.02
G0 X5.2431 Y-275.6225 F15000.0
G1 Z11.9000 F2500.0
G4 P0.02
G1 X4.9250 Y-274.7134 F3500.0
G1 Z0.0000 F2500.0
G4 P0.02
G0 X5.2886 Y-275.7134 F15000.0
G1 Z11.9000 F2500.0
G4 P0.02
G1 X6.6068 Y-279.2589 F3500.0
G1 X8.1068 Y-279.1679
G1 X8.1522 Y-278.7134
G1 X7.4250 Y-276.7134
G1 X7.1977 Y-276.3043
G1 X7.0159 Y-276.1679
G1 X5.5159 Y-276.0316
G1 Z0.0000 F2500.0
G4 P0.02
G0 X8.3352 Y-276.5778 F15000.0
G1 Z11.9000 F2500.0
G4 P0.02
G1 X9.5170 Y-276.0778 F3500.0
G1 X10.1079 Y-276.3051
G1 X11.0170 Y-279.2142
G1 X10.9715 Y-279.2596
G1 X9.3352 Y-278.9869
G1 X9.1988 Y-278.8505
G1 X8.5624 Y-277.1687
G1 Z0.0000 F2500.0
G4 P0.02
G0 X12.1526 Y-278.9869 F15000.0
G1 Z11.9000 F2500.0
G4 P0.02
G1 X11.1980 Y-276.2142 F3500.0
G1 X11.2889 Y-276.1233
G1 X12.6980 Y-276.0779
G1 Z0.0000 F2500.0
G4 P0.02
G0 X12.3798 Y-279.1688 F15000.0
G1 Z11.9000 F2500.0
G4 P0.02
G1 X13.8798 Y-279.3051 F3500.0
G1 Z0.0000 F2500.0
G4 P0.02
G0 X14.9307 Y-278.9869 F15000.0
G1 Z11.9000 F2500.0
G4 P0.02
G1 X13.9762 Y-276.2142 F3500.0
G1 X14.0671 Y-276.1233
G1 X15.4762 Y-276.0779
G1 Z0.0000 F2500.0
G4 P0.02
G0 X15.1580 Y-279.1688 F15000.0
G1 Z11.9000 F2500.0
G4 P0.02
G1 X16.6580 Y-279.3051 F3500.0
G1 Z0.0000 F2500.0
G4 P0.02
G0 X16.6938 Y-276.5316 F15000.0
G1 Z11.9000 F2500.0
G4 P0.02
G1 X16.6029 Y-276.2589 F3500.0
G1 X17.6483 Y-279.1225
G1 X17.7393 Y-279.2134
G1 X19.0120 Y-279.2589
G1 Z0.0000 F2500.0
G4 P0.02
G0 X18.3756 Y-277.3043 F15000.0
G1 Z11.9000 F2500.0
G4 P0.02
G1 X17.8756 Y-275.9861 F3500.0
G1 Z0.0000 F2500.0
G4 P0.02
G0 X18.4211 Y-277.3952 F15000.0
G1 Z11.9000 F2500.0
G4 P0.02
G1 X19.1029 Y-279.2589 F3500.0
G1 X20.1938 Y-279.2134
G1 X20.3302 Y-279.0316
G1 X19.3302 Y-275.9861
G1 Z0.0000 F2500.0
G4 P0.02
G0 X20.8099 Y-276.5770 F15000.0
G1 Z11.9000 F2500.0
G4 P0.02
G1 X21.9917 Y-276.0770 F3500.0
G1 X22.3553 Y-276.2589
G1 X22.2644 Y-276.1679
G1 X22.5826 Y-276.5770
G1 X23.4008 Y-279.0316
G1 X23.3099 Y-279.1679
G1 X23.0371 Y-279.3043
G1 X21.8099 Y-278.9861
G1 X21.6735 Y-278.8498
G1 X21.0371 Y-277.1679
G1 Z0.0000 F2500.0
G4 P0.02
G0 X24.0717 Y-276.8051 F15000.0
G1 Z11.9000 F2500.0
G4 P0.02
G1 X23.9354 Y-276.6688 F3500.0
G1 Z0.0000 F2500.0
G4 P0.02
G0 X24.1627 Y-277.8506 F15000.0
G1 Z11.9000 F2500.0
G4 P0.02
G1 X24.4354 Y-278.8506 F3500.0
G1 X24.8445 Y-279.2142
G1 X26.2990 Y-279.2142
G1 X26.1627 Y-278.7142
G1 X25.6627 Y-277.6233
G1 X25.6172 Y-277.3051
G1 X25.6172 Y-277.6688
G1 X24.6172 Y-277.6233
G1 X24.2990 Y-277.7142
G1 Z0.0000 F2500.0
G4 P0.02
G0 X24.6172 Y-277.5779 F15000.0
G1 Z11.9000 F2500.0
G4 P0.02
G1 X24.3445 Y-277.1233 F3500.0
G1 Z0.0000 F2500.0
G4 P0.02
G0 X25.2081 Y-276.1688 F15000.0
G1 Z11.9000 F2500.0
G4 P0.02
G1 X25.1627 Y-275.9869 F3500.0
G1 Z0.0000 F2500.0
G4 P0.02
G0 X26.3511 Y-276.5324 F15000.0
G1 Z11.9000 F2500.0
G4 P0.02
G1 X26.2602 Y-276.2597 F3500.0
G1 X26.8511 Y-277.7142
G1 X27.3511 Y-279.3051
G1 Z0.0000 F2500.0
G4 P0.02
G0 X26.8965 Y-277.6688 F15000.0
G1 Z11.9000 F2500.0
G4 P0.02
G1 X28.3965 Y-277.6688 F3500.0
G1 X28.3965 Y-277.3051
G1 X28.4420 Y-277.6233
G1 X28.5784 Y-277.8051
G1 X29.1238 Y-279.3051
G1 Z0.0000 F2500.0
G4 P0.02
G0 X27.9875 Y-276.1688 F15000.0
G1 Z11.9000 F2500.0
G4 P0.02
G1 X27.9420 Y-275.9869 F3500.0
G1 Z0.0000 F2500.0
G4 P0.02
G0 X29.5988 Y-277.8051 F15000.0
G1 Z11.9000 F2500.0
G4 P0.02
G1 X29.1897 Y-276.2142 F3500.0
G1 X29.2806 Y-276.1233
G1 X30.7351 Y-276.1233
G1 X31.9170 Y-279.3051
G1 Z0.0000 F2500.0
G4 P0.02
G0 X29.6897 Y-278.0324 F15000.0
G1 Z11.9000 F2500.0
G4 P0.02
G1 X30.1442 Y-279.3051 F3500.0
G1 Z0.0000 F2500.0
G4 P0.02
G0 X32.3312 Y-277.5770 F15000.0
G1 Z11.9000 F2500.0
G4 P0.02
G1 X31.9675 Y-276.2134 F3500.0
G1 X32.0584 Y-276.1225
G1 X33.4675 Y-276.0770
G1 Z0.0000 F2500.0
G4 P0.02
G0 X32.3766 Y-277.7134 F15000.0
G1 Z11.9000 F2500.0
G4 P0.02
G1 X32.7857 Y-278.8498 F3500.0
G1 X32.9221 Y-278.9861
G1 X34.1494 Y-279.3043
G1 X34.5130 Y-279.0316
G1 X34.0584 Y-277.7134
G1 X32.4221 Y-277.6679
G1 Z0.0000 F2500.0
G4 P0.02
G0 X36.8172 Y-276.5770 F15000.0
G1 Z11.9000 F2500.0
G4 P0.02
G1 X37.9990 Y-276.0770 F3500.0
G1 X38.3626 Y-276.2589
G1 X38.2717 Y-276.1679
G1 X38.5899 Y-276.5770
G1 X39.4081 Y-279.0316
G1 X39.3172 Y-279.1679
G1 X39.0444 Y-279.3043
G1 X37.8172 Y-278.9861
G1 X37.6808 Y-278.8498
G1 X37.0444 Y-277.1679
G1 Z0.0000 F2500.0
G4 P0.02
G0 X39.5803 Y-276.5316 F15000.0
G1 Z11.9000 F2500.0
G4 P0.02
G1 X39.4893 Y-276.2589 F3500.0
G1 X40.5348 Y-279.1225
G1 X40.6257 Y-279.2134
G1 X41.8984 Y-279.2589
G1 Z0.0000 F2500.0
G4 P0.02
G0 X41.2621 Y-277.3043 F15000.0
G1 Z11.9000 F2500.0
G4 P0.02
G1 X40.7621 Y-275.9861 F3500.0
G1 Z0.0000 F2500.0
G4 P0.02
G0 X41.3075 Y-277.3952 F15000.0
G1 Z11.9000 F2500.0
G4 P0.02
G1 X41.9893 Y-279.2589 F3500.0
G1 X43.0803 Y-279.2134
G1 X43.2166 Y-279.0316
G1 X42.2166 Y-275.9861
G1 Z0.0000 F2500.0
G4 P0.02
G0 X45.7071 Y-276.2589 F15000.0
G1 Z11.9000 F2500.0
G4 P0.02
G1 X46.7525 Y-279.1225 F3500.0
G1 X46.8434 Y-279.2134
G1 X48.1161 Y-279.2589
G1 Z0.0000 F2500.0
G4 P0.02
G0 X47.4798 Y-277.3043 F15000.0
G1 Z11.9000 F2500.0
G4 P0.02
G1 X46.9798 Y-275.9861 F3500.0
G1 Z0.0000 F2500.0
G4 P0.02
G0 X47.5252 Y-277.3952 F15000.0
G1 Z11.9000 F2500.0
G4 P0.02
G1 X48.2071 Y-279.2589 F3500.0
G1 X49.2980 Y-279.2134
G1 X49.4343 Y-279.0316
G1 X48.4343 Y-275.9861
G1 Z0.0000 F2500.0
G4 P0.02
G0 X49.9140 Y-276.5770 F15000.0
G1 Z11.9000 F2500.0
G4 P0.02
G1 X51.0959 Y-276.0770 F3500.0
G1 X51.4595 Y-276.2589
G1 X51.3686 Y-276.1679
G1 X51.6868 Y-276.5770
G1 X52.5049 Y-279.0316
G1 X52.4140 Y-279.1679
G1 X52.1413 Y-279.3043
G1 X50.9140 Y-278.9861
G1 X50.7777 Y-278.8498
G1 X50.1413 Y-277.1679
G1 Z0.0000 F2500.0
G4 P0.02
G0 X53.6862 Y-279.3051 F15000.0
G1 Z11.9000 F2500.0
G4 P0.02
G1 X53.3226 Y-277.8051 F3500.0
G1 X53.4135 Y-277.7142
G1 X54.7317 Y-277.6688
G1 X54.7317 Y-277.3051
G1 X55.4589 Y-279.3051
G1 Z0.0000 F2500.0
G4 P0.02
G0 X54.3226 Y-276.1688 F15000.0
G1 Z11.9000 F2500.0
G4 P0.02
G1 X54.2771 Y-275.9869 F3500.0
G1 Z0.0000 F2500.0
G4 P0.02
G0 X55.8225 Y-277.4197 F15000.0
G1 Z11.9000 F2500.0
G4 P0.02
G1 X55.3225 Y-276.1469 F3500.0
G1 Z0.0000 F2500.0
G4 P0.02
G0 X55.9588 Y-277.6924 F15000.0
G1 Z11.9000 F2500.0
G4 P0.02
G1 X56.0043 Y-278.0106 F3500.0
G1 X56.0043 Y-277.6469
G1 X56.5497 Y-277.7833
G1 X56.6861 Y-277.3288
G1 Z0.0000 F2500.0
G4 P0.02
G0 X56.0497 Y-278.1015 F15000.0
G1 Z11.9000 F2500.0
G4 P0.02
G1 X56.4588 Y-279.2833 F3500.0
G1 Z0.0000 F2500.0
G4 P0.02
G0 X56.6861 Y-278.0106 F15000.0
G1 Z11.9000 F2500.0
G4 P0.02
G1 X57.1861 Y-278.4197 F3500.0
G1 Z0.0000 F2500.0
G4 P0.02
G0 X56.8679 Y-276.6924 F15000.0
G1 Z11.9000 F2500.0
G4 P0.02
G1 X57.0043 Y-276.1469 F3500.0
G1 Z0.0000 F2500.0
G4 P0.02
G0 X57.6861 Y-278.7833 F15000.0
G1 Z11.9000 F2500.0
G4 P0.02
G1 X58.3225 Y-279.3742 F3500.0
G1 Z0.0000 F2500.0
G4 P0.02
G0 X58.7030 Y-277.8051 F15000.0
G1 Z11.9000 F2500.0
G4 P0.02
G1 X58.2939 Y-276.2142 F3500.0
G1 X58.3848 Y-276.1233
G1 X59.8393 Y-276.1233
G1 X61.0211 Y-279.3051
G1 Z0.0000 F2500.0
G4 P0.02
G0 X58.7939 Y-278.0324 F15000.0
G1 Z11.9000 F2500.0
G4 P0.02
G1 X59.2484 Y-279.3051 F3500.0
G1 Z0.0000 F2500.0
G4 P0.02
G0 X63.1440 Y-276.5964 F15000.0
G1 Z11.9000 F2500.0
G4 P0.02
G1 X64.2804 Y-276.0510 F3500.0
G1 X64.5531 Y-276.1419
G1 Z0.0000 F2500.0
G4 P0.02
G0 X63.3713 Y-277.1873 F15000.0
G1 Z11.9000 F2500.0
G4 P0.02
G1 X64.0076 Y-278.8692 F3500.0
G1 X64.2804 Y-279.0964
G1 X64.9622 Y-279.2782
G1 X65.8258 Y-279.2782
G1 X64.9167 Y-276.5964
G1 Z0.0000 F2500.0
G4 P0.02
G0 X64.6440 Y-280.6873 F15000.0
G1 Z11.9000 F2500.0
G4 P0.02
G1 X66.0531 Y-280.6419 F3500.0
G1 X66.1895 Y-280.5055
G1 X65.8713 Y-279.3237
G1 Z0.0000 F2500.0
G4 P0.02
G0 X65.9213 Y-276.5770 F15000.0
G1 Z11.9000 F2500.0
G4 P0.02
G1 X67.1031 Y-276.0770 F3500.0
G1 X67.4668 Y-276.2589
G1 X67.3759 Y-276.1679
G1 X67.6941 Y-276.5770
G1 X68.5122 Y-279.0316
G1 X68.4213 Y-279.1679
G1 X68.1486 Y-279.3043
G1 X66.9213 Y-278.9861
G1 X66.7850 Y-278.8498
G1 X66.1486 Y-277.1679
G1 Z0.0000 F2500.0
G4 P0.02
G0 X0.1363 Y-271.2478 F15000.0
G1 Z11.9000 F2500.0
G4 P0.02
G1 X0.0000 Y-270.8728 F3500.0
G1 Z0.0000 F2500.0
G4 P0.02
G0 X0.3636 Y-271.4750 F15000.0
G1 Z11.9000 F2500.0
G4 P0.02
G1 X0.4091 Y-271.8841 F3500.0
G1 Z0.0000 F2500.0
G4 P0.02
G0 X0.5909 Y-271.0659 F15000.0
G1 Z11.9000 F2500.0
G4 P0.02
G1 X0.8182 Y-270.4750 F3500.0
G1 X1.0909 Y-270.5659
G1 X1.8636 Y-271.2478
G1 X2.1363 Y-271.3387
G1 X2.0909 Y-270.8387
G1 X1.8182 Y-270.0659
G1 Z0.0000 F2500.0
G4 P0.02
G0 X1.3636 Y-268.7932 F15000.0
G1 Z11.9000 F2500.0
G4 P0.02
G1 X1.3182 Y-268.6114 F3500.0
G1 X1.5000 Y-269.1568
G1 Z0.0000 F2500.0
G4 P0.02
G0 X2.9624 Y-270.1952 F15000.0
G1 Z11.9000 F2500.0
G4 P0.02
G1 X2.5988 Y-268.8315 F3500.0
G1 X2.6897 Y-268.7406
G1 X4.0988 Y-268.6952
G1 Z0.0000 F2500.0
G4 P0.02
G0 X3.0079 Y-270.3315 F15000.0
G1 Z11.9000 F2500.0
G4 P0.02
G1 X3.4170 Y-271.4679 F3500.0
G1 X3.5533 Y-271.6043
G1 X4.7806 Y-271.9224
G1 X5.1442 Y-271.6497
G1 X4.6897 Y-270.3315
G1 X3.0533 Y-270.2861
G1 Z0.0000 F2500.0
G4 P0.02
G0 X5.3167 Y-269.1505 F15000.0
G1 Z11.9000 F2500.0
G4 P0.02
G1 X5.2258 Y-268.8778 F3500.0
G1 X5.8167 Y-270.3323
G1 X6.3167 Y-271.9232
G1 Z0.0000 F2500.0
G4 P0.02
G0 X5.8622 Y-270.2869 F15000.0
G1 Z11.9000 F2500.0
G4 P0.02
G1 X7.3622 Y-270.2869 F3500.0
G1 X7.3622 Y-269.9232
G1 X7.4076 Y-270.2414
G1 X7.5440 Y-270.4232
G1 X8.0894 Y-271.9232
G1 Z0.0000 F2500.0
G4 P0.02
G0 X6.9531 Y-268.7869 F15000.0
G1 Z11.9000 F2500.0
G4 P0.02
G1 X6.9076 Y-268.6051 F3500.0
G1 Z0.0000 F2500.0
G4 P0.02
G0 X8.5039 Y-270.2414 F15000.0
G1 Z11.9000 F2500.0
G4 P0.02
G1 X7.9585 Y-268.6960 F3500.0
G1 X8.0039 Y-268.6505
G1 X9.2767 Y-268.8778
G1 X9.5039 Y-269.1051
G1 Z0.0000 F2500.0
G4 P0.02
G0 X9.3221 Y-268.9232 F15000.0
G1 Z11.9000 F2500.0
G4 P0.02
G1 X9.6403 Y-269.4232 F3500.0
G1 X9.7767 Y-270.0142
G1 X9.6857 Y-270.1505
G1 X8.5948 Y-270.3778
G1 X9.0948 Y-271.9232
G1 Z0.0000 F2500.0
G4 P0.02
G0 X10.0494 Y-268.6051 F15000.0
G1 Z11.9000 F2500.0
G4 P0.02
G1 X11.2312 Y-271.9232 F3500.0
G1 Z0.0000 F2500.0
G4 P0.02
G0 X13.3865 Y-269.1497 F15000.0
G1 Z11.9000 F2500.0
G4 P0.02
G1 X13.2956 Y-268.8770 F3500.0
G1 X14.3410 Y-271.7406
G1 X14.4320 Y-271.8315
G1 X15.7956 Y-271.8315
G1 X15.9320 Y-271.6952
G1 X14.9774 Y-268.6043
G1 Z0.0000 F2500.0
G4 P0.02
G0 X16.0285 Y-268.7967 F15000.0
G1 Z11.9000 F2500.0
G4 P0.02
G1 X15.9376 Y-268.6149 F3500.0
G1 X16.8467 Y-270.1603
G1 Z0.0000 F2500.0
G4 P0.02
G0 X17.9376 Y-269.1603 F15000.0
G1 Z11.9000 F2500.0
G4 P0.02
G1 X17.7558 Y-268.6149 F3500.0
G1 Z0.0000 F2500.0
G4 P0.02
G0 X17.8921 Y-271.8422 F15000.0
G1 Z11.9000 F2500.0
G4 P0.02
G1 X18.8467 Y-271.8422 F3500.0
G1 X18.0285 Y-269.3876
G1 Z0.0000 F2500.0
G4 P0.02
G0 X18.9578 Y-269.1952 F15000.0
G1 Z11.9000 F2500.0
G4 P0.02
G1 X20.1396 Y-268.6952 F3500.0
G1 X20.5032 Y-268.8770
G1 X20.4123 Y-268.7861
G1 X20.7305 Y-269.1952
G1 X21.5487 Y-271.6497
G1 X21.4578 Y-271.7861
G1 X21.1851 Y-271.9224
G1 X19.9578 Y-271.6043
G1 X19.8214 Y-271.4679
G1 X19.1851 Y-269.7861
G1 Z0.0000 F2500.0
G4 P0.02
G0 X22.7359 Y-271.6051 F15000.0
G1 Z11.9000 F2500.0
G4 P0.02
G1 X21.7814 Y-268.8323 F3500.0
G1 X21.8723 Y-268.7414
G1 X23.2814 Y-268.6960
G1 Z0.0000 F2500.0
G4 P0.02
G0 X22.9632 Y-271.7869 F15000.0
G1 Z11.9000 F2500.0
G4 P0.02
G1 X24.4632 Y-271.9232 F3500.0
G1 Z0.0000 F2500.0
G4 P0.02
G0 X24.8662 Y-270.0378 F15000.0
G1 Z11.9000 F2500.0
G4 P0.02
G1 X24.3662 Y-268.7651 F3500.0
G1 Z0.0000 F2500.0
G4 P0.02
G0 X25.0026 Y-270.3105 F15000.0
G1 Z11.9000 F2500.0
G4 P0.02
G1 X25.0480 Y-270.6287 F3500.0
G1 X25.0480 Y-270.2651
G1 X25.5935 Y-270.4014
G1 X25.7298 Y-269.9469
G1 Z0.0000 F2500.0
G4 P0.02
G0 X25.0935 Y-270.7196 F15000.0
G1 Z11.9000 F2500.0
G4 P0.02
G1 X25.5026 Y-271.9014 F3500.0
G1 Z0.0000 F2500.0
G4 P0.02
G0 X25.7298 Y-270.6287 F15000.0
G1 Z11.9000 F2500.0
G4 P0.02
G1 X26.2298 Y-271.0378 F3500.0
G1 Z0.0000 F2500.0
G4 P0.02
G0 X25.9117 Y-269.3105 F15000.0
G1 Z11.9000 F2500.0
G4 P0.02
G1 X26.0480 Y-268.7651 F3500.0
G1 Z0.0000 F2500.0
G4 P0.02
G0 X26.7298 Y-271.4014 F15000.0
G1 Z11.9000 F2500.0
G4 P0.02
G1 X27.3662 Y-271.9923 F3500.0
G1 Z0.0000 F2500.0
G4 P0.02
G0 X27.2922 Y-269.1952 F15000.0
G1 Z11.9000 F2500.0
G4 P0.02
G1 X28.4740 Y-268.6952 F3500.0
G1 X28.8376 Y-268.8770
G1 X28.7467 Y-268.7861
G1 X29.0649 Y-269.1952
G1 X29.8831 Y-271.6497
G1 X29.7922 Y-271.7861
G1 X29.5194 Y-271.9224
G1 X28.2922 Y-271.6043
G1 X28.1558 Y-271.4679
G1 X27.5194 Y-269.7861
G1 Z0.0000 F2500.0
G4 P0.02
G0 X31.0703 Y-271.6051 F15000.0
G1 Z11.9000 F2500.0
G4 P0.02
G1 X30.1157 Y-268.8323 F3500.0
G1 X30.2066 Y-268.7414
G1 X31.6157 Y-268.6960
G1 Z0.0000 F2500.0
G4 P0.02
G0 X31.2976 Y-271.7869 F15000.0
G1 Z11.9000 F2500.0
G4 P0.02
G1 X32.7976 Y-271.9232 F3500.0
G1 Z0.0000 F2500.0
G4 P0.02
G0 X32.8334 Y-269.1497 F15000.0
G1 Z11.9000 F2500.0
G4 P0.02
G1 X32.7425 Y-268.8770 F3500.0
G1 X33.7879 Y-271.7406
G1 X33.8788 Y-271.8315
G1 X35.1516 Y-271.8770
G1 Z0.0000 F2500.0
G4 P0.02
G0 X34.5152 Y-269.9224 F15000.0
G1 Z11.9000 F2500.0
G4 P0.02
G1 X34.0152 Y-268.6043 F3500.0
G1 Z0.0000 F2500.0
G4 P0.02
G0 X34.5607 Y-270.0133 F15000.0
G1 Z11.9000 F2500.0
G4 P0.02
G1 X35.2425 Y-271.8770 F3500.0
G1 X36.3334 Y-271.8315
G1 X36.4697 Y-271.6497
G1 X35.4697 Y-268.6043
G1 Z0.0000 F2500.0
G4 P0.02
G0 X36.9946 Y-268.8315 F15000.0
G1 Z11.9000 F2500.0
G4 P0.02
G1 X37.3583 Y-270.1952 F3500.0
G1 X37.4492 Y-270.2861
G1 X39.1310 Y-270.3770
G1 X39.5401 Y-271.6497
G1 X39.4492 Y-271.7861
G1 X39.1764 Y-271.9224
G1 X37.9492 Y-271.6043
G1 X37.8128 Y-271.4679
G1 X37.4037 Y-270.3315
G1 Z0.0000 F2500.0
G4 P0.02
G0 X37.0855 Y-268.7406 F15000.0
G1 Z11.9000 F2500.0
G4 P0.02
G1 X38.4946 Y-268.6952 F3500.0
G1 Z0.0000 F2500.0
G4 P0.02
G0 X40.1821 Y-270.4232 F15000.0
G1 Z11.9000 F2500.0
G4 P0.02
G1 X39.7730 Y-268.8323 F3500.0
G1 X39.8639 Y-268.7414
G1 X41.3185 Y-268.7414
G1 X42.5003 Y-271.9232
G1 Z0.0000 F2500.0
G4 P0.02
G0 X40.2730 Y-270.6505 F15000.0
G1 Z11.9000 F2500.0
G4 P0.02
G1 X40.7276 Y-271.9232 F3500.0
G1 Z0.0000 F2500.0
G4 P0.02
G0 X42.4417 Y-273.3517 F15000.0
G1 Z11.9000 F2500.0
G4 P0.02
G1 X41.7599 Y-273.3063 F3500.0
G1 Z0.0000 F2500.0
G4 P0.02
G0 X44.6073 Y-269.1497 F15000.0
G1 Z11.9000 F2500.0
G4 P0.02
G1 X44.5164 Y-268.8770 F3500.0
G1 X45.5619 Y-271.7406
G1 X45.6528 Y-271.8315
G1 X47.0164 Y-271.8315
G1 X47.1528 Y-271.6952
G1 X46.1982 Y-268.6043
G1 Z0.0000 F2500.0
G4 P0.02
G0 X47.0473 Y-268.2406 F15000.0
G1 Z11.9000 F2500.0
G4 P0.02
G1 X46.7291 Y-267.3315 F3500.0
G1 Z0.0000 F2500.0
G4 P0.02
G0 X47.0928 Y-268.3315 F15000.0
G1 Z11.9000 F2500.0
G4 P0.02
G1 X48.4110 Y-271.8770 F3500.0
G1 X49.9110 Y-271.7861
G1 X49.9564 Y-271.3315
G1 X49.2291 Y-269.3315
G1 X49.0019 Y-268.9224
G1 X48.8200 Y-268.7861
G1 X47.3200 Y-268.6497
G1 Z0.0000 F2500.0
G4 P0.02
G0 X50.1786 Y-269.1952 F15000.0
G1 Z11.9000 F2500.0
G4 P0.02
G1 X51.3604 Y-268.6952 F3500.0
G1 X51.7241 Y-268.8770
G1 X51.6332 Y-268.7861
G1 X51.9513 Y-269.1952
G1 X52.7695 Y-271.6497
G1 X52.6786 Y-271.7861
G1 X52.4059 Y-271.9224
G1 X51.1786 Y-271.6043
G1 X51.0423 Y-271.4679
G1 X50.4059 Y-269.7861
G1 Z0.0000 F2500.0
G4 P0.02
G0 X53.3655 Y-270.1952 F15000.0
G1 Z11.9000 F2500.0
G4 P0.02
G1 X53.0019 Y-268.8315 F3500.0
G1 X53.0928 Y-268.7406
G1 X54.5019 Y-268.6952
G1 Z0.0000 F2500.0
G4 P0.02
G0 X53.4110 Y-270.3315 F15000.0
G1 Z11.9000 F2500.0
G4 P0.02
G1 X53.8201 Y-271.4679 F3500.0
G1 X53.9565 Y-271.6043
G1 X55.1837 Y-271.9224
G1 X55.5474 Y-271.6497
G1 X55.0928 Y-270.3315
G1 X53.4565 Y-270.2861
G1 Z0.0000 F2500.0
G4 P0.02
G0 X56.0870 Y-270.0378 F15000.0
G1 Z11.9000 F2500.0
G4 P0.02
G1 X55.5870 Y-268.7651 F3500.0
G1 Z0.0000 F2500.0
G4 P0.02
G0 X56.2234 Y-270.3105 F15000.0
G1 Z11.9000 F2500.0
G4 P0.02
G1 X56.2689 Y-270.6287 F3500.0
G1 X56.2689 Y-270.2651
G1 X56.8143 Y-270.4014
G1 X56.9507 Y-269.9469
G1 Z0.0000 F2500.0
G4 P0.02
G0 X56.3143 Y-270.7196 F15000.0
G1 Z11.9000 F2500.0
G4 P0.02
G1 X56.7234 Y-271.9014 F3500.0
G1 Z0.0000 F2500.0
G4 P0.02
G0 X56.9507 Y-270.6287 F15000.0
G1 Z11.9000 F2500.0
G4 P0.02
G1 X57.4507 Y-271.0378 F3500.0
G1 Z0.0000 F2500.0
G4 P0.02
G0 X57.1325 Y-269.3105 F15000.0
G1 Z11.9000 F2500.0
G4 P0.02
G1 X57.2689 Y-268.7651 F3500.0
G1 Z0.0000 F2500.0
G4 P0.02
G0 X57.9507 Y-271.4014 F15000.0
G1 Z11.9000 F2500.0
G4 P0.02
G1 X58.5870 Y-271.9923 F3500.0
G1 Z0.0000 F2500.0
G4 P0.02
G0 X58.9651 Y-270.4232 F15000.0
G1 Z11.9000 F2500.0
G4 P0.02
G1 X58.5106 Y-268.8777 F3500.0
G1 X60.1469 Y-268.6505
G1 Z0.0000 F2500.0
G4 P0.02
G0 X59.0560 Y-270.6505 F15000.0
G1 Z11.9000 F2500.0
G4 P0.02
G1 X59.5106 Y-271.9232 F3500.0
G1 Z0.0000 F2500.0
G4 P0.02
G0 X61.1924 Y-271.6505 F15000.0
G1 Z11.9000 F2500.0
G4 P0.02
G1 X60.1924 Y-268.6959 F3500.0
G1 X60.3742 Y-268.6050
G1 X60.1924 Y-267.9232
G1 Z0.0000 F2500.0
G4 P0.02
G0 X61.7334 Y-268.8323 F15000.0
G1 Z11.9000 F2500.0
G4 P0.02
G1 X62.2334 Y-270.6505 F3500.0
G1 X62.6880 Y-271.9232
G1 Z0.0000 F2500.0
G4 P0.02
G0 X61.8244 Y-268.7414 F15000.0
G1 Z11.9000 F2500.0
G4 P0.02
G1 X63.2789 Y-268.7414 F3500.0
G1 X64.4607 Y-271.9232
G1 Z0.0000 F2500.0
G4 P0.02
G0 X64.9207 Y-270.4232 F15000.0
G1 Z11.9000 F2500.0
G4 P0.02
G1 X64.5116 Y-268.8323 F3500.0
G1 X64.6025 Y-268.7414
G1 X66.0570 Y-268.7414
G1 X67.2388 Y-271.9232
G1 Z0.0000 F2500.0
G4 P0.02
G0 X65.0116 Y-270.6505 F15000.0
G1 Z11.9000 F2500.0
G4 P0.02
G1 X65.4661 Y-271.9232 F3500.0
G1 Z0.0000 F2500.0
G4 P0.02
G0 X67.1802 Y-273.3517 F15000.0
G1 Z11.9000 F2500.0
G4 P0.02
G1 X66.4984 Y-273.3063 F3500.0
G1 Z0.0000 F2500.0
G4 P0.02
G0 X66.9482 Y-268.6885 F15000.0
G1 Z11.9000 F2500.0
G4 P0.02
G1 X67.1482 Y-268.6885 F3500.0
G1 Z0.0000 F2500.0
G4 P0.02
G0 X151.6804 Y-284.7833 F15000.0
G1 Z11.9000 F2500.0
G4 P0.02
G1 X151.7573 Y-285.0000 F3500.0
G1 Z0.0000 F2500.0
G4 P0.02
G0 X153.7258 Y-284.6470 F15000.0
G1 Z11.9000 F2500.0
G4 P0.02
G1 X153.8884 Y-285.0000 F3500.0
G1 Z0.0000 F2500.0
G4 P0.02
G0 X155.4836 Y-285.0000 F15000.0
G1 Z11.9000 F2500.0
G4 P0.02
G1 X156.1493 Y-284.7183 F3500.0
G1 X156.7530 Y-285.0000
G1 Z0.0000 F2500.0
G4 P0.02
G0 X159.7047 Y-284.6721 F15000.0
G1 Z11.9000 F2500.0
G4 P0.02
G1 X161.2956 Y-284.8085 F3500.0
G1 Z0.0000 F2500.0
G4 P0.02
G0 X162.5738 Y-284.8994 F15000.0
G1 Z11.9000 F2500.0
G4 P0.02
G1 X162.6073 Y-285.0000 F3500.0
G1 Z0.0000 F2500.0
G4 P0.02
G0 X164.2556 Y-284.6267 F15000.0
G1 Z11.9000 F2500.0
G4 P0.02
G1 X164.3010 Y-284.8085 F3500.0
G1 Z0.0000 F2500.0
G4 P0.02
G0 X165.3519 Y-284.8994 F15000.0
G1 Z11.9000 F2500.0
G4 P0.02
G1 X165.3854 Y-285.0000 F3500.0
G1 Z0.0000 F2500.0
G4 P0.02
G0 X166.1376 Y-285.0000 F15000.0
G1 Z11.9000 F2500.0
G4 P0.02
G1 X166.1246 Y-284.9449 F3500.0
G1 X166.9428 Y-284.7176
G1 X167.2610 Y-284.8085
G1 X167.4525 Y-285.0000
G1 Z0.0000 F2500.0
G4 P0.02
G0 X168.4119 Y-284.2630 F15000.0
G1 Z11.9000 F2500.0
G4 P0.02
G1 X168.0938 Y-283.3540 F3500.0
G1 Z0.0000 F2500.0
G4 P0.02
G0 X168.4574 Y-284.3540 F15000.0
G1 Z11.9000 F2500.0
G4 P0.02
G1 X168.7374 Y-285.0000 F3500.0
G1 X168.6847 Y-284.6721
G1 X170.1847 Y-284.8085
G1 X170.3971 Y-285.0000
G1 Z0.0000 F2500.0
G4 P0.02
G0 X171.5884 Y-284.8540 F15000.0
G1 Z11.9000 F2500.0
G4 P0.02
G1 X171.6274 Y-285.0000 F3500.0
G1 X171.6793 Y-284.7630
G1 X173.0884 Y-284.7176
G1 Z0.0000 F2500.0
G4 P0.02
G0 X176.9343 Y-285.0000 F15000.0
G1 Z11.9000 F2500.0
G4 P0.02
G1 X177.5753 Y-284.6923 F3500.0
G1 X177.8481 Y-284.7832
G1 Z0.0000 F2500.0
G4 P0.02
G0 X153.1954 Y-277.3812 F15000.0
G1 Z11.9000 F2500.0
G4 P0.02
G1 X153.0136 Y-277.3357 F3500.0
G1 X151.8318 Y-277.8357
G1 Z0.0000 F2500.0
G4 P0.02
G0 X152.0591 Y-278.4266 F15000.0
G1 Z11.9000 F2500.0
G4 P0.02
G1 X152.6954 Y-280.1084 F3500.0
G1 X152.8318 Y-280.2448
G1 X154.0591 Y-280.5630
G1 X154.4227 Y-280.2903
G1 X153.6045 Y-277.8357
G1 X153.2863 Y-277.4266
G1 X153.3772 Y-277.5175
G1 Z0.0000 F2500.0
G4 P0.02
G0 X154.5949 Y-277.7903 F15000.0
G1 Z11.9000 F2500.0
G4 P0.02
G1 X154.5040 Y-277.5175 F3500.0
G1 X155.5494 Y-280.3812
G1 X155.6403 Y-280.4721
G1 X157.0040 Y-280.4721
G1 X157.1403 Y-280.3357
G1 X156.1858 Y-277.2448
G1 Z0.0000 F2500.0
G4 P0.02
G0 X157.0349 Y-276.8812 F15000.0
G1 Z11.9000 F2500.0
G4 P0.02
G1 X156.7167 Y-275.9721 F3500.0
G1 Z0.0000 F2500.0
G4 P0.02
G0 X157.0803 Y-276.9721 F15000.0
G1 Z11.9000 F2500.0
G4 P0.02
G1 X158.3985 Y-280.5175 F3500.0
G1 X159.8985 Y-280.4266
G1 X159.9439 Y-279.9721
G1 X159.2167 Y-277.9721
G1 X158.9894 Y-277.5630
G1 X158.8076 Y-277.4266
G1 X157.3076 Y-277.2903
G1 Z0.0000 F2500.0
G4 P0.02
G0 X160.5750 Y-278.8357 F15000.0
G1 Z11.9000 F2500.0
G4 P0.02
G1 X160.2113 Y-277.4721 F3500.0
G1 X160.3022 Y-277.3812
G1 X161.7113 Y-277.3357
G1 Z0.0000 F2500.0
G4 P0.02
G0 X160.6204 Y-278.9721 F15000.0
G1 Z11.9000 F2500.0
G4 P0.02
G1 X161.0295 Y-280.1084 F3500.0
G1 X161.1659 Y-280.2448
G1 X162.3931 Y-280.5630
G1 X162.7568 Y-280.2903
G1 X162.3022 Y-278.9721
G1 X160.6659 Y-278.9266
G1 Z0.0000 F2500.0
G4 P0.02
G0 X162.9451 Y-277.8551 F15000.0
G1 Z11.9000 F2500.0
G4 P0.02
G1 X164.0815 Y-277.3097 F3500.0
G1 X164.3542 Y-277.4006
G1 Z0.0000 F2500.0
G4 P0.02
G0 X163.1724 Y-278.4460 F15000.0
G1 Z11.9000 F2500.0
G4 P0.02
G1 X163.8087 Y-280.1278 F3500.0
G1 X164.0815 Y-280.3551
G1 X164.7633 Y-280.5369
G1 X165.6269 Y-280.5369
G1 X164.7178 Y-277.8551
G1 Z0.0000 F2500.0
G4 P0.02
G0 X164.4451 Y-281.9460 F15000.0
G1 Z11.9000 F2500.0
G4 P0.02
G1 X165.8542 Y-281.9006 F3500.0
G1 X165.9905 Y-281.7642
G1 X165.6724 Y-280.5824
G1 Z0.0000 F2500.0
G4 P0.02
G0 X166.1312 Y-278.8357 F15000.0
G1 Z11.9000 F2500.0
G4 P0.02
G1 X165.7676 Y-277.4721 F3500.0
G1 X165.8585 Y-277.3812
G1 X167.2676 Y-277.3357
G1 Z0.0000 F2500.0
G4 P0.02
G0 X166.1767 Y-278.9721 F15000.0
G1 Z11.9000 F2500.0
G4 P0.02
G1 X166.5858 Y-280.1084 F3500.0
G1 X166.7221 Y-280.2448
G1 X167.9494 Y-280.5630
G1 X168.3130 Y-280.2903
G1 X167.8585 Y-278.9721
G1 X166.2221 Y-278.9266
G1 Z0.0000 F2500.0
G4 P0.02
G0 X168.3494 Y-277.4373 F15000.0
G1 Z11.9000 F2500.0
G4 P0.02
G1 X168.2585 Y-277.2554 F3500.0
G1 X169.1676 Y-278.8009
G1 Z0.0000 F2500.0
G4 P0.02
G0 X170.2585 Y-277.8009 F15000.0
G1 Z11.9000 F2500.0
G4 P0.02
G1 X170.0767 Y-277.2554 F3500.0
G1 Z0.0000 F2500.0
G4 P0.02
G0 X170.2130 Y-280.4827 F15000.0
G1 Z11.9000 F2500.0
G4 P0.02
G1 X171.1676 Y-280.4827 F3500.0
G1 X170.3494 Y-278.0282
G1 Z0.0000 F2500.0
G4 P0.02
G0 X171.3241 Y-277.4729 F15000.0
G1 Z11.9000 F2500.0
G4 P0.02
G1 X171.8241 Y-279.2911 F3500.0
G1 X172.2787 Y-280.5638
G1 Z0.0000 F2500.0
G4 P0.02
G0 X171.4150 Y-277.3820 F15000.0
G1 Z11.9000 F2500.0
G4 P0.02
G1 X172.8696 Y-277.3820 F3500.0
G1 X174.0514 Y-280.5638
G1 Z0.0000 F2500.0
G4 P0.02
G0 X174.0418 Y-277.7903 F15000.0
G1 Z11.9000 F2500.0
G4 P0.02
G1 X173.9508 Y-277.5175 F3500.0
G1 X174.9963 Y-280.3812
G1 X175.0872 Y-280.4721
G1 X176.3599 Y-280.5175
G1 Z0.0000 F2500.0
G4 P0.02
G0 X175.7236 Y-278.5630 F15000.0
G1 Z11.9000 F2500.0
G4 P0.02
G1 X175.2236 Y-277.2448 F3500.0
G1 Z0.0000 F2500.0
G4 P0.02
G0 X175.7690 Y-278.6539 F15000.0
G1 Z11.9000 F2500.0
G4 P0.02
G1 X176.4508 Y-280.5175 F3500.0
G1 X177.5418 Y-280.4721
G1 X177.6781 Y-280.2903
G1 X176.6781 Y-277.2448
G1 Z0.0000 F2500.0
G4 P0.02
G0 X178.0064 Y-277.3365 F15000.0
G1 Z11.9000 F2500.0
G4 P0.02
G1 X179.1428 Y-280.5638 F3500.0
G1 Z0.0000 F2500.0
G4 P0.02
G0 X178.0519 Y-277.2911 F15000.0
G1 Z11.9000 F2500.0
G4 P0.02
G1 X179.7337 Y-277.5638 F3500.0
G1 X179.9155 Y-277.7456
G1 Z0.0000 F2500.0
G4 P0.02
G0 X178.6882 Y-278.9729 F15000.0
G1 Z11.9000 F2500.0
G4 P0.02
G1 X180.0000 Y-278.8417 F3500.0
G1 Z0.0000 F2500.0
G4 P0.02
G0 X152.5895 Y-272.5064 F15000.0
G1 Z11.9000 F2500.0
G4 P0.02
G1 X151.6804 Y-270.0064 F3500.0
G1 Z0.0000 F2500.0
G4 P0.02
G0 X152.8168 Y-272.7337 F15000.0
G1 Z11.9000 F2500.0
G4 P0.02
G1 X152.8622 Y-273.1428 F3500.0
G1 Z0.0000 F2500.0
G4 P0.02
G0 X153.0440 Y-272.3246 F15000.0
G1 Z11.9000 F2500.0
G4 P0.02
G1 X153.2713 Y-271.7337 F3500.0
G1 X153.5440 Y-271.8246
G1 X154.3168 Y-272.5064
G1 X154.5895 Y-272.5973
G1 X154.5440 Y-272.0973
G1 X154.2713 Y-271.3246
G1 Z0.0000 F2500.0
G4 P0.02
G0 X153.8168 Y-270.0519 F15000.0
G1 Z11.9000 F2500.0
G4 P0.02
G1 X153.7713 Y-269.8701 F3500.0
G1 X153.9531 Y-270.4155
G1 Z0.0000 F2500.0
G4 P0.02
G0 X155.4156 Y-271.4538 F15000.0
G1 Z11.9000 F2500.0
G4 P0.02
G1 X155.0520 Y-270.0902 F3500.0
G1 X155.1429 Y-269.9993
G1 X156.5520 Y-269.9538
G1 Z0.0000 F2500.0
G4 P0.02
G0 X155.4610 Y-271.5902 F15000.0
G1 Z11.9000 F2500.0
G4 P0.02
G1 X155.8701 Y-272.7266 F3500.0
G1 X156.0065 Y-272.8629
G1 X157.2338 Y-273.1811
G1 X157.5974 Y-272.9084
G1 X157.1429 Y-271.5902
G1 X155.5065 Y-271.5447
G1 Z0.0000 F2500.0
G4 P0.02
G0 X157.7699 Y-270.4084 F15000.0
G1 Z11.9000 F2500.0
G4 P0.02
G1 X157.6790 Y-270.1357 F3500.0
G1 X158.7244 Y-272.9993
G1 X158.8153 Y-273.0902
G1 X160.0881 Y-273.1357
G1 Z0.0000 F2500.0
G4 P0.02
G0 X159.4517 Y-271.1811 F15000.0
G1 Z11.9000 F2500.0
G4 P0.02
G1 X158.9517 Y-269.8629 F3500.0
G1 Z0.0000 F2500.0
G4 P0.02
G0 X159.4972 Y-271.2720 F15000.0
G1 Z11.9000 F2500.0
G4 P0.02
G1 X160.1790 Y-273.1357 F3500.0
G1 X161.2699 Y-273.0902
G1 X161.4062 Y-272.9084
G1 X160.4062 Y-269.8629
G1 Z0.0000 F2500.0
G4 P0.02
G0 X161.8859 Y-270.4538 F15000.0
G1 Z11.9000 F2500.0
G4 P0.02
G1 X163.0678 Y-269.9538 F3500.0
G1 X163.4314 Y-270.1357
G1 X163.3405 Y-270.0447
G1 X163.6587 Y-270.4538
G1 X164.4769 Y-272.9084
G1 X164.3859 Y-273.0447
G1 X164.1132 Y-273.1811
G1 X162.8859 Y-272.8629
G1 X162.7496 Y-272.7266
G1 X162.1132 Y-271.0447
G1 Z0.0000 F2500.0
G4 P0.02
G0 X164.6649 Y-270.4732 F15000.0
G1 Z11.9000 F2500.0
G4 P0.02
G1 X165.8012 Y-269.9278 F3500.0
G1 X166.0740 Y-270.0187
G1 Z0.0000 F2500.0
G4 P0.02
G0 X164.8922 Y-271.0641 F15000.0
G1 Z11.9000 F2500.0
G4 P0.02
G1 X165.5285 Y-272.7460 F3500.0
G1 X165.8012 Y-272.9732
G1 X166.4831 Y-273.1550
G1 X167.3467 Y-273.1550
G1 X166.4376 Y-270.4732
G1 Z0.0000 F2500.0
G4 P0.02
G0 X166.1649 Y-274.5641 F15000.0
G1 Z11.9000 F2500.0
G4 P0.02
G1 X167.5740 Y-274.5187 F3500.0
G1 X167.7103 Y-274.3823
G1 X167.3922 Y-273.2005
G1 Z0.0000 F2500.0
G4 P0.02
G0 X167.4422 Y-270.4538 F15000.0
G1 Z11.9000 F2500.0
G4 P0.02
G1 X168.6240 Y-269.9538 F3500.0
G1 X168.9877 Y-270.1357
G1 X168.8967 Y-270.0447
G1 X169.2149 Y-270.4538
G1 X170.0331 Y-272.9084
G1 X169.9422 Y-273.0447
G1 X169.6695 Y-273.1811
G1 X168.4422 Y-272.8629
G1 X168.3058 Y-272.7266
G1 X167.6695 Y-271.0447
G1 Z0.0000 F2500.0
G4 P0.02
G0 X170.9780 Y-272.5064 F15000.0
G1 Z11.9000 F2500.0
G4 P0.02
G1 X170.0690 Y-270.0064 F3500.0
G1 Z0.0000 F2500.0
G4 P0.02
G0 X171.2053 Y-272.7337 F15000.0
G1 Z11.9000 F2500.0
G4 P0.02
G1 X171.2508 Y-273.1428 F3500.0
G1 Z0.0000 F2500.0
G4 P0.02
G0 X171.4326 Y-272.3246 F15000.0
G1 Z11.9000 F2500.0
G4 P0.02
G1 X171.6599 Y-271.7337 F3500.0
G1 X171.9326 Y-271.8246
G1 X172.7053 Y-272.5064
G1 X172.9780 Y-272.5973
G1 X172.9326 Y-272.0973
G1 X172.6599 Y-271.3246
G1 Z0.0000 F2500.0
G4 P0.02
G0 X172.2053 Y-270.0519 F15000.0
G1 Z11.9000 F2500.0
G4 P0.02
G1 X172.1599 Y-269.8701 F3500.0
G1 X172.3417 Y-270.4155
G1 Z0.0000 F2500.0
G4 P0.02
G0 X175.4882 Y-270.2720 F15000.0
G1 Z11.9000 F2500.0
G4 P0.02
G1 X175.5791 Y-270.0447 F3500.0
G1 X176.6700 Y-270.0447
G1 X176.9428 Y-270.2266
G1 X177.3064 Y-271.3175
G1 X177.1700 Y-271.5447
G1 X176.5791 Y-271.5447
G1 Z0.0000 F2500.0
G4 P0.02
G0 X176.4428 Y-272.7720 F15000.0
G1 Z11.9000 F2500.0
G4 P0.02
G1 X177.6700 Y-273.1357 F3500.0
G1 X177.8518 Y-272.9084
G1 X177.8518 Y-272.5447
G1 X177.6700 Y-272.0447
G1 X177.3064 Y-271.6357
G1 Z0.0000 F2500.0
G4 P0.02
G0 X178.1185 Y-270.4546 F15000.0
G1 Z11.9000 F2500.0
G4 P0.02
G1 X179.3004 Y-269.9546 F3500.0
G1 X179.8913 Y-270.1819
G1 X180.0000 Y-270.6440
G1 Z0.0000 F2500.0
G4 P0.02
G0 X178.3458 Y-271.0455 F15000.0
G1 Z11.9000 F2500.0
G4 P0.02
G1 X178.9822 Y-272.7273 F3500.0
G1 X179.1185 Y-272.8637
G1 X180.0000 Y-273.0106
G1 Z0.0000 F2500.0
G4 P0.02
G0 X1.5804 Y-9.8967 F15000.0
G1 Z11.9000 F2500.0
G4 P0.02
G1 X1.4440 Y-9.6240 F3500.0
G1 X1.6713 Y-9.9876
G1 X1.9894 Y-10.0785
G1 X3.6258 Y-13.8058
G1 Z0.0000 F2500.0
G4 P0.02
G0 X3.8531 Y-10.0331 F15000.0
G1 Z11.9000 F2500.0
G4 P0.02
G1 X2.0349 Y-10.0331 F3500.0
G1 Z0.0000 F2500.0
G4 P0.02
G0 X3.9440 Y-10.4876 F15000.0
G1 Z11.9000 F2500.0
G4 P0.02
G1 X3.8985 Y-10.0785 F3500.0
G1 X4.0349 Y-9.9876
G1 X3.9894 Y-9.6694
G1 Z0.0000 F2500.0
G4 P0.02
G0 X4.0349 Y-10.7149 F15000.0
G1 Z11.9000 F2500.0
G4 P0.02
G1 X4.3076 Y-11.4876 F3500.0
G1 Z0.0000 F2500.0
G4 P0.02
G0 X4.0804 Y-14.6694 F15000.0
G1 Z11.9000 F2500.0
G4 P0.02
G1 X5.3985 Y-14.6240 F3500.0
G1 X4.6713 Y-12.4876
G1 Z0.0000 F2500.0
G4 P0.02
G0 X5.3881 Y-10.5476 F15000.0
G1 Z11.9000 F2500.0
G4 P0.02
G1 X6.5699 Y-10.0476 F3500.0
G1 X6.9335 Y-10.2294
G1 X6.8426 Y-10.1385
G1 X7.1608 Y-10.5476
G1 X7.9790 Y-13.0022
G1 X7.8881 Y-13.1385
G1 X7.6154 Y-13.2749
G1 X6.3881 Y-12.9567
G1 X6.2517 Y-12.8204
G1 X5.6154 Y-11.1385
G1 Z0.0000 F2500.0
G4 P0.02
G0 X7.8130 Y-9.5931 F15000.0
G1 Z11.9000 F2500.0
G4 P0.02
G1 X7.4948 Y-8.6840 F3500.0
G1 Z0.0000 F2500.0
G4 P0.02
G0 X7.8585 Y-9.6840 F15000.0
G1 Z11.9000 F2500.0
G4 P0.02
G1 X9.1767 Y-13.2294 F3500.0
G1 X10.6767 Y-13.1385
G1 X10.7221 Y-12.6840
G1 X9.9948 Y-10.6840
G1 X9.7676 Y-10.2749
G1 X9.5858 Y-10.1385
G1 X8.0858 Y-10.0022
G1 Z0.0000 F2500.0
G4 P0.02
G0 X10.9443 Y-10.5476 F15000.0
G1 Z11.9000 F2500.0
G4 P0.02
G1 X12.1261 Y-10.0476 F3500.0
G1 X12.4898 Y-10.2294
G1 X12.3989 Y-10.1385
G1 X12.7171 Y-10.5476
G1 X13.5352 Y-13.0022
G1 X13.4443 Y-13.1385
G1 X13.1716 Y-13.2749
G1 X11.9443 Y-12.9567
G1 X11.8080 Y-12.8204
G1 X11.1716 Y-11.1385
G1 Z0.0000 F2500.0
G4 P0.02
G0 X13.7971 Y-10.3043 F15000.0
G1 Z11.9000 F2500.0
G4 P0.02
G1 X13.4789 Y-9.9861 F3500.0
G1 X14.5244 Y-11.1225
G1 X14.9789 Y-11.3952
G1 X14.9789 Y-11.8952
G1 X14.7062 Y-13.2134
G1 Z0.0000 F2500.0
G4 P0.02
G0 X14.9789 Y-11.3952 F15000.0
G1 Z11.9000 F2500.0
G4 P0.02
G1 X15.0244 Y-11.8497 F3500.0
G1 X15.3426 Y-11.9861
G1 X15.8880 Y-12.5770
G1 Z0.0000 F2500.0
G4 P0.02
G0 X15.0698 Y-11.3043 F15000.0
G1 Z11.9000 F2500.0
G4 P0.02
G1 X15.2971 Y-10.0770 F3500.0
G1 X15.2517 Y-10.0316
G1 Z0.0000 F2500.0
G4 P0.02
G0 X16.5006 Y-10.5476 F15000.0
G1 Z11.9000 F2500.0
G4 P0.02
G1 X17.6824 Y-10.0476 F3500.0
G1 X18.0460 Y-10.2294
G1 X17.9551 Y-10.1385
G1 X18.2733 Y-10.5476
G1 X19.0915 Y-13.0022
G1 X19.0006 Y-13.1385
G1 X18.7279 Y-13.2749
G1 X17.5006 Y-12.9567
G1 X17.3642 Y-12.8204
G1 X16.7279 Y-11.1385
G1 Z0.0000 F2500.0
G4 P0.02
G0 X19.2796 Y-10.5678 F15000.0
G1 Z11.9000 F2500.0
G4 P0.02
G1 X20.4160 Y-10.0224 F3500.0
G1 X20.6887 Y-10.1133
G1 Z0.0000 F2500.0
G4 P0.02
G0 X19.3705 Y-10.7951 F15000.0
G1 Z11.9000 F2500.0
G4 P0.02
G1 X20.0978 Y-12.8405 F3500.0
G1 X20.3251 Y-13.2496
G1 X20.6433 Y-14.2951
G1 X20.9615 Y-14.5678
G1 X21.5978 Y-14.5678
G1 X21.5978 Y-14.0224
G1 X21.0524 Y-13.5224
G1 X20.9615 Y-13.2951
G1 X21.7796 Y-13.1133
G1 X21.8705 Y-13.0224
G1 X21.0524 Y-10.5678
G1 Z0.0000 F2500.0
G4 P0.02
G0 X20.9160 Y-13.2951 F15000.0
G1 Z11.9000 F2500.0
G4 P0.02
G1 X20.3705 Y-13.2042 F3500.0
G1 Z0.0000 F2500.0
G4 P0.02
G0 X24.3439 Y-11.0224 F15000.0
G1 Z11.9000 F2500.0
G4 P0.02
G1 X24.0711 Y-10.1133 F3500.0
G1 X25.7075 Y-10.0678
G1 Z0.0000 F2500.0
G4 P0.02
G0 X24.3893 Y-11.1133 F15000.0
G1 Z11.9000 F2500.0
G4 P0.02
G1 X24.9802 Y-12.5678 F3500.0
G1 X25.2529 Y-13.5224
G1 Z0.0000 F2500.0
G4 P0.02
G0 X25.0257 Y-12.5224 F15000.0
G1 Z11.9000 F2500.0
G4 P0.02
G1 X25.9348 Y-12.5678 F3500.0
G1 Z0.0000 F2500.0
G4 P0.02
G0 X25.4802 Y-14.1133 F15000.0
G1 Z11.9000 F2500.0
G4 P0.02
G1 X25.6166 Y-14.4769 F3500.0
G1 X27.3893 Y-14.7042
G1 Z0.0000 F2500.0
G4 P0.02
G0 X27.0892 Y-10.7294 F15000.0
G1 Z11.9000 F2500.0
G4 P0.02
G1 X26.9983 Y-10.1385 F3500.0
G1 X28.2711 Y-10.0931
G1 Z0.0000 F2500.0
G4 P0.02
G0 X28.0438 Y-13.0931 F15000.0
G1 Z11.9000 F2500.0
G4 P0.02
G1 X29.3620 Y-13.1840 F3500.0
G1 X29.4983 Y-13.0022
G1 X29.4529 Y-12.6385
G1 Z0.0000 F2500.0
G4 P0.02
G0 X29.7297 Y-10.5476 F15000.0
G1 Z11.9000 F2500.0
G4 P0.02
G1 X30.9116 Y-10.0476 F3500.0
G1 X31.2752 Y-10.2294
G1 X31.1843 Y-10.1385
G1 X31.5025 Y-10.5476
G1 X32.3207 Y-13.0022
G1 X32.2297 Y-13.1385
G1 X31.9570 Y-13.2749
G1 X30.7297 Y-12.9567
G1 X30.5934 Y-12.8204
G1 X29.9570 Y-11.1385
G1 Z0.0000 F2500.0
G4 P0.02
G0 X32.1547 Y-9.5931 F15000.0
G1 Z11.9000 F2500.0
G4 P0.02
G1 X31.8365 Y-8.6840 F3500.0
G1 Z0.0000 F2500.0
G4 P0.02
G0 X32.2001 Y-9.6840 F15000.0
G1 Z11.9000 F2500.0
G4 P0.02
G1 X33.5183 Y-13.2294 F3500.0
G1 X35.0183 Y-13.1385
G1 X35.0638 Y-12.6840
G1 X34.3365 Y-10.6840
G1 X34.1092 Y-10.2749
G1 X33.9274 Y-10.1385
G1 X32.4274 Y-10.0022
G1 Z0.0000 F2500.0
G4 P0.02
G0 X37.7513 Y-11.5287 F15000.0
G1 Z11.9000 F2500.0
G4 P0.02
G1 X37.2513 Y-10.1196 F3500.0
G1 Z0.0000 F2500.0
G4 P0.02
G0 X37.7967 Y-11.6196 F15000.0
G1 Z11.9000 F2500.0
G4 P0.02
G1 X38.1149 Y-12.3014 F3500.0
G1 X38.2058 Y-12.7560
G1 X38.4331 Y-12.3469
G1 X38.1604 Y-12.2560
G1 Z0.0000 F2500.0
G4 P0.02
G0 X38.3876 Y-13.2560 F15000.0
G1 Z11.9000 F2500.0
G4 P0.02
G1 X38.8876 Y-14.7105 F3500.0
G1 Z0.0000 F2500.0
G4 P0.02
G0 X39.0240 Y-12.6196 F15000.0
G1 Z11.9000 F2500.0
G4 P0.02
G1 X38.7058 Y-12.5287 F3500.0
G1 X39.0695 Y-12.6651
G1 X39.1604 Y-12.9378
G1 X39.0695 Y-12.5742
G1 X39.2967 Y-10.0287
G1 Z0.0000 F2500.0
G4 P0.02
G0 X39.2513 Y-13.0287 F15000.0
G1 Z11.9000 F2500.0
G4 P0.02
G1 X41.1149 Y-14.7105 F3500.0
G1 Z0.0000 F2500.0
G4 P0.02
G0 X41.0322 Y-11.7757 F15000.0
G1 Z11.9000 F2500.0
G4 P0.02
G1 X40.6231 Y-10.1848 F3500.0
G1 X40.7140 Y-10.0939
G1 X42.1686 Y-10.0939
G1 X43.3504 Y-13.2757
G1 Z0.0000 F2500.0
G4 P0.02
G0 X41.1231 Y-12.0030 F15000.0
G1 Z11.9000 F2500.0
G4 P0.02
G1 X41.5777 Y-13.2757 F3500.0
G1 Z0.0000 F2500.0
G4 P0.02
G0 X43.0026 Y-9.5931 F15000.0
G1 Z11.9000 F2500.0
G4 P0.02
G1 X42.6844 Y-8.6840 F3500.0
G1 Z0.0000 F2500.0
G4 P0.02
G0 X43.0481 Y-9.6840 F15000.0
G1 Z11.9000 F2500.0
G4 P0.02
G1 X44.3662 Y-13.2294 F3500.0
G1 X45.8662 Y-13.1385
G1 X45.9117 Y-12.6840
G1 X45.1844 Y-10.6840
G1 X44.9572 Y-10.2749
G1 X44.7753 Y-10.1385
G1 X43.2753 Y-10.0022
G1 Z0.0000 F2500.0
G4 P0.02
G0 X46.5885 Y-11.7757 F15000.0
G1 Z11.9000 F2500.0
G4 P0.02
G1 X46.1794 Y-10.1848 F3500.0
G1 X46.2703 Y-10.0939
G1 X47.7248 Y-10.0939
G1 X48.9066 Y-13.2757
G1 Z0.0000 F2500.0
G4 P0.02
G0 X46.6794 Y-12.0030 F15000.0
G1 Z11.9000 F2500.0
G4 P0.02
G1 X47.1339 Y-13.2757 F3500.0
G1 Z0.0000 F2500.0
G4 P0.02
G0 X48.7609 Y-10.1492 F15000.0
G1 Z11.9000 F2500.0
G4 P0.02
G1 X48.6700 Y-9.9674 F3500.0
G1 X49.5791 Y-11.5128
G1 Z0.0000 F2500.0
G4 P0.02
G0 X50.6700 Y-10.5128 F15000.0
G1 Z11.9000 F2500.0
G4 P0.02
G1 X50.4882 Y-9.9674 F3500.0
G1 Z0.0000 F2500.0
G4 P0.02
G0 X50.6245 Y-13.1946 F15000.0
G1 Z11.9000 F2500.0
G4 P0.02
G1 X51.5791 Y-13.1946 F3500.0
G1 X50.7609 Y-10.7401
G1 Z0.0000 F2500.0
G4 P0.02
G0 X51.6902 Y-10.5476 F15000.0
G1 Z11.9000 F2500.0
G4 P0.02
G1 X52.8720 Y-10.0476 F3500.0
G1 X53.2356 Y-10.2294
G1 X53.1447 Y-10.1385
G1 X53.4629 Y-10.5476
G1 X54.2811 Y-13.0022
G1 X54.1902 Y-13.1385
G1 X53.9174 Y-13.2749
G1 X52.6902 Y-12.9567
G1 X52.5538 Y-12.8204
G1 X51.9174 Y-11.1385
G1 Z0.0000 F2500.0
G4 P0.02
G0 X54.4692 Y-10.5678 F15000.0
G1 Z11.9000 F2500.0
G4 P0.02
G1 X55.6056 Y-10.0224 F3500.0
G1 X55.8783 Y-10.1133
G1 Z0.0000 F2500.0
G4 P0.02
G0 X54.5601 Y-10.7951 F15000.0
G1 Z11.9000 F2500.0
G4 P0.02
G1 X55.2874 Y-12.8405 F3500.0
G1 X55.5147 Y-13.2496
G1 X55.8329 Y-14.2951
G1 X56.1510 Y-14.5678
G1 X56.7874 Y-14.5678
G1 X56.7874 Y-14.0224
G1 X56.2419 Y-13.5224
G1 X56.1510 Y-13.2951
G1 X56.9692 Y-13.1133
G1 X57.0601 Y-13.0224
G1 X56.2419 Y-10.5678
G1 Z0.0000 F2500.0
G4 P0.02
G0 X56.1056 Y-13.2951 F15000.0
G1 Z11.9000 F2500.0
G4 P0.02
G1 X55.5601 Y-13.2042 F3500.0
G1 Z0.0000 F2500.0
G4 P0.02
G0 X57.7010 Y-11.7757 F15000.0
G1 Z11.9000 F2500.0
G4 P0.02
G1 X57.2919 Y-10.1848 F3500.0
G1 X57.3828 Y-10.0939
G1 X58.8373 Y-10.0939
G1 X60.0191 Y-13.2757
G1 Z0.0000 F2500.0
G4 P0.02
G0 X57.7919 Y-12.0030 F15000.0
G1 Z11.9000 F2500.0
G4 P0.02
G1 X58.2464 Y-13.2757 F3500.0
G1 Z0.0000 F2500.0
G4 P0.02
G0 X61.0186 Y-13.2757 F15000.0
G1 Z11.9000 F2500.0
G4 P0.02
G1 X60.6550 Y-11.7757 F3500.0
G1 X60.7459 Y-11.6848
G1 X62.0640 Y-11.6394
G1 X62.0640 Y-11.2757
G1 X62.7913 Y-13.2757
G1 Z0.0000 F2500.0
G4 P0.02
G0 X61.6550 Y-10.1394 F15000.0
G1 Z11.9000 F2500.0
G4 P0.02
G1 X61.6095 Y-9.9575 F3500.0
G1 Z0.0000 F2500.0
G4 P0.02
G0 X137.6853 Y-13.2630 F15000.0
G1 Z11.9000 F2500.0
G4 P0.02
G1 X138.6853 Y-14.6267 F3500.0
G1 X139.5943 Y-14.6267
G1 X138.0034 Y-9.9903
G1 Z0.0000 F2500.0
G4 P0.02
G0 X140.8323 Y-11.9315 F15000.0
G1 Z11.9000 F2500.0
G4 P0.02
G1 X140.1050 Y-9.9769 F3500.0
G1 Z0.0000 F2500.0
G4 P0.02
G0 X140.7868 Y-14.6587 F15000.0
G1 Z11.9000 F2500.0
G4 P0.02
G1 X141.7868 Y-14.6133 F3500.0
G1 Z0.0000 F2500.0
G4 P0.02
G0 X140.9687 Y-12.2951 F15000.0
G1 Z11.9000 F2500.0
G4 P0.02
G1 X140.8777 Y-12.0224 F3500.0
G1 Z0.0000 F2500.0
G4 P0.02
G0 X141.2414 Y-13.0224 F15000.0
G1 Z11.9000 F2500.0
G4 P0.02
G1 X141.7868 Y-14.6133 F3500.0
G1 X142.8777 Y-14.7042
G1 Z0.0000 F2500.0
G4 P0.02
G0 X142.8070 Y-11.4383 F15000.0
G1 Z11.9000 F2500.0
G4 P0.02
G1 X144.6252 Y-11.4383 F3500.0
G1 Z0.0000 F2500.0
G4 P0.02
G0 X145.0322 Y-10.0224 F15000.0
G1 Z11.9000 F2500.0
G4 P0.02
G1 X146.8050 Y-10.4770 F3500.0
G1 X147.3050 Y-11.4770
G1 X147.3504 Y-12.2497
G1 X147.1686 Y-12.4315
G1 X146.0322 Y-12.6133
G1 X146.6686 Y-14.4770
G1 X148.4413 Y-14.7043
G1 Z0.0000 F2500.0
G4 P0.02
G0 X148.0685 Y-10.7943 F15000.0
G1 Z11.9000 F2500.0
G4 P0.02
G1 X148.1594 Y-10.2488 F3500.0
G1 X149.0685 Y-10.0216
G1 X149.7049 Y-10.2034
G1 X149.5231 Y-10.1579
G1 X150.0231 Y-10.4761
G1 X149.9322 Y-10.3852
G1 X150.4322 Y-11.2943
G1 X150.3867 Y-11.1579
G1 X151.3867 Y-14.2488
G1 X151.2958 Y-14.4307
G1 X150.2049 Y-14.6579
G1 X149.5231 Y-14.2943
G1 X149.0685 Y-13.5670
G1 X148.7049 Y-12.5670
G1 Z0.0000 F2500.0
G4 P0.02
G0 X148.4322 Y-11.7943 F15000.0
G1 Z11.9000 F2500.0
G4 P0.02
G1 X148.4776 Y-11.9307 F3500.0
G1 Z0.0000 F2500.0
G4 P0.02
G0 X152.2414 Y-10.2943 F15000.0
G1 Z11.9000 F2500.0
G4 P0.02
G1 X151.7414 Y-10.0670 F3500.0
G1 Z0.0000 F2500.0
G4 P0.02
G0 X152.0595 Y-12.5670 F15000.0
G1 Z11.9000 F2500.0
G4 P0.02
G1 X152.3323 Y-13.7943 F3500.0
G1 Z0.0000 F2500.0
G4 P0.02
G0 X152.1050 Y-12.4761 F15000.0
G1 Z11.9000 F2500.0
G4 P0.02
G1 X153.7868 Y-12.1125 F3500.0
G1 X153.6959 Y-11.7488
G1 Z0.0000 F2500.0
G4 P0.02
G0 X153.7868 Y-12.1125 F15000.0
G1 Z11.9000 F2500.0
G4 P0.02
G1 X153.9232 Y-12.2034 F3500.0
G1 X154.1050 Y-12.7034
G1 Z0.0000 F2500.0
G4 P0.02
G0 X152.5595 Y-10.4761 F15000.0
G1 Z11.9000 F2500.0
G4 P0.02
G1 X152.4232 Y-10.3852 F3500.0
G1 Z0.0000 F2500.0
G4 P0.02
G0 X152.6959 Y-14.2943 F15000.0
G1 Z11.9000 F2500.0
G4 P0.02
G1 X153.3777 Y-14.6579 F3500.0
G1 X154.4686 Y-14.4307
G1 X154.5595 Y-14.2034
G1 X154.5141 Y-13.8397
G1 Z0.0000 F2500.0
G4 P0.02
G0 X153.3323 Y-11.2034 F15000.0
G1 Z11.9000 F2500.0
G4 P0.02
G1 X153.2414 Y-11.1125 F3500.0
G1 Z0.0000 F2500.0
G4 P0.02
G0 X154.7133 Y-11.4383 F15000.0
G1 Z11.9000 F2500.0
G4 P0.02
G1 X156.5315 Y-11.4383 F3500.0
G1 Z0.0000 F2500.0
G4 P0.02
G0 X156.9385 Y-10.0216 F15000.0
G1 Z11.9000 F2500.0
G4 P0.02
G1 X158.6658 Y-10.4307 F3500.0
G1 X158.8476 Y-10.6125
G1 X159.3021 Y-11.6579
G1 X159.0294 Y-12.5216
G1 X158.5749 Y-12.5216
G1 Z0.0000 F2500.0
G4 P0.02
G0 X159.6658 Y-14.5670 F15000.0
G1 Z11.9000 F2500.0
G4 P0.02
G1 X158.6203 Y-14.6579 F3500.0
G1 Z0.0000 F2500.0
G4 P0.02
G0 X159.5294 Y-13.0216 F15000.0
G1 Z11.9000 F2500.0
G4 P0.02
G1 X159.8930 Y-13.8397 F3500.0
G1 X159.9385 Y-14.2488
G1 Z0.0000 F2500.0
G4 P0.02
G0 X135.5493 Y-273.6006 F15000.0
G1 Z11.9000 F2500.0
G4 P0.02
G1 X135.8517 Y-273.1398 F12000.0
G1 X135.7751 Y-272.5352
G1 X135.3220 Y-272.2578
G1 X134.9022 Y-272.3691
G1 X134.6721 Y-272.7870
G1 X134.8600 Y-273.3859
G1 X135.3634 Y-273.5866
G1 X135.5840 Y-273.8595
G1 X135.8233 Y-285.0000
G1 Z0.0000 F2500.0
G4 P0.02
G0 X128.1265 Y-285.0000 F15000.0
G1 Z11.9000 F2500.0
G4 P0.02
G1 X127.9009 Y-284.7376 F3500.0
G1 X127.2422 Y-284.7492
G1 X126.8658 Y-285.0000
G1 X127.1370 Y-284.6183
G1 X127.4875 Y-283.8022
G1 X128.0133 Y-283.9188
G1 Z0.0000 F2500.0
G4 P0.02
G0 X137.7975 Y-285.0000 F15000.0
G1 Z11.9000 F2500.0
G4 P0.02
G1 X138.3534 Y-283.3358 F3500.0
G1 X138.8792 Y-283.7600
G1 X139.0384 Y-284.3306
G1 X138.7642 Y-284.9502
G1 X138.6714 Y-285.0000
G1 Z0.0000 F2500.0
G4 P0.02
G0 X131.3432 Y-283.4524 F15000.0
G1 Z11.9000 F2500.0
G4 P0.02
G1 X130.7462 Y-283.8422 F12000.0
G1 X130.5975 Y-284.3693
G1 X130.7769 Y-284.7364
G1 X131.2400 Y-284.9694
G1 X131.6594 Y-284.8247
G1 X131.8748 Y-284.5311
G1 X131.8119 Y-284.0683
G1 X131.3443 Y-283.3617
G1 X131.2685 Y-282.9782
G1 X131.2070 Y-270.7372
G1 X131.5118 Y-270.0218
G1 X131.3247 Y-269.5982
G1 X131.0180 Y-269.4640
G1 X130.5942 Y-269.6726
G1 X130.3382 Y-270.2054
G1 X130.4258 Y-270.4635
G1 X131.1095 Y-270.6275
G1 Z0.0000 F2500.0
G4 P0.02
G0 X127.8965 Y-283.1610 F15000.0
G1 Z11.9000 F2500.0
G4 P0.02
G1 X128.1302 Y-284.6766 F3500.0
G1 Z0.0000 F2500.0
G4 P0.02
G0 X127.4875 Y-283.8022 F15000.0
G1 Z11.9000 F2500.0
G4 P0.02
G1 X127.8381 Y-283.2776 F3500.0
G1 Z0.0000 F2500.0
G4 P0.02
G0 X137.7108 Y-283.4524 F15000.0
G1 Z11.9000 F2500.0
G4 P0.02
G1 X138.2950 Y-283.3358 F3500.0
G1 Z0.0000 F2500.0
G4 P0.02
G0 X139.7555 Y-283.2776 F15000.0
G1 Z11.9000 F2500.0
G4 P0.02
G1 X139.8723 Y-282.6363 F3500.0
G1 Z0.0000 F2500.0
G4 P0.02
G0 X129.2401 Y-282.4614 F15000.0
G1 Z11.9000 F2500.0
G4 P0.02
G1 X129.1233 Y-283.1027 F3500.0
G1 Z0.0000 F2500.0
G4 P0.02
G0 X144.1369 Y-280.8874 F15000.0
G1 Z11.9000 F2500.0
G4 P0.02
G1 X143.2553 Y-280.9251 F3500.0
G1 X143.0320 Y-280.6396
G1 X143.3791 Y-279.4037
G1 X143.8242 Y-278.8858
G1 X144.3705 Y-278.9054
G1 Z0.0000 F2500.0
G4 P0.02
G0 X140.9822 Y-279.6632 F15000.0
G1 Z11.9000 F2500.0
G4 P0.02
G1 X140.5849 Y-279.9990 F12000.0
G1 X140.5633 Y-280.4765
G1 X140.9335 Y-280.7980
G1 X141.2869 Y-280.8100
G1 X141.6721 Y-280.5986
G1 X141.6811 Y-280.0573
G1 X141.0407 Y-279.6050
G1 X140.9822 Y-268.6455
G1 X140.4205 Y-268.4967
G1 X140.2127 Y-268.0288
G1 X140.3038 Y-267.7266
G1 X140.7911 Y-267.4784
G1 X141.3341 Y-267.7258
G1 X141.4603 Y-268.0740
G1 X141.0407 Y-268.5872
G1 Z0.0000 F2500.0
G4 P0.02
G0 X145.7726 Y-278.4973 F15000.0
G1 Z11.9000 F2500.0
G4 P0.02
G1 X145.4805 Y-279.4884 F3500.0
G1 Z0.0000 F2500.0
G4 P0.02
G0 X121.3536 Y-274.6499 F15000.0
G1 Z11.9000 F2500.0
G4 P0.02
G1 X120.1731 Y-275.9059 F3500.0
G1 X119.6595 Y-276.7485
G1 Z0.0000 F2500.0
G4 P0.02
G0 X120.4189 Y-275.8158 F15000.0
G1 Z11.9000 F2500.0
G4 P0.02
G1 X120.8863 Y-276.5153 F3500.0
G1 Z0.0000 F2500.0
G4 P0.02
G0 X122.8725 Y-275.6409 F15000.0
G1 Z11.9000 F2500.0
G4 P0.02
G1 X142.6755 Y-275.6376 F12000.0
G1 X143.4451 Y-276.0685
G1 X143.7863 Y-275.9907
G1 Z0.0000 F2500.0
G4 P0.02
G0 X120.4189 Y-275.5826 F15000.0
G1 Z11.9000 F2500.0
G4 P0.02
G1 X119.9515 Y-274.8247 F3500.0
G1 Z0.0000 F2500.0
G4 P0.02
G0 X146.1178 Y-273.0374 F15000.0
G1 Z11.9000 F2500.0
G4 P0.02
G1 X144.7124 Y-274.1102 F3500.0
G1 X144.9045 Y-274.4696
G1 X145.3183 Y-274.4698
G1 X145.7756 Y-274.0046
G1 X146.1178 Y-273.0374
G1 X145.9701 Y-272.2591
G1 X145.4925 Y-272.2554
G1 X145.0386 Y-272.7259
G1 X144.7223 Y-273.6305
G1 Z0.0000 F2500.0
G4 P0.02
G0 X137.8276 Y-272.2015 F15000.0
G1 Z11.9000 F2500.0
G4 P0.02
G1 X137.2215 Y-273.9299 F3500.0
G1 X137.2435 Y-274.3001
G1 X138.1217 Y-273.9944
G1 X138.5795 Y-273.5404
G1 X138.7255 Y-272.9139
G1 X138.5212 Y-272.4740
G1 X138.0057 Y-272.1812
G1 X137.2435 Y-272.2598
G1 Z0.0000 F2500.0
G4 P0.02
G0 X137.1851 Y-274.2418 F15000.0
G1 Z11.9000 F2500.0
G4 P0.02
G1 X136.5424 Y-274.2418 F3500.0
G1 Z0.0000 F2500.0
G4 P0.02
G0 X139.2297 Y-271.5019 F15000.0
G1 Z11.9000 F2500.0
G4 P0.02
G1 X139.6970 Y-271.2105 F3500.0
G1 Z0.0000 F2500.0
G4 P0.02
G0 X127.4291 Y-268.8786 F15000.0
G1 Z11.9000 F2500.0
G4 P0.02
G1 X127.4743 Y-268.2622 F3500.0
G1 X127.2716 Y-267.9007
G1 X126.7917 Y-267.7867
G1 X126.4811 Y-267.9459
G1 X126.0271 Y-268.8786
G1 Z0.0000 F2500.0
G4 P0.02
G0 X127.4875 Y-267.8293 F15000.0
G1 Z11.9000 F2500.0
G4 P0.02
G1 X127.4378 Y-266.6954 F3500.0
G1 X127.6628 Y-266.3720
G1 Z0.0000 F2500.0
G4 P0.02
G0 X127.2539 Y-266.5469 F15000.0
G1 Z11.9000 F2500.0
G4 P0.02
G1 X126.8311 Y-267.0834 F3500.0
G1 X126.6697 Y-267.7127
G1 Z0.0000 F2500.0
G4 P0.02
G0 X143.6111 Y-264.9729 F15000.0
G1 Z11.9000 F2500.0
G4 P0.02
G1 X142.9015 Y-265.3787 F3500.0
G1 X142.6348 Y-265.8783
G1 X142.5450 Y-266.8440
G1 X142.7869 Y-267.0802
G1 X144.0200 Y-266.9549
G1 Z0.0000 F2500.0
G4 P0.02
G0 X129.1233 Y-266.5469 F15000.0
G1 Z11.9000 F2500.0
G4 P0.02
G1 X129.1817 Y-266.1971 F3500.0
G1 X128.9967 Y-266.0723
G1 X128.9480 Y-265.4392
G1 Z0.0000 F2500.0
G4 P0.02
G0 X129.5906 Y-265.4392 F15000.0
G1 Z11.9000 F2500.0
G4 P0.02
G1 X129.1817 Y-266.1971 F3500.0
G1 Z0.0000 F2500.0
G4 P0.02
G0 X144.9547 Y-265.3226 F15000.0
G1 Z11.9000 F2500.0
G4 P0.02
G1 X145.1490 Y-264.6361 F3500.0
G1 X145.5389 Y-264.3899
G1 Z0.0000 F2500.0
G4 P0.02
G0 X144.5458 Y-264.4482 F15000.0
G1 Z11.9000 F2500.0
G4 P0.02
G1 X144.4290 Y-265.2061 F3500.0
G1 Z0.0000 F2500.0
G4 P0.02
G0 X118.0237 Y-258.5021 F15000.0
G1 Z11.9000 F2500.0
G4 P0.02
G1 X118.0053 Y-263.0395 F12000.0
G1 X117.7777 Y-263.2301
G1 X112.2531 Y-263.2481
G1 X111.7430 Y-263.1330
G1 X111.7680 Y-262.8169
G1 X117.2059 Y-258.4438
G1 Z0.0000 F2500.0
G4 P0.02
G0 X116.3296 Y-260.7757 F15000.0
G1 Z11.9000 F2500.0
G4 P0.02
G1 X116.0084 Y-261.0419 F3500.0
G1 X116.2555 Y-261.9580
G1 X116.0153 Y-262.1609
G1 X115.7922 Y-262.0318
G1 X115.7215 Y-261.5050
G1 X115.9207 Y-261.1837
G1 Z0.0000 F2500.0
G4 P0.02
G0 X112.7076 Y-260.1344 F15000.0
G1 Z11.9000 F2500.0
G4 P0.02
G1 X112.2987 Y-258.9685 F3500.0
G1 Z0.0000 F2500.0
G4 P0.02

G0 Z0.0000 F800.0
G4 P0.06
G0 X0.0000 Y0.0000 F15000.0
M5
G4 P0.10
$1=0
