$X
$1=255
G21
G90
G92 Z4.0000
G0 Z0.0000 F800.0
G4 P0.06
G92 Z0.0000
G0 Z0.0000 F800.0
G0 X0.0000 Y0.0000 F15000.0
G21
G90
G17
G91.1
G0 Z0.0000
G0 X54.4268 Y-143.1561 F15000.0
G1 Z11.9000 F2500.0
G4 P0.02
G1 X54.7461 Y-144.4733 F12000.0
G1 X55.5045 Y-145.1519
G1 X55.4246 Y-145.9502
G1 X55.5843 Y-146.3494
G1 X55.8238 Y-146.6288
G1 X56.4225 Y-146.9481
G1 X56.8217 Y-146.9082
G1 X57.0612 Y-146.7485
G1 X57.1410 Y-146.5889
G1 X56.9015 Y-145.6708
G1 X56.4624 Y-145.2317
G1 X56.6620 Y-145.3914
G1 Z0.0000 F2500.0
G4 P0.02
G0 X54.4667 Y-143.0763 F15000.0
G1 Z11.9000 F2500.0
G4 P0.02
G1 X55.2650 Y-142.8767 F12000.0
G1 X55.7440 Y-142.9965
G1 X56.3826 Y-143.7948
G1 X56.5822 Y-144.7128
G1 X56.3427 Y-145.1120
G1 X55.5444 Y-145.1120
G1 Z0.0000 F2500.0
G4 P0.02
G0 X57.0213 Y-143.0364 F15000.0
G1 Z11.9000 F2500.0
G4 P0.02
G1 X56.9814 Y-142.8767 F12000.0
G1 X58.0192 Y-142.8368
G1 Z0.0000 F2500.0
G4 P0.02
G0 X57.8595 Y-145.3914 F15000.0
G1 Z11.9000 F2500.0
G4 P0.02
G1 X57.6599 Y-145.2317 F12000.0
G1 X57.9393 Y-145.4313
G1 X58.5381 Y-145.6708
G1 X58.8973 Y-145.3515
G1 X58.7776 Y-144.8725
G1 X58.6578 Y-144.7128
G1 X58.7376 Y-144.7927
G1 Z0.0000 F2500.0
G4 P0.02
G0 X78.7688 Y-158.4808 F15000.0
G1 Z11.9000 F2500.0
G4 P0.02
G1 X79.9263 Y-160.3967 F12000.0
G1 Z0.0000 F2500.0
G4 P0.02
G0 X79.2078 Y-162.1530 F15000.0
G1 Z11.9000 F2500.0
G4 P0.02
G1 X79.4074 Y-162.5522 F12000.0
G1 X81.1238 Y-162.5522
G1 X81.0439 Y-162.2728
G1 Z0.0000 F2500.0
G4 P0.02
G0 X81.5229 Y-159.4787 F15000.0
G1 Z11.9000 F2500.0
G4 P0.02
G1 X80.6847 Y-158.5207 F12000.0
G1 X81.7225 Y-158.4808
G1 Z0.0000 F2500.0
G4 P0.02
G0 X81.6427 Y-161.0753 F15000.0
G1 Z11.9000 F2500.0
G4 P0.02
G1 X82.4011 Y-161.2350 F12000.0
G1 X82.5607 Y-161.1152
G1 X82.6007 Y-160.7161
G1 X82.4011 Y-160.3568
G1 X82.4809 Y-160.4766
G1 Z0.0000 F2500.0
G4 P0.02
G0 X46.4838 Y-159.0879 F15000.0
G1 Z11.9000 F2500.0
G4 P0.02
G1 X46.5637 Y-158.6488 F12000.0
G1 X47.3620 Y-158.4492
G1 X48.0006 Y-158.6887
G1 X48.2401 Y-158.8883
G1 X48.5195 Y-159.5270
G1 X48.4796 Y-159.3673
G1 X48.6792 Y-160.2854
G1 X48.6393 Y-160.3652
G1 X47.2023 Y-160.6845
G1 X47.3620 Y-161.2034
G1 X46.9628 Y-160.4450
G1 Z0.0000 F2500.0
G4 P0.02
G0 X46.7233 Y-159.7665 F15000.0
G1 Z11.9000 F2500.0
G4 P0.02
G1 X46.7633 Y-159.8862 F12000.0
G1 Z0.0000 F2500.0
G4 P0.02
G0 X47.6015 Y-161.5227 F15000.0
G1 Z11.9000 F2500.0
G4 P0.02
G1 X47.6813 Y-161.6026 F12000.0
G1 Z0.0000 F2500.0
G4 P0.02
G0 X48.1204 Y-162.0017 F15000.0
G1 Z11.9000 F2500.0
G4 P0.02
G1 X48.5994 Y-162.3210 F12000.0
G1 Z0.0000 F2500.0
G4 P0.02
G0 X49.2380 Y-158.6089 F15000.0
G1 Z11.9000 F2500.0
G4 P0.02
G1 X49.1981 Y-158.4492 F12000.0
G1 X50.2359 Y-158.4093
G1 Z0.0000 F2500.0
G4 P0.02
G0 X49.9964 Y-159.3673 F15000.0
G1 Z11.9000 F2500.0
G4 P0.02
G1 X50.9943 Y-160.4450 F12000.0
G1 X51.1141 Y-160.9240
G1 X50.8346 Y-161.2034
G1 X50.1561 Y-161.0038
G1 Z0.0000 F2500.0
G4 P0.02
G0 X88.4077 Y-256.6840 F15000.0
G1 Z11.9000 F2500.0
G4 P0.02
G1 X89.9644 Y-257.0832 F12000.0
G1 X90.4035 Y-257.9613
G1 X90.4434 Y-258.6399
G1 X90.2837 Y-258.7995
G1 X89.2859 Y-258.9592
G1 X89.8447 Y-260.5957
G1 X91.4014 Y-260.7953
G1 Z0.0000 F2500.0
G4 P0.02
G0 X90.9224 Y-256.8437 F15000.0
G1 Z11.9000 F2500.0
G4 P0.02
G1 X90.8825 Y-256.6840 F12000.0
G1 X91.9203 Y-256.6441
G1 Z0.0000 F2500.0
G4 P0.02
G0 X91.8404 Y-259.2386 F15000.0
G1 Z11.9000 F2500.0
G4 P0.02
G1 X92.4392 Y-259.4781 F12000.0
G1 X92.7984 Y-259.1588
G1 X92.6787 Y-258.6798
G1 X92.5589 Y-258.5201
G1 X92.6388 Y-258.6000
G1 Z0.0000 F2500.0
G4 P0.02
G0 X73.9808 Y-246.5374 F15000.0
G1 Z11.9000 F2500.0
G4 P0.02
G1 X73.9808 Y-246.2580 F12000.0
G1 X75.6573 Y-246.2580
G1 Z0.0000 F2500.0
G4 P0.02
G0 X74.1006 Y-246.7370 F15000.0
G1 Z11.9000 F2500.0
G4 P0.02
G1 X74.0207 Y-246.6173 F12000.0
G1 X75.6174 Y-249.4114
G1 Z0.0000 F2500.0
G4 P0.02
G0 X74.8191 Y-245.5795 F15000.0
G1 Z11.9000 F2500.0
G4 P0.02
G1 X74.6993 Y-245.2601 F12000.0
G1 Z0.0000 F2500.0
G4 P0.02
G0 X74.8989 Y-245.7790 F15000.0
G1 Z11.9000 F2500.0
G4 P0.02
G1 X75.0186 Y-246.1782 F12000.0
G1 X75.1783 Y-246.2580
G1 X75.4178 Y-247.2160
G1 Z0.0000 F2500.0
G4 P0.02
G0 X76.5753 Y-245.8190 F15000.0
G1 Z11.9000 F2500.0
G4 P0.02
G1 X76.1762 Y-245.3001 F12000.0
G1 X77.2140 Y-245.2601
G1 Z0.0000 F2500.0
G4 P0.02
G0 X77.1342 Y-247.8547 F15000.0
G1 Z11.9000 F2500.0
G4 P0.02
G1 X77.8926 Y-248.0143 F12000.0
G1 X78.0522 Y-247.8946
G1 X78.0921 Y-247.4954
G1 X77.8926 Y-247.0963
G1 X77.4535 Y-246.6572
G1 Z0.0000 F2500.0
G4 P0.02
G0 X66.2146 Y-207.9147 F15000.0
G1 Z11.9000 F2500.0
G4 P0.02
G1 X64.6979 Y-207.5555 F12000.0
G1 Z0.0000 F2500.0
G4 P0.02
G0 X66.1348 Y-209.7508 F15000.0
G1 Z11.9000 F2500.0
G4 P0.02
G1 X66.5739 Y-209.7508 F12000.0
G1 X66.7735 Y-208.9924
G1 X66.3743 Y-208.0744
G1 Z0.0000 F2500.0
G4 P0.02
G0 X67.0928 Y-211.5470 F15000.0
G1 Z11.9000 F2500.0
G4 P0.02
G1 X66.1747 Y-211.6269 F12000.0
G1 Z0.0000 F2500.0
G4 P0.02
G0 X66.9730 Y-210.1899 F15000.0
G1 Z11.9000 F2500.0
G4 P0.02
G1 X67.2924 Y-210.9084 F12000.0
G1 X67.3323 Y-211.2676
G1 Z0.0000 F2500.0
G4 P0.02
G0 X67.3323 Y-207.7151 F15000.0
G1 Z11.9000 F2500.0
G4 P0.02
G1 X67.2924 Y-207.5555 F12000.0
G1 X68.3302 Y-207.5155
G1 Z0.0000 F2500.0
G4 P0.02
G0 X67.9709 Y-209.9105 F15000.0
G1 Z11.9000 F2500.0
G4 P0.02
G1 X68.2503 Y-210.1101 F12000.0
G1 X68.8491 Y-210.3496
G1 X69.2083 Y-210.0302
G1 X69.0886 Y-209.5512
G1 X68.9688 Y-209.3916
G1 X69.0487 Y-209.4714
G1 Z0.0000 F2500.0
G4 P0.02
G0 X55.2810 Y-226.6623 F15000.0
G1 Z11.9000 F2500.0
G4 P0.02
G1 X55.0016 Y-226.5426 F12000.0
G1 Z0.0000 F2500.0
G4 P0.02
G0 X55.2810 Y-226.6623 F15000.0
G1 Z11.9000 F2500.0
G4 P0.02
G1 X57.7558 Y-229.2568 F12000.0
G1 X57.9554 Y-229.5762
G1 X58.1150 Y-230.0951
G1 X58.0352 Y-230.3345
G1 Z0.0000 F2500.0
G4 P0.02
G0 X56.8777 Y-226.6224 F15000.0
G1 Z11.9000 F2500.0
G4 P0.02
G1 X55.2810 Y-226.6623 F12000.0
G1 Z0.0000 F2500.0
G4 P0.02
G0 X56.2789 Y-230.0152 F15000.0
G1 Z11.9000 F2500.0
G4 P0.02
G1 X56.8377 Y-230.4543 F12000.0
G1 X57.5961 Y-230.6539
G1 X57.7558 Y-230.5740
G1 Z0.0000 F2500.0
G4 P0.02
G0 X57.9155 Y-226.7421 F15000.0
G1 Z11.9000 F2500.0
G4 P0.02
G1 X57.8755 Y-226.5825 F12000.0
G1 X58.8734 Y-226.5426
G1 Z0.0000 F2500.0
G4 P0.02
G0 X58.6339 Y-229.0173 F15000.0
G1 Z11.9000 F2500.0
G4 P0.02
G1 X59.5520 Y-229.2967 F12000.0
G1 X59.7915 Y-229.0572
G1 X59.5520 Y-228.3787
G1 X58.6739 Y-227.5005
G1 Z0.0000 F2500.0
G4 P0.02
G0 X24.3659 Y-243.5785 F15000.0
G1 Z11.9000 F2500.0
G4 P0.02
G1 X25.3239 Y-246.2928 F12000.0
G1 X25.6033 Y-247.4104
G1 X25.1243 Y-247.1709
G1 Z0.0000 F2500.0
G4 P0.02
G0 X24.4857 Y-246.6919 F15000.0
G1 Z11.9000 F2500.0
G4 P0.02
G1 X24.6454 Y-246.8516 F12000.0
G1 Z0.0000 F2500.0
G4 P0.02
G0 X25.3638 Y-243.7781 F15000.0
G1 Z11.9000 F2500.0
G4 P0.02
G1 X25.3239 Y-243.6184 F12000.0
G1 X26.3617 Y-243.5785
G1 Z0.0000 F2500.0
G4 P0.02
G0 X25.6432 Y-247.4104 F15000.0
G1 Z11.9000 F2500.0
G4 P0.02
G1 X25.7231 Y-247.4902 F12000.0
G1 Z0.0000 F2500.0
G4 P0.02
G0 X26.2819 Y-246.2129 F15000.0
G1 Z11.9000 F2500.0
G4 P0.02
G1 X26.1222 Y-246.0533 F12000.0
G1 X26.3617 Y-246.2528
G1 X26.8806 Y-246.4125
G1 X27.2399 Y-246.0932
G1 X27.1201 Y-245.6142
G1 X27.0004 Y-245.4545
G1 X27.0802 Y-245.5344
G1 Z0.0000 F2500.0
G4 P0.02
G0 X84.9610 Y-158.1732 F15000.0
G1 Z11.9000 F2500.0
G4 P0.02
G1 X84.6417 Y-157.6144 F12000.0
G1 Z0.0000 F2500.0
G4 P0.02
G0 X85.0009 Y-158.2530 F15000.0
G1 Z11.9000 F2500.0
G4 P0.02
G1 X85.4400 Y-158.9715 F12000.0
G1 Z0.0000 F2500.0
G4 P0.02
G0 X85.0408 Y-161.2866 F15000.0
G1 Z11.9000 F2500.0
G4 P0.02
G1 X85.2404 Y-161.6858 F12000.0
G1 X86.9568 Y-161.6858
G1 X86.8770 Y-161.4064
G1 Z0.0000 F2500.0
G4 P0.02
G0 X87.4358 Y-157.6144 F15000.0
G1 Z11.9000 F2500.0
G4 P0.02
G1 X87.2362 Y-157.5745 F12000.0
G1 X87.5156 Y-157.8140
G1 X87.5156 Y-157.6144
G1 X88.5135 Y-157.5745
G1 Z0.0000 F2500.0
G4 P0.02
G0 X87.4358 Y-160.7278 F15000.0
G1 Z11.9000 F2500.0
G4 P0.02
G1 X87.7152 Y-161.2467 F12000.0
G1 Z0.0000 F2500.0
G4 P0.02
G0 X88.3938 Y-160.2089 F15000.0
G1 Z11.9000 F2500.0
G4 P0.02
G1 X88.1143 Y-159.9694 F12000.0
G1 X88.5135 Y-160.2887
G1 X89.1521 Y-160.3686
G1 X89.3118 Y-160.2488
G1 X89.3517 Y-159.7698
G1 X89.1521 Y-159.4505
G1 X89.2320 Y-159.5303
G1 Z0.0000 F2500.0
G4 P0.02
G0 X53.1950 Y-159.0879 F15000.0
G1 Z11.9000 F2500.0
G4 P0.02
G1 X53.2748 Y-158.6488 F12000.0
G1 X54.0732 Y-158.4492
G1 X54.7118 Y-158.6887
G1 X54.9513 Y-158.8883
G1 X55.2307 Y-159.5270
G1 X55.1908 Y-159.3673
G1 X55.3904 Y-160.2854
G1 X55.3505 Y-160.3652
G1 X53.9135 Y-160.6845
G1 X54.0732 Y-161.2034
G1 X53.6740 Y-160.4450
G1 Z0.0000 F2500.0
G4 P0.02
G0 X53.4345 Y-159.7665 F15000.0
G1 Z11.9000 F2500.0
G4 P0.02
G1 X53.4744 Y-159.8862 F12000.0
G1 Z0.0000 F2500.0
G4 P0.02
G0 X54.3126 Y-161.5227 F15000.0
G1 Z11.9000 F2500.0
G4 P0.02
G1 X54.3925 Y-161.6026 F12000.0
G1 Z0.0000 F2500.0
G4 P0.02
G0 X54.8315 Y-162.0017 F15000.0
G1 Z11.9000 F2500.0
G4 P0.02
G1 X55.3105 Y-162.3210 F12000.0
G1 Z0.0000 F2500.0
G4 P0.02
G0 X56.6121 Y-158.3780 F15000.0
G1 Z11.9000 F2500.0
G4 P0.02
G1 X56.8117 Y-158.4179 F12000.0
G1 X56.8915 Y-158.6175
G1 X56.8915 Y-158.4179
G1 X57.8894 Y-158.3780
G1 Z0.0000 F2500.0
G4 P0.02
G0 X56.8516 Y-161.5712 F15000.0
G1 Z11.9000 F2500.0
G4 P0.02
G1 X57.0911 Y-162.0103 F12000.0
G1 Z0.0000 F2500.0
G4 P0.02
G0 X57.5302 Y-160.7729 F15000.0
G1 Z11.9000 F2500.0
G4 P0.02
G1 X57.8894 Y-161.0922 F12000.0
G1 X58.5280 Y-161.1721
G1 X58.6877 Y-161.0523
G1 X58.7276 Y-160.5733
G1 X58.5280 Y-160.2540
G1 X58.6079 Y-160.3338
G1 Z0.0000 F2500.0
G4 P0.02
G0 X94.2407 Y-255.8199 F15000.0
G1 Z11.9000 F2500.0
G4 P0.02
G1 X95.2785 Y-255.8998 F12000.0
G1 X95.7575 Y-256.1393
G1 X96.1168 Y-256.7380
G1 X96.2764 Y-257.1771
G1 X96.2764 Y-257.7758
G1 X96.1966 Y-257.8556
G1 X95.1588 Y-258.0153
G1 X95.1987 Y-258.4544
G1 X95.1189 Y-258.0552
G1 X95.3185 Y-258.7737
G1 Z0.0000 F2500.0
G4 P0.02
G0 X95.5580 Y-259.4123 F15000.0
G1 Z11.9000 F2500.0
G4 P0.02
G1 X95.6777 Y-259.7317 F12000.0
G1 X97.2344 Y-259.9312
G1 Z0.0000 F2500.0
G4 P0.02
G0 X97.4340 Y-255.7401 F15000.0
G1 Z11.9000 F2500.0
G4 P0.02
G1 X97.6336 Y-255.7800 F12000.0
G1 X97.7134 Y-255.9796
G1 X97.7134 Y-255.7800
G1 X98.7911 Y-255.7800
G1 Z0.0000 F2500.0
G4 P0.02
G0 X97.6336 Y-258.8934 F15000.0
G1 Z11.9000 F2500.0
G4 P0.02
G1 X97.9130 Y-259.4123 F12000.0
G1 Z0.0000 F2500.0
G4 P0.02
G0 X98.5915 Y-258.3745 F15000.0
G1 Z11.9000 F2500.0
G4 P0.02
G1 X98.3121 Y-258.1350 F12000.0
G1 X98.7113 Y-258.4544
G1 X99.3499 Y-258.5342
G1 X99.5096 Y-258.4145
G1 X99.4697 Y-257.8157
G1 X99.3499 Y-257.6161
G1 X99.4298 Y-257.7359
G1 Z0.0000 F2500.0
G4 P0.02
G0 X83.8018 Y-245.2664 F15000.0
G1 Z11.9000 F2500.0
G4 P0.02
G1 X83.6022 Y-245.2265 F12000.0
G1 X83.8816 Y-245.4660
G1 X83.8816 Y-245.2664
G1 X84.8795 Y-245.2265
G1 Z0.0000 F2500.0
G4 P0.02
G0 X83.8417 Y-248.4197 F15000.0
G1 Z11.9000 F2500.0
G4 P0.02
G1 X84.0812 Y-248.8588 F12000.0
G1 Z0.0000 F2500.0
G4 P0.02
G0 X84.5202 Y-247.6214 F15000.0
G1 Z11.9000 F2500.0
G4 P0.02
G1 X84.8795 Y-247.9408 F12000.0
G1 X85.5181 Y-248.0206
G1 X85.6778 Y-247.9008
G1 X85.7177 Y-247.4219
G1 X85.5181 Y-247.1025
G1 X85.5980 Y-247.1824
G1 Z0.0000 F2500.0
G4 P0.02
G0 X74.9042 Y-207.5304 F15000.0
G1 Z11.9000 F2500.0
G4 P0.02
G1 X74.7046 Y-207.4905 F12000.0
G1 X74.9840 Y-207.7300
G1 X74.9840 Y-207.5304
G1 X75.9819 Y-207.4905
G1 Z0.0000 F2500.0
G4 P0.02
G0 X74.9441 Y-210.6837 F15000.0
G1 Z11.9000 F2500.0
G4 P0.02
G1 X75.1836 Y-211.1228 F12000.0
G1 Z0.0000 F2500.0
G4 P0.02
G0 X75.6226 Y-209.8854 F15000.0
G1 Z11.9000 F2500.0
G4 P0.02
G1 X75.9819 Y-210.2047 F12000.0
G1 X76.6205 Y-210.2846
G1 X76.7802 Y-210.1648
G1 X76.8201 Y-209.6858
G1 X76.6205 Y-209.3665
G1 X76.7004 Y-209.4463
G1 Z0.0000 F2500.0
G4 P0.02
G0 X61.9922 Y-226.6623 F15000.0
G1 Z11.9000 F2500.0
G4 P0.02
G1 X61.7128 Y-226.5426 F12000.0
G1 Z0.0000 F2500.0
G4 P0.02
G0 X61.9922 Y-226.6623 F15000.0
G1 Z11.9000 F2500.0
G4 P0.02
G1 X64.4670 Y-229.2568 F12000.0
G1 X64.6665 Y-229.5762
G1 X64.8262 Y-230.0951
G1 X64.7464 Y-230.3345
G1 X64.3073 Y-230.6539
G1 X63.5489 Y-230.4543
G1 X62.9901 Y-230.0152
G1 Z0.0000 F2500.0
G4 P0.02
G0 X63.5888 Y-226.6224 F15000.0
G1 Z11.9000 F2500.0
G4 P0.02
G1 X61.9922 Y-226.6623 F12000.0
G1 Z0.0000 F2500.0
G4 P0.02
G0 X65.5048 Y-229.6959 F15000.0
G1 Z11.9000 F2500.0
G4 P0.02
G1 X66.0237 Y-230.6539 F12000.0
G1 Z0.0000 F2500.0
G4 P0.02
G0 X65.5447 Y-226.7421 F15000.0
G1 Z11.9000 F2500.0
G4 P0.02
G1 X65.5048 Y-226.5825 F12000.0
G1 X66.5426 Y-226.5426
G1 Z0.0000 F2500.0
G4 P0.02
G0 X66.3031 Y-227.5005 F15000.0
G1 Z11.9000 F2500.0
G4 P0.02
G1 X67.3010 Y-228.5783 F12000.0
G1 X67.4207 Y-229.0572
G1 X67.1413 Y-229.3367
G1 X66.4627 Y-229.1371
G1 Z0.0000 F2500.0
G4 P0.02
G0 X178.1398 Y-143.5154 F15000.0
G1 Z11.9000 F2500.0
G4 P0.02
G1 X177.8604 Y-142.2780 F12000.0
G1 X177.9003 Y-142.1981
G1 X178.6986 Y-141.9986
G1 X179.1776 Y-142.1183
G1 X179.8163 Y-142.9166
G1 X180.0000 Y-143.7617
G1 X179.7764 Y-144.2338
G1 X178.9781 Y-144.2338
G1 Z0.0000 F2500.0
G4 P0.02
G0 X178.1797 Y-143.5952 F15000.0
G1 Z11.9000 F2500.0
G4 P0.02
G1 X178.9381 Y-144.2738 F12000.0
G1 X178.8583 Y-145.0721
G1 X179.0180 Y-145.4712
G1 X179.2575 Y-145.7506
G1 X179.8562 Y-146.0700
G1 X180.0000 Y-146.0700
G1 Z0.0000 F2500.0
G4 P0.02
G0 X180.0000 Y-143.8585 F15000.0
G1 Z11.9000 F2500.0
G4 P0.02
G1 X179.8961 Y-144.3536 F12000.0
G1 X180.0000 Y-144.4367
G1 Z0.0000 F2500.0
G4 P0.02
G0 X179.4128 Y-233.0408 F15000.0
G1 Z11.9000 F2500.0
G4 P0.02
G1 X180.0000 Y-234.7226 F12000.0
G1 Z0.0000 F2500.0
G4 P0.02
G0 X179.5325 Y-236.1542 F15000.0
G1 Z11.9000 F2500.0
G4 P0.02
G1 X179.6922 Y-236.3139 F12000.0
G1 Z0.0000 F2500.0
G4 P0.02
G0 X79.5724 Y-40.6499 F15000.0
G1 Z11.9000 F2500.0
G4 P0.02
G1 X79.1333 Y-39.9315 F12000.0
G1 Z0.0000 F2500.0
G4 P0.02
G0 X79.5724 Y-43.6037 F15000.0
G1 Z11.9000 F2500.0
G4 P0.02
G1 X79.7720 Y-44.0028 F12000.0
G1 X81.4884 Y-44.0028
G1 X81.4085 Y-43.7234
G1 Z0.0000 F2500.0
G4 P0.02
G0 X79.6922 Y-40.8495 F15000.0
G1 Z11.9000 F2500.0
G4 P0.02
G1 X79.6123 Y-40.7298 F12000.0
G1 X80.2909 Y-41.8474
G1 Z0.0000 F2500.0
G4 P0.02
G0 X81.6480 Y-40.3306 F15000.0
G1 Z11.9000 F2500.0
G4 P0.02
G1 X81.6081 Y-40.2109 F12000.0
G1 Z0.0000 F2500.0
G4 P0.02
G0 X81.7678 Y-42.2066 F15000.0
G1 Z11.9000 F2500.0
G4 P0.02
G1 X82.3266 Y-42.4861 F12000.0
G1 X82.5262 Y-42.7256
G1 X81.8476 Y-40.8894
G1 Z0.0000 F2500.0
G4 P0.02
G0 X53.8736 Y-43.7717 F15000.0
G1 Z11.9000 F2500.0
G4 P0.02
G1 X53.8736 Y-44.0511 F12000.0
G1 X53.9534 Y-43.6121
G1 X54.7517 Y-43.4125
G1 X55.3904 Y-43.6520
G1 X55.6299 Y-43.8515
G1 X55.9093 Y-44.4902
G1 X55.8694 Y-44.3305
G1 X56.0689 Y-45.2486
G1 X56.0290 Y-45.3284
G1 X54.5921 Y-45.6477
G1 X54.7517 Y-46.1667
G1 X54.3526 Y-45.4083
G1 Z0.0000 F2500.0
G4 P0.02
G0 X54.1131 Y-44.7297 F15000.0
G1 Z11.9000 F2500.0
G4 P0.02
G1 X54.1530 Y-44.8494 F12000.0
G1 Z0.0000 F2500.0
G4 P0.02
G0 X54.9912 Y-46.4860 F15000.0
G1 Z11.9000 F2500.0
G4 P0.02
G1 X55.0711 Y-46.5658 F12000.0
G1 Z0.0000 F2500.0
G4 P0.02
G0 X55.5101 Y-46.9650 F15000.0
G1 Z11.9000 F2500.0
G4 P0.02
G1 X55.9891 Y-47.2843 F12000.0
G1 Z0.0000 F2500.0
G4 P0.02
G0 X94.0412 Y-43.2953 F15000.0
G1 Z11.9000 F2500.0
G4 P0.02
G1 X95.5979 Y-43.6944 F12000.0
G1 X96.0369 Y-44.5726
G1 X96.0769 Y-45.2511
G1 X95.9172 Y-45.4108
G1 X94.9193 Y-45.5705
G1 X95.4781 Y-47.2070
G1 X97.0348 Y-47.4066
G1 Z0.0000 F2500.0
G4 P0.02
G0 X96.9949 Y-43.3352 F15000.0
G1 Z11.9000 F2500.0
G4 P0.02
G1 X96.9550 Y-43.2154 F12000.0
G1 X97.1147 Y-43.6545
G1 Z0.0000 F2500.0
G4 P0.02
G0 X97.1546 Y-45.4906 F15000.0
G1 Z11.9000 F2500.0
G4 P0.02
G1 X97.7932 Y-45.8100 F12000.0
G1 X98.0327 Y-46.1293
G1 X97.8331 Y-45.8499
G1 X97.3142 Y-44.2133
G1 Z0.0000 F2500.0
G4 P0.02
G0 X64.8230 Y-24.3828 F15000.0
G1 Z11.9000 F2500.0
G4 P0.02
G1 X63.3062 Y-24.0236 F12000.0
G1 Z0.0000 F2500.0
G4 P0.02
G0 X64.7431 Y-26.2189 F15000.0
G1 Z11.9000 F2500.0
G4 P0.02
G1 X65.1822 Y-26.2189 F12000.0
G1 X65.3818 Y-25.4605
G1 X64.9826 Y-24.5425
G1 Z0.0000 F2500.0
G4 P0.02
G0 X65.7011 Y-28.0151 F15000.0
G1 Z11.9000 F2500.0
G4 P0.02
G1 X64.7830 Y-28.0950 F12000.0
G1 Z0.0000 F2500.0
G4 P0.02
G0 X65.5814 Y-26.6580 F15000.0
G1 Z11.9000 F2500.0
G4 P0.02
G1 X65.9007 Y-27.3765 F12000.0
G1 X65.9406 Y-27.7357
G1 Z0.0000 F2500.0
G4 P0.02
G0 X66.3797 Y-24.0635 F15000.0
G1 Z11.9000 F2500.0
G4 P0.02
G1 X66.3397 Y-23.9437 F12000.0
G1 X66.4994 Y-24.3828
G1 Z0.0000 F2500.0
G4 P0.02
G0 X66.5393 Y-26.2189 F15000.0
G1 Z11.9000 F2500.0
G4 P0.02
G1 X67.1780 Y-26.5383 F12000.0
G1 X67.4175 Y-26.8576
G1 X67.2179 Y-26.5782
G1 X66.6990 Y-24.9416
G1 Z0.0000 F2500.0
G4 P0.02
G0 X45.9860 Y-29.9583 F15000.0
G1 Z11.9000 F2500.0
G4 P0.02
G1 X45.7066 Y-29.8385 F12000.0
G1 Z0.0000 F2500.0
G4 P0.02
G0 X45.9860 Y-29.9583 F15000.0
G1 Z11.9000 F2500.0
G4 P0.02
G1 X48.4608 Y-32.5528 F12000.0
G1 X48.6604 Y-32.8721
G1 X48.8201 Y-33.3910
G1 X48.7402 Y-33.6305
G1 X48.3012 Y-33.9498
G1 X47.5428 Y-33.7503
G1 X46.9839 Y-33.3112
G1 Z0.0000 F2500.0
G4 P0.02
G0 X47.5827 Y-29.9184 F15000.0
G1 Z11.9000 F2500.0
G4 P0.02
G1 X45.9860 Y-29.9583 F12000.0
G1 Z0.0000 F2500.0
G4 P0.02
G0 X49.8978 Y-32.3532 F15000.0
G1 Z11.9000 F2500.0
G4 P0.02
G1 X49.0196 Y-29.8385 F12000.0
G1 Z0.0000 F2500.0
G4 P0.02
G0 X49.2192 Y-32.0738 F15000.0
G1 Z11.9000 F2500.0
G4 P0.02
G1 X49.8978 Y-32.4330 F12000.0
G1 X50.0974 Y-32.7125
G1 Z0.0000 F2500.0
G4 P0.02
G0 X20.3398 Y-78.4876 F15000.0
G1 Z11.9000 F2500.0
G4 P0.02
G1 X21.2978 Y-81.2019 F12000.0
G1 X21.5772 Y-82.3195
G1 X21.0982 Y-82.0800
G1 Z0.0000 F2500.0
G4 P0.02
G0 X20.4596 Y-81.6010 F15000.0
G1 Z11.9000 F2500.0
G4 P0.02
G1 X20.6192 Y-81.7607 F12000.0
G1 Z0.0000 F2500.0
G4 P0.02
G0 X21.6171 Y-82.3195 F15000.0
G1 Z11.9000 F2500.0
G4 P0.02
G1 X21.6970 Y-82.3993 F12000.0
G1 Z0.0000 F2500.0
G4 P0.02
G0 X21.7768 Y-78.5674 F15000.0
G1 Z11.9000 F2500.0
G4 P0.02
G1 X21.7369 Y-78.4477 F12000.0
G1 X21.8965 Y-78.8868
G1 Z0.0000 F2500.0
G4 P0.02
G0 X21.9364 Y-80.7229 F15000.0
G1 Z11.9000 F2500.0
G4 P0.02
G1 X22.5751 Y-81.0422 F12000.0
G1 X22.8146 Y-81.3615
G1 X22.6150 Y-81.0821
G1 X22.0961 Y-79.4456
G1 Z0.0000 F2500.0
G4 P0.02
G0 X129.8317 Y-144.4422 F15000.0
G1 Z11.9000 F2500.0
G4 P0.02
G1 X130.6300 Y-145.7994 F12000.0
G1 Z0.0000 F2500.0
G4 P0.02
G0 X130.2309 Y-148.1145 F15000.0
G1 Z11.9000 F2500.0
G4 P0.02
G1 X130.4305 Y-148.5136 F12000.0
G1 X132.1468 Y-148.5136
G1 X132.0670 Y-148.2342
G1 Z0.0000 F2500.0
G4 P0.02
G0 X132.4263 Y-144.4023 F15000.0
G1 Z11.9000 F2500.0
G4 P0.02
G1 X133.5838 Y-144.7217 F12000.0
G1 X133.8632 Y-145.3204
G1 X133.8632 Y-145.7195
G1 X134.0229 Y-146.2384
G1 X133.7435 Y-145.9590
G1 X133.8233 Y-145.7994
G1 X133.7035 Y-145.9590
G1 X133.4241 Y-145.9590
G1 Z0.0000 F2500.0
G4 P0.02
G0 X132.6258 Y-147.5557 F15000.0
G1 Z11.9000 F2500.0
G4 P0.02
G1 X132.9052 Y-148.0746 F12000.0
G1 Z0.0000 F2500.0
G4 P0.02
G0 X133.4641 Y-147.2363 F15000.0
G1 Z11.9000 F2500.0
G4 P0.02
G1 X134.1426 Y-147.1565 F12000.0
G1 X134.2624 Y-146.9968
G1 X134.1027 Y-146.3582
G1 Z0.0000 F2500.0
G4 P0.02
G0 X144.9266 Y-152.6615 F15000.0
G1 Z11.9000 F2500.0
G4 P0.02
G1 X144.9266 Y-152.9409 F12000.0
G1 X145.0065 Y-152.5018
G1 X145.8048 Y-152.3022
G1 X146.4434 Y-152.5417
G1 X146.6829 Y-152.7413
G1 X146.9623 Y-153.3799
G1 X146.9224 Y-153.2203
G1 X147.1220 Y-154.1383
G1 X147.0821 Y-154.2182
G1 X145.6451 Y-154.5375
G1 X145.8048 Y-155.0564
G1 X145.4056 Y-154.2980
G1 Z0.0000 F2500.0
G4 P0.02
G0 X145.1661 Y-153.6194 F15000.0
G1 Z11.9000 F2500.0
G4 P0.02
G1 X145.2060 Y-153.7392 F12000.0
G1 Z0.0000 F2500.0
G4 P0.02
G0 X146.0443 Y-155.3757 F15000.0
G1 Z11.9000 F2500.0
G4 P0.02
G1 X146.1241 Y-155.4555 F12000.0
G1 Z0.0000 F2500.0
G4 P0.02
G0 X146.5632 Y-155.8547 F15000.0
G1 Z11.9000 F2500.0
G4 P0.02
G1 X147.0422 Y-156.1740 F12000.0
G1 Z0.0000 F2500.0
G4 P0.02
G0 X148.3415 Y-152.2309 F15000.0
G1 Z11.9000 F2500.0
G4 P0.02
G1 X149.4990 Y-152.5503 F12000.0
G1 X149.7784 Y-153.1490
G1 X149.7784 Y-153.9473
G1 X149.6587 Y-153.7876
G1 X149.7385 Y-153.6280
G1 X149.6188 Y-153.7876
G1 X149.3394 Y-153.7876
G1 Z0.0000 F2500.0
G4 P0.02
G0 X148.5810 Y-155.4242 F15000.0
G1 Z11.9000 F2500.0
G4 P0.02
G1 X149.0999 Y-156.3822 F12000.0
G1 Z0.0000 F2500.0
G4 P0.02
G0 X149.3793 Y-155.0649 F15000.0
G1 Z11.9000 F2500.0
G4 P0.02
G1 X150.0179 Y-155.0250 F12000.0
G1 Z0.0000 F2500.0
G4 P0.02
G0 X149.9381 Y-154.0671 F15000.0
G1 Z11.9000 F2500.0
G4 P0.02
G1 X150.1776 Y-154.5460 F12000.0
G1 X150.0578 Y-154.9851
G1 X150.1377 Y-154.4662
G1 X150.0578 Y-154.2267
G1 Z0.0000 F2500.0
G4 P0.02
G0 X134.2418 Y-254.1036 F15000.0
G1 Z11.9000 F2500.0
G4 P0.02
G1 X133.2838 Y-254.0637 F12000.0
G1 Z0.0000 F2500.0
G4 P0.02
G0 X134.1619 Y-256.2989 F15000.0
G1 Z11.9000 F2500.0
G4 P0.02
G1 X134.2418 Y-256.6981 F12000.0
G1 X134.2018 Y-256.2590
G1 X135.2396 Y-256.0993
G1 X135.3195 Y-256.0195
G1 X135.3195 Y-255.4208
G1 X135.1199 Y-254.9019
G1 X134.7207 Y-254.3431
G1 X134.3216 Y-254.1435
G1 Z0.0000 F2500.0
G4 P0.02
G0 X134.2817 Y-256.7779 F15000.0
G1 Z11.9000 F2500.0
G4 P0.02
G1 X134.3615 Y-257.0174 F12000.0
G1 Z0.0000 F2500.0
G4 P0.02
G0 X134.6010 Y-257.6561 F15000.0
G1 Z11.9000 F2500.0
G4 P0.02
G1 X134.7207 Y-257.9754 F12000.0
G1 X136.2774 Y-258.1750
G1 Z0.0000 F2500.0
G4 P0.02
G0 X136.4770 Y-253.9838 F15000.0
G1 Z11.9000 F2500.0
G4 P0.02
G1 X137.6346 Y-254.3031 F12000.0
G1 X137.9140 Y-255.3010
G1 X137.5547 Y-255.5405
G1 X137.7543 Y-255.5405
G1 X137.8741 Y-255.3809
G1 X137.7942 Y-255.5405
G1 X138.1535 Y-255.9796
G1 X138.3131 Y-256.5783
G1 X138.1535 Y-256.7779
G1 X137.5547 Y-256.8178
G1 Z0.0000 F2500.0
G4 P0.02
G0 X136.6766 Y-257.1372 F15000.0
G1 Z11.9000 F2500.0
G4 P0.02
G1 X136.9560 Y-257.6561 F12000.0
G1 Z0.0000 F2500.0
G4 P0.02
G0 X131.6639 Y-246.9828 F15000.0
G1 Z11.9000 F2500.0
G4 P0.02
G1 X131.4244 Y-246.9828 F12000.0
G1 X132.5820 Y-247.3021
G1 X132.8614 Y-247.9008
G1 X132.8614 Y-248.6992
G1 X132.7416 Y-248.5395
G1 X132.8214 Y-248.3798
G1 X132.7017 Y-248.5395
G1 X132.4223 Y-248.5395
G1 Z0.0000 F2500.0
G4 P0.02
G0 X131.6639 Y-250.1760 F15000.0
G1 Z11.9000 F2500.0
G4 P0.02
G1 X132.1828 Y-251.1340 F12000.0
G1 Z0.0000 F2500.0
G4 P0.02
G0 X132.4622 Y-249.8168 F15000.0
G1 Z11.9000 F2500.0
G4 P0.02
G1 X133.1009 Y-249.7769 F12000.0
G1 Z0.0000 F2500.0
G4 P0.02
G0 X133.0210 Y-248.8189 F15000.0
G1 Z11.9000 F2500.0
G4 P0.02
G1 X133.2605 Y-249.2979 F12000.0
G1 X133.1408 Y-249.7370
G1 X133.2206 Y-249.2181
G1 X133.1408 Y-248.9786
G1 Z0.0000 F2500.0
G4 P0.02
G0 X128.9133 Y-207.4905 F15000.0
G1 Z11.9000 F2500.0
G4 P0.02
G1 X128.6738 Y-207.4905 F12000.0
G1 X129.8314 Y-207.8098
G1 X130.1108 Y-208.4085
G1 X130.1108 Y-209.2068
G1 X129.9910 Y-209.0472
G1 X130.0709 Y-208.8875
G1 X129.9511 Y-209.0472
G1 X129.6717 Y-209.0472
G1 Z0.0000 F2500.0
G4 P0.02
G0 X128.9133 Y-210.6837 F15000.0
G1 Z11.9000 F2500.0
G4 P0.02
G1 X129.4322 Y-211.6417 F12000.0
G1 Z0.0000 F2500.0
G4 P0.02
G0 X129.7116 Y-210.3245 F15000.0
G1 Z11.9000 F2500.0
G4 P0.02
G1 X130.3503 Y-210.2846 F12000.0
G1 Z0.0000 F2500.0
G4 P0.02
G0 X130.2704 Y-209.3266 F15000.0
G1 Z11.9000 F2500.0
G4 P0.02
G1 X130.5099 Y-209.8056 F12000.0
G1 X130.3902 Y-210.2446
G1 X130.4700 Y-209.7257
G1 X130.3902 Y-209.4862
G1 Z0.0000 F2500.0
G4 P0.02
G0 X138.5160 Y-217.7611 F15000.0
G1 Z11.9000 F2500.0
G4 P0.02
G1 X138.7954 Y-217.8809 F12000.0
G1 X141.2702 Y-220.4754
G1 X141.4697 Y-220.7947
G1 X141.6294 Y-221.3136
G1 X141.5496 Y-221.5531
G1 X141.1105 Y-221.8724
G1 X140.3521 Y-221.6729
G1 X139.7933 Y-221.2338
G1 Z0.0000 F2500.0
G4 P0.02
G0 X140.3920 Y-217.8410 F15000.0
G1 Z11.9000 F2500.0
G4 P0.02
G1 X138.7954 Y-217.8809 F12000.0
G1 Z0.0000 F2500.0
G4 P0.02
G0 X142.1483 Y-217.7611 F15000.0
G1 Z11.9000 F2500.0
G4 P0.02
G1 X143.2260 Y-218.0405 F12000.0
G1 X143.4256 Y-218.4397
G1 X143.5054 Y-219.0783
G1 X143.4256 Y-219.2779
G1 X143.1861 Y-219.2779
G1 X143.3857 Y-219.2779
G1 X143.6651 Y-219.5573
G1 X143.9046 Y-220.0363
G1 X143.7848 Y-220.5153
G1 X143.1861 Y-220.5951
G1 Z0.0000 F2500.0
G4 P0.02
G0 X142.3080 Y-220.9145 F15000.0
G1 Z11.9000 F2500.0
G4 P0.02
G1 X142.8269 Y-221.8724 F12000.0
G1 Z0.0000 F2500.0
G4 P0.02
G0 X81.2770 Y-106.3628 F15000.0
G1 Z11.9000 F2500.0
G4 P0.02
G1 X80.9576 Y-105.8039 F12000.0
G1 Z0.0000 F2500.0
G4 P0.02
G0 X81.3169 Y-106.4426 F15000.0
G1 Z11.9000 F2500.0
G4 P0.02
G1 X81.7559 Y-107.1611 F12000.0
G1 Z0.0000 F2500.0
G4 P0.02
G0 X81.3568 Y-109.4762 F15000.0
G1 Z11.9000 F2500.0
G4 P0.02
G1 X81.5564 Y-109.8753 F12000.0
G1 Z0.0000 F2500.0
G4 P0.02
G0 X83.2727 Y-109.8753 F15000.0
G1 Z11.9000 F2500.0
G4 P0.02
G1 X83.1929 Y-109.5959 F12000.0
G1 Z0.0000 F2500.0
G4 P0.02
G0 X83.8715 Y-109.1568 F15000.0
G1 Z11.9000 F2500.0
G4 P0.02
G1 X83.7517 Y-108.9174 F12000.0
G1 X84.0311 Y-109.4363
G1 Z0.0000 F2500.0
G4 P0.02
G0 X85.1088 Y-108.3186 F15000.0
G1 Z11.9000 F2500.0
G4 P0.02
G1 X84.1908 Y-105.7640 F12000.0
G1 Z0.0000 F2500.0
G4 P0.02
G0 X84.4303 Y-108.0392 F15000.0
G1 Z11.9000 F2500.0
G4 P0.02
G1 X85.0689 Y-108.3585 F12000.0
G1 Z0.0000 F2500.0
G4 P0.02
G0 X53.9017 Y-103.7649 F15000.0
G1 Z11.9000 F2500.0
G4 P0.02
G1 X53.9815 Y-103.3258 F12000.0
G1 X54.7798 Y-103.1262
G1 X55.4185 Y-103.3657
G1 X55.6580 Y-103.5653
G1 X55.9374 Y-104.2039
G1 X55.8974 Y-104.0443
G1 X56.0970 Y-104.9623
G1 X56.0571 Y-105.0422
G1 X54.6201 Y-105.3615
G1 X54.7798 Y-105.8804
G1 X54.3807 Y-105.1220
G1 Z0.0000 F2500.0
G4 P0.02
G0 X54.1412 Y-104.4434 F15000.0
G1 Z11.9000 F2500.0
G4 P0.02
G1 X54.1811 Y-104.5632 F12000.0
G1 Z0.0000 F2500.0
G4 P0.02
G0 X55.0193 Y-106.1997 F15000.0
G1 Z11.9000 F2500.0
G4 P0.02
G1 X55.0991 Y-106.2795 F12000.0
G1 Z0.0000 F2500.0
G4 P0.02
G0 X55.5382 Y-106.6787 F15000.0
G1 Z11.9000 F2500.0
G4 P0.02
G1 X56.0172 Y-106.9980 F12000.0
G1 Z0.0000 F2500.0
G4 P0.02
G0 X57.5249 Y-106.2083 F15000.0
G1 Z11.9000 F2500.0
G4 P0.02
G1 X57.8043 Y-106.7272 F12000.0
G1 Z0.0000 F2500.0
G4 P0.02
G0 X58.8820 Y-105.6095 F15000.0
G1 Z11.9000 F2500.0
G4 P0.02
G1 X57.9640 Y-103.0549 F12000.0
G1 Z0.0000 F2500.0
G4 P0.02
G0 X58.2034 Y-105.3301 F15000.0
G1 Z11.9000 F2500.0
G4 P0.02
G1 X58.8421 Y-105.6495 F12000.0
G1 Z0.0000 F2500.0
G4 P0.02
G0 X93.1911 Y-103.0231 F15000.0
G1 Z11.9000 F2500.0
G4 P0.02
G1 X94.2289 Y-103.1029 F12000.0
G1 X94.7079 Y-103.3424
G1 X95.0671 Y-103.9411
G1 X95.2268 Y-104.3802
G1 X95.2268 Y-104.9789
G1 X95.1470 Y-105.0588
G1 X94.1092 Y-105.2184
G1 X94.1491 Y-105.6575
G1 X94.0692 Y-105.2583
G1 X94.2688 Y-105.9768
G1 Z0.0000 F2500.0
G4 P0.02
G0 X94.5083 Y-106.6155 F15000.0
G1 Z11.9000 F2500.0
G4 P0.02
G1 X94.6281 Y-106.9348 F12000.0
G1 X96.1848 Y-107.1344
G1 Z0.0000 F2500.0
G4 P0.02
G0 X96.5839 Y-106.0966 F15000.0
G1 Z11.9000 F2500.0
G4 P0.02
G1 X96.8633 Y-106.6155 F12000.0
G1 Z0.0000 F2500.0
G4 P0.02
G0 X97.2226 Y-105.2184 F15000.0
G1 Z11.9000 F2500.0
G4 P0.02
G1 X97.1028 Y-105.1386 F12000.0
G1 X97.4621 Y-105.3781
G1 X97.9011 Y-105.4978
G1 X97.1827 Y-103.3424
G1 Z0.0000 F2500.0
G4 P0.02
G0 X97.6217 Y-105.4579 F15000.0
G1 Z11.9000 F2500.0
G4 P0.02
G1 X97.9810 Y-105.6176 F12000.0
G1 Z0.0000 F2500.0
G4 P0.02
G0 X93.2964 Y-122.8054 F15000.0
G1 Z11.9000 F2500.0
G4 P0.02
G1 X93.5758 Y-123.3243 F12000.0
G1 Z0.0000 F2500.0
G4 P0.02
G0 X94.6535 Y-122.2066 F15000.0
G1 Z11.9000 F2500.0
G4 P0.02
G1 X93.7355 Y-119.6520 F12000.0
G1 Z0.0000 F2500.0
G4 P0.02
G0 X93.9750 Y-121.9272 F15000.0
G1 Z11.9000 F2500.0
G4 P0.02
G1 X94.6136 Y-122.2466 F12000.0
G1 Z0.0000 F2500.0
G4 P0.02
G0 X65.1994 Y-125.7034 F15000.0
G1 Z11.9000 F2500.0
G4 P0.02
G1 X65.0797 Y-125.4639 F12000.0
G1 X65.3591 Y-125.9828
G1 Z0.0000 F2500.0
G4 P0.02
G0 X66.4368 Y-124.8652 F15000.0
G1 Z11.9000 F2500.0
G4 P0.02
G1 X65.5187 Y-122.3106 F12000.0
G1 Z0.0000 F2500.0
G4 P0.02
G0 X65.7582 Y-124.5858 F15000.0
G1 Z11.9000 F2500.0
G4 P0.02
G1 X66.3969 Y-124.9051 F12000.0
G1 Z0.0000 F2500.0
G4 P0.02
G0 X47.8689 Y-121.0143 F15000.0
G1 Z11.9000 F2500.0
G4 P0.02
G1 X47.7491 Y-120.7748 F12000.0
G1 X48.0285 Y-121.2937
G1 Z0.0000 F2500.0
G4 P0.02
G0 X49.1063 Y-120.1761 F15000.0
G1 Z11.9000 F2500.0
G4 P0.02
G1 X48.1882 Y-117.6215 F12000.0
G1 Z0.0000 F2500.0
G4 P0.02
G0 X48.4277 Y-119.8967 F15000.0
G1 Z11.9000 F2500.0
G4 P0.02
G1 X49.0663 Y-120.2160 F12000.0
G1 Z0.0000 F2500.0
G4 P0.02
G0 X2.6940 Y-140.1982 F15000.0
G1 Z11.9000 F2500.0
G4 P0.02
G1 X2.4146 Y-139.9188 F12000.0
G1 X3.3327 Y-140.9167
G1 X3.7318 Y-141.1562
G1 X3.7318 Y-141.5952
G1 X3.4923 Y-142.7528
G1 Z0.0000 F2500.0
G4 P0.02
G0 X3.7318 Y-141.5154 F15000.0
G1 Z11.9000 F2500.0
G4 P0.02
G1 X3.7318 Y-141.1562 F12000.0
G1 X3.7717 Y-141.5553
G1 X4.0511 Y-141.6751
G1 X4.5301 Y-142.1940
G1 Z0.0000 F2500.0
G4 P0.02
G0 X3.8116 Y-141.0763 F15000.0
G1 Z11.9000 F2500.0
G4 P0.02
G1 X3.9713 Y-139.9587 F12000.0
G1 Z0.0000 F2500.0
G4 P0.02
G0 X5.5280 Y-140.3179 F15000.0
G1 Z11.9000 F2500.0
G4 P0.02
G1 X5.4083 Y-139.9188 F12000.0
G1 X5.7276 Y-140.8768
G1 Z0.0000 F2500.0
G4 P0.02
G0 X5.5679 Y-142.1541 F15000.0
G1 Z11.9000 F2500.0
G4 P0.02
G1 X6.2066 Y-142.4734 F12000.0
G1 X6.4461 Y-142.7927
G1 X6.2465 Y-142.5133
G1 X5.9272 Y-141.4356
G1 Z0.0000 F2500.0
G4 P0.02
G0 X6.2864 Y-140.1184 F15000.0
G1 Z11.9000 F2500.0
G4 P0.02
G1 X6.2465 Y-139.9587 F12000.0
G1 X7.3242 Y-139.9188
G1 Z0.0000 F2500.0
G4 P0.02
G0 X7.0049 Y-142.3935 F15000.0
G1 Z11.9000 F2500.0
G4 P0.02
G1 X7.9230 Y-142.6730 F12000.0
G1 X8.1624 Y-142.4335
G1 X7.9230 Y-141.7549
G1 X7.0448 Y-140.8768
G1 Z0.0000 F2500.0
G4 P0.02
G0 X114.8169 Y-266.1666 F15000.0
G1 Z11.9000 F2500.0
G4 P0.02
G1 X115.7350 Y-267.1645 F12000.0
G1 X116.1341 Y-267.4040
G1 X116.1341 Y-267.8431
G1 X115.8946 Y-269.0006
G1 Z0.0000 F2500.0
G4 P0.02
G0 X116.1341 Y-267.7632 F15000.0
G1 Z11.9000 F2500.0
G4 P0.02
G1 X116.1341 Y-267.4040 F12000.0
G1 X116.1740 Y-267.8032
G1 X116.4534 Y-267.9229
G1 X116.9324 Y-268.4418
G1 Z0.0000 F2500.0
G4 P0.02
G0 X116.2140 Y-267.3242 F15000.0
G1 Z11.9000 F2500.0
G4 P0.02
G1 X116.3736 Y-266.2065 F12000.0
G1 Z0.0000 F2500.0
G4 P0.02
G0 X117.3715 Y-266.3662 F15000.0
G1 Z11.9000 F2500.0
G4 P0.02
G1 X117.3316 Y-266.2065 F12000.0
G1 X118.3694 Y-266.1666
G1 Z0.0000 F2500.0
G4 P0.02
G0 X118.1299 Y-267.1246 F15000.0
G1 Z11.9000 F2500.0
G4 P0.02
G1 X119.1278 Y-268.2023 F12000.0
G1 X119.2475 Y-268.6813
G1 X118.9681 Y-268.9607
G1 X118.2896 Y-268.7611
G1 Z0.0000 F2500.0
G4 P0.02
G0 X119.1677 Y-266.1666 F15000.0
G1 Z11.9000 F2500.0
G4 P0.02
G1 X120.2055 Y-266.4460 F12000.0
G1 X120.4051 Y-266.8452
G1 X120.5248 Y-267.4040
G1 X120.3652 Y-267.6834
G1 X120.7643 Y-268.1225
G1 X120.8841 Y-268.4418
G1 X120.8042 Y-268.8809
G1 X120.2055 Y-269.0006
G1 Z0.0000 F2500.0
G4 P0.02
G0 X120.1656 Y-267.6834 F15000.0
G1 Z11.9000 F2500.0
G4 P0.02
G1 X120.3652 Y-267.6834 F12000.0
G1 Z0.0000 F2500.0
G4 P0.02
G0 X113.4572 Y-78.5688 F15000.0
G1 Z11.9000 F2500.0
G4 P0.02
G1 X113.6059 Y-74.9257 F12000.0
G1 X117.9182 Y-75.0743
G1 Z0.0000 F2500.0
G4 P0.02
G0 X113.4572 Y-78.5688 F15000.0
G1 Z11.9000 F2500.0
G4 P0.02
G1 X113.0112 Y-82.1375 F12000.0
G1 X112.2677 Y-85.7063
G1 X111.2268 Y-89.1264 F12000.0
G1 X109.9628 Y-92.5465
G1 X108.3271 Y-95.7435 F12000.0
G1 X106.5428 Y-98.8662
G1 X104.3866 Y-101.8401
G1 X102.0818 Y-104.5911 F12000.0
G1 X99.5539 Y-107.1190
G1 X96.8030 Y-109.4981
G1 X93.9033 Y-111.5799 F12000.0
G1 X90.7807 Y-113.4387
G1 X87.5093 Y-115.0743
G1 X84.1636 Y-116.4126 F12000.0
G1 X80.7435 Y-117.4535
G1 X77.1747 Y-118.1970
G1 X73.6059 Y-118.7175 F12000.0
G1 X70.0372 Y-118.8662
G1 X66.3941 Y-118.7175
G1 X62.8253 Y-118.3457 F12000.0
G1 X59.2565 Y-117.6022
G1 X55.7621 Y-116.6357
G1 X52.4164 Y-115.2974 F12000.0
G1 X49.1450 Y-113.7361
G1 X46.0223 Y-111.9517
G1 X43.0483 Y-109.8699 F12000.0
G1 X40.2974 Y-107.5651
G1 X37.6952 Y-105.0372
G1 X35.3160 Y-102.2862 F12000.0
G1 X33.2342 Y-99.3866
G1 X31.3011 Y-96.3383
G1 X29.7398 Y-93.0669 F12000.0
G1 X28.3271 Y-89.7212
G1 X27.2862 Y-86.3011 F12000.0
G1 X26.4684 Y-82.7323
G1 X26.0223 Y-79.1636 F12000.0
G1 X25.7993 Y-75.5948
G1 X25.8736 Y-71.9517 F12000.0
G1 X26.3197 Y-68.3829
G1 X26.9888 Y-64.8141 F12000.0
G1 X27.9554 Y-61.3197
G1 X29.2193 Y-57.9740 F12000.0
G1 X30.7807 Y-54.7026
G1 X32.5651 Y-51.5799
G1 X34.5725 Y-48.6059 F12000.0
G1 X36.8773 Y-45.7807
G1 X39.4052 Y-43.1784
G1 X42.0818 Y-40.7993 F12000.0
G1 X44.9814 Y-38.6431
G1 X48.1041 Y-36.7100
G1 X51.3011 Y-35.0743 F12000.0
G1 X54.6468 Y-33.7361
G1 X58.0669 Y-32.6208
G1 X61.5613 Y-31.8030 F12000.0
G1 X65.2045 Y-31.2825
G1 X68.7732 Y-31.0595
G1 X72.4164 Y-31.1338 F12000.0
G1 X75.9851 Y-31.5056
G1 X79.5539 Y-32.1747
G1 X83.0483 Y-33.1413 F12000.0
G1 X86.3941 Y-34.3309
G1 X89.6654 Y-35.8922
G1 X92.8625 Y-37.6766 F12000.0
G1 X95.8364 Y-39.6840
G1 X98.6617 Y-41.9145
G1 X101.2639 Y-44.4424 F12000.0
G1 X103.6431 Y-47.1190
G1 X105.7993 Y-50.0186
G1 X107.7323 Y-53.0669 F12000.0
G1 X109.4424 Y-56.2639
G1 X110.8550 Y-59.6097
G1 X111.9703 Y-63.0297 F12000.0
G1 X112.7881 Y-66.5242
G1 X113.3086 Y-70.0929 F12000.0
G1 X113.6059 Y-73.7361
G1 Z0.0000 F2500.0
G4 P0.02
G0 X91.6729 Y-36.9331 F15000.0
G1 Z11.9000 F2500.0
G4 P0.02
G1 X91.6729 Y-112.9926 F12000.0
G1 Z0.0000 F2500.0
G4 P0.02
G0 X69.6654 Y-118.8662 F15000.0
G1 Z11.9000 F2500.0
G4 P0.02
G1 X69.6654 Y-31.0595 F12000.0
G1 Z0.0000 F2500.0
G4 P0.02
G0 X52.1190 Y-106.5242 F15000.0
G1 Z11.9000 F2500.0
G4 P0.02
G1 X52.1190 Y-115.2230 F12000.0
G1 Z0.0000 F2500.0
G4 P0.02
G0 X52.4635 Y-114.8785 F15000.0
G1 Z11.9000 F2500.0
G4 P0.02
G1 X51.8488 Y-115.4932 F12000.0
G1 Z0.0000 F2500.0
G4 P0.02
G0 X52.1190 Y-104.8141 F15000.0
G1 Z11.9000 F2500.0
G4 P0.02
G1 X52.1190 Y-101.3941 F12000.0
G1 Z0.0000 F2500.0
G4 P0.02
G0 X52.1190 Y-99.6840 F15000.0
G1 Z11.9000 F2500.0
G4 P0.02
G1 X52.1190 Y-96.3383 F12000.0
G1 Z0.0000 F2500.0
G4 P0.02
G0 X52.1190 Y-94.5539 F15000.0
G1 Z11.9000 F2500.0
G4 P0.02
G1 X52.1190 Y-91.2082 F12000.0
G1 Z0.0000 F2500.0
G4 P0.02
G0 X52.1190 Y-89.4238 F15000.0
G1 Z11.9000 F2500.0
G4 P0.02
G1 X52.1190 Y-86.0781 F12000.0
G1 Z0.0000 F2500.0
G4 P0.02
G0 X52.1190 Y-84.2937 F15000.0
G1 Z11.9000 F2500.0
G4 P0.02
G1 X52.1190 Y-80.9480 F12000.0
G1 Z0.0000 F2500.0
G4 P0.02
G0 X52.1190 Y-79.1636 F15000.0
G1 Z11.9000 F2500.0
G4 P0.02
G1 X52.1190 Y-75.8178 F12000.0
G1 Z0.0000 F2500.0
G4 P0.02
G0 X52.1190 Y-74.1078 F15000.0
G1 Z11.9000 F2500.0
G4 P0.02
G1 X52.1190 Y-70.6877 F12000.0
G1 Z0.0000 F2500.0
G4 P0.02
G0 X52.1190 Y-68.9777 F15000.0
G1 Z11.9000 F2500.0
G4 P0.02
G1 X52.1190 Y-65.5576 F12000.0
G1 Z0.0000 F2500.0
G4 P0.02
G0 X52.1190 Y-63.8476 F15000.0
G1 Z11.9000 F2500.0
G4 P0.02
G1 X52.1190 Y-60.5019 F12000.0
G1 Z0.0000 F2500.0
G4 P0.02
G0 X52.1190 Y-58.7175 F15000.0
G1 Z11.9000 F2500.0
G4 P0.02
G1 X52.1190 Y-55.3717 F12000.0
G1 Z0.0000 F2500.0
G4 P0.02
G0 X52.1190 Y-53.5874 F15000.0
G1 Z11.9000 F2500.0
G4 P0.02
G1 X52.1190 Y-50.2416 F12000.0
G1 Z0.0000 F2500.0
G4 P0.02
G0 X52.1190 Y-48.4572 F15000.0
G1 Z11.9000 F2500.0
G4 P0.02
G1 X52.1190 Y-45.1115 F12000.0
G1 Z0.0000 F2500.0
G4 P0.02
G0 X52.1190 Y-43.3271 F15000.0
G1 Z11.9000 F2500.0
G4 P0.02
G1 X52.1190 Y-39.9814 F12000.0
G1 X48.1041 Y-42.2862
G1 Z0.0000 F2500.0
G4 P0.02
G0 X25.7993 Y-155.3717 F15000.0
G1 Z11.9000 F2500.0
G4 P0.02
G1 X113.6059 Y-155.3717 F12000.0
G1 Z0.0000 F2500.0
G4 P0.02
G0 X69.6654 Y-150.9851 F15000.0
G1 Z11.9000 F2500.0
G4 P0.02
G1 X52.1190 Y-150.9851 F12000.0
G1 Z0.0000 F2500.0
G4 P0.02
G0 X69.6654 Y-150.9851 F15000.0
G1 Z11.9000 F2500.0
G4 P0.02
G1 X78.5130 Y-150.9851 F12000.0
G1 X78.7832 Y-150.7150
G1 X78.1685 Y-151.3297
G1 Z0.0000 F2500.0
G4 P0.02
G0 X78.5130 Y-150.9851 F15000.0
G1 Z11.9000 F2500.0
G4 P0.02
G1 X78.5130 Y-137.6022 F12000.0
G1 X82.6766 Y-138.3457 F12000.0
G1 X86.8401 Y-139.3866
G1 X90.8550 Y-140.7249 F12000.0
G1 X94.8699 Y-142.3606
G1 X98.6617 Y-144.2193
G1 X102.3792 Y-146.3755 F12000.0
G1 X105.9480 Y-148.7546
G1 X109.2937 Y-151.4312
G1 X112.4907 Y-154.2565 F12000.0
G1 X113.6059 Y-155.3717
G1 Z0.0000 F2500.0
G4 P0.02
G0 X28.8476 Y-152.4721 F15000.0
G1 Z11.9000 F2500.0
G4 P0.02
G1 X25.7993 Y-155.3717 F12000.0
G1 Z0.0000 F2500.0
G4 P0.02
G0 X28.8476 Y-152.4721 F15000.0
G1 Z11.9000 F2500.0
G4 P0.02
G1 X32.1933 Y-149.7212 F12000.0
G1 X35.6877 Y-147.2677
G1 X39.2565 Y-144.9628
G1 X43.0483 Y-143.0297 F12000.0
G1 X46.9888 Y-141.3197
G1 X51.0037 Y-139.8327
G1 X52.1190 Y-139.5353 F12000.0
G1 Z0.0000 F2500.0
G4 P0.02
G0 X52.4635 Y-139.1908 F15000.0
G1 Z11.9000 F2500.0
G4 P0.02
G1 X51.8488 Y-139.8055 F12000.0
G1 Z0.0000 F2500.0
G4 P0.02
G0 X69.6654 Y-213.9591 F15000.0
G1 Z11.9000 F2500.0
G4 P0.02
G1 X91.6729 Y-252.0260 F12000.0
G1 Z0.0000 F2500.0
G4 P0.02
G0 X69.6654 Y-213.9591 F15000.0
G1 Z11.9000 F2500.0
G4 P0.02
G1 X25.7993 Y-239.3123 F12000.0
G1 X25.7993 Y-155.3717 F12000.0
G1 Z0.0000 F2500.0
G4 P0.02
G0 X91.6729 Y-252.0260 F15000.0
G1 Z11.9000 F2500.0
G4 P0.02
G1 X113.6059 Y-252.0260 F12000.0
G1 Z0.0000 F2500.0
G4 P0.02
G0 X78.5130 Y-137.6022 F15000.0
G1 Z11.9000 F2500.0
G4 P0.02
G1 X12.6394 Y-137.6022 F12000.0
G1 Z0.0000 F2500.0
G4 P0.02
G0 X78.5130 Y-137.6022 F15000.0
G1 Z11.9000 F2500.0
G4 P0.02
G1 X180.0000 Y-137.6022 F12000.0
G1 Z0.0000 F2500.0
G4 P0.02
G0 X113.6059 Y-26.9703 F15000.0
G1 Z11.9000 F2500.0
G4 P0.02
G1 X113.6059 Y-267.5651 F12000.0
G1 Z0.0000 F2500.0
G4 P0.02
G0 X113.6059 Y-115.2230 F15000.0
G1 Z11.9000 F2500.0
G4 P0.02
G1 X52.1190 Y-115.2230 F12000.0
G1 Z0.0000 F2500.0
G4 P0.02
G0 X91.6729 Y-112.9926 F15000.0
G1 Z11.9000 F2500.0
G4 P0.02
G1 X113.6059 Y-112.9926 F12000.0
G1 Z0.0000 F2500.0
G4 P0.02
G0 X113.6059 Y-34.7026 F15000.0
G1 Z11.9000 F2500.0
G4 P0.02
G1 X52.1190 Y-34.7026 F12000.0
G1 Z0.0000 F2500.0
G4 P0.02
G0 X91.6729 Y-36.9331 F15000.0
G1 Z11.9000 F2500.0
G4 P0.02
G1 X113.6059 Y-36.9331 F12000.0
G1 Z0.0000 F2500.0
G4 P0.02
G0 X113.6059 Y-115.2230 F15000.0
G1 Z11.9000 F2500.0
G4 P0.02
G1 X116.2082 Y-115.3717 F12000.0
G1 X118.7361 Y-115.8178
G1 X121.1896 Y-116.4870
G1 X123.5688 Y-117.5279
G1 X125.7993 Y-118.7918 F12000.0
G1 X127.8810 Y-120.3532
G1 X129.7398 Y-122.0632
G1 X131.4498 Y-124.0706
G1 X132.8625 Y-126.2268 F12000.0
G1 X134.0520 Y-128.4572
G1 X134.9442 Y-130.9108
G1 X135.6134 Y-133.4387
G1 X135.9108 Y-135.9665 F12000.0
G1 X135.9851 Y-137.6022
G1 Z0.0000 F2500.0
G4 P0.02
G0 X116.2825 Y-113.1413 F15000.0
G1 Z11.9000 F2500.0
G4 P0.02
G1 X113.6059 Y-112.9926 F12000.0
G1 Z0.0000 F2500.0
G4 P0.02
G0 X116.2825 Y-113.1413 F15000.0
G1 Z11.9000 F2500.0
G4 P0.02
G1 X118.9591 Y-113.5874 F12000.0
G1 X121.5613 Y-114.3309
G1 X124.0892 Y-115.2974
G1 X126.4684 Y-116.6357
G1 X128.6989 Y-118.1227 F12000.0
G1 X130.7063 Y-119.9071
G1 X132.5651 Y-121.9145
G1 X134.2007 Y-124.0706
G1 X135.5390 Y-126.3755 F12000.0
G1 X136.5799 Y-128.9033
G1 X137.3978 Y-131.4312
G1 X137.9926 Y-134.1078 F12000.0
G1 X138.2156 Y-136.7844
G1 X138.2156 Y-137.6022
G1 Z0.0000 F2500.0
G4 P0.02
G0 X117.9182 Y-75.0743 F15000.0
G1 Z11.9000 F2500.0
G4 P0.02
G1 X122.2305 Y-75.5204 F12000.0
G1 X126.4684 Y-76.2639
G1 X130.6320 Y-77.3048 F12000.0
G1 X134.7212 Y-78.6431
G1 X138.7361 Y-80.2045 F12000.0
G1 X142.6766 Y-82.0632
G1 X146.3941 Y-84.2193
G1 X150.0372 Y-86.5985 F12000.0
G1 X153.4572 Y-89.2751
G1 X156.6543 Y-92.1004 F12000.0
G1 X159.7026 Y-95.1487
G1 X162.5279 Y-98.4201 F12000.0
G1 X165.0558 Y-101.9145
G1 X167.4349 Y-105.5576 F12000.0
G1 X169.5167 Y-109.3494
G1 X171.3011 Y-113.2156 F12000.0
G1 X172.8625 Y-117.2305
G1 X174.1264 Y-121.3941 F12000.0
G1 X175.0929 Y-125.6320
G1 X175.7621 Y-129.8699 F12000.0
G1 X176.1338 Y-134.1822
G1 X176.2082 Y-137.6022 F12000.0
G1 Z0.0000 F2500.0
G4 P0.02
G0 X119.1078 Y-37.0818 F15000.0
G1 Z11.9000 F2500.0
G4 P0.02
G1 X113.6059 Y-36.9331 F12000.0
G1 Z0.0000 F2500.0
G4 P0.02
G0 X119.1078 Y-37.0818 F15000.0
G1 Z11.9000 F2500.0
G4 P0.02
G1 X124.5353 Y-37.5279 F12000.0
G1 X129.9628 Y-38.2714
G1 X135.3160 Y-39.3123 F12000.0
G1 X140.5948 Y-40.6506
G1 X145.8736 Y-42.2119 F12000.0
G1 X151.0037 Y-44.1450
G1 X155.9851 Y-46.3011 F12000.0
G1 X160.8922 Y-48.7546
G1 X162.5279 Y-49.5725 F12000.0
G1 Z0.0000 F2500.0
G4 P0.02
G0 X119.1078 Y-34.8513 F15000.0
G1 Z11.9000 F2500.0
G4 P0.02
G1 X113.6059 Y-34.7026 F12000.0
G1 Z0.0000 F2500.0
G4 P0.02
G0 X119.1078 Y-34.8513 F15000.0
G1 Z11.9000 F2500.0
G4 P0.02
G1 X124.6097 Y-35.2974 F12000.0
G1 X130.1115 Y-36.0409
G1 X135.5390 Y-37.0818 F12000.0
G1 X140.8922 Y-38.4201
G1 X146.2454 Y-40.0558 F12000.0
G1 X151.4498 Y-41.9145
G1 X156.5056 Y-44.0706 F12000.0
G1 X161.4870 Y-46.5242
G1 X163.4944 Y-47.6394 F12000.0
G1 Z0.0000 F2500.0
G4 P0.02
G0 X69.6654 Y-38.9405 F15000.0
G1 Z11.9000 F2500.0
G4 P0.02
G1 X69.6654 Y-29.2751 F12000.0
G1 Z0.0000 F2500.0
G4 P0.02
G0 X69.6654 Y-110.9851 F15000.0
G1 Z11.9000 F2500.0
G4 P0.02
G1 X69.6654 Y-120.6506 F12000.0
G1 Z0.0000 F2500.0
G4 P0.02
G0 X105.7249 Y-74.9257 F15000.0
G1 Z11.9000 F2500.0
G4 P0.02
G1 X115.3903 Y-74.9257 F12000.0
G1 Z0.0000 F2500.0
G4 P0.02
G0 X104.3866 Y-74.9257 F15000.0
G1 Z11.9000 F2500.0
G4 P0.02
G1 X103.0483 Y-74.9257 F12000.0
G1 Z0.0000 F2500.0
G4 P0.02
G0 X101.7844 Y-74.9257 F15000.0
G1 Z11.9000 F2500.0
G4 P0.02
G1 X92.1190 Y-74.9257 F12000.0
G1 Z0.0000 F2500.0
G4 P0.02
G0 X90.7807 Y-74.9257 F15000.0
G1 Z11.9000 F2500.0
G4 P0.02
G1 X89.4424 Y-74.9257 F12000.0
G1 Z0.0000 F2500.0
G4 P0.02
G0 X88.1041 Y-74.9257 F15000.0
G1 Z11.9000 F2500.0
G4 P0.02
G1 X78.5130 Y-74.9257 F12000.0
G1 Z0.0000 F2500.0
G4 P0.02
G0 X77.1747 Y-74.9257 F15000.0
G1 Z11.9000 F2500.0
G4 P0.02
G1 X75.8364 Y-74.9257 F12000.0
G1 Z0.0000 F2500.0
G4 P0.02
G0 X74.4981 Y-74.9257 F15000.0
G1 Z11.9000 F2500.0
G4 P0.02
G1 X64.8327 Y-74.9257 F12000.0
G1 Z0.0000 F2500.0
G4 P0.02
G0 X33.6803 Y-74.9257 F15000.0
G1 Z11.9000 F2500.0
G4 P0.02
G1 X24.0149 Y-74.9257 F12000.0
G1 Z0.0000 F2500.0
G4 P0.02
G0 X35.0186 Y-74.9257 F15000.0
G1 Z11.9000 F2500.0
G4 P0.02
G1 X36.3569 Y-74.9257 F12000.0
G1 Z0.0000 F2500.0
G4 P0.02
G0 X37.6208 Y-74.9257 F15000.0
G1 Z11.9000 F2500.0
G4 P0.02
G1 X47.2862 Y-74.9257 F12000.0
G1 Z0.0000 F2500.0
G4 P0.02
G0 X48.6245 Y-74.9257 F15000.0
G1 Z11.9000 F2500.0
G4 P0.02
G1 X49.9628 Y-74.9257 F12000.0
G1 Z0.0000 F2500.0
G4 P0.02
G0 X51.2268 Y-74.9257 F15000.0
G1 Z11.9000 F2500.0
G4 P0.02
G1 X60.8922 Y-74.9257 F12000.0
G1 Z0.0000 F2500.0
G4 P0.02
G0 X62.2305 Y-74.9257 F15000.0
G1 Z11.9000 F2500.0
G4 P0.02
G1 X63.5688 Y-74.9257 F12000.0
G1 Z0.0000 F2500.0
G4 P0.02
G0 X69.6654 Y-149.2751 F15000.0
G1 Z11.9000 F2500.0
G4 P0.02
G1 X69.6654 Y-163.3271 F12000.0
G1 Z0.0000 F2500.0
G4 P0.02
G0 X69.6654 Y-164.6654 F15000.0
G1 Z11.9000 F2500.0
G4 P0.02
G1 X69.6654 Y-166.0037 F12000.0
G1 Z0.0000 F2500.0
G4 P0.02
G0 X69.6654 Y-167.3420 F15000.0
G1 Z11.9000 F2500.0
G4 P0.02
G1 X69.6654 Y-181.3941 F12000.0
G1 Z0.0000 F2500.0
G4 P0.02
G0 X69.6654 Y-182.7323 F15000.0
G1 Z11.9000 F2500.0
G4 P0.02
G1 X69.6654 Y-184.0706 F12000.0
G1 Z0.0000 F2500.0
G4 P0.02
G0 X69.6654 Y-185.4089 F15000.0
G1 Z11.9000 F2500.0
G4 P0.02
G1 X69.6654 Y-199.4610 F12000.0
G1 Z0.0000 F2500.0
G4 P0.02
G0 X69.6654 Y-200.7993 F15000.0
G1 Z11.9000 F2500.0
G4 P0.02
G1 X69.6654 Y-202.2119 F12000.0
G1 Z0.0000 F2500.0
G4 P0.02
G0 X69.6654 Y-203.4758 F15000.0
G1 Z11.9000 F2500.0
G4 P0.02
G1 X69.6654 Y-217.6022 F12000.0
G1 Z0.0000 F2500.0
G4 P0.02
G0 X69.6654 Y-218.8662 F15000.0
G1 Z11.9000 F2500.0
G4 P0.02
G1 X69.6654 Y-220.2788 F12000.0
G1 Z0.0000 F2500.0
G4 P0.02
G0 X69.6654 Y-221.6171 F15000.0
G1 Z11.9000 F2500.0
G4 P0.02
G1 X69.6654 Y-235.6691 F12000.0
G1 Z0.0000 F2500.0
G4 P0.02
G0 X69.6654 Y-237.0074 F15000.0
G1 Z11.9000 F2500.0
G4 P0.02
G1 X69.6654 Y-238.3457 F12000.0
G1 Z0.0000 F2500.0
G4 P0.02
G0 X69.6654 Y-239.6840 F15000.0
G1 Z11.9000 F2500.0
G4 P0.02
G1 X69.6654 Y-253.7361 F12000.0
G1 Z0.0000 F2500.0
G4 P0.02
G0 X132.3420 Y-155.3717 F15000.0
G1 Z11.9000 F2500.0
G4 P0.02
G1 X180.0000 Y-155.3717 F12000.0
G1 Z0.0000 F2500.0
G4 P0.02
G0 X132.3420 Y-155.3717 F15000.0
G1 Z11.9000 F2500.0
G4 P0.02
G1 X132.3420 Y-215.8178 F12000.0
G1 Z0.0000 F2500.0
G4 P0.02
G0 X132.3420 Y-155.3717 F15000.0
G1 Z11.9000 F2500.0
G4 P0.02
G1 X135.3903 Y-152.4721 F12000.0
G1 X137.1004 Y-150.9851
G1 Z0.0000 F2500.0
G4 P0.02
G0 X132.3420 Y-213.9591 F15000.0
G1 Z11.9000 F2500.0
G4 P0.02
G1 X69.6654 Y-213.9591 F12000.0
G1 Z0.0000 F2500.0
G4 P0.02
G0 X25.7993 Y-239.3123 F15000.0
G1 Z11.9000 F2500.0
G4 P0.02
G1 X176.2082 Y-239.3123 F12000.0
G1 Z0.0000 F2500.0
G4 P0.02
G0 X52.1190 Y-224.1450 F15000.0
G1 Z11.9000 F2500.0
G4 P0.02
G1 X52.1190 Y-115.2230 F12000.0
G1 Z0.0000 F2500.0
G4 P0.02
G0 X52.1190 Y-224.1450 F15000.0
G1 Z11.9000 F2500.0
G4 P0.02
G1 X180.0000 Y-224.1450 F12000.0
G1 Z0.0000 F2500.0
G4 P0.02
G0 X135.9851 Y-244.3680 F15000.0
G1 Z11.9000 F2500.0
G4 P0.02
G1 X135.9851 Y-137.6022 F12000.0
G1 Z0.0000 F2500.0
G4 P0.02
G0 X135.8364 Y-213.9591 F15000.0
G1 Z11.9000 F2500.0
G4 P0.02
G1 X132.3420 Y-213.9591 F12000.0
G1 X132.8625 Y-216.6357
G1 Z0.0000 F2500.0
G4 P0.02
G0 X137.6208 Y-213.9591 F15000.0
G1 Z11.9000 F2500.0
G4 P0.02
G1 X141.1152 Y-213.9591 F12000.0
G1 Z0.0000 F2500.0
G4 P0.02
G0 X142.8253 Y-213.9591 F15000.0
G1 Z11.9000 F2500.0
G4 P0.02
G1 X146.3941 Y-213.9591 F12000.0
G1 Z0.0000 F2500.0
G4 P0.02
G0 X148.1041 Y-213.9591 F15000.0
G1 Z11.9000 F2500.0
G4 P0.02
G1 X151.6729 Y-213.9591 F12000.0
G1 Z0.0000 F2500.0
G4 P0.02
G0 X153.3829 Y-213.9591 F15000.0
G1 Z11.9000 F2500.0
G4 P0.02
G1 X156.8773 Y-213.9591 F12000.0
G1 Z0.0000 F2500.0
G4 P0.02
G0 X158.6617 Y-213.9591 F15000.0
G1 Z11.9000 F2500.0
G4 P0.02
G1 X162.1561 Y-213.9591 F12000.0
G1 Z0.0000 F2500.0
G4 P0.02
G0 X163.9405 Y-213.9591 F15000.0
G1 Z11.9000 F2500.0
G4 P0.02
G1 X167.4349 Y-213.9591 F12000.0
G1 Z0.0000 F2500.0
G4 P0.02
G0 X169.2193 Y-213.9591 F15000.0
G1 Z11.9000 F2500.0
G4 P0.02
G1 X172.7138 Y-213.9591 F12000.0
G1 Z0.0000 F2500.0
G4 P0.02
G0 X174.4981 Y-213.9591 F15000.0
G1 Z11.9000 F2500.0
G4 P0.02
G1 X177.9926 Y-213.9591 F12000.0
G1 Z0.0000 F2500.0
G4 P0.02
G0 X179.7770 Y-213.9591 F15000.0
G1 Z11.9000 F2500.0
G4 P0.02
G1 X180.0000 Y-213.9591 F12000.0
G1 Z0.0000 F2500.0
G4 P0.02
G0 X132.8625 Y-216.6357 F15000.0
G1 Z11.9000 F2500.0
G4 P0.02
G1 X133.6059 Y-219.1636 F12000.0
G1 X134.5725 Y-221.5428
G1 X135.8364 Y-223.8476
G1 X137.3234 Y-226.0037
G1 X139.1078 Y-228.0112 F12000.0
G1 X141.1152 Y-229.8699
G1 X143.4201 Y-231.5799
G1 X146.0223 Y-233.1413
G1 X148.8476 Y-234.5539 F12000.0
G1 X152.0446 Y-235.8178
G1 X155.6134 Y-236.8587
G1 X159.4796 Y-237.8253 F12000.0
G1 X163.7175 Y-238.4944
G1 X168.4015 Y-239.0149 F12000.0
G1 X173.4572 Y-239.3123
G1 X180.0000 Y-239.2537 F12000.0
G1 Z0.0000 F2500.0
G4 P0.02
G0 X87.2862 Y-115.2230 F15000.0
G1 Z11.9000 F2500.0
G4 P0.02
G1 X87.2862 Y-34.7026 F12000.0
G1 Z0.0000 F2500.0
G4 P0.02
G0 X87.2862 Y-115.2230 F15000.0
G1 Z11.9000 F2500.0
G4 P0.02
G1 X87.2862 Y-244.3680 F12000.0
G1 X180.0000 Y-244.3680 F12000.0
G1 Z0.0000 F2500.0
G4 P0.02
G0 X138.2156 Y-251.7286 F15000.0
G1 Z11.9000 F2500.0
G4 P0.02
G1 X138.2156 Y-137.6022 F12000.0
G1 Z0.0000 F2500.0
G4 P0.02
G0 X132.3420 Y-213.9591 F15000.0
G1 Z11.9000 F2500.0
G4 P0.02
G1 X132.4164 Y-219.9814 F12000.0
G1 X132.7881 Y-225.9294 F12000.0
G1 X133.5316 Y-231.8030 F12000.0
G1 X134.4981 Y-237.6022 F12000.0
G1 X135.7621 Y-243.4015 F12000.0
G1 X137.3234 Y-249.1264 F12000.0
G1 X138.2156 Y-252.0260
G1 X180.0000 Y-252.0260 F12000.0
G1 Z0.0000 F2500.0
G4 P0.02
G0 X30.5576 Y-150.9851 F15000.0
G1 Z11.9000 F2500.0
G4 P0.02
G1 X30.5576 Y-74.9257 F12000.0
G1 Z0.0000 F2500.0
G4 P0.02
G0 X75.4647 Y-113.6617 F15000.0
G1 Z11.9000 F2500.0
G4 P0.02
G1 X78.5130 Y-113.0669 F12000.0
G1 X78.5130 Y-109.6468
G1 Z0.0000 F2500.0
G4 P0.02
G0 X73.7546 Y-113.8104 F15000.0
G1 Z11.9000 F2500.0
G4 P0.02
G1 X71.7472 Y-114.0335 F12000.0
G1 X70.7063 Y-114.0335
G1 Z0.0000 F2500.0
G4 P0.02
G0 X68.9219 Y-114.0335 F15000.0
G1 Z11.9000 F2500.0
G4 P0.02
G1 X65.8736 Y-113.8848 F12000.0
G1 Z0.0000 F2500.0
G4 P0.02
G0 X64.1636 Y-113.6617 F15000.0
G1 Z11.9000 F2500.0
G4 P0.02
G1 X61.1896 Y-113.1413 F12000.0
G1 Z0.0000 F2500.0
G4 P0.02
G0 X59.4796 Y-112.6952 F15000.0
G1 Z11.9000 F2500.0
G4 P0.02
G1 X58.2900 Y-112.3978 F12000.0
G1 X56.5799 Y-111.7286
G1 Z0.0000 F2500.0
G4 P0.02
G0 X54.8699 Y-111.1338 F15000.0
G1 Z11.9000 F2500.0
G4 P0.02
G1 X52.1190 Y-109.9442 F12000.0
G1 X49.1450 Y-108.2342
G1 X46.3197 Y-106.3011
G1 X43.7175 Y-104.2193
G1 X41.2639 Y-101.8401 F12000.0
G1 X39.0335 Y-99.2379
G1 X37.0260 Y-96.4870
G1 X35.2416 Y-93.5130 F12000.0
G1 X33.7546 Y-90.4647
G1 X32.5651 Y-87.2677
G1 X31.5985 Y-83.9963 F12000.0
G1 X31.0037 Y-80.6506
G1 X30.6320 Y-77.2305 F12000.0
G1 X30.5576 Y-73.8848
G1 X30.8550 Y-70.4647 F12000.0
G1 X31.3755 Y-67.0446
G1 X32.1933 Y-63.7732 F12000.0
G1 X33.3086 Y-60.5762
G1 X34.7212 Y-57.4535
G1 X36.3569 Y-54.4796 F12000.0
G1 X38.2900 Y-51.6543
G1 X40.4461 Y-48.9777
G1 X42.8253 Y-46.5242 F12000.0
G1 X45.3532 Y-44.2937
G1 X48.1041 Y-42.2862
G1 Z0.0000 F2500.0
G4 P0.02
G0 X75.4647 Y-36.2639 F15000.0
G1 Z11.9000 F2500.0
G4 P0.02
G1 X78.5130 Y-36.8587 F12000.0
G1 X78.5130 Y-40.2788
G1 Z0.0000 F2500.0
G4 P0.02
G0 X73.7546 Y-36.0409 F15000.0
G1 Z11.9000 F2500.0
G4 P0.02
G1 X71.7472 Y-35.8922 F12000.0
G1 X70.7063 Y-35.8922
G1 Z0.0000 F2500.0
G4 P0.02
G0 X68.9219 Y-35.8922 F15000.0
G1 Z11.9000 F2500.0
G4 P0.02
G1 X68.3271 Y-35.8178 F12000.0
G1 X65.8736 Y-36.0409
G1 Z0.0000 F2500.0
G4 P0.02
G0 X64.1636 Y-36.2639 F15000.0
G1 Z11.9000 F2500.0
G4 P0.02
G1 X61.1896 Y-36.7844 F12000.0
G1 Z0.0000 F2500.0
G4 P0.02
G0 X59.4796 Y-37.2305 F15000.0
G1 Z11.9000 F2500.0
G4 P0.02
G1 X58.2900 Y-37.5279 F12000.0
G1 X56.5799 Y-38.1227
G1 Z0.0000 F2500.0
G4 P0.02
G0 X54.8699 Y-38.7175 F15000.0
G1 Z11.9000 F2500.0
G4 P0.02
G1 X52.1190 Y-39.9814 F12000.0
G1 X52.1190 Y-34.7026
G1 X52.4635 Y-34.4324
G1 X51.8488 Y-35.0471
G1 Z0.0000 F2500.0
G4 P0.02
G0 X78.5130 Y-42.0632 F15000.0
G1 Z11.9000 F2500.0
G4 P0.02
G1 X78.5130 Y-45.4833 F12000.0
G1 Z0.0000 F2500.0
G4 P0.02
G0 X78.5130 Y-47.1933 F15000.0
G1 Z11.9000 F2500.0
G4 P0.02
G1 X78.5130 Y-50.6877 F12000.0
G1 Z0.0000 F2500.0
G4 P0.02
G0 X78.5130 Y-52.3978 F15000.0
G1 Z11.9000 F2500.0
G4 P0.02
G1 X78.5130 Y-55.8922 F12000.0
G1 Z0.0000 F2500.0
G4 P0.02
G0 X78.5130 Y-57.6022 F15000.0
G1 Z11.9000 F2500.0
G4 P0.02
G1 X78.5130 Y-61.0967 F12000.0
G1 Z0.0000 F2500.0
G4 P0.02
G0 X78.5130 Y-62.8067 F15000.0
G1 Z11.9000 F2500.0
G4 P0.02
G1 X78.5130 Y-66.3011 F12000.0
G1 Z0.0000 F2500.0
G4 P0.02
G0 X78.5130 Y-68.0112 F15000.0
G1 Z11.9000 F2500.0
G4 P0.02
G1 X78.5130 Y-71.5056 F12000.0
G1 Z0.0000 F2500.0
G4 P0.02
G0 X78.5130 Y-73.2156 F15000.0
G1 Z11.9000 F2500.0
G4 P0.02
G1 X78.5130 Y-76.7100 F12000.0
G1 Z0.0000 F2500.0
G4 P0.02
G0 X78.5130 Y-78.4201 F15000.0
G1 Z11.9000 F2500.0
G4 P0.02
G1 X78.5130 Y-81.8401 F12000.0
G1 Z0.0000 F2500.0
G4 P0.02
G0 X78.5130 Y-83.6245 F15000.0
G1 Z11.9000 F2500.0
G4 P0.02
G1 X78.5130 Y-87.0446 F12000.0
G1 Z0.0000 F2500.0
G4 P0.02
G0 X78.5130 Y-88.8290 F15000.0
G1 Z11.9000 F2500.0
G4 P0.02
G1 X78.5130 Y-92.2491 F12000.0
G1 Z0.0000 F2500.0
G4 P0.02
G0 X78.5130 Y-94.0335 F15000.0
G1 Z11.9000 F2500.0
G4 P0.02
G1 X78.5130 Y-97.4535 F12000.0
G1 Z0.0000 F2500.0
G4 P0.02
G0 X78.5130 Y-99.2379 F15000.0
G1 Z11.9000 F2500.0
G4 P0.02
G1 X78.5130 Y-102.6580 F12000.0
G1 Z0.0000 F2500.0
G4 P0.02
G0 X78.5130 Y-104.4424 F15000.0
G1 Z11.9000 F2500.0
G4 P0.02
G1 X78.5130 Y-107.8625 F12000.0
G1 Z0.0000 F2500.0
G4 P0.02
G0 X78.5130 Y-113.0669 F15000.0
G1 Z11.9000 F2500.0
G4 P0.02
G1 X91.6729 Y-113.0669 F12000.0
G1 Z0.0000 F2500.0
G4 P0.02
G0 X113.6059 Y-109.9442 F15000.0
G1 Z11.9000 F2500.0
G4 P0.02
G1 X52.1190 Y-109.9442 F12000.0
G1 Z0.0000 F2500.0
G4 P0.02
G0 X78.5130 Y-113.0669 F15000.0
G1 Z11.9000 F2500.0
G4 P0.02
G1 X78.5130 Y-137.6022 F12000.0
G1 Z0.0000 F2500.0
G4 P0.02
G0 X113.6059 Y-109.9442 F15000.0
G1 Z11.9000 F2500.0
G4 P0.02
G1 X116.4312 Y-110.0929 F12000.0
G1 X119.3309 Y-110.5390
G1 X122.0818 Y-111.2082
G1 X124.7584 Y-112.2491
G1 X127.2862 Y-113.5874 F12000.0
G1 X129.7398 Y-115.0743
G1 X131.9703 Y-116.8587
G1 X133.9777 Y-118.8662
G1 X135.8364 Y-121.0967 F12000.0
G1 X137.3978 Y-123.4758
G1 X138.7361 Y-126.0781
G1 X139.7770 Y-128.6803
G1 X140.5948 Y-131.4312 F12000.0
G1 X141.0409 Y-134.2565
G1 X141.2639 Y-137.6022
G1 Z0.0000 F2500.0
G4 P0.02
G0 X113.6059 Y-39.9814 F15000.0
G1 Z11.9000 F2500.0
G4 P0.02
G1 X52.1190 Y-39.9814 F12000.0
G1 Z0.0000 F2500.0
G4 P0.02
G0 X113.6059 Y-39.9814 F15000.0
G1 Z11.9000 F2500.0
G4 P0.02
G1 X118.9591 Y-40.1301 F12000.0
G1 X124.3866 Y-40.5762
G1 X129.6654 Y-41.3197 F12000.0
G1 X134.9442 Y-42.3606
G1 X140.2230 Y-43.6989 F12000.0
G1 X145.3532 Y-45.2602
G1 X150.4089 Y-47.1933 F12000.0
G1 X155.3160 Y-49.3494
G1 X160.1487 Y-51.8030 F12000.0
G1 X162.3048 Y-52.9926
G1 Z0.0000 F2500.0
G4 P0.02
G0 X141.2639 Y-137.6022 F15000.0
G1 Z11.9000 F2500.0
G4 P0.02
G1 X141.2639 Y-150.9851 F12000.0
G1 Z0.0000 F2500.0
G4 P0.02
G0 X138.4858 Y-150.7150 F15000.0
G1 Z11.9000 F2500.0
G4 P0.02
G1 X137.8711 Y-151.3297 F12000.0
G1 Z0.0000 F2500.0
G4 P0.02
G0 X138.2156 Y-150.9851 F15000.0
G1 Z11.9000 F2500.0
G4 P0.02
G1 X141.6357 Y-148.4572 F12000.0
G1 Z0.0000 F2500.0
G4 P0.02
G0 X140.9695 Y-151.3167 F15000.0
G1 Z11.9000 F2500.0
G4 P0.02
G1 X141.5584 Y-150.7279 F12000.0
G1 Z0.0000 F2500.0
G4 P0.02
G0 X141.2639 Y-150.9851 F15000.0
G1 Z11.9000 F2500.0
G4 P0.02
G1 X144.6097 Y-150.9851 F12000.0
G1 Z0.0000 F2500.0
G4 P0.02
G0 X146.3941 Y-150.9851 F15000.0
G1 Z11.9000 F2500.0
G4 P0.02
G1 X149.7398 Y-150.9851 F12000.0
G1 Z0.0000 F2500.0
G4 P0.02
G0 X151.5242 Y-150.9851 F15000.0
G1 Z11.9000 F2500.0
G4 P0.02
G1 X154.8699 Y-150.9851 F12000.0
G1 Z0.0000 F2500.0
G4 P0.02
G0 X156.6543 Y-150.9851 F15000.0
G1 Z11.9000 F2500.0
G4 P0.02
G1 X160.0000 Y-150.9851 F12000.0
G1 Z0.0000 F2500.0
G4 P0.02
G0 X161.7100 Y-150.9851 F15000.0
G1 Z11.9000 F2500.0
G4 P0.02
G1 X165.1301 Y-150.9851 F12000.0
G1 Z0.0000 F2500.0
G4 P0.02
G0 X166.8401 Y-150.9851 F15000.0
G1 Z11.9000 F2500.0
G4 P0.02
G1 X170.2602 Y-150.9851 F12000.0
G1 Z0.0000 F2500.0
G4 P0.02
G0 X171.9703 Y-150.9851 F15000.0
G1 Z11.9000 F2500.0
G4 P0.02
G1 X175.3160 Y-150.9851 F12000.0
G1 Z0.0000 F2500.0
G4 P0.02
G0 X177.1004 Y-150.9851 F15000.0
G1 Z11.9000 F2500.0
G4 P0.02
G1 X180.0000 Y-150.9851 F12000.0
G1 Z0.0000 F2500.0
G4 P0.02
G0 X176.2082 Y-139.5353 F15000.0
G1 Z11.9000 F2500.0
G4 P0.02
G1 X52.1190 Y-139.5353 F12000.0
G1 Z0.0000 F2500.0
G4 P0.02
G0 X172.0446 Y-139.6840 F15000.0
G1 Z11.9000 F2500.0
G4 P0.02
G1 X176.2082 Y-139.5353 F12000.0
G1 X180.0000 Y-139.6684
G1 Z0.0000 F2500.0
G4 P0.02
G0 X172.0446 Y-139.6840 F15000.0
G1 Z11.9000 F2500.0
G4 P0.02
G1 X167.8810 Y-140.1301 F12000.0
G1 X163.7918 Y-140.8736
G1 X159.7026 Y-141.8401 F12000.0
G1 X155.7621 Y-143.1784
G1 X151.8959 Y-144.8141
G1 X148.1041 Y-146.6729 F12000.0
G1 X144.5353 Y-148.7546
G1 X141.2639 Y-150.9851
G1 Z0.0000 F2500.0
G4 P0.02
G0 X141.6357 Y-148.4572 F15000.0
G1 Z11.9000 F2500.0
G4 P0.02
G1 X145.2045 Y-146.1524 F12000.0
G1 X148.9219 Y-144.1450
G1 X152.7881 Y-142.3606
G1 X156.7286 Y-140.8736 F12000.0
G1 X160.8178 Y-139.6097
G1 X164.9814 Y-138.7175 F12000.0
G1 X169.1450 Y-138.0483
G1 X173.3829 Y-137.6766 F12000.0
G1 Z0.0000 F2500.0
G4 P0.02
G0 X177.6952 Y-137.6766 F15000.0
G1 Z11.9000 F2500.0
G4 P0.02
G1 X180.0000 Y-137.7979 F12000.0
G1 Z0.0000 F2500.0
G4 P0.02
G0 X52.4635 Y-223.8005 F15000.0
G1 Z11.9000 F2500.0
G4 P0.02
G1 X51.8488 Y-224.4152 F12000.0
G1 Z0.0000 F2500.0
G4 P0.02
G0 X26.0694 Y-239.0421 F15000.0
G1 Z11.9000 F2500.0
G4 P0.02
G1 X25.4547 Y-239.6568 F12000.0
G1 Z0.0000 F2500.0
G4 P0.02
G0 X69.3953 Y-214.3036 F15000.0
G1 Z11.9000 F2500.0
G4 P0.02
G1 X70.0100 Y-213.6889 F12000.0
G1 Z0.0000 F2500.0
G4 P0.02
G0 X87.5564 Y-244.0979 F15000.0
G1 Z11.9000 F2500.0
G4 P0.02
G1 X86.9417 Y-244.7126 F12000.0
G1 Z0.0000 F2500.0
G4 P0.02
G0 X91.9430 Y-251.6815 F15000.0
G1 Z11.9000 F2500.0
G4 P0.02
G1 X91.3283 Y-252.2962 F12000.0
G1 Z0.0000 F2500.0
G4 P0.02
G0 X137.8711 Y-252.0731 F15000.0
G1 Z11.9000 F2500.0
G4 P0.02
G1 X138.4858 Y-251.4584 F12000.0
G1 Z0.0000 F2500.0
G4 P0.02
G0 X135.6907 Y-244.6996 F15000.0
G1 Z11.9000 F2500.0
G4 P0.02
G1 X136.2796 Y-244.1108 F12000.0
G1 Z0.0000 F2500.0
G4 P0.02
G0 X131.9975 Y-214.3036 F15000.0
G1 Z11.9000 F2500.0
G4 P0.02
G1 X132.6122 Y-213.6889 F12000.0
G1 Z0.0000 F2500.0
G4 P0.02
G0 X136.2796 Y-223.8134 F15000.0
G1 Z11.9000 F2500.0
G4 P0.02
G1 X135.6907 Y-224.4022 F12000.0
G1 Z0.0000 F2500.0
G4 P0.02
G0 X175.9380 Y-239.6568 F15000.0
G1 Z11.9000 F2500.0
G4 P0.02
G1 X176.5527 Y-239.0421 F12000.0
G1 Z0.0000 F2500.0
G4 P0.02
G0 X175.9380 Y-139.8055 F15000.0
G1 Z11.9000 F2500.0
G4 P0.02
G1 X176.5527 Y-139.1908 F12000.0
G1 Z0.0000 F2500.0
G4 P0.02
G0 X52.4635 Y-109.5997 F15000.0
G1 Z11.9000 F2500.0
G4 P0.02
G1 X51.8488 Y-110.2144 F12000.0
G1 Z0.0000 F2500.0
G4 P0.02
G0 X78.1685 Y-113.4114 F15000.0
G1 Z11.9000 F2500.0
G4 P0.02
G1 X78.7832 Y-112.7967 F12000.0
G1 Z0.0000 F2500.0
G4 P0.02
G0 X51.8488 Y-40.3259 F15000.0
G1 Z11.9000 F2500.0
G4 P0.02
G1 X52.4635 Y-39.7112 F12000.0
G1 Z0.0000 F2500.0
G4 P0.02
G0 X78.1685 Y-37.1289 F15000.0
G1 Z11.9000 F2500.0
G4 P0.02
G1 X78.7832 Y-36.5142 F12000.0
G1 Z0.0000 F2500.0
G4 P0.02
G0 X91.3283 Y-37.2776 F15000.0
G1 Z11.9000 F2500.0
G4 P0.02
G1 X91.9430 Y-36.6629 F12000.0
G1 Z0.0000 F2500.0
G4 P0.02
G0 X91.9430 Y-112.6852 F15000.0
G1 Z11.9000 F2500.0
G4 P0.02
G1 X91.3283 Y-113.2999 F12000.0
G1 Z0.0000 F2500.0
G4 P0.02
G0 X87.5564 Y-114.8785 F15000.0
G1 Z11.9000 F2500.0
G4 P0.02
G1 X86.9417 Y-115.4932 F12000.0
G1 Z0.0000 F2500.0
G4 P0.02
G0 X86.9417 Y-35.0471 F15000.0
G1 Z11.9000 F2500.0
G4 P0.02
G1 X87.5564 Y-34.4324 F12000.0
G1 Z0.0000 F2500.0
G4 P0.02
G0 X26.0694 Y-74.6555 F15000.0
G1 Z11.9000 F2500.0
G4 P0.02
G1 X25.4547 Y-75.2702 F12000.0
G1 Z0.0000 F2500.0
G4 P0.02
G0 X52.4635 Y-150.7150 F15000.0
G1 Z11.9000 F2500.0
G4 P0.02
G1 X51.8488 Y-151.3297 F12000.0
G1 Z0.0000 F2500.0
G4 P0.02
G0 X51.8488 Y-75.2702 F15000.0
G1 Z11.9000 F2500.0
G4 P0.02
G1 X52.4635 Y-74.6555 F12000.0
G1 Z0.0000 F2500.0
G4 P0.02
G0 X78.5130 Y-150.9851 F15000.0
G1 Z11.9000 F2500.0
G4 P0.02
G1 X141.2639 Y-150.9851 F12000.0
G1 Z0.0000 F2500.0
G4 P0.02
G0 X70.0100 Y-118.5960 F15000.0
G1 Z11.9000 F2500.0
G4 P0.02
G1 X69.3953 Y-119.2107 F12000.0
G1 Z0.0000 F2500.0
G4 P0.02
G0 X69.3953 Y-31.3668 F15000.0
G1 Z11.9000 F2500.0
G4 P0.02
G1 X70.0100 Y-30.7521 F12000.0
G1 Z0.0000 F2500.0
G4 P0.02
G0 X176.2082 Y-135.8178 F15000.0
G1 Z11.9000 F2500.0
G4 P0.02
G1 X176.2082 Y-152.1747 F12000.0
G1 Z0.0000 F2500.0
G4 P0.02
G0 X176.2082 Y-153.4387 F15000.0
G1 Z11.9000 F2500.0
G4 P0.02
G1 X176.2082 Y-154.8513 F12000.0
G1 Z0.0000 F2500.0
G4 P0.02
G0 X176.2082 Y-156.1152 F15000.0
G1 Z11.9000 F2500.0
G4 P0.02
G1 X176.2082 Y-172.4721 F12000.0
G1 Z0.0000 F2500.0
G4 P0.02
G0 X176.2082 Y-173.8104 F15000.0
G1 Z11.9000 F2500.0
G4 P0.02
G1 X176.2082 Y-175.1487 F12000.0
G1 Z0.0000 F2500.0
G4 P0.02
G0 X176.2082 Y-176.4870 F15000.0
G1 Z11.9000 F2500.0
G4 P0.02
G1 X176.2082 Y-192.7695 F12000.0
G1 Z0.0000 F2500.0
G4 P0.02
G0 X176.2082 Y-194.1078 F15000.0
G1 Z11.9000 F2500.0
G4 P0.02
G1 X176.2082 Y-195.4461 F12000.0
G1 Z0.0000 F2500.0
G4 P0.02
G0 X176.2082 Y-196.7844 F15000.0
G1 Z11.9000 F2500.0
G4 P0.02
G1 X176.2082 Y-213.1413 F12000.0
G1 Z0.0000 F2500.0
G4 P0.02
G0 X176.2082 Y-214.4052 F15000.0
G1 Z11.9000 F2500.0
G4 P0.02
G1 X176.2082 Y-215.8178 F12000.0
G1 Z0.0000 F2500.0
G4 P0.02
G0 X176.2082 Y-217.0818 F15000.0
G1 Z11.9000 F2500.0
G4 P0.02
G1 X176.2082 Y-233.4387 F12000.0
G1 Z0.0000 F2500.0
G4 P0.02
G0 X176.2082 Y-234.7770 F15000.0
G1 Z11.9000 F2500.0
G4 P0.02
G1 X176.2082 Y-236.1152 F12000.0
G1 Z0.0000 F2500.0
G4 P0.02
G0 X176.2082 Y-237.4535 F15000.0
G1 Z11.9000 F2500.0
G4 P0.02
G1 X176.2082 Y-253.7361 F12000.0
G1 Z0.0000 F2500.0
G4 P0.02
G0 X180.0000 Y-272.3234 F15000.0
G1 Z11.9000 F2500.0
G4 P0.02
G1 X0.0000 Y-272.3234 F12000.0
G1 Z0.0000 F2500.0
G4 P0.02
G0 X0.0000 Y-17.6766 F15000.0
G1 Z11.9000 F2500.0
G4 P0.02
G1 X180.0000 Y-17.6766 F12000.0
G1 Z0.0000 F2500.0
G4 P0.02
G0 X180.0000 Y-65.2602 F15000.0
G1 Z11.9000 F2500.0
G4 P0.02
G1 X172.7138 Y-65.2602 F12000.0
G1 X172.7138 Y-17.6766 F12000.0
G1 Z0.0000 F2500.0
G4 P0.02
G0 X172.7138 Y-26.4498 F15000.0
G1 Z11.9000 F2500.0
G4 P0.02
G1 X180.0000 Y-26.4498 F12000.0
G1 Z0.0000 F2500.0
G4 P0.02
G0 X80.6521 Y-246.2979 F15000.0
G1 Z11.9000 F2500.0
G4 P0.02
G1 X80.6920 Y-246.5374 F12000.0
G1 X80.6920 Y-246.2580
G1 X82.3684 Y-246.2580
G1 Z0.0000 F2500.0
G4 P0.02
G0 X80.8117 Y-246.7370 F15000.0
G1 Z11.9000 F2500.0
G4 P0.02
G1 X80.7319 Y-246.6173 F12000.0
G1 X82.3285 Y-249.4114
G1 Z0.0000 F2500.0
G4 P0.02
G0 X81.5302 Y-245.5795 F15000.0
G1 Z11.9000 F2500.0
G4 P0.02
G1 X81.4105 Y-245.2601 F12000.0
G1 Z0.0000 F2500.0
G4 P0.02
G0 X81.6100 Y-245.7790 F15000.0
G1 Z11.9000 F2500.0
G4 P0.02
G1 X81.7298 Y-246.1782 F12000.0
G1 X81.8895 Y-246.2580
G1 X82.1290 Y-247.2160
G1 Z0.0000 F2500.0
G4 P0.02
G0 X72.9258 Y-207.9147 F15000.0
G1 Z11.9000 F2500.0
G4 P0.02
G1 X71.4090 Y-207.5555 F12000.0
G1 Z0.0000 F2500.0
G4 P0.02
G0 X72.8460 Y-209.7508 F15000.0
G1 Z11.9000 F2500.0
G4 P0.02
G1 X73.2850 Y-209.7508 F12000.0
G1 X73.4846 Y-208.9924
G1 X73.0855 Y-208.0744
G1 Z0.0000 F2500.0
G4 P0.02
G0 X73.8039 Y-211.5470 F15000.0
G1 Z11.9000 F2500.0
G4 P0.02
G1 X72.8859 Y-211.6269 F12000.0
G1 Z0.0000 F2500.0
G4 P0.02
G0 X73.6842 Y-210.1899 F15000.0
G1 Z11.9000 F2500.0
G4 P0.02
G1 X74.0035 Y-210.9084 F12000.0
G1 X74.0434 Y-211.2676
G1 Z0.0000 F2500.0
G4 P0.02
G0 X57.6515 Y-45.0604 F15000.0
G1 Z11.9000 F2500.0
G4 P0.02
G1 X57.0128 Y-43.3440 F12000.0
G1 Z0.0000 F2500.0
G4 P0.02
G0 X57.2523 Y-45.6192 F15000.0
G1 Z11.9000 F2500.0
G4 P0.02
G1 X57.8910 Y-45.9386 F12000.0
G1 X57.8910 Y-45.6991
G1 Z0.0000 F2500.0
G4 P0.02
G0 X86.6394 Y-29.6361 F15000.0
G1 Z11.9000 F2500.0
G4 P0.02
G1 X86.6394 Y-29.3567 F12000.0
G1 X88.3159 Y-29.3567
G1 Z0.0000 F2500.0
G4 P0.02
G0 X86.7592 Y-29.8357 F15000.0
G1 Z11.9000 F2500.0
G4 P0.02
G1 X86.6793 Y-29.7159 F12000.0
G1 X88.2760 Y-32.5100
G1 Z0.0000 F2500.0
G4 P0.02
G0 X87.4777 Y-28.6781 F15000.0
G1 Z11.9000 F2500.0
G4 P0.02
G1 X87.3579 Y-28.3588 F12000.0
G1 Z0.0000 F2500.0
G4 P0.02
G0 X87.5575 Y-28.8777 F15000.0
G1 Z11.9000 F2500.0
G4 P0.02
G1 X87.6772 Y-29.2769 F12000.0
G1 X87.8369 Y-29.3567
G1 X88.0764 Y-30.3147
G1 Z0.0000 F2500.0
G4 P0.02
G0 X89.9104 Y-30.0444 F15000.0
G1 Z11.9000 F2500.0
G4 P0.02
G1 X89.2718 Y-28.3280 F12000.0
G1 Z0.0000 F2500.0
G4 P0.02
G0 X89.5113 Y-30.6032 F15000.0
G1 Z11.9000 F2500.0
G4 P0.02
G1 X90.1499 Y-30.9225 F12000.0
G1 X90.1499 Y-30.6830
G1 Z0.0000 F2500.0
G4 P0.02
G0 X128.4766 Y-248.0542 F15000.0
G1 Z11.9000 F2500.0
G4 P0.02
G1 X128.5165 Y-248.2937 F12000.0
G1 X128.5165 Y-248.0143
G1 X130.1929 Y-248.0143
G1 Z0.0000 F2500.0
G4 P0.02
G0 X128.6362 Y-248.4933 F15000.0
G1 Z11.9000 F2500.0
G4 P0.02
G1 X128.5564 Y-248.3736 F12000.0
G1 X130.1530 Y-251.1676
G1 Z0.0000 F2500.0
G4 P0.02
G0 X129.3547 Y-247.3358 F15000.0
G1 Z11.9000 F2500.0
G4 P0.02
G1 X129.2349 Y-247.0164 F12000.0
G1 Z0.0000 F2500.0
G4 P0.02
G0 X129.4345 Y-247.5353 F15000.0
G1 Z11.9000 F2500.0
G4 P0.02
G1 X129.5543 Y-247.9345 F12000.0
G1 X129.7139 Y-248.0143
G1 X129.9534 Y-248.9723
G1 Z0.0000 F2500.0
G4 P0.02
G0 X126.8973 Y-207.9147 F15000.0
G1 Z11.9000 F2500.0
G4 P0.02
G1 X125.3805 Y-207.5555 F12000.0
G1 Z0.0000 F2500.0
G4 P0.02
G0 X126.8175 Y-209.7508 F15000.0
G1 Z11.9000 F2500.0
G4 P0.02
G1 X127.2565 Y-209.7508 F12000.0
G1 X127.4561 Y-208.9924
G1 X127.0569 Y-208.0744
G1 Z0.0000 F2500.0
G4 P0.02
G0 X127.7754 Y-211.5470 F15000.0
G1 Z11.9000 F2500.0
G4 P0.02
G1 X126.8574 Y-211.6269 F12000.0
G1 Z0.0000 F2500.0
G4 P0.02
G0 X127.6557 Y-210.1899 F15000.0
G1 Z11.9000 F2500.0
G4 P0.02
G1 X127.9750 Y-210.9084 F12000.0
G1 X128.0149 Y-211.2676
G1 Z0.0000 F2500.0
G4 P0.02
G0 X90.1801 Y-120.9630 F15000.0
G1 Z11.9000 F2500.0
G4 P0.02
G1 X90.1801 Y-120.6836 F12000.0
G1 X91.8565 Y-120.6836
G1 Z0.0000 F2500.0
G4 P0.02
G0 X90.2998 Y-121.1626 F15000.0
G1 Z11.9000 F2500.0
G4 P0.02
G1 X90.2200 Y-121.0428 F12000.0
G1 X91.8166 Y-123.8369
G1 Z0.0000 F2500.0
G4 P0.02
G0 X91.0183 Y-120.0050 F15000.0
G1 Z11.9000 F2500.0
G4 P0.02
G1 X90.8986 Y-119.6857 F12000.0
G1 Z0.0000 F2500.0
G4 P0.02
G0 X91.0981 Y-120.2046 F15000.0
G1 Z11.9000 F2500.0
G4 P0.02
G1 X91.2179 Y-120.6037 F12000.0
G1 X91.3775 Y-120.6836
G1 X91.6170 Y-121.6415
G1 Z0.0000 F2500.0
G4 P0.02
G0 X63.0947 Y-122.7348 F15000.0
G1 Z11.9000 F2500.0
G4 P0.02
G1 X61.5780 Y-122.3756 F12000.0
G1 Z0.0000 F2500.0
G4 P0.02
G0 X63.0149 Y-124.5709 F15000.0
G1 Z11.9000 F2500.0
G4 P0.02
G1 X63.4540 Y-124.5709 F12000.0
G1 X63.6536 Y-123.8125
G1 X63.2544 Y-122.8945
G1 Z0.0000 F2500.0
G4 P0.02
G0 X63.9729 Y-126.3671 F15000.0
G1 Z11.9000 F2500.0
G4 P0.02
G1 X63.0548 Y-126.4470 F12000.0
G1 Z0.0000 F2500.0
G4 P0.02
G0 X63.8531 Y-125.0100 F15000.0
G1 Z11.9000 F2500.0
G4 P0.02
G1 X64.1725 Y-125.7285 F12000.0
G1 X64.2124 Y-126.0877
G1 Z0.0000 F2500.0
G4 P0.02
G0 X44.2578 Y-117.7726 F15000.0
G1 Z11.9000 F2500.0
G4 P0.02
G1 X43.9784 Y-117.6528 F12000.0
G1 Z0.0000 F2500.0
G4 P0.02
G0 X44.2578 Y-117.7726 F15000.0
G1 Z11.9000 F2500.0
G4 P0.02
G1 X46.7326 Y-120.3671 F12000.0
G1 X46.9322 Y-120.6864
G1 X47.0918 Y-121.2053
G1 X47.0120 Y-121.4448
G1 X46.5729 Y-121.7641
G1 X45.8145 Y-121.5646
G1 X45.2557 Y-121.1255
G1 Z0.0000 F2500.0
G4 P0.02
G0 X45.8545 Y-117.7327 F15000.0
G1 Z11.9000 F2500.0
G4 P0.02
G1 X44.2578 Y-117.7726 F12000.0
G1 Z0.0000 F2500.0
G4 P0.02
G0 X180.0000 Y-35.9824 F15000.0
G1 Z11.9000 F2500.0
G4 P0.02
G1 X178.1936 Y-35.9725 F12000.0
G1 X178.0737 Y-35.8072
G1 X178.2179 Y-35.4872
G1 X180.0000 Y-34.1686
G1 Z0.0000 F2500.0
G4 P0.02
G0 X179.2836 Y-33.0190 F15000.0
G1 Z11.9000 F2500.0
G4 P0.02
G1 X178.8737 Y-32.0458 F12000.0
G1 Z0.0000 F2500.0
G4 P0.02

G0 Z0.0000 F800.0
G4 P0.06
G0 X0.0000 Y0.0000 F15000.0
M5
G4 P0.10
$1=0
