$X
$1=255
G21
G90
G92 Z4.0000
G0 Z0.0000 F800.0
G4 P0.02
G92 Z0.0000
G0 Z0.0000 F800.0
G4 P0.02
G92 Z0.0000
G0 Z0.0000 F800.0
G0 X0.0000 Y0.0000 F15000.0
G21
G90
G17
G91.1
G0 Z0.0000
G0 X143.0594 Y-134.5919 F3500.0
G1 Z11.9000 F2500.0
G4 P0.02
G1 X143.7380 Y-135.6297 F1800.0
G1 X143.5384 Y-135.7894 F1800.0
G1 X143.3389 Y-136.1087 F1800.0
G1 X143.5384 Y-136.9070 F1800.0
G1 X143.8977 Y-137.3461 F1800.0
G1 X144.4166 Y-137.6654 F1800.0
G1 X144.8157 Y-137.7852 F1800.0
G1 X145.4145 Y-137.6255 F1800.0
G1 X145.3346 Y-137.7852 F1800.0
G1 X145.8136 Y-138.5835 F1800.0
G1 Z0.0000 F2500.0
G4 P0.02
G0 X144.8956 Y-137.2263 F3500.0
G1 Z11.9000 F2500.0
G4 P0.02
G1 X143.9376 Y-135.7095 F1800.0
G1 X143.9376 Y-135.5898 F1800.0
G1 X145.2149 Y-136.0688 F1800.0
G1 X145.4145 Y-136.2684 F1800.0
G1 X145.6540 Y-136.8272 F1800.0
G1 X145.6140 Y-137.3461 F1800.0
G1 X145.4544 Y-137.5856 F1800.0
G1 Z0.0000 F2500.0
G4 P0.02
G0 X146.2527 Y-136.2285 F3500.0
G1 Z11.9000 F2500.0
G4 P0.02
G1 X145.9334 Y-135.0310 F1800.0
G1 X146.8115 Y-134.6318 F1800.0
G1 X147.6897 Y-135.0709 F1800.0
G1 X147.6098 Y-134.9911 F1800.0
G1 X148.0888 Y-136.1087 F1800.0
G1 X148.0888 Y-136.5478 F1800.0
G1 X146.6518 Y-136.8671 F1800.0
G1 Z0.0000 F2500.0
G4 P0.02
G0 X146.3325 Y-136.4280 F3500.0
G1 Z11.9000 F2500.0
G4 P0.02
G1 X146.9313 Y-137.5457 F1800.0
G1 Z0.0000 F2500.0
G4 P0.02
G0 X147.6098 Y-138.2242 F3500.0
G1 Z11.9000 F2500.0
G4 P0.02
G1 X148.3682 Y-138.6633 F1800.0
G1 Z0.0000 F2500.0
G4 P0.02
G0 X148.8073 Y-135.6297 F3500.0
G1 Z11.9000 F2500.0
G4 P0.02
G1 X148.8073 Y-134.8713 F1800.0
G1 X148.8871 Y-134.7915 F1800.0
G1 X149.6056 Y-134.6318 F1800.0
G1 X150.2442 Y-134.8713 F1800.0
G1 Z0.0000 F2500.0
G4 P0.02
G0 X148.8871 Y-135.8293 F3500.0
G1 Z11.9000 F2500.0
G4 P0.02
G1 X149.9249 Y-138.3041 F1800.0
G1 X150.3241 Y-138.5835 F1800.0
G1 X151.4018 Y-138.6234 F1800.0
G1 X151.6014 Y-138.3440 F1800.0
G1 X151.2821 Y-137.1465 F1800.0
G1 X150.7232 Y-135.5499 F1800.0
G1 X150.4837 Y-135.1108 F1800.0
G1 X150.6833 Y-135.4701 F1800.0
G1 Z0.0000 F2500.0
G4 P0.02
G0 X46.0863 Y-143.3568 F3500.0
G1 Z11.9000 F2500.0
G4 P0.02
G1 X45.9266 Y-143.1971 F1800.0
G1 Z0.0000 F2500.0
G4 P0.02
G0 X46.6052 Y-144.2349 F3500.0
G1 Z11.9000 F2500.0
G4 P0.02
G1 X46.2060 Y-144.7139 F1800.0
G1 X46.3258 Y-145.3526 F1800.0
G1 X46.8846 Y-146.0311 F1800.0
G1 X47.2838 Y-146.2706 F1800.0
G1 X48.1619 Y-146.3105 F1800.0
G1 X48.2816 Y-146.2307 F1800.0
G1 X48.2018 Y-146.3904 F1800.0
G1 X48.7606 Y-147.3084 F1800.0
G1 Z0.0000 F2500.0
G4 P0.02
G0 X46.5653 Y-144.1551 F3500.0
G1 Z11.9000 F2500.0
G4 P0.02
G1 X46.4056 Y-143.8358 F1800.0
G1 Z0.0000 F2500.0
G4 P0.02
G0 X46.8846 Y-144.5143 F3500.0
G1 Z11.9000 F2500.0
G4 P0.02
G1 X46.8048 Y-144.1950 F1800.0
G1 X48.0821 Y-144.6740 F1800.0
G1 X48.2816 Y-144.8736 F1800.0
G1 X48.5211 Y-145.4324 F1800.0
G1 X48.5211 Y-145.8715 F1800.0
G1 X48.3216 Y-146.1908 F1800.0
G1 X48.4812 Y-145.9513 F1800.0
G1 Z0.0000 F2500.0
G4 P0.02
G0 X47.9623 Y-146.1908 F3500.0
G1 Z11.9000 F2500.0
G4 P0.02
G1 X47.0842 Y-144.8337 F1800.0
G1 Z0.0000 F2500.0
G4 P0.02
G0 X50.7925 Y-146.9382 F3500.0
G1 Z11.9000 F2500.0
G4 P0.02
G1 X49.4753 Y-143.2659 F1800.0
G1 Z0.0000 F2500.0
G4 P0.02
G0 X49.6349 Y-146.2995 F3500.0
G1 Z11.9000 F2500.0
G4 P0.02
G1 X49.7946 Y-146.4592 F1800.0
G1 Z0.0000 F2500.0
G4 P0.02
G0 X50.6727 Y-143.3059 F3500.0
G1 Z11.9000 F2500.0
G4 P0.02
G1 X50.3933 Y-143.1861 F1800.0
G1 Z0.0000 F2500.0
G4 P0.02
G0 X50.4731 Y-146.8983 F3500.0
G1 Z11.9000 F2500.0
G4 P0.02
G1 X50.8324 Y-147.0180 F1800.0
G1 X51.0320 Y-147.2575 F1800.0
G1 Z0.0000 F2500.0
G4 P0.02
G0 X53.3471 Y-146.1798 F3500.0
G1 Z11.9000 F2500.0
G4 P0.02
G1 X50.6727 Y-143.3059 F1800.0
G1 X52.1895 Y-143.2260 F1800.0
G1 Z0.0000 F2500.0
G4 P0.02
G0 X51.9500 Y-146.8983 F3500.0
G1 Z11.9000 F2500.0
G4 P0.02
G1 X52.4689 Y-147.2176 F1800.0
G1 X53.1475 Y-147.2176 F1800.0
G1 X53.3471 Y-147.0579 F1800.0
G1 X53.4668 Y-146.4991 F1800.0
G1 X53.3870 Y-146.2596 F1800.0
G1 Z0.0000 F2500.0
G4 P0.02
G0 X53.5466 Y-144.2239 F3500.0
G1 Z11.9000 F2500.0
G4 P0.02
G1 X53.4269 Y-143.6651 F1800.0
G1 X53.7063 Y-143.3059 F1800.0
G1 X54.6244 Y-143.3059 F1800.0
G1 X55.0634 Y-143.5453 F1800.0
G1 X55.2630 Y-143.7449 F1800.0
G1 X55.1832 Y-143.6651 F1800.0
G1 X55.7420 Y-144.9823 F1800.0
G1 X56.3407 Y-146.9382 F1800.0
G1 X56.0613 Y-147.2575 F1800.0
G1 X55.0235 Y-147.1777 F1800.0
G1 X54.6643 Y-146.8983 F1800.0
G1 X53.7462 Y-144.7428 F1800.0
G1 Z0.0000 F2500.0
G4 P0.02
G0 X53.6265 Y-144.4235 F3500.0
G1 Z11.9000 F2500.0
G4 P0.02
G1 X53.6664 Y-144.5432 F1800.0
G1 Z0.0000 F2500.0
G4 P0.02
G0 X155.9443 Y-217.5885 F3500.0
G1 Z11.9000 F2500.0
G4 P0.02
G1 X156.0641 Y-218.7860 F1800.0
G1 X156.5431 Y-218.8658 F1800.0
G1 Z0.0000 F2500.0
G4 P0.02
G0 X155.9443 Y-215.6726 F3500.0
G1 Z11.9000 F2500.0
G4 P0.02
G1 X155.9843 Y-214.6348 F1800.0
G1 Z0.0000 F2500.0
G4 P0.02
G0 X156.2237 Y-217.2293 F3500.0
G1 Z11.9000 F2500.0
G4 P0.02
G1 X155.9843 Y-217.5087 F1800.0
G1 Z0.0000 F2500.0
G4 P0.02
G0 X155.9843 Y-213.7966 F3500.0
G1 Z11.9000 F2500.0
G4 P0.02
G1 X156.1838 Y-213.6369 F1800.0
G1 X156.2637 Y-213.3176 F1800.0
G1 X156.2237 Y-213.6768 F1800.0
G1 X159.8161 Y-212.3995 F1800.0
G1 Z0.0000 F2500.0
G4 P0.02
G0 X156.0641 Y-215.8323 F3500.0
G1 Z11.9000 F2500.0
G4 P0.02
G1 X156.2637 Y-215.9520 F1800.0
G1 X157.3015 Y-215.5928 F1800.0
G1 X157.7405 Y-215.1138 F1800.0
G1 X157.8603 Y-214.5949 F1800.0
G1 Z0.0000 F2500.0
G4 P0.02
G0 X156.4632 Y-217.0297 F3500.0
G1 Z11.9000 F2500.0
G4 P0.02
G1 X158.8981 Y-216.0718 F1800.0
G1 X159.5367 Y-215.9520 F1800.0
G1 X159.8561 Y-216.2314 F1800.0
G1 X159.8960 Y-217.0297 F1800.0
G1 X159.8161 Y-217.2692 F1800.0
G1 X159.8561 Y-217.1096 F1800.0
G1 X159.7762 Y-217.3490 F1800.0
G1 X159.3771 Y-217.7881 F1800.0
G1 X158.6586 Y-218.1074 F1800.0
G1 Z0.0000 F2500.0
G4 P0.02
G0 X156.6229 Y-212.7588 F3500.0
G1 Z11.9000 F2500.0
G4 P0.02
G1 X156.9023 Y-212.4394 F1800.0
G1 Z0.0000 F2500.0
G4 P0.02
G0 X157.5410 Y-218.5066 F3500.0
G1 Z11.9000 F2500.0
G4 P0.02
G1 X157.4212 Y-218.5465 F1800.0
G1 Z0.0000 F2500.0
G4 P0.02
G0 X157.9002 Y-215.2335 F3500.0
G1 Z11.9000 F2500.0
G4 P0.02
G1 X158.4191 Y-215.3932 F1800.0
G1 X159.5367 Y-214.8743 F1800.0
G1 X159.6964 Y-214.6747 F1800.0
G1 X160.0556 Y-213.1579 F1800.0
G1 Z0.0000 F2500.0
G4 P0.02
G0 X158.2195 Y-218.2671 F3500.0
G1 Z11.9000 F2500.0
G4 P0.02
G1 X158.0998 Y-218.3070 F1800.0
G1 Z0.0000 F2500.0
G4 P0.02
G0 X180.0000 Y-282.3234 F15000.0
G1 Z11.9000 F2500.0
G4 P0.02
G1 X0.0000 Y-282.3234 F12000.0
G1 Z0.0000 F2500.0
G4 P0.02
G0 X0.0000 Y-27.6766 F15000.0
G1 Z11.9000 F2500.0
G4 P0.02
G1 X180.0000 Y-27.6766 F12000.0
G1 Z0.0000 F2500.0
G4 P0.02
G0 X42.0818 Y-188.8662 F15000.0
G1 Z11.9000 F2500.0
G4 P0.02
G1 X68.4015 Y-272.2862 F12000.0
G1 Z0.0000 F2500.0
G4 P0.02
G0 X49.0706 Y-158.1599 F15000.0
G1 Z11.9000 F2500.0
G4 P0.02
G1 X94.7212 Y-158.1599 F12000.0
G1 Z0.0000 F2500.0
G4 P0.02
G0 X94.7212 Y-188.8662 F15000.0
G1 Z11.9000 F2500.0
G4 P0.02
G1 X42.0818 Y-188.8662 F12000.0
G1 Z0.0000 F2500.0
G4 P0.02
G0 X68.4015 Y-272.2862 F15000.0
G1 Z11.9000 F2500.0
G4 P0.02
G1 X94.7212 Y-272.2862 F12000.0
G1 Z0.0000 F2500.0
G4 P0.02
G0 X42.0818 Y-188.8662 F15000.0
G1 Z11.9000 F2500.0
G4 P0.02
G1 X42.0818 Y-180.0929 F12000.0
G1 X42.2305 Y-176.6729 F12000.0
G1 X42.6766 Y-173.2528
G1 X43.4944 Y-169.9071 F12000.0
G1 X44.6097 Y-166.5613
G1 X46.0223 Y-163.2900
G1 X47.8067 Y-160.1673 F12000.0
G1 X49.0706 Y-158.1599
G1 X43.7175 Y-158.1599
G1 Z0.0000 F2500.0
G4 P0.02
G0 X145.7249 Y-158.1599 F15000.0
G1 Z11.9000 F2500.0
G4 P0.02
G1 X145.7249 Y-180.0929 F12000.0
G1 Z0.0000 F2500.0
G4 P0.02
G0 X94.7212 Y-206.4870 F15000.0
G1 Z11.9000 F2500.0
G4 P0.02
G1 X55.6134 Y-206.4870 F12000.0
G1 Z0.0000 F2500.0
G4 P0.02
G0 X94.7212 Y-158.1599 F15000.0
G1 Z11.9000 F2500.0
G4 P0.02
G1 X145.7249 Y-158.1599 F12000.0
G1 Z0.0000 F2500.0
G4 P0.02
G0 X43.7175 Y-158.1599 F15000.0
G1 Z11.9000 F2500.0
G4 P0.02
G1 X43.7175 Y-169.1636 F12000.0
G1 Z0.0000 F2500.0
G4 P0.02
G0 X55.6134 Y-206.4870 F15000.0
G1 Z11.9000 F2500.0
G4 P0.02
G1 X57.9182 Y-212.2862 F12000.0
G1 X63.5688 Y-226.6357 F12000.0
G1 X68.4015 Y-237.7881 F12000.0
G1 X72.4164 Y-246.4126 F12000.0
G1 X76.5799 Y-254.4424 F12000.0
G1 X76.8030 Y-254.7398
G1 X77.1004 Y-255.4089
G1 X81.2639 Y-262.1004 F12000.0
G1 X82.3048 Y-263.5130
G1 Z0.0000 F2500.0
G4 P0.02
G0 X82.6022 Y-263.8848 F3500.0
G1 Z11.9000 F2500.0
G4 P0.02
G1 X84.7584 Y-266.5613 F1800.0
G1 Z0.0000 F2500.0
G4 P0.02
G0 X85.2045 Y-267.0818 F3500.0
G1 Z11.9000 F2500.0
G4 P0.02
G1 X86.3197 Y-268.1227 F1800.0
G1 X86.4684 Y-268.3457 F1800.0
G1 X89.0706 Y-270.4275 F1800.0
G1 X89.6654 Y-270.7993 F1800.0
G1 Z0.0000 F2500.0
G4 P0.02
G0 X90.7063 Y-271.3197 F3500.0
G1 Z11.9000 F2500.0
G4 P0.02
G1 X92.5651 Y-272.0632 F1800.0
G1 X94.1264 Y-272.2862 F1800.0
G1 Z0.0000 F2500.0
G4 P0.02
G0 X94.7212 Y-180.0929 F15000.0
G1 Z11.9000 F2500.0
G4 P0.02
G1 X147.4349 Y-180.0929 F12000.0
G1 Z0.0000 F2500.0
G4 P0.02
G0 X94.7212 Y-188.8662 F15000.0
G1 Z11.9000 F2500.0
G4 P0.02
G1 X94.7212 Y-206.4870 F12000.0
G1 Z0.0000 F2500.0
G4 P0.02
G0 X147.4349 Y-188.8662 F15000.0
G1 Z11.9000 F2500.0
G4 P0.02
G1 X121.1152 Y-272.2862 F12000.0
G1 Z0.0000 F2500.0
G4 P0.02
G0 X94.7212 Y-272.2862 F15000.0
G1 Z11.9000 F2500.0
G4 P0.02
G1 X94.7212 Y-206.4870 F12000.0
G1 Z0.0000 F2500.0
G4 P0.02
G0 X94.7212 Y-188.8662 F15000.0
G1 Z11.9000 F2500.0
G4 P0.02
G1 X94.7212 Y-158.1599 F12000.0
G1 Z0.0000 F2500.0
G4 P0.02
G0 X94.7212 Y-272.2862 F15000.0
G1 Z11.9000 F2500.0
G4 P0.02
G1 X121.1152 Y-272.2862 F12000.0
G1 Z0.0000 F2500.0
G4 P0.02
G0 X147.4349 Y-188.8662 F15000.0
G1 Z11.9000 F2500.0
G4 P0.02
G1 X147.4349 Y-180.0929 F12000.0
G1 Z0.0000 F2500.0
G4 P0.02
G0 X147.2862 Y-96.5242 F3500.0
G1 Z11.9000 F2500.0
G4 P0.02
G1 X147.4349 Y-92.5836 F1800.0
G1 X147.3606 Y-90.0558 F1800.0
G1 Z0.0000 F2500.0
G4 P0.02
G0 X147.2862 Y-96.5242 F15000.0
G1 Z11.9000 F2500.0
G4 P0.02
G1 X146.8401 Y-100.4647 F12000.0
G1 X146.0967 Y-104.3309
G1 X145.0558 Y-108.1227 F12000.0
G1 X143.7175 Y-111.9145
G1 X142.1561 Y-115.4833 F12000.0
G1 X140.2974 Y-118.9777
G1 X138.2156 Y-122.3234 F12000.0
G1 X135.8364 Y-125.5204
G1 X133.2342 Y-128.4944
G1 X130.4089 Y-131.3197 F12000.0
G1 X127.4349 Y-133.8476
G1 X124.2379 Y-136.2268
G1 X120.8922 Y-138.3086 F12000.0
G1 X117.3234 Y-140.1673
G1 X113.7546 Y-141.7286
G1 X109.9628 Y-142.9926 F12000.0
G1 X106.1710 Y-143.9591
G1 X102.2305 Y-144.7026
G1 X98.2900 Y-145.1487 F12000.0
G1 X94.3494 Y-145.2230
G1 X90.4089 Y-145.0743
G1 X86.4684 Y-144.6283 F12000.0
G1 X82.6022 Y-143.8104
G1 X78.8104 Y-142.7695
G1 X75.0929 Y-141.4312 F12000.0
G1 X71.4498 Y-139.7955
G1 X67.9554 Y-137.9368
G1 X64.6097 Y-135.7807 F12000.0
G1 X61.4870 Y-133.4015
G1 X58.5130 Y-130.7993
G1 X55.7621 Y-127.9740 F12000.0
G1 X53.1599 Y-124.9257
G1 X50.8550 Y-121.7286
G1 X48.7732 Y-118.3829 F12000.0
G1 X46.9888 Y-114.8141
G1 X45.4275 Y-111.1710 F12000.0
G1 X44.1636 Y-107.4535
G1 X43.1970 Y-103.5874 F12000.0
G1 X42.5279 Y-99.7212
G1 X42.1561 Y-95.7807 F12000.0
G1 X42.0818 Y-91.8401
G1 X42.2305 Y-87.8996 F12000.0
G1 X42.7509 Y-83.9591
G1 X43.5688 Y-80.0929 F12000.0
G1 X44.6097 Y-76.2268
G1 X46.0223 Y-72.5093 F12000.0
G1 X47.6580 Y-68.9405
G1 X49.5167 Y-65.4461 F12000.0
G1 X51.6729 Y-62.1747
G1 X54.1264 Y-58.9777
G1 X56.7286 Y-56.0781 F12000.0
G1 X59.5539 Y-53.3271
G1 X62.6022 Y-50.7993
G1 X65.8736 Y-48.4944 F12000.0
G1 X69.2193 Y-46.4126
G1 X72.7881 Y-44.6283
G1 X76.4312 Y-43.1413 F12000.0
G1 X80.2230 Y-41.8773
G1 X84.0149 Y-40.9851
G1 X87.9554 Y-40.3160 F12000.0
G1 X91.8959 Y-39.9442
G1 X95.8364 Y-39.8699
G1 X99.7770 Y-40.0929 F12000.0
G1 X103.7175 Y-40.6134
G1 X107.5836 Y-41.4312
G1 X111.3755 Y-42.5465 F12000.0
G1 X115.0929 Y-43.9591
G1 X118.6617 Y-45.5948
G1 X122.1561 Y-47.5279 F12000.0
G1 X125.4275 Y-49.7584
G1 X128.5502 Y-52.1375
G1 X131.5242 Y-54.8141 F12000.0
G1 X134.2007 Y-57.7138
G1 X136.7286 Y-60.7621
G1 X139.0335 Y-63.9591 F12000.0
G1 X141.0409 Y-67.3792
G1 X142.7509 Y-70.9480 F12000.0
G1 X144.2379 Y-74.5911
G1 X145.5019 Y-78.3829 F12000.0
G1 X146.3941 Y-82.2491
G1 X147.0632 Y-86.1152 F12000.0
G1 X147.3606 Y-90.0558
G1 Z0.0000 F2500.0
G4 P0.02
G0 X97.5465 Y-66.3383 F15000.0
G1 Z11.9000 F2500.0
G4 P0.02
G1 X94.7212 Y-66.1896 F12000.0
G1 X91.5985 Y-66.4126
G1 X88.8476 Y-66.8587
G1 X86.1710 Y-67.6766
G1 Z0.0000 F2500.0
G4 P0.02
G0 X97.5465 Y-66.3383 F15000.0
G1 Z11.9000 F2500.0
G4 P0.02
G1 X100.2974 Y-66.7844 F12000.0
G1 X102.9740 Y-67.5279
G1 X105.5762 Y-68.5688
G1 X108.1041 Y-69.8327
G1 X110.4089 Y-71.3941 F12000.0
G1 X112.5651 Y-73.1784
G1 X114.4981 Y-75.1859
G1 X116.2825 Y-77.3420
G1 X117.7695 Y-79.7212 F12000.0
G1 X118.9591 Y-82.2491
G1 X119.9257 Y-84.8513
G1 X120.5948 Y-87.6022 F12000.0
G1 X120.9665 Y-90.3532
G1 X121.0409 Y-93.1784
G1 X120.8922 Y-95.9294 F12000.0
G1 X120.3717 Y-98.6803
G1 X119.5539 Y-101.3569
G1 X118.5130 Y-103.9591 F12000.0
G1 X117.1004 Y-106.4126
G1 X115.5390 Y-108.7175
G1 X113.6803 Y-110.8736
G1 X111.6729 Y-112.7323 F12000.0
G1 X109.4424 Y-114.4424
G1 X106.9888 Y-115.8550
G1 X104.4610 Y-117.0446
G1 X101.8587 Y-117.9368 F12000.0
G1 X99.1078 Y-118.5316
G1 X96.2825 Y-118.8290
G1 X93.5316 Y-118.9033
G1 X90.7063 Y-118.6059 F12000.0
G1 X88.0297 Y-118.0112
G1 X85.3532 Y-117.1933
G1 X82.7509 Y-116.0037
G1 X80.3717 Y-114.5911 F12000.0
G1 X78.0669 Y-112.9554
G1 X75.9851 Y-111.0967
G1 X74.1264 Y-109.0149
G1 X72.5651 Y-106.7100 F12000.0
G1 X71.1524 Y-104.3309
G1 X70.0372 Y-101.7286
G1 X69.2193 Y-99.0520
G1 X68.6245 Y-96.3011 F12000.0
G1 X68.4015 Y-93.5502
G1 X68.4758 Y-90.7249
G1 X68.7732 Y-87.9740 F12000.0
G1 X69.4424 Y-85.2230
G1 X70.3346 Y-82.6208
G1 X71.5242 Y-80.0186 F12000.0
G1 X73.0112 Y-77.6394
G1 X74.7212 Y-75.4089
G1 X76.6543 Y-73.4015
G1 X78.7361 Y-71.6171 F12000.0
G1 X81.0409 Y-70.0558
G1 X83.5688 Y-68.7175
G1 X86.1710 Y-67.6766
G1 Z0.0000 F2500.0
G4 P0.02
G0 X57.8439 Y-63.2156 F3500.0
G1 Z11.9000 F2500.0
G4 P0.02
G1 X55.6134 Y-66.1896 F1800.0
G1 Z0.0000 F2500.0
G4 P0.02
G0 X57.8439 Y-63.2156 F15000.0
G1 Z11.9000 F2500.0
G4 P0.02
G1 X60.2974 Y-60.3903 F12000.0
G1 X62.9740 Y-57.7138
G1 X65.7993 Y-55.3346
G1 X68.8476 Y-53.1041 F12000.0
G1 X72.0446 Y-51.2454
G1 X75.4647 Y-49.5353
G1 X78.8848 Y-48.1227 F12000.0
G1 X82.4535 Y-47.0074
G1 X86.0967 Y-46.1896
G1 X89.8141 Y-45.6691 F12000.0
G1 X93.6059 Y-45.4461
G1 X94.7212 Y-45.4461
G1 Z0.0000 F2500.0
G4 P0.02
G0 X94.7212 Y-66.1896 F15000.0
G1 Z11.9000 F2500.0
G4 P0.02
G1 X133.8290 Y-66.1896 F12000.0
G1 Z0.0000 F2500.0
G4 P0.02
G0 X98.4387 Y-45.5948 F3500.0
G1 Z11.9000 F2500.0
G4 P0.02
G1 X94.7212 Y-45.4461 F1800.0
G1 Z0.0000 F2500.0
G4 P0.02
G0 X98.4387 Y-45.5948 F15000.0
G1 Z11.9000 F2500.0
G4 P0.02
G1 X102.1561 Y-46.0409 F12000.0
G1 X105.8736 Y-46.7100
G1 X109.4424 Y-47.7509
G1 X112.9368 Y-49.0892 F12000.0
G1 X116.3569 Y-50.6506
G1 X119.6283 Y-52.5093
G1 X122.7509 Y-54.5911 F12000.0
G1 X125.6506 Y-56.9703
G1 X128.4015 Y-59.4981
G1 X130.8550 Y-62.3234 F12000.0
G1 X133.1599 Y-65.2230
G1 X133.8290 Y-66.1896
G1 Z0.0000 F2500.0
G4 P0.02
G0 X94.7212 Y-66.1896 F15000.0
G1 Z11.9000 F2500.0
G4 P0.02
G1 X55.6134 Y-66.1896 F12000.0
G1 Z0.0000 F2500.0
G4 P0.02
G0 X94.7212 Y-150.8736 F15000.0
G1 Z11.9000 F2500.0
G4 P0.02
G1 X94.7212 Y-165.9665 F12000.0
G1 Z0.0000 F2500.0
G4 P0.02
G0 X94.7212 Y-169.9814 F15000.0
G1 Z11.9000 F2500.0
G4 P0.02
G1 X94.6468 Y-185.0743 F12000.0
G1 Z0.0000 F2500.0
G4 P0.02
G0 X94.6468 Y-205.4461 F3500.0
G1 Z11.9000 F2500.0
G4 P0.02
G1 X94.6468 Y-206.7844 F1800.0
G1 Z0.0000 F2500.0
G4 P0.02
G0 X94.6468 Y-227.1561 F15000.0
G1 Z11.9000 F2500.0
G4 P0.02
G1 X94.5725 Y-242.3234 F12000.0
G1 Z0.0000 F2500.0
G4 P0.02
G0 X94.5725 Y-243.6617 F3500.0
G1 Z11.9000 F2500.0
G4 P0.02
G1 X94.5725 Y-244.9257 F1800.0
G1 Z0.0000 F2500.0
G4 P0.02
G0 X94.5725 Y-246.2639 F15000.0
G1 Z11.9000 F2500.0
G4 P0.02
G1 X94.5725 Y-261.4312 F12000.0
G1 Z0.0000 F2500.0
G4 P0.02
G0 X94.5725 Y-262.6952 F3500.0
G1 Z11.9000 F2500.0
G4 P0.02
G1 X94.5725 Y-264.0335 F1800.0
G1 Z0.0000 F2500.0
G4 P0.02
G0 X94.5725 Y-265.3717 F15000.0
G1 Z11.9000 F2500.0
G4 P0.02
G1 X94.4981 Y-280.4647 F12000.0
G1 Z0.0000 F2500.0
G4 P0.02
G0 X172.7138 Y-75.2602 F3500.0
G1 Z11.9000 F2500.0
G4 P0.02
G1 X180.0000 Y-75.2602 F1800.0
G1 Z0.0000 F2500.0
G4 P0.02
G0 X172.7138 Y-75.2602 F15000.0
G1 Z11.9000 F2500.0
G4 P0.02
G1 X172.7138 Y-27.6766 F12000.0
G1 Z0.0000 F2500.0
G4 P0.02
G0 X172.7138 Y-36.4498 F3500.0
G1 Z11.9000 F2500.0
G4 P0.02
G1 X180.0000 Y-36.4498 F1800.0
G1 Z0.0000 F2500.0
G4 P0.02
G0 X144.6097 Y-180.0929 F3500.0
G1 Z11.9000 F2500.0
G4 P0.02
G1 X147.4349 Y-182.9182 F1800.0
G1 Z0.0000 F2500.0
G4 P0.02
G0 X147.4349 Y-186.6357 F3500.0
G1 Z11.9000 F2500.0
G4 P0.02
G1 X140.8922 Y-180.0929 F1800.0
G1 Z0.0000 F2500.0
G4 P0.02
G0 X137.1747 Y-180.0929 F15000.0
G1 Z11.9000 F2500.0
G4 P0.02
G1 X147.0632 Y-190.0558 F12000.0
G1 Z0.0000 F2500.0
G4 P0.02
G0 X146.1710 Y-192.8810 F15000.0
G1 Z11.9000 F2500.0
G4 P0.02
G1 X133.4572 Y-180.0929 F12000.0
G1 Z0.0000 F2500.0
G4 P0.02
G0 X129.6654 Y-180.0929 F15000.0
G1 Z11.9000 F2500.0
G4 P0.02
G1 X145.2788 Y-195.7063 F12000.0
G1 Z0.0000 F2500.0
G4 P0.02
G0 X144.3866 Y-198.5316 F15000.0
G1 Z11.9000 F2500.0
G4 P0.02
G1 X125.9480 Y-180.0929 F12000.0
G1 Z0.0000 F2500.0
G4 P0.02
G0 X122.2305 Y-180.0929 F15000.0
G1 Z11.9000 F2500.0
G4 P0.02
G1 X143.4944 Y-201.3569 F12000.0
G1 Z0.0000 F2500.0
G4 P0.02
G0 X142.6022 Y-204.1822 F15000.0
G1 Z11.9000 F2500.0
G4 P0.02
G1 X118.5130 Y-180.0929 F12000.0
G1 Z0.0000 F2500.0
G4 P0.02
G0 X114.7955 Y-180.0929 F15000.0
G1 Z11.9000 F2500.0
G4 P0.02
G1 X141.7100 Y-207.0074 F12000.0
G1 Z0.0000 F2500.0
G4 P0.02
G0 X140.8178 Y-209.8327 F15000.0
G1 Z11.9000 F2500.0
G4 P0.02
G1 X111.0781 Y-180.0929 F12000.0
G1 Z0.0000 F2500.0
G4 P0.02
G0 X107.3606 Y-180.0929 F15000.0
G1 Z11.9000 F2500.0
G4 P0.02
G1 X139.9257 Y-212.6580 F12000.0
G1 Z0.0000 F2500.0
G4 P0.02
G0 X139.0335 Y-215.4833 F15000.0
G1 Z11.9000 F2500.0
G4 P0.02
G1 X103.6431 Y-180.0929 F12000.0
G1 Z0.0000 F2500.0
G4 P0.02
G0 X99.9257 Y-180.0929 F15000.0
G1 Z11.9000 F2500.0
G4 P0.02
G1 X138.1413 Y-218.3086 F12000.0
G1 Z0.0000 F2500.0
G4 P0.02
G0 X137.2491 Y-221.2082 F15000.0
G1 Z11.9000 F2500.0
G4 P0.02
G1 X96.1338 Y-180.0929 F12000.0
G1 Z0.0000 F2500.0
G4 P0.02
G0 X94.7212 Y-182.3978 F15000.0
G1 Z11.9000 F2500.0
G4 P0.02
G1 X136.3569 Y-224.0335 F12000.0
G1 Z0.0000 F2500.0
G4 P0.02
G0 X135.4647 Y-226.8587 F15000.0
G1 Z11.9000 F2500.0
G4 P0.02
G1 X94.7212 Y-186.1152 F12000.0
G1 Z0.0000 F2500.0
G4 P0.02
G0 X94.7212 Y-189.8327 F15000.0
G1 Z11.9000 F2500.0
G4 P0.02
G1 X134.5725 Y-229.6840 F12000.0
G1 Z0.0000 F2500.0
G4 P0.02
G0 X133.6803 Y-232.5093 F15000.0
G1 Z11.9000 F2500.0
G4 P0.02
G1 X94.7212 Y-193.5502 F12000.0
G1 Z0.0000 F2500.0
G4 P0.02
G0 X94.7212 Y-197.3420 F15000.0
G1 Z11.9000 F2500.0
G4 P0.02
G1 X132.7881 Y-235.3346 F12000.0
G1 Z0.0000 F2500.0
G4 P0.02
G0 X131.8959 Y-238.1599 F15000.0
G1 Z11.9000 F2500.0
G4 P0.02
G1 X94.7212 Y-201.0595 F12000.0
G1 Z0.0000 F2500.0
G4 P0.02
G0 X94.7212 Y-204.7770 F15000.0
G1 Z11.9000 F2500.0
G4 P0.02
G1 X131.0037 Y-240.9851 F12000.0
G1 Z0.0000 F2500.0
G4 P0.02
G0 X130.1115 Y-243.8104 F15000.0
G1 Z11.9000 F2500.0
G4 P0.02
G1 X94.7212 Y-208.4944 F12000.0
G1 Z0.0000 F2500.0
G4 P0.02
G0 X94.7212 Y-212.2119 F15000.0
G1 Z11.9000 F2500.0
G4 P0.02
G1 X129.2193 Y-246.6357 F12000.0
G1 Z0.0000 F2500.0
G4 P0.02
G0 X128.2528 Y-249.4610 F15000.0
G1 Z11.9000 F2500.0
G4 P0.02
G1 X94.7212 Y-215.9294 F12000.0
G1 Z0.0000 F2500.0
G4 P0.02
G0 X94.7212 Y-219.6468 F15000.0
G1 Z11.9000 F2500.0
G4 P0.02
G1 X127.3606 Y-252.2862 F12000.0
G1 Z0.0000 F2500.0
G4 P0.02
G0 X126.4684 Y-255.1859 F15000.0
G1 Z11.9000 F2500.0
G4 P0.02
G1 X94.7212 Y-223.3643 F12000.0
G1 Z0.0000 F2500.0
G4 P0.02
G0 X94.7212 Y-227.0818 F15000.0
G1 Z11.9000 F2500.0
G4 P0.02
G1 X125.5762 Y-258.0112 F12000.0
G1 Z0.0000 F2500.0
G4 P0.02
G0 X124.6840 Y-260.8364 F15000.0
G1 Z11.9000 F2500.0
G4 P0.02
G1 X94.7212 Y-230.8736 F12000.0
G1 Z0.0000 F2500.0
G4 P0.02
G0 X94.7212 Y-234.5911 F15000.0
G1 Z11.9000 F2500.0
G4 P0.02
G1 X123.7918 Y-263.6617 F12000.0
G1 Z0.0000 F2500.0
G4 P0.02
G0 X122.8996 Y-266.4870 F15000.0
G1 Z11.9000 F2500.0
G4 P0.02
G1 X94.7212 Y-238.3086 F12000.0
G1 Z0.0000 F2500.0
G4 P0.02
G0 X94.7212 Y-242.0260 F15000.0
G1 Z11.9000 F2500.0
G4 P0.02
G1 X122.0074 Y-269.3123 F12000.0
G1 Z0.0000 F2500.0
G4 P0.02
G0 X121.1152 Y-272.1375 F15000.0
G1 Z11.9000 F2500.0
G4 P0.02
G1 X94.7212 Y-245.7435 F12000.0
G1 Z0.0000 F2500.0
G4 P0.02
G0 X94.7212 Y-249.4610 F15000.0
G1 Z11.9000 F2500.0
G4 P0.02
G1 X117.6208 Y-272.2862 F12000.0
G1 Z0.0000 F2500.0
G4 P0.02
G0 X113.8290 Y-272.2862 F15000.0
G1 Z11.9000 F2500.0
G4 P0.02
G1 X94.7212 Y-253.1784 F12000.0
G1 Z0.0000 F2500.0
G4 P0.02
G0 X94.7212 Y-256.8959 F15000.0
G1 Z11.9000 F2500.0
G4 P0.02
G1 X110.1115 Y-272.2862 F12000.0
G1 Z0.0000 F2500.0
G4 P0.02
G0 X106.3941 Y-272.2862 F15000.0
G1 Z11.9000 F2500.0
G4 P0.02
G1 X94.7212 Y-260.6134 F12000.0
G1 Z0.0000 F2500.0
G4 P0.02
G0 X94.7212 Y-264.4052 F3500.0
G1 Z11.9000 F2500.0
G4 P0.02
G1 X102.6766 Y-272.2862 F1800.0
G1 Z0.0000 F2500.0
G4 P0.02
G0 X98.9591 Y-272.2862 F3500.0
G1 Z11.9000 F2500.0
G4 P0.02
G1 X94.7212 Y-268.1227 F1800.0
G1 Z0.0000 F2500.0
G4 P0.02
G0 X94.7212 Y-271.8401 F3500.0
G1 Z11.9000 F2500.0
G4 P0.02
G1 X95.2416 Y-272.2862 F1800.0
G1 Z0.0000 F2500.0
G4 P0.02
G0 X52.4907 Y-92.5836 F15000.0
G1 Z11.9000 F2500.0
G4 P0.02
G1 X40.2974 Y-92.5836 F12000.0
G1 Z0.0000 F2500.0
G4 P0.02
G0 X53.7546 Y-92.5836 F3500.0
G1 Z11.9000 F2500.0
G4 P0.02
G1 X55.0929 Y-92.5836 F1800.0
G1 Z0.0000 F2500.0
G4 P0.02
G0 X56.4312 Y-92.5836 F15000.0
G1 Z11.9000 F2500.0
G4 P0.02
G1 X68.5502 Y-92.5836 F12000.0
G1 Z0.0000 F2500.0
G4 P0.02
G0 X69.8885 Y-92.5836 F3500.0
G1 Z11.9000 F2500.0
G4 P0.02
G1 X71.2268 Y-92.5836 F1800.0
G1 Z0.0000 F2500.0
G4 P0.02
G0 X72.5651 Y-92.5836 F15000.0
G1 Z11.9000 F2500.0
G4 P0.02
G1 X84.6840 Y-92.5836 F12000.0
G1 Z0.0000 F2500.0
G4 P0.02
G0 X86.0223 Y-92.5836 F3500.0
G1 Z11.9000 F2500.0
G4 P0.02
G1 X87.3606 Y-92.5836 F1800.0
G1 Z0.0000 F2500.0
G4 P0.02
G0 X88.6245 Y-92.5836 F3500.0
G1 Z11.9000 F2500.0
G4 P0.02
G1 X94.7212 Y-92.5836 F1800.0
G1 X94.7212 Y-86.4870 F1800.0
G1 Z0.0000 F2500.0
G4 P0.02
G0 X137.0260 Y-92.5836 F15000.0
G1 Z11.9000 F2500.0
G4 P0.02
G1 X149.1450 Y-92.5836 F12000.0
G1 Z0.0000 F2500.0
G4 P0.02
G0 X135.6877 Y-92.5836 F3500.0
G1 Z11.9000 F2500.0
G4 P0.02
G1 X134.3494 Y-92.5836 F1800.0
G1 Z0.0000 F2500.0
G4 P0.02
G0 X133.0855 Y-92.5836 F15000.0
G1 Z11.9000 F2500.0
G4 P0.02
G1 X120.8922 Y-92.5836 F12000.0
G1 Z0.0000 F2500.0
G4 P0.02
G0 X119.5539 Y-92.5836 F3500.0
G1 Z11.9000 F2500.0
G4 P0.02
G1 X118.2900 Y-92.5836 F1800.0
G1 Z0.0000 F2500.0
G4 P0.02
G0 X116.9517 Y-92.5836 F15000.0
G1 Z11.9000 F2500.0
G4 P0.02
G1 X104.7584 Y-92.5836 F12000.0
G1 Z0.0000 F2500.0
G4 P0.02
G0 X103.4201 Y-92.5836 F3500.0
G1 Z11.9000 F2500.0
G4 P0.02
G1 X102.1561 Y-92.5836 F1800.0
G1 Z0.0000 F2500.0
G4 P0.02
G0 X100.8178 Y-92.5836 F3500.0
G1 Z11.9000 F2500.0
G4 P0.02
G1 X94.7212 Y-92.5836 F1800.0
G1 X94.7212 Y-98.6059 F1800.0
G1 Z0.0000 F2500.0
G4 P0.02
G0 X94.7212 Y-50.2788 F15000.0
G1 Z11.9000 F2500.0
G4 P0.02
G1 X94.7212 Y-38.0855 F12000.0
G1 Z0.0000 F2500.0
G4 P0.02
G0 X94.7212 Y-51.6171 F3500.0
G1 Z11.9000 F2500.0
G4 P0.02
G1 X94.7212 Y-52.8810 F1800.0
G1 Z0.0000 F2500.0
G4 P0.02
G0 X94.7212 Y-54.2193 F15000.0
G1 Z11.9000 F2500.0
G4 P0.02
G1 X94.7212 Y-66.4126 F12000.0
G1 Z0.0000 F2500.0
G4 P0.02
G0 X94.7212 Y-67.7509 F3500.0
G1 Z11.9000 F2500.0
G4 P0.02
G1 X94.7212 Y-69.0149 F1800.0
G1 Z0.0000 F2500.0
G4 P0.02
G0 X94.7212 Y-70.3532 F15000.0
G1 Z11.9000 F2500.0
G4 P0.02
G1 X94.7212 Y-82.5465 F12000.0
G1 Z0.0000 F2500.0
G4 P0.02
G0 X94.7212 Y-83.8104 F3500.0
G1 Z11.9000 F2500.0
G4 P0.02
G1 X94.7212 Y-85.1487 F1800.0
G1 Z0.0000 F2500.0
G4 P0.02
G0 X94.7212 Y-134.8141 F15000.0
G1 Z11.9000 F2500.0
G4 P0.02
G1 X94.7212 Y-147.0074 F12000.0
G1 Z0.0000 F2500.0
G4 P0.02
G0 X94.7212 Y-133.5502 F3500.0
G1 Z11.9000 F2500.0
G4 P0.02
G1 X94.7212 Y-132.2119 F1800.0
G1 Z0.0000 F2500.0
G4 P0.02
G0 X94.7212 Y-130.8736 F15000.0
G1 Z11.9000 F2500.0
G4 P0.02
G1 X94.7212 Y-118.6803 F12000.0
G1 Z0.0000 F2500.0
G4 P0.02
G0 X94.7212 Y-117.4164 F3500.0
G1 Z11.9000 F2500.0
G4 P0.02
G1 X94.7212 Y-116.0781 F1800.0
G1 Z0.0000 F2500.0
G4 P0.02
G0 X94.7212 Y-114.7398 F15000.0
G1 Z11.9000 F2500.0
G4 P0.02
G1 X94.7212 Y-102.6208 F12000.0
G1 Z0.0000 F2500.0
G4 P0.02
G0 X94.7212 Y-101.2825 F3500.0
G1 Z11.9000 F2500.0
G4 P0.02
G1 X94.7212 Y-99.9442 F1800.0
G1 Z0.0000 F2500.0
G4 P0.02
G0 X114.6468 Y-109.8327 F15000.0
G1 Z11.9000 F2500.0
G4 P0.02
G1 X140.3717 Y-132.2119 F12000.0
G1 X154.1264 Y-132.2119 F12000.0
G1 Z0.0000 F2500.0
G4 P0.02
G0 X63.2714 Y-134.8141 F15000.0
G1 Z11.9000 F2500.0
G4 P0.02
G1 X58.8104 Y-140.8364 F12000.0
G1 X43.2714 Y-140.8364 F12000.0
G1 Z0.0000 F2500.0
G4 P0.02
G0 X121.1152 Y-272.2862 F15000.0
G1 Z11.9000 F2500.0
G4 P0.02
G1 X164.0892 Y-272.2862 F12000.0
G1 Z0.0000 F2500.0
G4 P0.02
G0 X164.0892 Y-158.1599 F15000.0
G1 Z11.9000 F2500.0
G4 P0.02
G1 X145.7249 Y-158.1599 F12000.0
G1 Z0.0000 F2500.0
G4 P0.02
G0 X77.7695 Y-78.6059 F3500.0
G1 Z11.9000 F2500.0
G4 P0.02
G1 X74.8699 Y-75.2602 F1800.0
G1 X78.5130 Y-77.7138 F1800.0
G1 X77.8439 Y-77.8625 F1800.0
G1 Z0.0000 F2500.0
G4 P0.02
G0 X76.7386 Y-76.6629 F3500.0
G1 Z11.9000 F2500.0
G4 P0.02
G1 X76.1239 Y-77.2776 F1800.0
G1 X76.5700 Y-76.9802 F1800.0
G1 X77.1847 Y-76.3655 F1800.0
G1 Z0.0000 F2500.0
G4 P0.02
G0 X111.6729 Y-106.4870 F3500.0
G1 Z11.9000 F2500.0
G4 P0.02
G1 X114.6468 Y-109.8327 F1800.0
G1 X110.9294 Y-107.3792 F1800.0
G1 X111.6729 Y-107.2305 F1800.0
G1 Z0.0000 F2500.0
G4 P0.02
G0 X112.8525 Y-108.5044 F3500.0
G1 Z11.9000 F2500.0
G4 P0.02
G1 X113.4672 Y-107.8897 F1800.0
G1 Z0.0000 F2500.0
G4 P0.02
G0 X113.0211 Y-108.1871 F3500.0
G1 Z11.9000 F2500.0
G4 P0.02
G1 X112.4064 Y-108.8018 F1800.0
G1 Z0.0000 F2500.0
G4 P0.02
G0 X114.6468 Y-109.8327 F15000.0
G1 Z11.9000 F2500.0
G4 P0.02
G1 X74.8699 Y-75.2602 F12000.0
G1 Z0.0000 F2500.0
G4 P0.02
G0 X123.1227 Y-53.4758 F3500.0
G1 Z11.9000 F2500.0
G4 P0.02
G1 X126.1710 Y-50.2788 F1800.0
G1 X124.0149 Y-54.1450 F1800.0
G1 X123.7918 Y-53.4758 F1800.0
G1 Z0.0000 F2500.0
G4 P0.02
G0 X124.8427 Y-51.7558 F3500.0
G1 Z11.9000 F2500.0
G4 P0.02
G1 X124.2280 Y-52.3705 F1800.0
G1 X124.5997 Y-52.6679 F1800.0
G1 X125.2144 Y-52.0532 F1800.0
G1 Z0.0000 F2500.0
G4 P0.02
G0 X66.3941 Y-131.6171 F3500.0
G1 Z11.9000 F2500.0
G4 P0.02
G1 X63.2714 Y-134.8141 F1800.0
G1 X65.4275 Y-130.9480 F1800.0
G1 X65.6506 Y-131.6914 F1800.0
G1 Z0.0000 F2500.0
G4 P0.02
G0 X64.6741 Y-133.3743 F3500.0
G1 Z11.9000 F2500.0
G4 P0.02
G1 X65.2888 Y-132.7596 F1800.0
G1 Z0.0000 F2500.0
G4 P0.02
G0 X64.8427 Y-132.5365 F3500.0
G1 Z11.9000 F2500.0
G4 P0.02
G1 X64.2280 Y-133.1512 F1800.0
G1 Z0.0000 F2500.0
G4 P0.02
G0 X63.2714 Y-134.8141 F15000.0
G1 Z11.9000 F2500.0
G4 P0.02
G1 X126.1710 Y-50.2788 F12000.0
G1 Z0.0000 F2500.0
G4 P0.02
G0 X162.8996 Y-267.8996 F3500.0
G1 Z11.9000 F2500.0
G4 P0.02
G1 X162.3048 Y-272.2862 F1800.0
G1 X161.7100 Y-267.8996 F1800.0
G1 X162.3048 Y-268.3457 F1800.0
G1 Z0.0000 F2500.0
G4 P0.02
G0 X162.6022 Y-270.5253 F3500.0
G1 Z11.9000 F2500.0
G4 P0.02
G1 X162.6022 Y-269.7349 F1800.0
G1 Z0.0000 F2500.0
G4 P0.02
G0 X162.0446 Y-269.4747 F3500.0
G1 Z11.9000 F2500.0
G4 P0.02
G1 X162.0446 Y-270.2651 F1800.0
G1 Z0.0000 F2500.0
G4 P0.02
G0 X161.7100 Y-162.5465 F3500.0
G1 Z11.9000 F2500.0
G4 P0.02
G1 X162.3048 Y-158.1599 F1800.0
G1 X162.8996 Y-162.5465 F1800.0
G1 X162.3048 Y-162.1004 F1800.0
G1 Z0.0000 F2500.0
G4 P0.02
G0 X162.0446 Y-160.2554 F3500.0
G1 Z11.9000 F2500.0
G4 P0.02
G1 X162.0446 Y-161.0457 F1800.0
G1 Z0.0000 F2500.0
G4 P0.02
G0 X162.6022 Y-160.7855 F3500.0
G1 Z11.9000 F2500.0
G4 P0.02
G1 X162.6022 Y-159.9952 F1800.0
G1 Z0.0000 F2500.0
G4 P0.02
G0 X162.3048 Y-158.1599 F15000.0
G1 Z11.9000 F2500.0
G4 P0.02
G1 X162.3048 Y-272.2862 F12000.0
G1 Z0.0000 F2500.0
G4 P0.02
G0 X172.7139 Y-75.1609 F15000.0
G1 Z11.9000 F2500.0
G4 P0.02
G1 X172.9353 Y-74.9559 F12000.0
G1 X172.9991 Y-74.5161
G1 X172.9621 Y-50.4606
G1 Z0.0000 F2500.0
G4 P0.02
G0 X172.9621 Y-50.1134 F3500.0
G1 Z11.9000 F2500.0
G4 P0.02
G1 X172.9621 Y-48.1790 F1800.0
G1 Z0.0000 F2500.0
G4 P0.02
G0 X173.4586 Y-43.2191 F3500.0
G1 Z11.9000 F2500.0
G4 P0.02
G1 X174.0699 Y-43.4399 F1800.0
G1 X180.0000 Y-43.4692 F1800.0
G1 Z0.0000 F2500.0
G4 P0.02
G0 X180.0000 Y-38.2441 F3500.0
G1 Z11.9000 F2500.0
G4 P0.02
G1 X173.2104 Y-43.2687 F1800.0
G1 Z0.0000 F2500.0
G4 P0.02
G0 X179.2182 Y-41.9295 F3500.0
G1 Z11.9000 F2500.0
G4 P0.02
G1 X178.8707 Y-40.7391 F1800.0
G1 Z0.0000 F2500.0
G4 P0.02
G0 X174.4020 Y-40.2432 F3500.0
G1 Z11.9000 F2500.0
G4 P0.02
G1 X174.3524 Y-38.9536 F1800.0
G1 Z0.0000 F2500.0
G4 P0.02

G0 Z0.0000 F800.0
G4 P0.02
G0 X0.0000 Y0.0000 F15000.0
M5
G4 P0.10
