$X
$1=255
G21
G90
G92 Z4.0000
G0 Z0.0000 F800.0
G4 P0.06
G92 Z0.0000
G0 Z0.0000 F800.0
G0 X0.0000 Y0.0000 F15000.0
G21
G90
G17
G91.1
G0 Z0.0000
G0 X0.0000 Y-5.0000 F15000.0
G1 Z11.9000 F8000.0
G1 X180.0000 Y-5.0000 F12000.0
G1 X180.0000 Y-285.0000
G1 X0.0000 Y-285.0000
G1 X0.0000 Y-5.0000
G1 Z0.0000 F8000.0
G0 X61.0435 Y-206.7025 F15000.0
G1 Z11.9000 F8000.0
G1 X60.8787 Y-207.6911 F12000.0
G1 X60.4668 Y-208.5149 F12000.0
G1 X59.7254 Y-209.1739 F12000.0
G1 X58.8192 Y-209.5858 F12000.0
G1 X57.8307 Y-209.5858 F12000.0
G1 X56.9245 Y-209.3387 F12000.0
G1 X56.1007 Y-208.7620 F12000.0
G1 X55.5240 Y-208.0206 F12000.0
G1 X55.2769 Y-207.0320 F12000.0
G1 X55.2769 Y-206.0435 F12000.0
G1 X55.6888 Y-205.1373 F12000.0
G1 X56.3478 Y-204.3959 F12000.0
G1 X57.1716 Y-203.9840 F12000.0
G1 X58.1602 Y-203.8192 F12000.0
G1 X59.0664 Y-203.9840 F12000.0
G1 X59.9725 Y-204.3959 F12000.0
G1 X60.6316 Y-205.1373 F12000.0
G1 X60.9611 Y-206.0435 F12000.0
G1 X61.0435 Y-206.7025 F12000.0
G1 Z0.0000 F8000.0
G0 X61.0435 Y-206.2906 F15000.0
G1 Z11.9000 F8000.0
G1 X58.6545 Y-189.1556 F12000.0
G1 X56.1831 Y-171.2792 F12000.0
G1 Z0.0000 F8000.0
G0 X56.1831 Y-171.1968 F15000.0
G1 Z11.9000 F8000.0
G1 X55.8536 Y-170.2906 F12000.0
G1 X55.1945 Y-169.4668 F12000.0
G1 Z0.0000 F8000.0
G0 X55.1945 Y-170.1259 F15000.0
G1 Z11.9000 F8000.0
G1 X56.1007 Y-171.0320 F12000.0
G1 Z0.0000 F8000.0
G0 X56.1831 Y-171.1968 F15000.0
G1 Z11.9000 F8000.0
G1 X56.1831 Y-172.1853 F12000.0
G1 X55.8536 Y-173.0915 F12000.0
G1 X55.1945 Y-173.8329 F12000.0
G1 Z0.0000 F8000.0
G0 X55.6888 Y-173.3387 F15000.0
G1 Z11.9000 F8000.0
G1 X55.1945 Y-172.9268 F12000.0
G1 Z0.0000 F8000.0
G0 X56.1007 Y-172.4325 F15000.0
G1 Z11.9000 F8000.0
G1 X55.1945 Y-171.5263 F12000.0
G1 Z0.0000 F8000.0
G0 X55.1945 Y-171.6911 F15000.0
G1 Z11.9000 F8000.0
G1 X37.6476 Y-171.6911 F12000.0
G1 Z0.0000 F8000.0
G0 X39.5423 Y-171.6911 F15000.0
G1 Z11.9000 F8000.0
G1 X38.9657 Y-176.5515 F12000.0
G1 X39.5423 Y-176.0572 F12000.0
G1 X40.2014 Y-176.5515 F12000.0
G1 X39.5423 Y-171.6911 F12000.0
G1 X39.5423 Y-206.7025 F12000.0
G1 X40.2014 Y-201.8421 F12000.0
G1 X39.5423 Y-202.3364 F12000.0
G1 X38.9657 Y-201.8421 F12000.0
G1 X39.5423 Y-206.7025 F12000.0
G1 Z0.0000 F8000.0
G0 X37.6476 Y-206.7025 F15000.0
G1 Z11.9000 F8000.0
G1 X55.1945 Y-206.7025 F12000.0
G1 Z0.0000 F8000.0
G0 X55.2769 Y-207.1144 F15000.0
G1 Z11.9000 F8000.0
G1 X55.1945 Y-189.1556 F12000.0
G1 X55.1945 Y-153.1556 F12000.0
G1 Z0.0000 F8000.0
G0 X55.1945 Y-155.1327 F15000.0
G1 Z11.9000 F8000.0
G1 X60.0549 Y-155.7918 F12000.0
G1 X59.6430 Y-155.1327 F12000.0
G1 X60.0549 Y-154.4737 F12000.0
G1 X55.1945 Y-155.1327 F12000.0
G1 X131.1487 Y-155.1327 F12000.0
G1 X126.2883 Y-154.4737 F12000.0
G1 X126.7826 Y-155.1327 F12000.0
G1 X126.2883 Y-155.7918 F12000.0
G1 X131.1487 Y-155.1327 F12000.0
G1 Z0.0000 F8000.0
G0 X129.1976 Y-154.8444 F15000.0
G1 Z11.9000 F8000.0
G1 X128.3219 Y-154.8444 F12000.0
G1 Z0.0000 F8000.0
G0 X128.0335 Y-155.4622 F15000.0
G1 Z11.9000 F8000.0
G1 X128.9092 Y-155.4622 F12000.0
G1 Z0.0000 F8000.0
G0 X131.1487 Y-153.1556 F15000.0
G1 Z11.9000 F8000.0
G1 X131.1487 Y-189.1556 F12000.0
G1 X131.1487 Y-208.9268 F12000.0
G1 X130.4897 Y-208.1030 F12000.0
G1 X130.1602 Y-207.1968 F12000.0
G1 X130.1602 Y-206.2082 F12000.0
G1 X130.4897 Y-205.3020 F12000.0
G1 X131.1487 Y-204.5606 F12000.0
G1 Z0.0000 F8000.0
G0 X130.4073 Y-205.4668 F15000.0
G1 Z11.9000 F8000.0
G1 X131.1487 Y-206.1258 F12000.0
G1 Z0.0000 F8000.0
G0 X130.1602 Y-206.5377 F15000.0
G1 Z11.9000 F8000.0
G1 X131.1487 Y-207.5263 F12000.0
G1 Z0.0000 F8000.0
G0 X130.1602 Y-207.1144 F15000.0
G1 Z11.9000 F8000.0
G1 X127.6888 Y-189.1556 F12000.0
G1 X125.2998 Y-172.1030 F12000.0
G1 Z0.0000 F8000.0
G0 X125.2998 Y-172.0206 F15000.0
G1 Z11.9000 F8000.0
G1 X125.5469 Y-172.9268 F12000.0
G1 X126.1236 Y-173.7506 F12000.0
G1 X126.9474 Y-174.3272 F12000.0
G1 X127.8535 Y-174.5744 F12000.0
G1 X128.8421 Y-174.4920 F12000.0
G1 X129.7483 Y-174.1625 F12000.0
G1 X130.4897 Y-173.5034 F12000.0
G1 X130.9840 Y-172.6796 F12000.0
G1 X131.1487 Y-171.6911 F12000.0
G1 X131.0664 Y-171.0320 F12000.0
G1 X130.6545 Y-170.1259 F12000.0
G1 X129.9954 Y-169.3844 F12000.0
G1 X129.1716 Y-168.8902 F12000.0
G1 X128.1831 Y-168.7254 F12000.0
G1 X127.1945 Y-168.8902 F12000.0
G1 X126.3707 Y-169.3844 F12000.0
G1 X125.7117 Y-170.1259 F12000.0
G1 X125.3821 Y-171.0320 F12000.0
G1 X125.2998 Y-172.0206 F12000.0
G1 Z0.0000 F8000.0
G0 X125.2998 Y-171.4439 F15000.0
G1 Z11.9000 F8000.0
G1 X128.4302 Y-174.5744 F12000.0
G1 Z0.0000 F8000.0
G0 X129.5011 Y-174.2448 F15000.0
G1 Z11.9000 F8000.0
G1 X125.6293 Y-170.3730 F12000.0
G1 Z0.0000 F8000.0
G0 X126.2059 Y-169.5492 F15000.0
G1 Z11.9000 F8000.0
G1 X130.3249 Y-173.6682 F12000.0
G1 Z0.0000 F8000.0
G0 X130.9016 Y-172.8444 F15000.0
G1 Z11.9000 F8000.0
G1 X127.0297 Y-168.9725 F12000.0
G1 Z0.0000 F8000.0
G0 X128.1831 Y-168.7254 F15000.0
G1 Z11.9000 F8000.0
G1 X131.1487 Y-171.6911 F12000.0
G1 Z0.0000 F8000.0
G0 X132.7963 Y-171.6911 F15000.0
G1 Z11.9000 F8000.0
G1 X120.4394 Y-171.6911 F12000.0
G1 Z0.0000 F8000.0
G0 X121.4279 Y-171.6911 F15000.0
G1 Z11.9000 F8000.0
G1 X121.2632 Y-172.6796 F12000.0
G1 X120.7689 Y-173.5034 F12000.0
G1 X120.0275 Y-174.1625 F12000.0
G1 X119.1213 Y-174.4920 F12000.0
G1 X118.1327 Y-174.5744 F12000.0
G1 X117.2265 Y-174.3272 F12000.0
G1 X116.4027 Y-173.7506 F12000.0
G1 X115.8261 Y-172.9268 F12000.0
G1 X115.5789 Y-172.0206 F12000.0
G1 X115.6613 Y-171.0320 F12000.0
G1 X115.9908 Y-170.1259 F12000.0
G1 X116.6499 Y-169.3844 F12000.0
G1 X117.4737 Y-168.8902 F12000.0
G1 X118.4622 Y-168.7254 F12000.0
G1 X119.4508 Y-168.8902 F12000.0
G1 X120.2746 Y-169.3844 F12000.0
G1 X120.9336 Y-170.1259 F12000.0
G1 X121.3455 Y-171.0320 F12000.0
G1 X121.4279 Y-171.6911 F12000.0
G1 Z0.0000 F8000.0
G0 X121.4279 Y-171.6087 F15000.0
G1 Z11.9000 F8000.0
G1 X118.5446 Y-168.7254 F12000.0
G1 Z0.0000 F8000.0
G0 X117.3913 Y-168.9725 F15000.0
G1 Z11.9000 F8000.0
G1 X121.1808 Y-172.7620 F12000.0
G1 Z0.0000 F8000.0
G0 X120.6041 Y-173.6682 F15000.0
G1 Z11.9000 F8000.0
G1 X116.4851 Y-169.5492 F12000.0
G1 Z0.0000 F8000.0
G0 X115.9085 Y-170.2906 F15000.0
G1 Z11.9000 F8000.0
G1 X119.8627 Y-174.2448 F12000.0
G1 Z0.0000 F8000.0
G0 X118.7918 Y-174.5744 F15000.0
G1 Z11.9000 F8000.0
G1 X115.5789 Y-171.3616 F12000.0
G1 Z0.0000 F8000.0
G0 X116.0732 Y-171.6911 F15000.0
G1 Z11.9000 F8000.0
G1 X103.7162 Y-171.6911 F12000.0
G1 Z0.0000 F8000.0
G0 X102.2334 Y-171.6911 F15000.0
G1 Z11.9000 F8000.0
G1 X100.8330 Y-171.6911 F12000.0
G1 Z0.0000 F8000.0
G0 X99.3501 Y-171.6911 F15000.0
G1 Z11.9000 F8000.0
G1 X86.9931 Y-171.6911 F12000.0
G1 Z0.0000 F8000.0
G0 X85.5927 Y-171.6911 F15000.0
G1 Z11.9000 F8000.0
G1 X84.1098 Y-171.6911 F12000.0
G1 Z0.0000 F8000.0
G0 X82.6270 Y-171.6911 F15000.0
G1 Z11.9000 F8000.0
G1 X70.3524 Y-171.6911 F12000.0
G1 Z0.0000 F8000.0
G0 X68.8696 Y-171.6911 F15000.0
G1 Z11.9000 F8000.0
G1 X67.3867 Y-171.6911 F12000.0
G1 Z0.0000 F8000.0
G0 X65.9039 Y-171.6911 F15000.0
G1 Z11.9000 F8000.0
G1 X65.7391 Y-172.6796 F12000.0
G1 X65.3272 Y-173.5034 F12000.0
G1 X64.5858 Y-174.1625 F12000.0
G1 X63.6796 Y-174.4920 F12000.0
G1 X62.6911 Y-174.5744 F12000.0
G1 X61.7849 Y-174.3272 F12000.0
G1 X60.9611 Y-173.7506 F12000.0
G1 X60.3844 Y-172.9268 F12000.0
G1 X60.1373 Y-172.0206 F12000.0
G1 X60.1373 Y-171.0320 F12000.0
G1 X60.5492 Y-170.1259 F12000.0
G1 X61.2082 Y-169.3844 F12000.0
G1 X62.0320 Y-168.8902 F12000.0
G1 X63.0206 Y-168.7254 F12000.0
G1 X63.9268 Y-168.8902 F12000.0
G1 X64.8330 Y-169.3844 F12000.0
G1 X65.4920 Y-170.1259 F12000.0
G1 X65.8215 Y-171.0320 F12000.0
G1 X65.9039 Y-171.6911 F12000.0
G1 X53.6293 Y-171.6911 F12000.0
G1 Z0.0000 F8000.0
G0 X60.1373 Y-172.1030 F15000.0
G1 Z11.9000 F8000.0
G1 X62.5263 Y-189.1556 F12000.0
G1 X64.9977 Y-207.1144 F12000.0
G1 Z0.0000 F8000.0
G0 X64.9977 Y-207.0320 F15000.0
G1 Z11.9000 F8000.0
G1 X65.2449 Y-208.0206 F12000.0
G1 X65.8215 Y-208.7620 F12000.0
G1 X66.6453 Y-209.3387 F12000.0
G1 X67.5515 Y-209.5858 F12000.0
G1 X68.5401 Y-209.5858 F12000.0
G1 X69.4462 Y-209.1739 F12000.0
G1 X70.1877 Y-208.5149 F12000.0
G1 X70.5995 Y-207.6911 F12000.0
G1 X70.7643 Y-206.7025 F12000.0
G1 X70.6819 Y-206.0435 F12000.0
G1 X70.3524 Y-205.1373 F12000.0
G1 X69.6934 Y-204.3959 F12000.0
G1 X68.8696 Y-203.9840 F12000.0
G1 X67.8810 Y-203.8192 F12000.0
G1 X66.8925 Y-203.9840 F12000.0
G1 X66.0687 Y-204.3959 F12000.0
G1 X65.4096 Y-205.1373 F12000.0
G1 X64.9977 Y-206.0435 F12000.0
G1 X64.9977 Y-207.0320 F12000.0
G1 Z0.0000 F8000.0
G0 X65.0801 Y-207.5263 F15000.0
G1 Z11.9000 F8000.0
G1 X67.0572 Y-209.5034 F12000.0
G1 Z0.0000 F8000.0
G0 X67.8810 Y-209.6682 F15000.0
G1 Z11.9000 F8000.0
G1 X67.8810 Y-221.2837 F12000.0
G1 Z0.0000 F8000.0
G0 X67.8810 Y-219.3890 F15000.0
G1 Z11.9000 F8000.0
G1 X72.7414 Y-218.7300 F12000.0
G1 X72.2471 Y-219.3890 F12000.0
G1 X72.7414 Y-219.9657 F12000.0
G1 X67.8810 Y-219.3890 F12000.0
G1 X74.7185 Y-219.3890 F12000.0
G1 Z0.0000 F8000.0
G0 X71.1198 Y-219.6773 F15000.0
G1 Z11.9000 F8000.0
G1 X70.2441 Y-219.6773 F12000.0
G1 Z0.0000 F8000.0
G0 X69.8734 Y-219.1007 F15000.0
G1 Z11.9000 F8000.0
G1 X70.7491 Y-219.1007 F12000.0
G1 Z0.0000 F8000.0
G0 X67.8810 Y-219.3890 F15000.0
G1 Z11.9000 F8000.0
G1 X58.1602 Y-219.3890 F12000.0
G1 X53.2998 Y-219.9657 F12000.0
G1 X53.7941 Y-219.3890 F12000.0
G1 X53.2998 Y-218.7300 F12000.0
G1 X58.1602 Y-219.3890 F12000.0
G1 X51.3227 Y-219.3890 F12000.0
G1 Z0.0000 F8000.0
G0 X55.0038 Y-219.6773 F15000.0
G1 Z11.9000 F8000.0
G1 X55.8795 Y-219.6773 F12000.0
G1 Z0.0000 F8000.0
G0 X56.2090 Y-219.1007 F15000.0
G1 Z11.9000 F8000.0
G1 X55.3333 Y-219.1007 F12000.0
G1 Z0.0000 F8000.0
G0 X58.1602 Y-221.2837 F15000.0
G1 Z11.9000 F8000.0
G1 X58.1602 Y-209.6682 F12000.0
G1 X22.5721 Y-209.6682 F12000.0
G1 Z0.0000 F8000.0
G0 X24.5492 Y-209.6682 F15000.0
G1 Z11.9000 F8000.0
G1 X25.1259 Y-204.7254 F12000.0
G1 X24.5492 Y-205.2197 F12000.0
G1 X23.8902 Y-204.7254 F12000.0
G1 X24.5492 Y-209.6682 F12000.0
G1 X24.5492 Y-168.7254 F12000.0
G1 X23.8902 Y-173.6682 F12000.0
G1 X24.5492 Y-173.1739 F12000.0
G1 X25.1259 Y-173.6682 F12000.0
G1 X24.5492 Y-168.7254 F12000.0
G1 Z0.0000 F8000.0
G0 X22.5721 Y-168.7254 F15000.0
G1 Z11.9000 F8000.0
G1 X63.0206 Y-168.7254 F12000.0
G1 Z0.0000 F8000.0
G0 X63.5149 Y-168.8078 F15000.0
G1 Z11.9000 F8000.0
G1 X65.9039 Y-171.1968 F12000.0
G1 Z0.0000 F8000.0
G0 X65.9039 Y-171.2792 F15000.0
G1 Z11.9000 F8000.0
G1 X68.3753 Y-189.1556 F12000.0
G1 X70.7643 Y-206.2906 F12000.0
G1 X68.2929 Y-203.8192 F12000.0
G1 Z0.0000 F8000.0
G0 X66.9748 Y-203.9016 F15000.0
G1 Z11.9000 F8000.0
G1 X70.6819 Y-207.6087 F12000.0
G1 Z0.0000 F8000.0
G0 X70.2700 Y-206.7025 F15000.0
G1 Z11.9000 F8000.0
G1 X82.6270 Y-206.7025 F12000.0
G1 Z0.0000 F8000.0
G0 X84.1098 Y-206.7025 F15000.0
G1 Z11.9000 F8000.0
G1 X85.5927 Y-206.7025 F12000.0
G1 Z0.0000 F8000.0
G0 X86.9931 Y-206.7025 F15000.0
G1 Z11.9000 F8000.0
G1 X99.3501 Y-206.7025 F12000.0
G1 Z0.0000 F8000.0
G0 X100.8330 Y-206.7025 F15000.0
G1 Z11.9000 F8000.0
G1 X102.2334 Y-206.7025 F12000.0
G1 Z0.0000 F8000.0
G0 X103.7162 Y-206.7025 F15000.0
G1 Z11.9000 F8000.0
G1 X116.0732 Y-206.7025 F12000.0
G1 Z0.0000 F8000.0
G0 X117.4737 Y-206.7025 F15000.0
G1 Z11.9000 F8000.0
G1 X118.9565 Y-206.7025 F12000.0
G1 Z0.0000 F8000.0
G0 X120.4394 Y-206.7025 F15000.0
G1 Z11.9000 F8000.0
G1 X132.7140 Y-206.7025 F12000.0
G1 Z0.0000 F8000.0
G0 X126.2883 Y-206.7025 F15000.0
G1 Z11.9000 F8000.0
G1 X126.1236 Y-207.6911 F12000.0
G1 X125.6293 Y-208.5149 F12000.0
G1 X124.8879 Y-209.1739 F12000.0
G1 X123.9817 Y-209.5858 F12000.0
G1 X122.9931 Y-209.5858 F12000.0
G1 X122.0870 Y-209.3387 F12000.0
G1 X121.2632 Y-208.7620 F12000.0
G1 X120.6865 Y-208.0206 F12000.0
G1 X120.4394 Y-207.0320 F12000.0
G1 X120.5217 Y-206.0435 F12000.0
G1 X120.8513 Y-205.1373 F12000.0
G1 X121.5103 Y-204.3959 F12000.0
G1 X122.3341 Y-203.9840 F12000.0
G1 X123.3227 Y-203.8192 F12000.0
G1 X124.3112 Y-203.9840 F12000.0
G1 X125.1350 Y-204.3959 F12000.0
G1 X125.7940 Y-205.1373 F12000.0
G1 X126.2059 Y-206.0435 F12000.0
G1 X126.2883 Y-206.7025 F12000.0
G1 Z0.0000 F8000.0
G0 X126.2883 Y-206.7849 F15000.0
G1 Z11.9000 F8000.0
G1 X123.2403 Y-203.8192 F12000.0
G1 Z0.0000 F8000.0
G0 X122.1693 Y-204.0663 F15000.0
G1 Z11.9000 F8000.0
G1 X126.0412 Y-207.9382 F12000.0
G1 Z0.0000 F8000.0
G0 X125.4645 Y-208.6796 F15000.0
G1 Z11.9000 F8000.0
G1 X121.3455 Y-204.5606 F12000.0
G1 Z0.0000 F8000.0
G0 X120.7689 Y-205.3844 F15000.0
G1 Z11.9000 F8000.0
G1 X124.6407 Y-209.3387 F12000.0
G1 Z0.0000 F8000.0
G0 X123.5698 Y-209.5858 F15000.0
G1 Z11.9000 F8000.0
G1 X120.4394 Y-206.4554 F12000.0
G1 Z0.0000 F8000.0
G0 X120.4394 Y-207.1144 F15000.0
G1 Z11.9000 F8000.0
G1 X117.9680 Y-189.1556 F12000.0
G1 X115.5789 Y-172.1030 F12000.0
G1 Z0.0000 F8000.0
G0 X115.9085 Y-173.0091 F15000.0
G1 Z11.9000 F8000.0
G1 X117.1442 Y-174.2448 F12000.0
G1 Z0.0000 F8000.0
G0 X118.4622 Y-176.2220 F15000.0
G1 Z11.9000 F8000.0
G1 X118.4622 Y-167.1602 F12000.0
G1 Z0.0000 F8000.0
G0 X118.9565 Y-171.6911 F15000.0
G1 Z11.9000 F8000.0
G1 X117.5561 Y-171.6911 F12000.0
G1 Z0.0000 F8000.0
G0 X121.3455 Y-171.2792 F15000.0
G1 Z11.9000 F8000.0
G1 X123.8169 Y-189.1556 F12000.0
G1 X126.2059 Y-206.2906 F12000.0
G1 Z0.0000 F8000.0
G0 X123.3227 Y-202.1716 F15000.0
G1 Z11.9000 F8000.0
G1 X123.3227 Y-211.2334 F12000.0
G1 Z0.0000 F8000.0
G0 X121.7574 Y-209.1739 F15000.0
G1 Z11.9000 F8000.0
G1 X120.8513 Y-208.2677 F12000.0
G1 Z0.0000 F8000.0
G0 X120.4394 Y-189.1556 F15000.0
G1 Z11.9000 F8000.0
G1 X132.7140 Y-189.1556 F12000.0
G1 Z0.0000 F8000.0
G0 X128.1831 Y-176.2220 F15000.0
G1 Z11.9000 F8000.0
G1 X128.1831 Y-167.1602 F12000.0
G1 Z0.0000 F8000.0
G0 X125.7117 Y-173.1739 F15000.0
G1 Z11.9000 F8000.0
G1 X126.7002 Y-174.1625 F12000.0
G1 Z0.0000 F8000.0
G0 X118.9565 Y-189.1556 F15000.0
G1 Z11.9000 F8000.0
G1 X117.4737 Y-189.1556 F12000.0
G1 Z0.0000 F8000.0
G0 X116.0732 Y-189.1556 F15000.0
G1 Z11.9000 F8000.0
G1 X103.7162 Y-189.1556 F12000.0
G1 Z0.0000 F8000.0
G0 X102.2334 Y-189.1556 F15000.0
G1 Z11.9000 F8000.0
G1 X100.8330 Y-189.1556 F12000.0
G1 Z0.0000 F8000.0
G0 X99.3501 Y-189.1556 F15000.0
G1 Z11.9000 F8000.0
G1 X86.9931 Y-189.1556 F12000.0
G1 Z0.0000 F8000.0
G0 X85.5927 Y-189.1556 F15000.0
G1 Z11.9000 F8000.0
G1 X84.1098 Y-189.1556 F12000.0
G1 Z0.0000 F8000.0
G0 X82.6270 Y-189.1556 F15000.0
G1 Z11.9000 F8000.0
G1 X70.2700 Y-189.1556 F12000.0
G1 Z0.0000 F8000.0
G0 X68.8696 Y-189.1556 F15000.0
G1 Z11.9000 F8000.0
G1 X67.3867 Y-189.1556 F12000.0
G1 Z0.0000 F8000.0
G0 X65.9039 Y-189.1556 F15000.0
G1 Z11.9000 F8000.0
G1 X53.6293 Y-189.1556 F12000.0
G1 Z0.0000 F8000.0
G0 X60.5492 Y-200.3593 F15000.0
G1 Z11.9000 F8000.0
G1 X65.6568 Y-204.8078 F12000.0
G1 X61.5378 Y-202.0892 F12000.0
G1 X62.3616 Y-201.9245 F12000.0
G1 X62.3616 Y-201.1007 F12000.0
G1 X65.6568 Y-204.8078 F12000.0
G1 X70.1053 Y-208.5972 F12000.0
G1 X74.2243 Y-211.3158 F12000.0
G1 X73.4005 Y-211.4805 F12000.0
G1 X73.3181 Y-212.3043 F12000.0
G1 X70.1053 Y-208.5972 F12000.0
G1 X75.2128 Y-213.0458 F12000.0
G1 Z0.0000 F8000.0
G0 X71.9890 Y-210.4618 F15000.0
G1 Z11.9000 F8000.0
G1 X72.6701 Y-209.7807 F12000.0
G1 Z0.0000 F8000.0
G0 X72.1758 Y-210.1514 F15000.0
G1 Z11.9000 F8000.0
G1 X71.4947 Y-210.8325 F12000.0
G1 Z0.0000 F8000.0
G0 X70.1053 Y-208.5972 F15000.0
G1 Z11.9000 F8000.0
G1 X83.1213 Y-219.8009 F12000.0
G1 X95.3135 Y-219.8009 F12000.0
G1 Z0.0000 F8000.0
G0 X89.7849 Y-224.3375 F15000.0
G1 Z11.9000 F8000.0
G1 X89.6876 Y-224.2402 F12000.0
G1 Z0.0000 F8000.0
G0 X88.8119 Y-224.2402 F15000.0
G1 Z11.9000 F8000.0
G1 X88.8572 Y-224.2648 F12000.0
G1 X88.7146 Y-224.4348
G1 Z0.0000 F8000.0
G0 X87.6443 Y-224.1429 F15000.0
G1 Z11.9000 F8000.0
G1 X86.6112 Y-224.3556 F12000.0
G1 X86.4895 Y-224.5164
G1 X86.3877 Y-224.9171
G1 X86.4747 Y-226.3843
G1 X86.5911 Y-226.6688
G1 X86.9153 Y-227.0464
G1 X87.6443 Y-227.0619
G1 Z0.0000 F8000.0
G0 X86.6713 Y-226.9646 F15000.0
G1 Z11.9000 F8000.0
G1 X86.4767 Y-226.6727 F12000.0
G1 Z0.0000 F8000.0
G0 X88.7146 Y-225.6997 F15000.0
G1 Z11.9000 F8000.0
G1 X88.6356 Y-224.7620 F12000.0
G1 X89.0157 Y-224.1679
G1 X89.6161 Y-224.1897
G1 X89.8634 Y-224.4929
G1 X89.7579 Y-225.6623
G1 X89.5669 Y-225.7899
G1 X88.7809 Y-225.9095
G1 X88.9200 Y-226.4467
G1 X89.5903 Y-227.0619
G1 Z0.0000 F8000.0
G0 X63.0257 Y-223.2579 F15000.0
G1 Z11.9000 F8000.0
G1 X62.3446 Y-223.1606 F12000.0
G1 X61.9554 Y-223.4525
G1 X61.8581 Y-225.9823
G1 X62.2473 Y-226.4688
G1 X62.9284 Y-226.4688
G1 X63.2203 Y-226.1769
G1 X63.2203 Y-223.4525
G1 X63.0257 Y-223.2579
G1 Z0.0000 F8000.0
G0 X60.6905 Y-223.3552 F15000.0
G1 Z11.9000 F8000.0
G1 X60.6618 Y-226.0435 F12000.0
G1 X60.6905 Y-225.9823
G1 Z0.0000 F8000.0
G0 X58.1602 Y-211.2334 F15000.0
G1 Z11.9000 F8000.0
G1 X58.1602 Y-202.1716 F12000.0
G1 Z0.0000 F8000.0
G0 X58.6545 Y-203.8192 F15000.0
G1 Z11.9000 F8000.0
G1 X61.0435 Y-206.2082 F12000.0
G1 Z0.0000 F8000.0
G0 X60.9611 Y-207.5263 F15000.0
G1 Z11.9000 F8000.0
G1 X57.3364 Y-203.9016 F12000.0
G1 Z0.0000 F8000.0
G0 X56.4302 Y-204.3959 F15000.0
G1 Z11.9000 F8000.0
G1 X60.4668 Y-208.4325 F12000.0
G1 Z0.0000 F8000.0
G0 X59.8078 Y-209.0915 F15000.0
G1 Z11.9000 F8000.0
G1 X55.7712 Y-205.0549 F12000.0
G1 Z0.0000 F8000.0
G0 X55.2769 Y-206.0435 F15000.0
G1 Z11.9000 F8000.0
G1 X58.8192 Y-209.5034 F12000.0
G1 Z0.0000 F8000.0
G0 X57.5012 Y-209.5858 F15000.0
G1 Z11.9000 F8000.0
G1 X55.2769 Y-207.3615 F12000.0
G1 Z0.0000 F8000.0
G0 X53.6293 Y-206.7025 F15000.0
G1 Z11.9000 F8000.0
G1 X65.9039 Y-206.7025 F12000.0
G1 Z0.0000 F8000.0
G0 X64.9977 Y-206.1258 F15000.0
G1 Z11.9000 F8000.0
G1 X68.4577 Y-209.5858 F12000.0
G1 Z0.0000 F8000.0
G0 X69.4462 Y-209.1739 F15000.0
G1 Z11.9000 F8000.0
G1 X65.4096 Y-205.1373 F12000.0
G1 Z0.0000 F8000.0
G0 X66.0687 Y-204.3959 F15000.0
G1 Z11.9000 F8000.0
G1 X70.1877 Y-208.5149 F12000.0
G1 Z0.0000 F8000.0
G0 X68.8696 Y-206.7025 F15000.0
G1 Z11.9000 F8000.0
G1 X67.3867 Y-206.7025 F12000.0
G1 Z0.0000 F8000.0
G0 X67.8810 Y-202.1716 F15000.0
G1 Z11.9000 F8000.0
G1 X67.8810 Y-211.2334 F12000.0
G1 Z0.0000 F8000.0
G0 X63.1743 Y-203.6655 F15000.0
G1 Z11.9000 F8000.0
G1 X63.8554 Y-202.9844 F12000.0
G1 Z0.0000 F8000.0
G0 X63.6686 Y-203.3360 F15000.0
G1 Z11.9000 F8000.0
G1 X64.3497 Y-202.6549 F12000.0
G1 Z0.0000 F8000.0
G0 X39.8719 Y-203.8756 F15000.0
G1 Z11.9000 F8000.0
G1 X39.8719 Y-204.7513 F12000.0
G1 Z0.0000 F8000.0
G0 X39.2952 Y-204.4218 F15000.0
G1 Z11.9000 F8000.0
G1 X39.2952 Y-203.5461 F12000.0
G1 Z0.0000 F8000.0
G0 X36.9235 Y-194.6343 F15000.0
G1 Z11.9000 F8000.0
G1 X36.9028 Y-194.5210 F12000.0
G1 X37.0719 Y-194.3376
G1 Z0.0000 F8000.0
G0 X33.5851 Y-194.1892 F15000.0
G1 Z11.9000 F8000.0
G1 X34.0250 Y-194.1696 F12000.0
G1 X34.1367 Y-194.0701
G1 X34.1526 Y-193.4690
G1 X33.6630 Y-193.4264
G1 X33.5109 Y-194.1150
G1 Z0.0000 F8000.0
G0 X32.4723 Y-193.3731 F15000.0
G1 Z11.9000 F8000.0
G1 X32.8565 Y-193.3797 F12000.0
G1 X33.0314 Y-193.5071
G1 X32.9551 Y-194.1817
G1 X33.0645 Y-194.5182
G1 X32.8591 Y-194.8236
G1 X32.4723 Y-194.8569
G1 Z0.0000 F8000.0
G0 X20.6521 Y-191.8343 F15000.0
G1 Z11.9000 F8000.0
G1 X20.4043 Y-191.4213 F12000.0
G1 X20.7145 Y-191.9314
G1 X20.6644 Y-192.3301
G1 X20.5292 Y-192.5811
G1 X19.9417 Y-192.6876
G1 X19.5818 Y-192.4181
G1 Z0.0000 F8000.0
G0 X20.1656 Y-191.0559 F15000.0
G1 Z11.9000 F8000.0
G1 X19.8814 Y-190.5689 F12000.0
G1 X19.8060 Y-190.1189
G1 X19.7764 Y-190.1802
G1 Z0.0000 F8000.0
G0 X18.3169 Y-190.5694 F15000.0
G1 Z11.9000 F8000.0
G1 X18.3478 Y-190.6484 F12000.0
G1 X17.3830 Y-190.7003
G1 X17.8304 Y-192.7100
G1 Z0.0000 F8000.0
G0 X24.2609 Y-206.5118 F15000.0
G1 Z11.9000 F8000.0
G1 X24.2609 Y-207.3875 F12000.0
G1 Z0.0000 F8000.0
G0 X24.8375 Y-207.6758 F15000.0
G1 Z11.9000 F8000.0
G1 X24.8375 Y-206.8001 F12000.0
G1 Z0.0000 F8000.0
G0 X24.2609 Y-171.9642 F15000.0
G1 Z11.9000 F8000.0
G1 X24.2609 Y-171.0885 F12000.0
G1 Z0.0000 F8000.0
G0 X24.8375 Y-170.8001 F15000.0
G1 Z11.9000 F8000.0
G1 X24.8375 Y-171.6758 F12000.0
G1 Z0.0000 F8000.0
G0 X39.2952 Y-174.0541 F15000.0
G1 Z11.9000 F8000.0
G1 X39.2952 Y-174.9298 F12000.0
G1 Z0.0000 F8000.0
G0 X39.8719 Y-174.6003 F15000.0
G1 Z11.9000 F8000.0
G1 X39.8719 Y-173.7246 F12000.0
G1 Z0.0000 F8000.0
G0 X60.1373 Y-172.3501 F15000.0
G1 Z11.9000 F8000.0
G1 X62.3616 Y-174.4920 F12000.0
G1 Z0.0000 F8000.0
G0 X63.6796 Y-174.4920 F15000.0
G1 Z11.9000 F8000.0
G1 X60.2197 Y-170.9497 F12000.0
G1 Z0.0000 F8000.0
G0 X60.6316 Y-170.0435 F15000.0
G1 Z11.9000 F8000.0
G1 X64.6682 Y-174.0801 F12000.0
G1 Z0.0000 F8000.0
G0 X65.3272 Y-173.4210 F15000.0
G1 Z11.9000 F8000.0
G1 X61.2906 Y-169.3021 F12000.0
G1 Z0.0000 F8000.0
G0 X62.1968 Y-168.8902 F15000.0
G1 Z11.9000 F8000.0
G1 X65.8215 Y-172.5149 F12000.0
G1 Z0.0000 F8000.0
G0 X63.0206 Y-176.2220 F15000.0
G1 Z11.9000 F8000.0
G1 X63.0206 Y-167.1602 F12000.0
G1 Z0.0000 F8000.0
G0 X58.3921 Y-155.4622 F15000.0
G1 Z11.9000 F8000.0
G1 X57.5164 Y-155.4622 F12000.0
G1 Z0.0000 F8000.0
G0 X57.1869 Y-154.8444 F15000.0
G1 Z11.9000 F8000.0
G1 X58.0626 Y-154.8444 F12000.0
G1 Z0.0000 F8000.0
G0 X90.4389 Y-162.2957 F15000.0
G1 Z11.9000 F8000.0
G1 X90.3782 Y-162.2530 F12000.0
G1 X91.3494 Y-162.2746
G1 X91.4338 Y-162.1296
G1 X91.4884 Y-161.6147
G1 X90.9690 Y-159.7288
G1 X90.9254 Y-159.7659
G1 Z0.0000 F8000.0
G0 X92.7741 Y-160.5443 F15000.0
G1 Z11.9000 F8000.0
G1 X92.9454 Y-161.0328 F12000.0
G1 X92.8036 Y-161.6278
G1 X93.0186 Y-162.0963
G1 X93.1675 Y-162.2081
G1 X93.7705 Y-162.2474
G1 X94.1158 Y-161.8811
G1 X94.1240 Y-161.3678
G1 X93.9002 Y-160.9558
G1 X94.2483 Y-160.5043
G1 X94.3119 Y-160.2105
G1 X94.2143 Y-159.5982
G1 X93.7192 Y-159.2371
G1 X93.1236 Y-159.2940
G1 X92.7171 Y-159.7371
G1 X92.6797 Y-160.2475
G1 X93.0517 Y-160.9312
G1 X93.8444 Y-160.9335
G1 Z0.0000 F8000.0
G0 X93.1633 Y-162.1984 F15000.0
G1 Z11.9000 F8000.0
G1 X93.0119 Y-162.0743 F12000.0
G1 X93.0660 Y-162.1984
G1 Z0.0000 F8000.0
G0 X78.5616 Y-110.4900 F15000.0
G1 Z11.9000 F8000.0
G1 X78.6703 Y-110.7343 F12000.0
G1 X79.7719 Y-110.7583
G1 X79.9049 Y-110.2979
G1 X79.2427 Y-107.7656
G1 Z0.0000 F8000.0
G0 X79.4373 Y-108.6413 F15000.0
G1 Z11.9000 F8000.0
G1 X79.5346 Y-108.8359 F12000.0
G1 Z0.0000 F8000.0
G0 X81.0914 Y-107.4737 F15000.0
G1 Z11.9000 F8000.0
G1 X81.0360 Y-107.0605 F12000.0
G1 X80.8968 Y-106.7926
G1 Z0.0000 F8000.0
G0 X75.2534 Y-108.1548 F15000.0
G1 Z11.9000 F8000.0
G1 X73.7940 Y-108.1548 F12000.0
G1 Z0.0000 F8000.0
G0 X73.7940 Y-109.0305 F15000.0
G1 Z11.9000 F8000.0
G1 X75.2534 Y-109.0305 F12000.0
G1 Z0.0000 F8000.0
G0 X70.4858 Y-107.4737 F15000.0
G1 Z11.9000 F8000.0
G1 X70.3857 Y-109.3341 F12000.0
G1 X70.2178 Y-109.5670
G1 X69.1911 Y-109.5289
G1 X69.0468 Y-109.4515
G1 X69.0263 Y-107.4737
G1 Z0.0000 F8000.0
G0 X65.8154 Y-107.8629 F15000.0
G1 Z11.9000 F8000.0
G1 X65.7181 Y-107.6683 F12000.0
G1 Z0.0000 F8000.0
G0 X65.1830 Y-109.8089 F15000.0
G1 Z11.9000 F8000.0
G1 X65.3056 Y-110.1980 F12000.0
G1 X65.1730 Y-110.6154
G1 X65.0189 Y-110.5193
G1 X64.4591 Y-109.7006
G1 X64.4216 Y-107.9450
G1 X64.6031 Y-107.6407
G1 X64.8223 Y-107.5443
G1 X65.5682 Y-107.6246
G1 X65.7539 Y-107.7607
G1 X65.8292 Y-107.9826
G1 X65.1843 Y-109.7295
G1 X64.5019 Y-109.6143
G1 Z0.0000 F8000.0
G0 X62.1667 Y-109.6630 F15000.0
G1 Z11.9000 F8000.0
G1 X63.1884 Y-109.3711 F12000.0
G1 X63.2370 Y-107.9116
G1 X63.1397 Y-107.7170
G1 X62.2640 Y-107.5224
G1 X61.8262 Y-107.9116
G1 X62.1667 Y-109.6630
G1 Z0.0000 F8000.0
G0 X60.6586 Y-109.6630 F15000.0
G1 Z11.9000 F8000.0
G1 X59.8793 Y-108.7199 F12000.0
G1 X59.2964 Y-108.4954
G1 Z0.0000 F8000.0
G0 X59.8802 Y-108.6900 F15000.0
G1 Z11.9000 F8000.0
G1 X60.6684 Y-107.5657 F12000.0
G1 X62.1667 Y-107.5710
G1 Z0.0000 F8000.0
G0 X59.1991 Y-109.6630 F15000.0
G1 Z11.9000 F8000.0
G1 X59.2662 Y-108.4883 F12000.0
G1 X59.1491 Y-107.5584
G1 X58.1991 Y-107.5509
G1 X58.1248 Y-107.7345
G1 X58.0714 Y-109.2467
G1 X57.9773 Y-109.4710
G1 X57.8022 Y-109.6318
G1 X56.1750 Y-109.6696
G1 X56.0073 Y-109.5741
G1 X55.9396 Y-107.5710
G1 Z0.0000 F8000.0
G0 X57.0099 Y-107.6197 F15000.0
G1 Z11.9000 F8000.0
G1 X56.9612 Y-109.7116 F12000.0
G1 Z0.0000 F8000.0
G0 X54.8206 Y-109.6630 F15000.0
G1 Z11.9000 F8000.0
G1 X53.7272 Y-107.5871 F12000.0
G1 X53.6675 Y-107.6323
G1 X53.3611 Y-109.6143
G1 Z0.0000 F8000.0
G0 X53.5557 Y-107.6197 F15000.0
G1 Z11.9000 F8000.0
G1 X53.6530 Y-107.5710 F12000.0
G1 Z0.0000 F8000.0
G0 X52.1936 Y-107.8629 F15000.0
G1 Z11.9000 F8000.0
G1 X51.9990 Y-107.5710 F12000.0
G1 Z0.0000 F8000.0
G0 X51.6098 Y-110.6359 F15000.0
G1 Z11.9000 F8000.0
G1 X51.6792 Y-110.2810 F12000.0
G1 X51.5993 Y-109.9261
G1 X51.4307 Y-109.7757
G1 X50.9818 Y-109.6434
G1 X51.5210 Y-109.7611
G1 X52.1936 Y-107.9361
G1 X51.9855 Y-107.6507
G1 X51.2516 Y-107.5420
G1 X51.0238 Y-107.6117
G1 X50.8548 Y-107.7868
G1 X50.8265 Y-109.6660
G1 X51.5125 Y-110.6846
G1 Z0.0000 F8000.0
G0 X47.7178 Y-109.6630 F15000.0
G1 Z11.9000 F8000.0
G1 X46.3566 Y-107.5891 F12000.0
G1 X46.9918 Y-108.4179
G1 X47.0325 Y-108.6545
G1 X46.9550 Y-108.8787
G1 X46.3907 Y-109.5567
G1 X46.1850 Y-109.6576
G1 X45.2029 Y-109.6187
G1 X44.0946 Y-107.5871
G1 X44.0349 Y-107.6323
G1 X43.7285 Y-109.6143
G1 Z0.0000 F8000.0
G0 X44.0204 Y-107.5710 F15000.0
G1 Z11.9000 F8000.0
G1 X42.7899 Y-107.5387 F12000.0
G1 X42.6247 Y-107.6182
G1 X42.6050 Y-109.5628
G1 X42.5055 Y-108.6291
G1 X41.4228 Y-108.6830
G1 X41.3083 Y-108.8731
G1 X41.1501 Y-109.6143
G1 Z0.0000 F8000.0
G0 X38.9122 Y-109.6630 F15000.0
G1 Z11.9000 F8000.0
G1 X39.9339 Y-109.3711 F12000.0
G1 X40.0312 Y-108.0575
G1 X39.8852 Y-107.7170
G1 X39.0095 Y-107.5224
G1 X38.5717 Y-107.9116
G1 X38.9122 Y-109.6630
G1 Z0.0000 F8000.0
G0 X37.3068 Y-109.4684 F15000.0
G1 Z11.9000 F8000.0
G1 X36.9495 Y-109.7147 F12000.0
G1 X37.3080 Y-109.4066
G1 X37.4021 Y-107.9161
G1 X37.1748 Y-107.6415
G1 X36.4379 Y-107.5430
G1 X36.2136 Y-107.6247
G1 X36.0567 Y-107.8073
G1 X36.0286 Y-108.0370
G1 X36.3616 Y-109.6220
G1 X36.7859 Y-109.7721
G1 X36.7413 Y-110.0450
G1 X36.4111 Y-110.3859
G1 X36.2995 Y-110.6904
G1 X37.3554 Y-110.7819
G1 Z0.0000 F8000.0
G0 X37.4041 Y-107.8629 F15000.0
G1 Z11.9000 F8000.0
G1 X37.2095 Y-107.5710 F12000.0
G1 Z0.0000 F8000.0
G0 X38.8149 Y-107.6197 F15000.0
G1 Z11.9000 F8000.0
G1 X38.9122 Y-107.5710 F12000.0
G1 Z0.0000 F8000.0
G0 X34.8743 Y-107.7170 F15000.0
G1 Z11.9000 F8000.0
G1 X35.1367 Y-107.5587 F12000.0
G1 X34.7540 Y-107.6384
G1 X34.6311 Y-107.5710
G1 Z0.0000 F8000.0
G0 X33.7067 Y-107.5710 F15000.0
G1 Z11.9000 F8000.0
G1 X33.6094 Y-107.6197 F12000.0
G1 Z0.0000 F8000.0
G0 X33.7067 Y-109.6630 F15000.0
G1 Z11.9000 F8000.0
G1 X34.8257 Y-109.6630 F12000.0
G1 X34.8743 Y-107.7170
G1 X34.7770 Y-107.6197
G1 X33.8040 Y-107.5224
G1 X33.4148 Y-107.8629
G1 X33.7067 Y-109.6630
G1 Z0.0000 F8000.0
G0 X30.8364 Y-107.4737 F15000.0
G1 Z11.9000 F8000.0
G1 X30.9008 Y-109.5630 F12000.0
G1 X31.0602 Y-109.6395
G1 X32.1496 Y-109.4592
G1 X32.2535 Y-109.1221
G1 X32.2439 Y-107.8711
G1 X31.9937 Y-107.6536
G1 X30.8997 Y-107.4795
G1 X30.8364 Y-106.4521
G1 Z0.0000 F8000.0
G0 X26.4579 Y-107.5710 F15000.0
G1 Z11.9000 F8000.0
G1 X25.0544 Y-107.5605 F12000.0
G1 X24.9230 Y-109.5890
G1 X24.0084 Y-108.8441
G1 X23.6054 Y-107.6963
G1 X22.2948 Y-107.5317
G1 X21.5605 Y-107.6348
G1 X21.4079 Y-107.8180
G1 X21.7246 Y-109.6269
G1 X22.3227 Y-109.7116
G1 Z0.0000 F8000.0
G0 X20.2308 Y-109.6630 F15000.0
G1 Z11.9000 F8000.0
G1 X19.1374 Y-107.5871 F12000.0
G1 X19.0777 Y-107.6323
G1 X18.7713 Y-109.6143
G1 Z0.0000 F8000.0
G0 X17.6524 Y-109.0305 F15000.0
G1 Z11.9000 F8000.0
G1 X17.6524 Y-110.6359 F12000.0
G1 Z0.0000 F8000.0
G0 X15.8523 Y-110.6846 F15000.0
G1 Z11.9000 F8000.0
G1 X16.0985 Y-109.0922 F12000.0
G1 X17.5596 Y-108.9557
G1 X17.6495 Y-108.7713
G1 X17.6887 Y-107.6710
G1 X19.0632 Y-107.5710
G1 Z0.0000 F8000.0
G0 X16.0335 Y-100.9808 F15000.0
G1 Z11.9000 F8000.0
G1 X16.0792 Y-97.6259 F12000.0
G1 X17.2126 Y-97.9547
G1 X17.2010 Y-99.7646
G1 Z0.0000 F8000.0
G0 X15.9848 Y-99.1321 F15000.0
G1 Z11.9000 F8000.0
G1 X14.3588 Y-99.2354 F12000.0
G1 X14.1896 Y-99.4057
G1 X14.0875 Y-100.8835
G1 Z0.0000 F8000.0
G0 X11.4604 Y-99.5700 F15000.0
G1 Z11.9000 F8000.0
G1 X11.4118 Y-99.4727 F12000.0
G1 Z0.0000 F8000.0
G0 X10.2928 Y-100.7376 F15000.0
G1 Z11.9000 F8000.0
G1 X10.4616 Y-100.9156 F12000.0
G1 X10.9311 Y-101.0494
G1 X11.4941 Y-100.8120
G1 X11.6366 Y-100.6244
G1 X11.6979 Y-100.0239
G1 X10.4191 Y-97.7899
G1 X10.4960 Y-97.6357
G1 X11.6550 Y-97.5753
G1 Z0.0000 F8000.0
G0 X17.5416 Y-97.6240 F15000.0
G1 Z11.9000 F8000.0
G1 X17.3078 Y-97.8354 F12000.0
G1 X17.5794 Y-97.6410
G1 X17.6587 Y-97.6652
G1 X18.7578 Y-99.8619
G1 Z0.0000 F8000.0
G0 X20.9957 Y-99.9105 F15000.0
G1 Z11.9000 F8000.0
G1 X20.3709 Y-99.8504 F12000.0
G1 X20.0091 Y-99.5428
G1 X19.9773 Y-98.0375
G1 X20.0508 Y-97.8096
G1 X20.2383 Y-97.6580
G1 X20.9846 Y-97.5799
G1 X22.2322 Y-97.6432
G1 X22.3658 Y-97.8094
G1 X22.9912 Y-99.7254
G1 X23.1081 Y-99.8498
G1 X23.6850 Y-99.8384
G1 X23.7486 Y-99.7741
G1 X23.8743 Y-97.7196
G1 X25.0419 Y-97.8995
G1 X25.3742 Y-97.6240
G1 Z0.0000 F8000.0
G0 X25.0336 Y-99.4727 F15000.0
G1 Z11.9000 F8000.0
G1 X25.3138 Y-99.7981 F12000.0
G1 X25.0376 Y-99.3700
G1 X25.0474 Y-98.1278
G1 X25.4134 Y-97.6326
G1 X26.0228 Y-97.6137
G1 X26.2536 Y-97.6783
G1 X26.4488 Y-97.8975
G1 X26.5260 Y-98.1243
G1 X26.4059 Y-99.6118
G1 X26.1482 Y-99.8246
G1 X25.3742 Y-99.8619
G1 Z0.0000 F8000.0
G0 X30.0932 Y-99.7646 F15000.0
G1 Z11.9000 F8000.0
G1 X30.1934 Y-100.8371 F12000.0
G1 X30.4490 Y-100.9743
G1 X30.8116 Y-100.9393
G1 X30.9691 Y-100.7713
G1 X31.0354 Y-100.4131
G1 X30.8519 Y-99.9723
G1 X30.1974 Y-99.7427
G1 X30.0580 Y-98.1498
G1 X30.1785 Y-97.8029
G1 X30.4769 Y-97.6017
G1 X31.2208 Y-97.6727
G1 X31.4862 Y-97.8391
G1 X31.3709 Y-97.6792
G1 X31.5469 Y-98.0305
G1 X31.4911 Y-99.6436
G1 X31.1006 Y-99.8723
G1 X30.8229 Y-99.9105
G1 Z0.0000 F8000.0
G0 X32.7689 Y-99.7646 F15000.0
G1 Z11.9000 F8000.0
G1 X32.8281 Y-97.9997 F12000.0
G1 X33.0407 Y-97.6762
G1 X32.8727 Y-97.8412
G1 X33.1577 Y-97.6389
G1 X33.2347 Y-97.6727
G1 X34.3257 Y-99.8619
G1 Z0.0000 F8000.0
G0 X36.6122 Y-99.9105 F15000.0
G1 Z11.9000 F8000.0
G1 X36.6974 Y-97.6703 F12000.0
G1 X37.7569 Y-97.6073
G1 X37.8050 Y-97.6782
G1 X37.6207 Y-99.7325
G1 X37.4427 Y-99.8400
G1 X35.8101 Y-99.8709
G1 X35.6184 Y-99.7980
G1 X35.4933 Y-97.6726
G1 Z0.0000 F8000.0
G0 X38.9474 Y-97.6726 F15000.0
G1 Z11.9000 F8000.0
G1 X39.0766 Y-98.5314 F12000.0
G1 X39.7099 Y-98.8693
G1 X40.4438 Y-99.7983
G1 X40.1193 Y-99.4732
G1 X39.7313 Y-98.7649
G1 X40.4677 Y-97.6617
G1 X40.6717 Y-97.6301
G1 X41.7239 Y-97.9877
G1 X41.8592 Y-99.5796
G1 X42.0172 Y-99.7646
G1 X42.2319 Y-99.8571
G1 X42.8545 Y-99.8352
G1 X43.1244 Y-99.6365
G1 X43.2446 Y-98.0358
G1 X43.1022 Y-97.8598
G1 X42.1546 Y-97.6284
G1 X41.8242 Y-97.8959
G1 X42.0030 Y-97.7001
G1 X42.2316 Y-97.6339
G1 X42.9590 Y-97.6766
G1 X43.1799 Y-97.8672
G1 Z0.0000 F8000.0
G0 X41.7691 Y-99.4727 F15000.0
G1 Z11.9000 F8000.0
G1 X41.8177 Y-99.5700 F12000.0
G1 Z0.0000 F8000.0
G0 X44.4934 Y-99.7646 F15000.0
G1 Z11.9000 F8000.0
G1 X44.6172 Y-100.8991 F12000.0
G1 X44.9467 Y-100.9793
G1 X45.2894 Y-100.8890
G1 X45.4356 Y-100.4378
G1 X45.2722 Y-99.9872
G1 X44.6138 Y-99.7516
G1 X44.5384 Y-99.5566
G1 X44.5158 Y-97.9206
G1 X44.6507 Y-97.7224
G1 X44.8638 Y-97.6061
G1 X45.8417 Y-97.7466
G1 X45.7732 Y-97.6762
G1 X45.9009 Y-97.9316
G1 X45.9027 Y-99.5546
G1 X45.6511 Y-99.8081
G1 X45.3296 Y-99.8955
G1 X45.6439 Y-99.8185
G1 X45.9529 Y-99.5213
G1 Z0.0000 F8000.0
G0 X45.2718 Y-100.0078 F15000.0
G1 Z11.9000 F8000.0
G1 X45.3205 Y-100.1051 F12000.0
G1 Z0.0000 F8000.0
G0 X49.5043 Y-97.6726 F15000.0
G1 Z11.9000 F8000.0
G1 X49.6275 Y-99.7919 F12000.0
G1 X50.5711 Y-99.8562
G1 X50.7952 Y-99.7827
G1 X50.9532 Y-99.6274
G1 X51.1302 Y-97.7177
G1 X52.0852 Y-97.9207
G1 X52.2562 Y-98.0408
G1 X52.3467 Y-99.5299
G1 X52.5792 Y-99.8006
G1 X53.3095 Y-99.8481
G1 X53.5259 Y-99.7518
G1 X53.6940 Y-99.4714
G1 X53.7741 Y-98.2118
G1 X53.7292 Y-97.9759
G1 X53.5531 Y-97.8302
G1 X52.7126 Y-97.6102
G1 X52.3366 Y-97.8818
G1 X52.6842 Y-97.6395
G1 X53.5087 Y-97.6883
G1 X53.8071 Y-97.8392
G1 X54.7988 Y-97.6635
G1 X54.9978 Y-97.7003
G1 X55.6760 Y-99.7101
G1 X55.7844 Y-99.8461
G1 X56.4358 Y-99.7870
G1 X56.5555 Y-97.7108
G1 X57.6220 Y-97.7073
G1 X57.6775 Y-99.6671
G1 X57.7039 Y-98.8672
G1 X57.7729 Y-98.8076
G1 X59.1169 Y-98.7163
G1 X59.1937 Y-98.5297
G1 X59.2327 Y-97.7649
G1 X59.2591 Y-99.7772
G1 X59.3250 Y-99.8209
G1 X60.2893 Y-99.6168
G1 X60.4483 Y-99.5124
G1 X60.4479 Y-98.1647
G1 X60.7971 Y-97.6534
G1 X61.0149 Y-97.6169
G1 X61.7386 Y-97.8345
G1 X61.9081 Y-97.9861
G1 X61.8659 Y-99.4843
G1 X61.7692 Y-99.6794
G1 X61.5866 Y-99.8168
G1 X60.7910 Y-99.8619
G1 Z0.0000 F8000.0
G0 X60.4505 Y-97.9645 F15000.0
G1 Z11.9000 F8000.0
G1 X60.6988 Y-97.6904 F12000.0
G1 X60.9310 Y-97.6336
G1 X61.6848 Y-97.6731
G1 X61.8613 Y-97.8672
G1 Z0.0000 F8000.0
G0 X63.1262 Y-98.7916 F15000.0
G1 Z11.9000 F8000.0
G1 X63.2043 Y-99.5393 F12000.0
G1 X63.4425 Y-99.8099
G1 X64.2995 Y-99.8386
G1 X64.4938 Y-99.7212
G1 X64.5838 Y-99.5536
G1 X63.1552 Y-98.6528
G1 X63.2527 Y-97.8078
G1 X63.4411 Y-97.6578
G1 X64.5857 Y-97.5753
G1 Z0.0000 F8000.0
G0 X68.2344 Y-97.6240 F15000.0
G1 Z11.9000 F8000.0
G1 X68.2489 Y-99.6141 F12000.0
G1 X68.3521 Y-99.7786
G1 X68.5276 Y-99.8416
G1 X69.5614 Y-99.6845
G1 X69.7472 Y-99.5046
G1 X69.7912 Y-97.5267
G1 Z0.0000 F8000.0
G0 X73.4886 Y-98.3051 F15000.0
G1 Z11.9000 F8000.0
G1 X74.7535 Y-98.3051 F12000.0
G1 Z0.0000 F8000.0
G0 X74.7535 Y-99.2781 F15000.0
G1 Z11.9000 F8000.0
G1 X73.4886 Y-99.2781 F12000.0
G1 Z0.0000 F8000.0
G0 X78.5481 Y-100.8349 F15000.0
G1 Z11.9000 F8000.0
G1 X78.4388 Y-100.4970 F12000.0
G1 X78.3662 Y-99.6609
G1 X78.5033 Y-99.2784
G1 X78.8262 Y-99.0914
G1 X79.6483 Y-99.0648
G1 X79.7910 Y-98.6217
G1 X79.7238 Y-98.4327
G1 X79.1119 Y-97.6515
G1 X79.4638 Y-97.9826
G1 X79.7975 Y-98.6222
G1 X79.9081 Y-99.3137
G1 X79.8997 Y-100.5694
G1 X79.8064 Y-100.7406
G1 X79.4729 Y-100.9834
G1 X78.7427 Y-100.9321
G1 Z0.0000 F8000.0
G0 X81.0779 Y-97.4294 F15000.0
G1 Z11.9000 F8000.0
G1 X80.9806 Y-96.7483 F12000.0
G1 Z0.0000 F8000.0
G0 X81.4178 Y-90.1810 F15000.0
G1 Z11.9000 F8000.0
G1 X81.4384 Y-88.1817 F12000.0
G1 X81.4982 Y-88.1182
G1 X82.3018 Y-88.1386
G1 X82.4502 Y-88.4803
G1 X82.2481 Y-89.0509
G1 X81.3996 Y-89.2021
G1 X79.7673 Y-89.1842
G1 X79.5856 Y-89.3280
G1 X79.0960 Y-90.0153
G1 X79.2453 Y-90.1424
G1 X80.0914 Y-90.0810
G1 X80.2687 Y-89.5186
G1 X80.1348 Y-89.1335
G1 X80.2638 Y-88.4112
G1 X80.1174 Y-88.1523
G1 X79.2831 Y-88.0864
G1 X78.0488 Y-88.7212
G1 X77.6228 Y-89.0731
G1 X76.5636 Y-89.1951
G1 X77.6362 Y-89.0424
G1 X77.8025 Y-88.8783
G1 X77.8022 Y-88.2796
G1 X77.6901 Y-88.1321
G1 X76.5380 Y-88.1164
G1 X76.4769 Y-88.1794
G1 X76.4556 Y-90.1810
G1 Z0.0000 F8000.0
G0 X74.5582 Y-90.0837 F15000.0
G1 Z11.9000 F8000.0
G1 X74.4436 Y-89.7758 F12000.0
G1 X74.5869 Y-90.1243
G1 X75.1077 Y-90.1780
G1 X75.2709 Y-90.0861
G1 X75.3138 Y-88.2292
G1 X75.2555 Y-88.1626
G1 X74.1440 Y-88.1392
G1 X73.9699 Y-88.1985
G1 X74.5096 Y-89.9864
G1 Z0.0000 F8000.0
G0 X72.7582 Y-90.0837 F15000.0
G1 Z11.9000 F8000.0
G1 X71.7846 Y-88.2287 F12000.0
G1 X71.6383 Y-88.0988
G1 X71.4561 Y-88.2101
G1 X71.3289 Y-88.4193
G1 X71.2987 Y-90.1810
G1 Z0.0000 F8000.0
G0 X70.0338 Y-89.5486 F15000.0
G1 Z11.9000 F8000.0
G1 X69.7860 Y-89.4111 F12000.0
G1 X68.8005 Y-90.0329
G1 X69.3384 Y-90.2100
G1 X69.8353 Y-90.1432
G1 X70.0304 Y-90.0284
G1 X70.0797 Y-89.7989
G1 X70.0228 Y-89.5735
G1 X68.9232 Y-88.7625
G1 X68.8680 Y-88.6404
G1 X69.7785 Y-88.0926
G1 X70.1311 Y-88.1377
G1 Z0.0000 F8000.0
G0 X65.8500 Y-90.1324 F15000.0
G1 Z11.9000 F8000.0
G1 X64.8068 Y-88.1363 F12000.0
G1 X64.5484 Y-88.2409
G1 X64.4113 Y-88.4382
G1 X64.3905 Y-90.1810
G1 Z0.0000 F8000.0
G0 X64.8770 Y-91.3486 F15000.0
G1 Z11.9000 F8000.0
G1 X65.3635 Y-91.3486 F12000.0
G1 Z0.0000 F8000.0
G0 X62.9796 Y-90.1324 F15000.0
G1 Z11.9000 F8000.0
G1 X63.2153 Y-88.3994 F12000.0
G1 X63.0796 Y-88.1945
G1 X62.7576 Y-88.0789
G1 X62.0426 Y-88.3191
G1 X61.8569 Y-88.4520
G1 X61.8135 Y-89.5691
G1 X61.9602 Y-89.8632
G1 X62.8823 Y-90.1810
G1 Z0.0000 F8000.0
G0 X63.2229 Y-88.3810 F15000.0
G1 Z11.9000 F8000.0
G1 X63.1742 Y-88.2837 F12000.0
G1 Z0.0000 F8000.0
G0 X60.6931 Y-88.1377 F15000.0
G1 Z11.9000 F8000.0
G1 X60.6917 Y-89.9814 F12000.0
G1 X60.5785 Y-89.1916
G1 X59.2692 Y-89.2597
G1 X59.2336 Y-90.0753
G1 X59.2336 Y-88.0404
G1 Z0.0000 F8000.0
G0 X58.0660 Y-88.3323 F15000.0
G1 Z11.9000 F8000.0
G1 X58.0181 Y-88.8688 F12000.0
G1 X57.8432 Y-89.0551
G1 X58.0749 Y-88.7042
G1 X58.0924 Y-88.4590
G1 X57.8978 Y-88.1765
G1 X56.6934 Y-88.1368
G1 X56.6552 Y-90.0736
G1 X56.6896 Y-89.2608
G1 X57.7741 Y-89.1107
G1 Z0.0000 F8000.0
G0 X55.5363 Y-88.1377 F15000.0
G1 Z11.9000 F8000.0
G1 X55.4540 Y-90.1261 F12000.0
G1 X54.9067 Y-90.1742
G1 X54.7070 Y-89.9547
G1 X54.7598 Y-90.0845
G1 X54.1254 Y-88.1377
G1 Z0.0000 F8000.0
G0 X52.9092 Y-88.3810 F15000.0
G1 Z11.9000 F8000.0
G1 X52.8605 Y-88.2837 F12000.0
G1 Z0.0000 F8000.0
G0 X52.6659 Y-90.1324 F15000.0
G1 Z11.9000 F8000.0
G1 X52.9328 Y-88.5173 F12000.0
G1 X52.7525 Y-88.2098
G1 X52.4321 Y-88.0842
G1 X51.7192 Y-88.3228
G1 X51.5383 Y-88.4601
G1 X51.5000 Y-89.5796
G1 X51.6548 Y-89.8683
G1 X52.5686 Y-90.1810
G1 Z0.0000 F8000.0
G0 X48.9199 Y-87.9918 F15000.0
G1 Z11.9000 F8000.0
G1 X48.9844 Y-90.0831 F12000.0
G1 X49.1449 Y-90.1778
G1 X50.1317 Y-90.1139
G1 X50.3207 Y-89.8160
G1 X50.2977 Y-88.3111
G1 X50.0366 Y-88.0942
G1 X49.1567 Y-88.0465
G1 X48.9567 Y-87.9678
G1 X48.9199 Y-86.9215
G1 Z0.0000 F8000.0
G0 X47.8010 Y-88.1377 F15000.0
G1 Z11.9000 F8000.0
G1 X47.5152 Y-90.1135 F12000.0
G1 X47.3017 Y-90.1888
G1 X45.6998 Y-90.1423
G1 X45.6597 Y-88.0823
G1 X46.5022 Y-88.1188
G1 X46.6945 Y-88.1930
G1 X46.6334 Y-90.2297
G1 Z0.0000 F8000.0
G0 X44.4928 Y-90.0837 F15000.0
G1 Z11.9000 F8000.0
G1 X44.4896 Y-88.2351 F12000.0
G1 X44.3861 Y-89.1284
G1 X43.0720 Y-89.2517
G1 X43.0333 Y-90.0801
G1 X43.0333 Y-88.0404
G1 Z0.0000 F8000.0
G0 X41.6225 Y-90.1324 F15000.0
G1 Z11.9000 F8000.0
G1 X41.8893 Y-88.5173 F12000.0
G1 X41.6599 Y-88.1336
G1 X41.4053 Y-88.0803
G1 X40.5025 Y-88.4474
G1 X40.4562 Y-89.5631
G1 X40.5983 Y-89.8603
G1 X41.5252 Y-90.1810
G1 Z0.0000 F8000.0
G0 X39.2873 Y-90.1810 F15000.0
G1 Z11.9000 F8000.0
G1 X38.4358 Y-89.2033 F12000.0
G1 X38.0219 Y-89.0457
G1 X38.4671 Y-89.1617
G1 X39.2873 Y-88.0404
G1 Z0.0000 F8000.0
G0 X37.8278 Y-88.0891 F15000.0
G1 Z11.9000 F8000.0
G1 X37.8278 Y-90.1810 F12000.0
G1 Z0.0000 F8000.0
G0 X33.3034 Y-88.0891 F15000.0
G1 Z11.9000 F8000.0
G1 X33.3712 Y-90.0911 F12000.0
G1 X33.4336 Y-90.1567
G1 X34.2946 Y-90.1786
G1 X34.5239 Y-90.1081
G1 X34.7090 Y-89.8054
G1 X34.7390 Y-88.4227
G1 X34.5221 Y-88.1543
G1 X33.5242 Y-88.0519
G1 X33.3346 Y-87.9571
G1 X33.3034 Y-86.9215
G1 Z0.0000 F8000.0
G0 X32.1845 Y-88.1377 F15000.0
G1 Z11.9000 F8000.0
G1 X31.8861 Y-90.1222 F12000.0
G1 X30.9101 Y-90.2232
G1 X30.0780 Y-90.1293
G1 X29.9359 Y-88.0733
G1 X27.8201 Y-88.0885
G1 X27.5250 Y-88.2732
G1 X27.4182 Y-88.6193
G1 X27.4600 Y-89.0931
G1 X27.6643 Y-89.1647
G1 X28.7805 Y-89.2242
G1 X28.8447 Y-89.2845
G1 X28.8094 Y-89.8841
G1 X28.5674 Y-90.1432
G1 X27.7302 Y-90.1319
G1 X27.4168 Y-89.1107
G1 Z0.0000 F8000.0
G0 X26.2006 Y-89.8405 F15000.0
G1 Z11.9000 F8000.0
G1 X26.2979 Y-90.1324 F12000.0
G1 Z0.0000 F8000.0
G0 X26.2979 Y-88.0404 F15000.0
G1 Z11.9000 F8000.0
G1 X26.1442 Y-89.7703 F12000.0
G1 X25.3171 Y-89.1748
G1 X24.5221 Y-89.7005
G1 X24.4718 Y-90.0773
G1 X24.5129 Y-89.7213
G1 X24.4536 Y-89.5551
G1 X24.4492 Y-88.0404
G1 Z0.0000 F8000.0
G0 X22.1627 Y-88.0891 F15000.0
G1 Z11.9000 F8000.0
G1 X22.0654 Y-88.1377 F12000.0
G1 Z0.0000 F8000.0
G0 X22.1627 Y-90.1810 F15000.0
G1 Z11.9000 F8000.0
G1 X21.8982 Y-88.5293 F12000.0
G1 X21.9541 Y-88.3107
G1 X22.1281 Y-88.1371
G1 X22.3496 Y-88.0595
G1 X23.5351 Y-88.1030
G1 X23.3179 Y-88.1917
G1 X23.2572 Y-90.1043
G1 X23.1868 Y-90.1619
G1 X22.0673 Y-90.1735
G1 X20.8190 Y-90.0666
G1 X20.6605 Y-89.9054
G1 X19.7782 Y-88.2287
G1 X19.6319 Y-88.0988
G1 X19.5377 Y-88.1311
G1 X19.2982 Y-88.5384
G1 X19.2923 Y-90.1810
G1 Z0.0000 F8000.0
G0 X16.7139 Y-91.1053 F15000.0
G1 Z11.9000 F8000.0
G1 X16.8345 Y-91.2749 F12000.0
G1 X17.5722 Y-91.2982
G1 X17.7568 Y-91.2288
G1 X17.8689 Y-88.1219
G1 X18.1281 Y-87.8611
G1 X17.6190 Y-88.0444
G1 X16.4822 Y-88.0822
G1 X16.0483 Y-87.9289
G1 X16.0196 Y-87.7685
G1 X16.3710 Y-88.1761
G1 X16.6653 Y-91.0080
G1 Z0.0000 F8000.0
G0 X11.5571 Y-90.1324 F15000.0
G1 Z11.9000 F8000.0
G1 X11.4598 Y-89.9378 F12000.0
G1 Z0.0000 F8000.0
G0 X10.1949 Y-91.2999 F15000.0
G1 Z11.9000 F8000.0
G1 X11.1363 Y-91.2855 F12000.0
G1 X11.4480 Y-91.0537
G1 X11.5427 Y-90.2282
G1 X11.3262 Y-89.8003
G1 X11.6167 Y-89.2209
G1 X11.6413 Y-88.4973
G1 X11.4222 Y-88.1565
G1 X10.1949 Y-87.8945
G1 Z0.0000 F8000.0
G0 X11.4631 Y-81.5214 F15000.0
G1 Z11.9000 F8000.0
G1 X10.8470 Y-79.0225 F12000.0
G1 X12.5333 Y-78.9429
G1 Z0.0000 F8000.0
G0 X12.0469 Y-78.2619 F15000.0
G1 Z11.9000 F8000.0
G1 X12.0469 Y-79.6727 F12000.0
G1 Z0.0000 F8000.0
G0 X14.9658 Y-77.8727 F15000.0
G1 Z11.9000 F8000.0
G1 X15.0454 Y-78.0339 F12000.0
G1 X15.4001 Y-78.3262
G1 X16.8414 Y-81.4854
G1 X16.8944 Y-78.3167
G1 X16.8429 Y-78.2428
G1 X15.3550 Y-78.2132
G1 Z0.0000 F8000.0
G0 X16.9118 Y-78.2132 F15000.0
G1 Z11.9000 F8000.0
G1 X17.2285 Y-78.0670 F12000.0
G1 X17.3769 Y-77.8271
G1 X18.5073 Y-78.2638
G1 X19.2865 Y-80.4322
G1 X19.9469 Y-80.3869
G1 X20.0623 Y-78.3146
G1 X21.2055 Y-78.5516
G1 X21.1930 Y-80.3538
G1 Z0.0000 F8000.0
G0 X22.7498 Y-80.4511 F15000.0
G1 Z11.9000 F8000.0
G1 X21.6224 Y-78.2287 F12000.0
G1 X21.3016 Y-78.4330
G1 X21.5335 Y-78.2132
G1 Z0.0000 F8000.0
G0 X23.9173 Y-78.2619 F15000.0
G1 Z11.9000 F8000.0
G1 X23.9173 Y-80.2471 F12000.0
G1 X23.9496 Y-79.4412
G1 X25.3720 Y-79.2991
G1 X25.4729 Y-78.3634
G1 X25.5044 Y-80.3788
G1 X26.6456 Y-80.1551
G1 X26.9212 Y-80.3839
G1 X26.6986 Y-80.0262
G1 X26.6494 Y-78.8936
G1 X26.9051 Y-78.3385
G1 X27.0851 Y-78.1935
G1 X28.0652 Y-78.3401
G1 X28.1922 Y-78.6379
G1 X28.1232 Y-80.3795
G1 X27.9384 Y-80.4494
G1 X26.9823 Y-80.4511
G1 Z0.0000 F8000.0
G0 X26.6904 Y-78.5051 F15000.0
G1 Z11.9000 F8000.0
G1 X26.9493 Y-78.2559 F12000.0
G1 X28.1815 Y-78.3794
G1 X28.4417 Y-78.2132
G1 Z0.0000 F8000.0
G0 X31.7013 Y-78.1159 F15000.0
G1 Z11.9000 F8000.0
G1 X31.8561 Y-80.4178 F12000.0
G1 X32.9485 Y-80.4008
G1 X33.1216 Y-80.2566
G1 X33.2011 Y-80.0457
G1 X33.1518 Y-78.4248
G1 X32.9460 Y-78.2312
G1 X31.9455 Y-78.1708
G1 X31.7425 Y-78.0965
G1 X31.7013 Y-77.0943
G1 Z0.0000 F8000.0
G0 X34.4743 Y-78.5051 F15000.0
G1 Z11.9000 F8000.0
G1 X34.5307 Y-80.1833 F12000.0
G1 X34.7938 Y-80.4259
G1 X35.8855 Y-80.4140
G1 X35.9557 Y-78.4524
G1 X35.6820 Y-78.2566
G1 X34.8171 Y-78.2115
G1 X34.5324 Y-78.4246
G1 X34.7662 Y-78.2132
G1 Z0.0000 F8000.0
G0 X35.9824 Y-78.4078 F15000.0
G1 Z11.9000 F8000.0
G1 X36.2257 Y-78.2132 F12000.0
G1 Z0.0000 F8000.0
G0 X37.2473 Y-78.2619 F15000.0
G1 Z11.9000 F8000.0
G1 X38.0643 Y-78.1820 F12000.0
G1 X38.2887 Y-78.2569
G1 X38.4422 Y-78.4462
G1 X38.4704 Y-78.6748
G1 X38.3063 Y-79.2753
G1 X38.4796 Y-79.7180
G1 X38.4149 Y-80.2078
G1 Z0.0000 F8000.0
G0 X37.8798 Y-79.3321 F15000.0
G1 Z11.9000 F8000.0
G1 X38.1964 Y-79.3916 F12000.0
G1 X38.3718 Y-80.2518
G1 X38.1864 Y-80.4166
G1 X37.2960 Y-80.3538
G1 Z0.0000 F8000.0
G0 X40.5555 Y-80.6943 F15000.0
G1 Z11.9000 F8000.0
G1 X40.3616 Y-80.5548 F12000.0
G1 X39.7778 Y-80.3984
G1 X39.7150 Y-80.4507
G1 X39.8050 Y-81.3026
G1 X39.8952 Y-81.5201
G1 X40.1489 Y-81.5682
G1 X40.5032 Y-81.5002
G1 X40.6702 Y-81.0582
G1 X40.4531 Y-80.5175
G1 X39.7995 Y-80.2850
G1 X39.7022 Y-78.6687
G1 X39.7844 Y-78.4358
G1 X39.9532 Y-78.2603
G1 X40.3047 Y-78.1880
G1 X41.0823 Y-78.3507
G1 X41.0178 Y-78.2715
G1 X41.1272 Y-78.4844
G1 X41.1557 Y-80.1107
G1 X40.9212 Y-80.3832
G1 X40.5472 Y-80.4861
G1 X40.9514 Y-80.3655
G1 X41.1879 Y-80.1105
G1 Z0.0000 F8000.0
G0 X42.4042 Y-79.3808 F15000.0
G1 Z11.9000 F8000.0
G1 X42.4707 Y-80.1039 F12000.0
G1 X42.6982 Y-80.3848
G1 X42.9246 Y-80.4490
G1 X43.5517 Y-80.4345
G1 X43.7589 Y-80.3291
G1 X43.9125 Y-80.0297
G1 X43.9223 Y-79.4341
G1 X42.4884 Y-79.3019
G1 X42.4305 Y-79.2231
G1 X42.4818 Y-78.4884
G1 X42.6289 Y-78.2976
G1 X42.8540 Y-78.2130
G1 X43.8637 Y-78.1646
G1 Z0.0000 F8000.0
G0 X45.1285 Y-78.1159 F15000.0
G1 Z11.9000 F8000.0
G1 X45.2834 Y-80.4178 F12000.0
G1 X46.3757 Y-80.4008
G1 X46.5489 Y-80.2566
G1 X46.6284 Y-80.0457
G1 X46.5791 Y-78.4248
G1 X46.3733 Y-78.2312
G1 X45.3728 Y-78.1708
G1 X45.1698 Y-78.0965
G1 X45.1285 Y-77.0943
G1 Z0.0000 F8000.0
G0 X47.8529 Y-78.2619 F15000.0
G1 Z11.9000 F8000.0
G1 X47.8529 Y-80.2518 F12000.0
G1 X47.8909 Y-79.4265
G1 X49.3611 Y-79.3321
G1 Z0.0000 F8000.0
G0 X49.4097 Y-78.2619 F15000.0
G1 Z11.9000 F8000.0
G1 X49.4097 Y-80.4511 F12000.0
G1 Z0.0000 F8000.0
G0 X50.5773 Y-80.3538 F15000.0
G1 Z11.9000 F8000.0
G1 X50.6757 Y-78.4463 F12000.0
G1 X50.8404 Y-78.2716
G1 X52.0854 Y-78.1646
G1 Z0.0000 F8000.0
G0 X50.9178 Y-76.9970 F15000.0
G1 Z11.9000 F8000.0
G1 X51.7925 Y-77.0570 F12000.0
G1 X51.9582 Y-77.1535
G1 X52.0653 Y-77.3380
G1 X52.1341 Y-80.4511
G1 Z0.0000 F8000.0
G0 X54.4206 Y-80.4997 F15000.0
G1 Z11.9000 F8000.0
G1 X54.4289 Y-78.2580 F12000.0
G1 X53.3679 Y-78.2901
G1 X53.4142 Y-80.3576
G1 X53.4753 Y-80.4287
G1 X55.0921 Y-80.4587
G1 X55.4087 Y-80.3375
G1 X55.4891 Y-80.1776
G1 X55.6368 Y-78.1646
G1 Z0.0000 F8000.0
G0 X56.8531 Y-78.5538 F15000.0
G1 Z11.9000 F8000.0
G1 X56.9459 Y-80.1729 F12000.0
G1 X57.1050 Y-80.3574
G1 X57.3207 Y-80.4473
G1 X57.8237 Y-80.4453
G1 X58.2112 Y-80.2216
G1 X58.3269 Y-78.6204
G1 X58.1820 Y-78.4466
G1 X57.3461 Y-78.1997
G1 X56.9065 Y-78.4867
G1 X57.1936 Y-78.2132
G1 Z0.0000 F8000.0
G0 X58.1180 Y-78.2619 F15000.0
G1 Z11.9000 F8000.0
G1 X58.2639 Y-78.4565 F12000.0
G1 Z0.0000 F8000.0
G0 X56.8531 Y-80.0619 F15000.0
G1 Z11.9000 F8000.0
G1 X56.9017 Y-80.1592 F12000.0
G1 Z0.0000 F8000.0
G0 X59.5288 Y-80.3538 F15000.0
G1 Z11.9000 F8000.0
G1 X59.5891 Y-78.5532 F12000.0
G1 X59.7027 Y-78.3425
G1 X59.9809 Y-78.2472
G1 X61.0856 Y-80.3538
G1 Z0.0000 F8000.0
G0 X60.5991 Y-81.6187 F15000.0
G1 Z11.9000 F8000.0
G1 X60.0640 Y-81.6187 F12000.0
G1 Z0.0000 F8000.0
G0 X64.5884 Y-78.2619 F15000.0
G1 Z11.9000 F8000.0
G1 X64.7115 Y-80.3811 F12000.0
G1 X65.7748 Y-80.4231
G1 X66.0372 Y-80.2166
G1 X66.2161 Y-78.2872
G1 X67.2782 Y-78.2647
G1 X67.4250 Y-80.3557
G1 X67.5895 Y-80.4480
G1 X68.5773 Y-80.3902
G1 X68.7466 Y-80.2437
G1 X68.8187 Y-80.0226
G1 X68.8186 Y-78.5195
G1 X68.5460 Y-78.2289
G1 X67.5451 Y-78.1700
G1 X67.3472 Y-78.0890
G1 X67.3127 Y-77.0943
G1 Z0.0000 F8000.0
G0 X70.3777 Y-76.9970 F15000.0
G1 Z11.9000 F8000.0
G1 X71.3645 Y-77.1047 F12000.0
G1 X71.5060 Y-77.2959
G1 X71.5923 Y-78.1683
G1 X71.5939 Y-80.4511
G1 Z0.0000 F8000.0
G0 X70.0371 Y-80.3538 F15000.0
G1 Z11.9000 F8000.0
G1 X70.1247 Y-78.4694 F12000.0
G1 X70.3870 Y-78.2314
G1 X71.4839 Y-78.1341
G1 X71.5322 Y-77.9376
G1 X71.4479 Y-77.1429
G1 Z0.0000 F8000.0
G0 X72.9074 Y-78.3592 F15000.0
G1 Z11.9000 F8000.0
G1 X73.2393 Y-78.9357 F12000.0
G1 X72.9971 Y-78.5422
G1 X73.3984 Y-79.1026
G1 X73.7880 Y-79.3314
G1 X73.3716 Y-79.0907
G1 X74.4206 Y-79.4915
G1 X74.4872 Y-79.0152
G1 X74.9994 Y-78.2619
G1 Z0.0000 F8000.0
G0 X73.8804 Y-78.2619 F15000.0
G1 Z11.9000 F8000.0
G1 X74.5677 Y-79.7492 F12000.0
G1 X74.9473 Y-80.2917
G1 X74.3036 Y-79.3356
G1 X73.7694 Y-79.3424
G1 X73.2723 Y-79.6899
G1 X72.9024 Y-80.2353
G1 X73.3166 Y-79.5470
G1 X73.3990 Y-79.2327
G1 X73.8485 Y-79.4385
G1 X73.8804 Y-80.3538
G1 Z0.0000 F8000.0
G0 X76.2642 Y-80.3538 F15000.0
G1 Z11.9000 F8000.0
G1 X76.3234 Y-78.5890 F12000.0
G1 X76.5361 Y-78.2654
G1 X76.3681 Y-78.4304
G1 X76.6531 Y-78.2281
G1 X76.7301 Y-78.2619
G1 X77.7399 Y-80.2798
G1 X77.8984 Y-80.4239
G1 X78.7671 Y-80.3710
G1 X78.9572 Y-80.2929
G1 X78.9886 Y-78.3587
G1 X79.0244 Y-79.3271
G1 X80.4524 Y-79.2954
G1 X80.5443 Y-78.3688
G1 X80.6003 Y-80.4117
G1 X81.6634 Y-80.3211
G1 X81.7989 Y-78.2589
G1 X82.5129 Y-78.2595
G1 X82.7190 Y-78.3657
G1 X82.8320 Y-78.6771
G1 X82.5837 Y-79.2309
G1 X81.7130 Y-79.3808
G1 Z0.0000 F8000.0
G0 X83.6590 Y-80.4511 F15000.0
G1 Z11.9000 F8000.0
G1 X83.6590 Y-78.1646 F12000.0
G1 Z0.0000 F8000.0
G0 X87.2104 Y-81.4241 F15000.0
G1 Z11.9000 F8000.0
G1 X87.2775 Y-78.2293 F12000.0
G1 X88.6699 Y-78.1159
G1 Z0.0000 F8000.0
G0 X92.4645 Y-78.8943 F15000.0
G1 Z11.9000 F8000.0
G1 X93.7294 Y-78.8943 F12000.0
G1 Z0.0000 F8000.0
G0 X93.7294 Y-79.8673 F15000.0
G1 Z11.9000 F8000.0
G1 X92.4645 Y-79.8673 F12000.0
G1 Z0.0000 F8000.0
G0 X98.1079 Y-81.1322 F15000.0
G1 Z11.9000 F8000.0
G1 X98.0774 Y-81.1941 F12000.0
G1 X98.1079 Y-78.2132
G1 Z0.0000 F8000.0
G0 X100.7350 Y-78.1159 F15000.0
G1 Z11.9000 F8000.0
G1 X99.5291 Y-78.1399 F12000.0
G1 X99.6751 Y-78.6617
G1 X100.6792 Y-80.2468
G1 X100.8275 Y-80.6313
G1 X100.7734 Y-81.1372
G1 X100.4473 Y-81.4644
G1 X100.0633 Y-81.5922
G1 X99.6647 Y-81.5214
G1 Z0.0000 F8000.0
G0 X100.7350 Y-81.0349 F15000.0
G1 Z11.9000 F8000.0
G1 X100.8093 Y-80.9696 F12000.0
G1 X100.6653 Y-80.2755
G1 X100.3458 Y-79.6727
G1 Z0.0000 F8000.0
G0 X102.0972 Y-81.1322 F15000.0
G1 Z11.9000 F8000.0
G1 X102.3375 Y-81.4584 F12000.0
G1 X102.1019 Y-81.0580
G1 X102.0330 Y-78.6533
G1 X102.2358 Y-78.2964
G1 X102.4955 Y-78.1340
G1 X103.2173 Y-78.1502
G1 X103.3802 Y-78.2483
G1 X103.5431 Y-78.5756
G1 X103.4950 Y-81.2650
G1 X103.2381 Y-81.4831
G1 X102.9554 Y-81.5947
G1 X102.3891 Y-81.5214
G1 Z0.0000 F8000.0
G0 X104.9188 Y-81.4241 F15000.0
G1 Z11.9000 F8000.0
G1 X104.8149 Y-81.1316 F12000.0
G1 X104.7642 Y-80.0945
G1 X104.9781 Y-79.7590
G1 X105.1506 Y-79.6834
G1 X106.0864 Y-79.6727
G1 Z0.0000 F8000.0
G0 X105.5999 Y-78.4078 F15000.0
G1 Z11.9000 F8000.0
G1 X105.4618 Y-78.2400 F12000.0
G1 X105.8849 Y-78.6179
G1 X106.1476 Y-79.1222
G1 X105.6417 Y-78.3671
G1 X106.1728 Y-79.2214
G1 X106.2791 Y-79.9149
G1 X106.2685 Y-81.1699
G1 X106.1361 Y-81.4063
G1 X105.7909 Y-81.5939
G1 X105.1134 Y-81.5214
G1 Z0.0000 F8000.0
G0 X107.4486 Y-78.0186 F15000.0
G1 Z11.9000 F8000.0
G1 X107.3513 Y-77.3375 F12000.0
G1 Z0.0000 F8000.0
G0 X102.4864 Y-78.1159 F15000.0
G1 Z11.9000 F8000.0
G1 X102.3403 Y-78.1801 F12000.0
G1 X102.1321 Y-78.4440
G1 X102.1945 Y-78.3105
G1 Z0.0000 F8000.0
G0 X100.6830 Y-87.8945 F15000.0
G1 Z11.9000 F8000.0
G1 X99.4862 Y-88.0092 F12000.0
G1 X99.7212 Y-88.7316
G1 X100.0019 Y-89.1594
G1 Z0.0000 F8000.0
G0 X100.1965 Y-89.5486 F15000.0
G1 Z11.9000 F8000.0
G1 X100.0463 Y-89.2341 F12000.0
G1 X100.6593 Y-90.3196
G1 X100.5523 Y-90.9228
G1 X100.2526 Y-91.1941
G1 X99.7402 Y-91.2791
G1 X99.5575 Y-91.2327
G1 X99.2235 Y-90.9107
G1 Z0.0000 F8000.0
G0 X96.9857 Y-91.2026 F15000.0
G1 Z11.9000 F8000.0
G1 X96.9495 Y-90.7874 F12000.0
G1 X96.5252 Y-89.3825
G1 X96.4436 Y-88.8002
G1 X97.6668 Y-88.6729
G1 Z0.0000 F8000.0
G0 X92.9964 Y-88.6729 F15000.0
G1 Z11.9000 F8000.0
G1 X91.5369 Y-88.6729 F12000.0
G1 Z0.0000 F8000.0
G0 X91.5369 Y-89.5486 F15000.0
G1 Z11.9000 F8000.0
G1 X92.9964 Y-89.5486 F12000.0
G1 Z0.0000 F8000.0
G0 X88.2287 Y-88.4783 F15000.0
G1 Z11.9000 F8000.0
G1 X88.1314 Y-88.2837 F12000.0
G1 Z0.0000 F8000.0
G0 X88.2287 Y-90.7161 F15000.0
G1 Z11.9000 F8000.0
G1 X87.8945 Y-91.1729 F12000.0
G1 X88.2181 Y-90.6449
G1 X88.0769 Y-88.2585
G1 X87.5822 Y-87.9110
G1 X86.4013 Y-88.0611
G1 X86.5098 Y-91.2636
G1 X87.8396 Y-91.2026
G1 Z0.0000 F8000.0
G0 X83.2665 Y-90.1810 F15000.0
G1 Z11.9000 F8000.0
G1 X83.2665 Y-88.0404 F12000.0
G1 Z0.0000 F8000.0
G0 X103.9426 Y-88.0404 F15000.0
G1 Z11.9000 F8000.0
G1 X103.9426 Y-89.6945 F12000.0
G1 Z0.0000 F8000.0
G0 X104.0885 Y-89.7432 F15000.0
G1 Z11.9000 F8000.0
G1 X103.9572 Y-90.0873 F12000.0
G1 X104.0335 Y-89.6838
G1 X104.8400 Y-89.1673
G1 X105.6598 Y-89.7751
G1 X105.8173 Y-88.1084
G1 X106.0073 Y-88.0420
G1 X106.8561 Y-88.0756
G1 X106.9756 Y-89.7686
G1 X106.9300 Y-90.0853
G1 X106.9734 Y-89.7073
G1 X107.8615 Y-89.1770
G1 X108.7182 Y-90.0370
G1 X108.6703 Y-89.7144
G1 X108.7868 Y-88.1027
G1 X109.7856 Y-87.9290
G1 X109.6832 Y-87.2620
G1 Z0.0000 F8000.0
G0 X105.6939 Y-89.8405 F15000.0
G1 Z11.9000 F8000.0
G1 X105.7912 Y-90.1324 F12000.0
G1 Z0.0000 F8000.0
G0 X102.3848 Y-55.1328 F15000.0
G1 Z11.9000 F8000.0
G1 X102.2167 Y-54.4779 F12000.0
G1 X101.9405 Y-54.2484
G1 X101.8761 Y-54.0444
G1 X102.3848 Y-50.4138
G1 Z0.0000 F8000.0
G0 X100.7308 Y-52.5057 F15000.0
G1 Z11.9000 F8000.0
G1 X100.7709 Y-52.7356 F12000.0
G1 X100.9907 Y-52.9116
G1 X101.5578 Y-53.8192
G1 Z0.0000 F8000.0
G0 X101.7038 Y-54.0625 F15000.0
G1 Z11.9000 F8000.0
G1 X100.8379 Y-52.8028 F12000.0
G1 X100.6498 Y-52.8201
G1 X100.3646 Y-53.0510
G1 X99.6176 Y-54.2182
G1 X99.1741 Y-54.5354
G1 X99.0888 Y-55.0506
G1 X99.1698 Y-54.3860
G1 X99.0767 Y-50.3651
G1 Z0.0000 F8000.0
G0 X103.9903 Y-53.4787 F15000.0
G1 Z11.9000 F8000.0
G1 X104.0531 Y-52.5565 F12000.0
G1 X104.2921 Y-52.1423
G1 X104.5041 Y-52.0566
G1 X106.1103 Y-51.8839
G1 X106.1779 Y-51.6780
G1 X106.1795 Y-50.4138
G1 Z0.0000 F8000.0
G0 X106.1795 Y-51.9706 F15000.0
G1 Z11.9000 F8000.0
G1 X106.1795 Y-53.4300 F12000.0
G1 Z0.0000 F8000.0
G0 X107.9309 Y-50.8030 F15000.0
G1 Z11.9000 F8000.0
G1 X107.8401 Y-51.3143 F12000.0
G1 X107.9743 Y-54.7138
G1 X108.1778 Y-54.9614
G1 X108.4372 Y-55.0913
G1 X109.1882 Y-55.1642
G1 X109.4282 Y-55.1100
G1 X109.8570 Y-54.7428
G1 X109.9977 Y-51.0977
G1 X109.8270 Y-50.6534
G1 X109.5529 Y-50.4003
G1 X109.2157 Y-50.3030
G1 X108.3013 Y-50.4507
G1 X108.0425 Y-50.6366
G1 X108.2714 Y-50.4624
G1 Z0.0000 F8000.0
G0 X111.7742 Y-50.8030 F15000.0
G1 Z11.9000 F8000.0
G1 X111.6828 Y-51.2707 F12000.0
G1 X111.8129 Y-54.6718
G1 X112.0788 Y-55.0246
G1 X111.8821 Y-54.8192
G1 X112.1663 Y-55.0538
G1 X113.0315 Y-55.1642
G1 X113.2716 Y-55.1100
G1 X113.7003 Y-54.7428
G1 X113.8410 Y-51.0977
G1 X113.6703 Y-50.6534
G1 X113.3962 Y-50.4003
G1 X113.0590 Y-50.3030
G1 X112.1446 Y-50.4507
G1 X111.8858 Y-50.6366
G1 X112.1148 Y-50.4624
G1 Z0.0000 F8000.0
G0 X117.2716 Y-50.8030 F15000.0
G1 Z11.9000 F8000.0
G1 X117.1928 Y-51.0770 F12000.0
G1 X117.2882 Y-54.6087
G1 X117.4501 Y-54.9037
G1 X117.3722 Y-54.8073
G1 X117.5114 Y-54.9717
G1 X117.4382 Y-54.8748
G1 X117.7010 Y-55.0683
G1 X118.6911 Y-55.1376
G1 X119.0915 Y-54.8907
G1 X119.2238 Y-54.5884
G1 X119.3292 Y-51.0569
G1 X119.0061 Y-50.4602
G1 X119.1058 Y-50.5531
G1 X118.5524 Y-50.3152
G1 X117.6420 Y-50.4507
G1 X117.3832 Y-50.6366
G1 X117.6122 Y-50.4624
G1 Z0.0000 F8000.0
G0 X122.1366 Y-50.4138 F15000.0
G1 Z11.9000 F8000.0
G1 X122.0029 Y-54.7847 F12000.0
G1 X121.5528 Y-54.6463
G1 Z0.0000 F8000.0
G0 X125.4934 Y-50.8030 F15000.0
G1 Z11.9000 F8000.0
G1 X125.4026 Y-51.3143 F12000.0
G1 X125.5368 Y-54.7138
G1 X125.7403 Y-54.9614
G1 X125.9997 Y-55.0913
G1 X126.7506 Y-55.1642
G1 X126.9907 Y-55.1100
G1 X127.4195 Y-54.7428
G1 X127.5601 Y-51.0977
G1 X127.3895 Y-50.6534
G1 X127.1154 Y-50.4003
G1 X126.7782 Y-50.3030
G1 X125.8638 Y-50.4507
G1 X125.6050 Y-50.6366
G1 X125.8339 Y-50.4624
G1 Z0.0000 F8000.0
G0 X129.3367 Y-50.8030 F15000.0
G1 Z11.9000 F8000.0
G1 X129.2453 Y-51.2707 F12000.0
G1 X129.3754 Y-54.6718
G1 X129.6413 Y-55.0246
G1 X129.4446 Y-54.8192
G1 X129.7288 Y-55.0538
G1 X130.5940 Y-55.1642
G1 X130.8340 Y-55.1100
G1 X131.2628 Y-54.7428
G1 X131.4035 Y-51.0977
G1 X131.2328 Y-50.6534
G1 X130.9587 Y-50.4003
G1 X130.6215 Y-50.3030
G1 X129.7071 Y-50.4507
G1 X129.4483 Y-50.6366
G1 X129.6772 Y-50.4624
G1 Z0.0000 F8000.0
G0 X134.8341 Y-50.8030 F15000.0
G1 Z11.9000 F8000.0
G1 X134.7422 Y-51.2390 F12000.0
G1 X134.8601 Y-54.6437
G1 X135.0682 Y-54.9635
G1 X134.9376 Y-54.8172
G1 X135.1456 Y-55.0296
G1 X135.0021 Y-54.9035
G1 X135.3802 Y-55.0985
G1 X136.2528 Y-55.1377
G1 X136.6534 Y-54.8912
G1 X136.7862 Y-54.5893
G1 X136.8919 Y-51.0577
G1 X136.7588 Y-50.7084
G1 X136.5234 Y-50.4494
G1 X136.1189 Y-50.3030
G1 X135.2045 Y-50.4507
G1 X134.9457 Y-50.6366
G1 X135.1746 Y-50.4624
G1 Z0.0000 F8000.0
G0 X136.6341 Y-50.5111 F15000.0
G1 Z11.9000 F8000.0
G1 X136.7801 Y-50.7057 F12000.0
G1 Z0.0000 F8000.0
G0 X138.6774 Y-53.0408 F15000.0
G1 Z11.9000 F8000.0
G1 X140.1617 Y-52.9083 F12000.0
G1 X140.5556 Y-52.7475
G1 X140.4029 Y-52.8492
G1 X140.5944 Y-52.5164
G1 X140.7518 Y-51.1364
G1 X140.5097 Y-50.4714
G1 X140.5594 Y-50.5479
G1 X139.5323 Y-50.2917
G1 X139.0450 Y-50.3834
G1 X138.7733 Y-50.6044
G1 X138.5935 Y-51.0617
G1 X138.6755 Y-52.9547
G1 X138.7881 Y-53.5738
G1 X139.3337 Y-54.5541
G1 X140.1855 Y-55.1814
G1 Z0.0000 F8000.0
G0 X139.1395 Y-43.0004 F15000.0
G1 Z11.9000 F8000.0
G1 X140.3262 Y-42.9217 F12000.0
G1 X140.4585 Y-42.6129
G1 X140.5016 Y-41.4922
G1 Z0.0000 F8000.0
G0 X139.8205 Y-42.9517 F15000.0
G1 Z11.9000 F8000.0
G1 X139.8186 Y-41.7963 F12000.0
G1 X139.7457 Y-41.6116
G1 X139.2708 Y-41.5559
G1 X139.1101 Y-41.6370
G1 X139.0564 Y-42.8469
G1 X138.3978 Y-42.8572
G1 X138.2474 Y-41.5669
G1 X137.5569 Y-41.5603
G1 X137.3881 Y-42.9031
G1 Z0.0000 F8000.0
G0 X136.6583 Y-41.5409 F15000.0
G1 Z11.9000 F8000.0
G1 X136.5805 Y-43.6125 F12000.0
G1 X136.0845 Y-43.3543
G1 X135.9339 Y-43.1695
G1 X135.5394 Y-41.6382
G1 Z0.0000 F8000.0
G0 X136.1739 Y-39.4714 F15000.0
G1 Z11.9000 F8000.0
G1 X136.1739 Y-24.8078 F12000.0
G1 Z0.0000 F8000.0
G0 X136.6078 Y-23.3114 F15000.0
G1 Z11.9000 F8000.0
G1 X135.8790 Y-21.8774 F12000.0
G1 X135.6104 Y-22.0127
G1 X135.4977 Y-22.4877
G1 X135.5375 Y-23.3114
G1 Z0.0000 F8000.0
G0 X134.7105 Y-21.8519 F15000.0
G1 Z11.9000 F8000.0
G1 X134.6372 Y-24.1527 F12000.0
G1 X133.3970 Y-21.8519
G1 Z0.0000 F8000.0
G0 X131.3959 Y-19.9474 F15000.0
G1 Z11.9000 F8000.0
G1 X180.0000 Y-19.9474 F12000.0
G1 Z0.0000 F8000.0
G0 X180.0000 Y-24.8078 F15000.0
G1 Z11.9000 F8000.0
G1 X131.3959 Y-24.8078 F12000.0
G1 Z0.0000 F8000.0
G0 X131.3959 Y-19.9474 F15000.0
G1 Z11.9000 F8000.0
G1 X63.2677 Y-19.9474 F12000.0
G1 X0.0000 Y-19.9474 F12000.0
G1 Z0.0000 F8000.0
G0 X2.0873 Y-21.9935 F15000.0
G1 Z11.9000 F8000.0
G1 X2.0387 Y-24.0854 F12000.0
G1 Z0.0000 F8000.0
G0 X1.5522 Y-24.0854 F15000.0
G1 Z11.9000 F8000.0
G1 X2.6225 Y-24.0854 F12000.0
G1 Z0.0000 F8000.0
G0 X4.0333 Y-23.3070 F15000.0
G1 Z11.9000 F8000.0
G1 X4.1495 Y-22.6716 F12000.0
G1 X4.3834 Y-22.7013
G1 X4.0820 Y-22.6259
G1 Z0.0000 F8000.0
G0 X4.0333 Y-22.0421 F15000.0
G1 Z11.9000 F8000.0
G1 X4.5454 Y-22.9139 F12000.0
G1 X4.8924 Y-23.2904
G1 X4.5930 Y-22.9725
G1 X4.5267 Y-22.7442
G1 X4.5995 Y-22.5155
G1 X4.9577 Y-21.9935
G1 Z0.0000 F8000.0
G0 X5.6388 Y-23.0151 F15000.0
G1 Z11.9000 F8000.0
G1 X5.8180 Y-23.2803 F12000.0
G1 X5.6516 Y-22.8427
G1 X5.6888 Y-22.3418
G1 X5.7975 Y-22.1333
G1 X5.9952 Y-22.0305
G1 X6.4614 Y-22.1511
G1 X6.5418 Y-22.3461
G1 X6.3587 Y-23.3073
G1 X5.8820 Y-23.3556
G1 Z0.0000 F8000.0
G0 X6.5144 Y-22.1394 F15000.0
G1 Z11.9000 F8000.0
G1 X6.4888 Y-22.0764 F12000.0
G1 X7.0366 Y-22.0440
G1 X7.2169 Y-22.1166
G1 X7.2865 Y-23.2736
G1 X7.3182 Y-22.7961
G1 X8.0273 Y-22.7480
G1 X8.0999 Y-22.8023
G1 X8.1665 Y-23.2528
G1 X8.2368 Y-22.0279
G1 X8.8037 Y-22.0758
G1 X8.9949 Y-23.3640
G1 X9.8403 Y-23.3823
G1 X10.0534 Y-23.3090
G1 X10.2776 Y-22.1193
G1 X10.4636 Y-22.0442
G1 X11.7100 Y-22.0756
G1 X11.8171 Y-22.3881
G1 X11.7658 Y-23.2504
G1 X11.6834 Y-23.3231
G1 X11.0980 Y-23.3674
G1 X10.9491 Y-22.0451
G1 X10.9617 Y-21.4552
G1 X11.8172 Y-22.1394
G1 Z0.0000 F8000.0
G0 X9.5794 Y-22.0908 F15000.0
G1 Z11.9000 F8000.0
G1 X9.5794 Y-23.3556 F12000.0
G1 Z0.0000 F8000.0
G0 X5.0603 Y-28.9511 F15000.0
G1 Z11.9000 F8000.0
G1 X5.2360 Y-29.3082 F12000.0
G1 X5.1349 Y-30.1672
G1 X4.9446 Y-30.2714
G1 X4.5846 Y-30.2853
G1 X4.4430 Y-30.1945
G1 X4.3820 Y-29.9883
G1 X4.3986 Y-29.1093
G1 X4.5252 Y-28.9025
G1 Z0.0000 F8000.0
G0 X2.6765 Y-28.3187 F15000.0
G1 Z11.9000 F8000.0
G1 X2.6776 Y-30.0523 F12000.0
G1 X2.7618 Y-30.3356
G1 X3.2105 Y-30.3230
G1 X3.4213 Y-30.2404
G1 X3.5775 Y-29.2690
G1 X3.4912 Y-29.0444
G1 X3.1834 Y-28.9165
G1 X2.0725 Y-29.0198
G1 X1.9879 Y-29.2016
G1 X1.8830 Y-30.9489
G1 X1.8216 Y-31.0171
G1 X0.8764 Y-31.0431
G1 Z0.0000 F8000.0
G0 X0.8278 Y-30.9458 F15000.0
G1 Z11.9000 F8000.0
G1 X0.8278 Y-28.9998 F12000.0
G1 Z0.0000 F8000.0
G0 X0.0000 Y-29.7506 F15000.0
G1 Z11.9000 F8000.0
G1 X63.2677 Y-29.7506 F12000.0
G1 Z0.0000 F8000.0
G0 X63.2677 Y-34.6110 F15000.0
G1 Z11.9000 F8000.0
G1 X0.0000 Y-34.6110 F12000.0
G1 Z0.0000 F8000.0
G0 X0.8623 Y-35.6247 F15000.0
G1 Z11.9000 F8000.0
G1 X0.8623 Y-33.6882 F12000.0
G1 X0.8642 Y-34.2717
G1 X0.9374 Y-34.4749
G1 X1.7596 Y-34.6058
G1 X1.9473 Y-34.8344
G1 X1.9963 Y-35.0664
G1 X1.8376 Y-35.5173
G1 X0.9109 Y-35.7220
G1 Z0.0000 F8000.0
G0 X1.1277 Y-38.7692 F15000.0
G1 Z11.9000 F8000.0
G1 X1.2485 Y-37.2855 F12000.0
G1 X1.3778 Y-37.2571
G1 X1.2423 Y-37.1153
G1 X1.2005 Y-36.9249
G1 X2.1313 Y-38.2443
G1 X2.2752 Y-38.6402
G1 X2.2143 Y-38.3555
G1 X2.3112 Y-36.8637
G1 X2.3765 Y-36.7986
G1 X3.5982 Y-36.7476
G1 X3.7279 Y-36.8567
G1 X3.7752 Y-37.0736
G1 X3.6237 Y-37.4581
G1 X3.4591 Y-37.4337
G1 X3.7116 Y-37.6243
G1 X3.7050 Y-37.9753
G1 X3.5182 Y-38.0949
G1 X3.1073 Y-38.0574
G1 X4.4837 Y-37.9703
G1 X4.6132 Y-37.7335
G1 X5.1362 Y-37.5054
G1 X5.5347 Y-37.6862
G1 X5.6477 Y-36.8621
G1 X5.6521 Y-37.9422
G1 Z0.0000 F8000.0
G0 X4.5331 Y-37.6989 F15000.0
G1 Z11.9000 F8000.0
G1 X4.4845 Y-36.7259 F12000.0
G1 Z0.0000 F8000.0
G0 X4.4137 Y-34.8949 F15000.0
G1 Z11.9000 F8000.0
G1 X4.8884 Y-34.9530 F12000.0
G1 X5.1926 Y-34.6049
G1 X5.0824 Y-34.2942
G1 X4.8956 Y-34.2558
G1 X5.0476 Y-34.2008
G1 X5.1853 Y-33.9038
G1 X4.4508 Y-33.5373
G1 X3.9510 Y-33.5509
G1 X3.6061 Y-33.6501
G1 X2.8927 Y-33.5987
G1 X2.7695 Y-33.9061
G1 X2.8345 Y-34.7764
G1 X2.9071 Y-34.8597
G1 X3.5669 Y-34.9107
G1 X3.6840 Y-33.6787
G1 Z0.0000 F8000.0
G0 X5.9705 Y-34.8949 F15000.0
G1 Z11.9000 F8000.0
G1 X5.9705 Y-32.9412 F12000.0
G1 X6.0179 Y-33.5405
G1 X6.7034 Y-33.5605
G1 X6.8179 Y-33.6889
G1 X6.8181 Y-34.7938
G1 X6.6375 Y-34.9057
G1 X6.0191 Y-34.9922
G1 Z0.0000 F8000.0
G0 X6.8375 Y-34.6110 F15000.0
G1 Z11.9000 F8000.0
G1 X6.8375 Y-58.9131 F12000.0
G1 Z0.0000 F8000.0
G0 X0.0000 Y-58.9131 F15000.0
G1 Z11.9000 F8000.0
G1 X180.0000 Y-58.9131 F12000.0
G1 Z0.0000 F8000.0
G0 X180.0000 Y-44.3318 F15000.0
G1 Z11.9000 F8000.0
G1 X63.2677 Y-44.3318 F12000.0
G1 X0.0000 Y-44.3318 F12000.0
G1 Z0.0000 F8000.0
G0 X0.0000 Y-49.1922 F15000.0
G1 Z11.9000 F8000.0
G1 X63.2677 Y-49.1922 F12000.0
G1 Z0.0000 F8000.0
G0 X63.2677 Y-54.0526 F15000.0
G1 Z11.9000 F8000.0
G1 X0.0000 Y-54.0526 F12000.0
G1 Z0.0000 F8000.0
G0 X0.0000 Y-58.9131 F15000.0
G1 Z11.9000 F8000.0
G1 X0.0000 Y-5.3662 F12000.0
G1 Z0.0000 F8000.0
G0 X1.9053 Y-9.7865 F15000.0
G1 Z11.9000 F8000.0
G1 X2.5952 Y-9.8354 F12000.0
G1 X2.6932 Y-10.1148
G1 X2.6652 Y-10.6764
G1 X1.9451 Y-10.6788
G1 X1.7574 Y-10.7768
G1 X1.6620 Y-11.6352
G1 Z0.0000 F8000.0
G0 X2.7323 Y-11.6352 F15000.0
G1 Z11.9000 F8000.0
G1 X2.7323 Y-10.7108 F12000.0
G1 Z0.0000 F8000.0
G0 X3.3648 Y-9.8351 F15000.0
G1 Z11.9000 F8000.0
G1 X3.3704 Y-10.8843 F12000.0
G1 X3.4493 Y-11.0675
G1 X4.3613 Y-11.0655
G1 X4.4905 Y-10.9277
G1 X3.9972 Y-9.7865
G1 Z0.0000 F8000.0
G0 X4.6297 Y-9.7865 F15000.0
G1 Z11.9000 F8000.0
G1 X4.6284 Y-10.6821 F12000.0
G1 X4.5324 Y-11.0027
G1 Z0.0000 F8000.0
G0 X5.2621 Y-11.1000 F15000.0
G1 Z11.9000 F8000.0
G1 X5.6286 Y-11.0905 F12000.0
G1 X5.7629 Y-11.4011
G1 X5.7202 Y-11.5913
G1 X5.7026 Y-11.1468
G1 X6.0423 Y-9.9592
G1 X5.7512 Y-9.8171
G1 X5.4068 Y-9.8513
G1 X5.3104 Y-10.0444
G1 X5.2693 Y-10.9265
G1 X5.3289 Y-11.4262
G1 X5.4255 Y-11.6188
G1 X5.6513 Y-11.6838
G1 Z0.0000 F8000.0
G0 X4.3792 Y-12.3723 F15000.0
G1 Z11.9000 F8000.0
G1 X3.4793 Y-13.0883 F12000.0
G1 X3.4063 Y-13.8318
G1 Z0.0000 F8000.0
G0 X3.4063 Y-12.3723 F15000.0
G1 Z11.9000 F8000.0
G1 X3.4852 Y-12.9824 F12000.0
G1 X3.8837 Y-13.2268
G1 X4.3682 Y-13.7884
G1 X5.7457 Y-13.8419
G1 X5.5638 Y-13.8556
G1 X5.3482 Y-13.7561
G1 X5.2454 Y-13.5479
G1 X5.1823 Y-12.6744
G1 X5.3934 Y-12.4275
G1 X5.7589 Y-12.3907
G1 X5.9525 Y-12.4942
G1 X6.1026 Y-12.9518
G1 X6.0080 Y-13.7531
G1 X6.8170 Y-13.7438
G1 X6.8604 Y-12.5130
G1 X6.8806 Y-13.0573
G1 X6.9399 Y-13.1213
G1 X7.7483 Y-13.0533
G1 X7.7871 Y-12.5170
G1 X7.8718 Y-13.7375
G1 X8.5288 Y-13.7268
G1 X8.5825 Y-12.5169
G1 X8.6403 Y-12.4522
G1 X9.2182 Y-12.4918
G1 X9.2909 Y-12.6767
G1 X9.2928 Y-13.8318
G1 Z0.0000 F8000.0
G0 X8.6118 Y-13.8804 F15000.0
G1 Z11.9000 F8000.0
G1 X9.7985 Y-13.8018 F12000.0
G1 X9.9308 Y-13.4930
G1 X10.0246 Y-12.4117
G1 X10.4932 Y-12.4087
G1 X10.6755 Y-12.4911
G1 X10.7487 Y-13.8124
G1 X11.2698 Y-13.8421
G1 X11.4927 Y-13.7716
G1 X11.5887 Y-13.5686
G1 X11.6600 Y-12.9422
G1 X11.4957 Y-12.4253
G1 X10.7322 Y-12.3480
G1 X10.7037 Y-11.6912
G1 Z0.0000 F8000.0
G0 X16.5584 Y-5.3662 F15000.0
G1 Z11.9000 F8000.0
G1 X16.5584 Y-58.9131 F12000.0
G1 Z0.0000 F8000.0
G0 X18.6113 Y-68.6373 F15000.0
G1 Z11.9000 F8000.0
G1 X18.6192 Y-70.1845 F12000.0
G1 X18.7786 Y-71.9140
G1 X18.8513 Y-71.9479
G1 X20.1666 Y-71.5656
G1 X20.3604 Y-71.4450
G1 X20.4102 Y-71.2167
G1 X20.3430 Y-70.6199
G1 X18.6599 Y-70.1455
G1 Z0.0000 F8000.0
G0 X17.2491 Y-70.9239 F15000.0
G1 Z11.9000 F8000.0
G1 X17.3895 Y-71.4176 F12000.0
G1 X16.9023 Y-71.4181
G1 X17.2491 Y-71.9942
G1 Z0.0000 F8000.0
G0 X16.5193 Y-71.9455 F15000.0
G1 Z11.9000 F8000.0
G1 X16.8532 Y-71.4663 F12000.0
G1 X16.5193 Y-70.9239
G1 Z0.0000 F8000.0
G0 X11.6544 Y-71.8969 F15000.0
G1 Z11.9000 F8000.0
G1 X10.3221 Y-71.8605 F12000.0
G1 X10.2338 Y-70.5637
G1 X11.2376 Y-70.4218
G1 X11.6079 Y-70.0735
G1 X11.6057 Y-68.8519
G1 X11.3011 Y-68.5951
G1 X10.1949 Y-68.4914
G1 Z0.0000 F8000.0
G0 X21.7248 Y-68.8806 F15000.0
G1 Z11.9000 F8000.0
G1 X22.0181 Y-68.7127 F12000.0
G1 X23.1306 Y-68.8510
G1 X23.4629 Y-68.7038
G1 X25.1043 Y-68.6556
G1 X25.3337 Y-68.7186
G1 X25.4824 Y-69.0164
G1 X25.3164 Y-69.7338
G1 X25.4244 Y-69.8734
G1 X25.4766 Y-69.6078
G1 X25.4908 Y-70.5461
G1 X25.2427 Y-70.7962
G1 X24.4978 Y-70.8266
G1 Z0.0000 F8000.0
G0 X25.4708 Y-69.5130 F15000.0
G1 Z11.9000 F8000.0
G1 X26.6548 Y-68.7035 F12000.0
G1 X26.6880 Y-70.1603
G1 X26.7680 Y-70.4339
G1 X26.7064 Y-70.6709
G1 X26.8041 Y-70.3398
G1 X27.6304 Y-69.8130
G1 X28.2100 Y-70.2291
G1 X28.5437 Y-70.6889
G1 X28.4235 Y-70.3573
G1 X27.9278 Y-69.9585
G1 X28.4496 Y-70.3215
G1 X28.6060 Y-68.8155
G1 X29.6766 Y-69.7197
G1 X29.8073 Y-70.5492
G1 X30.0306 Y-70.7880
G1 X30.8790 Y-70.7051
G1 X31.0816 Y-70.6046
G1 X31.1655 Y-70.3836
G1 X31.1324 Y-69.8285
G1 X29.7936 Y-69.7283
G1 X29.7351 Y-69.6529
G1 X29.8615 Y-68.8186
G1 X30.1915 Y-68.7144
G1 X32.2950 Y-68.6239
G1 X32.4224 Y-70.7857
G1 X33.5173 Y-70.7641
G1 X33.7121 Y-70.6340
G1 X33.7874 Y-70.4042
G1 X33.8002 Y-69.0236
G1 X33.5750 Y-68.7775
G1 X32.5747 Y-68.6576
G1 X32.3722 Y-68.5716
G1 X32.3304 Y-67.5184
G1 Z0.0000 F8000.0
G0 X38.6549 Y-68.9779 F15000.0
G1 Z11.9000 F8000.0
G1 X38.6364 Y-68.8006 F12000.0
G1 X39.8183 Y-68.6403
G1 X41.2616 Y-70.7497
G1 X41.3600 Y-68.7026
G1 X41.5505 Y-68.6387
G1 X42.4168 Y-68.6686
G1 X43.1076 Y-69.6771
G1 X43.8235 Y-69.7741
G1 X43.8864 Y-69.8413
G1 X43.8647 Y-70.7876
G1 X42.7752 Y-70.8027
G1 X42.5301 Y-70.5533
G1 X42.5004 Y-70.1841
G1 X42.6530 Y-69.8703
G1 X43.1221 Y-69.7189
G1 X43.8483 Y-69.7208
G1 X43.9577 Y-68.6373
G1 Z0.0000 F8000.0
G0 X48.3361 Y-68.6373 F15000.0
G1 Z11.9000 F8000.0
G1 X47.5951 Y-68.7342 F12000.0
G1 X47.4196 Y-68.8850
G1 X47.3266 Y-69.2334
G1 X47.4621 Y-70.5972
G1 X47.6262 Y-70.7680
G1 X47.5307 Y-70.7176
G1 X47.8000 Y-70.8277
G1 X48.3361 Y-70.8752
G1 Z0.0000 F8000.0
G0 X49.5524 Y-68.6373 F15000.0
G1 Z11.9000 F8000.0
G1 X49.6427 Y-70.7852 F12000.0
G1 X50.7371 Y-70.7645
G1 X50.9326 Y-70.6356
G1 X51.0167 Y-70.2810
G1 X51.0605 Y-68.6373
G1 Z0.0000 F8000.0
G0 X52.1794 Y-68.5887 F15000.0
G1 Z11.9000 F8000.0
G1 X52.2670 Y-70.7830 F12000.0
G1 X53.1108 Y-70.7898
G1 X53.5565 Y-70.6389
G1 X53.6355 Y-70.4112
G1 X53.6514 Y-69.0302
G1 X53.4300 Y-68.7799
G1 X52.2254 Y-68.5761
G1 X52.1794 Y-67.5184
G1 Z0.0000 F8000.0
G0 X54.9038 Y-68.8806 F15000.0
G1 Z11.9000 F8000.0
G1 X55.1971 Y-68.7127 F12000.0
G1 X56.1904 Y-68.8561
G1 X56.6065 Y-68.6860
G1 Z0.0000 F8000.0
G0 X57.4822 Y-70.7779 F15000.0
G1 Z11.9000 F8000.0
G1 X57.6072 Y-71.8543 F12000.0
G1 X57.8165 Y-71.9423
G1 X58.2683 Y-71.8177
G1 X58.3372 Y-71.5975
G1 X58.2265 Y-71.0020
G1 X57.5533 Y-70.7507
G1 X57.4451 Y-69.1523
G1 X57.5857 Y-68.8230
G1 X57.7862 Y-68.6970
G1 X58.0216 Y-68.6650
G1 X58.7299 Y-68.7781
G1 X58.8427 Y-68.8779
G1 X58.9347 Y-69.1983
G1 X58.8860 Y-70.4587
G1 X58.7730 Y-70.6596
G1 X58.2606 Y-70.9725
G1 Z0.0000 F8000.0
G0 X57.4822 Y-71.7023 F15000.0
G1 Z11.9000 F8000.0
G1 X57.5309 Y-71.7996 F12000.0
G1 Z0.0000 F8000.0
G0 X55.1471 Y-70.8266 F15000.0
G1 Z11.9000 F8000.0
G1 X56.2323 Y-70.7721 F12000.0
G1 X56.3076 Y-69.0384
G1 X56.2254 Y-68.8300
G1 X56.0122 Y-68.7281
G1 X55.1561 Y-68.7049
G1 X54.8993 Y-68.9742
G1 X54.8196 Y-69.1941
G1 X54.9292 Y-70.5691
G1 X55.0732 Y-70.7690
G1 X54.9038 Y-70.5833
G1 Z0.0000 F8000.0
G0 X60.0120 Y-70.7293 F15000.0
G1 Z11.9000 F8000.0
G1 X60.1093 Y-69.6103 F12000.0
G1 Z0.0000 F8000.0
G0 X60.6931 Y-69.8536 F15000.0
G1 Z11.9000 F8000.0
G1 X61.5201 Y-68.6373 F12000.0
G1 Z0.0000 F8000.0
G0 X60.0120 Y-68.7346 F15000.0
G1 Z11.9000 F8000.0
G1 X60.1452 Y-69.5881 F12000.0
G1 X60.6851 Y-69.8717
G1 X61.4349 Y-70.7207
G1 X61.6414 Y-70.8211
G1 X62.6222 Y-70.7965
G1 X62.7881 Y-68.9720
G1 X62.8984 Y-68.7822
G1 X63.0915 Y-68.6973
G1 X63.2261 Y-68.8451
G1 X64.1959 Y-70.8266
G1 Z0.0000 F8000.0
G0 X63.2677 Y-58.9131 F15000.0
G1 Z11.9000 F8000.0
G1 X63.2677 Y-5.3662 F12000.0
G1 Z0.0000 F8000.0
G0 X63.2677 Y-10.2266 F15000.0
G1 Z11.9000 F8000.0
G1 X0.0000 Y-10.2266 F12000.0
G1 Z0.0000 F8000.0
G0 X0.8278 Y-13.6372 F15000.0
G1 Z11.9000 F8000.0
G1 X1.9368 Y-13.6244 F12000.0
G1 X1.9975 Y-14.3765
G1 X2.0024 Y-12.6270
G1 X1.9211 Y-12.4478
G1 X0.8629 Y-12.4754
G1 X0.8278 Y-14.4642
G1 Z0.0000 F8000.0
G0 X0.0000 Y-15.0870 F15000.0
G1 Z11.9000 F8000.0
G1 X63.2677 Y-15.0870 F12000.0
G1 Z0.0000 F8000.0
G0 X69.4654 Y-14.6242 F15000.0
G1 Z11.9000 F8000.0
G1 X69.8546 Y-15.0134 F12000.0
G1 Z0.0000 F8000.0
G0 X70.7789 Y-15.0620 F15000.0
G1 Z11.9000 F8000.0
G1 X69.9084 Y-14.9826 F12000.0
G1 X69.4694 Y-14.5522
G1 X69.4195 Y-12.4246
G1 X69.6410 Y-11.9969
G1 X69.8484 Y-11.8718
G1 X71.9524 Y-11.8886
G1 X72.0616 Y-13.8510
G1 X72.2263 Y-13.9493
G1 X73.1077 Y-13.9847
G1 X73.9525 Y-13.8488
G1 X74.1397 Y-13.4078
G1 X74.1844 Y-11.8025
G1 Z0.0000 F8000.0
G0 X73.0654 Y-11.8998 F15000.0
G1 Z11.9000 F8000.0
G1 X73.0168 Y-13.9917 F12000.0
G1 Z0.0000 F8000.0
G0 X75.5952 Y-13.9431 F15000.0
G1 Z11.9000 F8000.0
G1 X76.7141 Y-13.9431 F12000.0
G1 X76.7628 Y-11.9971
G1 X76.5195 Y-11.8511
G1 X75.5952 Y-11.8511
G1 X75.3033 Y-12.1430
G1 X75.5952 Y-13.9431
G1 Z0.0000 F8000.0
G0 X75.4979 Y-11.8998 F15000.0
G1 Z11.9000 F8000.0
G1 X76.7381 Y-11.9730 F12000.0
G1 X77.1977 Y-11.8222
G1 X77.9060 Y-11.9458
G1 X78.2468 Y-12.9247
G1 X78.2082 Y-12.8055
G1 X78.3817 Y-13.1532
G1 X79.2755 Y-13.8464
G1 X79.3412 Y-11.8025
G1 Z0.0000 F8000.0
G0 X80.4602 Y-12.9214 F15000.0
G1 Z11.9000 F8000.0
G1 X81.5765 Y-12.7882 F12000.0
G1 X81.8053 Y-12.5649
G1 X81.6410 Y-12.7698
G1 X81.8673 Y-12.4289
G1 X81.8287 Y-12.0843
G1 X81.5383 Y-11.8974
G1 X80.5498 Y-11.8760
G1 X80.4844 Y-11.9344
G1 X80.4602 Y-13.8944
G1 Z0.0000 F8000.0
G0 X81.8710 Y-12.1430 F15000.0
G1 Z11.9000 F8000.0
G1 X81.8223 Y-12.0457 F12000.0
G1 Z0.0000 F8000.0
G0 X85.1305 Y-13.6512 F15000.0
G1 Z11.9000 F8000.0
G1 X86.4441 Y-13.3106 F12000.0
G1 Z0.0000 F8000.0
G0 X86.4927 Y-13.2133 F15000.0
G1 Z11.9000 F8000.0
G1 X86.5292 Y-12.3306 F12000.0
G1 X86.3456 Y-11.9215
G1 X85.5795 Y-11.8201
G1 X85.3575 Y-11.8807
G1 X85.2570 Y-12.0803
G1 X85.1050 Y-13.3337
G1 X85.1837 Y-13.9398
G1 X85.2973 Y-14.1557
G1 X86.1035 Y-15.0134
G1 Z0.0000 F8000.0
G0 X89.0225 Y-15.0620 F15000.0
G1 Z11.9000 F8000.0
G1 X87.7841 Y-14.9896 F12000.0
G1 X87.7244 Y-14.9182
G1 X87.6966 Y-13.7035
G1 X88.7469 Y-13.4778
G1 X89.0383 Y-13.1001
G1 X89.1052 Y-12.6050
G1 X89.0348 Y-12.2447
G1 X88.7771 Y-11.9011
G1 X87.7576 Y-11.8025
G1 Z0.0000 F8000.0
G0 X90.2387 Y-11.8511 F15000.0
G1 Z11.9000 F8000.0
G1 X90.3271 Y-14.9741 F12000.0
G1 X91.6009 Y-15.0620
G1 Z0.0000 F8000.0
G0 X94.9091 Y-11.8511 F15000.0
G1 Z11.9000 F8000.0
G1 X94.9752 Y-14.9182 F12000.0
G1 X95.0334 Y-14.9896
G1 X96.2713 Y-15.0620
G1 Z0.0000 F8000.0
G0 X97.4875 Y-14.5269 F15000.0
G1 Z11.9000 F8000.0
G1 X97.8280 Y-14.9647 F12000.0
G1 Z0.0000 F8000.0
G0 X97.4875 Y-12.2890 F15000.0
G1 Z11.9000 F8000.0
G1 X97.8568 Y-14.9071 F12000.0
G1 X98.1737 Y-15.0324
G1 X98.7894 Y-14.9981
G1 X98.9379 Y-14.6978
G1 X99.2492 Y-12.3315
G1 X98.8593 Y-11.8736
G1 X97.9981 Y-11.8388
G1 X97.5606 Y-12.2104
G1 X97.9253 Y-11.8511
G1 Z0.0000 F8000.0
G0 X101.7687 Y-11.8025 F15000.0
G1 Z11.9000 F8000.0
G1 X100.8300 Y-11.8750 F12000.0
G1 X100.6247 Y-12.0033
G1 X100.4090 Y-12.4335
G1 X100.4494 Y-14.5697
G1 X100.7852 Y-14.9317
G1 X101.0121 Y-15.0162
G1 X101.7687 Y-15.0620
G1 Z0.0000 F8000.0
G0 X103.0822 Y-15.0620 F15000.0
G1 Z11.9000 F8000.0
G1 X104.6876 Y-15.0620 F12000.0
G1 Z0.0000 F8000.0
G0 X103.8119 Y-15.0620 F15000.0
G1 Z11.9000 F8000.0
G1 X103.9092 Y-11.8998 F12000.0
G1 Z0.0000 F8000.0
G0 X106.1958 Y-14.6728 F15000.0
G1 Z11.9000 F8000.0
G1 X106.5232 Y-14.7651 F12000.0
G1 X106.6312 Y-12.0739
G1 X106.6962 Y-11.8850
G1 X108.0931 Y-11.8511
G1 Z0.0000 F8000.0
G0 X110.4283 Y-11.8025 F15000.0
G1 Z11.9000 F8000.0
G1 X111.4176 Y-12.0108 F12000.0
G1 X111.6228 Y-12.1211
G1 X111.7270 Y-12.3346
G1 X111.6658 Y-13.1955
G1 X111.4340 Y-13.4687
G1 X110.3724 Y-13.6886
G1 X110.4403 Y-14.9835
G1 X111.6932 Y-15.0620
G1 Z0.0000 F8000.0
G0 X113.2500 Y-15.0134 F15000.0
G1 Z11.9000 F8000.0
G1 X113.7364 Y-15.0620 F12000.0
G1 X114.2229 Y-14.8188
G1 X114.3202 Y-14.6242
G1 X114.3202 Y-12.1917
G1 X114.2229 Y-11.9971
G1 X113.3473 Y-11.8025
G1 X112.9094 Y-12.1917
G1 X113.2500 Y-15.0134
G1 Z0.0000 F8000.0
G0 X113.1527 Y-11.8998 F15000.0
G1 Z11.9000 F8000.0
G1 X113.2500 Y-11.8511 F12000.0
G1 Z0.0000 F8000.0
G0 X111.5959 Y-12.0457 F15000.0
G1 Z11.9000 F8000.0
G1 X111.4013 Y-11.8511 F12000.0
G1 Z0.0000 F8000.0
G0 X115.5851 Y-12.8728 F15000.0
G1 Z11.9000 F8000.0
G1 X116.8500 Y-12.8728 F12000.0
G1 Z0.0000 F8000.0
G0 X118.6501 Y-11.8998 F15000.0
G1 Z11.9000 F8000.0
G1 X119.3049 Y-14.3195 F12000.0
G1 X119.3293 Y-15.0226
G1 X118.1436 Y-14.9691
G1 X118.0663 Y-14.7701
G1 Z0.0000 F8000.0
G0 X120.8393 Y-13.2620 F15000.0
G1 Z11.9000 F8000.0
G1 X120.9410 Y-13.1750 F12000.0
G1 X121.6915 Y-13.2024
G1 X121.8792 Y-13.1455
G1 X121.9569 Y-11.9469
G1 X122.2768 Y-12.5016
G1 X120.7638 Y-12.6081
G1 X120.8002 Y-13.1576
G1 X121.3744 Y-15.0620
G1 Z0.0000 F8000.0
G0 X108.0931 Y-15.0134 F15000.0
G1 Z11.9000 F8000.0
G1 X108.5796 Y-15.0620 F12000.0
G1 X109.0661 Y-14.8188
G1 X109.1634 Y-14.6242
G1 X109.1634 Y-12.1917
G1 X109.0661 Y-11.9971
G1 X108.1904 Y-11.8025
G1 X107.7526 Y-12.1917
G1 X108.0931 Y-15.0134
G1 Z0.0000 F8000.0
G0 X108.4136 Y-30.7146 F15000.0
G1 Z11.9000 F8000.0
G1 X108.3937 Y-32.6438 F12000.0
G1 X108.3350 Y-32.7235
G1 X105.7065 Y-32.7145
G1 X105.5231 Y-32.7810
G1 X105.4514 Y-34.8571
G1 X103.3719 Y-34.7740
G1 X103.3185 Y-34.6970
G1 X103.2095 Y-30.7934
G1 X103.1185 Y-30.6089
G1 X100.8842 Y-30.7673
G1 X100.6214 Y-31.0093
G1 X100.5366 Y-31.2349
G1 X100.3865 Y-34.8984
G1 Z0.0000 F8000.0
G0 X98.0999 Y-34.9957 F15000.0
G1 Z11.9000 F8000.0
G1 X96.7418 Y-32.8780 F12000.0
G1 X95.7666 Y-32.7112
G1 X95.1258 Y-32.7125
G1 X95.7606 Y-32.7535
G1 X95.1638 Y-32.7375
G1 X94.9809 Y-32.6147
G1 X94.8778 Y-33.2272
G1 X93.9708 Y-34.5688
G1 X94.9702 Y-32.9898
G1 X94.9546 Y-32.5063
G1 X93.8256 Y-30.7496
G1 X94.5826 Y-31.8544
G1 X94.7585 Y-31.7854
G1 X95.8683 Y-30.8354
G1 X96.0021 Y-32.7186
G1 X96.5935 Y-32.7538
G1 X95.9476 Y-32.7611
G1 X95.9416 Y-34.6839
G1 X97.1915 Y-33.7642
G1 X97.1729 Y-33.5691
G1 X96.7894 Y-32.9207
G1 X96.7568 Y-32.7292
G1 X97.0255 Y-32.1782
G1 X98.0026 Y-30.7632
G1 Z0.0000 F8000.0
G0 X91.5809 Y-30.6173 F15000.0
G1 Z11.9000 F8000.0
G1 X91.5809 Y-34.8011 F12000.0
G1 Z0.0000 F8000.0
G0 X88.6619 Y-34.8984 F15000.0
G1 Z11.9000 F8000.0
G1 X88.8006 Y-31.3596 F12000.0
G1 X88.8969 Y-31.0093
G1 X89.2748 Y-30.7259
G1 X91.5099 Y-30.5296
G1 X91.5564 Y-30.4423
G1 X91.4464 Y-29.0667
G1 X91.1996 Y-28.6550
G1 X90.9839 Y-28.5614
G1 X89.0998 Y-28.3794
G1 Z0.0000 F8000.0
G0 X83.5537 Y-28.4280 F15000.0
G1 Z11.9000 F8000.0
G1 X83.6701 Y-34.8555 F12000.0
G1 X83.7321 Y-34.9174
G1 X85.9634 Y-34.7565
G1 X86.2354 Y-34.5147
G1 X86.4614 Y-31.7597
G1 X86.2644 Y-31.0424
G1 X86.1032 Y-30.8534
G1 X85.8909 Y-30.7548
G1 X83.6024 Y-30.5686
G1 Z0.0000 F8000.0
G0 X81.3158 Y-30.7146 F15000.0
G1 Z11.9000 F8000.0
G1 X77.7989 Y-37.0933 F12000.0
G1 X77.6671 Y-30.6173
G1 Z0.0000 F8000.0
G0 X80.9841 Y-37.0491 F15000.0
G1 Z11.9000 F8000.0
G1 X84.9203 Y-37.1375 F12000.0
G1 X85.1415 Y-37.2260
G1 Z0.0000 F8000.0
G0 X105.4947 Y-32.7578 F15000.0
G1 Z11.9000 F8000.0
G1 X105.4947 Y-30.6173 F12000.0
G1 Z0.0000 F8000.0
G0 X108.4136 Y-32.8065 F15000.0
G1 Z11.9000 F8000.0
G1 X108.4136 Y-34.8011 F12000.0
G1 Z0.0000 F8000.0
G0 X110.7488 Y-31.1524 F15000.0
G1 Z11.9000 F8000.0
G1 X110.6131 Y-31.7611 F12000.0
G1 X110.7920 Y-34.3993
G1 X111.0977 Y-34.7511
G1 X113.3324 Y-34.9210
G1 X113.4011 Y-34.8663
G1 X113.4932 Y-31.1201
G1 X113.3199 Y-30.9992
G1 X111.8618 Y-30.5949
G1 X111.1343 Y-30.7483
G1 X110.8636 Y-30.9836
G1 X110.9434 Y-30.8605
G1 Z0.0000 F8000.0
G0 X113.5218 Y-31.0551 F15000.0
G1 Z11.9000 F8000.0
G1 X114.1056 Y-30.6659 F12000.0
G1 Z0.0000 F8000.0
G0 X131.3959 Y-39.4714 F15000.0
G1 Z11.9000 F8000.0
G1 X145.9771 Y-39.4714 F12000.0
G1 X180.0000 Y-39.4714 F12000.0
G1 Z0.0000 F8000.0
G0 X177.8824 Y-41.2769 F15000.0
G1 Z11.9000 F8000.0
G1 X177.9310 Y-41.3742 F12000.0
G1 Z0.0000 F8000.0
G0 X177.8824 Y-42.7364 F15000.0
G1 Z11.9000 F8000.0
G1 X177.6323 Y-42.9273 F12000.0
G1 X177.7948 Y-42.8193
G1 X177.8915 Y-42.6165
G1 X177.9228 Y-41.3759
G1 X177.7650 Y-41.1970
G1 X177.0504 Y-41.2551
G1 X176.9108 Y-41.5490
G1 X176.9445 Y-42.6568
G1 X177.0654 Y-42.7965
G1 X177.4734 Y-42.9937
G1 X177.1526 Y-43.6121
G1 Z0.0000 F8000.0
G0 X177.1526 Y-43.7094 F15000.0
G1 Z11.9000 F8000.0
G1 X177.9796 Y-43.7094 F12000.0
G1 Z0.0000 F8000.0
G0 X175.9850 Y-41.3256 F15000.0
G1 Z11.9000 F8000.0
G1 X175.9092 Y-42.8116 F12000.0
G1 X175.3447 Y-42.8472
G1 X175.0186 Y-42.7562
G1 X174.9303 Y-42.5936
G1 X174.8794 Y-41.5949
G1 X174.9504 Y-41.3671
G1 X175.1238 Y-41.2316
G1 X175.4903 Y-41.1590
G1 X176.1800 Y-41.1904
G1 X175.8877 Y-41.2283
G1 Z0.0000 F8000.0
G0 X174.0390 Y-41.2283 F15000.0
G1 Z11.9000 F8000.0
G1 X173.9754 Y-42.6142 F12000.0
G1 X173.7373 Y-42.8624
G1 X172.5046 Y-42.8544
G1 X172.4453 Y-42.7831
G1 X172.3363 Y-41.2283
G1 Z0.0000 F8000.0
G0 X171.5093 Y-41.2283 F15000.0
G1 Z11.9000 F8000.0
G1 X171.5093 Y-42.7851 F12000.0
G1 Z0.0000 F8000.0
G0 X170.6822 Y-42.7851 F15000.0
G1 Z11.9000 F8000.0
G1 X170.7023 Y-41.2054 F12000.0
G1 X171.4520 Y-41.1737
G1 X170.4476 Y-41.1563
G1 X169.9743 Y-41.2743
G1 X169.8612 Y-41.4572
G1 X169.8065 Y-42.7851
G1 Z0.0000 F8000.0
G0 X168.9308 Y-42.8824 F15000.0
G1 Z11.9000 F8000.0
G1 X168.4296 Y-42.8318 F12000.0
G1 X168.2336 Y-42.7390
G1 X168.1650 Y-42.5667
G1 X168.2036 Y-41.3359
G1 X168.3926 Y-41.2217
G1 X168.9308 Y-41.1310
G1 Z0.0000 F8000.0
G0 X167.2281 Y-41.3256 F15000.0
G1 Z11.9000 F8000.0
G1 X167.1523 Y-42.8116 F12000.0
G1 X166.5878 Y-42.8472
G1 X166.2617 Y-42.7562
G1 X166.1604 Y-42.4765
G1 X166.1970 Y-41.3608
G1 X166.3714 Y-41.2299
G1 X166.7387 Y-41.1582
G1 X167.4256 Y-41.1910
G1 X167.2008 Y-41.2393
G1 X167.0335 Y-41.1796
G1 Z0.0000 F8000.0
G0 X165.2821 Y-41.2283 F15000.0
G1 Z11.9000 F8000.0
G1 X165.2821 Y-43.6121 F12000.0
G1 Z0.0000 F8000.0
G0 X164.6983 Y-42.6878 F15000.0
G1 Z11.9000 F8000.0
G1 X164.9325 Y-43.0553 F12000.0
G1 X164.4603 Y-42.5035
G1 X163.6723 Y-43.1389
G1 X163.5956 Y-43.5201
G1 X163.5794 Y-41.2283
G1 Z0.0000 F8000.0
G0 X162.5355 Y-44.3318 F15000.0
G1 Z11.9000 F8000.0
G1 X162.5355 Y-24.8078 F12000.0
G1 Z0.0000 F8000.0
G0 X162.6698 Y-23.3257 F15000.0
G1 Z11.9000 F8000.0
G1 X162.1299 Y-23.1681 F12000.0
G1 X161.9634 Y-23.0236
G1 X161.9423 Y-22.1494
G1 X162.0187 Y-21.9354
G1 X162.5937 Y-21.7518
G1 X162.7797 Y-21.8056
G1 X162.9367 Y-22.1528
G1 X162.7671 Y-23.2770
G1 Z0.0000 F8000.0
G0 X164.2266 Y-24.1527 F15000.0
G1 Z11.9000 F8000.0
G1 X163.7401 Y-23.3257 F12000.0
G1 X164.8104 Y-22.0122
G1 X164.7131 Y-21.8176
G1 X164.4698 Y-21.7203
G1 X163.8374 Y-21.9149
G1 X163.7401 Y-22.3041
G1 X163.8374 Y-23.2770
G1 X164.4212 Y-23.9581
G1 X164.2266 Y-24.1527
G1 Z0.0000 F8000.0
G0 X161.1616 Y-21.8176 F15000.0
G1 Z11.9000 F8000.0
G1 X161.0071 Y-23.1726 F12000.0
G1 X160.2985 Y-23.3231
G1 X159.6880 Y-23.3025
G1 X159.6213 Y-23.2386
G1 X159.5436 Y-21.8963
G1 X160.1112 Y-21.7841
G1 X160.3007 Y-21.8332
G1 X160.2859 Y-23.3257
G1 Z0.0000 F8000.0
G0 X158.6805 Y-23.3257 F15000.0
G1 Z11.9000 F8000.0
G1 X158.1852 Y-23.2662 F12000.0
G1 X158.0406 Y-23.1604
G1 X157.9188 Y-22.3229
G1 X158.0639 Y-21.8661
G1 X158.6805 Y-21.7203
G1 Z0.0000 F8000.0
G0 X157.1724 Y-23.2284 F15000.0
G1 Z11.9000 F8000.0
G1 X156.4436 Y-21.7945 F12000.0
G1 X156.1749 Y-21.9297
G1 X156.0622 Y-22.4047
G1 X156.1021 Y-23.2284
G1 Z0.0000 F8000.0
G0 X155.2750 Y-21.7689 F15000.0
G1 Z11.9000 F8000.0
G1 X155.2017 Y-24.0698 F12000.0
G1 X153.9615 Y-21.7689
G1 Z0.0000 F8000.0
G0 X151.4142 Y-19.9474 F15000.0
G1 Z11.9000 F8000.0
G1 X151.4142 Y-24.8078 F12000.0
G1 Z0.0000 F8000.0
G0 X145.9771 Y-24.8078 F15000.0
G1 Z11.9000 F8000.0
G1 X145.9771 Y-44.3318 F12000.0
G1 Z0.0000 F8000.0
G0 X149.0749 Y-43.7094 F15000.0
G1 Z11.9000 F8000.0
G1 X149.1654 Y-43.2539 F12000.0
G1 X149.4693 Y-43.0237
G1 X149.0749 Y-41.2769
G1 Z0.0000 F8000.0
G0 X149.7074 Y-42.6878 F15000.0
G1 Z11.9000 F8000.0
G1 X149.5673 Y-42.9635 F12000.0
G1 X150.0089 Y-42.7029
G1 X150.4274 Y-43.1029
G1 X149.9598 Y-42.6318
G1 X149.7949 Y-42.6703
G1 X150.1509 Y-42.7937
G1 X150.6600 Y-43.3037
G1 X150.7550 Y-43.6072
G1 X150.6882 Y-43.1417
G1 X150.7777 Y-41.3256
G1 Z0.0000 F8000.0
G0 X152.4804 Y-41.2769 F15000.0
G1 Z11.9000 F8000.0
G1 X151.7606 Y-41.3717 F12000.0
G1 X151.6539 Y-41.6947
G1 X151.6820 Y-42.6940
G1 X151.7787 Y-42.8137
G1 X152.6647 Y-41.4497
G1 X152.5699 Y-41.3234
G1 X152.8210 Y-41.3742
G1 Z0.0000 F8000.0
G0 X154.3777 Y-41.2283 F15000.0
G1 Z11.9000 F8000.0
G1 X153.6684 Y-41.3979 F12000.0
G1 X153.6013 Y-42.5019
G1 X153.6851 Y-42.7911
G1 X154.3777 Y-42.9310
G1 Z0.0000 F8000.0
G0 X156.0805 Y-42.9310 F15000.0
G1 Z11.9000 F8000.0
G1 X155.5792 Y-42.8805 F12000.0
G1 X155.3832 Y-42.7876
G1 X155.3146 Y-42.6154
G1 X155.3042 Y-41.6121
G1 X155.3749 Y-41.3953
G1 X156.0805 Y-41.2283
G1 Z0.0000 F8000.0
G0 X157.9292 Y-41.3256 F15000.0
G1 Z11.9000 F8000.0
G1 X157.9978 Y-41.4035 F12000.0
G1 X157.9632 Y-41.5958
G1 X157.1590 Y-42.8193
G1 X156.9990 Y-42.5199
G1 X157.0026 Y-41.5198
G1 X157.2668 Y-41.3073
G1 X157.6382 Y-41.2495
G1 X158.1724 Y-41.3742
G1 Z0.0000 F8000.0
G0 X169.5776 Y-34.3167 F15000.0
G1 Z11.9000 F8000.0
G1 X169.9169 Y-34.5599 F12000.0
G1 X170.1457 Y-34.5358
G1 X170.2587 Y-31.8843
G1 Z0.0000 F8000.0
G0 X173.0804 Y-31.8843 F15000.0
G1 Z11.9000 F8000.0
G1 X172.9464 Y-34.5762 F12000.0
G1 X172.7767 Y-34.5791
G1 X172.3993 Y-34.3167
G1 Z0.0000 F8000.0
G0 X173.2120 Y-41.2283 F15000.0
G1 Z11.9000 F8000.0
G1 X173.1147 Y-42.8824 F12000.0
G1 Z0.0000 F8000.0
G0 X174.2733 Y-23.6455 F15000.0
G1 Z11.9000 F8000.0
G1 X174.2446 Y-23.7067 F12000.0
G1 X174.2733 Y-22.2833
G1 Z0.0000 F8000.0
G0 X141.1167 Y-24.8078 F15000.0
G1 Z11.9000 F8000.0
G1 X141.1167 Y-39.4714 F12000.0
G1 Z0.0000 F8000.0
G0 X131.3959 Y-44.3318 F15000.0
G1 Z11.9000 F8000.0
G1 X131.3959 Y-5.3662 F12000.0
G1 Z0.0000 F8000.0
G0 X139.7700 Y-21.8519 F15000.0
G1 Z11.9000 F8000.0
G1 X139.7214 Y-23.4087 F12000.0
G1 Z0.0000 F8000.0
G0 X138.1160 Y-23.4087 F15000.0
G1 Z11.9000 F8000.0
G1 X137.6207 Y-23.3492 F12000.0
G1 X137.4760 Y-23.2434
G1 X137.3542 Y-22.4059
G1 X137.4994 Y-21.9491
G1 X138.0865 Y-21.8162
G1 X138.9204 Y-21.9217
G1 X139.0652 Y-23.3401
G1 X139.6334 Y-23.4083
G1 X140.2594 Y-23.3389
G1 X140.4553 Y-23.2371
G1 X140.5971 Y-21.9005
G1 Z0.0000 F8000.0
G0 X63.2677 Y-24.8078 F15000.0
G1 Z11.9000 F8000.0
G1 X0.0000 Y-24.8078 F12000.0
G1 Z0.0000 F8000.0
G0 X6.4225 Y-30.3620 F15000.0
G1 Z11.9000 F8000.0
G1 X6.0764 Y-30.3069 F12000.0
G1 X6.0192 Y-30.3680
G1 X6.1334 Y-30.9354
G1 X6.3216 Y-30.9838
G1 X6.5173 Y-30.5934
G1 X6.0734 Y-29.0486
G1 X6.3471 Y-28.9199
G1 X6.6830 Y-28.9949
G1 X6.8393 Y-29.9627
G1 X6.7630 Y-30.2160
G1 Z0.0000 F8000.0
G0 X8.5489 Y-33.6787 F15000.0
G1 Z11.9000 F8000.0
G1 X8.4318 Y-34.9107 F12000.0
G1 X8.2510 Y-34.9615
G1 X7.7724 Y-34.8597
G1 X7.6766 Y-34.6622
G1 X7.7089 Y-33.6722
G1 X7.9967 Y-33.5706
G1 X8.4891 Y-33.6501
G1 X8.8340 Y-33.5533
G1 X9.4246 Y-33.5814
G1 Z0.0000 F8000.0
G0 X9.3273 Y-34.7976 F15000.0
G1 Z11.9000 F8000.0
G1 X9.3333 Y-33.6829 F12000.0
G1 X9.5220 Y-33.5736
G1 X10.0731 Y-33.5965
G1 X10.1842 Y-33.8984
G1 X10.0405 Y-34.8835
G1 X9.5207 Y-35.5402
G1 X9.6348 Y-35.6726
G1 X10.1544 Y-35.7220
G1 Z0.0000 F8000.0
G0 X9.4954 Y-36.7746 F15000.0
G1 Z11.9000 F8000.0
G1 X9.3677 Y-38.7587 F12000.0
G1 X8.9602 Y-38.8178
G1 Z0.0000 F8000.0
G0 X8.3278 Y-36.7259 F15000.0
G1 Z11.9000 F8000.0
G1 X8.9119 Y-38.6331 F12000.0
G1 X8.9891 Y-38.6610
G1 X10.1918 Y-38.0606
G1 X10.2803 Y-36.9491
G1 X10.3973 Y-36.7747
G1 X10.8768 Y-36.7597
G1 X11.0687 Y-36.8340
G1 X11.1357 Y-38.0295
G1 X11.8278 Y-38.0179
G1 X12.3655 Y-38.1267
G1 X12.0175 Y-38.0487
G1 X11.8836 Y-37.8635
G1 X11.8170 Y-36.9971
G1 X11.9409 Y-36.7965
G1 X12.1601 Y-36.7279
G1 X13.1150 Y-36.8308
G1 X13.2539 Y-38.0407
G1 X13.3165 Y-38.1047
G1 X14.1702 Y-38.1139
G1 X14.3729 Y-38.0202
G1 X14.5549 Y-36.7746
G1 Z0.0000 F8000.0
G0 X13.8738 Y-36.8232 F15000.0
G1 Z11.9000 F8000.0
G1 X13.8738 Y-38.0881 F12000.0
G1 Z0.0000 F8000.0
G0 X17.4973 Y-32.8563 F15000.0
G1 Z11.9000 F8000.0
G1 X18.2656 Y-32.8003 F12000.0
G1 X18.5798 Y-32.6289
G1 X18.6968 Y-32.4246
G1 X18.7084 Y-32.0505
G1 X18.4481 Y-31.6328
G1 X18.6110 Y-31.7721
G1 X18.2722 Y-31.5923
G1 X17.5323 Y-32.8140
G1 X18.6162 Y-33.8293
G1 Z0.0000 F8000.0
G0 X19.5406 Y-32.3698 F15000.0
G1 Z11.9000 F8000.0
G1 X20.2974 Y-32.3326 F12000.0
G1 X20.4998 Y-32.4021
G1 X20.5224 Y-32.7432
G1 X20.4189 Y-32.9464
G1 X19.8233 Y-33.0231
G1 X19.5750 Y-32.7833
G1 X19.5487 Y-32.2889
G1 X19.7009 Y-31.6896
G1 X20.0220 Y-31.5758
G1 X21.2589 Y-31.6247
G1 X21.8371 Y-32.9911
G1 X22.3302 Y-31.6545
G1 X22.9765 Y-31.8849
G1 X23.0480 Y-32.5973
G1 X23.1528 Y-32.8857
G1 X23.6303 Y-33.0239
G1 X23.9443 Y-32.8970
G1 X24.0141 Y-32.6706
G1 X23.9936 Y-31.7946
G1 X23.7238 Y-31.5859
G1 X23.3664 Y-31.6373
G1 X23.1022 Y-31.8011
G1 X23.1893 Y-31.6887
G1 Z0.0000 F8000.0
G0 X24.8434 Y-33.0023 F15000.0
G1 Z11.9000 F8000.0
G1 X24.8116 Y-33.5042 F12000.0
G1 X24.9884 Y-33.7835
G1 X25.3243 Y-33.7205
G1 X25.4367 Y-33.5310
G1 X25.3910 Y-33.3011
G1 X24.8544 Y-32.9037
G1 X24.8454 Y-31.8019
G1 X25.3966 Y-31.5810
G1 X25.6191 Y-31.6374
G1 X25.7700 Y-31.8187
G1 X25.7388 Y-32.6884
G1 X25.6464 Y-32.9852
G1 X25.7677 Y-32.9050
G1 Z0.0000 F8000.0
G0 X27.0369 Y-36.7210 F15000.0
G1 Z11.9000 F8000.0
G1 X27.2321 Y-36.6228 F12000.0
G1 X28.5650 Y-36.6356
G1 X28.6456 Y-37.3158
G1 X28.6231 Y-37.9559
G1 X28.9654 Y-37.4062
G1 X28.7722 Y-37.3164
G1 X29.0422 Y-37.3981
G1 X29.5539 Y-37.9349
G1 X30.2670 Y-37.9612
G1 X30.3341 Y-37.8952
G1 X30.5121 Y-36.6772
G1 X30.6999 Y-36.5881
G1 X31.2771 Y-36.5734
G1 X31.1227 Y-35.9230
G1 X30.5749 Y-35.8721
G1 X31.2758 Y-36.6175
G1 X31.3620 Y-37.9467
G1 X31.8277 Y-37.9846
G1 X32.0275 Y-37.9219
G1 X32.1025 Y-37.6421
G1 X32.3660 Y-37.5137
G1 X32.3932 Y-37.4164
G1 X32.0799 Y-36.7010
G1 X32.4162 Y-37.4723
G1 X32.7135 Y-37.3972
G1 X33.2343 Y-37.8888
G1 X33.1800 Y-37.7073
G1 X32.8335 Y-37.4053
G1 X33.2641 Y-36.6237
G1 Z0.0000 F8000.0
G0 X29.5667 Y-36.6237 F15000.0
G1 Z11.9000 F8000.0
G1 X29.1289 Y-37.2561 F12000.0
G1 Z0.0000 F8000.0
G0 X27.1829 Y-38.0345 F15000.0
G1 Z11.9000 F8000.0
G1 X27.4956 Y-38.0599 F12000.0
G1 X27.7922 Y-37.8913
G1 X27.8957 Y-37.0297
G1 X27.7341 Y-36.6317
G1 X27.5312 Y-36.5888
G1 X27.0624 Y-36.6879
G1 X26.9588 Y-37.0120
G1 X27.1042 Y-37.9743
G1 X26.9439 Y-37.9199
G1 X26.1701 Y-37.9839
G1 X25.9832 Y-36.6691
G1 X25.4173 Y-36.6333
G1 X25.2754 Y-36.8125
G1 X25.5191 Y-38.0034
G1 X26.1632 Y-38.1889
G1 X25.9905 Y-38.7214
G1 X25.3829 Y-38.8129
G1 Z0.0000 F8000.0
G0 X23.0477 Y-37.8886 F15000.0
G1 Z11.9000 F8000.0
G1 X23.0185 Y-37.8257 F12000.0
G1 X23.1183 Y-38.4750
G1 X22.9578 Y-38.7059
G1 X22.7236 Y-38.5969
G1 X22.6884 Y-37.9177
G1 X22.9504 Y-37.7913
G1 Z0.0000 F8000.0
G0 X22.1720 Y-38.6670 F15000.0
G1 Z11.9000 F8000.0
G1 X22.1414 Y-37.2113 F12000.0
G1 X21.9903 Y-37.1402
G1 X21.7507 Y-37.1949
G1 X22.0461 Y-37.0664
G1 X21.5327 Y-37.6213
G1 X21.5440 Y-37.5708
G1 X21.4352 Y-37.8197
G1 X21.6855 Y-37.3048
G1 Z0.0000 F8000.0
G0 X21.1990 Y-38.0832 F15000.0
G1 Z11.9000 F8000.0
G1 X20.9929 Y-38.2059 F12000.0
G1 X20.9181 Y-38.0480
G1 X20.9071 Y-36.6237
G1 Z0.0000 F8000.0
G0 X21.5393 Y-28.1798 F15000.0
G1 Z11.9000 F8000.0
G1 X22.0472 Y-28.0685 F12000.0
G1 X22.2270 Y-27.9485
G1 X22.1599 Y-27.5002
G1 X21.9153 Y-27.4134
G1 X22.0746 Y-27.4187
G1 X22.2393 Y-27.1707
G1 X22.1947 Y-26.8055
G1 X22.0591 Y-26.6305
G1 X20.6098 Y-26.6650
G1 X20.5914 Y-27.9907
G1 X20.5339 Y-28.0575
G1 X19.5855 Y-28.0430
G1 X19.5060 Y-27.2021
G1 X19.6453 Y-26.7395
G1 X20.5310 Y-26.4905
G1 X20.5005 Y-26.0191
G1 X20.3999 Y-25.8711
G1 X19.6931 Y-25.8287
G1 X18.7319 Y-26.6300
G1 X17.4860 Y-28.9143
G1 X17.4041 Y-26.6716
G1 Z0.0000 F8000.0
G0 X24.1177 Y-28.1798 F15000.0
G1 Z11.9000 F8000.0
G1 X23.3706 Y-28.0789 F12000.0
G1 X23.2068 Y-27.9339
G1 X23.1126 Y-27.1904
G1 X23.2509 Y-26.7298
G1 X23.7052 Y-26.5974
G1 X24.2680 Y-26.6771
G1 X24.1664 Y-26.8979
G1 X24.1541 Y-28.1207
G1 X24.9392 Y-28.0524
G1 X24.9867 Y-26.7695
G1 X24.9736 Y-27.3654
G1 X25.0344 Y-27.4240
G1 X25.8779 Y-27.4262
G1 X25.9529 Y-27.4823
G1 X26.0549 Y-28.0021
G1 X26.0637 Y-26.6716
G1 Z0.0000 F8000.0
G0 X27.5718 Y-28.1798 F15000.0
G1 Z11.9000 F8000.0
G1 X26.8925 Y-27.9211 F12000.0
G1 X26.8923 Y-26.8317
G1 X27.3230 Y-26.6274
G1 X27.6442 Y-26.6400
G1 X27.8148 Y-26.8386
G1 X27.6691 Y-28.1311
G1 Z0.0000 F8000.0
G0 X29.1286 Y-29.0068 F15000.0
G1 Z11.9000 F8000.0
G1 X28.6421 Y-28.1798 F12000.0
G1 X29.7124 Y-26.8662
G1 X29.6151 Y-26.6716
G1 X29.3719 Y-26.5744
G1 X28.7394 Y-26.7689
G1 X28.6421 Y-27.1095
G1 X28.7394 Y-28.1311
G1 X29.3232 Y-28.8122
G1 X29.1286 Y-29.0068
G1 Z0.0000 F8000.0
G0 X31.5124 Y-28.1798 F15000.0
G1 Z11.9000 F8000.0
G1 X30.6854 Y-28.0825 F12000.0
G1 X30.5881 Y-27.9852
G1 X30.4908 Y-27.1095
G1 X30.6368 Y-26.6716
G1 X31.2205 Y-26.5744
G1 X31.7557 Y-26.6716
G1 X31.5611 Y-26.7689
G1 X31.5124 Y-28.1798
G1 Z0.0000 F8000.0
G0 X31.4151 Y-26.6716 F15000.0
G1 Z11.9000 F8000.0
G1 X31.4151 Y-26.6230 F12000.0
G1 Z0.0000 F8000.0
G0 X42.5488 Y-36.7697 F15000.0
G1 Z11.9000 F8000.0
G1 X42.5488 Y-38.7156 F12000.0
G1 Z0.0000 F8000.0
G0 X42.5974 Y-38.8129 F15000.0
G1 Z11.9000 F8000.0
G1 X43.5425 Y-38.7870 F12000.0
G1 X43.6040 Y-38.7188
G1 X43.7088 Y-36.9714
G1 X43.7932 Y-36.7866
G1 X44.5158 Y-36.7365
G1 X44.4461 Y-37.5633
G1 X44.5585 Y-38.0150
G1 X45.1357 Y-37.9999
G1 X45.2401 Y-37.8116
G1 X45.2697 Y-36.9427
G1 X45.1272 Y-36.7210
G1 Z0.0000 F8000.0
G0 X46.9759 Y-38.0832 F15000.0
G1 Z11.9000 F8000.0
G1 X46.9222 Y-36.9528 F12000.0
G1 X46.6720 Y-36.7198
G1 X46.2045 Y-36.7348
G1 X46.1067 Y-36.9213
G1 X46.1356 Y-37.9872
G1 X46.9097 Y-38.2054
G1 X46.8810 Y-38.5222
G1 X46.7633 Y-38.7175
G1 X46.1975 Y-38.8129
G1 Z0.0000 F8000.0
G0 X47.7056 Y-38.0345 F15000.0
G1 Z11.9000 F8000.0
G1 X47.7460 Y-36.8080 F12000.0
G1 X48.5574 Y-36.7537
G1 X48.5077 Y-37.8118
G1 X48.4304 Y-38.0234
G1 X47.7543 Y-38.1318
G1 Z0.0000 F8000.0
G0 X54.6640 Y-38.6714 F15000.0
G1 Z11.9000 F8000.0
G1 X54.4899 Y-36.8981 F12000.0
G1 X54.2924 Y-36.5756
G1 X55.2082 Y-36.6182
G1 X55.5519 Y-36.4098
G1 X55.5268 Y-36.5519
G1 X55.3966 Y-36.6645
G1 X55.2599 Y-38.7235
G1 X54.7127 Y-38.7687
G1 Z0.0000 F8000.0
G0 X57.2424 Y-36.7741 F15000.0
G1 Z11.9000 F8000.0
G1 X57.1251 Y-38.0077 F12000.0
G1 X56.9431 Y-38.0700
G1 X56.4711 Y-37.9924
G1 X56.3758 Y-37.8451
G1 X56.4128 Y-36.7474
G1 X56.7144 Y-36.6701
G1 X57.2074 Y-36.7476
G1 X57.5659 Y-36.6911
G1 X57.9111 Y-36.7522
G1 X58.0317 Y-38.0335
G1 X59.1700 Y-37.9915
G1 X59.2926 Y-37.6841
G1 X59.3344 Y-36.6281
G1 Z0.0000 F8000.0
G0 X58.6533 Y-36.6768 F15000.0
G1 Z11.9000 F8000.0
G1 X58.6533 Y-38.0390 F12000.0
G1 Z0.0000 F8000.0
G0 X60.9885 Y-36.7741 F15000.0
G1 Z11.9000 F8000.0
G1 X60.8712 Y-38.0077 F12000.0
G1 X60.6891 Y-38.0700
G1 X60.1510 Y-37.9317
G1 X60.0735 Y-36.9767
G1 X60.1345 Y-36.7562
G1 X60.3236 Y-36.6603
G1 X60.9351 Y-36.7472
G1 X61.1831 Y-36.6768
G1 Z0.0000 F8000.0
G0 X63.2677 Y-39.4714 F15000.0
G1 Z11.9000 F8000.0
G1 X0.0000 Y-39.4714 F12000.0
G1 Z0.0000 F8000.0
G0 X21.7248 Y-70.5833 F15000.0
G1 Z11.9000 F8000.0
G1 X21.8999 Y-70.7725 F12000.0
G1 X21.7464 Y-70.5548
G1 X21.6428 Y-69.1795
G1 X21.7301 Y-68.9623
G1 X22.1011 Y-68.6566
G1 X22.9570 Y-68.7505
G1 X23.1090 Y-68.9224
G1 X23.0533 Y-70.7721
G1 X21.9681 Y-70.8266
G1 Z0.0000 F8000.0
G0 X37.4873 Y-71.9942 F15000.0
G1 Z11.9000 F8000.0
G1 X38.5648 Y-71.7351 F12000.0
G1 X38.6869 Y-71.1411
G1 X38.6455 Y-70.9282
G1 X37.4531 Y-70.7431
G1 X37.3273 Y-70.6062
G1 X37.2121 Y-69.1279
G1 X37.2900 Y-68.8975
G1 X37.4598 Y-68.7383
G1 X37.6862 Y-68.6629
G1 X38.4297 Y-68.7673
G1 X38.6103 Y-68.9003
G1 X38.6973 Y-69.2548
G1 X38.6549 Y-70.8752
G1 Z0.0000 F8000.0
G0 X38.9657 Y-58.9131 F15000.0
G1 Z11.9000 F8000.0
G1 X38.9657 Y-5.3662 F12000.0
G1 Z0.0000 F8000.0
G0 X53.5469 Y-5.3662 F15000.0
G1 Z11.9000 F8000.0
G1 X53.5469 Y-58.9131 F12000.0
G1 Z0.0000 F8000.0
G0 X31.1142 Y-88.1377 F15000.0
G1 Z11.9000 F8000.0
G1 X31.0169 Y-90.2297 F12000.0
G1 Z0.0000 F8000.0
G0 X39.0447 Y-98.5970 F15000.0
G1 Z11.9000 F8000.0
G1 X38.9474 Y-99.7646 F12000.0
G1 Z0.0000 F8000.0
G0 X47.7178 Y-107.5224 F15000.0
G1 Z11.9000 F8000.0
G1 X47.0367 Y-108.4467 F12000.0
G1 Z0.0000 F8000.0
G0 X52.3260 Y-99.5700 F15000.0
G1 Z11.9000 F8000.0
G1 X52.2774 Y-99.4727 F12000.0
G1 Z0.0000 F8000.0
G0 X26.4579 Y-109.6630 F15000.0
G1 Z11.9000 F8000.0
G1 X27.4796 Y-109.3711 F12000.0
G1 X27.5282 Y-107.9116
G1 X27.4309 Y-107.7170
G1 X26.5552 Y-107.5224
G1 X26.1174 Y-107.9116
G1 X26.4579 Y-109.6630
G1 Z0.0000 F8000.0
G0 X11.3279 Y-110.2954 F15000.0
G1 Z11.9000 F8000.0
G1 X11.3849 Y-110.3278 F12000.0
G1 X11.4252 Y-107.5710
G1 Z0.0000 F8000.0
G0 X0.0000 Y-271.0412 F15000.0
G1 Z11.9000 F8000.0
G1 X68.1282 Y-271.0412 F12000.0
G1 X68.1282 Y-284.6338 F12000.0
G1 Z0.0000 F8000.0
G0 X52.6433 Y-280.6521 F15000.0
G1 Z11.9000 F8000.0
G1 X52.0903 Y-280.3026 F12000.0
G1 X51.6523 Y-279.8409
G1 X51.4298 Y-279.4532
G1 X51.1602 Y-278.5218
G1 X51.2891 Y-278.4535
G1 X52.9115 Y-278.3279
G1 X53.0756 Y-278.1779
G1 X53.2144 Y-276.6860
G1 X53.0797 Y-276.2111
G1 X52.9117 Y-276.0004
G1 X52.2549 Y-275.8605
G1 X51.5143 Y-275.9947
G1 X51.2536 Y-276.1904
G1 X51.4064 Y-276.0386
G1 X51.2163 Y-276.2767
G1 X51.1094 Y-278.3985
G1 X51.2324 Y-278.5115
G1 Z0.0000 F8000.0
G0 X51.7676 Y-279.9710 F15000.0
G1 Z11.9000 F8000.0
G1 X51.9135 Y-280.1656 F12000.0
G1 Z0.0000 F8000.0
G0 X47.4378 Y-276.3223 F15000.0
G1 Z11.9000 F8000.0
G1 X47.3492 Y-276.8124 F12000.0
G1 X47.5070 Y-280.2136
G1 X47.8391 Y-280.5393
G1 X48.8240 Y-280.6042
G1 X49.1477 Y-280.4282
G1 X49.3304 Y-280.1177
G1 X49.4649 Y-276.7113
G1 X49.2969 Y-276.2409
G1 X48.9856 Y-275.9580
G1 X48.3983 Y-275.8748
G1 X47.7894 Y-276.0300
G1 X47.5014 Y-276.2479
G1 X47.7297 Y-275.9817
G1 Z0.0000 F8000.0
G0 X43.9836 Y-276.2736 F15000.0
G1 Z11.9000 F8000.0
G1 X43.9350 Y-276.1763 F12000.0
G1 Z0.0000 F8000.0
G0 X42.3782 Y-275.9817 F15000.0
G1 Z11.9000 F8000.0
G1 X42.1526 Y-276.2513 F12000.0
G1 X42.3923 Y-276.0484
G1 X43.1204 Y-275.8636
G1 X43.7021 Y-275.9813
G1 X43.9823 Y-276.3054
G1 X44.1034 Y-276.6612
G1 X43.9633 Y-280.1877
G1 X43.8318 Y-280.3924
G1 X43.5209 Y-280.5867
G1 X43.2790 Y-280.6353
G1 X42.5291 Y-280.5575
G1 X42.2604 Y-280.3883
G1 X42.3608 Y-280.4887
G1 X42.1472 Y-280.1915
G1 X41.9970 Y-276.7857
G1 X42.0863 Y-276.3223
G1 Z0.0000 F8000.0
G0 X40.1890 Y-276.1763 F15000.0
G1 Z11.9000 F8000.0
G1 X40.0243 Y-276.0466 F12000.0
G1 X40.2313 Y-276.3030
G1 X40.3730 Y-276.7792
G1 X40.2184 Y-280.1825
G1 X40.0000 Y-280.4733
G1 X39.6606 Y-280.6201
G1 X38.7139 Y-280.5426
G1 X38.4097 Y-280.2672
G1 X38.3486 Y-280.0853
G1 X38.2735 Y-276.5576
G1 X38.4219 Y-276.2286
G1 X38.6718 Y-275.9955
G1 X39.4023 Y-275.8570
G1 X39.9457 Y-275.9817
G1 Z0.0000 F8000.0
G0 X35.0321 Y-275.9817 F15000.0
G1 Z11.9000 F8000.0
G1 X34.9568 Y-280.2769 F12000.0
G1 X35.0442 Y-280.5180
G1 X34.7999 Y-280.1708
G1 X33.9618 Y-279.5818
G1 Z0.0000 F8000.0
G0 X32.2105 Y-276.2736 F15000.0
G1 Z11.9000 F8000.0
G1 X32.1618 Y-276.1763 F12000.0
G1 Z0.0000 F8000.0
G0 X30.6050 Y-275.9817 F15000.0
G1 Z11.9000 F8000.0
G1 X30.3794 Y-276.2513 F12000.0
G1 X30.6191 Y-276.0484
G1 X31.4699 Y-275.8606
G1 X31.8347 Y-275.9484
G1 X32.1216 Y-276.1700
G1 X32.3221 Y-276.6251
G1 X32.1979 Y-280.1526
G1 X31.9960 Y-280.4525
G1 X31.6639 Y-280.6129
G1 X30.6746 Y-280.5332
G1 X30.4755 Y-280.3766
G1 X30.5775 Y-280.4786
G1 X30.3826 Y-280.2259
G1 X30.2248 Y-276.8231
G1 X30.3131 Y-276.3223
G1 Z0.0000 F8000.0
G0 X26.8104 Y-276.1763 F15000.0
G1 Z11.9000 F8000.0
G1 X26.6456 Y-276.0466 F12000.0
G1 X26.8527 Y-276.3030
G1 X26.9944 Y-276.7792
G1 X26.8398 Y-280.1825
G1 X26.6214 Y-280.4733
G1 X26.2819 Y-280.6201
G1 X25.3353 Y-280.5426
G1 X25.0311 Y-280.2672
G1 X24.9700 Y-280.0853
G1 X24.8949 Y-276.5576
G1 X25.0433 Y-276.2286
G1 X25.2932 Y-275.9955
G1 X26.0237 Y-275.8570
G1 X26.5671 Y-275.9817
G1 Z0.0000 F8000.0
G0 X21.5076 Y-275.9817 F15000.0
G1 Z11.9000 F8000.0
G1 X21.2819 Y-276.2513 F12000.0
G1 X21.5216 Y-276.0484
G1 X22.3724 Y-275.8606
G1 X22.8973 Y-276.0360
G1 X23.0512 Y-276.1976
G1 X23.2309 Y-276.6628
G1 X23.0924 Y-280.1885
G1 X22.9606 Y-280.3931
G1 X22.6494 Y-280.5870
G1 X22.4075 Y-280.6353
G1 X21.5554 Y-280.5086
G1 X21.3015 Y-280.2569
G1 X21.1255 Y-276.7369
G1 X21.2157 Y-276.3223
G1 Z0.0000 F8000.0
G0 X19.5129 Y-275.8844 F15000.0
G1 Z11.9000 F8000.0
G1 X19.4724 Y-277.3734 F12000.0
G1 X19.2704 Y-277.4558
G1 X17.8856 Y-277.5751
G1 X17.6675 Y-277.6615
G1 X17.4730 Y-277.9632
G1 X17.3723 Y-279.0466
G1 Z0.0000 F8000.0
G0 X15.4750 Y-279.8250 F15000.0
G1 Z11.9000 F8000.0
G1 X15.1056 Y-279.5350 F12000.0
G1 X14.6109 Y-278.6757
G1 X14.4232 Y-278.5562
G1 X13.8730 Y-278.4812
G1 X13.2899 Y-279.4010
G1 X13.7695 Y-278.6501
G1 X14.0248 Y-278.3916
G1 X14.2194 Y-278.3368
G1 X14.4764 Y-278.4987
G1 X14.2290 Y-278.2695
G1 X14.1615 Y-278.0250
G1 Z0.0000 F8000.0
G0 X13.0912 Y-279.6791 F15000.0
G1 Z11.9000 F8000.0
G1 X12.6735 Y-279.9147 F12000.0
G1 X12.5723 Y-280.4474
G1 X12.6483 Y-279.7405
G1 X12.5560 Y-275.9817
G1 Z0.0000 F8000.0
G0 X15.7669 Y-275.9331 F15000.0
G1 Z11.9000 F8000.0
G1 X15.4915 Y-279.5895 F12000.0
G1 X15.8156 Y-280.6034
G1 Z0.0000 F8000.0
G0 X19.5129 Y-278.9980 F15000.0
G1 Z11.9000 F8000.0
G1 X19.5129 Y-277.4899 F12000.0
G1 Z0.0000 F8000.0

G0 Z0.0000 F800.0
G4 P0.06
G0 X0.0000 Y0.0000 F15000.0
M5
G4 P0.10
$1=0
