$X
$1=255
G21
G90
G92 Z4.0000
G0 Z0.0000 F800.0
G4 P0.06
G92 Z0.0000
G0 Z0.0000 F800.0
G21
G90
G17
G91.1
G0 Z0.0000
G0 X26.092 Y-123.460 F15000.0
G1 Z11.9000 F2500.0
G4 P0.02
G1 X20.088 Y-123.798 F2200.0
G1 X20.172 Y-122.784
G1 X20.511 Y-121.853
G1 X21.186 Y-121.091
G1 X22.117 Y-120.584
G1 X23.048 Y-120.415
G1 X24.062 Y-120.584
G1 X24.908 Y-121.091
G1 X25.585 Y-121.853
G1 X26.008 Y-122.784
G1 X26.092 Y-123.460
G1 X25.922 Y-124.391
G1 X25.415 Y-125.321
G1 X24.654 Y-125.997
G1 X23.724 Y-126.335
G1 X22.709 Y-126.420
G1 X21.779 Y-126.165
G1 X20.932 Y-125.574
G1 X20.425 Y-124.728
G0 Z0.0000 F2500.0
G4 P0.02
G0 X21.525 Y-123.460 F15000.0
G1 Z11.9000 F2500.0
G4 P0.02
G1 X35.309 Y-123.460 F2200.0
G0 Z0.0000 F2500.0
G4 P0.02
G0 X36.832 Y-123.460 F15000.0
G1 Z11.9000 F2500.0
G4 P0.02
G1 X38.270 Y-123.460 F2200.0
G0 Z0.0000 F2500.0
G4 P0.02
G0 X39.792 Y-123.460 F15000.0
G1 Z11.9000 F2500.0
G4 P0.02
G1 X53.577 Y-123.460 F2200.0
G0 Z0.0000 F2500.0
G4 P0.02
G0 X55.099 Y-123.460 F15000.0
G1 Z11.9000 F2500.0
G4 P0.02
G1 X56.537 Y-123.460 F2200.0
G0 Z0.0000 F2500.0
G4 P0.02
G0 X58.059 Y-123.460 F15000.0
G1 Z11.9000 F2500.0
G4 P0.02
G1 X71.844 Y-123.460 F2200.0
G0 Z0.0000 F2500.0
G4 P0.02
G0 X73.283 Y-123.460 F15000.0
G1 Z11.9000 F2500.0
G4 P0.02
G1 X74.804 Y-123.460 F2200.0
G0 Z0.0000 F2500.0
G4 P0.02
G0 X76.327 Y-123.460 F15000.0
G1 Z11.9000 F2500.0
G4 P0.02
G1 X90.027 Y-123.460 F2200.0
G0 Z0.0000 F2500.0
G4 P0.02
G0 X91.549 Y-123.460 F15000.0
G1 Z11.9000 F2500.0
G4 P0.02
G1 X93.071 Y-123.460 F2200.0
G0 Z0.0000 F2500.0
G4 P0.02
G0 X94.594 Y-123.460 F15000.0
G1 Z11.9000 F2500.0
G4 P0.02
G1 X108.294 Y-123.460 F2200.0
G0 Z0.0000 F2500.0
G4 P0.02
G0 X109.816 Y-123.460 F15000.0
G1 Z11.9000 F2500.0
G4 P0.02
G1 X111.339 Y-123.460 F2200.0
G0 Z0.0000 F2500.0
G4 P0.02
G0 X112.776 Y-123.460 F15000.0
G1 Z11.9000 F2500.0
G4 P0.02
G1 X126.562 Y-123.460 F2200.0
G0 Z0.0000 F2500.0
G4 P0.02
G0 X128.083 Y-123.460 F15000.0
G1 Z11.9000 F2500.0
G4 P0.02
G1 X129.522 Y-123.460 F2200.0
G0 Z0.0000 F2500.0
G4 P0.02
G0 X131.043 Y-123.460 F15000.0
G1 Z11.9000 F2500.0
G4 P0.02
G1 X144.829 Y-123.460 F2200.0
G0 Z0.0000 F2500.0
G4 P0.02
G0 X145.929 Y-123.460 F15000.0
G1 Z11.9000 F2500.0
G4 P0.02
G1 X145.759 Y-124.391 F2200.0
G1 X145.252 Y-125.321
G1 X144.576 Y-125.997
G1 X143.645 Y-126.335
G1 X142.630 Y-126.420
G1 X141.615 Y-126.165
G1 X140.853 Y-125.574
G1 X140.262 Y-124.728
G1 X140.009 Y-123.798
G1 X140.009 Y-122.784
G1 X140.430 Y-121.853
G1 X141.107 Y-121.091
G1 X141.953 Y-120.584
G1 X142.969 Y-120.415
G1 X143.899 Y-120.584
G1 X144.829 Y-121.091
G1 X145.506 Y-121.853
G1 X145.843 Y-122.784
G0 Z0.0000 F2500.0
G4 P0.02
G0 X147.957 Y-123.460 F15000.0
G1 Z11.9000 F2500.0
G4 P0.02
G1 X142.969 Y-123.460 F2200.0
G0 Z0.0000 F2500.0
G4 P0.02
G0 X142.969 Y-119.231 F15000.0
G1 Z11.9000 F2500.0
G4 P0.02
G1 X142.969 Y-128.111 F2200.0
G0 Z0.0000 F2500.0
G4 P0.02
G0 X142.969 Y-129.634 F15000.0
G1 Z11.9000 F2500.0
G4 P0.02
G1 X142.969 Y-131.071 F2200.0
G0 Z0.0000 F2500.0
G4 P0.02
G0 X142.969 Y-132.594 F15000.0
G1 Z11.9000 F2500.0
G4 P0.02
G1 X142.969 Y-141.473 F2200.0
G0 Z0.0000 F2500.0
G4 P0.02
G0 X145.875 Y-128.545 F15000.0
G1 Z11.9000 F2500.0
G4 P0.02
G1 X146.574 Y-127.847 F2200.0
G1 X146.339 Y-128.208
G1 X147.040 Y-127.508
G0 Z0.0000 F2500.0
G4 P0.02
G0 X149.310 Y-123.460 F15000.0
G1 Z11.9000 F2500.0
G4 P0.02
G1 X163.096 Y-123.460 F2200.0
G0 Z0.0000 F2500.0
G4 P0.02
G0 X162.176 Y-136.663 F15000.0
G1 Z11.9000 F2500.0
G4 P0.02
G1 X159.771 Y-136.663 F2200.0
G1 X162.822 Y-140.144
G1 X163.069 Y-140.516
G1 X163.135 Y-141.427
G1 X162.629 Y-141.922
G1 X161.695 Y-141.876
G1 X160.829 Y-141.072
G0 Z0.0000 F2500.0
G4 P0.02
G0 X161.213 Y-145.924 F15000.0
G1 Z11.9000 F2500.0
G4 P0.02
G1 X164.203 Y-151.383 F2200.0
G0 Z0.0000 F2500.0
G4 P0.02
G0 X163.470 Y-150.044 F15000.0
G1 Z11.9000 F2500.0
G4 P0.02
G1 X164.116 Y-149.486 F2200.0
G1 X164.109 Y-148.423
G1 X163.191 Y-147.409
G1 X162.072 Y-147.227
G1 X161.359 Y-147.712
G1 X161.258 Y-148.745
G1 X162.090 Y-149.820
G1 X163.343 Y-150.081
G1 X163.470 Y-150.044
G0 Z0.0000 F2500.0
G4 P0.02
G0 X164.786 Y-148.863 F15000.0
G1 Z11.9000 F2500.0
G4 P0.02
G1 X166.029 Y-148.863 F2200.0
G1 X166.546 Y-148.738
G1 X166.992 Y-148.149
G1 X166.685 Y-146.642
G1 X165.726 Y-145.869
G1 X164.776 Y-145.922
G1 X164.328 Y-146.511
G1 X164.866 Y-149.068
G1 X167.054 Y-151.383
G0 Z0.0000 F2500.0
G4 P0.02
G0 X171.453 Y-140.268 F15000.0
G1 Z11.9000 F2500.0
G4 P0.02
G1 X170.587 Y-136.663 F2200.0
G0 Z0.0000 F2500.0
G4 P0.02
G0 X168.985 Y-136.663 F15000.0
G1 Z11.9000 F2500.0
G4 P0.02
G1 X169.850 Y-140.268 F2200.0
G1 X172.597 Y-140.181
G1 X172.883 Y-139.716
G1 X172.190 Y-136.663
G0 Z0.0000 F2500.0
G4 P0.02
G0 X174.035 Y-139.348 F15000.0
G1 Z11.9000 F2500.0
G4 P0.02
G1 X174.137 Y-139.618 F2200.0
G1 X174.928 Y-140.290
G1 X175.711 Y-140.237
G1 X176.051 Y-139.746
G1 X175.514 Y-137.315
G1 X174.723 Y-136.641
G1 X173.940 Y-136.695
G1 X173.600 Y-137.186
G1 X174.516 Y-141.350
G1 X174.859 Y-141.823
G1 X175.401 Y-141.934
G1 X175.682 Y-141.714
G1 X175.663 Y-141.198
G1 X174.429 Y-139.995
G0 Z0.0000 F2500.0
G4 P0.02
G0 X176.604 Y-136.695 F15000.0
G1 Z11.9000 F2500.0
G4 P0.02
G1 X176.589 Y-136.632 F2200.0
G0 Z0.0000 F2500.0
G4 P0.02
G0 X177.000 Y-143.334 F15000.0
G1 Z11.9000 F2500.0
G4 P0.02
G1 X157.937 Y-143.334 F2200.0
G1 X144.744 Y-125.828
G1 X147.197 Y-130.225
G1 X147.450 Y-129.464
G1 X148.296 Y-129.464
G1 X144.744 Y-125.828
G1 X141.107 Y-121.007
G1 X138.655 Y-116.694
G1 X138.402 Y-117.455
G1 X137.640 Y-117.455
G1 X141.107 Y-121.007
G1 X136.963 Y-115.425
G0 Z0.0000 F2500.0
G4 P0.02
G0 X139.639 Y-118.713 F15000.0
G1 Z11.9000 F2500.0
G4 P0.02
G1 X138.939 Y-119.412 F2200.0
G1 X139.362 Y-119.158
G1 X140.062 Y-118.459
G0 Z0.0000 F2500.0
G4 P0.02
G0 X142.969 Y-117.708 F15000.0
G1 Z11.9000 F2500.0
G4 P0.02
G1 X142.969 Y-116.187 F2200.0
G0 Z0.0000 F2500.0
G4 P0.02
G0 X142.969 Y-114.748 F15000.0
G1 Z11.9000 F2500.0
G4 P0.02
G1 X142.969 Y-105.784 F2200.0
G0 Z0.0000 F2500.0
G4 P0.02
G0 X142.969 Y-107.814 F15000.0
G1 Z11.9000 F2500.0
G4 P0.02
G1 X142.969 Y-84.219 F2200.0
G0 Z0.0000 F2500.0
G4 P0.02
G0 X142.969 Y-86.249 F15000.0
G1 Z11.9000 F2500.0
G4 P0.02
G1 X137.979 Y-86.840 F2200.0
G1 X138.486 Y-86.249
G1 X137.979 Y-85.573
G1 X142.969 Y-86.249
G1 X23.048 Y-86.249
G1 X28.036 Y-85.573
G1 X27.614 Y-86.249
G1 X28.036 Y-86.840
G1 X23.048 Y-86.249
G0 Z0.0000 F2500.0
G4 P0.02
G0 X23.048 Y-84.219 F15000.0
G1 Z11.9000 F2500.0
G4 P0.02
G1 X23.048 Y-107.477 F2200.0
G0 Z0.0000 F2500.0
G4 P0.02
G0 X23.048 Y-105.447 F15000.0
G1 Z11.9000 F2500.0
G4 P0.02
G1 X23.048 Y-114.327 F2200.0
G0 Z0.0000 F2500.0
G4 P0.02
G0 X23.048 Y-115.848 F15000.0
G1 Z11.9000 F2500.0
G4 P0.02
G1 X23.048 Y-117.371 F2200.0
G0 Z0.0000 F2500.0
G4 P0.02
G0 X23.048 Y-118.894 F15000.0
G1 Z11.9000 F2500.0
G4 P0.02
G1 X23.048 Y-127.772 F2200.0
G0 Z0.0000 F2500.0
G4 P0.02
G0 X23.048 Y-129.295 F15000.0
G1 Z11.9000 F2500.0
G4 P0.02
G1 X23.048 Y-130.818 F2200.0
G0 Z0.0000 F2500.0
G4 P0.02
G0 X23.048 Y-132.255 F15000.0
G1 Z11.9000 F2500.0
G4 P0.02
G1 X23.048 Y-141.219 F2200.0
G0 Z0.0000 F2500.0
G4 P0.02
G0 X17.381 Y-137.329 F15000.0
G1 Z11.9000 F2500.0
G4 P0.02
G1 X18.649 Y-132.424 F2200.0
G0 Z0.0000 F2500.0
G4 P0.02
G0 X17.381 Y-137.329 F15000.0
G1 Z11.9000 F2500.0
G4 P0.02
G1 X19.918 Y-132.932 F2200.0
G1 X19.072 Y-133.101
G0 Z0.0000 F2500.0
G4 P0.02
G0 X18.692 Y-135.537 F15000.0
G1 Z11.9000 F2500.0
G4 P0.02
G1 X18.692 Y-134.639 F2200.0
G0 Z0.0000 F2500.0
G4 P0.02
G0 X18.269 Y-134.385 F15000.0
G1 Z11.9000 F2500.0
G4 P0.02
G1 X18.269 Y-135.284 F2200.0
G0 Z0.0000 F2500.0
G4 P0.02
G0 X18.058 Y-123.460 F15000.0
G1 Z11.9000 F2500.0
G4 P0.02
G1 X23.048 Y-123.460 F2200.0
G1 X13.491 Y-146.716
G1 X0.000 Y-146.716
G0 Z0.0000 F2500.0
G4 P0.02
G0 X1.972 Y-149.303 F15000.0
G1 Z11.9000 F2500.0
G4 P0.02
G1 X3.282 Y-154.762 F2200.0
G1 X4.966 Y-154.600
G1 X5.464 Y-153.903
G1 X5.253 Y-152.811
G1 X4.199 Y-151.928
G1 X3.627 Y-151.822
G1 X2.577 Y-151.822
G0 Z0.0000 F2500.0
G4 P0.02
G0 X3.626 Y-151.822 F15000.0
G1 Z11.9000 F2500.0
G4 P0.02
G1 X4.492 Y-149.303 F2200.0
G0 Z0.0000 F2500.0
G4 P0.02
G0 X7.013 Y-149.303 F15000.0
G1 Z11.9000 F2500.0
G4 P0.02
G1 X8.322 Y-154.760 F2200.0
G1 X6.761 Y-153.503
G0 Z0.0000 F2500.0
G4 P0.02
G0 X8.272 Y-149.303 F15000.0
G1 Z11.9000 F2500.0
G4 P0.02
G1 X9.256 Y-149.310 F2200.0
G1 X10.322 Y-149.891
G1 X10.776 Y-150.982
G1 X10.782 Y-151.528
G1 X10.335 Y-152.117
G1 X8.978 Y-152.242
G1 X9.583 Y-154.762
G1 X11.683 Y-154.762
G0 Z0.0000 F2500.0
G4 P0.02
G0 X8.078 Y-181.983 F15000.0
G1 Z11.9000 F2500.0
G4 P0.02
G1 X8.078 Y-209.384 F2200.0
G0 Z0.0000 F2500.0
G4 P0.02
G0 X8.078 Y-210.144 F15000.0
G1 Z11.9000 F2500.0
G4 P0.02
G1 X12.307 Y-214.374 F2200.0
G0 Z0.0000 F2500.0
G4 P0.02
G0 X16.619 Y-214.374 F15000.0
G1 Z11.9000 F2500.0
G4 P0.02
G1 X8.078 Y-205.831 F2200.0
G0 Z0.0000 F2500.0
G4 P0.02
G0 X8.078 Y-204.394 F15000.0
G1 Z11.9000 F2500.0
G4 P0.02
G1 X157.937 Y-204.394 F2200.0
G1 X157.937 Y-214.374
G1 X8.078 Y-214.374
G1 X8.078 Y-204.394
G0 Z0.0000 F2500.0
G4 P0.02
G0 X10.869 Y-204.394 F15000.0
G1 Z11.9000 F2500.0
G4 P0.02
G1 X20.088 Y-213.612 F2200.0
G0 Z0.0000 F2500.0
G4 P0.02
G0 X20.088 Y-214.374 F15000.0
G1 Z11.9000 F2500.0
G4 P0.02
G1 X20.088 Y-204.394 F2200.0
G0 Z0.0000 F2500.0
G4 P0.02
G0 X20.088 Y-205.155 F15000.0
G1 Z11.9000 F2500.0
G4 P0.02
G1 X19.326 Y-204.394 F2200.0
G0 Z0.0000 F2500.0
G4 P0.02
G0 X15.098 Y-204.394 F15000.0
G1 Z11.9000 F2500.0
G4 P0.02
G1 X20.088 Y-209.384 F2200.0
G0 Z0.0000 F2500.0
G4 P0.02
G0 X26.092 Y-211.160 F15000.0
G1 Z11.9000 F2500.0
G4 P0.02
G1 X29.305 Y-214.374 F2200.0
G0 Z0.0000 F2500.0
G4 P0.02
G0 X26.092 Y-214.374 F15000.0
G1 Z11.9000 F2500.0
G4 P0.02
G1 X26.092 Y-204.394 F2200.0
G0 Z0.0000 F2500.0
G4 P0.02
G0 X27.783 Y-204.394 F15000.0
G1 Z11.9000 F2500.0
G4 P0.02
G1 X37.762 Y-214.374 F2200.0
G0 Z0.0000 F2500.0
G4 P0.02
G0 X33.535 Y-214.374 F15000.0
G1 Z11.9000 F2500.0
G4 P0.02
G1 X26.092 Y-206.931 F2200.0
G0 Z0.0000 F2500.0
G4 P0.02
G0 X23.048 Y-201.687 F15000.0
G1 Z11.9000 F2500.0
G4 P0.02
G1 X23.048 Y-217.925 F2200.0
G0 Z0.0000 F2500.0
G4 P0.02
G0 X32.012 Y-204.394 F15000.0
G1 Z11.9000 F2500.0
G4 P0.02
G1 X41.992 Y-214.374 F2200.0
G0 Z0.0000 F2500.0
G4 P0.02
G0 X46.219 Y-214.374 F15000.0
G1 Z11.9000 F2500.0
G4 P0.02
G1 X36.240 Y-204.394 F2200.0
G0 Z0.0000 F2500.0
G4 P0.02
G0 X40.469 Y-204.394 F15000.0
G1 Z11.9000 F2500.0
G4 P0.02
G1 X50.449 Y-214.374 F2200.0
G0 Z0.0000 F2500.0
G4 P0.02
G0 X54.676 Y-214.374 F15000.0
G1 Z11.9000 F2500.0
G4 P0.02
G1 X44.697 Y-204.394 F2200.0
G0 Z0.0000 F2500.0
G4 P0.02
G0 X48.926 Y-204.394 F15000.0
G1 Z11.9000 F2500.0
G4 P0.02
G1 X58.990 Y-214.374 F2200.0
G0 Z0.0000 F2500.0
G4 P0.02
G0 X63.218 Y-214.374 F15000.0
G1 Z11.9000 F2500.0
G4 P0.02
G1 X53.239 Y-204.394 F2200.0
G0 Z0.0000 F2500.0
G4 P0.02
G0 X57.467 Y-204.394 F15000.0
G1 Z11.9000 F2500.0
G4 P0.02
G1 X67.447 Y-214.374 F2200.0
G0 Z0.0000 F2500.0
G4 P0.02
G0 X71.674 Y-214.374 F15000.0
G1 Z11.9000 F2500.0
G4 P0.02
G1 X61.696 Y-204.394 F2200.0
G0 Z0.0000 F2500.0
G4 P0.02
G0 X65.924 Y-204.394 F15000.0
G1 Z11.9000 F2500.0
G4 P0.02
G1 X75.904 Y-214.374 F2200.0
G0 Z0.0000 F2500.0
G4 P0.02
G0 X79.456 Y-213.697 F15000.0
G1 Z11.9000 F2500.0
G4 P0.02
G1 X70.153 Y-204.394 F2200.0
G0 Z0.0000 F2500.0
G4 P0.02
G0 X74.381 Y-204.394 F15000.0
G1 Z11.9000 F2500.0
G4 P0.02
G1 X79.456 Y-209.468 F2200.0
G0 Z0.0000 F2500.0
G4 P0.02
G0 X79.456 Y-205.240 F15000.0
G1 Z11.9000 F2500.0
G4 P0.02
G1 X78.610 Y-204.394 F2200.0
G0 Z0.0000 F2500.0
G4 P0.02
G0 X83.007 Y-204.394 F15000.0
G1 Z11.9000 F2500.0
G4 P0.02
G1 X86.560 Y-214.374 F2200.0
G1 X86.560 Y-204.394
G1 X83.007 Y-214.374
G1 X83.007 Y-204.394
G1 X79.456 Y-214.374
G1 X79.456 Y-204.394
G1 X83.007 Y-214.374
G0 Z0.0000 F2500.0
G4 P0.02
G0 X86.560 Y-212.258 F15000.0
G1 Z11.9000 F2500.0
G4 P0.02
G1 X88.590 Y-214.374 F2200.0
G0 Z0.0000 F2500.0
G4 P0.02
G0 X92.818 Y-214.374 F15000.0
G1 Z11.9000 F2500.0
G4 P0.02
G1 X86.560 Y-208.031 F2200.0
G0 Z0.0000 F2500.0
G4 P0.02
G0 X87.067 Y-204.394 F15000.0
G1 Z11.9000 F2500.0
G4 P0.02
G1 X97.131 Y-214.374 F2200.0
G0 Z0.0000 F2500.0
G4 P0.02
G0 X101.359 Y-214.374 F15000.0
G1 Z11.9000 F2500.0
G4 P0.02
G1 X91.380 Y-204.394 F2200.0
G0 Z0.0000 F2500.0
G4 P0.02
G0 X95.608 Y-204.394 F15000.0
G1 Z11.9000 F2500.0
G4 P0.02
G1 X105.588 Y-214.374 F2200.0
G0 Z0.0000 F2500.0
G4 P0.02
G0 X109.816 Y-214.374 F15000.0
G1 Z11.9000 F2500.0
G4 P0.02
G1 X99.838 Y-204.394 F2200.0
G0 Z0.0000 F2500.0
G4 P0.02
G0 X104.065 Y-204.394 F15000.0
G1 Z11.9000 F2500.0
G4 P0.02
G1 X114.045 Y-214.374 F2200.0
G0 Z0.0000 F2500.0
G4 P0.02
G0 X118.273 Y-214.374 F15000.0
G1 Z11.9000 F2500.0
G4 P0.02
G1 X108.294 Y-204.394 F2200.0
G0 Z0.0000 F2500.0
G4 P0.02
G0 X112.522 Y-204.394 F15000.0
G1 Z11.9000 F2500.0
G4 P0.02
G1 X122.502 Y-214.374 F2200.0
G0 Z0.0000 F2500.0
G4 P0.02
G0 X126.731 Y-214.374 F15000.0
G1 Z11.9000 F2500.0
G4 P0.02
G1 X116.751 Y-204.394 F2200.0
G0 Z0.0000 F2500.0
G4 P0.02
G0 X120.979 Y-204.394 F15000.0
G1 Z11.9000 F2500.0
G4 P0.02
G1 X130.959 Y-214.374 F2200.0
G0 Z0.0000 F2500.0
G4 P0.02
G0 X135.272 Y-214.374 F15000.0
G1 Z11.9000 F2500.0
G4 P0.02
G1 X125.209 Y-204.394 F2200.0
G0 Z0.0000 F2500.0
G4 P0.02
G0 X129.522 Y-204.394 F15000.0
G1 Z11.9000 F2500.0
G4 P0.02
G1 X139.500 Y-214.374 F2200.0
G0 Z0.0000 F2500.0
G4 P0.02
G0 X139.923 Y-214.374 F15000.0
G1 Z11.9000 F2500.0
G4 P0.02
G1 X139.923 Y-204.394 F2200.0
G0 Z0.0000 F2500.0
G4 P0.02
G0 X137.979 Y-204.394 F15000.0
G1 Z11.9000 F2500.0
G4 P0.02
G1 X139.923 Y-206.338 F2200.0
G0 Z0.0000 F2500.0
G4 P0.02
G0 X139.923 Y-210.567 F15000.0
G1 Z11.9000 F2500.0
G4 P0.02
G1 X133.750 Y-204.394 F2200.0
G0 Z0.0000 F2500.0
G4 P0.02
G0 X142.969 Y-201.095 F15000.0
G1 Z11.9000 F2500.0
G4 P0.02
G1 X142.969 Y-217.164 F2200.0
G0 Z0.0000 F2500.0
G4 P0.02
G0 X145.929 Y-214.374 F15000.0
G1 Z11.9000 F2500.0
G4 P0.02
G1 X145.929 Y-204.394 F2200.0
G0 Z0.0000 F2500.0
G4 P0.02
G0 X146.436 Y-204.394 F15000.0
G1 Z11.9000 F2500.0
G4 P0.02
G1 X156.414 Y-214.374 F2200.0
G0 Z0.0000 F2500.0
G4 P0.02
G0 X157.937 Y-214.374 F15000.0
G1 Z11.9000 F2500.0
G4 P0.02
G1 X171.721 Y-214.374 F2200.0
G0 Z0.0000 F2500.0
G4 P0.02
G0 X170.031 Y-216.461 F15000.0
G1 Z11.9000 F2500.0
G4 P0.02
G1 X170.031 Y-217.360 F2200.0
G0 Z0.0000 F2500.0
G4 P0.02
G0 X169.397 Y-217.656 F15000.0
G1 Z11.9000 F2500.0
G4 P0.02
G1 X169.397 Y-216.756 F2200.0
G0 Z0.0000 F2500.0
G4 P0.02
G0 X169.693 Y-221.308 F15000.0
G1 Z11.9000 F2500.0
G4 P0.02
G1 X169.693 Y-214.374 F2200.0
G1 X170.370 Y-219.362
G1 X169.693 Y-218.855
G1 X169.016 Y-219.362
G1 X169.693 Y-214.374
G1 X169.693 Y-204.394
G1 X169.016 Y-199.320
G1 X169.693 Y-199.827
G1 X170.370 Y-199.320
G1 X169.693 Y-204.394
G1 X169.693 Y-197.374
G0 Z0.0000 F2500.0
G4 P0.02
G0 X169.397 Y-201.154 F15000.0
G1 Z11.9000 F2500.0
G4 P0.02
G1 X169.397 Y-202.053 F2200.0
G0 Z0.0000 F2500.0
G4 P0.02
G0 X170.031 Y-202.349 F15000.0
G1 Z11.9000 F2500.0
G4 P0.02
G1 X170.031 Y-201.449 F2200.0
G0 Z0.0000 F2500.0
G4 P0.02
G0 X171.721 Y-204.394 F15000.0
G1 Z11.9000 F2500.0
G4 P0.02
G1 X157.937 Y-204.394 F2200.0
G0 Z0.0000 F2500.0
G4 P0.02
G0 X157.937 Y-207.354 F15000.0
G1 Z11.9000 F2500.0
G4 P0.02
G1 X154.893 Y-204.394 F2200.0
G0 Z0.0000 F2500.0
G4 P0.02
G0 X150.664 Y-204.394 F15000.0
G1 Z11.9000 F2500.0
G4 P0.02
G1 X157.937 Y-211.582 F2200.0
G0 Z0.0000 F2500.0
G4 P0.02
G0 X157.937 Y-209.384 F15000.0
G1 Z11.9000 F2500.0
G4 P0.02
G1 X157.937 Y-181.983 F2200.0
G0 Z0.0000 F2500.0
G4 P0.02
G0 X157.937 Y-184.013 F15000.0
G1 Z11.9000 F2500.0
G4 P0.02
G1 X152.947 Y-184.689 F2200.0
G1 X153.454 Y-184.013
G1 X152.947 Y-183.336
G1 X157.937 Y-184.013
G1 X8.078 Y-184.013
G1 X13.068 Y-183.336
G1 X12.561 Y-184.013
G1 X13.068 Y-184.689
G1 X8.078 Y-184.013
G0 Z0.0000 F2500.0
G4 P0.02
G0 X10.123 Y-183.716 F15000.0
G1 Z11.9000 F2500.0
G4 P0.02
G1 X11.023 Y-183.716 F2200.0
G0 Z0.0000 F2500.0
G4 P0.02
G0 X11.361 Y-184.350 F15000.0
G1 Z11.9000 F2500.0
G4 P0.02
G1 X10.462 Y-184.350 F2200.0
G0 Z0.0000 F2500.0
G4 P0.02
G0 X59.203 Y-182.122 F15000.0
G1 Z11.9000 F2500.0
G4 P0.02
G1 X54.875 Y-177.794 F2200.0
G1 X58.822 Y-171.353
G1 X60.857 Y-173.355
G1 X61.877 Y-173.890
G1 X62.603 Y-173.999
G1 X63.326 Y-173.899
G1 X64.010 Y-173.599
G1 X64.888 Y-172.805
G1 X65.987 Y-171.011
G1 X66.383 Y-169.733
G1 X66.420 Y-168.350
G1 X66.092 Y-167.015
G1 X65.438 Y-165.881
G1 X63.428 Y-163.838
G0 Z0.0000 F2500.0
G4 P0.02
G0 X61.780 Y-158.049 F15000.0
G1 Z11.9000 F2500.0
G4 P0.02
G1 X56.876 Y-153.145 F2200.0
G1 X60.850 Y-156.189
G1 X60.089 Y-156.273
G1 X59.920 Y-157.119
G1 X56.876 Y-153.145
G1 X53.323 Y-149.592
G1 X49.349 Y-146.548
G1 X50.194 Y-146.379
G1 X50.279 Y-145.618
G1 X53.323 Y-149.592
G1 X48.419 Y-144.602
G0 Z0.0000 F2500.0
G4 P0.02
G0 X51.282 Y-147.827 F15000.0
G1 Z11.9000 F2500.0
G4 P0.02
G1 X51.981 Y-147.128 F2200.0
G0 Z0.0000 F2500.0
G4 P0.02
G0 X51.686 Y-147.635 F15000.0
G1 Z11.9000 F2500.0
G4 P0.02
G1 X50.986 Y-148.335 F2200.0
G0 Z0.0000 F2500.0
G4 P0.02
G0 X51.970 Y-151.029 F15000.0
G1 Z11.9000 F2500.0
G4 P0.02
G1 X81.231 Y-121.684 F2200.0
G0 Z0.0000 F2500.0
G4 P0.02
G0 X83.007 Y-119.908 F15000.0
G1 Z11.9000 F2500.0
G4 P0.02
G1 X86.560 Y-123.460 F2200.0
G1 X83.007 Y-127.012
G1 X79.456 Y-123.460
G0 Z0.0000 F2500.0
G4 P0.02
G0 X83.007 Y-117.624 F15000.0
G1 Z11.9000 F2500.0
G4 P0.02
G1 X83.007 Y-123.460 F2200.0
G1 X104.404 Y-157.457
G1 X119.712 Y-157.457
G0 Z0.0000 F2500.0
G4 P0.02
G0 X117.359 Y-162.754 F15000.0
G1 Z11.9000 F2500.0
G4 P0.02
G1 X117.512 Y-164.100 F2200.0
G1 X117.399 Y-164.815
G1 X117.128 Y-165.282
G1 X116.731 Y-165.445
G1 X116.257 Y-165.282
G1 X115.761 Y-164.815
G1 X115.109 Y-163.674
G1 X114.719 Y-162.287
G1 X114.694 Y-161.023
G1 X114.888 Y-160.422
G1 X115.227 Y-160.102
G1 X115.670 Y-160.102
G1 X116.163 Y-160.422
G1 X116.866 Y-161.407
G1 X117.359 Y-162.754
G0 Z0.0000 F2500.0
G4 P0.02
G0 X112.700 Y-160.023 F15000.0
G1 Z11.9000 F2500.0
G4 P0.02
G1 X110.180 Y-160.023 F2200.0
G1 X113.378 Y-163.673
G1 X113.637 Y-164.064
G1 X113.706 Y-165.019
G1 X113.175 Y-165.537
G1 X112.196 Y-165.490
G1 X111.289 Y-164.646
G0 Z0.0000 F2500.0
G4 P0.02
G0 X108.052 Y-162.543 F15000.0
G1 Z11.9000 F2500.0
G4 P0.02
G1 X108.919 Y-160.023 F2200.0
G0 Z0.0000 F2500.0
G4 P0.02
G0 X106.398 Y-160.023 F15000.0
G1 Z11.9000 F2500.0
G4 P0.02
G1 X107.709 Y-165.484 F2200.0
G1 X109.394 Y-165.320
G1 X109.890 Y-164.624
G1 X109.681 Y-163.532
G1 X108.625 Y-162.649
G1 X108.053 Y-162.543
G1 X107.003 Y-162.543
G0 Z0.0000 F2500.0
G4 P0.02
G0 X93.664 Y-140.374 F15000.0
G1 Z11.9000 F2500.0
G4 P0.02
G1 X90.450 Y-136.484 F2200.0
G0 Z0.0000 F2500.0
G4 P0.02
G0 X93.664 Y-140.374 F15000.0
G1 Z11.9000 F2500.0
G4 P0.02
G1 X91.549 Y-135.808 F2200.0
G1 X91.211 Y-136.568
G0 Z0.0000 F2500.0
G4 P0.02
G0 X95.271 Y-139.189 F15000.0
G1 Z11.9000 F2500.0
G4 P0.02
G1 X94.341 Y-139.866 F2200.0
G1 X92.141 Y-141.219
G1 X89.774 Y-142.235
G1 X87.237 Y-142.995
G1 X84.700 Y-143.334
G1 X83.007 Y-143.418
G1 X81.317 Y-143.334
G1 X21.863 Y-138.345
G1 X19.579 Y-138.006
G1 X17.465 Y-137.329
G1 X15.435 Y-136.315
G1 X13.575 Y-135.046
G1 X11.968 Y-133.524
G1 X10.615 Y-131.748
G1 X9.515 Y-129.718
G1 X8.671 Y-127.688
G1 X8.248 Y-125.489
G1 X8.078 Y-123.205
G1 X8.332 Y-120.923
G1 X8.839 Y-118.808
G1 X9.685 Y-116.694
G1 X10.869 Y-114.748
G1 X12.307 Y-113.058
G1 X13.998 Y-111.535
G1 X15.858 Y-110.351
G1 X17.888 Y-109.337
G1 X20.088 Y-108.744
G1 X21.863 Y-108.491
G1 X81.317 Y-103.501
G1 X84.700 Y-103.501
G1 X144.237 Y-108.491
G1 X145.929 Y-108.744
G1 X148.127 Y-109.337
G1 X150.157 Y-110.351
G1 X152.017 Y-111.535
G1 X153.709 Y-113.058
G1 X155.147 Y-114.748
G1 X156.330 Y-116.694
G1 X157.176 Y-118.808
G1 X157.683 Y-120.923
G1 X157.937 Y-123.205
G1 X157.768 Y-125.489
G1 X157.346 Y-127.688
G1 X156.500 Y-129.718
G1 X155.400 Y-131.748
G1 X154.047 Y-133.524
G1 X152.440 Y-135.046
G1 X150.580 Y-136.315
G1 X148.550 Y-137.329
G1 X146.436 Y-138.006
G1 X144.237 Y-138.345
G1 X84.700 Y-143.334
G0 Z0.0000 F2500.0
G4 P0.02
G0 X83.007 Y-145.448 F15000.0
G1 Z11.9000 F2500.0
G4 P0.02
G1 X83.007 Y-133.778 F2200.0
G0 Z0.0000 F2500.0
G4 P0.02
G0 X83.007 Y-132.255 F15000.0
G1 Z11.9000 F2500.0
G4 P0.02
G1 X83.007 Y-130.732 F2200.0
G0 Z0.0000 F2500.0
G4 P0.02
G0 X83.007 Y-129.295 F15000.0
G1 Z11.9000 F2500.0
G4 P0.02
G1 X83.007 Y-123.460 F2200.0
G0 Z0.0000 F2500.0
G4 P0.02
G0 X84.784 Y-125.235 F15000.0
G1 Z11.9000 F2500.0
G4 P0.02
G1 X55.437 Y-154.496 F2200.0
G0 Z0.0000 F2500.0
G4 P0.02
G0 X58.217 Y-155.523 F15000.0
G1 Z11.9000 F2500.0
G4 P0.02
G1 X58.917 Y-154.825 F2200.0
G1 X58.766 Y-155.227
G1 X59.467 Y-154.528
G0 Z0.0000 F2500.0
G4 P0.02
G0 X60.427 Y-156.612 F15000.0
G1 Z11.9000 F2500.0
G4 P0.02
G1 X69.223 Y-165.492 F2200.0
G0 Z0.0000 F2500.0
G4 P0.02
G0 X53.723 Y-159.193 F15000.0
G1 Z11.9000 F2500.0
G4 P0.02
G1 X54.902 Y-170.203 F2200.0
G1 X49.987 Y-165.288
G1 X53.723 Y-159.193
G1 X58.638 Y-164.108
G0 Z0.0000 F2500.0
G4 P0.02
G0 X79.462 Y-186.570 F15000.0
G1 Z11.9000 F2500.0
G4 P0.02
G1 X80.772 Y-192.029 F2200.0
G1 X79.210 Y-190.771
G0 Z0.0000 F2500.0
G4 P0.02
G0 X80.723 Y-186.570 F15000.0
G1 Z11.9000 F2500.0
G4 P0.02
G1 X81.562 Y-186.570 F2200.0
G1 X82.662 Y-187.044
G1 X83.225 Y-188.250
G1 X83.231 Y-188.797
G1 X82.784 Y-189.386
G1 X81.428 Y-189.511
G1 X82.033 Y-192.031
G1 X84.133 Y-192.031
G0 Z0.0000 F2500.0
G4 P0.02
G0 X87.482 Y-189.302 F15000.0
G1 Z11.9000 F2500.0
G4 P0.02
G1 X87.635 Y-190.647 F2200.0
G1 X87.522 Y-191.363
G1 X87.251 Y-191.830
G1 X86.854 Y-191.993
G1 X86.380 Y-191.830
G1 X85.647 Y-191.031
G1 X85.065 Y-189.769
G1 X84.789 Y-188.380
G1 X84.894 Y-187.239
G1 X85.165 Y-186.772
G1 X85.562 Y-186.609
G1 X86.036 Y-186.772
G1 X86.532 Y-187.239
G1 X87.184 Y-188.380
G1 X87.482 Y-189.302
G0 Z0.0000 F2500.0
G4 P0.02
G0 X91.707 Y-138.693 F15000.0
G1 Z11.9000 F2500.0
G4 P0.02
G1 X92.406 Y-137.994 F2200.0
G1 X92.437 Y-137.640
G1 X92.437 Y-138.540
G0 Z0.0000 F2500.0
G4 P0.02
G0 X83.007 Y-116.102 F15000.0
G1 Z11.9000 F2500.0
G4 P0.02
G1 X83.007 Y-114.580 F2200.0
G0 Z0.0000 F2500.0
G4 P0.02
G0 X83.007 Y-113.142 F15000.0
G1 Z11.9000 F2500.0
G4 P0.02
G1 X83.007 Y-101.471 F2200.0
G0 Z0.0000 F2500.0
G4 P0.02
G0 X81.621 Y-93.412 F15000.0
G1 Z11.9000 F2500.0
G4 P0.02
G1 X82.528 Y-94.256 F2200.0
G1 X83.508 Y-94.304
G1 X84.038 Y-93.784
G1 X83.969 Y-92.829
G1 X83.710 Y-92.439
G1 X80.512 Y-88.789
G1 X83.032 Y-88.789
G0 Z0.0000 F2500.0
G4 P0.02
G0 X79.252 Y-88.789 F15000.0
G1 Z11.9000 F2500.0
G4 P0.02
G1 X80.561 Y-94.247 F2200.0
G1 X79.000 Y-92.989
G0 Z0.0000 F2500.0
G4 P0.02
G0 X87.692 Y-91.519 F15000.0
G1 Z11.9000 F2500.0
G4 P0.02
G1 X87.844 Y-92.865 F2200.0
G1 X87.731 Y-93.582
G1 X87.461 Y-94.049
G1 X87.064 Y-94.212
G1 X86.589 Y-94.049
G1 X85.857 Y-93.250
G1 X85.276 Y-91.987
G1 X85.000 Y-90.598
G1 X85.103 Y-89.457
G1 X85.375 Y-88.990
G1 X85.772 Y-88.828
G1 X86.246 Y-88.990
G1 X86.979 Y-89.789
G1 X87.561 Y-91.052
G0 Z0.0000 F2500.0
G4 P0.02
G0 X61.950 Y-48.276 F15000.0
G1 Z11.9000 F2500.0
G4 P0.02
G1 X61.950 Y0.000 F2200.0
G0 Z0.0000 F2500.0
G4 P0.02
G0 X63.461 Y0.000 F15000.0
G1 Z11.9000 F2500.0
G4 P0.02
G1 X63.955 Y-2.371 F2200.0
G1 X64.710 Y-3.242
G1 X66.173 Y-3.422
G0 Z0.0000 F2500.0
G4 P0.02
G0 X68.556 Y-1.844 F15000.0
G1 Z11.9000 F2500.0
G4 P0.02
G1 X68.114 Y0.000 F2200.0
G0 Z0.0000 F2500.0
G4 P0.02
G0 X69.670 Y0.000 F15000.0
G1 Z11.9000 F2500.0
G4 P0.02
G1 X69.964 Y-1.299 F2200.0
G1 X69.683 Y-1.759
G1 X66.978 Y-1.844
G1 X66.535 Y0.000
G0 Z0.0000 F2500.0
G4 P0.02
G0 X70.906 Y0.000 F15000.0
G1 Z11.9000 F2500.0
G4 P0.02
G1 X71.300 Y-1.413 F2200.0
G1 X71.982 Y-1.835
G1 X73.291 Y-1.844
G1 X72.859 Y0.000
G0 Z0.0000 F2500.0
G4 P0.02
G0 X74.901 Y0.000 F15000.0
G1 Z11.9000 F2500.0
G4 P0.02
G1 X75.856 Y-1.844 F2200.0
G1 X76.842 Y-1.844
G1 X76.399 Y0.000
G0 Z0.0000 F2500.0
G4 P0.02
G0 X78.026 Y-1.844 F15000.0
G1 Z11.9000 F2500.0
G4 P0.02
G1 X77.583 Y0.000 F2200.0
G1 X78.814 Y-0.058
G1 X78.901 Y0.000
G0 Z0.0000 F2500.0
G4 P0.02
G0 X83.641 Y-2.238 F15000.0
G1 Z11.9000 F2500.0
G4 P0.02
G1 X85.109 Y-3.419 F2200.0
G1 X84.288 Y0.000
G0 Z0.0000 F2500.0
G4 P0.02
G0 X85.764 Y0.000 F15000.0
G1 Z11.9000 F2500.0
G4 P0.02
G1 X85.861 Y-0.858 F2200.0
G1 X86.326 Y-2.121
G1 X86.986 Y-3.047
G1 X87.449 Y-3.348
G1 X87.864 Y-3.348
G1 X88.182 Y-3.047
G1 X88.398 Y-2.121
G1 X88.255 Y-0.858
G1 X87.941 Y0.000
G0 Z0.0000 F2500.0
G4 P0.02
G0 X91.784 Y0.000 F15000.0
G1 Z11.9000 F2500.0
G4 P0.02
G1 X92.606 Y-3.422 F2200.0
G1 X94.579 Y-3.422
G0 Z0.0000 F2500.0
G4 P0.02
G0 X95.032 Y0.000 F15000.0
G1 Z11.9000 F2500.0
G4 P0.02
G1 X95.600 Y-2.620 F2200.0
G1 X96.432 Y-3.424
G1 X97.350 Y-3.475
G1 X97.881 Y-2.871
G1 X97.287 Y0.000
G0 Z0.0000 F2500.0
G4 P0.02
G0 X98.575 Y0.000 F15000.0
G1 Z11.9000 F2500.0
G4 P0.02
G1 X99.069 Y-2.371 F2200.0
G1 X99.824 Y-3.242
G1 X101.286 Y-3.422
G0 Z0.0000 F2500.0
G4 P0.02
G0 X102.470 Y-3.422 F15000.0
G1 Z11.9000 F2500.0
G4 P0.02
G1 X104.837 Y-3.422 F2200.0
G0 Z0.0000 F2500.0
G4 P0.02
G0 X103.653 Y-3.422 F15000.0
G1 Z11.9000 F2500.0
G4 P0.02
G1 X102.832 Y0.000 F2200.0
G0 Z0.0000 F2500.0
G4 P0.02
G0 X108.104 Y-2.238 F15000.0
G1 Z11.9000 F2500.0
G4 P0.02
G1 X109.572 Y-3.419 F2200.0
G1 X108.751 Y0.000
G0 Z0.0000 F2500.0
G4 P0.02
G0 X110.227 Y0.000 F15000.0
G1 Z11.9000 F2500.0
G4 P0.02
G1 X110.324 Y-0.858 F2200.0
G1 X110.789 Y-2.121
G1 X111.449 Y-3.047
G1 X111.910 Y-3.348
G1 X112.327 Y-3.348
G1 X112.645 Y-3.047
G1 X112.861 Y-2.121
G1 X112.718 Y-0.858
G1 X112.404 Y0.000
G0 Z0.0000 F2500.0
G4 P0.02
G0 X115.776 Y0.000 F15000.0
G1 Z11.9000 F2500.0
G4 P0.02
G1 X115.849 Y-0.262 F2200.0
G1 X115.408 Y-0.938
G1 X114.133 Y-1.055
G1 X114.701 Y-3.422
G1 X116.674 Y-3.422
G0 Z0.0000 F2500.0
G4 P0.02
G0 X117.330 Y0.000 F15000.0
G1 Z11.9000 F2500.0
G4 P0.02
G1 X117.427 Y-0.858 F2200.0
G1 X117.890 Y-2.121
G1 X118.550 Y-3.047
G1 X119.013 Y-3.348
G1 X119.429 Y-3.348
G1 X119.747 Y-3.047
G1 X119.964 Y-2.121
G1 X119.820 Y-0.858
G1 X119.506 Y0.000
G0 Z0.0000 F2500.0
G4 P0.02
G0 X120.999 Y-0.068 F15000.0
G1 Z11.9000 F2500.0
G4 P0.02
G1 X122.972 Y-0.068 F2200.0
G0 Z0.0000 F2500.0
G4 P0.02
G0 X124.284 Y0.000 F15000.0
G1 Z11.9000 F2500.0
G4 P0.02
G1 X124.597 Y-0.601 F2200.0
G1 X125.760 Y-1.053
G1 X126.505 Y-0.696
G1 X126.636 Y0.000
G0 Z0.0000 F2500.0
G4 P0.02
G0 X128.072 Y0.000 F15000.0
G1 Z11.9000 F2500.0
G4 P0.02
G1 X128.385 Y-0.601 F2200.0
G1 X129.547 Y-1.053
G1 X130.361 Y-0.601
G1 X130.439 Y0.000
G0 Z0.0000 F2500.0
G4 P0.02
G0 X131.889 Y0.000 F15000.0
G1 Z11.9000 F2500.0
G4 P0.02
G1 X131.889 Y-33.308 F2200.0
G0 Z0.0000 F2500.0
G4 P0.02
G0 X131.889 Y-28.318 F15000.0
G1 Z11.9000 F2500.0
G4 P0.02
G1 X177.000 Y-28.318 F2200.0
G0 Z0.0000 F2500.0
G4 P0.02
G0 X177.000 Y-29.617 F15000.0
G1 Z11.9000 F2500.0
G4 P0.02
G1 X176.676 Y-29.395 F2200.0
G1 X176.379 Y-29.911
G1 X176.937 Y-31.275
G1 X177.000 Y-31.279
G0 Z0.0000 F2500.0
G4 P0.02
G0 X175.245 Y-31.321 F15000.0
G1 Z11.9000 F2500.0
G4 P0.02
G1 X174.790 Y-29.427 F2200.0
G0 Z0.0000 F2500.0
G4 P0.02
G0 X175.632 Y-29.427 F15000.0
G1 Z11.9000 F2500.0
G4 P0.02
G1 X175.985 Y-30.900 F2200.0
G1 X175.964 Y-31.147
G1 X174.403 Y-31.321
G1 X173.948 Y-29.427
G0 Z0.0000 F2500.0
G4 P0.02
G0 X172.475 Y-29.427 F15000.0
G1 Z11.9000 F2500.0
G4 P0.02
G1 X172.930 Y-31.321 F2200.0
G0 Z0.0000 F2500.0
G4 P0.02
G0 X173.772 Y-31.321 F15000.0
G1 Z11.9000 F2500.0
G4 P0.02
G1 X173.317 Y-29.427 F2200.0
G1 X172.055 Y-29.427
G1 X171.826 Y-29.507
G1 X172.088 Y-31.321
G0 Z0.0000 F2500.0
G4 P0.02
G0 X171.457 Y-31.321 F15000.0
G1 Z11.9000 F2500.0
G4 P0.02
G1 X170.535 Y-30.966 F2200.0
G1 X170.353 Y-29.507
G1 X170.582 Y-29.427
G1 X171.002 Y-29.427
G0 Z0.0000 F2500.0
G4 P0.02
G0 X169.529 Y-29.427 F15000.0
G1 Z11.9000 F2500.0
G4 P0.02
G1 X169.415 Y-29.467 F2200.0
G1 X169.773 Y-31.321
G1 X168.941 Y-31.275
G1 X168.382 Y-29.911
G1 X168.679 Y-29.395
G1 X169.435 Y-29.911
G0 Z0.0000 F2500.0
G4 P0.02
G0 X167.636 Y-29.427 F15000.0
G1 Z11.9000 F2500.0
G4 P0.02
G1 X168.292 Y-32.163 F2200.0
G1 X167.097 Y-30.689
G1 X166.609 Y-32.163
G1 X165.952 Y-29.427
G0 Z0.0000 F2500.0
G4 P0.02
G0 X163.857 Y-33.308 F15000.0
G1 Z11.9000 F2500.0
G4 P0.02
G1 X163.857 Y-13.264 F2200.0
G0 Z0.0000 F2500.0
G4 P0.02
G0 X162.487 Y-11.343 F15000.0
G1 Z11.9000 F2500.0
G4 P0.02
G1 X162.032 Y-9.450 F2200.0
G0 Z0.0000 F2500.0
G4 P0.02
G0 X162.875 Y-9.450 F15000.0
G1 Z11.9000 F2500.0
G4 P0.02
G1 X163.227 Y-10.923 F2200.0
G1 X163.207 Y-11.171
G1 X161.645 Y-11.343
G1 X161.190 Y-9.450
G0 Z0.0000 F2500.0
G4 P0.02
G0 X160.559 Y-9.450 F15000.0
G1 Z11.9000 F2500.0
G4 P0.02
G1 X160.138 Y-9.450 F2200.0
G1 X159.910 Y-9.530
G1 X160.092 Y-10.989
G1 X161.014 Y-11.343
G0 Z0.0000 F2500.0
G4 P0.02
G0 X159.541 Y-11.343 F15000.0
G1 Z11.9000 F2500.0
G4 P0.02
G1 X159.086 Y-9.450 F2200.0
G1 X158.455 Y-9.450
G1 X158.226 Y-9.530
G1 X158.488 Y-11.343
G0 Z0.0000 F2500.0
G4 P0.02
G0 X157.402 Y-9.450 F15000.0
G1 Z11.9000 F2500.0
G4 P0.02
G1 X158.060 Y-12.185 F2200.0
G1 X157.448 Y-12.185
G1 X156.140 Y-9.450
G0 Z0.0000 F2500.0
G4 P0.02
G0 X156.502 Y-6.914 F15000.0
G1 Z11.9000 F2500.0
G4 P0.02
G1 X156.154 Y-4.833 F2200.0
G1 X156.755 Y-4.133
G1 X157.251 Y-4.035
G1 X158.279 Y-4.035
G0 Z0.0000 F2500.0
G4 P0.02
G0 X158.921 Y-1.569 F15000.0
G1 Z11.9000 F2500.0
G4 P0.02
G1 X160.204 Y-6.914 F2200.0
G1 X162.671 Y-6.914
G1 X161.388 Y-1.569
G0 Z0.0000 F2500.0
G4 P0.02
G0 X162.645 Y0.000 F15000.0
G1 Z11.9000 F2500.0
G4 P0.02
G1 X163.066 Y0.000 F2200.0
G0 Z0.0000 F2500.0
G4 P0.02
G0 X164.677 Y-1.569 F15000.0
G1 Z11.9000 F2500.0
G4 P0.02
G1 X163.854 Y-1.569 F2200.0
G1 X163.347 Y-1.689
G1 X162.909 Y-2.266
G1 X163.704 Y-5.955
G1 X164.574 Y-6.793
G1 X165.960 Y-6.914
G0 Z0.0000 F2500.0
G4 P0.02
G0 X164.674 Y-9.933 F15000.0
G1 Z11.9000 F2500.0
G4 P0.02
G1 X164.776 Y-11.289 F2200.0
G1 X163.987 Y-11.134
G1 X163.843 Y-10.859
G1 X163.741 Y-9.503
G1 X164.579 Y-9.724
G1 X164.674 Y-9.933
G0 Z0.0000 F2500.0
G4 P0.02
G0 X165.527 Y-10.859 F15000.0
G1 Z11.9000 F2500.0
G4 P0.02
G1 X165.669 Y-11.134 F2200.0
G1 X166.460 Y-11.289
G1 X166.357 Y-9.933
G1 X166.160 Y-9.601
G1 X165.380 Y-9.549
G1 X165.779 Y-11.912
G1 X166.030 Y-12.198
G1 X166.415 Y-12.042
G1 X165.734 Y-11.200
G0 Z0.0000 F2500.0
G4 P0.02
G0 X158.969 Y-6.914 F15000.0
G1 Z11.9000 F2500.0
G4 P0.02
G1 X157.761 Y-2.204 F2200.0
G1 X156.934 Y-1.604
G1 X155.631 Y-1.569
G0 Z0.0000 F2500.0
G4 P0.02
G0 X155.059 Y0.000 F15000.0
G1 Z11.9000 F2500.0
G4 P0.02
G1 X155.078 Y-0.079 F2200.0
G1 X156.979 Y-0.079
G0 Z0.0000 F2500.0
G4 P0.02
G0 X158.736 Y0.000 F15000.0
G1 Z11.9000 F2500.0
G4 P0.02
G1 X158.891 Y-0.131 F2200.0
G1 X159.753 Y-0.079
G1 X159.805 Y0.000
G0 Z0.0000 F2500.0
G4 P0.02
G0 X151.930 Y-1.569 F15000.0
G1 Z11.9000 F2500.0
G4 P0.02
G1 X153.213 Y-6.914 F2200.0
G1 X155.269 Y-6.914
G0 Z0.0000 F2500.0
G4 P0.02
G0 X152.440 Y-8.274 F15000.0
G1 Z11.9000 F2500.0
G4 P0.02
G1 X152.440 Y-13.264 F2200.0
G0 Z0.0000 F2500.0
G4 P0.02
G0 X146.859 Y-13.264 F15000.0
G1 Z11.9000 F2500.0
G4 P0.02
G1 X146.859 Y-33.308 F2200.0
G0 Z0.0000 F2500.0
G4 P0.02
G0 X150.917 Y-29.427 F15000.0
G1 Z11.9000 F2500.0
G4 P0.02
G1 X151.575 Y-32.163 F2200.0
G1 X152.062 Y-30.689
G1 X153.257 Y-32.163
G1 X152.601 Y-29.427
G0 Z0.0000 F2500.0
G4 P0.02
G0 X154.401 Y-29.911 F15000.0
G1 Z11.9000 F2500.0
G4 P0.02
G1 X153.644 Y-29.395 F2200.0
G1 X153.348 Y-29.911
G1 X153.906 Y-31.275
G1 X154.740 Y-31.321
G1 X154.380 Y-29.467
G1 X154.495 Y-29.427
G0 Z0.0000 F2500.0
G4 P0.02
G0 X155.968 Y-29.427 F15000.0
G1 Z11.9000 F2500.0
G4 P0.02
G1 X155.548 Y-29.427 F2200.0
G1 X155.319 Y-29.507
G1 X155.501 Y-30.966
G1 X156.423 Y-31.321
G0 Z0.0000 F2500.0
G4 P0.02
G0 X157.896 Y-31.321 F15000.0
G1 Z11.9000 F2500.0
G4 P0.02
G1 X156.974 Y-30.966 F2200.0
G1 X156.792 Y-29.507
G1 X157.021 Y-29.427
G1 X157.441 Y-29.427
G0 Z0.0000 F2500.0
G4 P0.02
G0 X159.241 Y-29.911 F15000.0
G1 Z11.9000 F2500.0
G4 P0.02
G1 X158.484 Y-29.395 F2200.0
G1 X158.189 Y-29.911
G1 X158.746 Y-31.275
G1 X159.580 Y-31.321
G1 X159.220 Y-29.467
G1 X159.336 Y-29.427
G0 Z0.0000 F2500.0
G4 P0.02
G0 X170.626 Y-22.391 F15000.0
G1 Z11.9000 F2500.0
G4 P0.02
G1 X172.187 Y-23.648 F2200.0
G1 X170.878 Y-18.189
G0 Z0.0000 F2500.0
G4 P0.02
G0 X172.131 Y-18.157 F15000.0
G1 Z11.9000 F2500.0
G4 P0.02
G1 X172.146 Y-18.222 F2200.0
G0 Z0.0000 F2500.0
G4 P0.02
G0 X172.736 Y-20.678 F15000.0
G1 Z11.9000 F2500.0
G4 P0.02
G1 X172.751 Y-20.743 F2200.0
G0 Z0.0000 F2500.0
G4 P0.02
G0 X174.930 Y-22.391 F15000.0
G1 Z11.9000 F2500.0
G4 P0.02
G1 X176.491 Y-23.648 F2200.0
G1 X175.182 Y-18.189
G0 Z0.0000 F2500.0
G4 P0.02
G0 X177.000 Y-13.264 F15000.0
G1 Z11.9000 F2500.0
G4 P0.02
G1 X131.889 Y-13.264 F2200.0
G0 Z0.0000 F2500.0
G4 P0.02
G0 X134.772 Y-9.450 F15000.0
G1 Z11.9000 F2500.0
G4 P0.02
G1 X136.081 Y-12.185 F2200.0
G1 X136.692 Y-12.185
G1 X136.036 Y-9.450
G0 Z0.0000 F2500.0
G4 P0.02
G0 X137.122 Y-11.343 F15000.0
G1 Z11.9000 F2500.0
G4 P0.02
G1 X136.860 Y-9.530 F2200.0
G1 X137.087 Y-9.450
G1 X137.718 Y-9.450
G1 X138.173 Y-11.343
G0 Z0.0000 F2500.0
G4 P0.02
G0 X139.646 Y-11.343 F15000.0
G1 Z11.9000 F2500.0
G4 P0.02
G1 X138.724 Y-10.989 F2200.0
G1 X138.542 Y-9.530
G1 X138.771 Y-9.450
G1 X139.191 Y-9.450
G0 Z0.0000 F2500.0
G4 P0.02
G0 X139.823 Y-9.450 F15000.0
G1 Z11.9000 F2500.0
G4 P0.02
G1 X140.277 Y-11.343 F2200.0
G1 X141.840 Y-11.171
G1 X141.861 Y-10.923
G1 X141.507 Y-9.450
G0 Z0.0000 F2500.0
G4 P0.02
G0 X140.665 Y-9.450 F15000.0
G1 Z11.9000 F2500.0
G4 P0.02
G1 X141.119 Y-11.343 F2200.0
G0 Z0.0000 F2500.0
G4 P0.02
G0 X141.869 Y-13.264 F15000.0
G1 Z11.9000 F2500.0
G4 P0.02
G1 X141.869 Y-28.318 F2200.0
G0 Z0.0000 F2500.0
G4 P0.02
G0 X141.946 Y-29.427 F15000.0
G1 Z11.9000 F2500.0
G4 P0.02
G1 X142.300 Y-30.900 F2200.0
G1 X142.280 Y-31.147
G1 X140.718 Y-31.321
G1 X140.264 Y-29.427
G0 Z0.0000 F2500.0
G4 P0.02
G0 X141.106 Y-29.427 F15000.0
G1 Z11.9000 F2500.0
G4 P0.02
G1 X141.559 Y-31.321 F2200.0
G0 Z0.0000 F2500.0
G4 P0.02
G0 X140.086 Y-31.321 F15000.0
G1 Z11.9000 F2500.0
G4 P0.02
G1 X139.632 Y-29.427 F2200.0
G1 X139.000 Y-29.427
G1 X138.773 Y-29.507
G1 X139.034 Y-31.321
G0 Z0.0000 F2500.0
G4 P0.02
G0 X137.948 Y-29.427 F15000.0
G1 Z11.9000 F2500.0
G4 P0.02
G1 X138.605 Y-32.163 F2200.0
G1 X137.994 Y-32.163
G1 X136.686 Y-29.427
G0 Z0.0000 F2500.0
G4 P0.02
G0 X136.795 Y-28.318 F15000.0
G1 Z11.9000 F2500.0
G4 P0.02
G1 X136.795 Y-13.264 F2200.0
G0 Z0.0000 F2500.0
G4 P0.02
G0 X130.852 Y-2.160 F15000.0
G1 Z11.9000 F2500.0
G4 P0.02
G1 X130.156 Y-1.250 F2200.0
G1 X129.226 Y-1.086
G1 X128.687 Y-1.532
G1 X128.643 Y-2.160
G1 X129.162 Y-3.169
G1 X130.079 Y-3.541
G1 X130.744 Y-3.262
G1 X130.941 Y-2.569
G1 X130.852 Y-2.160
G0 Z0.0000 F2500.0
G4 P0.02
G0 X127.063 Y-2.160 F15000.0
G1 Z11.9000 F2500.0
G4 P0.02
G1 X126.369 Y-1.250 F2200.0
G1 X125.437 Y-1.086
G1 X124.900 Y-1.532
G1 X124.854 Y-2.160
G1 X125.374 Y-3.169
G1 X126.290 Y-3.541
G1 X126.956 Y-3.262
G1 X127.154 Y-2.569
G1 X127.063 Y-2.160
G0 Z0.0000 F2500.0
G4 P0.02
G0 X145.189 Y-0.079 F15000.0
G1 Z11.9000 F2500.0
G4 P0.02
G1 X146.314 Y0.000 F2200.0
G0 Z0.0000 F2500.0
G4 P0.02
G0 X148.612 Y-0.079 F15000.0
G1 Z11.9000 F2500.0
G4 P0.02
G1 X150.894 Y-0.079 F2200.0
G0 Z0.0000 F2500.0
G4 P0.02
G0 X149.753 Y-0.079 F15000.0
G1 Z11.9000 F2500.0
G4 P0.02
G1 X149.734 Y0.000 F2200.0
G0 Z0.0000 F2500.0
G4 P0.02
G0 X150.697 Y-1.569 F15000.0
G1 Z11.9000 F2500.0
G4 P0.02
G1 X151.980 Y-6.914 F2200.0
G1 X149.512 Y-6.914
G1 X148.230 Y-1.569
G0 Z0.0000 F2500.0
G4 P0.02
G0 X142.575 Y-29.411 F15000.0
G1 Z11.9000 F2500.0
G4 P0.02
G1 X142.582 Y-29.444 F2200.0
G0 Z0.0000 F2500.0
G4 P0.02
G0 X136.806 Y-41.156 F15000.0
G1 Z11.9000 F2500.0
G4 P0.02
G1 X138.479 Y-41.146 F2200.0
G1 X139.182 Y-40.822
G1 X139.506 Y-40.133
G1 X139.193 Y-38.627
G1 X138.287 Y-37.675
G1 X137.250 Y-37.450
G1 X136.547 Y-37.774
G1 X136.223 Y-38.463
G1 X136.724 Y-40.901
G1 X137.232 Y-42.056
G1 X139.553 Y-44.209
G0 Z0.0000 F2500.0
G4 P0.02
G0 X134.958 Y-40.901 F15000.0
G1 Z11.9000 F2500.0
G4 P0.02
G1 X135.143 Y-42.532 F2200.0
G1 X135.006 Y-43.399
G1 X134.678 Y-43.965
G1 X134.454 Y-44.113
G1 X133.918 Y-44.113
G1 X133.321 Y-43.726
G1 X132.735 Y-42.998
G1 X132.031 Y-41.467
G1 X131.696 Y-39.786
G1 X131.729 Y-38.805
G1 X131.965 Y-38.077
G1 X132.376 Y-37.690
G1 X132.912 Y-37.690
G1 X133.508 Y-38.077
G1 X134.094 Y-38.805
G1 X134.800 Y-40.334
G0 Z0.0000 F2500.0
G4 P0.02
G0 X128.690 Y-37.633 F15000.0
G1 Z11.9000 F2500.0
G4 P0.02
G1 X128.670 Y-37.553 F2200.0
G0 Z0.0000 F2500.0
G4 P0.02
G0 X127.864 Y-40.647 F15000.0
G1 Z11.9000 F2500.0
G4 P0.02
G1 X125.874 Y-40.731 F2200.0
G1 X125.302 Y-41.220
G1 X125.199 Y-42.173
G1 X125.669 Y-43.497
G1 X126.552 Y-44.211
G1 X127.582 Y-44.324
G1 X128.224 Y-43.914
G1 X128.455 Y-43.174
G1 X127.234 Y-39.436
G1 X125.118 Y-37.593
G0 Z0.0000 F2500.0
G4 P0.02
G0 X123.130 Y-40.901 F15000.0
G1 Z11.9000 F2500.0
G4 P0.02
G1 X123.315 Y-42.532 F2200.0
G1 X123.179 Y-43.399
G1 X122.849 Y-43.965
G1 X122.625 Y-44.113
G1 X122.089 Y-44.113
G1 X121.492 Y-43.726
G1 X120.906 Y-42.998
G1 X120.202 Y-41.467
G1 X119.869 Y-39.786
G1 X119.900 Y-38.805
G1 X120.136 Y-38.077
G1 X120.548 Y-37.690
G1 X121.084 Y-37.690
G1 X121.681 Y-38.077
G1 X122.265 Y-38.805
G1 X122.971 Y-40.334
G0 Z0.0000 F2500.0
G4 P0.02
G0 X116.913 Y-44.209 F15000.0
G1 Z11.9000 F2500.0
G4 P0.02
G1 X114.368 Y-44.209 F2200.0
G1 X112.780 Y-37.593
G0 Z0.0000 F2500.0
G4 P0.02
G0 X111.253 Y-37.593 F15000.0
G1 Z11.9000 F2500.0
G4 P0.02
G1 X112.841 Y-44.209 F2200.0
G0 Z0.0000 F2500.0
G4 P0.02
G0 X109.788 Y-44.209 F15000.0
G1 Z11.9000 F2500.0
G4 P0.02
G1 X108.201 Y-37.593 F2200.0
G0 Z0.0000 F2500.0
G4 P0.02
G0 X106.674 Y-37.593 F15000.0
G1 Z11.9000 F2500.0
G4 P0.02
G1 X105.540 Y-41.460 F2200.0
G0 Z0.0000 F2500.0
G4 P0.02
G0 X104.231 Y-40.137 F15000.0
G1 Z11.9000 F2500.0
G4 P0.02
G1 X108.261 Y-44.209 F2200.0
G0 Z0.0000 F2500.0
G4 P0.02
G0 X105.208 Y-44.209 F15000.0
G1 Z11.9000 F2500.0
G4 P0.02
G1 X103.620 Y-37.593 F2200.0
G0 Z0.0000 F2500.0
G4 P0.02
G0 X109.055 Y-41.156 F15000.0
G1 Z11.9000 F2500.0
G4 P0.02
G1 X112.109 Y-41.156 F2200.0
G0 Z0.0000 F2500.0
G4 P0.02
G0 X116.860 Y-37.633 F15000.0
G1 Z11.9000 F2500.0
G4 P0.02
G1 X116.843 Y-37.553 F2200.0
G0 Z0.0000 F2500.0
G4 P0.02
G0 X114.913 Y-22.374 F15000.0
G1 Z11.9000 F2500.0
G4 P0.02
G1 X111.013 Y-18.740 F2200.0
G0 Z0.0000 F2500.0
G4 P0.02
G0 X112.240 Y-19.884 F15000.0
G1 Z11.9000 F2500.0
G4 P0.02
G1 X113.606 Y-16.924 F2200.0
G0 Z0.0000 F2500.0
G4 P0.02
G0 X110.577 Y-16.924 F15000.0
G1 Z11.9000 F2500.0
G4 P0.02
G1 X111.886 Y-22.374 F2200.0
G0 Z0.0000 F2500.0
G4 P0.02
G0 X110.068 Y-22.374 F15000.0
G1 Z11.9000 F2500.0
G4 P0.02
G1 X108.760 Y-16.924 F2200.0
G1 X106.943 Y-16.924
G1 X106.285 Y-17.154
G1 X105.992 Y-17.761
G1 X107.040 Y-22.374
G0 Z0.0000 F2500.0
G4 P0.02
G0 X102.456 Y-21.962 F15000.0
G1 Z11.9000 F2500.0
G4 P0.02
G1 X104.200 Y-23.590 F2200.0
G1 X104.429 Y-24.188
G1 X104.351 Y-24.560
G1 X104.100 Y-24.820
G1 X103.517 Y-24.898
G1 X102.926 Y-24.581
G1 X102.587 Y-24.010
G1 X101.178 Y-17.908
G1 X101.436 Y-17.209
G1 X102.071 Y-16.835
G1 X102.900 Y-16.890
G1 X103.839 Y-17.529
G1 X104.249 Y-18.316
G1 X104.931 Y-21.390
G1 X104.673 Y-22.088
G1 X104.038 Y-22.464
G1 X103.210 Y-22.407
G1 X102.430 Y-21.938
G1 X101.924 Y-21.188
G1 X101.861 Y-20.981
G0 Z0.0000 F2500.0
G4 P0.02
G0 X99.403 Y-18.316 F15000.0
G1 Z11.9000 F2500.0
G4 P0.02
G1 X100.085 Y-21.390 F2200.0
G1 X99.828 Y-22.088
G1 X99.193 Y-22.464
G1 X98.364 Y-22.407
G1 X97.584 Y-21.938
G1 X97.079 Y-21.188
G1 X96.333 Y-17.908
G1 X96.591 Y-17.209
G1 X97.226 Y-16.835
G1 X98.054 Y-16.890
G1 X98.994 Y-17.529
G1 X99.403 Y-18.316
G0 Z0.0000 F2500.0
G4 P0.02
G0 X94.225 Y-16.924 F15000.0
G1 Z11.9000 F2500.0
G4 P0.02
G1 X92.505 Y-22.374 F2200.0
G0 Z0.0000 F2500.0
G4 P0.02
G0 X95.532 Y-22.374 F15000.0
G1 Z11.9000 F2500.0
G4 P0.02
G1 X91.196 Y-16.924 F2200.0
G0 Z0.0000 F2500.0
G4 P0.02
G0 X89.380 Y-16.924 F15000.0
G1 Z11.9000 F2500.0
G4 P0.02
G1 X89.049 Y-17.037 F2200.0
G1 X88.901 Y-17.342
G1 X90.082 Y-22.374
G1 X88.265 Y-22.374
G1 X87.497 Y-22.143
G1 X86.912 Y-21.538
G1 X86.038 Y-17.908
G1 X86.294 Y-17.209
G1 X86.929 Y-16.835
G1 X87.759 Y-16.890
G1 X88.699 Y-17.529
G1 X89.108 Y-18.316
G0 Z0.0000 F2500.0
G4 P0.02
G0 X83.928 Y-16.924 F15000.0
G1 Z11.9000 F2500.0
G4 P0.02
G1 X85.817 Y-24.796 F2200.0
G1 X82.378 Y-20.558
G1 X80.972 Y-24.796
G1 X79.083 Y-16.924
G0 Z0.0000 F2500.0
G4 P0.02
G0 X61.950 Y-18.338 F15000.0
G1 Z11.9000 F2500.0
G4 P0.02
G1 X0.000 Y-18.338 F2200.0
G0 Z0.0000 F2500.0
G4 P0.02
G0 X0.000 Y-21.977 F15000.0
G1 Z11.9000 F2500.0
G4 P0.02
G1 X0.502 Y-21.805 F2200.0
G1 X0.000 Y-21.085
G0 Z0.0000 F2500.0
G4 P0.02
G0 X1.830 Y-19.923 F15000.0
G1 Z11.9000 F2500.0
G4 P0.02
G1 X1.010 Y-19.427 F2200.0
G1 X0.779 Y-19.923
G1 X1.335 Y-21.287
G1 X2.169 Y-21.332
G1 X1.811 Y-19.478
G1 X1.925 Y-19.438
G0 Z0.0000 F2500.0
G4 P0.02
G0 X2.581 Y-19.544 F15000.0
G1 Z11.9000 F2500.0
G4 P0.02
G1 X2.738 Y-19.436 F2200.0
G1 X3.624 Y-19.961
G1 X3.236 Y-20.386
G1 X3.528 Y-20.466
G1 X3.798 Y-21.217
G1 X3.091 Y-21.226
G0 Z0.0000 F2500.0
G4 P0.02
G0 X3.204 Y-20.386 F15000.0
G1 Z11.9000 F2500.0
G4 P0.02
G1 X3.236 Y-20.386 F2200.0
G0 Z0.0000 F2500.0
G4 P0.02
G0 X4.136 Y-19.438 F15000.0
G1 Z11.9000 F2500.0
G4 P0.02
G1 X4.969 Y-19.485 F2200.0
G1 X5.543 Y-21.102
G1 X4.590 Y-21.332
G1 X3.934 Y-18.597
G0 Z0.0000 F2500.0
G4 P0.02
G0 X4.521 Y-16.195 F15000.0
G1 Z11.9000 F2500.0
G4 P0.02
G1 X5.201 Y-17.036 F2200.0
G1 X4.816 Y-17.192
G1 X4.567 Y-16.906
G1 X4.166 Y-14.543
G1 X5.002 Y-14.655
G1 X5.144 Y-14.927
G1 X5.246 Y-16.283
G1 X4.457 Y-16.128
G1 X4.313 Y-15.853
G0 Z0.0000 F2500.0
G4 P0.02
G0 X3.460 Y-14.927 F15000.0
G1 Z11.9000 F2500.0
G4 P0.02
G1 X3.564 Y-16.283 F2200.0
G1 X2.773 Y-16.128
G1 X2.631 Y-15.853
G1 X2.527 Y-14.499
G1 X3.367 Y-14.718
G1 X3.460 Y-14.927
G0 Z0.0000 F2500.0
G4 P0.02
G0 X5.662 Y-14.460 F15000.0
G1 Z11.9000 F2500.0
G4 P0.02
G1 X5.655 Y-14.427 F2200.0
G0 Z0.0000 F2500.0
G4 P0.02
G0 X5.653 Y-11.343 F15000.0
G1 Z11.9000 F2500.0
G4 P0.02
G1 X5.198 Y-9.450 F2200.0
G0 Z0.0000 F2500.0
G4 P0.02
G0 X4.683 Y-9.933 F15000.0
G1 Z11.9000 F2500.0
G4 P0.02
G1 X4.786 Y-11.289 F2200.0
G1 X3.995 Y-11.134
G1 X3.853 Y-10.859
G1 X3.750 Y-9.503
G1 X4.589 Y-9.724
G1 X4.683 Y-9.933
G0 Z0.0000 F2500.0
G4 P0.02
G0 X5.425 Y-10.396 F15000.0
G1 Z11.9000 F2500.0
G4 P0.02
G1 X6.477 Y-10.396 F2200.0
G0 Z0.0000 F2500.0
G4 P0.02
G0 X6.251 Y-9.450 F15000.0
G1 Z11.9000 F2500.0
G4 P0.02
G1 X6.704 Y-11.343 F2200.0
G0 Z0.0000 F2500.0
G4 P0.02
G0 X8.177 Y-11.343 F15000.0
G1 Z11.9000 F2500.0
G4 P0.02
G1 X7.723 Y-9.450 F2200.0
G0 Z0.0000 F2500.0
G4 P0.02
G0 X6.882 Y-9.450 F15000.0
G1 Z11.9000 F2500.0
G4 P0.02
G1 X7.337 Y-11.343 F2200.0
G1 X8.898 Y-11.171
G1 X8.919 Y-10.923
G1 X8.565 Y-9.450
G0 Z0.0000 F2500.0
G4 P0.02
G0 X9.196 Y-9.450 F15000.0
G1 Z11.9000 F2500.0
G4 P0.02
G1 X10.029 Y-9.495 F2200.0
G1 X10.603 Y-11.114
G1 X9.650 Y-11.343
G1 X8.994 Y-8.608
G0 Z0.0000 F2500.0
G4 P0.02
G0 X10.876 Y-9.433 F15000.0
G1 Z11.9000 F2500.0
G4 P0.02
G1 X10.884 Y-9.466 F2200.0
G0 Z0.0000 F2500.0
G4 P0.02
G0 X3.338 Y-11.343 F15000.0
G1 Z11.9000 F2500.0
G4 P0.02
G1 X1.983 Y-10.081 F2200.0
G0 Z0.0000 F2500.0
G4 P0.02
G0 X2.409 Y-10.478 F15000.0
G1 Z11.9000 F2500.0
G4 P0.02
G1 X2.883 Y-9.450 F2200.0
G0 Z0.0000 F2500.0
G4 P0.02
G0 X1.831 Y-9.450 F15000.0
G1 Z11.9000 F2500.0
G4 P0.02
G1 X2.286 Y-11.343 F2200.0
G0 Z0.0000 F2500.0
G4 P0.02
G0 X0.963 Y-12.185 F15000.0
G1 Z11.9000 F2500.0
G4 P0.02
G1 X0.000 Y-12.185 F2200.0
G0 Z0.0000 F2500.0
G4 P0.02
G0 X0.332 Y-12.185 F15000.0
G1 Z11.9000 F2500.0
G4 P0.02
G1 X0.000 Y-10.803 F2200.0
G0 Z0.0000 F2500.0
G4 P0.02
G0 X0.934 Y-9.433 F15000.0
G1 Z11.9000 F2500.0
G4 P0.02
G1 X0.941 Y-9.466 F2200.0
G0 Z0.0000 F2500.0
G4 P0.02
G0 X0.000 Y-8.274 F15000.0
G1 Z11.9000 F2500.0
G4 P0.02
G1 X177.000 Y-8.274 F2200.0
G0 Z0.0000 F2500.0
G4 P0.02
G0 X176.232 Y-8.984 F15000.0
G1 Z11.9000 F2500.0
G4 P0.02
G1 X177.000 Y-12.182 F2200.0
G1 X177.000 Y-12.662
G1 X176.057 Y-11.903
G0 Z0.0000 F2500.0
G4 P0.02
G0 X177.000 Y-33.308 F15000.0
G1 Z11.9000 F2500.0
G4 P0.02
G1 X0.000 Y-33.308 F2200.0
G0 Z0.0000 F2500.0
G4 P0.02
G0 X0.000 Y-28.318 F15000.0
G1 Z11.9000 F2500.0
G4 P0.02
G1 X61.950 Y-28.318 F2200.0
G0 Z0.0000 F2500.0
G4 P0.02
G0 X60.406 Y-24.917 F15000.0
G1 Z11.9000 F2500.0
G4 P0.02
G1 X59.650 Y-24.401 F2200.0
G1 X59.355 Y-24.917
G1 X59.912 Y-26.281
G1 X60.745 Y-26.326
G1 X60.387 Y-24.472
G1 X60.501 Y-24.433
G0 Z0.0000 F2500.0
G4 P0.02
G0 X61.950 Y-23.328 F15000.0
G1 Z11.9000 F2500.0
G4 P0.02
G1 X0.000 Y-23.328 F2200.0
G0 Z0.0000 F2500.0
G4 P0.02
G0 X0.424 Y-26.222 F15000.0
G1 Z11.9000 F2500.0
G4 P0.02
G1 X1.131 Y-26.212 F2200.0
G1 X0.861 Y-25.460
G1 X0.569 Y-25.380
G1 X0.956 Y-24.955
G1 X0.072 Y-24.430
G1 X0.000 Y-24.480
G0 Z0.0000 F2500.0
G4 P0.02
G0 X0.537 Y-25.380 F15000.0
G1 Z11.9000 F2500.0
G4 P0.02
G1 X0.569 Y-25.380 F2200.0
G0 Z0.0000 F2500.0
G4 P0.02
G0 X1.469 Y-24.433 F15000.0
G1 Z11.9000 F2500.0
G4 P0.02
G1 X1.924 Y-26.328 F2200.0
G1 X2.327 Y-25.378
G1 X3.187 Y-26.328
G1 X2.731 Y-24.433
G0 Z0.0000 F2500.0
G4 P0.02
G0 X3.360 Y-24.417 F15000.0
G1 Z11.9000 F2500.0
G4 P0.02
G1 X3.367 Y-24.450 F2200.0
G0 Z0.0000 F2500.0
G4 P0.02
G0 X4.018 Y-23.328 F15000.0
G1 Z11.9000 F2500.0
G4 P0.02
G1 X4.018 Y-48.276 F2200.0
G0 Z0.0000 F2500.0
G4 P0.02
G0 X0.000 Y-48.276 F15000.0
G1 Z11.9000 F2500.0
G4 P0.02
G1 X177.000 Y-48.276 F2200.0
G0 Z0.0000 F2500.0
G4 P0.02
G0 X140.965 Y-85.953 F15000.0
G1 Z11.9000 F2500.0
G4 P0.02
G1 X140.067 Y-85.953 F2200.0
G0 Z0.0000 F2500.0
G4 P0.02
G0 X139.728 Y-86.545 F15000.0
G1 Z11.9000 F2500.0
G4 P0.02
G1 X140.627 Y-86.545 F2200.0
G0 Z0.0000 F2500.0
G4 P0.02
G0 X168.005 Y-137.585 F15000.0
G1 Z11.9000 F2500.0
G4 P0.02
G1 X168.440 Y-139.746 F2200.0
G1 X168.100 Y-140.237
G1 X167.317 Y-140.290
G1 X166.526 Y-139.618
G1 X165.989 Y-137.186
G1 X166.329 Y-136.695
G1 X167.112 Y-136.641
G1 X167.903 Y-137.315
G1 X168.005 Y-137.585
G0 Z0.0000 F2500.0
G4 P0.02
G0 X155.935 Y-183.716 F15000.0
G1 Z11.9000 F2500.0
G4 P0.02
G1 X155.035 Y-183.716 F2200.0
G0 Z0.0000 F2500.0
G4 P0.02
G0 X154.739 Y-184.350 F15000.0
G1 Z11.9000 F2500.0
G4 P0.02
G1 X155.638 Y-184.350 F2200.0
G0 Z0.0000 F2500.0
G4 P0.02
G0 X162.934 Y-207.224 F15000.0
G1 Z11.9000 F2500.0
G4 P0.02
G1 X161.677 Y-208.787 F2200.0
G1 X167.135 Y-207.477
G0 Z0.0000 F2500.0
G4 P0.02
G0 X164.404 Y-212.137 F15000.0
G1 Z11.9000 F2500.0
G4 P0.02
G1 X163.059 Y-212.289 F2200.0
G1 X162.343 Y-212.176
G1 X161.875 Y-211.906
G1 X161.713 Y-211.509
G1 X161.875 Y-211.033
G1 X162.675 Y-210.302
G1 X163.937 Y-209.720
G1 X165.325 Y-209.444
G1 X166.467 Y-209.548
G1 X166.934 Y-209.819
G1 X167.097 Y-210.216
G1 X166.934 Y-210.692
G1 X166.135 Y-211.423
G1 X164.873 Y-212.005
G0 Z0.0000 F2500.0
G4 P0.02
G0 X152.186 Y-214.374 F15000.0
G1 Z11.9000 F2500.0
G4 P0.02
G1 X145.929 Y-208.115 F2200.0
G0 Z0.0000 F2500.0
G4 P0.02
G0 X145.929 Y-212.344 F15000.0
G1 Z11.9000 F2500.0
G4 P0.02
G1 X147.957 Y-214.374 F2200.0
G0 Z0.0000 F2500.0
G4 P0.02
G0 X177.000 Y-280.000 F15000.0
G1 Z11.9000 F2500.0
G4 P0.02
G1 X0.000 Y-280.000 F2200.0
G0 Z0.0000 F2500.0
G4 P0.02
G0 X0.963 Y-2.197 F15000.0
G1 Z11.9000 F2500.0
G4 P0.02
G1 X0.435 Y0.000 F2200.0
G0 Z0.0000 F2500.0
G4 P0.02
G0 X0.660 Y-0.935 F15000.0
G1 Z11.9000 F2500.0
G4 P0.02
G1 X0.000 Y-0.935 F2200.0
G0 Z0.0000 F2500.0
G4 P0.02
G0 X1.983 Y-0.093 F15000.0
G1 Z11.9000 F2500.0
G4 P0.02
G1 X3.338 Y-1.355 F2200.0
G0 Z0.0000 F2500.0
G4 P0.02
G0 X2.286 Y-1.355 F15000.0
G1 Z11.9000 F2500.0
G4 P0.02
G1 X1.961 Y0.000 F2200.0
G0 Z0.0000 F2500.0
G4 P0.02
G0 X2.409 Y-0.490 F15000.0
G1 Z11.9000 F2500.0
G4 P0.02
G1 X2.635 Y0.000 F2200.0
G0 Z0.0000 F2500.0
G4 P0.02
G0 X3.811 Y0.000 F15000.0
G1 Z11.9000 F2500.0
G4 P0.02
G1 X3.947 Y-1.081 F2200.0
G1 X4.786 Y-1.301
G1 X4.687 Y0.000
G0 Z0.0000 F2500.0
G4 P0.02
G0 X5.327 Y0.000 F15000.0
G1 Z11.9000 F2500.0
G4 P0.02
G1 X5.653 Y-1.355 F2200.0
G0 Z0.0000 F2500.0
G4 P0.02
G0 X5.425 Y-0.408 F15000.0
G1 Z11.9000 F2500.0
G4 P0.02
G1 X6.477 Y-0.408 F2200.0
G0 Z0.0000 F2500.0
G4 P0.02
G0 X6.380 Y0.000 F15000.0
G1 Z11.9000 F2500.0
G4 P0.02
G1 X6.704 Y-1.355 F2200.0
G0 Z0.0000 F2500.0
G4 P0.02
G0 X7.011 Y0.000 F15000.0
G1 Z11.9000 F2500.0
G4 P0.02
G1 X7.337 Y-1.355 F2200.0
G1 X8.898 Y-1.181
G1 X8.919 Y-0.935
G1 X8.694 Y0.000
G0 Z0.0000 F2500.0
G4 P0.02
G0 X9.325 Y0.000 F15000.0
G1 Z11.9000 F2500.0
G4 P0.02
G1 X9.650 Y-1.355 F2200.0
G1 X10.603 Y-1.125
G1 X10.204 Y0.000
G0 Z0.0000 F2500.0
G4 P0.02
G0 X7.852 Y0.000 F15000.0
G1 Z11.9000 F2500.0
G4 P0.02
G1 X8.177 Y-1.355 F2200.0
G0 Z0.0000 F2500.0
G4 P0.02
G0 X13.998 Y0.000 F15000.0
G1 Z11.9000 F2500.0
G4 P0.02
G1 X13.998 Y-48.276 F2200.0
G0 Z0.0000 F2500.0
G4 P0.02
G0 X0.000 Y-43.287 F15000.0
G1 Z11.9000 F2500.0
G4 P0.02
G1 X61.950 Y-43.287 F2200.0
G0 Z0.0000 F2500.0
G4 P0.02
G0 X61.950 Y-38.298 F15000.0
G1 Z11.9000 F2500.0
G4 P0.02
G1 X0.000 Y-38.298 F2200.0
G0 Z0.0000 F2500.0
G4 P0.02
G0 X7.123 Y-26.326 F15000.0
G1 Z11.9000 F2500.0
G4 P0.02
G1 X6.861 Y-24.513 F2200.0
G1 X7.090 Y-24.433
G1 X7.721 Y-24.433
G1 X8.176 Y-26.326
G0 Z0.0000 F2500.0
G4 P0.02
G0 X9.649 Y-26.326 F15000.0
G1 Z11.9000 F2500.0
G4 P0.02
G1 X8.727 Y-25.971 F2200.0
G1 X8.545 Y-24.513
G1 X8.773 Y-24.433
G1 X9.194 Y-24.433
G0 Z0.0000 F2500.0
G4 P0.02
G0 X9.825 Y-24.433 F15000.0
G1 Z11.9000 F2500.0
G4 P0.02
G1 X10.280 Y-26.326 F2200.0
G1 X11.841 Y-26.153
G1 X11.862 Y-25.906
G1 X11.509 Y-24.433
G0 Z0.0000 F2500.0
G4 P0.02
G0 X10.667 Y-24.433 F15000.0
G1 Z11.9000 F2500.0
G4 P0.02
G1 X11.122 Y-26.326 F2200.0
G0 Z0.0000 F2500.0
G4 P0.02
G0 X9.422 Y-22.174 F15000.0
G1 Z11.9000 F2500.0
G4 P0.02
G1 X8.370 Y-22.174 F2200.0
G1 X9.047 Y-21.209
G0 Z0.0000 F2500.0
G4 P0.02
G0 X8.881 Y-19.923 F15000.0
G1 Z11.9000 F2500.0
G4 P0.02
G1 X8.985 Y-21.277 F2200.0
G1 X8.146 Y-21.058
G1 X7.948 Y-19.493
G1 X8.739 Y-19.649
G1 X8.881 Y-19.923
G0 Z0.0000 F2500.0
G4 P0.02
G0 X9.401 Y-19.454 F15000.0
G1 Z11.9000 F2500.0
G4 P0.02
G1 X9.393 Y-19.423 F2200.0
G0 Z0.0000 F2500.0
G4 P0.02
G0 X7.082 Y-19.438 F15000.0
G1 Z11.9000 F2500.0
G4 P0.02
G1 X6.967 Y-19.478 F2200.0
G1 X7.326 Y-21.332
G1 X6.493 Y-21.287
G1 X5.935 Y-19.923
G1 X6.232 Y-19.407
G1 X6.988 Y-19.923
G0 Z0.0000 F2500.0
G4 P0.02
G0 X6.037 Y-24.433 F15000.0
G1 Z11.9000 F2500.0
G4 P0.02
G1 X6.694 Y-27.169 F2200.0
G1 X6.083 Y-27.169
G1 X4.775 Y-24.433
G0 Z0.0000 F2500.0
G4 P0.02
G0 X0.609 Y-14.444 F15000.0
G1 Z11.9000 F2500.0
G4 P0.02
G1 X1.441 Y-14.489 F2200.0
G1 X2.015 Y-15.917
G1 X1.994 Y-16.165
G1 X1.062 Y-16.338
G1 X0.406 Y-13.602
G0 Z0.0000 F2500.0
G4 P0.02
G0 X0.000 Y-14.540 F15000.0
G1 Z11.9000 F2500.0
G4 P0.02
G1 X0.634 Y-17.179 F2200.0
G1 X0.000 Y-17.179
G0 Z0.0000 F2500.0
G4 P0.02
G0 X0.000 Y-13.264 F15000.0
G1 Z11.9000 F2500.0
G4 P0.02
G1 X61.950 Y-13.264 F2200.0
G0 Z0.0000 F2500.0
G4 P0.02
G0 X61.950 Y-3.286 F15000.0
G1 Z11.9000 F2500.0
G4 P0.02
G1 X0.000 Y-3.286 F2200.0
G0 Z0.0000 F2500.0
G4 P0.02
G0 X17.376 Y-14.444 F15000.0
G1 Z11.9000 F2500.0
G4 P0.02
G1 X16.955 Y-14.444 F2200.0
G1 X16.593 Y-14.581
G1 X16.849 Y-16.620
G1 X18.033 Y-17.179
G0 Z0.0000 F2500.0
G4 P0.02
G0 X19.175 Y-14.927 F15000.0
G1 Z11.9000 F2500.0
G4 P0.02
G1 X18.354 Y-14.433 F2200.0
G1 X18.124 Y-14.927
G1 X18.681 Y-16.292
G1 X19.514 Y-16.338
G1 X19.155 Y-14.484
G1 X19.270 Y-14.444
G0 Z0.0000 F2500.0
G4 P0.02
G0 X19.902 Y-14.444 F15000.0
G1 Z11.9000 F2500.0
G4 P0.02
G1 X20.881 Y-16.338 F2200.0
G1 X21.408 Y-16.338
G1 X20.953 Y-14.444
G0 Z0.0000 F2500.0
G4 P0.02
G0 X21.812 Y-15.390 F15000.0
G1 Z11.9000 F2500.0
G4 P0.02
G1 X22.585 Y-15.344 F2200.0
G1 X22.676 Y-14.744
G1 X21.584 Y-14.444
G1 X22.039 Y-16.338
G0 Z0.0000 F2500.0
G4 P0.02
G0 X23.721 Y-16.338 F15000.0
G1 Z11.9000 F2500.0
G4 P0.02
G1 X23.267 Y-14.444 F2200.0
G0 Z0.0000 F2500.0
G4 P0.02
G0 X23.494 Y-15.390 F15000.0
G1 Z11.9000 F2500.0
G4 P0.02
G1 X24.546 Y-15.390 F2200.0
G0 Z0.0000 F2500.0
G4 P0.02
G0 X24.320 Y-14.444 F15000.0
G1 Z11.9000 F2500.0
G4 P0.02
G1 X24.773 Y-16.338 F2200.0
G0 Z0.0000 F2500.0
G4 P0.02
G0 X25.405 Y-16.338 F15000.0
G1 Z11.9000 F2500.0
G4 P0.02
G1 X25.142 Y-14.524 F2200.0
G1 X25.371 Y-14.444
G1 X26.002 Y-14.444
G1 X26.457 Y-16.338
G0 Z0.0000 F2500.0
G4 P0.02
G0 X27.088 Y-16.338 F15000.0
G1 Z11.9000 F2500.0
G4 P0.02
G1 X26.633 Y-14.444 F2200.0
G0 Z0.0000 F2500.0
G4 P0.02
G0 X26.785 Y-15.075 F15000.0
G1 Z11.9000 F2500.0
G4 P0.02
G1 X28.141 Y-16.338 F2200.0
G0 Z0.0000 F2500.0
G4 P0.02
G0 X27.212 Y-15.473 F15000.0
G1 Z11.9000 F2500.0
G4 P0.02
G1 X27.686 Y-14.444 F2200.0
G0 Z0.0000 F2500.0
G4 P0.02
G0 X29.486 Y-14.927 F15000.0
G1 Z11.9000 F2500.0
G4 P0.02
G1 X29.588 Y-16.283 F2200.0
G1 X28.798 Y-16.128
G1 X28.656 Y-15.853
G1 X28.553 Y-14.499
G1 X29.392 Y-14.718
G1 X29.486 Y-14.927
G0 Z0.0000 F2500.0
G4 P0.02
G0 X30.339 Y-15.853 F15000.0
G1 Z11.9000 F2500.0
G4 P0.02
G1 X30.481 Y-16.128 F2200.0
G1 X31.272 Y-16.283
G1 X31.169 Y-14.927
G1 X30.971 Y-14.597
G1 X30.191 Y-14.543
G1 X30.591 Y-16.906
G1 X30.842 Y-17.192
G1 X31.226 Y-17.036
G1 X30.546 Y-16.195
G0 Z0.0000 F2500.0
G4 P0.02
G0 X32.852 Y-14.927 F15000.0
G1 Z11.9000 F2500.0
G4 P0.02
G1 X32.031 Y-14.433 F2200.0
G1 X31.801 Y-14.927
G1 X32.358 Y-16.292
G1 X33.191 Y-16.338
G1 X32.832 Y-14.484
G1 X32.947 Y-14.444
G0 Z0.0000 F2500.0
G4 P0.02
G0 X25.009 Y-18.597 F15000.0
G1 Z11.9000 F2500.0
G4 P0.02
G1 X25.666 Y-21.332 F2200.0
G1 X26.596 Y-21.159
G1 X26.617 Y-20.911
G1 X26.045 Y-19.485
G1 X25.211 Y-19.438
G0 Z0.0000 F2500.0
G4 P0.02
G0 X24.580 Y-19.438 F15000.0
G1 Z11.9000 F2500.0
G4 P0.02
G1 X23.628 Y-19.668 F2200.0
G1 X24.192 Y-21.277
G1 X24.881 Y-21.181
G1 X24.918 Y-20.849
G1 X24.807 Y-20.386
G1 X23.755 Y-20.386
G0 Z0.0000 F2500.0
G4 P0.02
G0 X22.896 Y-19.438 F15000.0
G1 Z11.9000 F2500.0
G4 P0.02
G1 X23.250 Y-20.911 F2200.0
G1 X23.230 Y-21.159
G1 X21.667 Y-21.332
G1 X21.212 Y-19.438
G0 Z0.0000 F2500.0
G4 P0.02
G0 X20.581 Y-19.438 F15000.0
G1 Z11.9000 F2500.0
G4 P0.02
G1 X21.036 Y-21.332 F2200.0
G0 Z0.0000 F2500.0
G4 P0.02
G0 X20.808 Y-20.386 F15000.0
G1 Z11.9000 F2500.0
G4 P0.02
G1 X19.757 Y-20.386 F2200.0
G0 Z0.0000 F2500.0
G4 P0.02
G0 X19.984 Y-21.332 F15000.0
G1 Z11.9000 F2500.0
G4 P0.02
G1 X19.530 Y-19.438 F2200.0
G0 Z0.0000 F2500.0
G4 P0.02
G0 X19.353 Y-21.332 F15000.0
G1 Z11.9000 F2500.0
G4 P0.02
G1 X18.898 Y-19.438 F2200.0
G1 X18.267 Y-19.438
G1 X18.038 Y-19.519
G1 X18.300 Y-21.332
G0 Z0.0000 F2500.0
G4 P0.02
G0 X17.872 Y-22.174 F15000.0
G1 Z11.9000 F2500.0
G4 P0.02
G1 X16.819 Y-22.174 F2200.0
G1 X16.163 Y-19.438
G0 Z0.0000 F2500.0
G4 P0.02
G0 X18.605 Y-24.433 F15000.0
G1 Z11.9000 F2500.0
G4 P0.02
G1 X19.262 Y-27.167 F2200.0
G1 X19.869 Y-24.434
G1 X20.524 Y-27.169
G0 Z0.0000 F2500.0
G4 P0.02
G0 X20.719 Y-26.222 F15000.0
G1 Z11.9000 F2500.0
G4 P0.02
G1 X20.890 Y-25.913 F2200.0
G1 X21.350 Y-26.222
G1 X21.441 Y-27.100
G1 X20.934 Y-26.989
G1 X20.719 Y-26.222
G0 Z0.0000 F2500.0
G4 P0.02
G0 X24.072 Y-27.169 F15000.0
G1 Z11.9000 F2500.0
G4 P0.02
G1 X24.814 Y-27.049 F2200.0
G1 X24.838 Y-26.853
G1 X24.047 Y-24.487
G1 X23.359 Y-24.585
G1 X23.320 Y-24.917
G1 X23.879 Y-26.281
G1 X24.711 Y-26.326
G0 Z0.0000 F2500.0
G4 P0.02
G0 X26.057 Y-24.917 F15000.0
G1 Z11.9000 F2500.0
G4 P0.02
G1 X26.159 Y-26.273 F2200.0
G1 X25.320 Y-26.052
G1 X25.079 Y-24.532
G1 X25.859 Y-24.585
G1 X26.057 Y-24.917
G0 Z0.0000 F2500.0
G4 P0.02
G0 X26.723 Y-25.064 F15000.0
G1 Z11.9000 F2500.0
G4 P0.02
G1 X28.079 Y-26.326 F2200.0
G0 Z0.0000 F2500.0
G4 P0.02
G0 X28.710 Y-26.326 F15000.0
G1 Z11.9000 F2500.0
G4 P0.02
G1 X28.448 Y-24.513 F2200.0
G1 X28.676 Y-24.433
G1 X29.308 Y-24.433
G0 Z0.0000 F2500.0
G4 P0.02
G0 X29.939 Y-24.433 F15000.0
G1 Z11.9000 F2500.0
G4 P0.02
G1 X30.394 Y-26.328 F2200.0
G1 X30.798 Y-25.378
G1 X31.656 Y-26.328
G1 X31.202 Y-24.433
G0 Z0.0000 F2500.0
G4 P0.02
G0 X31.828 Y-24.417 F15000.0
G1 Z11.9000 F2500.0
G4 P0.02
G1 X31.837 Y-24.450 F2200.0
G0 Z0.0000 F2500.0
G4 P0.02
G0 X29.761 Y-26.326 F15000.0
G1 Z11.9000 F2500.0
G4 P0.02
G1 X29.002 Y-23.661 F2200.0
G1 X28.790 Y-23.591
G1 X28.159 Y-23.591
G0 Z0.0000 F2500.0
G4 P0.02
G0 X27.624 Y-24.433 F15000.0
G1 Z11.9000 F2500.0
G4 P0.02
G1 X27.150 Y-25.461 F2200.0
G0 Z0.0000 F2500.0
G4 P0.02
G0 X27.026 Y-26.326 F15000.0
G1 Z11.9000 F2500.0
G4 P0.02
G1 X26.571 Y-24.433 F2200.0
G0 Z0.0000 F2500.0
G4 P0.02
G0 X22.509 Y-21.332 F15000.0
G1 Z11.9000 F2500.0
G4 P0.02
G1 X22.054 Y-19.438 F2200.0
G0 Z0.0000 F2500.0
G4 P0.02
G0 X41.268 Y-24.433 F15000.0
G1 Z11.9000 F2500.0
G4 P0.02
G1 X41.924 Y-27.169 F2200.0
G1 X43.186 Y-27.169
G1 X42.530 Y-24.433
G0 Z0.0000 F2500.0
G4 P0.02
G0 X44.330 Y-24.917 F15000.0
G1 Z11.9000 F2500.0
G4 P0.02
G1 X44.432 Y-26.273 F2200.0
G1 X43.594 Y-26.052
G1 X43.352 Y-24.532
G1 X44.132 Y-24.585
G1 X44.330 Y-24.917
G0 Z0.0000 F2500.0
G4 P0.02
G0 X46.528 Y-24.433 F15000.0
G1 Z11.9000 F2500.0
G4 P0.02
G1 X46.983 Y-26.326 F2200.0
G1 X47.935 Y-26.096
G1 X47.581 Y-24.433
G0 Z0.0000 F2500.0
G4 P0.02
G0 X48.208 Y-24.417 F15000.0
G1 Z11.9000 F2500.0
G4 P0.02
G1 X48.216 Y-24.450 F2200.0
G0 Z0.0000 F2500.0
G4 P0.02
G0 X46.352 Y-26.326 F15000.0
G1 Z11.9000 F2500.0
G4 P0.02
G1 X45.518 Y-26.281 F2200.0
G1 X44.961 Y-24.917
G1 X45.000 Y-24.585
G1 X45.688 Y-24.487
G1 X46.478 Y-26.853
G1 X46.455 Y-27.049
G1 X45.712 Y-27.169
G0 Z0.0000 F2500.0
G4 P0.02
G0 X52.875 Y-24.222 F15000.0
G1 Z11.9000 F2500.0
G4 P0.02
G1 X52.925 Y-24.433 F2200.0
G1 X54.398 Y-24.433
G1 X54.349 Y-24.222
G1 X54.189 Y-24.433
G1 X54.844 Y-27.169
G1 X54.213 Y-27.169
G1 X53.136 Y-24.433
G0 Z0.0000 F2500.0
G4 P0.02
G0 X56.198 Y-24.917 F15000.0
G1 Z11.9000 F2500.0
G4 P0.02
G1 X55.441 Y-24.401 F2200.0
G1 X55.146 Y-24.917
G1 X55.703 Y-26.281
G1 X56.537 Y-26.326
G1 X56.177 Y-24.472
G1 X56.293 Y-24.433
G0 Z0.0000 F2500.0
G4 P0.02
G0 X56.924 Y-24.433 F15000.0
G1 Z11.9000 F2500.0
G4 P0.02
G1 X57.379 Y-26.326 F2200.0
G1 X58.940 Y-26.153
G1 X58.961 Y-25.906
G1 X58.607 Y-24.433
G0 Z0.0000 F2500.0
G4 P0.02
G0 X57.766 Y-24.433 F15000.0
G1 Z11.9000 F2500.0
G4 P0.02
G1 X58.219 Y-26.326 F2200.0
G0 Z0.0000 F2500.0
G4 P0.02
G0 X51.970 Y-48.276 F15000.0
G1 Z11.9000 F2500.0
G4 P0.02
G1 X51.970 Y0.000 F2200.0
G0 Z0.0000 F2500.0
G4 P0.02
G0 X37.002 Y0.000 F15000.0
G1 Z11.9000 F2500.0
G4 P0.02
G1 X37.002 Y-48.276 F2200.0
G0 Z0.0000 F2500.0
G4 P0.02
G0 X25.991 Y-85.953 F15000.0
G1 Z11.9000 F2500.0
G4 P0.02
G1 X25.093 Y-85.953 F2200.0
G0 Z0.0000 F2500.0
G4 P0.02
G0 X25.473 Y-86.545 F15000.0
G1 Z11.9000 F2500.0
G4 P0.02
G1 X26.372 Y-86.545 F2200.0
G0 Z0.0000 F2500.0
G4 P0.02
G0 X17.042 Y-123.460 F15000.0
G1 Z11.9000 F2500.0
G4 P0.02
G1 X3.342 Y-123.460 F2200.0
G0 Z0.0000 F2500.0
G4 P0.02
G0 X0.000 Y-266.046 F15000.0
G1 Z11.9000 F2500.0
G4 P0.02
G1 X66.940 Y-266.046 F2200.0
G1 X66.940 Y-280.000
G0 Z0.0000 F2500.0
G4 P0.02
G0 X50.218 Y-276.192 F15000.0
G1 Z11.9000 F2500.0
G4 P0.02
G1 X48.631 Y-269.578 F2200.0
G0 Z0.0000 F2500.0
G4 P0.02
G0 X48.297 Y-272.326 F15000.0
G1 Z11.9000 F2500.0
G4 P0.02
G1 X47.165 Y-276.192 F2200.0
G0 Z0.0000 F2500.0
G4 P0.02
G0 X45.638 Y-276.192 F15000.0
G1 Z11.9000 F2500.0
G4 P0.02
G1 X44.050 Y-269.578 F2200.0
G0 Z0.0000 F2500.0
G4 P0.02
G0 X45.577 Y-269.578 F15000.0
G1 Z11.9000 F2500.0
G4 P0.02
G1 X49.608 Y-273.649 F2200.0
G0 Z0.0000 F2500.0
G4 P0.02
G0 X44.783 Y-272.630 F15000.0
G1 Z11.9000 F2500.0
G4 P0.02
G1 X41.730 Y-272.630 F2200.0
G0 Z0.0000 F2500.0
G4 P0.02
G0 X40.997 Y-269.578 F15000.0
G1 Z11.9000 F2500.0
G4 P0.02
G1 X42.586 Y-276.192 F2200.0
G0 Z0.0000 F2500.0
G4 P0.02
G0 X41.059 Y-276.192 F15000.0
G1 Z11.9000 F2500.0
G4 P0.02
G1 X39.471 Y-269.578 F2200.0
G1 X36.926 Y-269.578
G0 Z0.0000 F2500.0
G4 P0.02
G0 X36.978 Y-276.154 F15000.0
G1 Z11.9000 F2500.0
G4 P0.02
G1 X36.996 Y-276.232 F2200.0
G0 Z0.0000 F2500.0
G4 P0.02
G0 X30.708 Y-272.885 F15000.0
G1 Z11.9000 F2500.0
G4 P0.02
G1 X30.523 Y-271.255 F2200.0
G1 X30.660 Y-270.387
G1 X30.989 Y-269.820
G1 X31.214 Y-269.673
G1 X31.750 Y-269.673
G1 X32.347 Y-270.060
G1 X32.932 Y-270.789
G1 X33.636 Y-272.319
G1 X33.970 Y-274.000
G1 X33.938 Y-274.981
G1 X33.703 Y-275.710
G1 X33.291 Y-276.097
G1 X32.755 Y-276.097
G1 X32.158 Y-275.710
G1 X31.574 Y-274.981
G1 X30.868 Y-273.452
G0 Z0.0000 F2500.0
G4 P0.02
G0 X28.721 Y-276.192 F15000.0
G1 Z11.9000 F2500.0
G4 P0.02
G1 X26.501 Y-274.196 F2200.0
G1 X25.384 Y-270.611
G1 X25.615 Y-269.871
G1 X26.257 Y-269.464
G1 X27.287 Y-269.575
G1 X28.170 Y-270.289
G1 X28.640 Y-271.613
G1 X28.536 Y-272.567
G1 X27.965 Y-273.056
G1 X25.975 Y-273.140
G0 Z0.0000 F2500.0
G4 P0.02
G0 X25.149 Y-276.154 F15000.0
G1 Z11.9000 F2500.0
G4 P0.02
G1 X25.169 Y-276.232 F2200.0
G0 Z0.0000 F2500.0
G4 P0.02
G0 X18.881 Y-272.885 F15000.0
G1 Z11.9000 F2500.0
G4 P0.02
G1 X18.696 Y-271.255 F2200.0
G1 X18.832 Y-270.387
G1 X19.160 Y-269.820
G1 X19.385 Y-269.673
G1 X19.921 Y-269.673
G1 X20.518 Y-270.060
G1 X21.103 Y-270.789
G1 X21.807 Y-272.319
G1 X22.142 Y-274.000
G1 X22.109 Y-274.981
G1 X21.874 Y-275.710
G1 X21.463 Y-276.097
G1 X20.927 Y-276.097
G1 X20.330 Y-275.710
G1 X19.744 Y-274.981
G1 X19.039 Y-273.452
G0 Z0.0000 F2500.0
G4 P0.02
G0 X14.286 Y-269.578 F15000.0
G1 Z11.9000 F2500.0
G4 P0.02
G1 X17.616 Y-275.323 F2200.0
G1 X17.292 Y-276.012
G1 X16.589 Y-276.336
G1 X15.551 Y-276.111
G1 X14.733 Y-275.323
G1 X14.333 Y-273.653
G1 X14.657 Y-272.964
G1 X15.360 Y-272.640
G1 X17.032 Y-272.630
G1 X14.286 Y-269.578
G1 X16.607 Y-271.732
G1 X17.115 Y-272.885
G0 Z0.0000 F2500.0
G4 P0.02
G0 X0.000 Y0.000 F15000.0
G0 Z0.0000 F800.0
