$X
$1=255
G21
G90
G92 Z4.0000
G0 Z0.0000 F800.0
G4 P0.06
G92 Z0.0000
G0 Z0.0000 F800.0
G0 X-3.000 Y-5.000 F15000.0
G21
G90
G17
G91.1
G0 Z0.0000
G0 X26.092 Y-133.460 F15000.0
G1 Z11.9000 F2500.0
G4 P0.02
G1 X20.088 Y-133.798 F2200.0
G1 X20.172 Y-132.784
G1 X20.511 Y-131.853
G1 X21.186 Y-131.091
G1 X22.117 Y-130.584
G1 X23.048 Y-130.415
G1 X24.062 Y-130.584
G1 X24.908 Y-131.091
G1 X25.585 Y-131.853
G1 X26.008 Y-132.784
G1 X26.092 Y-133.460
G1 X25.922 Y-134.391
G1 X25.415 Y-135.321
G1 X24.654 Y-135.997
G1 X23.724 Y-136.335
G1 X22.709 Y-136.420
G1 X21.779 Y-136.165
G1 X20.932 Y-135.574
G1 X20.425 Y-134.728
G1 Z0.0000 F2500.0
G4 P0.02
G0 X21.525 Y-133.460 F15000.0
G1 Z11.9000 F2500.0
G4 P0.02
G1 X35.309 Y-133.460 F2200.0
G1 Z0.0000 F2500.0
G4 P0.02
G0 X36.832 Y-133.460 F15000.0
G1 Z11.9000 F2500.0
G4 P0.02
G1 X38.270 Y-133.460 F2200.0
G1 Z0.0000 F2500.0
G4 P0.02
G0 X39.792 Y-133.460 F15000.0
G1 Z11.9000 F2500.0
G4 P0.02
G1 X53.577 Y-133.460 F2200.0
G1 Z0.0000 F2500.0
G4 P0.02
G0 X55.099 Y-133.460 F15000.0
G1 Z11.9000 F2500.0
G4 P0.02
G1 X56.537 Y-133.460 F2200.0
G1 Z0.0000 F2500.0
G4 P0.02
G0 X58.059 Y-133.460 F15000.0
G1 Z11.9000 F2500.0
G4 P0.02
G1 X71.844 Y-133.460 F2200.0
G1 Z0.0000 F2500.0
G4 P0.02
G0 X73.283 Y-133.460 F15000.0
G1 Z11.9000 F2500.0
G4 P0.02
G1 X74.804 Y-133.460 F2200.0
G1 Z0.0000 F2500.0
G4 P0.02
G0 X76.327 Y-133.460 F15000.0
G1 Z11.9000 F2500.0
G4 P0.02
G1 X90.027 Y-133.460 F2200.0
G1 Z0.0000 F2500.0
G4 P0.02
G0 X91.549 Y-133.460 F15000.0
G1 Z11.9000 F2500.0
G4 P0.02
G1 X93.071 Y-133.460 F2200.0
G1 Z0.0000 F2500.0
G4 P0.02
G0 X94.594 Y-133.460 F15000.0
G1 Z11.9000 F2500.0
G4 P0.02
G1 X108.294 Y-133.460 F2200.0
G1 Z0.0000 F2500.0
G4 P0.02
G0 X109.816 Y-133.460 F15000.0
G1 Z11.9000 F2500.0
G4 P0.02
G1 X111.339 Y-133.460 F2200.0
G1 Z0.0000 F2500.0
G4 P0.02
G0 X112.776 Y-133.460 F15000.0
G1 Z11.9000 F2500.0
G4 P0.02
G1 X126.562 Y-133.460 F2200.0
G1 Z0.0000 F2500.0
G4 P0.02
G0 X128.083 Y-133.460 F15000.0
G1 Z11.9000 F2500.0
G4 P0.02
G1 X129.522 Y-133.460 F2200.0
G1 Z0.0000 F2500.0
G4 P0.02
G0 X131.043 Y-133.460 F15000.0
G1 Z11.9000 F2500.0
G4 P0.02
G1 X144.829 Y-133.460 F2200.0
G1 Z0.0000 F2500.0
G4 P0.02
G0 X145.929 Y-133.460 F15000.0
G1 Z11.9000 F2500.0
G4 P0.02
G1 X145.759 Y-134.391 F2200.0
G1 X145.252 Y-135.321
G1 X144.576 Y-135.997
G1 X143.645 Y-136.335
G1 X142.630 Y-136.420
G1 X141.615 Y-136.165
G1 X140.853 Y-135.574
G1 X140.262 Y-134.728
G1 X140.009 Y-133.798
G1 X140.009 Y-132.784
G1 X140.430 Y-131.853
G1 X141.107 Y-131.091
G1 X141.953 Y-130.584
G1 X142.969 Y-130.415
G1 X143.899 Y-130.584
G1 X144.829 Y-131.091
G1 X145.506 Y-131.853
G1 X145.843 Y-132.784
G1 Z0.0000 F2500.0
G4 P0.02
G0 X147.957 Y-133.460 F15000.0
G1 Z11.9000 F2500.0
G4 P0.02
G1 X142.969 Y-133.460 F2200.0
G1 Z0.0000 F2500.0
G4 P0.02
G0 X142.969 Y-129.231 F15000.0
G1 Z11.9000 F2500.0
G4 P0.02
G1 X142.969 Y-138.111 F2200.0
G1 Z0.0000 F2500.0
G4 P0.02
G0 X142.969 Y-139.634 F15000.0
G1 Z11.9000 F2500.0
G4 P0.02
G1 X142.969 Y-141.071 F2200.0
G1 Z0.0000 F2500.0
G4 P0.02
G0 X142.969 Y-142.594 F15000.0
G1 Z11.9000 F2500.0
G4 P0.02
G1 X142.969 Y-151.473 F2200.0
G1 Z0.0000 F2500.0
G4 P0.02
G0 X145.875 Y-138.545 F15000.0
G1 Z11.9000 F2500.0
G4 P0.02
G1 X146.574 Y-137.847 F2200.0
G1 X146.339 Y-138.208
G1 X147.040 Y-137.508
G1 Z0.0000 F2500.0
G4 P0.02
G0 X149.310 Y-133.460 F15000.0
G1 Z11.9000 F2500.0
G4 P0.02
G1 X163.096 Y-133.460 F2200.0
G1 Z0.0000 F2500.0
G4 P0.02
G0 X162.176 Y-146.663 F15000.0
G1 Z11.9000 F2500.0
G4 P0.02
G1 X159.771 Y-146.663 F2200.0
G1 X162.822 Y-150.144
G1 X163.069 Y-150.516
G1 X163.135 Y-151.427
G1 X162.629 Y-151.922
G1 X161.695 Y-151.876
G1 X160.829 Y-151.072
G1 Z0.0000 F2500.0
G4 P0.02
G0 X161.213 Y-155.924 F15000.0
G1 Z11.9000 F2500.0
G4 P0.02
G1 X164.203 Y-161.383 F2200.0
G1 Z0.0000 F2500.0
G4 P0.02
G0 X163.470 Y-160.044 F15000.0
G1 Z11.9000 F2500.0
G4 P0.02
G1 X164.116 Y-159.486 F2200.0
G1 X164.109 Y-158.423
G1 X163.191 Y-157.409
G1 X162.072 Y-157.227
G1 X161.359 Y-157.712
G1 X161.258 Y-158.745
G1 X162.090 Y-159.820
G1 X163.343 Y-160.081
G1 X163.470 Y-160.044
G1 Z0.0000 F2500.0
G4 P0.02
G0 X164.786 Y-158.863 F15000.0
G1 Z11.9000 F2500.0
G4 P0.02
G1 X166.029 Y-158.863 F2200.0
G1 X166.546 Y-158.738
G1 X166.992 Y-158.149
G1 X166.685 Y-156.642
G1 X165.726 Y-155.869
G1 X164.776 Y-155.922
G1 X164.328 Y-156.511
G1 X164.866 Y-159.068
G1 X167.054 Y-161.383
G1 Z0.0000 F2500.0
G4 P0.02
G0 X171.453 Y-150.268 F15000.0
G1 Z11.9000 F2500.0
G4 P0.02
G1 X170.587 Y-146.663 F2200.0
G1 Z0.0000 F2500.0
G4 P0.02
G0 X168.985 Y-146.663 F15000.0
G1 Z11.9000 F2500.0
G4 P0.02
G1 X169.850 Y-150.268 F2200.0
G1 X172.597 Y-150.181
G1 X172.883 Y-149.716
G1 X172.190 Y-146.663
G1 Z0.0000 F2500.0
G4 P0.02
G0 X174.035 Y-149.348 F15000.0
G1 Z11.9000 F2500.0
G4 P0.02
G1 X174.137 Y-149.618 F2200.0
G1 X174.928 Y-150.290
G1 X175.711 Y-150.237
G1 X176.051 Y-149.746
G1 X175.514 Y-147.315
G1 X174.723 Y-146.641
G1 X173.940 Y-146.695
G1 X173.600 Y-147.186
G1 X174.516 Y-151.350
G1 X174.859 Y-151.823
G1 X175.401 Y-151.934
G1 X175.682 Y-151.714
G1 X175.663 Y-151.198
G1 X174.429 Y-149.995
G1 Z0.0000 F2500.0
G4 P0.02
G0 X176.604 Y-146.695 F15000.0
G1 Z11.9000 F2500.0
G4 P0.02
G1 X176.589 Y-146.632 F2200.0
G1 Z0.0000 F2500.0
G4 P0.02
G0 X177.000 Y-153.334 F15000.0
G1 Z11.9000 F2500.0
G4 P0.02
G1 X157.937 Y-153.334 F12000.0
G1 X144.744 Y-135.828
G1 X147.197 Y-140.225
G1 X147.450 Y-139.464
G1 X148.296 Y-139.464
G1 X144.744 Y-135.828
G1 X141.107 Y-131.007
G1 X138.655 Y-126.694
G1 X138.402 Y-127.455
G1 X137.640 Y-127.455
G1 X141.107 Y-131.007
G1 X136.963 Y-125.425
G1 Z0.0000 F2500.0
G4 P0.02
G0 X139.639 Y-128.713 F15000.0
G1 Z11.9000 F2500.0
G4 P0.02
G1 X138.939 Y-129.412 F2200.0
G1 X139.362 Y-129.158
G1 X140.062 Y-128.459
G1 Z0.0000 F2500.0
G4 P0.02
G0 X142.969 Y-127.708 F15000.0
G1 Z11.9000 F2500.0
G4 P0.02
G1 X142.969 Y-126.187 F2200.0
G1 Z0.0000 F2500.0
G4 P0.02
G0 X142.969 Y-124.748 F15000.0
G1 Z11.9000 F2500.0
G4 P0.02
G1 X142.969 Y-115.784 F2200.0
G1 Z0.0000 F2500.0
G4 P0.02
G0 X142.969 Y-117.814 F15000.0
G1 Z11.9000 F2500.0
G4 P0.02
G1 X142.969 Y-94.219 F12000.0
G1 Z0.0000 F2500.0
G4 P0.02
G0 X142.969 Y-96.249 F15000.0
G1 Z11.9000 F2500.0
G4 P0.02
G1 X137.979 Y-96.840 F12000.0
G1 X138.486 Y-96.249
G1 X137.979 Y-95.573
G1 X142.969 Y-96.249
G1 X23.048 Y-96.249
G1 X28.036 Y-95.573
G1 X27.614 Y-96.249
G1 X28.036 Y-96.840
G1 X23.048 Y-96.249
G1 Z0.0000 F2500.0
G4 P0.02
G0 X23.048 Y-94.219 F15000.0
G1 Z11.9000 F2500.0
G4 P0.02
G1 X23.048 Y-117.477 F12000.0
G1 Z0.0000 F2500.0
G4 P0.02
G0 X23.048 Y-115.447 F15000.0
G1 Z11.9000 F2500.0
G4 P0.02
G1 X23.048 Y-124.327 F2200.0
G1 Z0.0000 F2500.0
G4 P0.02
G0 X23.048 Y-125.848 F15000.0
G1 Z11.9000 F2500.0
G4 P0.02
G1 X23.048 Y-127.371 F2200.0
G1 Z0.0000 F2500.0
G4 P0.02
G0 X23.048 Y-128.894 F15000.0
G1 Z11.9000 F2500.0
G4 P0.02
G1 X23.048 Y-137.772 F2200.0
G1 Z0.0000 F2500.0
G4 P0.02
G0 X23.048 Y-139.295 F15000.0
G1 Z11.9000 F2500.0
G4 P0.02
G1 X23.048 Y-140.818 F2200.0
G1 Z0.0000 F2500.0
G4 P0.02
G0 X23.048 Y-142.255 F15000.0
G1 Z11.9000 F2500.0
G4 P0.02
G1 X23.048 Y-151.219 F2200.0
G1 Z0.0000 F2500.0
G4 P0.02
G0 X17.381 Y-147.329 F15000.0
G1 Z11.9000 F2500.0
G4 P0.02
G1 X18.649 Y-142.424 F2200.0
G1 Z0.0000 F2500.0
G4 P0.02
G0 X17.381 Y-147.329
G1 Z11.9000 F2500.0
G4 P0.02
G1 X19.918 Y-142.932
G1 X19.072 Y-143.101
G1 Z0.0000 F2500.0
G4 P0.02
G0 X18.692 Y-145.537 F15000.0
G1 Z11.9000 F2500.0
G4 P0.02
G1 X18.692 Y-144.639 F2200.0
G1 Z0.0000 F2500.0
G4 P0.02
G0 X18.269 Y-144.385 F15000.0
G1 Z11.9000 F2500.0
G4 P0.02
G1 X18.269 Y-145.284 F2200.0
G1 Z0.0000 F2500.0
G4 P0.02
G0 X18.058 Y-133.460 F15000.0
G1 Z11.9000 F2500.0
G4 P0.02
G1 X23.048 Y-133.460 F12000.0
G1 X13.491 Y-156.716
G1 X-0.379 Y-156.716
G1 Z0.0000 F2500.0
G4 P0.02
G0 X1.972 Y-159.303 F15000.0
G1 Z11.9000 F2500.0
G4 P0.02
G1 X3.282 Y-164.762 F2200.0
G1 X4.966 Y-164.600
G1 X5.464 Y-163.903
G1 X5.253 Y-162.811
G1 X4.199 Y-161.928
G1 X3.627 Y-161.822
G1 X2.577 Y-161.822
G1 Z0.0000 F2500.0
G4 P0.02
G0 X3.626 Y-161.822 F15000.0
G1 Z11.9000 F2500.0
G4 P0.02
G1 X4.492 Y-159.303 F2200.0
G1 Z0.0000 F2500.0
G4 P0.02
G0 X7.013 Y-159.303 F15000.0
G1 Z11.9000 F2500.0
G4 P0.02
G1 X8.322 Y-164.760 F2200.0
G1 X6.761 Y-163.503
G1 Z0.0000 F2500.0
G4 P0.02
G0 X8.272 Y-159.303 F15000.0
G1 Z11.9000 F2500.0
G4 P0.02
G1 X9.256 Y-159.310 F2200.0
G1 X10.322 Y-159.891
G1 X10.776 Y-160.982
G1 X10.782 Y-161.528
G1 X10.335 Y-162.117
G1 X8.978 Y-162.242
G1 X9.583 Y-164.762
G1 X11.683 Y-164.762
G1 Z0.0000 F2500.0
G4 P0.02
G0 X8.078 Y-191.983 F15000.0
G1 Z11.9000 F2500.0
G4 P0.02
G1 X8.078 Y-219.384 F12000.0
G1 Z0.0000 F2500.0
G4 P0.02
G0 X8.078 Y-220.144 F15000.0
G1 Z11.9000 F2500.0
G4 P0.02
G1 X12.307 Y-224.374 F2200.0
G1 Z0.0000 F2500.0
G4 P0.02
G0 X16.619 Y-224.374 F15000.0
G1 Z11.9000 F2500.0
G4 P0.02
G1 X8.078 Y-215.831 F2200.0
G1 Z0.0000 F2500.0
G4 P0.02
G0 X8.078 Y-214.394 F15000.0
G1 Z11.9000 F2500.0
G4 P0.02
G1 X157.937 Y-214.394 F12000.0
G1 X157.937 Y-224.374
G1 X8.078 Y-224.374
G1 X8.078 Y-214.394
G1 Z0.0000 F2500.0
G4 P0.02
G0 X10.869 Y-214.394 F15000.0
G1 Z11.9000 F2500.0
G4 P0.02
G1 X20.088 Y-223.612 F2200.0
G1 Z0.0000 F2500.0
G4 P0.02
G0 X20.088 Y-224.374 F15000.0
G1 Z11.9000 F2500.0
G4 P0.02
G1 X20.088 Y-214.394 F2200.0
G1 Z0.0000 F2500.0
G4 P0.02
G0 X20.088 Y-215.155 F15000.0
G1 Z11.9000 F2500.0
G4 P0.02
G1 X19.326 Y-214.394 F2200.0
G1 Z0.0000 F2500.0
G4 P0.02
G0 X15.098 Y-214.394 F15000.0
G1 Z11.9000 F2500.0
G4 P0.02
G1 X20.088 Y-219.384 F2200.0
G1 Z0.0000 F2500.0
G4 P0.02
G0 X26.092 Y-221.160 F15000.0
G1 Z11.9000 F2500.0
G4 P0.02
G1 X29.305 Y-224.374 F2200.0
G1 Z0.0000 F2500.0
G4 P0.02
G0 X26.092 Y-224.374 F15000.0
G1 Z11.9000 F2500.0
G4 P0.02
G1 X26.092 Y-214.394 F2200.0
G1 Z0.0000 F2500.0
G4 P0.02
G0 X27.783 Y-214.394 F15000.0
G1 Z11.9000 F2500.0
G4 P0.02
G1 X37.762 Y-224.374 F2200.0
G1 Z0.0000 F2500.0
G4 P0.02
G0 X33.535 Y-224.374 F15000.0
G1 Z11.9000 F2500.0
G4 P0.02
G1 X26.092 Y-216.931 F2200.0
G1 Z0.0000 F2500.0
G4 P0.02
G0 X23.048 Y-211.687 F15000.0
G1 Z11.9000 F2500.0
G4 P0.02
G1 X23.048 Y-227.925 F12000.0
G1 Z0.0000 F2500.0
G4 P0.02
G0 X32.012 Y-214.394 F15000.0
G1 Z11.9000 F2500.0
G4 P0.02
G1 X41.992 Y-224.374 F2200.0
G1 Z0.0000 F2500.0
G4 P0.02
G0 X46.219 Y-224.374 F15000.0
G1 Z11.9000 F2500.0
G4 P0.02
G1 X36.240 Y-214.394 F2200.0
G1 Z0.0000 F2500.0
G4 P0.02
G0 X40.469 Y-214.394 F15000.0
G1 Z11.9000 F2500.0
G4 P0.02
G1 X50.449 Y-224.374 F2200.0
G1 Z0.0000 F2500.0
G4 P0.02
G0 X54.676 Y-224.374 F15000.0
G1 Z11.9000 F2500.0
G4 P0.02
G1 X44.697 Y-214.394 F2200.0
G1 Z0.0000 F2500.0
G4 P0.02
G0 X48.926 Y-214.394 F15000.0
G1 Z11.9000 F2500.0
G4 P0.02
G1 X58.990 Y-224.374 F2200.0
G1 Z0.0000 F2500.0
G4 P0.02
G0 X63.218 Y-224.374 F15000.0
G1 Z11.9000 F2500.0
G4 P0.02
G1 X53.239 Y-214.394 F2200.0
G1 Z0.0000 F2500.0
G4 P0.02
G0 X57.467 Y-214.394 F15000.0
G1 Z11.9000 F2500.0
G4 P0.02
G1 X67.447 Y-224.374 F2200.0
G1 Z0.0000 F2500.0
G4 P0.02
G0 X71.674 Y-224.374 F15000.0
G1 Z11.9000 F2500.0
G4 P0.02
G1 X61.696 Y-214.394 F2200.0
G1 Z0.0000 F2500.0
G4 P0.02
G0 X65.924 Y-214.394 F15000.0
G1 Z11.9000 F2500.0
G4 P0.02
G1 X75.904 Y-224.374 F2200.0
G1 Z0.0000 F2500.0
G4 P0.02
G0 X79.456 Y-223.697 F15000.0
G1 Z11.9000 F2500.0
G4 P0.02
G1 X70.153 Y-214.394 F2200.0
G1 Z0.0000 F2500.0
G4 P0.02
G0 X74.381 Y-214.394 F15000.0
G1 Z11.9000 F2500.0
G4 P0.02
G1 X79.456 Y-219.468 F2200.0
G1 Z0.0000 F2500.0
G4 P0.02
G0 X79.456 Y-215.240 F15000.0
G1 Z11.9000 F2500.0
G4 P0.02
G1 X78.610 Y-214.394 F2200.0
G1 Z0.0000 F2500.0
G4 P0.02
G0 X83.007 Y-214.394 F15000.0
G1 Z11.9000 F2500.0
G4 P0.02
G1 X86.560 Y-224.374 F12000.0
G1 X86.560 Y-214.394
G1 X83.007 Y-224.374
G1 X83.007 Y-214.394
G1 X79.456 Y-224.374
G1 X79.456 Y-214.394
G1 X83.007 Y-224.374
G1 Z0.0000 F2500.0
G4 P0.02
G0 X86.560 Y-222.258 F15000.0
G1 Z11.9000 F2500.0
G4 P0.02
G1 X88.590 Y-224.374 F2200.0
G1 Z0.0000 F2500.0
G4 P0.02
G0 X92.818 Y-224.374 F15000.0
G1 Z11.9000 F2500.0
G4 P0.02
G1 X86.560 Y-218.031 F2200.0
G1 Z0.0000 F2500.0
G4 P0.02
G0 X87.067 Y-214.394 F15000.0
G1 Z11.9000 F2500.0
G4 P0.02
G1 X97.131 Y-224.374 F2200.0
G1 Z0.0000 F2500.0
G4 P0.02
G0 X101.359 Y-224.374 F15000.0
G1 Z11.9000 F2500.0
G4 P0.02
G1 X91.380 Y-214.394 F2200.0
G1 Z0.0000 F2500.0
G4 P0.02
G0 X95.608 Y-214.394 F15000.0
G1 Z11.9000 F2500.0
G4 P0.02
G1 X105.588 Y-224.374 F2200.0
G1 Z0.0000 F2500.0
G4 P0.02
G0 X109.816 Y-224.374 F15000.0
G1 Z11.9000 F2500.0
G4 P0.02
G1 X99.838 Y-214.394 F2200.0
G1 Z0.0000 F2500.0
G4 P0.02
G0 X104.065 Y-214.394 F15000.0
G1 Z11.9000 F2500.0
G4 P0.02
G1 X114.045 Y-224.374 F2200.0
G1 Z0.0000 F2500.0
G4 P0.02
G0 X118.273 Y-224.374 F15000.0
G1 Z11.9000 F2500.0
G4 P0.02
G1 X108.294 Y-214.394 F2200.0
G1 Z0.0000 F2500.0
G4 P0.02
G0 X112.522 Y-214.394 F15000.0
G1 Z11.9000 F2500.0
G4 P0.02
G1 X122.502 Y-224.374 F2200.0
G1 Z0.0000 F2500.0
G4 P0.02
G0 X126.731 Y-224.374 F15000.0
G1 Z11.9000 F2500.0
G4 P0.02
G1 X116.751 Y-214.394 F2200.0
G1 Z0.0000 F2500.0
G4 P0.02
G0 X120.979 Y-214.394 F15000.0
G1 Z11.9000 F2500.0
G4 P0.02
G1 X130.959 Y-224.374 F2200.0
G1 Z0.0000 F2500.0
G4 P0.02
G0 X135.272 Y-224.374 F15000.0
G1 Z11.9000 F2500.0
G4 P0.02
G1 X125.209 Y-214.394 F2200.0
G1 Z0.0000 F2500.0
G4 P0.02
G0 X129.522 Y-214.394 F15000.0
G1 Z11.9000 F2500.0
G4 P0.02
G1 X139.500 Y-224.374 F2200.0
G1 Z0.0000 F2500.0
G4 P0.02
G0 X139.923 Y-224.374 F15000.0
G1 Z11.9000 F2500.0
G4 P0.02
G1 X139.923 Y-214.394 F2200.0
G1 Z0.0000 F2500.0
G4 P0.02
G0 X137.979 Y-214.394 F15000.0
G1 Z11.9000 F2500.0
G4 P0.02
G1 X139.923 Y-216.338 F2200.0
G1 Z0.0000 F2500.0
G4 P0.02
G0 X139.923 Y-220.567 F15000.0
G1 Z11.9000 F2500.0
G4 P0.02
G1 X133.750 Y-214.394 F2200.0
G1 Z0.0000 F2500.0
G4 P0.02
G0 X142.969 Y-211.095 F15000.0
G1 Z11.9000 F2500.0
G4 P0.02
G1 X142.969 Y-227.164 F12000.0
G1 Z0.0000 F2500.0
G4 P0.02
G0 X145.929 Y-224.374 F15000.0
G1 Z11.9000 F2500.0
G4 P0.02
G1 X145.929 Y-214.394 F2200.0
G1 Z0.0000 F2500.0
G4 P0.02
G0 X146.436 Y-214.394 F15000.0
G1 Z11.9000 F2500.0
G4 P0.02
G1 X156.414 Y-224.374 F2200.0
G1 Z0.0000 F2500.0
G4 P0.02
G0 X157.937 Y-224.374 F15000.0
G1 Z11.9000 F2500.0
G4 P0.02
G1 X171.721 Y-224.374 F2200.0
G1 Z0.0000 F2500.0
G4 P0.02
G0 X170.031 Y-226.461 F15000.0
G1 Z11.9000 F2500.0
G4 P0.02
G1 X170.031 Y-227.360 F2200.0
G1 Z0.0000 F2500.0
G4 P0.02
G0 X169.397 Y-227.656 F15000.0
G1 Z11.9000 F2500.0
G4 P0.02
G1 X169.397 Y-226.756 F2200.0
G1 Z0.0000 F2500.0
G4 P0.02
G0 X169.693 Y-231.308 F15000.0
G1 Z11.9000 F2500.0
G4 P0.02
G1 X169.693 Y-224.374 F12000.0
G1 X170.370 Y-229.362
G1 X169.693 Y-228.855
G1 X169.016 Y-229.362
G1 X169.693 Y-224.374
G1 X169.693 Y-214.394
G1 X169.016 Y-209.320
G1 X169.693 Y-209.827
G1 X170.370 Y-209.320
G1 X169.693 Y-214.394
G1 X169.693 Y-207.374
G1 Z0.0000 F2500.0
G4 P0.02
G0 X169.397 Y-211.154 F15000.0
G1 Z11.9000 F2500.0
G4 P0.02
G1 X169.397 Y-212.053 F2200.0
G1 Z0.0000 F2500.0
G4 P0.02
G0 X170.031 Y-212.349 F15000.0
G1 Z11.9000 F2500.0
G4 P0.02
G1 X170.031 Y-211.449 F2200.0
G1 Z0.0000 F2500.0
G4 P0.02
G0 X171.721 Y-214.394 F15000.0
G1 Z11.9000 F2500.0
G4 P0.02
G1 X157.937 Y-214.394 F2200.0
G1 Z0.0000 F2500.0
G4 P0.02
G0 X157.937 Y-217.354 F15000.0
G1 Z11.9000 F2500.0
G4 P0.02
G1 X154.893 Y-214.394 F2200.0
G1 Z0.0000 F2500.0
G4 P0.02
G0 X150.664 Y-214.394 F15000.0
G1 Z11.9000 F2500.0
G4 P0.02
G1 X157.937 Y-221.582 F2200.0
G1 Z0.0000 F2500.0
G4 P0.02
G0 X157.937 Y-219.384 F15000.0
G1 Z11.9000 F2500.0
G4 P0.02
G1 X157.937 Y-191.983 F12000.0
G1 Z0.0000 F2500.0
G4 P0.02
G0 X157.937 Y-194.013 F15000.0
G1 Z11.9000 F2500.0
G4 P0.02
G1 X152.947 Y-194.689 F12000.0
G1 X153.454 Y-194.013
G1 X152.947 Y-193.336
G1 X157.937 Y-194.013
G1 X8.078 Y-194.013
G1 X13.068 Y-193.336
G1 X12.561 Y-194.013
G1 X13.068 Y-194.689
G1 X8.078 Y-194.013
G1 Z0.0000 F2500.0
G4 P0.02
G0 X10.123 Y-193.716 F15000.0
G1 Z11.9000 F2500.0
G4 P0.02
G1 X11.023 Y-193.716 F2200.0
G1 Z0.0000 F2500.0
G4 P0.02
G0 X11.361 Y-194.350 F15000.0
G1 Z11.9000 F2500.0
G4 P0.02
G1 X10.462 Y-194.350 F2200.0
G1 Z0.0000 F2500.0
G4 P0.02
G0 X59.203 Y-192.122 F15000.0
G1 Z11.9000 F2500.0
G4 P0.02
G1 X54.875 Y-187.794 F12000.0
G1 X58.822 Y-181.353
G1 X60.857 Y-183.355
G1 X61.877 Y-183.890
G1 X62.603 Y-183.999
G1 X63.326 Y-183.899
G1 X64.010 Y-183.599
G1 X64.888 Y-182.805
G1 X65.987 Y-181.011
G1 X66.383 Y-179.733
G1 X66.420 Y-178.350
G1 X66.092 Y-177.015
G1 X65.438 Y-175.881
G1 X63.428 Y-173.838
G1 Z0.0000 F2500.0
G4 P0.02
G0 X61.780 Y-168.049 F15000.0
G1 Z11.9000 F2500.0
G4 P0.02
G1 X56.876 Y-163.145 F12000.0
G1 X60.850 Y-166.189
G1 X60.089 Y-166.273
G1 X59.920 Y-167.119
G1 X56.876 Y-163.145
G1 X53.323 Y-159.592
G1 X49.349 Y-156.548
G1 X50.194 Y-156.379
G1 X50.279 Y-155.618
G1 X53.323 Y-159.592
G1 X48.419 Y-154.602
G1 Z0.0000 F2500.0
G4 P0.02
G0 X51.282 Y-157.827 F15000.0
G1 Z11.9000 F2500.0
G4 P0.02
G1 X51.981 Y-157.128 F2200.0
G1 Z0.0000 F2500.0
G4 P0.02
G0 X51.686 Y-157.635 F15000.0
G1 Z11.9000 F2500.0
G4 P0.02
G1 X50.986 Y-158.335 F2200.0
G1 Z0.0000 F2500.0
G4 P0.02
G0 X51.970 Y-161.029 F15000.0
G1 Z11.9000 F2500.0
G4 P0.02
G1 X81.231 Y-131.684 F12000.0
G1 Z0.0000 F2500.0
G4 P0.02
G0 X83.007 Y-129.908 F15000.0
G1 Z11.9000 F2500.0
G4 P0.02
G1 X86.560 Y-133.460 F2200.0
G1 X83.007 Y-137.012
G1 X79.456 Y-133.460
G1 Z0.0000 F2500.0
G4 P0.02
G0 X83.007 Y-127.624 F15000.0
G1 Z11.9000 F2500.0
G4 P0.02
G1 X83.007 Y-133.460 F12000.0
G1 X104.404 Y-167.457
G1 X119.712 Y-167.457
G1 Z0.0000 F2500.0
G4 P0.02
G0 X117.359 Y-172.754 F15000.0
G1 Z11.9000 F2500.0
G4 P0.02
G1 X117.512 Y-174.100 F2200.0
G1 X117.399 Y-174.815
G1 X117.128 Y-175.282
G1 X116.731 Y-175.445
G1 X116.257 Y-175.282
G1 X115.761 Y-174.815
G1 X115.109 Y-173.674
G1 X114.719 Y-172.287
G1 X114.694 Y-171.023
G1 X114.888 Y-170.422
G1 X115.227 Y-170.102
G1 X115.670 Y-170.102
G1 X116.163 Y-170.422
G1 X116.866 Y-171.407
G1 X117.359 Y-172.754
G1 Z0.0000 F2500.0
G4 P0.02
G0 X112.700 Y-170.023 F15000.0
G1 Z11.9000 F2500.0
G4 P0.02
G1 X110.180 Y-170.023 F2200.0
G1 X113.378 Y-173.673
G1 X113.637 Y-174.064
G1 X113.706 Y-175.019
G1 X113.175 Y-175.537
G1 X112.196 Y-175.490
G1 X111.289 Y-174.646
G1 Z0.0000 F2500.0
G4 P0.02
G0 X108.052 Y-172.543 F15000.0
G1 Z11.9000 F2500.0
G4 P0.02
G1 X108.919 Y-170.023 F2200.0
G1 Z0.0000 F2500.0
G4 P0.02
G0 X106.398 Y-170.023 F15000.0
G1 Z11.9000 F2500.0
G4 P0.02
G1 X107.709 Y-175.484 F2200.0
G1 X109.394 Y-175.320
G1 X109.890 Y-174.624
G1 X109.681 Y-173.532
G1 X108.625 Y-172.649
G1 X108.053 Y-172.543
G1 X107.003 Y-172.543
G1 Z0.0000 F2500.0
G4 P0.02
G0 X93.664 Y-150.374 F15000.0
G1 Z11.9000 F2500.0
G4 P0.02
G1 X90.450 Y-146.484 F2200.0
G1 Z0.0000 F2500.0
G4 P0.02
G0 X93.664 Y-150.374
G1 Z11.9000 F2500.0
G4 P0.02
G1 X91.549 Y-145.808
G1 X91.211 Y-146.568
G1 Z0.0000 F2500.0
G4 P0.02
G0 X95.271 Y-149.189 F15000.0
G1 Z11.9000 F2500.0
G4 P0.02
G1 X94.341 Y-149.866 F12000.0
G1 X92.141 Y-151.219
G1 X89.774 Y-152.235
G1 X87.237 Y-152.995
G1 X84.700 Y-153.334
G1 X83.007 Y-153.418
G1 X81.317 Y-153.334
G1 X21.863 Y-148.345
G1 X19.579 Y-148.006
G1 X17.465 Y-147.329
G1 X15.435 Y-146.315
G1 X13.575 Y-145.046
G1 X11.968 Y-143.524
G1 X10.615 Y-141.748
G1 X9.515 Y-139.718
G1 X8.671 Y-137.688
G1 X8.248 Y-135.489
G1 X8.078 Y-133.205
G1 X8.332 Y-130.923
G1 X8.839 Y-128.808
G1 X9.685 Y-126.694
G1 X10.869 Y-124.748
G1 X12.307 Y-123.058
G1 X13.998 Y-121.535
G1 X15.858 Y-120.351
G1 X17.888 Y-119.337
G1 X20.088 Y-118.744
G1 X21.863 Y-118.491
G1 X81.317 Y-113.501
G1 X84.700 Y-113.501
G1 X144.237 Y-118.491
G1 X145.929 Y-118.744
G1 X148.127 Y-119.337
G1 X150.157 Y-120.351
G1 X152.017 Y-121.535
G1 X153.709 Y-123.058
G1 X155.147 Y-124.748
G1 X156.330 Y-126.694
G1 X157.176 Y-128.808
G1 X157.683 Y-130.923
G1 X157.937 Y-133.205
G1 X157.768 Y-135.489
G1 X157.346 Y-137.688
G1 X156.500 Y-139.718
G1 X155.400 Y-141.748
G1 X154.047 Y-143.524
G1 X152.440 Y-145.046
G1 X150.580 Y-146.315
G1 X148.550 Y-147.329
G1 X146.436 Y-148.006
G1 X144.237 Y-148.345
G1 X84.700 Y-153.334
G1 Z0.0000 F2500.0
G4 P0.02
G0 X83.007 Y-155.448 F15000.0
G1 Z11.9000 F2500.0
G4 P0.02
G1 X83.007 Y-143.778 F2200.0
G1 Z0.0000 F2500.0
G4 P0.02
G0 X83.007 Y-142.255 F15000.0
G1 Z11.9000 F2500.0
G4 P0.02
G1 X83.007 Y-140.732 F2200.0
G1 Z0.0000 F2500.0
G4 P0.02
G0 X83.007 Y-139.295 F15000.0
G1 Z11.9000 F2500.0
G4 P0.02
G1 X83.007 Y-133.460 F2200.0
G1 Z0.0000 F2500.0
G4 P0.02
G0 X84.784 Y-135.235 F15000.0
G1 Z11.9000 F2500.0
G4 P0.02
G1 X55.437 Y-164.496 F12000.0
G1 Z0.0000 F2500.0
G4 P0.02
G0 X58.217 Y-165.523 F15000.0
G1 Z11.9000 F2500.0
G4 P0.02
G1 X58.917 Y-164.825 F2200.0
G1 X58.766 Y-165.227
G1 X59.467 Y-164.528
G1 Z0.0000 F2500.0
G4 P0.02
G0 X60.427 Y-166.612 F15000.0
G1 Z11.9000 F2500.0
G4 P0.02
G1 X69.223 Y-175.492 F2200.0
G1 Z0.0000 F2500.0
G4 P0.02
G0 X53.723 Y-169.193 F15000.0
G1 Z11.9000 F2500.0
G4 P0.02
G1 X54.902 Y-180.203 F12000.0
G1 X49.987 Y-175.288
G1 X53.723 Y-169.193
G1 X58.638 Y-174.108
G1 Z0.0000 F2500.0
G4 P0.02
G0 X79.462 Y-196.570 F15000.0
G1 Z11.9000 F2500.0
G4 P0.02
G1 X80.772 Y-202.029 F2200.0
G1 X79.210 Y-200.771
G1 Z0.0000 F2500.0
G4 P0.02
G0 X80.723 Y-196.570 F15000.0
G1 Z11.9000 F2500.0
G4 P0.02
G1 X81.562 Y-196.570 F2200.0
G1 X82.662 Y-197.044
G1 X83.225 Y-198.250
G1 X83.231 Y-198.797
G1 X82.784 Y-199.386
G1 X81.428 Y-199.511
G1 X82.033 Y-202.031
G1 X84.133 Y-202.031
G1 Z0.0000 F2500.0
G4 P0.02
G0 X87.482 Y-199.302 F15000.0
G1 Z11.9000 F2500.0
G4 P0.02
G1 X87.635 Y-200.647 F2200.0
G1 X87.522 Y-201.363
G1 X87.251 Y-201.830
G1 X86.854 Y-201.993
G1 X86.380 Y-201.830
G1 X85.647 Y-201.031
G1 X85.065 Y-199.769
G1 X84.789 Y-198.380
G1 X84.894 Y-197.239
G1 X85.165 Y-196.772
G1 X85.562 Y-196.609
G1 X86.036 Y-196.772
G1 X86.532 Y-197.239
G1 X87.184 Y-198.380
G1 X87.482 Y-199.302
G1 Z0.0000 F2500.0
G4 P0.02
G0 X91.707 Y-148.693 F15000.0
G1 Z11.9000 F2500.0
G4 P0.02
G1 X92.406 Y-147.994 F2200.0
G1 X92.437 Y-147.640
G1 X92.437 Y-148.540
G1 Z0.0000 F2500.0
G4 P0.02
G0 X83.007 Y-126.102 F15000.0
G1 Z11.9000 F2500.0
G4 P0.02
G1 X83.007 Y-124.580 F2200.0
G1 Z0.0000 F2500.0
G4 P0.02
G0 X83.007 Y-123.142 F15000.0
G1 Z11.9000 F2500.0
G4 P0.02
G1 X83.007 Y-111.471 F2200.0
G1 Z0.0000 F2500.0
G4 P0.02
G0 X81.621 Y-103.412 F15000.0
G1 Z11.9000 F2500.0
G4 P0.02
G1 X82.528 Y-104.256 F2200.0
G1 X83.508 Y-104.304
G1 X84.038 Y-103.784
G1 X83.969 Y-102.829
G1 X83.710 Y-102.439
G1 X80.512 Y-98.789
G1 X83.032 Y-98.789
G1 Z0.0000 F2500.0
G4 P0.02
G0 X79.252 Y-98.789 F15000.0
G1 Z11.9000 F2500.0
G4 P0.02
G1 X80.561 Y-104.247 F2200.0
G1 X79.000 Y-102.989
G1 Z0.0000 F2500.0
G4 P0.02
G0 X87.692 Y-101.519 F15000.0
G1 Z11.9000 F2500.0
G4 P0.02
G1 X87.844 Y-102.865 F2200.0
G1 X87.731 Y-103.582
G1 X87.461 Y-104.049
G1 X87.064 Y-104.212
G1 X86.589 Y-104.049
G1 X85.857 Y-103.250
G1 X85.276 Y-101.987
G1 X85.000 Y-100.598
G1 X85.103 Y-99.457
G1 X85.375 Y-98.990
G1 X85.772 Y-98.828
G1 X86.246 Y-98.990
G1 X86.979 Y-99.789
G1 X87.561 Y-101.052
G1 Z0.0000 F2500.0
G4 P0.02
G0 X61.950 Y-58.276 F15000.0
G1 Z11.9000 F2500.0
G4 P0.02
G1 X61.950 Y-10.000 F12000.0
G1 Z0.0000 F2500.0
G4 P0.02
G0 X63.461 Y-10.000 F15000.0
G1 Z11.9000 F2500.0
G4 P0.02
G1 X63.955 Y-12.371 F2200.0
G1 X64.710 Y-13.242
G1 X66.173 Y-13.422
G1 Z0.0000 F2500.0
G4 P0.02
G0 X68.556 Y-11.844 F15000.0
G1 Z11.9000 F2500.0
G4 P0.02
G1 X68.114 Y-10.000 F2200.0
G1 Z0.0000 F2500.0
G4 P0.02
G0 X69.670 Y-10.000 F15000.0
G1 Z11.9000 F2500.0
G4 P0.02
G1 X69.964 Y-11.299 F2200.0
G1 X69.683 Y-11.759
G1 X66.978 Y-11.844
G1 X66.535 Y-10.000
G1 Z0.0000 F2500.0
G4 P0.02
G0 X70.906 Y-10.000 F15000.0
G1 Z11.9000 F2500.0
G4 P0.02
G1 X71.300 Y-11.413 F2200.0
G1 X71.982 Y-11.835
G1 X73.291 Y-11.844
G1 X72.859 Y-10.000
G1 Z0.0000 F2500.0
G4 P0.02
G0 X74.901 Y-10.000 F15000.0
G1 Z11.9000 F2500.0
G4 P0.02
G1 X75.856 Y-11.844 F2200.0
G1 X76.842 Y-11.844
G1 X76.399 Y-10.000
G1 Z0.0000 F2500.0
G4 P0.02
G0 X78.026 Y-11.844 F15000.0
G1 Z11.9000 F2500.0
G4 P0.02
G1 X77.583 Y-10.000 F2200.0
G1 X78.814 Y-10.058
G1 X78.901 Y-10.000
G1 Z0.0000 F2500.0
G4 P0.02
G0 X83.641 Y-12.238 F15000.0
G1 Z11.9000 F2500.0
G4 P0.02
G1 X85.109 Y-13.419 F2200.0
G1 X84.288 Y-10.000
G1 Z0.0000 F2500.0
G4 P0.02
G0 X85.764 Y-10.000 F15000.0
G1 Z11.9000 F2500.0
G4 P0.02
G1 X85.861 Y-10.858 F2200.0
G1 X86.326 Y-12.121
G1 X86.986 Y-13.047
G1 X87.449 Y-13.348
G1 X87.864 Y-13.348
G1 X88.182 Y-13.047
G1 X88.398 Y-12.121
G1 X88.255 Y-10.858
G1 X87.941 Y-10.000
G1 Z0.0000 F2500.0
G4 P0.02
G0 X91.784 Y-10.000 F15000.0
G1 Z11.9000 F2500.0
G4 P0.02
G1 X92.606 Y-13.422 F2200.0
G1 X94.579 Y-13.422
G1 Z0.0000 F2500.0
G4 P0.02
G0 X95.032 Y-10.000 F15000.0
G1 Z11.9000 F2500.0
G4 P0.02
G1 X95.600 Y-12.620 F2200.0
G1 X96.432 Y-13.424
G1 X97.350 Y-13.475
G1 X97.881 Y-12.871
G1 X97.287 Y-10.000
G1 Z0.0000 F2500.0
G4 P0.02
G0 X98.575 Y-10.000 F15000.0
G1 Z11.9000 F2500.0
G4 P0.02
G1 X99.069 Y-12.371 F2200.0
G1 X99.824 Y-13.242
G1 X101.286 Y-13.422
G1 Z0.0000 F2500.0
G4 P0.02
G0 X102.470 Y-13.422 F15000.0
G1 Z11.9000 F2500.0
G4 P0.02
G1 X104.837 Y-13.422 F2200.0
G1 Z0.0000 F2500.0
G4 P0.02
G0 X103.653 Y-13.422 F15000.0
G1 Z11.9000 F2500.0
G4 P0.02
G1 X102.832 Y-10.000 F2200.0
G1 Z0.0000 F2500.0
G4 P0.02
G0 X108.104 Y-12.238 F15000.0
G1 Z11.9000 F2500.0
G4 P0.02
G1 X109.572 Y-13.419 F2200.0
G1 X108.751 Y-10.000
G1 Z0.0000 F2500.0
G4 P0.02
G0 X110.227 Y-10.000 F15000.0
G1 Z11.9000 F2500.0
G4 P0.02
G1 X110.324 Y-10.858 F2200.0
G1 X110.789 Y-12.121
G1 X111.449 Y-13.047
G1 X111.910 Y-13.348
G1 X112.327 Y-13.348
G1 X112.645 Y-13.047
G1 X112.861 Y-12.121
G1 X112.718 Y-10.858
G1 X112.404 Y-10.000
G1 Z0.0000 F2500.0
G4 P0.02
G0 X115.776 Y-10.000 F15000.0
G1 Z11.9000 F2500.0
G4 P0.02
G1 X115.849 Y-10.262 F2200.0
G1 X115.408 Y-10.938
G1 X114.133 Y-11.055
G1 X114.701 Y-13.422
G1 X116.674 Y-13.422
G1 Z0.0000 F2500.0
G4 P0.02
G0 X117.330 Y-10.000 F15000.0
G1 Z11.9000 F2500.0
G4 P0.02
G1 X117.427 Y-10.858 F2200.0
G1 X117.890 Y-12.121
G1 X118.550 Y-13.047
G1 X119.013 Y-13.348
G1 X119.429 Y-13.348
G1 X119.747 Y-13.047
G1 X119.964 Y-12.121
G1 X119.820 Y-10.858
G1 X119.506 Y-10.000
G1 Z0.0000 F2500.0
G4 P0.02
G0 X120.999 Y-10.068 F15000.0
G1 Z11.9000 F2500.0
G4 P0.02
G1 X122.972 Y-10.068 F2200.0
G1 Z0.0000 F2500.0
G4 P0.02
G0 X124.284 Y-10.000 F15000.0
G1 Z11.9000 F2500.0
G4 P0.02
G1 X124.597 Y-10.601 F2200.0
G1 X125.760 Y-11.053
G1 X126.505 Y-10.696
G1 X126.636 Y-10.000
G1 Z0.0000 F2500.0
G4 P0.02
G0 X128.072 Y-10.000 F15000.0
G1 Z11.9000 F2500.0
G4 P0.02
G1 X128.385 Y-10.601 F2200.0
G1 X129.547 Y-11.053
G1 X130.361 Y-10.601
G1 X130.439 Y-10.000
G1 Z0.0000 F2500.0
G4 P0.02
G0 X131.889 Y-10.000 F15000.0
G1 Z11.9000 F2500.0
G4 P0.02
G1 X131.889 Y-43.308 F12000.0
G1 Z0.0000 F2500.0
G4 P0.02
G0 X131.889 Y-38.318 F15000.0
G1 Z11.9000 F2500.0
G4 P0.02
G1 X177.000 Y-38.318 F12000.0
G1 Z0.0000 F2500.0
G4 P0.02
G0 X177.000 Y-39.617 F15000.0
G1 Z11.9000 F2500.0
G4 P0.02
G1 X176.676 Y-39.395 F2200.0
G1 X176.379 Y-39.911
G1 X176.937 Y-41.275
G1 X177.000 Y-41.279
G1 Z0.0000 F2500.0
G4 P0.02
G0 X175.245 Y-41.321 F15000.0
G1 Z11.9000 F2500.0
G4 P0.02
G1 X174.790 Y-39.427 F2200.0
G1 Z0.0000 F2500.0
G4 P0.02
G0 X175.632 Y-39.427 F15000.0
G1 Z11.9000 F2500.0
G4 P0.02
G1 X175.985 Y-40.900 F2200.0
G1 X175.964 Y-41.147
G1 X174.403 Y-41.321
G1 X173.948 Y-39.427
G1 Z0.0000 F2500.0
G4 P0.02
G0 X172.475 Y-39.427 F15000.0
G1 Z11.9000 F2500.0
G4 P0.02
G1 X172.930 Y-41.321 F2200.0
G1 Z0.0000 F2500.0
G4 P0.02
G0 X173.772 Y-41.321 F15000.0
G1 Z11.9000 F2500.0
G4 P0.02
G1 X173.317 Y-39.427 F2200.0
G1 X172.055 Y-39.427
G1 X171.826 Y-39.507
G1 X172.088 Y-41.321
G1 Z0.0000 F2500.0
G4 P0.02
G0 X171.457 Y-41.321 F15000.0
G1 Z11.9000 F2500.0
G4 P0.02
G1 X170.535 Y-40.966 F2200.0
G1 X170.353 Y-39.507
G1 X170.582 Y-39.427
G1 X171.002 Y-39.427
G1 Z0.0000 F2500.0
G4 P0.02
G0 X169.529 Y-39.427 F15000.0
G1 Z11.9000 F2500.0
G4 P0.02
G1 X169.415 Y-39.467 F2200.0
G1 X169.773 Y-41.321
G1 X168.941 Y-41.275
G1 X168.382 Y-39.911
G1 X168.679 Y-39.395
G1 X169.435 Y-39.911
G1 Z0.0000 F2500.0
G4 P0.02
G0 X167.636 Y-39.427 F15000.0
G1 Z11.9000 F2500.0
G4 P0.02
G1 X168.292 Y-42.163 F2200.0
G1 X167.097 Y-40.689
G1 X166.609 Y-42.163
G1 X165.952 Y-39.427
G1 Z0.0000 F2500.0
G4 P0.02
G0 X163.857 Y-43.308 F15000.0
G1 Z11.9000 F2500.0
G4 P0.02
G1 X163.857 Y-23.264 F12000.0
G1 Z0.0000 F2500.0
G4 P0.02
G0 X162.487 Y-21.343 F15000.0
G1 Z11.9000 F2500.0
G4 P0.02
G1 X162.032 Y-19.450 F2200.0
G1 Z0.0000 F2500.0
G4 P0.02
G0 X162.875 Y-19.450 F15000.0
G1 Z11.9000 F2500.0
G4 P0.02
G1 X163.227 Y-20.923 F2200.0
G1 X163.207 Y-21.171
G1 X161.645 Y-21.343
G1 X161.190 Y-19.450
G1 Z0.0000 F2500.0
G4 P0.02
G0 X160.559 Y-19.450 F15000.0
G1 Z11.9000 F2500.0
G4 P0.02
G1 X160.138 Y-19.450 F2200.0
G1 X159.910 Y-19.530
G1 X160.092 Y-20.989
G1 X161.014 Y-21.343
G1 Z0.0000 F2500.0
G4 P0.02
G0 X159.541 Y-21.343 F15000.0
G1 Z11.9000 F2500.0
G4 P0.02
G1 X159.086 Y-19.450 F2200.0
G1 X158.455 Y-19.450
G1 X158.226 Y-19.530
G1 X158.488 Y-21.343
G1 Z0.0000 F2500.0
G4 P0.02
G0 X157.402 Y-19.450 F15000.0
G1 Z11.9000 F2500.0
G4 P0.02
G1 X158.060 Y-22.185 F2200.0
G1 X157.448 Y-22.185
G1 X156.140 Y-19.450
G1 Z0.0000 F2500.0
G4 P0.02
G0 X156.502 Y-16.914 F15000.0
G1 Z11.9000 F2500.0
G4 P0.02
G1 X156.154 Y-14.833 F2200.0
G1 X156.755 Y-14.133
G1 X157.251 Y-14.035
G1 X158.279 Y-14.035
G1 Z0.0000 F2500.0
G4 P0.02
G0 X158.921 Y-11.569 F15000.0
G1 Z11.9000 F2500.0
G4 P0.02
G1 X160.204 Y-16.914 F2200.0
G1 X162.671 Y-16.914
G1 X161.388 Y-11.569
G1 Z0.0000 F2500.0
G4 P0.02
G0 X162.645 Y-10.000 F15000.0
G1 Z11.9000 F2500.0
G4 P0.02
G1 X163.066 Y-10.000 F2200.0
G1 Z0.0000 F2500.0
G4 P0.02
G0 X164.677 Y-11.569 F15000.0
G1 Z11.9000 F2500.0
G4 P0.02
G1 X163.854 Y-11.569 F2200.0
G1 X163.347 Y-11.689
G1 X162.909 Y-12.266
G1 X163.704 Y-15.955
G1 X164.574 Y-16.793
G1 X165.960 Y-16.914
G1 Z0.0000 F2500.0
G4 P0.02
G0 X164.674 Y-19.933 F15000.0
G1 Z11.9000 F2500.0
G4 P0.02
G1 X164.776 Y-21.289 F2200.0
G1 X163.987 Y-21.134
G1 X163.843 Y-20.859
G1 X163.741 Y-19.503
G1 X164.579 Y-19.724
G1 X164.674 Y-19.933
G1 Z0.0000 F2500.0
G4 P0.02
G0 X165.527 Y-20.859 F15000.0
G1 Z11.9000 F2500.0
G4 P0.02
G1 X165.669 Y-21.134 F2200.0
G1 X166.460 Y-21.289
G1 X166.357 Y-19.933
G1 X166.160 Y-19.601
G1 X165.380 Y-19.549
G1 X165.779 Y-21.912
G1 X166.030 Y-22.198
G1 X166.415 Y-22.042
G1 X165.734 Y-21.200
G1 Z0.0000 F2500.0
G4 P0.02
G0 X158.969 Y-16.914 F15000.0
G1 Z11.9000 F2500.0
G4 P0.02
G1 X157.761 Y-12.204 F2200.0
G1 X156.934 Y-11.604
G1 X155.631 Y-11.569
G1 Z0.0000 F2500.0
G4 P0.02
G0 X155.059 Y-10.000 F15000.0
G1 Z11.9000 F2500.0
G4 P0.02
G1 X155.078 Y-10.079 F2200.0
G1 X156.979 Y-10.079
G1 Z0.0000 F2500.0
G4 P0.02
G0 X158.736 Y-10.000 F15000.0
G1 Z11.9000 F2500.0
G4 P0.02
G1 X158.891 Y-10.131 F2200.0
G1 X159.753 Y-10.079
G1 X159.805 Y-10.000
G1 Z0.0000 F2500.0
G4 P0.02
G0 X151.930 Y-11.569 F15000.0
G1 Z11.9000 F2500.0
G4 P0.02
G1 X153.213 Y-16.914 F2200.0
G1 X155.269 Y-16.914
G1 Z0.0000 F2500.0
G4 P0.02
G0 X152.440 Y-18.274 F15000.0
G1 Z11.9000 F2500.0
G4 P0.02
G1 X152.440 Y-23.264 F2200.0
G1 Z0.0000 F2500.0
G4 P0.02
G0 X146.859 Y-23.264 F15000.0
G1 Z11.9000 F2500.0
G4 P0.02
G1 X146.859 Y-43.308 F12000.0
G1 Z0.0000 F2500.0
G4 P0.02
G0 X150.917 Y-39.427 F15000.0
G1 Z11.9000 F2500.0
G4 P0.02
G1 X151.575 Y-42.163 F2200.0
G1 X152.062 Y-40.689
G1 X153.257 Y-42.163
G1 X152.601 Y-39.427
G1 Z0.0000 F2500.0
G4 P0.02
G0 X154.401 Y-39.911 F15000.0
G1 Z11.9000 F2500.0
G4 P0.02
G1 X153.644 Y-39.395 F2200.0
G1 X153.348 Y-39.911
G1 X153.906 Y-41.275
G1 X154.740 Y-41.321
G1 X154.380 Y-39.467
G1 X154.495 Y-39.427
G1 Z0.0000 F2500.0
G4 P0.02
G0 X155.968 Y-39.427 F15000.0
G1 Z11.9000 F2500.0
G4 P0.02
G1 X155.548 Y-39.427 F2200.0
G1 X155.319 Y-39.507
G1 X155.501 Y-40.966
G1 X156.423 Y-41.321
G1 Z0.0000 F2500.0
G4 P0.02
G0 X157.896 Y-41.321 F15000.0
G1 Z11.9000 F2500.0
G4 P0.02
G1 X156.974 Y-40.966 F2200.0
G1 X156.792 Y-39.507
G1 X157.021 Y-39.427
G1 X157.441 Y-39.427
G1 Z0.0000 F2500.0
G4 P0.02
G0 X159.241 Y-39.911 F15000.0
G1 Z11.9000 F2500.0
G4 P0.02
G1 X158.484 Y-39.395 F2200.0
G1 X158.189 Y-39.911
G1 X158.746 Y-41.275
G1 X159.580 Y-41.321
G1 X159.220 Y-39.467
G1 X159.336 Y-39.427
G1 Z0.0000 F2500.0
G4 P0.02
G0 X170.626 Y-32.391 F15000.0
G1 Z11.9000 F2500.0
G4 P0.02
G1 X172.187 Y-33.648 F2200.0
G1 X170.878 Y-28.189
G1 Z0.0000 F2500.0
G4 P0.02
G0 X172.131 Y-28.157 F15000.0
G1 Z11.9000 F2500.0
G4 P0.02
G1 X172.146 Y-28.222 F2200.0
G1 Z0.0000 F2500.0
G4 P0.02
G0 X172.736 Y-30.678 F15000.0
G1 Z11.9000 F2500.0
G4 P0.02
G1 X172.751 Y-30.743 F2200.0
G1 Z0.0000 F2500.0
G4 P0.02
G0 X174.930 Y-32.391 F15000.0
G1 Z11.9000 F2500.0
G4 P0.02
G1 X176.491 Y-33.648 F2200.0
G1 X175.182 Y-28.189
G1 Z0.0000 F2500.0
G4 P0.02
G0 X177.000 Y-23.264 F15000.0
G1 Z11.9000 F2500.0
G4 P0.02
G1 X131.889 Y-23.264 F12000.0
G1 Z0.0000 F2500.0
G4 P0.02
G0 X134.772 Y-19.450 F15000.0
G1 Z11.9000 F2500.0
G4 P0.02
G1 X136.081 Y-22.185 F2200.0
G1 X136.692 Y-22.185
G1 X136.036 Y-19.450
G1 Z0.0000 F2500.0
G4 P0.02
G0 X137.122 Y-21.343 F15000.0
G1 Z11.9000 F2500.0
G4 P0.02
G1 X136.860 Y-19.530 F2200.0
G1 X137.087 Y-19.450
G1 X137.718 Y-19.450
G1 X138.173 Y-21.343
G1 Z0.0000 F2500.0
G4 P0.02
G0 X139.646 Y-21.343 F15000.0
G1 Z11.9000 F2500.0
G4 P0.02
G1 X138.724 Y-20.989 F2200.0
G1 X138.542 Y-19.530
G1 X138.771 Y-19.450
G1 X139.191 Y-19.450
G1 Z0.0000 F2500.0
G4 P0.02
G0 X139.823 Y-19.450 F15000.0
G1 Z11.9000 F2500.0
G4 P0.02
G1 X140.277 Y-21.343 F2200.0
G1 X141.840 Y-21.171
G1 X141.861 Y-20.923
G1 X141.507 Y-19.450
G1 Z0.0000 F2500.0
G4 P0.02
G0 X140.665 Y-19.450 F15000.0
G1 Z11.9000 F2500.0
G4 P0.02
G1 X141.119 Y-21.343 F2200.0
G1 Z0.0000 F2500.0
G4 P0.02
G0 X141.869 Y-23.264 F15000.0
G1 Z11.9000 F2500.0
G4 P0.02
G1 X141.869 Y-38.318 F12000.0
G1 Z0.0000 F2500.0
G4 P0.02
G0 X141.946 Y-39.427 F15000.0
G1 Z11.9000 F2500.0
G4 P0.02
G1 X142.300 Y-40.900 F2200.0
G1 X142.280 Y-41.147
G1 X140.718 Y-41.321
G1 X140.264 Y-39.427
G1 Z0.0000 F2500.0
G4 P0.02
G0 X141.106 Y-39.427 F15000.0
G1 Z11.9000 F2500.0
G4 P0.02
G1 X141.559 Y-41.321 F2200.0
G1 Z0.0000 F2500.0
G4 P0.02
G0 X140.086 Y-41.321 F15000.0
G1 Z11.9000 F2500.0
G4 P0.02
G1 X139.632 Y-39.427 F2200.0
G1 X139.000 Y-39.427
G1 X138.773 Y-39.507
G1 X139.034 Y-41.321
G1 Z0.0000 F2500.0
G4 P0.02
G0 X137.948 Y-39.427 F15000.0
G1 Z11.9000 F2500.0
G4 P0.02
G1 X138.605 Y-42.163 F2200.0
G1 X137.994 Y-42.163
G1 X136.686 Y-39.427
G1 Z0.0000 F2500.0
G4 P0.02
G0 X136.795 Y-38.318 F15000.0
G1 Z11.9000 F2500.0
G4 P0.02
G1 X136.795 Y-23.264 F12000.0
G1 Z0.0000 F2500.0
G4 P0.02
G0 X130.852 Y-12.160 F15000.0
G1 Z11.9000 F2500.0
G4 P0.02
G1 X130.156 Y-11.250 F2200.0
G1 X129.226 Y-11.086
G1 X128.687 Y-11.532
G1 X128.643 Y-12.160
G1 X129.162 Y-13.169
G1 X130.079 Y-13.541
G1 X130.744 Y-13.262
G1 X130.941 Y-12.569
G1 X130.852 Y-12.160
G1 Z0.0000 F2500.0
G4 P0.02
G0 X127.063 Y-12.160 F15000.0
G1 Z11.9000 F2500.0
G4 P0.02
G1 X126.369 Y-11.250 F2200.0
G1 X125.437 Y-11.086
G1 X124.900 Y-11.532
G1 X124.854 Y-12.160
G1 X125.374 Y-13.169
G1 X126.290 Y-13.541
G1 X126.956 Y-13.262
G1 X127.154 Y-12.569
G1 X127.063 Y-12.160
G1 Z0.0000 F2500.0
G4 P0.02
G0 X145.189 Y-10.079 F15000.0
G1 Z11.9000 F2500.0
G4 P0.02
G1 X146.314 Y-10.000 F2200.0
G1 Z0.0000 F2500.0
G4 P0.02
G0 X148.612 Y-10.079 F15000.0
G1 Z11.9000 F2500.0
G4 P0.02
G1 X150.894 Y-10.079 F2200.0
G1 Z0.0000 F2500.0
G4 P0.02
G0 X149.753 Y-10.079 F15000.0
G1 Z11.9000 F2500.0
G4 P0.02
G1 X149.734 Y-10.000 F2200.0
G1 Z0.0000 F2500.0
G4 P0.02
G0 X150.697 Y-11.569 F15000.0
G1 Z11.9000 F2500.0
G4 P0.02
G1 X151.980 Y-16.914 F2200.0
G1 X149.512 Y-16.914
G1 X148.230 Y-11.569
G1 Z0.0000 F2500.0
G4 P0.02
G0 X142.575 Y-39.411 F15000.0
G1 Z11.9000 F2500.0
G4 P0.02
G1 X142.582 Y-39.444 F2200.0
G1 Z0.0000 F2500.0
G4 P0.02
G0 X136.806 Y-51.156 F15000.0
G1 Z11.9000 F2500.0
G4 P0.02
G1 X138.479 Y-51.146 F2200.0
G1 X139.182 Y-50.822
G1 X139.506 Y-50.133
G1 X139.193 Y-48.627
G1 X138.287 Y-47.675
G1 X137.250 Y-47.450
G1 X136.547 Y-47.774
G1 X136.223 Y-48.463
G1 X136.724 Y-50.901
G1 X137.232 Y-52.056
G1 X139.553 Y-54.209
G1 Z0.0000 F2500.0
G4 P0.02
G0 X134.958 Y-50.901 F15000.0
G1 Z11.9000 F2500.0
G4 P0.02
G1 X135.143 Y-52.532 F2200.0
G1 X135.006 Y-53.399
G1 X134.678 Y-53.965
G1 X134.454 Y-54.113
G1 X133.918 Y-54.113
G1 X133.321 Y-53.726
G1 X132.735 Y-52.998
G1 X132.031 Y-51.467
G1 X131.696 Y-49.786
G1 X131.729 Y-48.805
G1 X131.965 Y-48.077
G1 X132.376 Y-47.690
G1 X132.912 Y-47.690
G1 X133.508 Y-48.077
G1 X134.094 Y-48.805
G1 X134.800 Y-50.334
G1 Z0.0000 F2500.0
G4 P0.02
G0 X128.690 Y-47.633 F15000.0
G1 Z11.9000 F2500.0
G4 P0.02
G1 X128.670 Y-47.553 F2200.0
G1 Z0.0000 F2500.0
G4 P0.02
G0 X127.864 Y-50.647 F15000.0
G1 Z11.9000 F2500.0
G4 P0.02
G1 X125.874 Y-50.731 F2200.0
G1 X125.302 Y-51.220
G1 X125.199 Y-52.173
G1 X125.669 Y-53.497
G1 X126.552 Y-54.211
G1 X127.582 Y-54.324
G1 X128.224 Y-53.914
G1 X128.455 Y-53.174
G1 X127.234 Y-49.436
G1 X125.118 Y-47.593
G1 Z0.0000 F2500.0
G4 P0.02
G0 X123.130 Y-50.901 F15000.0
G1 Z11.9000 F2500.0
G4 P0.02
G1 X123.315 Y-52.532 F2200.0
G1 X123.179 Y-53.399
G1 X122.849 Y-53.965
G1 X122.625 Y-54.113
G1 X122.089 Y-54.113
G1 X121.492 Y-53.726
G1 X120.906 Y-52.998
G1 X120.202 Y-51.467
G1 X119.869 Y-49.786
G1 X119.900 Y-48.805
G1 X120.136 Y-48.077
G1 X120.548 Y-47.690
G1 X121.084 Y-47.690
G1 X121.681 Y-48.077
G1 X122.265 Y-48.805
G1 X122.971 Y-50.334
G1 Z0.0000 F2500.0
G4 P0.02
G0 X116.913 Y-54.209 F15000.0
G1 Z11.9000 F2500.0
G4 P0.02
G1 X114.368 Y-54.209 F2200.0
G1 X112.780 Y-47.593
G1 Z0.0000 F2500.0
G4 P0.02
G0 X111.253 Y-47.593 F15000.0
G1 Z11.9000 F2500.0
G4 P0.02
G1 X112.841 Y-54.209 F2200.0
G1 Z0.0000 F2500.0
G4 P0.02
G0 X109.788 Y-54.209 F15000.0
G1 Z11.9000 F2500.0
G4 P0.02
G1 X108.201 Y-47.593 F2200.0
G1 Z0.0000 F2500.0
G4 P0.02
G0 X106.674 Y-47.593 F15000.0
G1 Z11.9000 F2500.0
G4 P0.02
G1 X105.540 Y-51.460 F2200.0
G1 Z0.0000 F2500.0
G4 P0.02
G0 X104.231 Y-50.137 F15000.0
G1 Z11.9000 F2500.0
G4 P0.02
G1 X108.261 Y-54.209 F2200.0
G1 Z0.0000 F2500.0
G4 P0.02
G0 X105.208 Y-54.209 F15000.0
G1 Z11.9000 F2500.0
G4 P0.02
G1 X103.620 Y-47.593 F2200.0
G1 Z0.0000 F2500.0
G4 P0.02
G0 X109.055 Y-51.156 F15000.0
G1 Z11.9000 F2500.0
G4 P0.02
G1 X112.109 Y-51.156 F2200.0
G1 Z0.0000 F2500.0
G4 P0.02
G0 X116.860 Y-47.633 F15000.0
G1 Z11.9000 F2500.0
G4 P0.02
G1 X116.843 Y-47.553 F2200.0
G1 Z0.0000 F2500.0
G4 P0.02
G0 X114.913 Y-32.374 F15000.0
G1 Z11.9000 F2500.0
G4 P0.02
G1 X111.013 Y-28.740 F2200.0
G1 Z0.0000 F2500.0
G4 P0.02
G0 X112.240 Y-29.884 F15000.0
G1 Z11.9000 F2500.0
G4 P0.02
G1 X113.606 Y-26.924 F2200.0
G1 Z0.0000 F2500.0
G4 P0.02
G0 X110.577 Y-26.924 F15000.0
G1 Z11.9000 F2500.0
G4 P0.02
G1 X111.886 Y-32.374 F2200.0
G1 Z0.0000 F2500.0
G4 P0.02
G0 X110.068 Y-32.374 F15000.0
G1 Z11.9000 F2500.0
G4 P0.02
G1 X108.760 Y-26.924 F2200.0
G1 X106.943 Y-26.924
G1 X106.285 Y-27.154
G1 X105.992 Y-27.761
G1 X107.040 Y-32.374
G1 Z0.0000 F2500.0
G4 P0.02
G0 X102.456 Y-31.962 F15000.0
G1 Z11.9000 F2500.0
G4 P0.02
G1 X104.200 Y-33.590 F2200.0
G1 X104.429 Y-34.188
G1 X104.351 Y-34.560
G1 X104.100 Y-34.820
G1 X103.517 Y-34.898
G1 X102.926 Y-34.581
G1 X102.587 Y-34.010
G1 X101.178 Y-27.908
G1 X101.436 Y-27.209
G1 X102.071 Y-26.835
G1 X102.900 Y-26.890
G1 X103.839 Y-27.529
G1 X104.249 Y-28.316
G1 X104.931 Y-31.390
G1 X104.673 Y-32.088
G1 X104.038 Y-32.464
G1 X103.210 Y-32.407
G1 X102.430 Y-31.938
G1 X101.924 Y-31.188
G1 X101.861 Y-30.981
G1 Z0.0000 F2500.0
G4 P0.02
G0 X99.403 Y-28.316 F15000.0
G1 Z11.9000 F2500.0
G4 P0.02
G1 X100.085 Y-31.390 F2200.0
G1 X99.828 Y-32.088
G1 X99.193 Y-32.464
G1 X98.364 Y-32.407
G1 X97.584 Y-31.938
G1 X97.079 Y-31.188
G1 X96.333 Y-27.908
G1 X96.591 Y-27.209
G1 X97.226 Y-26.835
G1 X98.054 Y-26.890
G1 X98.994 Y-27.529
G1 X99.403 Y-28.316
G1 Z0.0000 F2500.0
G4 P0.02
G0 X94.225 Y-26.924 F15000.0
G1 Z11.9000 F2500.0
G4 P0.02
G1 X92.505 Y-32.374 F2200.0
G1 Z0.0000 F2500.0
G4 P0.02
G0 X95.532 Y-32.374 F15000.0
G1 Z11.9000 F2500.0
G4 P0.02
G1 X91.196 Y-26.924 F2200.0
G1 Z0.0000 F2500.0
G4 P0.02
G0 X89.380 Y-26.924 F15000.0
G1 Z11.9000 F2500.0
G4 P0.02
G1 X89.049 Y-27.037 F2200.0
G1 X88.901 Y-27.342
G1 X90.082 Y-32.374
G1 X88.265 Y-32.374
G1 X87.497 Y-32.143
G1 X86.912 Y-31.538
G1 X86.038 Y-27.908
G1 X86.294 Y-27.209
G1 X86.929 Y-26.835
G1 X87.759 Y-26.890
G1 X88.699 Y-27.529
G1 X89.108 Y-28.316
G1 Z0.0000 F2500.0
G4 P0.02
G0 X83.928 Y-26.924 F15000.0
G1 Z11.9000 F2500.0
G4 P0.02
G1 X85.817 Y-34.796 F12000.0
G1 X82.378 Y-30.558
G1 X80.972 Y-34.796
G1 X79.083 Y-26.924
G1 Z0.0000 F2500.0
G4 P0.02
G0 X61.950 Y-28.338 F15000.0
G1 Z11.9000 F2500.0
G4 P0.02
G1 X-3.000 Y-28.338 F12000.0
G1 Z0.0000 F2500.0
G4 P0.02
G0 X-1.231 Y-29.438 F15000.0
G1 Z11.9000 F2500.0
G4 P0.02
G1 X-0.575 Y-32.174 F2200.0
G1 X0.502 Y-31.805
G1 X-0.259 Y-30.714
G1 X-0.927 Y-30.701
G1 Z0.0000 F2500.0
G4 P0.02
G0 X1.830 Y-29.923 F15000.0
G1 Z11.9000 F2500.0
G4 P0.02
G1 X1.010 Y-29.427 F2200.0
G1 X0.779 Y-29.923
G1 X1.335 Y-31.287
G1 X2.169 Y-31.332
G1 X1.811 Y-29.478
G1 X1.925 Y-29.438
G1 Z0.0000 F2500.0
G4 P0.02
G0 X2.581 Y-29.544 F15000.0
G1 Z11.9000 F2500.0
G4 P0.02
G1 X2.738 Y-29.436 F2200.0
G1 X3.624 Y-29.961
G1 X3.236 Y-30.386
G1 X3.528 Y-30.466
G1 X3.798 Y-31.217
G1 X3.091 Y-31.226
G1 Z0.0000 F2500.0
G4 P0.02
G0 X3.204 Y-30.386 F15000.0
G1 Z11.9000 F2500.0
G4 P0.02
G1 X3.236 Y-30.386 F2200.0
G1 Z0.0000 F2500.0
G4 P0.02
G0 X4.136 Y-29.438 F15000.0
G1 Z11.9000 F2500.0
G4 P0.02
G1 X4.969 Y-29.485 F2200.0
G1 X5.543 Y-31.102
G1 X4.590 Y-31.332
G1 X3.934 Y-28.597
G1 Z0.0000 F2500.0
G4 P0.02
G0 X4.521 Y-26.195 F15000.0
G1 Z11.9000 F2500.0
G4 P0.02
G1 X5.201 Y-27.036 F2200.0
G1 X4.816 Y-27.192
G1 X4.567 Y-26.906
G1 X4.166 Y-24.543
G1 X5.002 Y-24.655
G1 X5.144 Y-24.927
G1 X5.246 Y-26.283
G1 X4.457 Y-26.128
G1 X4.313 Y-25.853
G1 Z0.0000 F2500.0
G4 P0.02
G0 X3.460 Y-24.927 F15000.0
G1 Z11.9000 F2500.0
G4 P0.02
G1 X3.564 Y-26.283 F2200.0
G1 X2.773 Y-26.128
G1 X2.631 Y-25.853
G1 X2.527 Y-24.499
G1 X3.367 Y-24.718
G1 X3.460 Y-24.927
G1 Z0.0000 F2500.0
G4 P0.02
G0 X5.662 Y-24.460 F15000.0
G1 Z11.9000 F2500.0
G4 P0.02
G1 X5.655 Y-24.427 F2200.0
G1 Z0.0000 F2500.0
G4 P0.02
G0 X5.653 Y-21.343 F15000.0
G1 Z11.9000 F2500.0
G4 P0.02
G1 X5.198 Y-19.450 F2200.0
G1 Z0.0000 F2500.0
G4 P0.02
G0 X4.683 Y-19.933 F15000.0
G1 Z11.9000 F2500.0
G4 P0.02
G1 X4.786 Y-21.289 F2200.0
G1 X3.995 Y-21.134
G1 X3.853 Y-20.859
G1 X3.750 Y-19.503
G1 X4.589 Y-19.724
G1 X4.683 Y-19.933
G1 Z0.0000 F2500.0
G4 P0.02
G0 X5.425 Y-20.396 F15000.0
G1 Z11.9000 F2500.0
G4 P0.02
G1 X6.477 Y-20.396 F2200.0
G1 Z0.0000 F2500.0
G4 P0.02
G0 X6.251 Y-19.450 F15000.0
G1 Z11.9000 F2500.0
G4 P0.02
G1 X6.704 Y-21.343 F2200.0
G1 Z0.0000 F2500.0
G4 P0.02
G0 X8.177 Y-21.343 F15000.0
G1 Z11.9000 F2500.0
G4 P0.02
G1 X7.723 Y-19.450 F2200.0
G1 Z0.0000 F2500.0
G4 P0.02
G0 X6.882 Y-19.450 F15000.0
G1 Z11.9000 F2500.0
G4 P0.02
G1 X7.337 Y-21.343 F2200.0
G1 X8.898 Y-21.171
G1 X8.919 Y-20.923
G1 X8.565 Y-19.450
G1 Z0.0000 F2500.0
G4 P0.02
G0 X9.196 Y-19.450 F15000.0
G1 Z11.9000 F2500.0
G4 P0.02
G1 X10.029 Y-19.495 F2200.0
G1 X10.603 Y-21.114
G1 X9.650 Y-21.343
G1 X8.994 Y-18.608
G1 Z0.0000 F2500.0
G4 P0.02
G0 X10.876 Y-19.433 F15000.0
G1 Z11.9000 F2500.0
G4 P0.02
G1 X10.884 Y-19.466 F2200.0
G1 Z0.0000 F2500.0
G4 P0.02
G0 X3.338 Y-21.343 F15000.0
G1 Z11.9000 F2500.0
G4 P0.02
G1 X1.983 Y-20.081 F2200.0
G1 Z0.0000 F2500.0
G4 P0.02
G0 X2.409 Y-20.478 F15000.0
G1 Z11.9000 F2500.0
G4 P0.02
G1 X2.883 Y-19.450 F2200.0
G1 Z0.0000 F2500.0
G4 P0.02
G0 X1.831 Y-19.450 F15000.0
G1 Z11.9000 F2500.0
G4 P0.02
G1 X2.286 Y-21.343 F2200.0
G1 Z0.0000 F2500.0
G4 P0.02
G0 X0.963 Y-22.185 F15000.0
G1 Z11.9000 F2500.0
G4 P0.02
G1 X-0.299 Y-22.185 F2200.0
G1 Z0.0000 F2500.0
G4 P0.02
G0 X0.332 Y-22.185 F15000.0
G1 Z11.9000 F2500.0
G4 P0.02
G1 X-0.325 Y-19.450 F2200.0
G1 Z0.0000 F2500.0
G4 P0.02
G0 X0.934 Y-19.433 F15000.0
G1 Z11.9000 F2500.0
G4 P0.02
G1 X0.941 Y-19.466 F2200.0
G1 Z0.0000 F2500.0
G4 P0.02
G0 X-3.000 Y-18.274 F15000.0
G1 Z11.9000 F2500.0
G4 P0.02
G1 X177.000 Y-18.274 F12000.0
G1 Z0.0000 F2500.0
G4 P0.02
G0 X176.232 Y-18.984 F15000.0
G1 Z11.9000 F2500.0
G4 P0.02
G1 X177.000 Y-22.182 F2200.0
G1 X177.000 Y-22.662
G1 X176.057 Y-21.903
G1 Z0.0000 F2500.0
G4 P0.02
G0 X177.000 Y-43.308 F15000.0
G1 Z11.9000 F2500.0
G4 P0.02
G1 X-3.000 Y-43.308 F12000.0
G1 Z0.0000 F2500.0
G4 P0.02
G0 X-3.000 Y-38.318 F15000.0
G1 Z11.9000 F2500.0
G4 P0.02
G1 X61.950 Y-38.318 F12000.0
G1 Z0.0000 F2500.0
G4 P0.02
G0 X60.406 Y-34.917 F15000.0
G1 Z11.9000 F2500.0
G4 P0.02
G1 X59.650 Y-34.401 F2200.0
G1 X59.355 Y-34.917
G1 X59.912 Y-36.281
G1 X60.745 Y-36.326
G1 X60.387 Y-34.472
G1 X60.501 Y-34.433
G1 Z0.0000 F2500.0
G4 P0.02
G0 X61.950 Y-33.328 F15000.0
G1 Z11.9000 F2500.0
G4 P0.02
G1 X-3.000 Y-33.328 F12000.0
G1 Z0.0000 F2500.0
G4 P0.02
G0 X-0.741 Y-34.433 F15000.0
G1 Z11.9000 F2500.0
G4 P0.02
G1 X-0.085 Y-37.167 F2200.0
G1 X-2.004 Y-34.434
G1 X-1.348 Y-37.169
G1 Z0.0000 F2500.0
G4 P0.02
G0 X0.424 Y-36.222 F15000.0
G1 Z11.9000 F2500.0
G4 P0.02
G1 X1.131 Y-36.212 F2200.0
G1 X0.861 Y-35.460
G1 X0.569 Y-35.380
G1 X0.956 Y-34.955
G1 X0.072 Y-34.430
G1 X-0.085 Y-34.538
G1 Z0.0000 F2500.0
G4 P0.02
G0 X0.537 Y-35.380 F15000.0
G1 Z11.9000 F2500.0
G4 P0.02
G1 X0.569 Y-35.380 F2200.0
G1 Z0.0000 F2500.0
G4 P0.02
G0 X1.469 Y-34.433 F15000.0
G1 Z11.9000 F2500.0
G4 P0.02
G1 X1.924 Y-36.328 F2200.0
G1 X2.327 Y-35.378
G1 X3.187 Y-36.328
G1 X2.731 Y-34.433
G1 Z0.0000 F2500.0
G4 P0.02
G0 X3.360 Y-34.417 F15000.0
G1 Z11.9000 F2500.0
G4 P0.02
G1 X3.367 Y-34.450 F2200.0
G1 Z0.0000 F2500.0
G4 P0.02
G0 X4.018 Y-33.328 F15000.0
G1 Z11.9000 F2500.0
G4 P0.02
G1 X4.018 Y-58.276 F12000.0
G1 Z0.0000 F2500.0
G4 P0.02
G0 X-3.000 Y-58.276 F15000.0
G1 Z11.9000 F2500.0
G4 P0.02
G1 X177.000 Y-58.276 F12000.0
G1 Z0.0000 F2500.0
G4 P0.02
G0 X140.965 Y-95.953 F15000.0
G1 Z11.9000 F2500.0
G4 P0.02
G1 X140.067 Y-95.953 F2200.0
G1 Z0.0000 F2500.0
G4 P0.02
G0 X139.728 Y-96.545 F15000.0
G1 Z11.9000 F2500.0
G4 P0.02
G1 X140.627 Y-96.545 F2200.0
G1 Z0.0000 F2500.0
G4 P0.02
G0 X168.005 Y-147.585 F15000.0
G1 Z11.9000 F2500.0
G4 P0.02
G1 X168.440 Y-149.746 F2200.0
G1 X168.100 Y-150.237
G1 X167.317 Y-150.290
G1 X166.526 Y-149.618
G1 X165.989 Y-147.186
G1 X166.329 Y-146.695
G1 X167.112 Y-146.641
G1 X167.903 Y-147.315
G1 X168.005 Y-147.585
G1 Z0.0000 F2500.0
G4 P0.02
G0 X155.935 Y-193.716 F15000.0
G1 Z11.9000 F2500.0
G4 P0.02
G1 X155.035 Y-193.716 F2200.0
G1 Z0.0000 F2500.0
G4 P0.02
G0 X154.739 Y-194.350 F15000.0
G1 Z11.9000 F2500.0
G4 P0.02
G1 X155.638 Y-194.350 F2200.0
G1 Z0.0000 F2500.0
G4 P0.02
G0 X162.934 Y-217.224 F15000.0
G1 Z11.9000 F2500.0
G4 P0.02
G1 X161.677 Y-218.787 F2200.0
G1 X167.135 Y-217.477
G1 Z0.0000 F2500.0
G4 P0.02
G0 X164.404 Y-222.137 F15000.0
G1 Z11.9000 F2500.0
G4 P0.02
G1 X163.059 Y-222.289 F2200.0
G1 X162.343 Y-222.176
G1 X161.875 Y-221.906
G1 X161.713 Y-221.509
G1 X161.875 Y-221.033
G1 X162.675 Y-220.302
G1 X163.937 Y-219.720
G1 X165.325 Y-219.444
G1 X166.467 Y-219.548
G1 X166.934 Y-219.819
G1 X167.097 Y-220.216
G1 X166.934 Y-220.692
G1 X166.135 Y-221.423
G1 X164.873 Y-222.005
G1 Z0.0000 F2500.0
G4 P0.02
G0 X152.186 Y-224.374 F15000.0
G1 Z11.9000 F2500.0
G4 P0.02
G1 X145.929 Y-218.115 F2200.0
G1 Z0.0000 F2500.0
G4 P0.02
G0 X145.929 Y-222.344 F15000.0
G1 Z11.9000 F2500.0
G4 P0.02
G1 X147.957 Y-224.374 F2200.0
G1 Z0.0000 F2500.0
G4 P0.02
G0 X177.000 Y-290.000 F15000.0
G1 Z11.9000 F2500.0
G4 P0.02
G1 X-3.000 Y-290.000 F12000.0
G1 X-3.000 Y-10.000
G1 Z0.0000 F2500.0
G4 P0.02
G0 X-0.827 Y-10.000 F15000.0
G1 Z11.9000 F2500.0
G4 P0.02
G1 X-0.299 Y-12.197 F2200.0
G1 Z0.0000 F2500.0
G4 P0.02
G0 X0.963 Y-12.197 F15000.0
G1 Z11.9000 F2500.0
G4 P0.02
G1 X0.435 Y-10.000 F2200.0
G1 Z0.0000 F2500.0
G4 P0.02
G0 X0.660 Y-10.935 F15000.0
G1 Z11.9000 F2500.0
G4 P0.02
G1 X-0.602 Y-10.935 F2200.0
G1 Z0.0000 F2500.0
G4 P0.02
G0 X1.983 Y-10.093 F15000.0
G1 Z11.9000 F2500.0
G4 P0.02
G1 X3.338 Y-11.355 F2200.0
G1 Z0.0000 F2500.0
G4 P0.02
G0 X2.286 Y-11.355 F15000.0
G1 Z11.9000 F2500.0
G4 P0.02
G1 X1.961 Y-10.000 F2200.0
G1 Z0.0000 F2500.0
G4 P0.02
G0 X2.409 Y-10.490 F15000.0
G1 Z11.9000 F2500.0
G4 P0.02
G1 X2.635 Y-10.000 F2200.0
G1 Z0.0000 F2500.0
G4 P0.02
G0 X3.811 Y-10.000 F15000.0
G1 Z11.9000 F2500.0
G4 P0.02
G1 X3.947 Y-11.081 F2200.0
G1 X4.786 Y-11.301
G1 X4.687 Y-10.000
G1 Z0.0000 F2500.0
G4 P0.02
G0 X5.327 Y-10.000 F15000.0
G1 Z11.9000 F2500.0
G4 P0.02
G1 X5.653 Y-11.355 F2200.0
G1 Z0.0000 F2500.0
G4 P0.02
G0 X5.425 Y-10.408 F15000.0
G1 Z11.9000 F2500.0
G4 P0.02
G1 X6.477 Y-10.408 F2200.0
G1 Z0.0000 F2500.0
G4 P0.02
G0 X6.380 Y-10.000 F15000.0
G1 Z11.9000 F2500.0
G4 P0.02
G1 X6.704 Y-11.355 F2200.0
G1 Z0.0000 F2500.0
G4 P0.02
G0 X7.011 Y-10.000 F15000.0
G1 Z11.9000 F2500.0
G4 P0.02
G1 X7.337 Y-11.355 F2200.0
G1 X8.898 Y-11.181
G1 X8.919 Y-10.935
G1 X8.694 Y-10.000
G1 Z0.0000 F2500.0
G4 P0.02
G0 X9.325 Y-10.000 F15000.0
G1 Z11.9000 F2500.0
G4 P0.02
G1 X9.650 Y-11.355 F2200.0
G1 X10.603 Y-11.125
G1 X10.204 Y-10.000
G1 Z0.0000 F2500.0
G4 P0.02
G0 X7.852 Y-10.000 F15000.0
G1 Z11.9000 F2500.0
G4 P0.02
G1 X8.177 Y-11.355 F2200.0
G1 Z0.0000 F2500.0
G4 P0.02
G0 X13.998 Y-10.000 F15000.0
G1 Z11.9000 F2500.0
G4 P0.02
G1 X13.998 Y-58.276 F12000.0
G1 Z0.0000 F2500.0
G4 P0.02
G0 X-3.000 Y-53.287 F15000.0
G1 Z11.9000 F2500.0
G4 P0.02
G1 X61.950 Y-53.287 F12000.0
G1 Z0.0000 F2500.0
G4 P0.02
G0 X61.950 Y-48.298 F15000.0
G1 Z11.9000 F2500.0
G4 P0.02
G1 X-3.000 Y-48.298 F12000.0
G1 Z0.0000 F2500.0
G4 P0.02
G0 X7.123 Y-36.326 F15000.0
G1 Z11.9000 F2500.0
G4 P0.02
G1 X6.861 Y-34.513 F2200.0
G1 X7.090 Y-34.433
G1 X7.721 Y-34.433
G1 X8.176 Y-36.326
G1 Z0.0000 F2500.0
G4 P0.02
G0 X9.649 Y-36.326 F15000.0
G1 Z11.9000 F2500.0
G4 P0.02
G1 X8.727 Y-35.971 F2200.0
G1 X8.545 Y-34.513
G1 X8.773 Y-34.433
G1 X9.194 Y-34.433
G1 Z0.0000 F2500.0
G4 P0.02
G0 X9.825 Y-34.433 F15000.0
G1 Z11.9000 F2500.0
G4 P0.02
G1 X10.280 Y-36.326 F2200.0
G1 X11.841 Y-36.153
G1 X11.862 Y-35.906
G1 X11.509 Y-34.433
G1 Z0.0000 F2500.0
G4 P0.02
G0 X10.667 Y-34.433 F15000.0
G1 Z11.9000 F2500.0
G4 P0.02
G1 X11.122 Y-36.326 F2200.0
G1 Z0.0000 F2500.0
G4 P0.02
G0 X9.422 Y-32.174 F15000.0
G1 Z11.9000 F2500.0
G4 P0.02
G1 X8.370 Y-32.174 F2200.0
G1 X9.047 Y-31.209
G1 Z0.0000 F2500.0
G4 P0.02
G0 X8.881 Y-29.923 F15000.0
G1 Z11.9000 F2500.0
G4 P0.02
G1 X8.985 Y-31.277 F2200.0
G1 X8.146 Y-31.058
G1 X7.948 Y-29.493
G1 X8.739 Y-29.649
G1 X8.881 Y-29.923
G1 Z0.0000 F2500.0
G4 P0.02
G0 X9.401 Y-29.454 F15000.0
G1 Z11.9000 F2500.0
G4 P0.02
G1 X9.393 Y-29.423 F2200.0
G1 Z0.0000 F2500.0
G4 P0.02
G0 X7.082 Y-29.438 F15000.0
G1 Z11.9000 F2500.0
G4 P0.02
G1 X6.967 Y-29.478 F2200.0
G1 X7.326 Y-31.332
G1 X6.493 Y-31.287
G1 X5.935 Y-29.923
G1 X6.232 Y-29.407
G1 X6.988 Y-29.923
G1 Z0.0000 F2500.0
G4 P0.02
G0 X6.037 Y-34.433 F15000.0
G1 Z11.9000 F2500.0
G4 P0.02
G1 X6.694 Y-37.169 F2200.0
G1 X6.083 Y-37.169
G1 X4.775 Y-34.433
G1 Z0.0000 F2500.0
G4 P0.02
G0 X0.609 Y-24.444 F15000.0
G1 Z11.9000 F2500.0
G4 P0.02
G1 X1.441 Y-24.489 F2200.0
G1 X2.015 Y-25.917
G1 X1.994 Y-26.165
G1 X1.062 Y-26.338
G1 X0.406 Y-23.602
G1 Z0.0000 F2500.0
G4 P0.02
G0 X-0.023 Y-24.444 F15000.0
G1 Z11.9000 F2500.0
G4 P0.02
G1 X0.634 Y-27.179 F2200.0
G1 X-0.628 Y-27.179
G1 X-1.286 Y-24.444
G1 Z0.0000 F2500.0
G4 P0.02
G0 X-3.000 Y-23.264 F15000.0
G1 Z11.9000 F2500.0
G4 P0.02
G1 X61.950 Y-23.264 F12000.0
G1 Z0.0000 F2500.0
G4 P0.02
G0 X61.950 Y-13.286 F15000.0
G1 Z11.9000 F2500.0
G4 P0.02
G1 X-3.000 Y-13.286 F12000.0
G1 Z0.0000 F2500.0
G4 P0.02
G0 X17.376 Y-24.444 F15000.0
G1 Z11.9000 F2500.0
G4 P0.02
G1 X16.955 Y-24.444 F2200.0
G1 X16.593 Y-24.581
G1 X16.849 Y-26.620
G1 X18.033 Y-27.179
G1 Z0.0000 F2500.0
G4 P0.02
G0 X19.175 Y-24.927 F15000.0
G1 Z11.9000 F2500.0
G4 P0.02
G1 X18.354 Y-24.433 F2200.0
G1 X18.124 Y-24.927
G1 X18.681 Y-26.292
G1 X19.514 Y-26.338
G1 X19.155 Y-24.484
G1 X19.270 Y-24.444
G1 Z0.0000 F2500.0
G4 P0.02
G0 X19.902 Y-24.444 F15000.0
G1 Z11.9000 F2500.0
G4 P0.02
G1 X20.881 Y-26.338 F2200.0
G1 X21.408 Y-26.338
G1 X20.953 Y-24.444
G1 Z0.0000 F2500.0
G4 P0.02
G0 X21.812 Y-25.390 F15000.0
G1 Z11.9000 F2500.0
G4 P0.02
G1 X22.585 Y-25.344 F2200.0
G1 X22.676 Y-24.744
G1 X21.584 Y-24.444
G1 X22.039 Y-26.338
G1 Z0.0000 F2500.0
G4 P0.02
G0 X23.721 Y-26.338 F15000.0
G1 Z11.9000 F2500.0
G4 P0.02
G1 X23.267 Y-24.444 F2200.0
G1 Z0.0000 F2500.0
G4 P0.02
G0 X23.494 Y-25.390 F15000.0
G1 Z11.9000 F2500.0
G4 P0.02
G1 X24.546 Y-25.390 F2200.0
G1 Z0.0000 F2500.0
G4 P0.02
G0 X24.320 Y-24.444 F15000.0
G1 Z11.9000 F2500.0
G4 P0.02
G1 X24.773 Y-26.338 F2200.0
G1 Z0.0000 F2500.0
G4 P0.02
G0 X25.405 Y-26.338 F15000.0
G1 Z11.9000 F2500.0
G4 P0.02
G1 X25.142 Y-24.524 F2200.0
G1 X25.371 Y-24.444
G1 X26.002 Y-24.444
G1 X26.457 Y-26.338
G1 Z0.0000 F2500.0
G4 P0.02
G0 X27.088 Y-26.338 F15000.0
G1 Z11.9000 F2500.0
G4 P0.02
G1 X26.633 Y-24.444 F2200.0
G1 Z0.0000 F2500.0
G4 P0.02
G0 X26.785 Y-25.075 F15000.0
G1 Z11.9000 F2500.0
G4 P0.02
G1 X28.141 Y-26.338 F2200.0
G1 Z0.0000 F2500.0
G4 P0.02
G0 X27.212 Y-25.473 F15000.0
G1 Z11.9000 F2500.0
G4 P0.02
G1 X27.686 Y-24.444 F2200.0
G1 Z0.0000 F2500.0
G4 P0.02
G0 X29.486 Y-24.927 F15000.0
G1 Z11.9000 F2500.0
G4 P0.02
G1 X29.588 Y-26.283 F2200.0
G1 X28.798 Y-26.128
G1 X28.656 Y-25.853
G1 X28.553 Y-24.499
G1 X29.392 Y-24.718
G1 X29.486 Y-24.927
G1 Z0.0000 F2500.0
G4 P0.02
G0 X30.339 Y-25.853 F15000.0
G1 Z11.9000 F2500.0
G4 P0.02
G1 X30.481 Y-26.128 F2200.0
G1 X31.272 Y-26.283
G1 X31.169 Y-24.927
G1 X30.971 Y-24.597
G1 X30.191 Y-24.543
G1 X30.591 Y-26.906
G1 X30.842 Y-27.192
G1 X31.226 Y-27.036
G1 X30.546 Y-26.195
G1 Z0.0000 F2500.0
G4 P0.02
G0 X32.852 Y-24.927 F15000.0
G1 Z11.9000 F2500.0
G4 P0.02
G1 X32.031 Y-24.433 F2200.0
G1 X31.801 Y-24.927
G1 X32.358 Y-26.292
G1 X33.191 Y-26.338
G1 X32.832 Y-24.484
G1 X32.947 Y-24.444
G1 Z0.0000 F2500.0
G4 P0.02
G0 X25.009 Y-28.597 F15000.0
G1 Z11.9000 F2500.0
G4 P0.02
G1 X25.666 Y-31.332 F2200.0
G1 X26.596 Y-31.159
G1 X26.617 Y-30.911
G1 X26.045 Y-29.485
G1 X25.211 Y-29.438
G1 Z0.0000 F2500.0
G4 P0.02
G0 X24.580 Y-29.438 F15000.0
G1 Z11.9000 F2500.0
G4 P0.02
G1 X23.628 Y-29.668 F2200.0
G1 X24.192 Y-31.277
G1 X24.881 Y-31.181
G1 X24.918 Y-30.849
G1 X24.807 Y-30.386
G1 X23.755 Y-30.386
G1 Z0.0000 F2500.0
G4 P0.02
G0 X22.896 Y-29.438 F15000.0
G1 Z11.9000 F2500.0
G4 P0.02
G1 X23.250 Y-30.911 F2200.0
G1 X23.230 Y-31.159
G1 X21.667 Y-31.332
G1 X21.212 Y-29.438
G1 Z0.0000 F2500.0
G4 P0.02
G0 X20.581 Y-29.438 F15000.0
G1 Z11.9000 F2500.0
G4 P0.02
G1 X21.036 Y-31.332 F2200.0
G1 Z0.0000 F2500.0
G4 P0.02
G0 X20.808 Y-30.386 F15000.0
G1 Z11.9000 F2500.0
G4 P0.02
G1 X19.757 Y-30.386 F2200.0
G1 Z0.0000 F2500.0
G4 P0.02
G0 X19.984 Y-31.332 F15000.0
G1 Z11.9000 F2500.0
G4 P0.02
G1 X19.530 Y-29.438 F2200.0
G1 Z0.0000 F2500.0
G4 P0.02
G0 X19.353 Y-31.332 F15000.0
G1 Z11.9000 F2500.0
G4 P0.02
G1 X18.898 Y-29.438 F2200.0
G1 X18.267 Y-29.438
G1 X18.038 Y-29.519
G1 X18.300 Y-31.332
G1 Z0.0000 F2500.0
G4 P0.02
G0 X17.872 Y-32.174 F15000.0
G1 Z11.9000 F2500.0
G4 P0.02
G1 X16.819 Y-32.174 F2200.0
G1 X16.163 Y-29.438
G1 Z0.0000 F2500.0
G4 P0.02
G0 X18.605 Y-34.433 F15000.0
G1 Z11.9000 F2500.0
G4 P0.02
G1 X19.262 Y-37.167 F2200.0
G1 X19.869 Y-34.434
G1 X20.524 Y-37.169
G1 Z0.0000 F2500.0
G4 P0.02
G0 X20.719 Y-36.222 F15000.0
G1 Z11.9000 F2500.0
G4 P0.02
G1 X20.890 Y-35.913 F2200.0
G1 X21.350 Y-36.222
G1 X21.441 Y-37.100
G1 X20.934 Y-36.989
G1 X20.719 Y-36.222
G1 Z0.0000 F2500.0
G4 P0.02
G0 X24.072 Y-37.169 F15000.0
G1 Z11.9000 F2500.0
G4 P0.02
G1 X24.814 Y-37.049 F2200.0
G1 X24.838 Y-36.853
G1 X24.047 Y-34.487
G1 X23.359 Y-34.585
G1 X23.320 Y-34.917
G1 X23.879 Y-36.281
G1 X24.711 Y-36.326
G1 Z0.0000 F2500.0
G4 P0.02
G0 X26.057 Y-34.917 F15000.0
G1 Z11.9000 F2500.0
G4 P0.02
G1 X26.159 Y-36.273 F2200.0
G1 X25.320 Y-36.052
G1 X25.079 Y-34.532
G1 X25.859 Y-34.585
G1 X26.057 Y-34.917
G1 Z0.0000 F2500.0
G4 P0.02
G0 X26.723 Y-35.064 F15000.0
G1 Z11.9000 F2500.0
G4 P0.02
G1 X28.079 Y-36.326 F2200.0
G1 Z0.0000 F2500.0
G4 P0.02
G0 X28.710 Y-36.326 F15000.0
G1 Z11.9000 F2500.0
G4 P0.02
G1 X28.448 Y-34.513 F2200.0
G1 X28.676 Y-34.433
G1 X29.308 Y-34.433
G1 Z0.0000 F2500.0
G4 P0.02
G0 X29.939 Y-34.433 F15000.0
G1 Z11.9000 F2500.0
G4 P0.02
G1 X30.394 Y-36.328 F2200.0
G1 X30.798 Y-35.378
G1 X31.656 Y-36.328
G1 X31.202 Y-34.433
G1 Z0.0000 F2500.0
G4 P0.02
G0 X31.828 Y-34.417 F15000.0
G1 Z11.9000 F2500.0
G4 P0.02
G1 X31.837 Y-34.450 F2200.0
G1 Z0.0000 F2500.0
G4 P0.02
G0 X29.761 Y-36.326 F15000.0
G1 Z11.9000 F2500.0
G4 P0.02
G1 X29.002 Y-33.661 F2200.0
G1 X28.790 Y-33.591
G1 X28.159 Y-33.591
G1 Z0.0000 F2500.0
G4 P0.02
G0 X27.624 Y-34.433 F15000.0
G1 Z11.9000 F2500.0
G4 P0.02
G1 X27.150 Y-35.461 F2200.0
G1 Z0.0000 F2500.0
G4 P0.02
G0 X27.026 Y-36.326 F15000.0
G1 Z11.9000 F2500.0
G4 P0.02
G1 X26.571 Y-34.433 F2200.0
G1 Z0.0000 F2500.0
G4 P0.02
G0 X22.509 Y-31.332 F15000.0
G1 Z11.9000 F2500.0
G4 P0.02
G1 X22.054 Y-29.438 F2200.0
G1 Z0.0000 F2500.0
G4 P0.02
G0 X41.268 Y-34.433 F15000.0
G1 Z11.9000 F2500.0
G4 P0.02
G1 X41.924 Y-37.169 F2200.0
G1 X43.186 Y-37.169
G1 X42.530 Y-34.433
G1 Z0.0000 F2500.0
G4 P0.02
G0 X44.330 Y-34.917 F15000.0
G1 Z11.9000 F2500.0
G4 P0.02
G1 X44.432 Y-36.273 F2200.0
G1 X43.594 Y-36.052
G1 X43.352 Y-34.532
G1 X44.132 Y-34.585
G1 X44.330 Y-34.917
G1 Z0.0000 F2500.0
G4 P0.02
G0 X46.528 Y-34.433 F15000.0
G1 Z11.9000 F2500.0
G4 P0.02
G1 X46.983 Y-36.326 F2200.0
G1 X47.935 Y-36.096
G1 X47.581 Y-34.433
G1 Z0.0000 F2500.0
G4 P0.02
G0 X48.208 Y-34.417 F15000.0
G1 Z11.9000 F2500.0
G4 P0.02
G1 X48.216 Y-34.450 F2200.0
G1 Z0.0000 F2500.0
G4 P0.02
G0 X46.352 Y-36.326 F15000.0
G1 Z11.9000 F2500.0
G4 P0.02
G1 X45.518 Y-36.281 F2200.0
G1 X44.961 Y-34.917
G1 X45.000 Y-34.585
G1 X45.688 Y-34.487
G1 X46.478 Y-36.853
G1 X46.455 Y-37.049
G1 X45.712 Y-37.169
G1 Z0.0000 F2500.0
G4 P0.02
G0 X52.875 Y-34.222 F15000.0
G1 Z11.9000 F2500.0
G4 P0.02
G1 X52.925 Y-34.433 F2200.0
G1 X54.398 Y-34.433
G1 X54.349 Y-34.222
G1 X54.189 Y-34.433
G1 X54.844 Y-37.169
G1 X54.213 Y-37.169
G1 X53.136 Y-34.433
G1 Z0.0000 F2500.0
G4 P0.02
G0 X56.198 Y-34.917 F15000.0
G1 Z11.9000 F2500.0
G4 P0.02
G1 X55.441 Y-34.401 F2200.0
G1 X55.146 Y-34.917
G1 X55.703 Y-36.281
G1 X56.537 Y-36.326
G1 X56.177 Y-34.472
G1 X56.293 Y-34.433
G1 Z0.0000 F2500.0
G4 P0.02
G0 X56.924 Y-34.433 F15000.0
G1 Z11.9000 F2500.0
G4 P0.02
G1 X57.379 Y-36.326 F2200.0
G1 X58.940 Y-36.153
G1 X58.961 Y-35.906
G1 X58.607 Y-34.433
G1 Z0.0000 F2500.0
G4 P0.02
G0 X57.766 Y-34.433 F15000.0
G1 Z11.9000 F2500.0
G4 P0.02
G1 X58.219 Y-36.326 F2200.0
G1 Z0.0000 F2500.0
G4 P0.02
G0 X51.970 Y-58.276 F15000.0
G1 Z11.9000 F2500.0
G4 P0.02
G1 X51.970 Y-10.000 F12000.0
G1 Z0.0000 F2500.0
G4 P0.02
G0 X37.002 Y-10.000 F15000.0
G1 Z11.9000 F2500.0
G4 P0.02
G1 X37.002 Y-58.276 F12000.0
G1 Z0.0000 F2500.0
G4 P0.02
G0 X25.991 Y-95.953 F15000.0
G1 Z11.9000 F2500.0
G4 P0.02
G1 X25.093 Y-95.953 F2200.0
G1 Z0.0000 F2500.0
G4 P0.02
G0 X25.473 Y-96.545 F15000.0
G1 Z11.9000 F2500.0
G4 P0.02
G1 X26.372 Y-96.545 F2200.0
G1 Z0.0000 F2500.0
G4 P0.02
G0 X17.042 Y-133.460 F15000.0
G1 Z11.9000 F2500.0
G4 P0.02
G1 X3.342 Y-133.460 F2200.0
G1 Z0.0000 F2500.0
G4 P0.02
G0 X-3.000 Y-276.046 F15000.0
G1 Z11.9000 F2500.0
G4 P0.02
G1 X66.940 Y-276.046 F12000.0
G1 X66.940 Y-290.000
G1 Z0.0000 F2500.0
G4 P0.02
G0 X50.218 Y-286.192 F15000.0
G1 Z11.9000 F2500.0
G4 P0.02
G1 X48.631 Y-279.578 F2200.0
G1 Z0.0000 F2500.0
G4 P0.02
G0 X48.297 Y-282.326 F15000.0
G1 Z11.9000 F2500.0
G4 P0.02
G1 X47.165 Y-286.192 F2200.0
G1 Z0.0000 F2500.0
G4 P0.02
G0 X45.638 Y-286.192 F15000.0
G1 Z11.9000 F2500.0
G4 P0.02
G1 X44.050 Y-279.578 F2200.0
G1 Z0.0000 F2500.0
G4 P0.02
G0 X45.577 Y-279.578 F15000.0
G1 Z11.9000 F2500.0
G4 P0.02
G1 X49.608 Y-283.649 F2200.0
G1 Z0.0000 F2500.0
G4 P0.02
G0 X44.783 Y-282.630 F15000.0
G1 Z11.9000 F2500.0
G4 P0.02
G1 X41.730 Y-282.630 F2200.0
G1 Z0.0000 F2500.0
G4 P0.02
G0 X40.997 Y-279.578 F15000.0
G1 Z11.9000 F2500.0
G4 P0.02
G1 X42.586 Y-286.192 F2200.0
G1 Z0.0000 F2500.0
G4 P0.02
G0 X41.059 Y-286.192 F15000.0
G1 Z11.9000 F2500.0
G4 P0.02
G1 X39.471 Y-279.578 F2200.0
G1 X36.926 Y-279.578
G1 Z0.0000 F2500.0
G4 P0.02
G0 X36.978 Y-286.154 F15000.0
G1 Z11.9000 F2500.0
G4 P0.02
G1 X36.996 Y-286.232 F2200.0
G1 Z0.0000 F2500.0
G4 P0.02
G0 X30.708 Y-282.885 F15000.0
G1 Z11.9000 F2500.0
G4 P0.02
G1 X30.523 Y-281.255 F2200.0
G1 X30.660 Y-280.387
G1 X30.989 Y-279.820
G1 X31.214 Y-279.673
G1 X31.750 Y-279.673
G1 X32.347 Y-280.060
G1 X32.932 Y-280.789
G1 X33.636 Y-282.319
G1 X33.970 Y-284.000
G1 X33.938 Y-284.981
G1 X33.703 Y-285.710
G1 X33.291 Y-286.097
G1 X32.755 Y-286.097
G1 X32.158 Y-285.710
G1 X31.574 Y-284.981
G1 X30.868 Y-283.452
G1 Z0.0000 F2500.0
G4 P0.02
G0 X28.721 Y-286.192 F15000.0
G1 Z11.9000 F2500.0
G4 P0.02
G1 X26.501 Y-284.196 F2200.0
G1 X25.384 Y-280.611
G1 X25.615 Y-279.871
G1 X26.257 Y-279.464
G1 X27.287 Y-279.575
G1 X28.170 Y-280.289
G1 X28.640 Y-281.613
G1 X28.536 Y-282.567
G1 X27.965 Y-283.056
G1 X25.975 Y-283.140
G1 Z0.0000 F2500.0
G4 P0.02
G0 X25.149 Y-286.154 F15000.0
G1 Z11.9000 F2500.0
G4 P0.02
G1 X25.169 Y-286.232 F2200.0
G1 Z0.0000 F2500.0
G4 P0.02
G0 X18.881 Y-282.885 F15000.0
G1 Z11.9000 F2500.0
G4 P0.02
G1 X18.696 Y-281.255 F2200.0
G1 X18.832 Y-280.387
G1 X19.160 Y-279.820
G1 X19.385 Y-279.673
G1 X19.921 Y-279.673
G1 X20.518 Y-280.060
G1 X21.103 Y-280.789
G1 X21.807 Y-282.319
G1 X22.142 Y-284.000
G1 X22.109 Y-284.981
G1 X21.874 Y-285.710
G1 X21.463 Y-286.097
G1 X20.927 Y-286.097
G1 X20.330 Y-285.710
G1 X19.744 Y-284.981
G1 X19.039 Y-283.452
G1 Z0.0000 F2500.0
G4 P0.02
G0 X14.286 Y-279.578 F15000.0
G1 Z11.9000 F2500.0
G4 P0.02
G1 X17.616 Y-285.323 F2200.0
G1 X17.292 Y-286.012
G1 X16.589 Y-286.336
G1 X15.551 Y-286.111
G1 X14.733 Y-285.323
G1 X14.333 Y-283.653
G1 X14.657 Y-282.964
G1 X15.360 Y-282.640
G1 X17.032 Y-282.630
G1 X14.286 Y-279.578
G1 X16.607 Y-281.732
G1 X17.115 Y-282.885
G1 Z0.0000 F2500.0
G4 P0.02

G0 Z0.0000 F800.0
G4 P0.06
G0 X-3.000 Y-5.000 F15000.0
M5
G4 P0.10
