$X
$1=255
G21
G90
G92 Z4.0000
G0 Z0.0000 F800.0
G4 P0.06
G92 Z0.0000
G0 Z0.0000 F800.0
G0 X0.0000 Y0.0000 F15000.0
G21
G90
G17
G91.1
G0 Z0.0000
G0 X26.6984 Y-128.4603 F15000.0
G1 Z11.9000 F2500.0
G4 P0.02
G1 X20.6943 Y-128.7980 F2200.0
G1 X20.7784 Y-127.7837
G1 X21.1174 Y-126.8535
G1 X21.7926 Y-126.0915
G1 X22.7242 Y-125.5844
G1 X23.6543 Y-125.4149
G1 X24.6686 Y-125.5844
G1 X25.5147 Y-126.0915
G1 X26.1913 Y-126.8535
G1 X26.6144 Y-127.7837
G1 X26.6984 Y-128.4603
G1 X26.5289 Y-129.3905
G1 X26.0218 Y-130.3207
G1 X25.2611 Y-130.9973
G1 X24.3310 Y-131.3349
G1 X23.3153 Y-131.4204
G1 X22.3852 Y-131.1654
G1 X21.5390 Y-130.5742
G1 X21.0319 Y-129.7281
G1 Z0.0000 F2500.0
G4 P0.02
G0 X22.1316 Y-128.4603 F15000.0
G1 Z11.9000 F2500.0
G4 P0.02
G1 X35.9161 Y-128.4603 F2200.0
G1 Z0.0000 F2500.0
G4 P0.02
G0 X37.4389 Y-128.4603 F15000.0
G1 Z11.9000 F2500.0
G4 P0.02
G1 X38.8761 Y-128.4603 F2200.0
G1 Z0.0000 F2500.0
G4 P0.02
G0 X40.3989 Y-128.4603 F15000.0
G1 Z11.9000 F2500.0
G4 P0.02
G1 X54.1834 Y-128.4603 F2200.0
G1 Z0.0000 F2500.0
G4 P0.02
G0 X55.7061 Y-128.4603 F15000.0
G1 Z11.9000 F2500.0
G4 P0.02
G1 X57.1434 Y-128.4603 F2200.0
G1 Z0.0000 F2500.0
G4 P0.02
G0 X58.6662 Y-128.4603 F15000.0
G1 Z11.9000 F2500.0
G4 P0.02
G1 X72.4507 Y-128.4603 F2200.0
G1 Z0.0000 F2500.0
G4 P0.02
G0 X73.8894 Y-128.4603 F15000.0
G1 Z11.9000 F2500.0
G4 P0.02
G1 X75.4107 Y-128.4603 F2200.0
G1 Z0.0000 F2500.0
G4 P0.02
G0 X76.9334 Y-128.4603 F15000.0
G1 Z11.9000 F2500.0
G4 P0.02
G1 X90.6339 Y-128.4603 F2200.0
G1 Z0.0000 F2500.0
G4 P0.02
G0 X92.1553 Y-128.4603 F15000.0
G1 Z11.9000 F2500.0
G4 P0.02
G1 X93.6780 Y-128.4603 F2200.0
G1 Z0.0000 F2500.0
G4 P0.02
G0 X95.2007 Y-128.4603 F15000.0
G1 Z11.9000 F2500.0
G4 P0.02
G1 X108.9012 Y-128.4603 F2200.0
G1 Z0.0000 F2500.0
G4 P0.02
G0 X110.4225 Y-128.4603 F15000.0
G1 Z11.9000 F2500.0
G4 P0.02
G1 X111.9453 Y-128.4603 F2200.0
G1 Z0.0000 F2500.0
G4 P0.02
G0 X113.3826 Y-128.4603 F15000.0
G1 Z11.9000 F2500.0
G4 P0.02
G1 X127.1685 Y-128.4603 F2200.0
G1 Z0.0000 F2500.0
G4 P0.02
G0 X128.6898 Y-128.4603 F15000.0
G1 Z11.9000 F2500.0
G4 P0.02
G1 X130.1285 Y-128.4603 F2200.0
G1 Z0.0000 F2500.0
G4 P0.02
G0 X131.6498 Y-128.4603 F15000.0
G1 Z11.9000 F2500.0
G4 P0.02
G1 X145.4357 Y-128.4603 F2200.0
G1 Z0.0000 F2500.0
G4 P0.02
G0 X146.5354 Y-128.4603 F15000.0
G1 Z11.9000 F2500.0
G4 P0.02
G1 X146.3659 Y-129.3905 F2200.0
G1 X145.8588 Y-130.3207
G1 X145.1822 Y-130.9973
G1 X144.2520 Y-131.3349
G1 X143.2364 Y-131.4204
G1 X142.2221 Y-131.1654
G1 X141.4601 Y-130.5742
G1 X140.8689 Y-129.7281
G1 X140.6154 Y-128.7980
G1 X140.6154 Y-127.7837
G1 X141.0370 Y-126.8535
G1 X141.7137 Y-126.0915
G1 X142.5598 Y-125.5844
G1 X143.5754 Y-125.4149
G1 X144.5056 Y-125.5844
G1 X145.4357 Y-126.0915
G1 X146.1123 Y-126.8535
G1 X146.4500 Y-127.7837
G1 Z0.0000 F2500.0
G4 P0.02
G0 X148.5639 Y-128.4603 F15000.0
G1 Z11.9000 F2500.0
G4 P0.02
G1 X143.5754 Y-128.4603 F2200.0
G1 Z0.0000 F2500.0
G4 P0.02
G0 X143.5754 Y-124.2311 F15000.0
G1 Z11.9000 F2500.0
G4 P0.02
G1 X143.5754 Y-133.1112 F2200.0
G1 Z0.0000 F2500.0
G4 P0.02
G0 X143.5754 Y-134.6340 F15000.0
G1 Z11.9000 F2500.0
G4 P0.02
G1 X143.5754 Y-136.0712 F2200.0
G1 Z0.0000 F2500.0
G4 P0.02
G0 X143.5754 Y-137.5940 F15000.0
G1 Z11.9000 F2500.0
G4 P0.02
G1 X143.5754 Y-146.4727 F2200.0
G1 Z0.0000 F2500.0
G4 P0.02
G0 X146.4817 Y-133.5453 F15000.0
G1 Z11.9000 F2500.0
G4 P0.02
G1 X147.1803 Y-132.8466 F2200.0
G1 X146.9461 Y-133.2077
G1 X147.6461 Y-132.5076
G1 Z0.0000 F2500.0
G4 P0.02
G0 X149.9171 Y-128.4603 F15000.0
G1 Z11.9000 F2500.0
G4 P0.02
G1 X163.7030 Y-128.4603 F2200.0
G1 Z0.0000 F2500.0
G4 P0.02
G0 X162.7825 Y-141.6633 F15000.0
G1 Z11.9000 F2500.0
G4 P0.02
G1 X160.3778 Y-141.6633 F2200.0
G1 X163.4288 Y-145.1443
G1 X163.6755 Y-145.5163
G1 X163.7416 Y-146.4272
G1 X163.2359 Y-146.9219
G1 X162.3015 Y-146.8764
G1 X161.4361 Y-146.0717
G1 Z0.0000 F2500.0
G4 P0.02
G0 X161.8192 Y-150.9237 F15000.0
G1 Z11.9000 F2500.0
G4 P0.02
G1 X164.8096 Y-156.3835 F2200.0
G1 Z0.0000 F2500.0
G4 P0.02
G0 X164.0765 Y-155.0441 F15000.0
G1 Z11.9000 F2500.0
G4 P0.02
G1 X164.7228 Y-154.4860 F2200.0
G1 X164.7159 Y-153.4235
G1 X163.7981 Y-152.4093
G1 X162.6791 Y-152.2274
G1 X161.9653 Y-152.7124
G1 X161.8647 Y-153.7446
G1 X162.6970 Y-154.8195
G1 X163.9497 Y-155.0813
G1 X164.0765 Y-155.0441
G1 Z0.0000 F2500.0
G4 P0.02
G0 X165.3925 Y-153.8631 F15000.0
G1 Z11.9000 F2500.0
G4 P0.02
G1 X166.6355 Y-153.8631 F2200.0
G1 X167.1522 Y-153.7377
G1 X167.5987 Y-153.1493
G1 X167.2914 Y-151.6417
G1 X166.3323 Y-150.8686
G1 X165.3828 Y-150.9224
G1 X164.9350 Y-151.5108
G1 X165.4724 Y-154.0684
G1 X167.6607 Y-156.3835
G1 Z0.0000 F2500.0
G4 P0.02
G0 X172.0594 Y-145.2683 F15000.0
G1 Z11.9000 F2500.0
G4 P0.02
G1 X171.1940 Y-141.6633 F2200.0
G1 Z0.0000 F2500.0
G4 P0.02
G0 X169.5914 Y-141.6633 F15000.0
G1 Z11.9000 F2500.0
G4 P0.02
G1 X170.4568 Y-145.2683 F2200.0
G1 X173.2032 Y-145.1815
G1 X173.4898 Y-144.7157
G1 X172.7967 Y-141.6633
G1 Z0.0000 F2500.0
G4 P0.02
G0 X174.6419 Y-144.3477 F15000.0
G1 Z11.9000 F2500.0
G4 P0.02
G1 X174.7439 Y-144.6178 F2200.0
G1 X175.5349 Y-145.2903
G1 X176.3176 Y-145.2366
G1 X176.6580 Y-144.7460
G1 X176.1205 Y-142.3151
G1 X175.3295 Y-141.6413
G1 X174.5468 Y-141.6950
G1 X174.2064 Y-142.1856
G1 X175.1228 Y-146.3500
G1 X175.4659 Y-146.8227
G1 X176.0075 Y-146.9343
G1 X176.2886 Y-146.7138
G1 X176.2693 Y-146.1984
G1 X175.0360 Y-144.9954
G1 Z0.0000 F2500.0
G4 P0.02
G0 X177.2105 Y-141.6950 F15000.0
G1 Z11.9000 F2500.0
G4 P0.02
G1 X177.1954 Y-141.6316 F2200.0
G1 Z0.0000 F2500.0
G4 P0.02
G0 X178.5018 Y-148.3344 F15000.0
G1 Z11.9000 F2500.0
G4 P0.02
G1 X158.5436 Y-148.3344 F12000.0
G1 X145.3503 Y-130.8278
G1 X147.8032 Y-135.2251
G1 X148.0568 Y-134.4645
G1 X148.9029 Y-134.4645
G1 X145.3503 Y-130.8278
G1 X141.7137 Y-126.0074
G1 X139.2621 Y-121.6942
G1 X139.0086 Y-122.4548
G1 X138.2465 Y-122.4548
G1 X141.7137 Y-126.0074
G1 X137.5699 Y-120.4250
G1 Z0.0000 F2500.0
G4 P0.02
G0 X140.2460 Y-123.7130 F15000.0
G1 Z11.9000 F2500.0
G4 P0.02
G1 X139.5460 Y-124.4117 F2200.0
G1 X139.9691 Y-124.1581
G1 X140.6691 Y-123.4594
G1 Z0.0000 F2500.0
G4 P0.02
G0 X143.5754 Y-122.7084 F15000.0
G1 Z11.9000 F2500.0
G4 P0.02
G1 X143.5754 Y-121.1871 F2200.0
G1 Z0.0000 F2500.0
G4 P0.02
G0 X143.5754 Y-119.7484 F15000.0
G1 Z11.9000 F2500.0
G4 P0.02
G1 X143.5754 Y-110.7842 F2200.0
G1 Z0.0000 F2500.0
G4 P0.02
G0 X143.5754 Y-112.8141 F15000.0
G1 Z11.9000 F2500.0
G4 P0.02
G1 X143.5754 Y-89.2193 F12000.0
G1 Z0.0000 F2500.0
G4 P0.02
G0 X143.5754 Y-91.2492 F15000.0
G1 Z11.9000 F2500.0
G4 P0.02
G1 X138.5855 Y-91.8403 F12000.0
G1 X139.0926 Y-91.2492
G1 X138.5855 Y-90.5725
G1 X143.5754 Y-91.2492
G1 X23.6543 Y-91.2492
G1 X28.6428 Y-90.5725
G1 X28.2212 Y-91.2492
G1 X28.6428 Y-91.8403
G1 X23.6543 Y-91.2492
G1 Z0.0000 F2500.0
G4 P0.02
G0 X23.6543 Y-89.2193 F15000.0
G1 Z11.9000 F2500.0
G4 P0.02
G1 X23.6543 Y-112.4765 F12000.0
G1 Z0.0000 F2500.0
G4 P0.02
G0 X23.6543 Y-110.4466 F15000.0
G1 Z11.9000 F2500.0
G4 P0.02
G1 X23.6543 Y-119.3267 F2200.0
G1 Z0.0000 F2500.0
G4 P0.02
G0 X23.6543 Y-120.8481 F15000.0
G1 Z11.9000 F2500.0
G4 P0.02
G1 X23.6543 Y-122.3708 F2200.0
G1 Z0.0000 F2500.0
G4 P0.02
G0 X23.6543 Y-123.8935 F15000.0
G1 Z11.9000 F2500.0
G4 P0.02
G1 X23.6543 Y-132.7722 F2200.0
G1 Z0.0000 F2500.0
G4 P0.02
G0 X23.6543 Y-134.2950 F15000.0
G1 Z11.9000 F2500.0
G4 P0.02
G1 X23.6543 Y-135.8177 F2200.0
G1 Z0.0000 F2500.0
G4 P0.02
G0 X23.6543 Y-137.2550 F15000.0
G1 Z11.9000 F2500.0
G4 P0.02
G1 X23.6543 Y-146.2191 F2200.0
G1 Z0.0000 F2500.0
G4 P0.02
G0 X17.9878 Y-142.3289 F15000.0
G1 Z11.9000 F2500.0
G4 P0.02
G1 X19.2556 Y-137.4245 F2200.0
G1 Z0.0000 F2500.0
G4 P0.02
G0 X17.9878 Y-142.3289
G1 Z11.9000 F2500.0
G4 P0.02
G1 X20.5248 Y-137.9316
G1 X19.6787 Y-138.1011
G1 Z0.0000 F2500.0
G4 P0.02
G0 X19.2984 Y-140.5375 F15000.0
G1 Z11.9000 F2500.0
G4 P0.02
G1 X19.2984 Y-139.6390 F2200.0
G1 Z0.0000 F2500.0
G4 P0.02
G0 X18.8753 Y-139.3854 F15000.0
G1 Z11.9000 F2500.0
G4 P0.02
G1 X18.8753 Y-140.2839 F2200.0
G1 Z0.0000 F2500.0
G4 P0.02
G0 X18.6645 Y-128.4603 F15000.0
G1 Z11.9000 F2500.0
G4 P0.02
G1 X23.6543 Y-128.4603 F12000.0
G1 X14.0976 Y-151.7161
G1 X0.2277 Y-151.7161
G1 Z0.0000 F2500.0
G4 P0.02
G0 X2.5786 Y-154.3027 F15000.0
G1 Z11.9000 F2500.0
G4 P0.02
G1 X3.8891 Y-159.7625 F2200.0
G1 X5.5731 Y-159.5999
G1 X6.0706 Y-158.9026
G1 X5.8597 Y-157.8112
G1 X4.8055 Y-156.9279
G1 X4.2336 Y-156.8217
G1 X3.1836 Y-156.8217
G1 Z0.0000 F2500.0
G4 P0.02
G0 X4.2323 Y-156.8217 F15000.0
G1 Z11.9000 F2500.0
G4 P0.02
G1 X5.0990 Y-154.3027 F2200.0
G1 Z0.0000 F2500.0
G4 P0.02
G0 X7.6195 Y-154.3027 F15000.0
G1 Z11.9000 F2500.0
G4 P0.02
G1 X8.9286 Y-159.7597 F2200.0
G1 X7.3673 Y-158.5030
G1 Z0.0000 F2500.0
G4 P0.02
G0 X8.8790 Y-154.3027 F15000.0
G1 Z11.9000 F2500.0
G4 P0.02
G1 X9.8629 Y-154.3096 F2200.0
G1 X10.9282 Y-154.8911
G1 X11.3829 Y-155.9825
G1 X11.3884 Y-156.5282
G1 X10.9419 Y-157.1166
G1 X9.5846 Y-157.2421
G1 X10.1895 Y-159.7625
G1 X12.2897 Y-159.7625
G1 Z0.0000 F2500.0
G4 P0.02
G0 X8.6847 Y-186.9829 F15000.0
G1 Z11.9000 F2500.0
G4 P0.02
G1 X8.6847 Y-214.3838 F12000.0
G1 Z0.0000 F2500.0
G4 P0.02
G0 X8.6847 Y-215.1445 F15000.0
G1 Z11.9000 F2500.0
G4 P0.02
G1 X12.9139 Y-219.3737 F2200.0
G1 Z0.0000 F2500.0
G4 P0.02
G0 X17.2258 Y-219.3737 F15000.0
G1 Z11.9000 F2500.0
G4 P0.02
G1 X8.6847 Y-210.8312 F2200.0
G1 Z0.0000 F2500.0
G4 P0.02
G0 X8.6847 Y-209.3939 F15000.0
G1 Z11.9000 F2500.0
G4 P0.02
G1 X158.5436 Y-209.3939 F12000.0
G1 X158.5436 Y-219.3737
G1 X8.6847 Y-219.3737
G1 Z0.0000 F2500.0
G4 P0.02
G0 X11.4752 Y-209.3939 F15000.0
G1 Z11.9000 F2500.0
G4 P0.02
G1 X20.6943 Y-218.6116 F2200.0
G1 Z0.0000 F2500.0
G4 P0.02
G0 X20.6943 Y-219.3737 F15000.0
G1 Z11.9000 F2500.0
G4 P0.02
G1 X20.6943 Y-209.3939 F2200.0
G1 Z0.0000 F2500.0
G4 P0.02
G0 X20.6943 Y-210.1546 F15000.0
G1 Z11.9000 F2500.0
G4 P0.02
G1 X19.9323 Y-209.3939 F2200.0
G1 Z0.0000 F2500.0
G4 P0.02
G0 X15.7044 Y-209.3939 F15000.0
G1 Z11.9000 F2500.0
G4 P0.02
G1 X20.6943 Y-214.3838 F2200.0
G1 Z0.0000 F2500.0
G4 P0.02
G0 X26.6984 Y-216.1601 F15000.0
G1 Z11.9000 F2500.0
G4 P0.02
G1 X29.9120 Y-219.3737 F2200.0
G1 Z0.0000 F2500.0
G4 P0.02
G0 X26.6984 Y-219.3737 F15000.0
G1 Z11.9000 F2500.0
G4 P0.02
G1 X26.6984 Y-209.3939 F2200.0
G1 Z0.0000 F2500.0
G4 P0.02
G0 X28.3893 Y-209.3939 F15000.0
G1 Z11.9000 F2500.0
G4 P0.02
G1 X38.3690 Y-219.3737 F2200.0
G1 Z0.0000 F2500.0
G4 P0.02
G0 X34.1412 Y-219.3737 F15000.0
G1 Z11.9000 F2500.0
G4 P0.02
G1 X26.6984 Y-211.9309 F2200.0
G1 Z0.0000 F2500.0
G4 P0.02
G0 X23.6543 Y-206.6874 F15000.0
G1 Z11.9000 F2500.0
G4 P0.02
G1 X23.6543 Y-222.9249 F12000.0
G1 Z0.0000 F2500.0
G4 P0.02
G0 X32.6185 Y-209.3939 F15000.0
G1 Z11.9000 F2500.0
G4 P0.02
G1 X42.5982 Y-219.3737 F2200.0
G1 Z0.0000 F2500.0
G4 P0.02
G0 X46.8261 Y-219.3737 F15000.0
G1 Z11.9000 F2500.0
G4 P0.02
G1 X36.8463 Y-209.3939 F2200.0
G1 Z0.0000 F2500.0
G4 P0.02
G0 X41.0755 Y-209.3939 F15000.0
G1 Z11.9000 F2500.0
G4 P0.02
G1 X51.0553 Y-219.3737 F2200.0
G1 Z0.0000 F2500.0
G4 P0.02
G0 X55.2831 Y-219.3737 F15000.0
G1 Z11.9000 F2500.0
G4 P0.02
G1 X45.3033 Y-209.3939 F2200.0
G1 Z0.0000 F2500.0
G4 P0.02
G0 X49.5325 Y-209.3939 F15000.0
G1 Z11.9000 F2500.0
G4 P0.02
G1 X59.5963 Y-219.3737 F2200.0
G1 Z0.0000 F2500.0
G4 P0.02
G0 X63.8242 Y-219.3737 F15000.0
G1 Z11.9000 F2500.0
G4 P0.02
G1 X53.8458 Y-209.3939 F2200.0
G1 Z0.0000 F2500.0
G4 P0.02
G0 X58.0736 Y-209.3939 F15000.0
G1 Z11.9000 F2500.0
G4 P0.02
G1 X68.0534 Y-219.3737 F2200.0
G1 Z0.0000 F2500.0
G4 P0.02
G0 X72.2812 Y-219.3737 F15000.0
G1 Z11.9000 F2500.0
G4 P0.02
G1 X62.3028 Y-209.3939 F2200.0
G1 Z0.0000 F2500.0
G4 P0.02
G0 X66.5306 Y-209.3939 F15000.0
G1 Z11.9000 F2500.0
G4 P0.02
G1 X76.5104 Y-219.3737 F2200.0
G1 Z0.0000 F2500.0
G4 P0.02
G0 X80.0630 Y-218.6971 F15000.0
G1 Z11.9000 F2500.0
G4 P0.02
G1 X70.7598 Y-209.3939 F2200.0
G1 Z0.0000 F2500.0
G4 P0.02
G0 X74.9876 Y-209.3939 F15000.0
G1 Z11.9000 F2500.0
G4 P0.02
G1 X80.0630 Y-214.4679 F2200.0
G1 Z0.0000 F2500.0
G4 P0.02
G0 X80.0630 Y-210.2400 F15000.0
G1 Z11.9000 F2500.0
G4 P0.02
G1 X79.2168 Y-209.3939 F2200.0
G1 Z0.0000 F2500.0
G4 P0.02
G0 X83.6142 Y-209.3939 F15000.0
G1 Z11.9000 F2500.0
G4 P0.02
G1 X87.1668 Y-219.3737 F12000.0
G1 X87.1668 Y-209.3939
G1 X83.6142 Y-219.3737
G1 X83.6142 Y-209.3939
G1 X80.0630 Y-219.3737
G1 X80.0630 Y-209.3939
G1 X83.6142 Y-219.3737
G1 Z0.0000 F2500.0
G4 P0.02
G0 X87.1668 Y-217.2584 F15000.0
G1 Z11.9000 F2500.0
G4 P0.02
G1 X89.1966 Y-219.3737 F2200.0
G1 Z0.0000 F2500.0
G4 P0.02
G0 X93.4244 Y-219.3737 F15000.0
G1 Z11.9000 F2500.0
G4 P0.02
G1 X87.1668 Y-213.0306 F2200.0
G1 Z0.0000 F2500.0
G4 P0.02
G0 X87.6739 Y-209.3939 F15000.0
G1 Z11.9000 F2500.0
G4 P0.02
G1 X97.7377 Y-219.3737 F2200.0
G1 Z0.0000 F2500.0
G4 P0.02
G0 X101.9655 Y-219.3737 F15000.0
G1 Z11.9000 F2500.0
G4 P0.02
G1 X91.9871 Y-209.3939 F2200.0
G1 Z0.0000 F2500.0
G4 P0.02
G0 X96.2150 Y-209.3939 F15000.0
G1 Z11.9000 F2500.0
G4 P0.02
G1 X106.1947 Y-219.3737 F2200.0
G1 Z0.0000 F2500.0
G4 P0.02
G0 X110.4225 Y-219.3737 F15000.0
G1 Z11.9000 F2500.0
G4 P0.02
G1 X100.4442 Y-209.3939 F2200.0
G1 Z0.0000 F2500.0
G4 P0.02
G0 X104.6720 Y-209.3939 F15000.0
G1 Z11.9000 F2500.0
G4 P0.02
G1 X114.6517 Y-219.3737 F2200.0
G1 Z0.0000 F2500.0
G4 P0.02
G0 X118.8796 Y-219.3737 F15000.0
G1 Z11.9000 F2500.0
G4 P0.02
G1 X108.9012 Y-209.3939 F2200.0
G1 Z0.0000 F2500.0
G4 P0.02
G0 X113.1290 Y-209.3939 F15000.0
G1 Z11.9000 F2500.0
G4 P0.02
G1 X123.1088 Y-219.3737 F2200.0
G1 Z0.0000 F2500.0
G4 P0.02
G0 X127.3380 Y-219.3737 F15000.0
G1 Z11.9000 F2500.0
G4 P0.02
G1 X117.3582 Y-209.3939 F2200.0
G1 Z0.0000 F2500.0
G4 P0.02
G0 X121.5860 Y-209.3939 F15000.0
G1 Z11.9000 F2500.0
G4 P0.02
G1 X131.5658 Y-219.3737 F2200.0
G1 Z0.0000 F2500.0
G4 P0.02
G0 X135.8790 Y-219.3737 F15000.0
G1 Z11.9000 F2500.0
G4 P0.02
G1 X125.8152 Y-209.3939 F2200.0
G1 Z0.0000 F2500.0
G4 P0.02
G0 X130.1285 Y-209.3939 F15000.0
G1 Z11.9000 F2500.0
G4 P0.02
G1 X140.1069 Y-219.3737 F2200.0
G1 Z0.0000 F2500.0
G4 P0.02
G0 X140.5299 Y-219.3737 F15000.0
G1 Z11.9000 F2500.0
G4 P0.02
G1 X140.5299 Y-209.3939 F2200.0
G1 Z0.0000 F2500.0
G4 P0.02
G0 X138.5855 Y-209.3939 F15000.0
G1 Z11.9000 F2500.0
G4 P0.02
G1 X140.5299 Y-211.3383 F2200.0
G1 Z0.0000 F2500.0
G4 P0.02
G0 X140.5299 Y-215.5675 F15000.0
G1 Z11.9000 F2500.0
G4 P0.02
G1 X134.3563 Y-209.3939 F2200.0
G1 Z0.0000 F2500.0
G4 P0.02
G0 X143.5754 Y-206.0949 F15000.0
G1 Z11.9000 F2500.0
G4 P0.02
G1 X143.5754 Y-222.1642 F12000.0
G1 Z0.0000 F2500.0
G4 P0.02
G0 X146.5354 Y-219.3737 F15000.0
G1 Z11.9000 F2500.0
G4 P0.02
G1 X146.5354 Y-209.3939 F2200.0
G1 Z0.0000 F2500.0
G4 P0.02
G0 X147.0425 Y-209.3939 F15000.0
G1 Z11.9000 F2500.0
G4 P0.02
G1 X157.0209 Y-219.3737 F2200.0
G1 Z0.0000 F2500.0
G4 P0.02
G0 X158.5436 Y-219.3737 F15000.0
G1 Z11.9000 F2500.0
G4 P0.02
G1 X172.3282 Y-219.3737 F2200.0
G1 Z0.0000 F2500.0
G4 P0.02
G0 X170.6373 Y-221.4614 F15000.0
G1 Z11.9000 F2500.0
G4 P0.02
G1 X170.6373 Y-222.3599 F2200.0
G1 Z0.0000 F2500.0
G4 P0.02
G0 X170.0034 Y-222.6562 F15000.0
G1 Z11.9000 F2500.0
G4 P0.02
G1 X170.0034 Y-221.7563 F2200.0
G1 Z0.0000 F2500.0
G4 P0.02
G0 X170.2997 Y-226.3080 F15000.0
G1 Z11.9000 F2500.0
G4 P0.02
G1 X170.2997 Y-219.3737 F12000.0
G1 X170.9763 Y-224.3622
G1 X170.2997 Y-223.8551
G1 X169.6231 Y-224.3622
G1 X170.2997 Y-219.3737
G1 X170.2997 Y-209.3939
G1 X169.6231 Y-204.3200
G1 X170.2997 Y-204.8271
G1 X170.9763 Y-204.3200
G1 X170.2997 Y-209.3939
G1 X170.2997 Y-202.3742
G1 Z0.0000 F2500.0
G4 P0.02
G0 X170.0034 Y-206.1541 F15000.0
G1 Z11.9000 F2500.0
G4 P0.02
G1 X170.0034 Y-207.0526 F2200.0
G1 Z0.0000 F2500.0
G4 P0.02
G0 X170.6373 Y-207.3489 F15000.0
G1 Z11.9000 F2500.0
G4 P0.02
G1 X170.6373 Y-206.4490 F2200.0
G1 Z0.0000 F2500.0
G4 P0.02
G0 X172.3282 Y-209.3939 F15000.0
G1 Z11.9000 F2500.0
G4 P0.02
G1 X158.5436 Y-209.3939 F2200.0
G1 Z0.0000 F2500.0
G4 P0.02
G0 X158.5436 Y-212.3539 F15000.0
G1 Z11.9000 F2500.0
G4 P0.02
G1 X155.4995 Y-209.3939 F2200.0
G1 Z0.0000 F2500.0
G4 P0.02
G0 X151.2703 Y-209.3939 F15000.0
G1 Z11.9000 F2500.0
G4 P0.02
G1 X158.5436 Y-216.5818 F2200.0
G1 Z0.0000 F2500.0
G4 P0.02
G0 X158.5436 Y-214.3838 F15000.0
G1 Z11.9000 F2500.0
G4 P0.02
G1 X158.5436 Y-186.9829 F12000.0
G1 Z0.0000 F2500.0
G4 P0.02
G0 X158.5436 Y-189.0127 F15000.0
G1 Z11.9000 F2500.0
G4 P0.02
G1 X153.5538 Y-189.6893 F12000.0
G1 X154.0609 Y-189.0127
G1 X153.5538 Y-188.3361
G1 X158.5436 Y-189.0127
G1 X8.6847 Y-189.0127
G1 X13.6746 Y-188.3361
G1 X13.1675 Y-189.0127
G1 X13.6746 Y-189.6893
G1 X8.6847 Y-189.0127
G1 Z0.0000 F2500.0
G4 P0.02
G0 X10.7297 Y-188.7164 F15000.0
G1 Z11.9000 F2500.0
G4 P0.02
G1 X11.6296 Y-188.7164 F2200.0
G1 Z0.0000 F2500.0
G4 P0.02
G0 X11.9672 Y-189.3503 F15000.0
G1 Z11.9000 F2500.0
G4 P0.02
G1 X11.0687 Y-189.3503 F2200.0
G1 Z0.0000 F2500.0
G4 P0.02
G0 X60.6106 Y-171.9292 F15000.0
G1 Z11.9000 F2500.0
G4 P0.02
G1 X57.0594 Y-168.3766 F2200.0
G1 X60.6106 Y-164.9095
G1 X64.1632 Y-168.3766
G1 Z0.0000 F2500.0
G4 P0.02
G0 X65.4943 Y-168.5530 F15000.0
G1 Z11.9000 F2500.0
G4 P0.02
G1 X66.3005 Y-169.3605 F2200.0
G1 X66.8035 Y-170.2328
G1 X66.8269 Y-171.5061
G1 X66.1737 Y-172.7284
G1 X65.4475 Y-173.2383
G1 X64.6069 Y-173.1736
G1 X63.3501 Y-172.0532
G1 X61.5118 Y-175.0518
G1 X63.5265 Y-177.0665
G1 Z0.0000 F2500.0
G4 P0.02
G0 X69.8297 Y-170.4919 F15000.0
G1 Z11.9000 F2500.0
G4 P0.02
G1 X61.0336 Y-161.6118 F2200.0
G1 Z0.0000 F2500.0
G4 P0.02
G0 X62.3869 Y-163.0491 F15000.0
G1 Z11.9000 F2500.0
G4 P0.02
G1 X57.4824 Y-158.1447 F12000.0
G1 X61.4567 Y-161.1888
G1 X60.6960 Y-161.2728
G1 X60.5265 Y-162.1189
G1 X57.4824 Y-158.1447
G1 X53.9298 Y-154.5921
G1 X49.9556 Y-151.5480
G1 X50.8003 Y-151.3785
G1 X50.8858 Y-150.6178
G1 X53.9298 Y-154.5921
G1 X49.0254 Y-149.6022
G1 Z0.0000 F2500.0
G4 P0.02
G0 X51.8890 Y-152.8268 F15000.0
G1 Z11.9000 F2500.0
G4 P0.02
G1 X52.5876 Y-152.1281 F2200.0
G1 Z0.0000 F2500.0
G4 P0.02
G0 X52.2927 Y-152.6353 F15000.0
G1 Z11.9000 F2500.0
G4 P0.02
G1 X51.5927 Y-153.3353 F2200.0
G1 Z0.0000 F2500.0
G4 P0.02
G0 X52.5766 Y-156.0294 F15000.0
G1 Z11.9000 F2500.0
G4 P0.02
G1 X81.8379 Y-126.6840 F12000.0
G1 Z0.0000 F2500.0
G4 P0.02
G0 X83.6142 Y-124.9078 F15000.0
G1 Z11.9000 F2500.0
G4 P0.02
G1 X87.1668 Y-128.4603 F2200.0
G1 X83.6142 Y-132.0115
G1 X80.0630 Y-128.4603
G1 Z0.0000 F2500.0
G4 P0.02
G0 X83.6142 Y-122.6243 F15000.0
G1 Z11.9000 F2500.0
G4 P0.02
G1 X83.6142 Y-128.4603 F12000.0
G1 X105.0110 Y-162.4565
G1 X120.3182 Y-162.4565
G1 Z0.0000 F2500.0
G4 P0.02
G0 X115.0486 Y-166.1566 F15000.0
G1 Z11.9000 F2500.0
G4 P0.02
G1 X115.2043 Y-165.2664 F2200.0
G1 X115.8672 Y-164.9053
G1 X116.9861 Y-165.2664
G1 X117.5690 Y-166.1566
G1 X118.3421 Y-169.8966
G1 X117.8943 Y-170.4850
G1 X116.9448 Y-170.5387
G1 X115.9857 Y-169.7657
G1 X115.8148 Y-169.3495
G1 Z0.0000 F2500.0
G4 P0.02
G0 X113.5162 Y-165.0225 F15000.0
G1 Z11.9000 F2500.0
G4 P0.02
G1 X110.9958 Y-165.0225 F2200.0
G1 X114.1956 Y-168.6729
G1 X114.4533 Y-169.0642
G1 X114.5222 Y-170.0192
G1 X113.9917 Y-170.5374
G1 X113.0119 Y-170.4905
G1 X112.1051 Y-169.6458
G1 Z0.0000 F2500.0
G4 P0.02
G0 X108.8695 Y-167.5429 F15000.0
G1 Z11.9000 F2500.0
G4 P0.02
G1 X109.7363 Y-165.0225 F2200.0
G1 Z0.0000 F2500.0
G4 P0.02
G0 X107.2158 Y-165.0225 F15000.0
G1 Z11.9000 F2500.0
G4 P0.02
G1 X108.5263 Y-170.4836 F2200.0
G1 X110.2103 Y-170.3196
G1 X110.7078 Y-169.6237
G1 X110.4969 Y-168.5323
G1 X109.4427 Y-167.6490
G1 X108.8709 Y-167.5429
G1 X107.8208 Y-167.5429
G1 Z0.0000 F2500.0
G4 P0.02
G0 X94.2705 Y-145.3744 F15000.0
G1 Z11.9000 F2500.0
G4 P0.02
G1 X91.0570 Y-141.4842 F2200.0
G1 Z0.0000 F2500.0
G4 P0.02
G0 X94.2705 Y-145.3744
G1 Z11.9000 F2500.0
G4 P0.02
G1 X92.1553 Y-140.8076
G1 X91.8176 Y-141.5682
G1 Z0.0000 F2500.0
G4 P0.02
G0 X95.8773 Y-144.1893 F15000.0
G1 Z11.9000 F2500.0
G4 P0.02
G1 X94.9472 Y-144.8659 F12000.0
G1 X92.7478 Y-146.2191
G1 X90.3803 Y-147.2347
G1 X87.8434 Y-147.9954
G1 X85.3064 Y-148.3344
G1 X83.6142 Y-148.4185
G1 X81.9233 Y-148.3344
G1 X22.4692 Y-143.3445
G1 X20.1858 Y-143.0055
G1 X18.0719 Y-142.3289
G1 X16.0421 Y-141.3147
G1 X14.1817 Y-140.0455
G1 X12.5749 Y-138.5242
G1 X11.2217 Y-136.7479
G1 X10.1220 Y-134.7180
G1 X9.2773 Y-132.6882
G1 X8.8542 Y-130.4888
G1 X8.6847 Y-128.2054
G1 X8.9383 Y-125.9234
G1 X9.4454 Y-123.8081
G1 X10.2915 Y-121.6942
G1 X11.4752 Y-119.7484
G1 X12.9139 Y-118.0575
G1 X14.6048 Y-116.5348
G1 X16.4651 Y-115.3511
G1 X18.4950 Y-114.3368
G1 X20.6943 Y-113.7443
G1 X22.4692 Y-113.4907
G1 X81.9233 Y-108.5008
G1 X85.3064 Y-108.5008
G1 X144.8432 Y-113.4907
G1 X146.5354 Y-113.7443
G1 X148.7334 Y-114.3368
G1 X150.7632 Y-115.3511
G1 X152.6236 Y-116.5348
G1 X154.3158 Y-118.0575
G1 X155.7531 Y-119.7484
G1 X156.9368 Y-121.6942
G1 X157.7830 Y-123.8081
G1 X158.2901 Y-125.9234
G1 X158.5436 Y-128.2054
G1 X158.3741 Y-130.4888
G1 X157.9525 Y-132.6882
G1 X157.1063 Y-134.7180
G1 X156.0067 Y-136.7479
G1 X154.6534 Y-138.5242
G1 X153.0466 Y-140.0455
G1 X151.1863 Y-141.3147
G1 X149.1564 Y-142.3289
G1 X147.0425 Y-143.0055
G1 X144.8432 Y-143.3445
G1 X85.3064 Y-148.3344
G1 Z0.0000 F2500.0
G4 P0.02
G0 X83.6142 Y-150.4483 F15000.0
G1 Z11.9000 F2500.0
G4 P0.02
G1 X83.6142 Y-138.7777 F2200.0
G1 Z0.0000 F2500.0
G4 P0.02
G0 X83.6142 Y-137.2550 F15000.0
G1 Z11.9000 F2500.0
G4 P0.02
G1 X83.6142 Y-135.7322 F2200.0
G1 Z0.0000 F2500.0
G4 P0.02
G0 X83.6142 Y-134.2950 F15000.0
G1 Z11.9000 F2500.0
G4 P0.02
G1 X83.6142 Y-128.4603 F2200.0
G1 Z0.0000 F2500.0
G4 P0.02
G0 X85.3905 Y-130.2353 F15000.0
G1 Z11.9000 F2500.0
G4 P0.02
G1 X56.0438 Y-159.4965 F12000.0
G1 Z0.0000 F2500.0
G4 P0.02
G0 X58.8233 Y-160.5232 F15000.0
G1 Z11.9000 F2500.0
G4 P0.02
G1 X59.5233 Y-159.8245 F2200.0
G1 X59.3731 Y-160.2269
G1 X60.0731 Y-159.5282
G1 Z0.0000 F2500.0
G4 P0.02
G0 X92.3137 Y-143.6932 F15000.0
G1 Z11.9000 F2500.0
G4 P0.02
G1 X93.0124 Y-142.9945 F2200.0
G1 X93.0441 Y-142.6404
G1 X93.0441 Y-143.5402
G1 Z0.0000 F2500.0
G4 P0.02
G0 X83.6142 Y-121.1016 F15000.0
G1 Z11.9000 F2500.0
G4 P0.02
G1 X83.6142 Y-119.5803 F2200.0
G1 Z0.0000 F2500.0
G4 P0.02
G0 X83.6142 Y-118.1416 F15000.0
G1 Z11.9000 F2500.0
G4 P0.02
G1 X83.6142 Y-106.4710 F2200.0
G1 Z0.0000 F2500.0
G4 P0.02
G0 X82.4387 Y-98.4122 F15000.0
G1 Z11.9000 F2500.0
G4 P0.02
G1 X83.3455 Y-99.2556 F2200.0
G1 X84.3252 Y-99.3038
G1 X84.8558 Y-98.7843
G1 X84.7855 Y-97.8293
G1 X84.5278 Y-97.4393
G1 X81.3294 Y-93.7889
G1 X83.8484 Y-93.7889
G1 Z0.0000 F2500.0
G4 P0.02
G0 X85.3808 Y-94.9230 F15000.0
G1 Z11.9000 F2500.0
G4 P0.02
G1 X85.5365 Y-94.0328 F2200.0
G1 X86.1994 Y-93.6704
G1 X87.1902 Y-93.9377
G1 X87.9012 Y-94.9230
G1 X88.6743 Y-98.6630
G1 X88.2265 Y-99.2514
G1 X87.2770 Y-99.3052
G1 X86.3179 Y-98.5321
G1 X86.1470 Y-98.1159
G1 Z0.0000 F2500.0
G4 P0.02
G0 X80.0685 Y-93.7889 F15000.0
G1 Z11.9000 F2500.0
G4 P0.02
G1 X81.3790 Y-99.2473 F2200.0
G1 X79.8163 Y-97.9892
G1 Z0.0000 F2500.0
G4 P0.02
G0 X62.5564 Y-53.2759 F15000.0
G1 Z11.9000 F2500.0
G4 P0.02
G1 X62.5564 Y-5.0000 F12000.0
G1 Z0.0000 F2500.0
G4 P0.02
G0 X64.0832 Y-5.0000 F15000.0
G1 Z11.9000 F2500.0
G4 P0.02
G1 X64.5835 Y-7.4038 F2200.0
G1 X65.3510 Y-8.2885
G1 X66.8407 Y-8.4731
G1 Z0.0000 F2500.0
G4 P0.02
G0 X69.2647 Y-6.8664 F15000.0
G1 Z11.9000 F2500.0
G4 P0.02
G1 X68.8169 Y-5.0000 F2200.0
G1 Z0.0000 F2500.0
G4 P0.02
G0 X70.4012 Y-5.0000 F15000.0
G1 Z11.9000 F2500.0
G4 P0.02
G1 X70.6992 Y-6.3124 F2200.0
G1 X70.4126 Y-6.7795
G1 X67.6592 Y-6.8664
G1 X67.2115 Y-5.0000
G1 Z0.0000 F2500.0
G4 P0.02
G0 X71.6594 Y-5.0000 F15000.0
G1 Z11.9000 F2500.0
G4 P0.02
G1 X72.0579 Y-6.4281 F2200.0
G1 X72.7511 Y-6.8567
G1 X74.0837 Y-6.8664
G1 X73.6458 Y-5.0000
G1 Z0.0000 F2500.0
G4 P0.02
G0 X75.7270 Y-5.0000 F15000.0
G1 Z11.9000 F2500.0
G4 P0.02
G1 X76.6937 Y-6.8664 F2200.0
G1 X77.6969 Y-6.8664
G1 X77.2491 Y-5.0000
G1 Z0.0000 F2500.0
G4 P0.02
G0 X78.9013 Y-6.8664 F15000.0
G1 Z11.9000 F2500.0
G4 P0.02
G1 X78.4536 Y-5.0000 F2200.0
G1 X79.8487 Y-5.0000
G1 Z0.0000 F2500.0
G4 P0.02
G0 X84.6174 Y-7.2687 F15000.0
G1 Z11.9000 F2500.0
G4 P0.02
G1 X86.1098 Y-8.4704 F2200.0
G1 X85.2766 Y-5.0000
G1 Z0.0000 F2500.0
G4 P0.02
G0 X86.4812 Y-5.0000 F15000.0
G1 Z11.9000 F2500.0
G4 P0.02
G1 X87.0551 Y-7.3886 F2200.0
G1 X87.2177 Y-7.7869
G1 X88.1341 Y-8.5255
G1 X89.0423 Y-8.4745
G1 X89.4695 Y-7.9109
G1 X88.8677 Y-5.0000
G1 Z0.0000 F2500.0
G4 P0.02
G0 X92.5042 Y-5.0000 F15000.0
G1 Z11.9000 F2500.0
G4 P0.02
G1 X93.3376 Y-8.4731 F2200.0
G1 X95.3454 Y-8.4731
G1 Z0.0000 F2500.0
G4 P0.02
G0 X95.7958 Y-5.0000 F15000.0
G1 Z11.9000 F2500.0
G4 P0.02
G1 X96.2894 Y-7.3886 F2200.0
G1 X96.4520 Y-7.7869
G1 X97.3697 Y-8.5255
G1 X98.2779 Y-8.4745
G1 X98.7051 Y-7.9109
G1 X98.1034 Y-5.0000
G1 Z0.0000 F2500.0
G4 P0.02
G0 X99.4134 Y-5.0000 F15000.0
G1 Z11.9000 F2500.0
G4 P0.02
G1 X99.9136 Y-7.4038 F2200.0
G1 X100.6826 Y-8.2885
G1 X102.1708 Y-8.4731
G1 Z0.0000 F2500.0
G4 P0.02
G0 X103.3752 Y-8.4731 F15000.0
G1 Z11.9000 F2500.0
G4 P0.02
G1 X105.7841 Y-8.4731 F2200.0
G1 Z0.0000 F2500.0
G4 P0.02
G0 X104.5796 Y-8.4731 F15000.0
G1 Z11.9000 F2500.0
G4 P0.02
G1 X103.7462 Y-5.0000 F2200.0
G1 Z0.0000 F2500.0
G4 P0.02
G0 X109.1093 Y-7.2687 F15000.0
G1 Z11.9000 F2500.0
G4 P0.02
G1 X110.6017 Y-8.4704 F2200.0
G1 X109.7694 Y-5.0000
G1 Z0.0000 F2500.0
G4 P0.02
G0 X110.9741 Y-5.0000 F15000.0
G1 Z11.9000 F2500.0
G4 P0.02
G1 X111.5470 Y-7.3886 F2200.0
G1 X111.7096 Y-7.7869
G1 X112.6274 Y-8.5255
G1 X113.5355 Y-8.4745
G1 X113.9627 Y-7.9109
G1 X113.3610 Y-5.0000
G1 Z0.0000 F2500.0
G4 P0.02
G0 X116.5178 Y-5.0000 F15000.0
G1 Z11.9000 F2500.0
G4 P0.02
G1 X116.5893 Y-5.2568 F2200.0
G1 X116.1400 Y-5.9444
G1 X114.8433 Y-6.0643
G1 X115.4207 Y-8.4731
G1 X117.4285 Y-8.4731
G1 Z0.0000 F2500.0
G4 P0.02
G0 X117.7996 Y-5.0000 F15000.0
G1 Z11.9000 F2500.0
G4 P0.02
G1 X118.3724 Y-7.3886 F2200.0
G1 X118.5364 Y-7.7869
G1 X119.4528 Y-8.5255
G1 X120.3609 Y-8.4745
G1 X120.7881 Y-7.9109
G1 X120.1864 Y-5.0000
G1 Z0.0000 F2500.0
G4 P0.02
G0 X121.4275 Y-5.0597 F15000.0
G1 Z11.9000 F2500.0
G4 P0.02
G1 X123.4353 Y-5.0597 F2200.0
G1 Z0.0000 F2500.0
G4 P0.02
G0 X124.7767 Y-5.0000 F15000.0
G1 Z11.9000 F2500.0
G4 P0.02
G1 X125.0890 Y-5.6013 F2200.0
G1 X126.2727 Y-6.0616
G1 X127.0307 Y-5.6992
G1 X127.2066 Y-5.0000
G1 Z0.0000 F2500.0
G4 P0.02
G0 X128.6318 Y-5.0000 F15000.0
G1 Z11.9000 F2500.0
G4 P0.02
G1 X128.9447 Y-5.6013 F2200.0
G1 X130.1271 Y-6.0616
G1 X130.8850 Y-5.6992
G1 X131.0610 Y-5.0000
G1 Z0.0000 F2500.0
G4 P0.02
G0 X132.4960 Y-5.0000 F15000.0
G1 Z11.9000 F2500.0
G4 P0.02
G1 X132.4960 Y-38.3077 F12000.0
G1 Z0.0000 F2500.0
G4 P0.02
G0 X132.4960 Y-33.3178 F15000.0
G1 Z11.9000 F2500.0
G4 P0.02
G1 X180.0000 Y-33.3178 F12000.0
G1 Z0.0000 F2500.0
G4 P0.02
G0 X178.1325 Y-34.4271 F15000.0
G1 Z11.9000 F2500.0
G4 P0.02
G1 X178.0181 Y-34.4671 F2200.0
G1 X178.3764 Y-36.3205
G1 X177.5440 Y-36.2751
G1 X176.9859 Y-34.9108
G1 X177.2822 Y-34.3954
G1 X178.0387 Y-34.9108
G1 Z0.0000 F2500.0
G4 P0.02
G0 X176.2390 Y-34.4271 F15000.0
G1 Z11.9000 F2500.0
G4 P0.02
G1 X176.5918 Y-35.9002 F2200.0
G1 X176.5711 Y-36.1469
G1 X175.0098 Y-36.3205
G1 X174.5551 Y-34.4271
G1 Z0.0000 F2500.0
G4 P0.02
G0 X175.3970 Y-34.4271 F15000.0
G1 Z11.9000 F2500.0
G4 P0.02
G1 X175.8518 Y-36.3205 F2200.0
G1 Z0.0000 F2500.0
G4 P0.02
G0 X174.3787 Y-36.3205 F15000.0
G1 Z11.9000 F2500.0
G4 P0.02
G1 X173.9239 Y-34.4271 F2200.0
G1 X172.6616 Y-34.4271
G1 X172.4329 Y-34.5071
G1 X172.6947 Y-36.3205
G1 Z0.0000 F2500.0
G4 P0.02
G0 X172.0636 Y-36.3205 F15000.0
G1 Z11.9000 F2500.0
G4 P0.02
G1 X171.1417 Y-35.9664 F2200.0
G1 X170.9598 Y-34.5071
G1 X171.1885 Y-34.4271
G1 X171.6088 Y-34.4271
G1 Z0.0000 F2500.0
G4 P0.02
G0 X170.1357 Y-34.4271 F15000.0
G1 Z11.9000 F2500.0
G4 P0.02
G1 X170.0213 Y-34.4671 F2200.0
G1 X170.3796 Y-36.3205
G1 X169.5473 Y-36.2751
G1 X168.9892 Y-34.9108
G1 X169.2854 Y-34.3954
G1 X170.0420 Y-34.9108
G1 Z0.0000 F2500.0
G4 P0.02
G0 X168.2423 Y-34.4271 F15000.0
G1 Z11.9000 F2500.0
G4 P0.02
G1 X168.8982 Y-37.1625 F2200.0
G1 X167.7035 Y-35.6894
G1 X167.2156 Y-37.1625
G1 X166.5583 Y-34.4271
G1 Z0.0000 F2500.0
G4 P0.02
G0 X164.4637 Y-38.3077 F15000.0
G1 Z11.9000 F2500.0
G4 P0.02
G1 X164.4637 Y-18.2641 F12000.0
G1 Z0.0000 F2500.0
G4 P0.02
G0 X163.0939 Y-16.3431 F15000.0
G1 Z11.9000 F2500.0
G4 P0.02
G1 X162.6392 Y-14.4497 F2200.0
G1 Z0.0000 F2500.0
G4 P0.02
G0 X163.4811 Y-14.4497 F15000.0
G1 Z11.9000 F2500.0
G4 P0.02
G1 X163.8339 Y-15.9228 F2200.0
G1 X163.8133 Y-16.1709
G1 X162.2519 Y-16.3431
G1 X161.7972 Y-14.4497
G1 Z0.0000 F2500.0
G4 P0.02
G0 X161.1660 Y-14.4497 F15000.0
G1 Z11.9000 F2500.0
G4 P0.02
G1 X160.7444 Y-14.4497 F2200.0
G1 X160.5170 Y-14.5296
G1 X160.6989 Y-15.9890
G1 X161.6208 Y-16.3431
G1 Z0.0000 F2500.0
G4 P0.02
G0 X160.1477 Y-16.3431 F15000.0
G1 Z11.9000 F2500.0
G4 P0.02
G1 X159.6929 Y-14.4497 F2200.0
G1 X159.0618 Y-14.4497
G1 X158.8330 Y-14.5296
G1 X159.0949 Y-16.3431
G1 Z0.0000 F2500.0
G4 P0.02
G0 X158.0090 Y-14.4497 F15000.0
G1 Z11.9000 F2500.0
G4 P0.02
G1 X158.6663 Y-17.1851 F2200.0
G1 X158.0544 Y-17.1851
G1 X156.7467 Y-14.4497
G1 Z0.0000 F2500.0
G4 P0.02
G0 X157.1091 Y-11.9141 F15000.0
G1 Z11.9000 F2500.0
G4 P0.02
G1 X156.7605 Y-9.8333 F2200.0
G1 X157.3613 Y-9.1332
G1 X157.8574 Y-9.0354
G1 X158.8854 Y-9.0354
G1 Z0.0000 F2500.0
G4 P0.02
G0 X159.5276 Y-6.5687 F15000.0
G1 Z11.9000 F2500.0
G4 P0.02
G1 X160.8105 Y-11.9141 F2200.0
G1 X163.2772 Y-11.9141
G1 X161.9942 Y-6.5687
G1 Z0.0000 F2500.0
G4 P0.02
G0 X162.8903 Y-5.0000 F15000.0
G1 Z11.9000 F2500.0
G4 P0.02
G1 X163.9662 Y-5.1714 F2200.0
G1 X164.1168 Y-5.0000
G1 Z0.0000 F2500.0
G4 P0.02
G0 X165.2836 Y-6.5687 F15000.0
G1 Z11.9000 F2500.0
G4 P0.02
G1 X164.4609 Y-6.5687 F2200.0
G1 X163.9538 Y-6.6886
G1 X163.5156 Y-7.2660
G1 X164.3107 Y-10.9550
G1 X165.1803 Y-11.7928
G1 X166.5666 Y-11.9141
G1 Z0.0000 F2500.0
G4 P0.02
G0 X165.2809 Y-14.9334 F15000.0
G1 Z11.9000 F2500.0
G4 P0.02
G1 X165.3828 Y-16.2894 F2200.0
G1 X164.5932 Y-16.1337
G1 X164.4499 Y-15.8594
G1 X164.3479 Y-14.5034
G1 X165.1858 Y-14.7239
G1 X165.2809 Y-14.9334
G1 Z0.0000 F2500.0
G4 P0.02
G0 X166.1339 Y-15.8594 F15000.0
G1 Z11.9000 F2500.0
G4 P0.02
G1 X166.2758 Y-16.1337 F2200.0
G1 X167.0668 Y-16.2894
G1 X166.9635 Y-14.9334
G1 X166.7664 Y-14.6013
G1 X165.9864 Y-14.5489
G1 X166.3861 Y-16.9123
G1 X166.6369 Y-17.1975
G1 X167.0213 Y-17.0418
G1 X166.3406 Y-16.1998
G1 Z0.0000 F2500.0
G4 P0.02
G0 X159.5758 Y-11.9141 F15000.0
G1 Z11.9000 F2500.0
G4 P0.02
G1 X158.3672 Y-7.2040 F2200.0
G1 X157.5404 Y-6.6045
G1 X156.2382 Y-6.5687
G1 Z0.0000 F2500.0
G4 P0.02
G0 X155.8234 Y-5.0000 F15000.0
G1 Z11.9000 F2500.0
G4 P0.02
G1 X155.8523 Y-5.1204 F2200.0
G1 X157.7816 Y-5.1204
G1 Z0.0000 F2500.0
G4 P0.02
G0 X159.5164 Y-5.0000 F15000.0
G1 Z11.9000 F2500.0
G4 P0.02
G1 X159.7205 Y-5.1741 F2200.0
G1 X160.5969 Y-5.1204
G1 X160.6760 Y-5.0000
G1 Z0.0000 F2500.0
G4 P0.02
G0 X152.5368 Y-6.5687 F15000.0
G1 Z11.9000 F2500.0
G4 P0.02
G1 X153.8197 Y-11.9141 F2200.0
G1 X155.8758 Y-11.9141
G1 Z0.0000 F2500.0
G4 P0.02
G0 X153.0466 Y-13.2742 F15000.0
G1 Z11.9000 F2500.0
G4 P0.02
G1 X153.0466 Y-18.2641 F2200.0
G1 Z0.0000 F2500.0
G4 P0.02
G0 X147.4656 Y-18.2641 F15000.0
G1 Z11.9000 F2500.0
G4 P0.02
G1 X147.4656 Y-38.3077 F12000.0
G1 Z0.0000 F2500.0
G4 P0.02
G0 X151.5239 Y-34.4271 F15000.0
G1 Z11.9000 F2500.0
G4 P0.02
G1 X152.1812 Y-37.1625 F2200.0
G1 X152.6691 Y-35.6894
G1 X153.8638 Y-37.1625
G1 X153.2079 Y-34.4271
G1 Z0.0000 F2500.0
G4 P0.02
G0 X155.0076 Y-34.9108 F15000.0
G1 Z11.9000 F2500.0
G4 P0.02
G1 X154.2510 Y-34.3954 F2200.0
G1 X153.9548 Y-34.9108
G1 X154.5129 Y-36.2751
G1 X155.3466 Y-36.3205
G1 X154.9869 Y-34.4671
G1 X155.1013 Y-34.4271
G1 Z0.0000 F2500.0
G4 P0.02
G0 X156.5744 Y-34.4271 F15000.0
G1 Z11.9000 F2500.0
G4 P0.02
G1 X156.1541 Y-34.4271 F2200.0
G1 X155.9254 Y-34.5071
G1 X156.1073 Y-35.9664
G1 X157.0292 Y-36.3205
G1 Z0.0000 F2500.0
G4 P0.02
G0 X158.5023 Y-36.3205 F15000.0
G1 Z11.9000 F2500.0
G4 P0.02
G1 X157.5804 Y-35.9664 F2200.0
G1 X157.3985 Y-34.5071
G1 X157.6272 Y-34.4271
G1 X158.0475 Y-34.4271
G1 Z0.0000 F2500.0
G4 P0.02
G0 X159.8473 Y-34.9108 F15000.0
G1 Z11.9000 F2500.0
G4 P0.02
G1 X159.0907 Y-34.3954 F2200.0
G1 X158.7958 Y-34.9108
G1 X159.3525 Y-36.2751
G1 X160.1863 Y-36.3205
G1 X159.8266 Y-34.4671
G1 X159.9423 Y-34.4271
G1 Z0.0000 F2500.0
G4 P0.02
G0 X173.0819 Y-34.4271 F15000.0
G1 Z11.9000 F2500.0
G4 P0.02
G1 X173.5367 Y-36.3205 F2200.0
G1 Z0.0000 F2500.0
G4 P0.02
G0 X180.0000 Y-35.8007 F15000.0
G1 Z11.9000 F2500.0
G4 P0.02
G1 X179.9322 Y-34.9108 F2200.0
G1 X179.8385 Y-34.7014
G1 X178.9992 Y-34.4809
G1 X179.1963 Y-36.0463
G1 X180.0000 Y-36.2575
G1 X179.4209 Y-37.1625
G1 X180.0000 Y-37.1625
G1 Z0.0000 F2500.0
G4 P0.02
G0 X180.0000 Y-38.3077 F15000.0
G1 Z11.9000 F2500.0
G4 P0.02
G1 X0.0000 Y-38.3077 F12000.0
G1 Z0.0000 F2500.0
G4 P0.02
G0 X0.0000 Y-33.3178 F15000.0
G1 Z11.9000 F2500.0
G4 P0.02
G1 X62.5564 Y-33.3178 F12000.0
G1 Z0.0000 F2500.0
G4 P0.02
G0 X61.0130 Y-29.9168 F15000.0
G1 Z11.9000 F2500.0
G4 P0.02
G1 X60.2564 Y-29.4014 F2200.0
G1 X59.9615 Y-29.9168
G1 X60.5182 Y-31.2811
G1 X61.3520 Y-31.3265
G1 X60.9937 Y-29.4717
G1 X61.1080 Y-29.4331
G1 Z0.0000 F2500.0
G4 P0.02
G0 X62.5564 Y-28.3279 F15000.0
G1 Z11.9000 F2500.0
G4 P0.02
G1 X0.0000 Y-28.3279 F12000.0
G1 Z0.0000 F2500.0
G4 P0.02
G0 X0.0000 Y-27.0410 F15000.0
G1 Z11.9000 F2500.0
G4 P0.02
G1 X0.0320 Y-27.1745 F2200.0
G1 X1.1082 Y-26.8052
G1 X0.3476 Y-25.7138
G1 X0.0000 Y-25.7073
G1 Z0.0000 F2500.0
G4 P0.02
G0 X0.0000 Y-23.3380 F15000.0
G1 Z11.9000 F2500.0
G4 P0.02
G1 X62.5564 Y-23.3380 F12000.0
G1 Z0.0000 F2500.0
G4 P0.02
G0 X62.5564 Y-18.2641 F15000.0
G1 Z11.9000 F2500.0
G4 P0.02
G1 X0.0000 Y-18.2641 F12000.0
G1 Z0.0000 F2500.0
G4 P0.02
G0 X1.0132 Y-18.6017 F15000.0
G1 Z11.9000 F2500.0
G4 P0.02
G1 X1.6691 Y-21.3385 F2200.0
G1 X2.6007 Y-21.1649
G1 X2.6213 Y-20.9168
G1 X2.0481 Y-19.4892
G1 X1.2157 Y-19.4437
G1 Z0.0000 F2500.0
G4 P0.02
G0 X0.5832 Y-19.4437 F15000.0
G1 Z11.9000 F2500.0
G4 P0.02
G1 X1.2405 Y-22.1791 F2200.0
G1 X0.0000 Y-22.1791
G1 Z0.0000 F2500.0
G4 P0.02
G0 X2.5318 Y-24.4377 F15000.0
G1 Z11.9000 F2500.0
G4 P0.02
G1 X2.4174 Y-24.4777 F2200.0
G1 X2.7757 Y-26.3325
G1 X1.9420 Y-26.2871
G1 X1.3852 Y-24.9228
G1 X1.6167 Y-24.4267
G1 X2.4367 Y-24.9228
G1 Z0.0000 F2500.0
G4 P0.02
G0 X3.1877 Y-24.5438 F15000.0
G1 Z11.9000 F2500.0
G4 P0.02
G1 X3.3448 Y-24.4363 F2200.0
G1 X4.2309 Y-24.9614
G1 X3.8423 Y-25.3858
G1 X4.1344 Y-25.4657
G1 X4.4045 Y-26.2168
G1 X3.6976 Y-26.2264
G1 Z0.0000 F2500.0
G4 P0.02
G0 X3.8106 Y-25.3858 F15000.0
G1 Z11.9000 F2500.0
G4 P0.02
G1 X3.8423 Y-25.3858 F2200.0
G1 Z0.0000 F2500.0
G4 P0.02
G0 X4.7421 Y-24.4377 F15000.0
G1 Z11.9000 F2500.0
G4 P0.02
G1 X5.5758 Y-24.4846 F2200.0
G1 X6.1491 Y-26.1024
G1 X5.1969 Y-26.3325
G1 X4.5409 Y-23.5971
G1 Z0.0000 F2500.0
G4 P0.02
G0 X5.1280 Y-21.1952 F15000.0
G1 Z11.9000 F2500.0
G4 P0.02
G1 X5.8074 Y-22.0358 F2200.0
G1 X5.4229 Y-22.1915
G1 X5.1735 Y-21.9063
G1 X4.7725 Y-19.5429
G1 X5.6089 Y-19.6546
G1 X5.7509 Y-19.9274
G1 X5.8528 Y-21.2834
G1 X5.0632 Y-21.1277
G1 X4.9199 Y-20.8534
G1 Z0.0000 F2500.0
G4 P0.02
G0 X4.0669 Y-19.9274 F15000.0
G1 Z11.9000 F2500.0
G4 P0.02
G1 X4.1702 Y-21.2834 F2200.0
G1 X3.3793 Y-21.1277
G1 X3.2373 Y-20.8534
G1 X3.1340 Y-19.4988
G1 X3.9732 Y-19.7179
G1 X4.0669 Y-19.9274
G1 Z0.0000 F2500.0
G4 P0.02
G0 X6.2690 Y-19.4602 F15000.0
G1 Z11.9000 F2500.0
G4 P0.02
G1 X6.2621 Y-19.4272 F2200.0
G1 Z0.0000 F2500.0
G4 P0.02
G0 X6.2594 Y-16.3431 F15000.0
G1 Z11.9000 F2500.0
G4 P0.02
G1 X5.8046 Y-14.4497 F2200.0
G1 Z0.0000 F2500.0
G4 P0.02
G0 X5.2892 Y-14.9334 F15000.0
G1 Z11.9000 F2500.0
G4 P0.02
G1 X5.3926 Y-16.2894 F2200.0
G1 X4.6016 Y-16.1337
G1 X4.4596 Y-15.8594
G1 X4.3563 Y-14.5034
G1 X5.1955 Y-14.7239
G1 X5.2892 Y-14.9334
G1 Z0.0000 F2500.0
G4 P0.02
G0 X6.0320 Y-15.3964 F15000.0
G1 Z11.9000 F2500.0
G4 P0.02
G1 X7.0834 Y-15.3964 F2200.0
G1 Z0.0000 F2500.0
G4 P0.02
G0 X6.8574 Y-14.4497 F15000.0
G1 Z11.9000 F2500.0
G4 P0.02
G1 X7.3108 Y-16.3431 F2200.0
G1 Z0.0000 F2500.0
G4 P0.02
G0 X8.7839 Y-16.3431 F15000.0
G1 Z11.9000 F2500.0
G4 P0.02
G1 X8.3292 Y-14.4497 F2200.0
G1 Z0.0000 F2500.0
G4 P0.02
G0 X7.4886 Y-14.4497 F15000.0
G1 Z11.9000 F2500.0
G4 P0.02
G1 X7.9433 Y-16.3431 F2200.0
G1 X9.5046 Y-16.1709
G1 X9.5253 Y-15.9228
G1 X9.1712 Y-14.4497
G1 Z0.0000 F2500.0
G4 P0.02
G0 X9.8023 Y-14.4497 F15000.0
G1 Z11.9000 F2500.0
G4 P0.02
G1 X10.6360 Y-14.4952 F2200.0
G1 X11.2093 Y-16.1144
G1 X10.2570 Y-16.3431
G1 X9.6011 Y-13.6077
G1 Z0.0000 F2500.0
G4 P0.02
G0 X11.4821 Y-14.4332 F15000.0
G1 Z11.9000 F2500.0
G4 P0.02
G1 X11.4904 Y-14.4662 F2200.0
G1 Z0.0000 F2500.0
G4 P0.02
G0 X3.9443 Y-16.3431 F15000.0
G1 Z11.9000 F2500.0
G4 P0.02
G1 X2.5896 Y-15.0808 F2200.0
G1 Z0.0000 F2500.0
G4 P0.02
G0 X3.0155 Y-15.4777 F15000.0
G1 Z11.9000 F2500.0
G4 P0.02
G1 X3.4895 Y-14.4497 F2200.0
G1 Z0.0000 F2500.0
G4 P0.02
G0 X2.4381 Y-14.4497 F15000.0
G1 Z11.9000 F2500.0
G4 P0.02
G1 X2.8928 Y-16.3431 F2200.0
G1 Z0.0000 F2500.0
G4 P0.02
G0 X1.5699 Y-17.1851 F15000.0
G1 Z11.9000 F2500.0
G4 P0.02
G1 X0.3076 Y-17.1851 F2200.0
G1 Z0.0000 F2500.0
G4 P0.02
G0 X0.9387 Y-17.1851 F15000.0
G1 Z11.9000 F2500.0
G4 P0.02
G1 X0.2814 Y-14.4497 F2200.0
G1 Z0.0000 F2500.0
G4 P0.02
G0 X0.0000 Y-13.2742 F15000.0
G1 Z11.9000 F2500.0
G4 P0.02
G1 X180.0000 Y-13.2742 F12000.0
G1 Z0.0000 F2500.0
G4 P0.02
G0 X176.8385 Y-13.9839 F15000.0
G1 Z11.9000 F2500.0
G4 P0.02
G1 X177.7494 Y-17.7763 F2200.0
G1 X176.6635 Y-16.9026
G1 Z0.0000 F2500.0
G4 P0.02
G0 X180.0000 Y-18.2641 F15000.0
G1 Z11.9000 F2500.0
G4 P0.02
G1 X132.4960 Y-18.2641 F12000.0
G1 Z0.0000 F2500.0
G4 P0.02
G0 X135.3788 Y-14.4497 F15000.0
G1 Z11.9000 F2500.0
G4 P0.02
G1 X136.6879 Y-17.1851 F2200.0
G1 X137.2984 Y-17.1851
G1 X136.6425 Y-14.4497
G1 Z0.0000 F2500.0
G4 P0.02
G0 X137.7284 Y-16.3431 F15000.0
G1 Z11.9000 F2500.0
G4 P0.02
G1 X137.4665 Y-14.5296 F2200.0
G1 X137.6939 Y-14.4497
G1 X138.3251 Y-14.4497
G1 X138.7798 Y-16.3431
G1 Z0.0000 F2500.0
G4 P0.02
G0 X140.2529 Y-16.3431 F15000.0
G1 Z11.9000 F2500.0
G4 P0.02
G1 X139.3310 Y-15.9890 F2200.0
G1 X139.1491 Y-14.5296
G1 X139.3779 Y-14.4497
G1 X139.7982 Y-14.4497
G1 Z0.0000 F2500.0
G4 P0.02
G0 X140.4293 Y-14.4497 F15000.0
G1 Z11.9000 F2500.0
G4 P0.02
G1 X140.8841 Y-16.3431 F2200.0
G1 X142.4468 Y-16.1709
G1 X142.4674 Y-15.9228
G1 X142.1133 Y-14.4497
G1 Z0.0000 F2500.0
G4 P0.02
G0 X141.2713 Y-14.4497 F15000.0
G1 Z11.9000 F2500.0
G4 P0.02
G1 X141.7261 Y-16.3431 F2200.0
G1 Z0.0000 F2500.0
G4 P0.02
G0 X142.4757 Y-18.2641 F15000.0
G1 Z11.9000 F2500.0
G4 P0.02
G1 X142.4757 Y-33.3178 F12000.0
G1 Z0.0000 F2500.0
G4 P0.02
G0 X142.5529 Y-34.4271 F15000.0
G1 Z11.9000 F2500.0
G4 P0.02
G1 X142.9070 Y-35.9002 F2200.0
G1 X142.8864 Y-36.1469
G1 X141.3250 Y-36.3205
G1 X140.8703 Y-34.4271
G1 Z0.0000 F2500.0
G4 P0.02
G0 X141.7123 Y-34.4271 F15000.0
G1 Z11.9000 F2500.0
G4 P0.02
G1 X142.1656 Y-36.3205 F2200.0
G1 Z0.0000 F2500.0
G4 P0.02
G0 X140.6925 Y-36.3205 F15000.0
G1 Z11.9000 F2500.0
G4 P0.02
G1 X140.2391 Y-34.4271 F2200.0
G1 X139.6066 Y-34.4271
G1 X139.3793 Y-34.5071
G1 X139.6411 Y-36.3205
G1 Z0.0000 F2500.0
G4 P0.02
G0 X138.5552 Y-34.4271 F15000.0
G1 Z11.9000 F2500.0
G4 P0.02
G1 X139.2111 Y-37.1625 F2200.0
G1 X138.6007 Y-37.1625
G1 X137.2929 Y-34.4271
G1 Z0.0000 F2500.0
G4 P0.02
G0 X137.4018 Y-33.3178 F15000.0
G1 Z11.9000 F2500.0
G4 P0.02
G1 X137.4018 Y-18.2641 F12000.0
G1 Z0.0000 F2500.0
G4 P0.02
G0 X131.4542 Y-7.1874 F15000.0
G1 Z11.9000 F2500.0
G4 P0.02
G1 X130.7472 Y-6.2628 F2200.0
G1 X129.7991 Y-6.0960
G1 X129.2520 Y-6.5494
G1 X129.2066 Y-7.1874
G1 X129.7344 Y-8.2141
G1 X130.6673 Y-8.5930
G1 X131.3453 Y-8.3105
G1 X131.5465 Y-7.6050
G1 X131.4542 Y-7.1874
G1 Z0.0000 F2500.0
G4 P0.02
G0 X127.5998 Y-7.1874 F15000.0
G1 Z11.9000 F2500.0
G4 P0.02
G1 X126.8928 Y-6.2628 F2200.0
G1 X125.9448 Y-6.0960
G1 X125.3977 Y-6.5494
G1 X125.3508 Y-7.1874
G1 X125.8800 Y-8.2141
G1 X126.8129 Y-8.5930
G1 X127.4909 Y-8.3105
G1 X127.6921 Y-7.6050
G1 X127.5998 Y-7.1874
G1 Z0.0000 F2500.0
G4 P0.02
G0 X145.8161 Y-5.1204 F15000.0
G1 Z11.9000 F2500.0
G4 P0.02
G1 X147.4521 Y-5.0000 F2200.0
G1 Z0.0000 F2500.0
G4 P0.02
G0 X149.2901 Y-5.1204 F15000.0
G1 Z11.9000 F2500.0
G4 P0.02
G1 X151.6066 Y-5.1204 F2200.0
G1 Z0.0000 F2500.0
G4 P0.02
G0 X150.4477 Y-5.1204 F15000.0
G1 Z11.9000 F2500.0
G4 P0.02
G1 X150.4188 Y-5.0000 F2200.0
G1 Z0.0000 F2500.0
G4 P0.02
G0 X151.3034 Y-6.5687 F15000.0
G1 Z11.9000 F2500.0
G4 P0.02
G1 X152.5864 Y-11.9141 F2200.0
G1 X150.1183 Y-11.9141
G1 X148.8367 Y-6.5687
G1 Z0.0000 F2500.0
G4 P0.02
G0 X171.4848 Y-23.1892 F15000.0
G1 Z11.9000 F2500.0
G4 P0.02
G1 X172.7939 Y-28.6476 F2200.0
G1 X171.2326 Y-27.3909
G1 Z0.0000 F2500.0
G4 P0.02
G0 X173.3575 Y-25.7427 F15000.0
G1 Z11.9000 F2500.0
G4 P0.02
G1 X173.3424 Y-25.6780 F2200.0
G1 Z0.0000 F2500.0
G4 P0.02
G0 X172.7526 Y-23.2223 F15000.0
G1 Z11.9000 F2500.0
G4 P0.02
G1 X172.7374 Y-23.1575 F2200.0
G1 Z0.0000 F2500.0
G4 P0.02
G0 X175.7884 Y-23.1892 F15000.0
G1 Z11.9000 F2500.0
G4 P0.02
G1 X177.0975 Y-28.6476 F2200.0
G1 X175.5362 Y-27.3909
G1 Z0.0000 F2500.0
G4 P0.02
G0 X180.0000 Y-53.2759 F15000.0
G1 Z11.9000 F2500.0
G4 P0.02
G1 X0.0000 Y-53.2759 F12000.0
G1 Z0.0000 F2500.0
G4 P0.02
G0 X4.6250 Y-53.2759 F15000.0
G1 Z11.9000 F2500.0
G4 P0.02
G1 X4.6250 Y-28.3279 F12000.0
G1 Z0.0000 F2500.0
G4 P0.02
G0 X3.9663 Y-29.4166 F15000.0
G1 Z11.9000 F2500.0
G4 P0.02
G1 X3.9732 Y-29.4496 F2200.0
G1 Z0.0000 F2500.0
G4 P0.02
G0 X3.3379 Y-29.4331 F15000.0
G1 Z11.9000 F2500.0
G4 P0.02
G1 X3.7940 Y-31.3279 F2200.0
G1 X2.9341 Y-30.3784
G1 X2.5304 Y-31.3279
G1 X2.0756 Y-29.4331
G1 Z0.0000 F2500.0
G4 P0.02
G0 X1.1758 Y-30.3798 F15000.0
G1 Z11.9000 F2500.0
G4 P0.02
G1 X1.1441 Y-30.3798 F2200.0
G1 Z0.0000 F2500.0
G4 P0.02
G0 X1.0311 Y-31.2218 F15000.0
G1 Z11.9000 F2500.0
G4 P0.02
G1 X1.7380 Y-31.2122 F2200.0
G1 X1.4679 Y-30.4598
G1 X1.1758 Y-30.3798
G1 X1.5630 Y-29.9554
G1 X0.6783 Y-29.4304
G1 X0.5212 Y-29.5378
G1 Z0.0000 F2500.0
G4 P0.02
G0 X0.0000 Y-29.9947 F15000.0
G1 Z11.9000 F2500.0
G4 P0.02
G1 X0.5212 Y-32.1671 F2200.0
G1 X0.0000 Y-31.4247
G1 Z0.0000 F2500.0
G4 P0.02
G0 X5.3815 Y-29.4331 F15000.0
G1 Z11.9000 F2500.0
G4 P0.02
G1 X6.6893 Y-32.1685 F2200.0
G1 X7.3012 Y-32.1685
G1 X6.6438 Y-29.4331
G1 Z0.0000 F2500.0
G4 P0.02
G0 X7.7297 Y-31.3265 F15000.0
G1 Z11.9000 F2500.0
G4 P0.02
G1 X7.4679 Y-29.5130 F2200.0
G1 X7.6967 Y-29.4331
G1 X8.3278 Y-29.4331
G1 X8.7825 Y-31.3265
G1 Z0.0000 F2500.0
G4 P0.02
G0 X10.2557 Y-31.3265 F15000.0
G1 Z11.9000 F2500.0
G4 P0.02
G1 X9.3338 Y-30.9710 F2200.0
G1 X9.1519 Y-29.5130
G1 X9.3792 Y-29.4331
G1 X9.8009 Y-29.4331
G1 Z0.0000 F2500.0
G4 P0.02
G0 X10.4321 Y-29.4331 F15000.0
G1 Z11.9000 F2500.0
G4 P0.02
G1 X10.8868 Y-31.3265 F2200.0
G1 X12.4481 Y-31.1529
G1 X12.4688 Y-30.9062
G1 X12.1160 Y-29.4331
G1 Z0.0000 F2500.0
G4 P0.02
G0 X11.2740 Y-29.4331 F15000.0
G1 Z11.9000 F2500.0
G4 P0.02
G1 X11.7288 Y-31.3265 F2200.0
G1 Z0.0000 F2500.0
G4 P0.02
G0 X10.0283 Y-27.1745 F15000.0
G1 Z11.9000 F2500.0
G4 P0.02
G1 X8.9768 Y-27.1745 F2200.0
G1 X9.6535 Y-26.2085
G1 Z0.0000 F2500.0
G4 P0.02
G0 X9.4881 Y-24.9228 F15000.0
G1 Z11.9000 F2500.0
G4 P0.02
G1 X9.5915 Y-26.2774 F2200.0
G1 X8.7522 Y-26.0583
G1 X8.5552 Y-24.4928
G1 X9.3462 Y-24.6486
G1 X9.4881 Y-24.9228
G1 Z0.0000 F2500.0
G4 P0.02
G0 X10.0076 Y-24.4543 F15000.0
G1 Z11.9000 F2500.0
G4 P0.02
G1 X9.9994 Y-24.4226 F2200.0
G1 Z0.0000 F2500.0
G4 P0.02
G0 X7.6884 Y-24.4377 F15000.0
G1 Z11.9000 F2500.0
G4 P0.02
G1 X7.5740 Y-24.4777 F2200.0
G1 X7.9323 Y-26.3325
G1 X7.1000 Y-26.2871
G1 X6.5419 Y-24.9228
G1 X6.8381 Y-24.4074
G1 X7.5947 Y-24.9228
G1 Z0.0000 F2500.0
G4 P0.02
G0 X16.7697 Y-24.4377 F15000.0
G1 Z11.9000 F2500.0
G4 P0.02
G1 X17.4256 Y-27.1745 F2200.0
G1 X18.4784 Y-27.1745
G1 Z0.0000 F2500.0
G4 P0.02
G0 X18.9070 Y-26.3325 F15000.0
G1 Z11.9000 F2500.0
G4 P0.02
G1 X18.6452 Y-24.5190 F2200.0
G1 X18.8739 Y-24.4377
G1 X19.5051 Y-24.4377
G1 X19.9598 Y-26.3325
G1 Z0.0000 F2500.0
G4 P0.02
G0 X20.5910 Y-26.3325 F15000.0
G1 Z11.9000 F2500.0
G4 P0.02
G1 X20.1362 Y-24.4377 F2200.0
G1 Z0.0000 F2500.0
G4 P0.02
G0 X20.3636 Y-25.3858 F15000.0
G1 Z11.9000 F2500.0
G4 P0.02
G1 X21.4150 Y-25.3858 F2200.0
G1 Z0.0000 F2500.0
G4 P0.02
G0 X21.6424 Y-26.3325 F15000.0
G1 Z11.9000 F2500.0
G4 P0.02
G1 X21.1876 Y-24.4377 F2200.0
G1 Z0.0000 F2500.0
G4 P0.02
G0 X21.8188 Y-24.4377 F15000.0
G1 Z11.9000 F2500.0
G4 P0.02
G1 X22.2735 Y-26.3325 F2200.0
G1 X23.8362 Y-26.1589
G1 X23.8569 Y-25.9108
G1 X23.5028 Y-24.4377
G1 Z0.0000 F2500.0
G4 P0.02
G0 X22.6608 Y-24.4377 F15000.0
G1 Z11.9000 F2500.0
G4 P0.02
G1 X23.1155 Y-26.3325 F2200.0
G1 Z0.0000 F2500.0
G4 P0.02
G0 X24.3613 Y-25.3858 F15000.0
G1 Z11.9000 F2500.0
G4 P0.02
G1 X25.4141 Y-25.3858 F2200.0
G1 X25.5243 Y-25.8488
G1 X25.4871 Y-26.1809
G1 X24.7981 Y-26.2774
G1 X24.2345 Y-24.6679
G1 X25.1867 Y-24.4377
G1 Z0.0000 F2500.0
G4 P0.02
G0 X25.8179 Y-24.4377 F15000.0
G1 Z11.9000 F2500.0
G4 P0.02
G1 X26.6516 Y-24.4846 F2200.0
G1 X27.2235 Y-25.9108
G1 X27.2028 Y-26.1589
G1 X26.2726 Y-26.3325
G1 X25.6153 Y-23.5971
G1 Z0.0000 F2500.0
G4 P0.02
G0 X25.3796 Y-21.3385 F15000.0
G1 Z11.9000 F2500.0
G4 P0.02
G1 X24.9263 Y-19.4437 F2200.0
G1 Z0.0000 F2500.0
G4 P0.02
G0 X25.1523 Y-20.3904 F15000.0
G1 Z11.9000 F2500.0
G4 P0.02
G1 X24.1008 Y-20.3904 F2200.0
G1 Z0.0000 F2500.0
G4 P0.02
G0 X23.8734 Y-19.4437 F15000.0
G1 Z11.9000 F2500.0
G4 P0.02
G1 X24.3282 Y-21.3385 F2200.0
G1 Z0.0000 F2500.0
G4 P0.02
G0 X22.6456 Y-21.3385 F15000.0
G1 Z11.9000 F2500.0
G4 P0.02
G1 X22.1909 Y-19.4437 F2200.0
G1 X23.2823 Y-19.7441
G1 X23.1913 Y-20.3436
G1 X22.4182 Y-20.3904
G1 Z0.0000 F2500.0
G4 P0.02
G0 X21.5597 Y-19.4437 F15000.0
G1 Z11.9000 F2500.0
G4 P0.02
G1 X22.0145 Y-21.3385 F2200.0
G1 X21.4881 Y-21.3385
G1 X20.5083 Y-19.4437
G1 Z0.0000 F2500.0
G4 P0.02
G0 X19.8771 Y-19.4437 F15000.0
G1 Z11.9000 F2500.0
G4 P0.02
G1 X19.7614 Y-19.4837 F2200.0
G1 X20.1210 Y-21.3385
G1 X19.2873 Y-21.2917
G1 X18.7306 Y-19.9274
G1 X18.9607 Y-19.4327
G1 X19.7820 Y-19.9274
G1 Z0.0000 F2500.0
G4 P0.02
G0 X17.9823 Y-19.4437 F15000.0
G1 Z11.9000 F2500.0
G4 P0.02
G1 X17.5620 Y-19.4437 F2200.0
G1 X17.1996 Y-19.5815
G1 X17.4559 Y-21.6196
G1 X18.6397 Y-22.1791
G1 Z0.0000 F2500.0
G4 P0.02
G0 X19.2115 Y-29.4331 F15000.0
G1 Z11.9000 F2500.0
G4 P0.02
G1 X19.8689 Y-32.1671 F2200.0
G1 X20.4752 Y-29.4345
G1 X21.1311 Y-32.1685
G1 Z0.0000 F2500.0
G4 P0.02
G0 X21.3255 Y-31.2218 F15000.0
G1 Z11.9000 F2500.0
G4 P0.02
G1 X21.4963 Y-30.9131 F2200.0
G1 X21.9566 Y-31.2218
G1 X22.0475 Y-32.0996
G1 X21.5404 Y-31.9894
G1 X21.3255 Y-31.2218
G1 Z0.0000 F2500.0
G4 P0.02
G0 X24.6782 Y-32.1685 F15000.0
G1 Z11.9000 F2500.0
G4 P0.02
G1 X25.4210 Y-32.0486 F2200.0
G1 X25.4444 Y-31.8529
G1 X24.6534 Y-29.4869
G1 X23.9658 Y-29.5847
G1 X23.9272 Y-29.9168
G1 X24.4853 Y-31.2811
G1 X25.3176 Y-31.3265
G1 Z0.0000 F2500.0
G4 P0.02
G0 X26.6640 Y-29.9168 F15000.0
G1 Z11.9000 F2500.0
G4 P0.02
G1 X26.7659 Y-31.2728 F2200.0
G1 X25.9267 Y-31.0523
G1 X25.6856 Y-29.5323
G1 X26.4655 Y-29.5847
G1 X26.6640 Y-29.9168
G1 Z0.0000 F2500.0
G4 P0.02
G0 X27.3296 Y-30.0643 F15000.0
G1 Z11.9000 F2500.0
G4 P0.02
G1 X28.6856 Y-31.3265 F2200.0
G1 Z0.0000 F2500.0
G4 P0.02
G0 X29.3167 Y-31.3265 F15000.0
G1 Z11.9000 F2500.0
G4 P0.02
G1 X29.0549 Y-29.5130 F2200.0
G1 X29.2822 Y-29.4331
G1 X29.9148 Y-29.4331
G1 Z0.0000 F2500.0
G4 P0.02
G0 X30.5459 Y-29.4331 F15000.0
G1 Z11.9000 F2500.0
G4 P0.02
G1 X31.0007 Y-31.3279 F2200.0
G1 X31.4044 Y-30.3784
G1 X32.2629 Y-31.3279
G1 X31.8082 Y-29.4331
G1 Z0.0000 F2500.0
G4 P0.02
G0 X32.4352 Y-29.4166 F15000.0
G1 Z11.9000 F2500.0
G4 P0.02
G1 X32.4435 Y-29.4496 F2200.0
G1 Z0.0000 F2500.0
G4 P0.02
G0 X30.3681 Y-31.3265 F15000.0
G1 Z11.9000 F2500.0
G4 P0.02
G1 X29.6088 Y-28.6614 F2200.0
G1 X29.3966 Y-28.5911
G1 X28.7655 Y-28.5911
G1 Z0.0000 F2500.0
G4 P0.02
G0 X28.2308 Y-29.4331 F15000.0
G1 Z11.9000 F2500.0
G4 P0.02
G1 X27.7568 Y-30.4611 F2200.0
G1 Z0.0000 F2500.0
G4 P0.02
G0 X27.6327 Y-31.3265 F15000.0
G1 Z11.9000 F2500.0
G4 P0.02
G1 X27.1780 Y-29.4331 F2200.0
G1 Z0.0000 F2500.0
G4 P0.02
G0 X27.0636 Y-21.3385 F15000.0
G1 Z11.9000 F2500.0
G4 P0.02
G1 X26.6089 Y-19.4437 F2200.0
G1 X25.9777 Y-19.4437
G1 X25.7490 Y-19.5236
G1 X26.0122 Y-21.3385
G1 Z0.0000 F2500.0
G4 P0.02
G0 X27.6947 Y-21.3385 F15000.0
G1 Z11.9000 F2500.0
G4 P0.02
G1 X27.2400 Y-19.4437 F2200.0
G1 Z0.0000 F2500.0
G4 P0.02
G0 X27.3916 Y-20.0749 F15000.0
G1 Z11.9000 F2500.0
G4 P0.02
G1 X28.7476 Y-21.3385 F2200.0
G1 Z0.0000 F2500.0
G4 P0.02
G0 X27.8188 Y-20.4731 F15000.0
G1 Z11.9000 F2500.0
G4 P0.02
G1 X28.2928 Y-19.4437 F2200.0
G1 Z0.0000 F2500.0
G4 P0.02
G0 X30.0925 Y-19.9274 F15000.0
G1 Z11.9000 F2500.0
G4 P0.02
G1 X30.1945 Y-21.2834 F2200.0
G1 X29.4049 Y-21.1277
G1 X29.2630 Y-20.8534
G1 X29.1596 Y-19.4988
G1 X29.9988 Y-19.7179
G1 X30.0925 Y-19.9274
G1 Z0.0000 F2500.0
G4 P0.02
G0 X30.9455 Y-20.8534 F15000.0
G1 Z11.9000 F2500.0
G4 P0.02
G1 X31.0875 Y-21.1277 F2200.0
G1 X31.8785 Y-21.2834
G1 X31.7751 Y-19.9274
G1 X31.5781 Y-19.5967
G1 X30.7981 Y-19.5429
G1 X31.1977 Y-21.9063
G1 X31.4485 Y-22.1915
G1 X31.8330 Y-22.0358
G1 X31.1522 Y-21.1952
G1 Z0.0000 F2500.0
G4 P0.02
G0 X33.4591 Y-19.9274 F15000.0
G1 Z11.9000 F2500.0
G4 P0.02
G1 X32.6378 Y-19.4327 F2200.0
G1 X32.4076 Y-19.9274
G1 X32.9644 Y-21.2917
G1 X33.7981 Y-21.3385
G1 X33.4384 Y-19.4837
G1 X33.5542 Y-19.4437
G1 Z0.0000 F2500.0
G4 P0.02
G0 X41.8748 Y-29.4331 F15000.0
G1 Z11.9000 F2500.0
G4 P0.02
G1 X42.5307 Y-32.1685 F2200.0
G1 X43.7930 Y-32.1685
G1 X43.1370 Y-29.4331
G1 Z0.0000 F2500.0
G4 P0.02
G0 X44.9368 Y-29.9168 F15000.0
G1 Z11.9000 F2500.0
G4 P0.02
G1 X45.0387 Y-31.2728 F2200.0
G1 X44.2009 Y-31.0523
G1 X43.9584 Y-29.5323
G1 X44.7383 Y-29.5847
G1 X44.9368 Y-29.9168
G1 Z0.0000 F2500.0
G4 P0.02
G0 X47.1347 Y-29.4331 F15000.0
G1 Z11.9000 F2500.0
G4 P0.02
G1 X47.5895 Y-31.3265 F2200.0
G1 X48.5417 Y-31.0964
G1 X48.1876 Y-29.4331
G1 Z0.0000 F2500.0
G4 P0.02
G0 X48.8146 Y-29.4166 F15000.0
G1 Z11.9000 F2500.0
G4 P0.02
G1 X48.8228 Y-29.4496 F2200.0
G1 Z0.0000 F2500.0
G4 P0.02
G0 X46.9583 Y-31.3265 F15000.0
G1 Z11.9000 F2500.0
G4 P0.02
G1 X46.1246 Y-31.2811 F2200.0
G1 X45.5679 Y-29.9168
G1 X45.6065 Y-29.5847
G1 X46.2941 Y-29.4869
G1 X47.0851 Y-31.8529
G1 X47.0617 Y-32.0486
G1 X46.3189 Y-32.1685
G1 Z0.0000 F2500.0
G4 P0.02
G0 X53.4820 Y-29.2223 F15000.0
G1 Z11.9000 F2500.0
G4 P0.02
G1 X53.5316 Y-29.4331 F2200.0
G1 X55.0047 Y-29.4331
G1 X54.9551 Y-29.2223
G1 X54.7953 Y-29.4331
G1 X55.4512 Y-32.1685
G1 X54.8201 Y-32.1685
G1 X53.7424 Y-29.4331
G1 Z0.0000 F2500.0
G4 P0.02
G0 X56.8044 Y-29.9168 F15000.0
G1 Z11.9000 F2500.0
G4 P0.02
G1 X56.0479 Y-29.4014 F2200.0
G1 X55.7530 Y-29.9168
G1 X56.3097 Y-31.2811
G1 X57.1434 Y-31.3265
G1 X56.7838 Y-29.4717
G1 X56.8995 Y-29.4331
G1 Z0.0000 F2500.0
G4 P0.02
G0 X57.5307 Y-29.4331 F15000.0
G1 Z11.9000 F2500.0
G4 P0.02
G1 X57.9854 Y-31.3265 F2200.0
G1 X59.5467 Y-31.1529
G1 X59.5674 Y-30.9062
G1 X59.2132 Y-29.4331
G1 Z0.0000 F2500.0
G4 P0.02
G0 X58.3726 Y-29.4331 F15000.0
G1 Z11.9000 F2500.0
G4 P0.02
G1 X58.8260 Y-31.3265 F2200.0
G1 Z0.0000 F2500.0
G4 P0.02
G0 X62.5564 Y-43.2976 F15000.0
G1 Z11.9000 F2500.0
G4 P0.02
G1 X0.0000 Y-43.2976 F12000.0
G1 Z0.0000 F2500.0
G4 P0.02
G0 X0.0000 Y-48.2874 F15000.0
G1 Z11.9000 F2500.0
G4 P0.02
G1 X62.5564 Y-48.2874 F12000.0
G1 Z0.0000 F2500.0
G4 P0.02
G0 X52.5766 Y-53.2759 F15000.0
G1 Z11.9000 F2500.0
G4 P0.02
G1 X52.5766 Y-5.0000 F12000.0
G1 Z0.0000 F2500.0
G4 P0.02
G0 X62.5564 Y-8.2857 F15000.0
G1 Z11.9000 F2500.0
G4 P0.02
G1 X0.0000 Y-8.2857 F12000.0
G1 Z0.0000 F2500.0
G4 P0.02
G0 X0.3076 Y-7.1971 F15000.0
G1 Z11.9000 F2500.0
G4 P0.02
G1 X0.0000 Y-5.9170 F2200.0
G1 X1.2667 Y-5.9348
G1 Z0.0000 F2500.0
G4 P0.02
G0 X1.0419 Y-5.0000 F15000.0
G1 Z11.9000 F2500.0
G4 P0.02
G1 X1.5699 Y-7.1971 F2200.0
G1 Z0.0000 F2500.0
G4 P0.02
G0 X2.8928 Y-6.3551 F15000.0
G1 Z11.9000 F2500.0
G4 P0.02
G1 X2.5673 Y-5.0000 F2200.0
G1 X2.5896 Y-5.0928
G1 X3.9443 Y-6.3551
G1 Z0.0000 F2500.0
G4 P0.02
G0 X3.0155 Y-5.4897 F15000.0
G1 Z11.9000 F2500.0
G4 P0.02
G1 X3.2413 Y-5.0000 F2200.0
G1 Z0.0000 F2500.0
G4 P0.02
G0 X4.4173 Y-5.0000 F15000.0
G1 Z11.9000 F2500.0
G4 P0.02
G1 X4.5533 Y-6.0809 F2200.0
G1 X5.3926 Y-6.3014
G1 X5.2934 Y-5.0000
G1 Z0.0000 F2500.0
G4 P0.02
G0 X5.9339 Y-5.0000 F15000.0
G1 Z11.9000 F2500.0
G4 P0.02
G1 X6.2594 Y-6.3551 F2200.0
G1 Z0.0000 F2500.0
G4 P0.02
G0 X6.0320 Y-5.4084 F15000.0
G1 Z11.9000 F2500.0
G4 P0.02
G1 X7.0834 Y-5.4084 F2200.0
G1 Z0.0000 F2500.0
G4 P0.02
G0 X6.9863 Y-5.0000 F15000.0
G1 Z11.9000 F2500.0
G4 P0.02
G1 X7.3108 Y-6.3551 F2200.0
G1 Z0.0000 F2500.0
G4 P0.02
G0 X7.6179 Y-5.0000 F15000.0
G1 Z11.9000 F2500.0
G4 P0.02
G1 X7.9433 Y-6.3551 F2200.0
G1 X9.5046 Y-6.1815
G1 X9.5253 Y-5.9348
G1 X9.3006 Y-5.0000
G1 Z0.0000 F2500.0
G4 P0.02
G0 X9.9321 Y-5.0000 F15000.0
G1 Z11.9000 F2500.0
G4 P0.02
G1 X10.2570 Y-6.3551 F2200.0
G1 X11.2093 Y-6.1250
G1 X10.8106 Y-5.0000
G1 Z0.0000 F2500.0
G4 P0.02
G0 X8.4585 Y-5.0000 F15000.0
G1 Z11.9000 F2500.0
G4 P0.02
G1 X8.7839 Y-6.3551 F2200.0
G1 Z0.0000 F2500.0
G4 P0.02
G0 X14.6048 Y-5.0000 F15000.0
G1 Z11.9000 F2500.0
G4 P0.02
G1 X14.6048 Y-53.2759 F12000.0
G1 Z0.0000 F2500.0
G4 P0.02
G0 X37.6084 Y-53.2759 F15000.0
G1 Z11.9000 F2500.0
G4 P0.02
G1 X37.6084 Y-5.0000 F12000.0
G1 Z0.0000 F2500.0
G4 P0.02
G0 X1.5410 Y-14.4332 F15000.0
G1 Z11.9000 F2500.0
G4 P0.02
G1 X1.5478 Y-14.4662 F2200.0
G1 Z0.0000 F2500.0
G4 P0.02
G0 X79.6895 Y-21.9242 F15000.0
G1 Z11.9000 F2500.0
G4 P0.02
G1 X81.5788 Y-29.7955 F12000.0
G1 X82.9844 Y-25.5581
G1 X86.4240 Y-29.7955
G1 X84.5347 Y-21.9242
G1 Z0.0000 F2500.0
G4 P0.02
G0 X89.7147 Y-23.3160 F15000.0
G1 Z11.9000 F2500.0
G4 P0.02
G1 X89.3055 Y-22.5291 F2200.0
G1 X88.3656 Y-21.8897
G1 X87.5361 Y-21.8346
G1 X86.9008 Y-22.2094
G1 X86.6445 Y-22.9081
G1 X87.5182 Y-26.5379
G1 X88.1038 Y-27.1428
G1 X88.8714 Y-27.3743
G1 X90.6890 Y-27.3743
G1 X89.5080 Y-22.3417
G1 X89.6555 Y-22.0372
G1 X89.9862 Y-21.9242
G1 Z0.0000 F2500.0
G4 P0.02
G0 X91.8025 Y-21.9242 F15000.0
G1 Z11.9000 F2500.0
G4 P0.02
G1 X96.1392 Y-27.3743 F2200.0
G1 Z0.0000 F2500.0
G4 P0.02
G0 X93.1116 Y-27.3743 F15000.0
G1 Z11.9000 F2500.0
G4 P0.02
G1 X94.8314 Y-21.9242 F2200.0
G1 Z0.0000 F2500.0
G4 P0.02
G0 X100.0101 Y-23.3160 F15000.0
G1 Z11.9000 F2500.0
G4 P0.02
G1 X100.6922 Y-26.3904 F2200.0
G1 X100.4345 Y-27.0877
G1 X99.7992 Y-27.4639
G1 X98.9710 Y-27.4074
G1 X98.1911 Y-26.9375
G1 X97.6853 Y-26.1878
G1 X96.9398 Y-22.9081
G1 X97.1975 Y-22.2094
G1 X97.8328 Y-21.8346
G1 X98.6610 Y-21.8897
G1 X99.6008 Y-22.5291
G1 X100.0101 Y-23.3160
G1 Z0.0000 F2500.0
G4 P0.02
G0 X102.4671 Y-25.9811 F15000.0
G1 Z11.9000 F2500.0
G4 P0.02
G1 X102.5305 Y-26.1878 F2200.0
G1 X103.0362 Y-26.9375
G1 X103.8162 Y-27.4074
G1 X104.6444 Y-27.4639
G1 X105.2797 Y-27.0877
G1 X105.5374 Y-26.3904
G1 X104.8553 Y-23.3160
G1 X104.4460 Y-22.5291
G1 X103.5062 Y-21.8897
G1 X102.6780 Y-21.8346
G1 X102.0427 Y-22.2094
G1 X101.7850 Y-22.9081
G1 X103.1933 Y-29.0101
G1 X103.5323 Y-29.5806
G1 X104.1235 Y-29.8975
G1 X104.7064 Y-29.8203
G1 X104.9572 Y-29.5599
G1 X105.0358 Y-29.1878
G1 X104.8070 Y-28.5898
G1 X103.0624 Y-26.9623
G1 Z0.0000 F2500.0
G4 P0.02
G0 X107.6472 Y-27.3743 F15000.0
G1 Z11.9000 F2500.0
G4 P0.02
G1 X106.5985 Y-22.7607 F2200.0
G1 X106.8920 Y-22.1543
G1 X107.5493 Y-21.9242
G1 X109.3670 Y-21.9242
G1 X110.6747 Y-27.3743
G1 Z0.0000 F2500.0
G4 P0.02
G0 X112.4923 Y-27.3743 F15000.0
G1 Z11.9000 F2500.0
G4 P0.02
G1 X111.1832 Y-21.9242 F2200.0
G1 Z0.0000 F2500.0
G4 P0.02
G0 X111.6200 Y-23.7404 F15000.0
G1 Z11.9000 F2500.0
G4 P0.02
G1 X115.5199 Y-27.3743 F2200.0
G1 Z0.0000 F2500.0
G4 P0.02
G0 X112.8465 Y-24.8842 F15000.0
G1 Z11.9000 F2500.0
G4 P0.02
G1 X114.2121 Y-21.9242 F2200.0
G1 Z0.0000 F2500.0
G4 P0.02
G0 X113.6554 Y-42.5107 F15000.0
G1 Z11.9000 F2500.0
G4 P0.02
G1 X115.2884 Y-49.3141 F2200.0
G1 X117.9053 Y-49.3141
G1 Z0.0000 F2500.0
G4 P0.02
G0 X113.7174 Y-49.3141 F15000.0
G1 Z11.9000 F2500.0
G4 P0.02
G1 X112.0858 Y-42.5107 F2200.0
G1 Z0.0000 F2500.0
G4 P0.02
G0 X108.9453 Y-42.5107 F15000.0
G1 Z11.9000 F2500.0
G4 P0.02
G1 X110.5782 Y-49.3141 F2200.0
G1 Z0.0000 F2500.0
G4 P0.02
G0 X109.0087 Y-49.3141 F15000.0
G1 Z11.9000 F2500.0
G4 P0.02
G1 X104.8635 Y-45.1262 F2200.0
G1 Z0.0000 F2500.0
G4 P0.02
G0 X106.2099 Y-46.4877 F15000.0
G1 Z11.9000 F2500.0
G4 P0.02
G1 X107.3757 Y-42.5107 F2200.0
G1 Z0.0000 F2500.0
G4 P0.02
G0 X104.2351 Y-42.5107 F15000.0
G1 Z11.9000 F2500.0
G4 P0.02
G1 X105.8681 Y-49.3141 F2200.0
G1 Z0.0000 F2500.0
G4 P0.02
G0 X109.8245 Y-46.1735 F15000.0
G1 Z11.9000 F2500.0
G4 P0.02
G1 X112.9650 Y-46.1735 F2200.0
G1 Z0.0000 F2500.0
G4 P0.02
G0 X117.8515 Y-42.5520 F15000.0
G1 Z11.9000 F2500.0
G4 P0.02
G1 X117.8322 Y-42.4694 F2200.0
G1 Z0.0000 F2500.0
G4 P0.02
G0 X120.4023 Y-43.9232 F15000.0
G1 Z11.9000 F2500.0
G4 P0.02
G1 X120.4422 Y-43.0881 F2200.0
G1 X120.9521 Y-42.5093
G1 X121.7734 Y-42.3632
G1 X122.8152 Y-42.8139
G1 X123.4905 Y-43.7482
G1 X124.5336 Y-48.4197
G1 X124.2002 Y-49.1280
G1 X123.4767 Y-49.4615
G1 X122.4101 Y-49.2300
G1 X121.5695 Y-48.4197
G1 X121.3573 Y-47.9016
G1 Z0.0000 F2500.0
G4 P0.02
G0 X125.8194 Y-42.5107 F15000.0
G1 Z11.9000 F2500.0
G4 P0.02
G1 X128.1028 Y-44.5654 F2200.0
G1 X129.2507 Y-48.2502
G1 X129.0136 Y-49.0109
G1 X128.3536 Y-49.4312
G1 X127.2952 Y-49.3155
G1 X126.3857 Y-48.5823
G1 X125.8703 Y-47.0444
G1 X126.0081 Y-46.2397
G1 X126.5979 Y-45.7367
G1 X128.6430 Y-45.6512
G1 Z0.0000 F2500.0
G4 P0.02
G0 X129.4932 Y-42.5520 F15000.0
G1 Z11.9000 F2500.0
G4 P0.02
G1 X129.4725 Y-42.4694 F2200.0
G1 Z0.0000 F2500.0
G4 P0.02
G0 X132.0440 Y-43.9232 F15000.0
G1 Z11.9000 F2500.0
G4 P0.02
G1 X132.0839 Y-43.0881 F2200.0
G1 X132.5924 Y-42.5093
G1 X133.4151 Y-42.3632
G1 X134.4569 Y-42.8139
G1 X135.1308 Y-43.7482
G1 X136.1739 Y-48.4197
G1 X135.8418 Y-49.1280
G1 X135.1184 Y-49.4615
G1 X134.0518 Y-49.2300
G1 X133.2098 Y-48.4197
G1 X132.9976 Y-47.9016
G1 Z0.0000 F2500.0
G4 P0.02
G0 X137.3150 Y-46.1735 F15000.0
G1 Z11.9000 F2500.0
G4 P0.02
G1 X139.0361 Y-46.1639 F2200.0
G1 X139.7596 Y-45.8304
G1 X140.0917 Y-45.1221
G1 X139.6810 Y-43.4050
G1 X138.8391 Y-42.5948
G1 X137.7725 Y-42.3632
G1 X137.0504 Y-42.6967
G1 X136.7169 Y-43.4050
G1 X137.2309 Y-45.9117
G1 X137.8551 Y-47.2608
G1 X140.1399 Y-49.3141
G1 Z0.0000 F2500.0
G4 P0.02
G0 X143.1882 Y-34.4437 F15000.0
G1 Z11.9000 F2500.0
G4 P0.02
G1 X143.1813 Y-34.4106 F2200.0
G1 Z0.0000 F2500.0
G4 P0.02
G0 X141.5717 Y-90.9529 F15000.0
G1 Z11.9000 F2500.0
G4 P0.02
G1 X140.6732 Y-90.9529 F2200.0
G1 Z0.0000 F2500.0
G4 P0.02
G0 X140.3342 Y-91.5454 F15000.0
G1 Z11.9000 F2500.0
G4 P0.02
G1 X141.2341 Y-91.5454 F2200.0
G1 Z0.0000 F2500.0
G4 P0.02
G0 X168.6116 Y-142.5852 F15000.0
G1 Z11.9000 F2500.0
G4 P0.02
G1 X169.0470 Y-144.7460 F2200.0
G1 X168.7067 Y-145.2366
G1 X167.9239 Y-145.2903
G1 X167.1329 Y-144.6178
G1 X166.5955 Y-142.1856
G1 X166.9359 Y-141.6950
G1 X167.7186 Y-141.6413
G1 X168.5096 Y-142.3151
G1 X168.6116 Y-142.5852
G1 Z0.0000 F2500.0
G4 P0.02
G0 X156.5413 Y-188.7164 F15000.0
G1 Z11.9000 F2500.0
G4 P0.02
G1 X155.6415 Y-188.7164 F2200.0
G1 Z0.0000 F2500.0
G4 P0.02
G0 X155.3452 Y-189.3503 F15000.0
G1 Z11.9000 F2500.0
G4 P0.02
G1 X156.2451 Y-189.3503 F2200.0
G1 Z0.0000 F2500.0
G4 P0.02
G0 X163.5404 Y-212.4352 F15000.0
G1 Z11.9000 F2500.0
G4 P0.02
G1 X162.2836 Y-213.9966 F2200.0
G1 X167.7420 Y-212.6874
G1 Z0.0000 F2500.0
G4 P0.02
G0 X166.6079 Y-214.2184 F15000.0
G1 Z11.9000 F2500.0
G4 P0.02
G1 X167.4981 Y-214.3741 F2200.0
G1 X167.8592 Y-215.0370
G1 X167.5932 Y-216.0278
G1 X166.6079 Y-216.7389
G1 X162.8679 Y-217.5119
G1 X162.2795 Y-217.0641
G1 X162.2258 Y-216.1146
G1 X162.9988 Y-215.1555
G1 X163.4150 Y-214.9846
G1 Z0.0000 F2500.0
G4 P0.02
G0 X152.7931 Y-219.3737 F15000.0
G1 Z11.9000 F2500.0
G4 P0.02
G1 X146.5354 Y-213.1146 F2200.0
G1 Z0.0000 F2500.0
G4 P0.02
G0 X146.5354 Y-217.3438 F15000.0
G1 Z11.9000 F2500.0
G4 P0.02
G1 X148.5639 Y-219.3737 F2200.0
G1 Z0.0000 F2500.0
G4 P0.02
G0 X84.9495 Y-197.0315 F15000.0
G1 Z11.9000 F2500.0
G4 P0.02
G1 X82.8494 Y-197.0315 F2200.0
G1 X82.2444 Y-194.5111
G1 X83.6004 Y-194.3857
G1 X84.0483 Y-193.7973
G1 X84.0427 Y-193.2502
G1 X83.5880 Y-192.1602
G1 X82.5214 Y-191.5786
G1 X81.5388 Y-191.5704
G1 Z0.0000 F2500.0
G4 P0.02
G0 X80.2779 Y-191.5704 F15000.0
G1 Z11.9000 F2500.0
G4 P0.02
G1 X81.5885 Y-197.0288 F2200.0
G1 X80.0271 Y-195.7706
G1 Z0.0000 F2500.0
G4 P0.02
G0 X85.1714 Y-192.7045 F15000.0
G1 Z11.9000 F2500.0
G4 P0.02
G1 X85.3271 Y-191.8143 F2200.0
G1 X85.9899 Y-191.4532
G1 X86.9807 Y-191.7192
G1 X87.6918 Y-192.7045
G1 X88.4649 Y-196.4445
G1 X88.0170 Y-197.0329
G1 X87.0675 Y-197.0867
G1 X86.1084 Y-196.3136
G1 X85.9375 Y-195.8974
G1 Z0.0000 F2500.0
G4 P0.02
G0 X49.1839 Y-274.4718 F15000.0
G1 Z11.9000 F2500.0
G4 P0.02
G1 X50.8169 Y-281.2752 F2200.0
G1 Z0.0000 F2500.0
G4 P0.02
G0 X50.1885 Y-278.6596 F15000.0
G1 Z11.9000 F2500.0
G4 P0.02
G1 X46.0433 Y-274.4718 F2200.0
G1 Z0.0000 F2500.0
G4 P0.02
G0 X44.4737 Y-274.4718 F15000.0
G1 Z11.9000 F2500.0
G4 P0.02
G1 X46.1067 Y-281.2752 F2200.0
G1 Z0.0000 F2500.0
G4 P0.02
G0 X47.6763 Y-281.2752 F15000.0
G1 Z11.9000 F2500.0
G4 P0.02
G1 X48.8421 Y-277.2995 F2200.0
G1 Z0.0000 F2500.0
G4 P0.02
G0 X45.2275 Y-277.6123 F15000.0
G1 Z11.9000 F2500.0
G4 P0.02
G1 X42.0870 Y-277.6123 F2200.0
G1 Z0.0000 F2500.0
G4 P0.02
G0 X41.3332 Y-274.4718 F15000.0
G1 Z11.9000 F2500.0
G4 P0.02
G1 X42.9662 Y-281.2752 F2200.0
G1 Z0.0000 F2500.0
G4 P0.02
G0 X41.3966 Y-281.2752 F15000.0
G1 Z11.9000 F2500.0
G4 P0.02
G1 X39.7636 Y-274.4718 F2200.0
G1 X37.1467 Y-274.4718
G1 Z0.0000 F2500.0
G4 P0.02
G0 X34.6497 Y-279.8627 F15000.0
G1 Z11.9000 F2500.0
G4 P0.02
G1 X34.6097 Y-280.6978 F2200.0
G1 X34.0999 Y-281.2765
G1 X33.0980 Y-281.3937
G1 X32.0866 Y-280.8411
G1 X31.5092 Y-279.8627
G1 X30.5183 Y-275.3661
G1 X30.8518 Y-274.6578
G1 X31.5753 Y-274.3257
G1 X32.6419 Y-274.5558
G1 X33.4825 Y-275.3661
G1 X33.6947 Y-275.8857
G1 Z0.0000 F2500.0
G4 P0.02
G0 X37.2005 Y-281.2352 F15000.0
G1 Z11.9000 F2500.0
G4 P0.02
G1 X37.2197 Y-281.3165 F2200.0
G1 Z0.0000 F2500.0
G4 P0.02
G0 X29.2326 Y-281.2752 F15000.0
G1 Z11.9000 F2500.0
G4 P0.02
G1 X26.9492 Y-279.2205 F2200.0
G1 X25.8013 Y-275.5356
G1 X26.0383 Y-274.7750
G1 X26.6984 Y-274.3547
G1 X27.7568 Y-274.4704
G1 X28.6663 Y-275.2035
G1 X29.1816 Y-276.7414
G1 X29.0438 Y-277.5462
G1 X28.4540 Y-278.0492
G1 X26.4090 Y-278.1360
G1 Z0.0000 F2500.0
G4 P0.02
G0 X25.5588 Y-281.2352 F15000.0
G1 Z11.9000 F2500.0
G4 P0.02
G1 X25.5781 Y-281.3165 F2200.0
G1 Z0.0000 F2500.0
G4 P0.02
G0 X23.0080 Y-279.8627 F15000.0
G1 Z11.9000 F2500.0
G4 P0.02
G1 X22.9681 Y-280.6978 F2200.0
G1 X22.4596 Y-281.2765
G1 X21.4564 Y-281.3937
G1 X20.4463 Y-280.8411
G1 X19.8689 Y-279.8627
G1 X18.8781 Y-275.3661
G1 X19.2102 Y-274.6578
G1 X19.9336 Y-274.3257
G1 X21.0002 Y-274.5558
G1 X21.8408 Y-275.3661
G1 X22.0544 Y-275.8857
G1 Z0.0000 F2500.0
G4 P0.02
G0 X14.9121 Y-274.4718 F15000.0
G1 Z11.9000 F2500.0
G4 P0.02
G1 X18.3351 Y-280.3808 F2200.0
G1 X18.0016 Y-281.0905
G1 X17.2795 Y-281.4226
G1 X16.2129 Y-281.1925
G1 X15.3709 Y-280.3808
G1 X14.9603 Y-278.6638
G1 X15.2924 Y-277.9555
G1 X16.0159 Y-277.6220
G1 X17.7370 Y-277.6123
G1 X14.9121 Y-274.4718
G1 X17.1968 Y-276.5251
G1 X17.8211 Y-277.8742
G1 Z0.0000 F2500.0
G4 P0.02
G0 X0.0000 Y-271.0460 F15000.0
G1 Z11.9000 F2500.0
G4 P0.02
G1 X67.5462 Y-271.0460 F12000.0
G1 X67.5462 Y-285.0000
G1 Z0.0000 F2500.0
G4 P0.02
G0 X0.0000 Y-285.0000 F15000.0
G1 Z11.9000 F2500.0
G4 P0.02
G1 X180.0000 Y-285.0000 F12000.0
G1 Z0.0000 F2500.0
G4 P0.02
G0 X17.6488 Y-128.4603 F15000.0
G1 Z11.9000 F2500.0
G4 P0.02
G1 X3.9484 Y-128.4603 F2200.0
G1 Z0.0000 F2500.0
G4 P0.02
G0 X26.0797 Y-91.5454 F15000.0
G1 Z11.9000 F2500.0
G4 P0.02
G1 X26.9782 Y-91.5454 F2200.0
G1 Z0.0000 F2500.0
G4 P0.02
G0 X26.5978 Y-90.9529 F15000.0
G1 Z11.9000 F2500.0
G4 P0.02
G1 X25.6993 Y-90.9529 F2200.0
G1 Z0.0000 F2500.0
G4 P0.02

G0 Z0.0000 F800.0
G4 P0.06
G0 X0.0000 Y0.0000 F15000.0
M5
G4 P0.10
