$X
$1=255
G21
G90
G92 Z4.0000
G0 Z0.0000 F800.0
G4 P0.06
G92 Z0.0000
G0 Z0.0000 F800.0
G0 X-3.000 Y5.000 F15000.0
G21
G90
G17
G91.1
G0 Z0.0000
G0 X21.305 Y-130.154 F15000.0
G1 Z11.9000 F2500.0
G4 P0.02
G1 X15.301 Y-130.492 F2200.0
G1 X15.385 Y-129.478
G1 X15.724 Y-128.548
G1 X16.399 Y-127.786
G1 X17.331 Y-127.278
G1 X18.261 Y-127.109
G1 X19.275 Y-127.278
G1 X20.121 Y-127.786
G1 X20.798 Y-128.548
G1 X21.221 Y-129.478
G1 X21.305 Y-130.154
G1 X21.136 Y-131.084
G1 X20.628 Y-132.015
G1 X19.868 Y-132.691
G1 X18.938 Y-133.029
G1 X17.922 Y-133.114
G1 X16.992 Y-132.859
G1 X16.146 Y-132.268
G1 X15.639 Y-131.422
G1 Z0.0000 F2500.0
G4 P0.02
G0 X16.738 Y-130.154 F15000.0
G1 Z11.9000 F2500.0
G4 P0.02
G1 X30.523 Y-130.154 F2200.0
G1 Z0.0000 F2500.0
G4 P0.02
G0 X32.045 Y-130.154 F15000.0
G1 Z11.9000 F2500.0
G4 P0.02
G1 X33.483 Y-130.154 F2200.0
G1 Z0.0000 F2500.0
G4 P0.02
G0 X35.005 Y-130.154 F15000.0
G1 Z11.9000 F2500.0
G4 P0.02
G1 X48.790 Y-130.154 F2200.0
G1 Z0.0000 F2500.0
G4 P0.02
G0 X50.313 Y-130.154 F15000.0
G1 Z11.9000 F2500.0
G4 P0.02
G1 X51.750 Y-130.154 F2200.0
G1 Z0.0000 F2500.0
G4 P0.02
G0 X53.273 Y-130.154 F15000.0
G1 Z11.9000 F2500.0
G4 P0.02
G1 X67.057 Y-130.154 F2200.0
G1 Z0.0000 F2500.0
G4 P0.02
G0 X68.496 Y-130.154 F15000.0
G1 Z11.9000 F2500.0
G4 P0.02
G1 X70.017 Y-130.154 F2200.0
G1 Z0.0000 F2500.0
G4 P0.02
G0 X71.540 Y-130.154 F15000.0
G1 Z11.9000 F2500.0
G4 P0.02
G1 X85.241 Y-130.154 F2200.0
G1 Z0.0000 F2500.0
G4 P0.02
G0 X86.762 Y-130.154 F15000.0
G1 Z11.9000 F2500.0
G4 P0.02
G1 X88.285 Y-130.154 F2200.0
G1 Z0.0000 F2500.0
G4 P0.02
G0 X89.807 Y-130.154 F15000.0
G1 Z11.9000 F2500.0
G4 P0.02
G1 X103.508 Y-130.154 F2200.0
G1 Z0.0000 F2500.0
G4 P0.02
G0 X105.029 Y-130.154 F15000.0
G1 Z11.9000 F2500.0
G4 P0.02
G1 X106.552 Y-130.154 F2200.0
G1 Z0.0000 F2500.0
G4 P0.02
G0 X107.989 Y-130.154 F15000.0
G1 Z11.9000 F2500.0
G4 P0.02
G1 X121.775 Y-130.154 F2200.0
G1 Z0.0000 F2500.0
G4 P0.02
G0 X123.296 Y-130.154 F15000.0
G1 Z11.9000 F2500.0
G4 P0.02
G1 X124.735 Y-130.154 F2200.0
G1 Z0.0000 F2500.0
G4 P0.02
G0 X126.256 Y-130.154 F15000.0
G1 Z11.9000 F2500.0
G4 P0.02
G1 X140.042 Y-130.154 F2200.0
G1 Z0.0000 F2500.0
G4 P0.02
G0 X141.142 Y-130.154 F15000.0
G1 Z11.9000 F2500.0
G4 P0.02
G1 X140.973 Y-131.084 F2200.0
G1 X140.465 Y-132.015
G1 X139.789 Y-132.691
G1 X138.859 Y-133.029
G1 X137.843 Y-133.114
G1 X136.829 Y-132.859
G1 X136.067 Y-132.268
G1 X135.476 Y-131.422
G1 X135.222 Y-130.492
G1 X135.222 Y-129.478
G1 X135.644 Y-128.548
G1 X136.320 Y-127.786
G1 X137.166 Y-127.278
G1 X138.182 Y-127.109
G1 X139.112 Y-127.278
G1 X140.042 Y-127.786
G1 X140.719 Y-128.548
G1 X141.057 Y-129.478
G1 Z0.0000 F2500.0
G4 P0.02
G0 X143.171 Y-130.154 F15000.0
G1 Z11.9000 F2500.0
G4 P0.02
G1 X138.182 Y-130.154 F2200.0
G1 Z0.0000 F2500.0
G4 P0.02
G0 X138.182 Y-125.925 F15000.0
G1 Z11.9000 F2500.0
G4 P0.02
G1 X138.182 Y-134.805 F2200.0
G1 Z0.0000 F2500.0
G4 P0.02
G0 X138.182 Y-136.328 F15000.0
G1 Z11.9000 F2500.0
G4 P0.02
G1 X138.182 Y-137.765 F2200.0
G1 Z0.0000 F2500.0
G4 P0.02
G0 X138.182 Y-139.288 F15000.0
G1 Z11.9000 F2500.0
G4 P0.02
G1 X138.182 Y-148.167 F2200.0
G1 Z0.0000 F2500.0
G4 P0.02
G0 X141.088 Y-135.239 F15000.0
G1 Z11.9000 F2500.0
G4 P0.02
G1 X141.787 Y-134.541 F2200.0
G1 X141.553 Y-134.902
G1 X142.253 Y-134.202
G1 Z0.0000 F2500.0
G4 P0.02
G0 X144.524 Y-130.154 F15000.0
G1 Z11.9000 F2500.0
G4 P0.02
G1 X158.310 Y-130.154 F2200.0
G1 Z0.0000 F2500.0
G4 P0.02
G0 X157.389 Y-143.357 F15000.0
G1 Z11.9000 F2500.0
G4 P0.02
G1 X154.984 Y-143.357 F2200.0
G1 X158.035 Y-146.838
G1 X158.282 Y-147.210
G1 X158.348 Y-148.121
G1 X157.843 Y-148.616
G1 X156.908 Y-148.571
G1 X156.043 Y-147.766
G1 Z0.0000 F2500.0
G4 P0.02
G0 X156.426 Y-152.618 F15000.0
G1 Z11.9000 F2500.0
G4 P0.02
G1 X159.416 Y-158.078 F2200.0
G1 Z0.0000 F2500.0
G4 P0.02
G0 X158.683 Y-156.738 F15000.0
G1 Z11.9000 F2500.0
G4 P0.02
G1 X159.329 Y-156.180 F2200.0
G1 X159.322 Y-155.118
G1 X158.405 Y-154.103
G1 X157.286 Y-153.921
G1 X156.572 Y-154.406
G1 X156.471 Y-155.439
G1 X157.304 Y-156.513
G1 X158.556 Y-156.775
G1 X158.683 Y-156.738
G1 Z0.0000 F2500.0
G4 P0.02
G0 X159.999 Y-155.557 F15000.0
G1 Z11.9000 F2500.0
G4 P0.02
G1 X161.242 Y-155.557 F2200.0
G1 X161.759 Y-155.432
G1 X162.205 Y-154.843
G1 X161.898 Y-153.336
G1 X160.939 Y-152.563
G1 X159.989 Y-152.616
G1 X159.542 Y-153.205
G1 X160.079 Y-155.762
G1 X162.267 Y-158.078
G1 Z0.0000 F2500.0
G4 P0.02
G0 X166.666 Y-146.962 F15000.0
G1 Z11.9000 F2500.0
G4 P0.02
G1 X165.801 Y-143.357 F2200.0
G1 Z0.0000 F2500.0
G4 P0.02
G0 X164.198 Y-143.357 F15000.0
G1 Z11.9000 F2500.0
G4 P0.02
G1 X165.063 Y-146.962 F2200.0
G1 X167.810 Y-146.875
G1 X168.096 Y-146.410
G1 X167.403 Y-143.357
G1 Z0.0000 F2500.0
G4 P0.02
G0 X169.249 Y-146.042 F15000.0
G1 Z11.9000 F2500.0
G4 P0.02
G1 X169.351 Y-146.312 F2200.0
G1 X170.142 Y-146.984
G1 X170.924 Y-146.931
G1 X171.265 Y-146.440
G1 X170.727 Y-144.009
G1 X169.936 Y-143.335
G1 X169.153 Y-143.389
G1 X168.813 Y-143.880
G1 X169.730 Y-148.044
G1 X170.073 Y-148.517
G1 X170.614 Y-148.628
G1 X170.895 Y-148.408
G1 X170.876 Y-147.893
G1 X169.643 Y-146.689
G1 Z0.0000 F2500.0
G4 P0.02
G0 X171.817 Y-143.389 F15000.0
G1 Z11.9000 F2500.0
G4 P0.02
G1 X171.802 Y-143.326 F2200.0
G1 Z0.0000 F2500.0
G4 P0.02
G0 X173.108 Y-150.028 F15000.0
G1 Z11.9000 F2500.0
G4 P0.02
G1 X153.150 Y-150.028 F12000.0
G1 X139.957 Y-132.522
G1 X142.410 Y-136.919
G1 X142.663 Y-136.159
G1 X143.510 Y-136.159
G1 X139.957 Y-132.522
G1 X136.320 Y-127.702
G1 X133.869 Y-123.388
G1 X133.615 Y-124.149
G1 X132.853 Y-124.149
G1 X136.320 Y-127.702
G1 X132.177 Y-122.119
G1 Z0.0000 F2500.0
G4 P0.02
G0 X134.853 Y-125.407 F15000.0
G1 Z11.9000 F2500.0
G4 P0.02
G1 X134.153 Y-126.106 F2200.0
G1 X134.576 Y-125.852
G1 X135.276 Y-125.154
G1 Z0.0000 F2500.0
G4 P0.02
G0 X138.182 Y-124.402 F15000.0
G1 Z11.9000 F2500.0
G4 P0.02
G1 X138.182 Y-122.881 F2200.0
G1 Z0.0000 F2500.0
G4 P0.02
G0 X138.182 Y-121.442 F15000.0
G1 Z11.9000 F2500.0
G4 P0.02
G1 X138.182 Y-112.478 F2200.0
G1 Z0.0000 F2500.0
G4 P0.02
G0 X138.182 Y-114.508 F15000.0
G1 Z11.9000 F2500.0
G4 P0.02
G1 X138.182 Y-90.913 F12000.0
G1 Z0.0000 F2500.0
G4 P0.02
G0 X138.182 Y-92.943 F15000.0
G1 Z11.9000 F2500.0
G4 P0.02
G1 X133.192 Y-93.534 F12000.0
G1 X133.699 Y-92.943
G1 X133.192 Y-92.267
G1 X138.182 Y-92.943
G1 X18.261 Y-92.943
G1 X23.250 Y-92.267
G1 X22.828 Y-92.943
G1 X23.250 Y-93.534
G1 X18.261 Y-92.943
G1 Z0.0000 F2500.0
G4 P0.02
G0 X18.261 Y-90.913 F15000.0
G1 Z11.9000 F2500.0
G4 P0.02
G1 X18.261 Y-114.171 F12000.0
G1 Z0.0000 F2500.0
G4 P0.02
G0 X18.261 Y-112.141 F15000.0
G1 Z11.9000 F2500.0
G4 P0.02
G1 X18.261 Y-121.021 F2200.0
G1 Z0.0000 F2500.0
G4 P0.02
G0 X18.261 Y-122.542 F15000.0
G1 Z11.9000 F2500.0
G4 P0.02
G1 X18.261 Y-124.065 F2200.0
G1 Z0.0000 F2500.0
G4 P0.02
G0 X18.261 Y-125.588 F15000.0
G1 Z11.9000 F2500.0
G4 P0.02
G1 X18.261 Y-134.466 F2200.0
G1 Z0.0000 F2500.0
G4 P0.02
G0 X18.261 Y-135.989 F15000.0
G1 Z11.9000 F2500.0
G4 P0.02
G1 X18.261 Y-137.512 F2200.0
G1 Z0.0000 F2500.0
G4 P0.02
G0 X18.261 Y-138.949 F15000.0
G1 Z11.9000 F2500.0
G4 P0.02
G1 X18.261 Y-147.913 F2200.0
G1 Z0.0000 F2500.0
G4 P0.02
G0 X12.595 Y-144.023 F15000.0
G1 Z11.9000 F2500.0
G4 P0.02
G1 X13.862 Y-139.119 F2200.0
G1 Z0.0000 F2500.0
G4 P0.02
G0 X12.595 Y-144.023
G1 Z11.9000 F2500.0
G4 P0.02
G1 X15.131 Y-139.626
G1 X14.285 Y-139.795
G1 Z0.0000 F2500.0
G4 P0.02
G0 X13.905 Y-142.232 F15000.0
G1 Z11.9000 F2500.0
G4 P0.02
G1 X13.905 Y-141.333 F2200.0
G1 Z0.0000 F2500.0
G4 P0.02
G0 X13.482 Y-141.079 F15000.0
G1 Z11.9000 F2500.0
G4 P0.02
G1 X13.482 Y-141.978 F2200.0
G1 Z0.0000 F2500.0
G4 P0.02
G0 X13.271 Y-130.154 F15000.0
G1 Z11.9000 F2500.0
G4 P0.02
G1 X18.261 Y-130.154 F12000.0
G1 X8.704 Y-153.410
G1 X-3.000 Y-153.410
G1 Z0.0000 F2500.0
G4 P0.02
G0 X-2.815 Y-155.997 F15000.0
G1 Z11.9000 F2500.0
G4 P0.02
G1 X-1.504 Y-161.457 F2200.0
G1 X0.180 Y-161.294
G1 X0.677 Y-160.597
G1 X0.466 Y-159.505
G1 X-0.588 Y-158.622
G1 X-1.160 Y-158.516
G1 X-2.210 Y-158.516
G1 Z0.0000 F2500.0
G4 P0.02
G0 X-1.161 Y-158.516 F15000.0
G1 Z11.9000 F2500.0
G4 P0.02
G1 X-0.294 Y-155.997 F2200.0
G1 Z0.0000 F2500.0
G4 P0.02
G0 X2.226 Y-155.997 F15000.0
G1 Z11.9000 F2500.0
G4 P0.02
G1 X3.535 Y-161.454 F2200.0
G1 X1.974 Y-160.197
G1 Z0.0000 F2500.0
G4 P0.02
G0 X3.486 Y-155.997 F15000.0
G1 Z11.9000 F2500.0
G4 P0.02
G1 X4.470 Y-156.004 F2200.0
G1 X5.535 Y-156.585
G1 X5.990 Y-157.677
G1 X5.995 Y-158.222
G1 X5.549 Y-158.811
G1 X4.191 Y-158.936
G1 X4.796 Y-161.457
G1 X6.896 Y-161.457
G1 Z0.0000 F2500.0
G4 P0.02
G0 X3.291 Y-188.677 F15000.0
G1 Z11.9000 F2500.0
G4 P0.02
G1 X3.291 Y-216.078 F12000.0
G1 Z0.0000 F2500.0
G4 P0.02
G0 X3.291 Y-216.839 F15000.0
G1 Z11.9000 F2500.0
G4 P0.02
G1 X7.521 Y-221.068 F2200.0
G1 Z0.0000 F2500.0
G4 P0.02
G0 X11.832 Y-221.068 F15000.0
G1 Z11.9000 F2500.0
G4 P0.02
G1 X3.291 Y-212.525 F2200.0
G1 Z0.0000 F2500.0
G4 P0.02
G0 X3.291 Y-211.088 F15000.0
G1 Z11.9000 F2500.0
G4 P0.02
G1 X153.150 Y-211.088 F12000.0
G1 X153.150 Y-221.068
G1 X3.291 Y-221.068
G1 X3.291 Y-211.088
G1 Z0.0000 F2500.0
G4 P0.02
G0 X6.082 Y-211.088 F15000.0
G1 Z11.9000 F2500.0
G4 P0.02
G1 X15.301 Y-220.306 F2200.0
G1 Z0.0000 F2500.0
G4 P0.02
G0 X15.301 Y-221.068 F15000.0
G1 Z11.9000 F2500.0
G4 P0.02
G1 X15.301 Y-211.088 F2200.0
G1 Z0.0000 F2500.0
G4 P0.02
G0 X15.301 Y-211.849 F15000.0
G1 Z11.9000 F2500.0
G4 P0.02
G1 X14.539 Y-211.088 F2200.0
G1 Z0.0000 F2500.0
G4 P0.02
G0 X10.311 Y-211.088 F15000.0
G1 Z11.9000 F2500.0
G4 P0.02
G1 X15.301 Y-216.078 F2200.0
G1 Z0.0000 F2500.0
G4 P0.02
G0 X21.305 Y-217.854 F15000.0
G1 Z11.9000 F2500.0
G4 P0.02
G1 X24.519 Y-221.068 F2200.0
G1 Z0.0000 F2500.0
G4 P0.02
G0 X21.305 Y-221.068 F15000.0
G1 Z11.9000 F2500.0
G4 P0.02
G1 X21.305 Y-211.088 F2200.0
G1 Z0.0000 F2500.0
G4 P0.02
G0 X22.996 Y-211.088 F15000.0
G1 Z11.9000 F2500.0
G4 P0.02
G1 X32.976 Y-221.068 F2200.0
G1 Z0.0000 F2500.0
G4 P0.02
G0 X28.748 Y-221.068 F15000.0
G1 Z11.9000 F2500.0
G4 P0.02
G1 X21.305 Y-213.625 F2200.0
G1 Z0.0000 F2500.0
G4 P0.02
G0 X18.261 Y-208.381 F15000.0
G1 Z11.9000 F2500.0
G4 P0.02
G1 X18.261 Y-224.619 F12000.0
G1 Z0.0000 F2500.0
G4 P0.02
G0 X27.225 Y-211.088 F15000.0
G1 Z11.9000 F2500.0
G4 P0.02
G1 X37.205 Y-221.068 F2200.0
G1 Z0.0000 F2500.0
G4 P0.02
G0 X41.433 Y-221.068 F15000.0
G1 Z11.9000 F2500.0
G4 P0.02
G1 X31.453 Y-211.088 F2200.0
G1 Z0.0000 F2500.0
G4 P0.02
G0 X35.682 Y-211.088 F15000.0
G1 Z11.9000 F2500.0
G4 P0.02
G1 X45.662 Y-221.068 F2200.0
G1 Z0.0000 F2500.0
G4 P0.02
G0 X49.890 Y-221.068 F15000.0
G1 Z11.9000 F2500.0
G4 P0.02
G1 X39.910 Y-211.088 F2200.0
G1 Z0.0000 F2500.0
G4 P0.02
G0 X44.139 Y-211.088 F15000.0
G1 Z11.9000 F2500.0
G4 P0.02
G1 X54.203 Y-221.068 F2200.0
G1 Z0.0000 F2500.0
G4 P0.02
G0 X58.431 Y-221.068 F15000.0
G1 Z11.9000 F2500.0
G4 P0.02
G1 X48.452 Y-211.088 F2200.0
G1 Z0.0000 F2500.0
G4 P0.02
G0 X52.680 Y-211.088 F15000.0
G1 Z11.9000 F2500.0
G4 P0.02
G1 X62.660 Y-221.068 F2200.0
G1 Z0.0000 F2500.0
G4 P0.02
G0 X66.888 Y-221.068 F15000.0
G1 Z11.9000 F2500.0
G4 P0.02
G1 X56.910 Y-211.088 F2200.0
G1 Z0.0000 F2500.0
G4 P0.02
G0 X61.137 Y-211.088 F15000.0
G1 Z11.9000 F2500.0
G4 P0.02
G1 X71.117 Y-221.068 F2200.0
G1 Z0.0000 F2500.0
G4 P0.02
G0 X74.670 Y-220.391 F15000.0
G1 Z11.9000 F2500.0
G4 P0.02
G1 X65.367 Y-211.088 F2200.0
G1 Z0.0000 F2500.0
G4 P0.02
G0 X69.594 Y-211.088 F15000.0
G1 Z11.9000 F2500.0
G4 P0.02
G1 X74.670 Y-216.162 F2200.0
G1 Z0.0000 F2500.0
G4 P0.02
G0 X74.670 Y-211.934 F15000.0
G1 Z11.9000 F2500.0
G4 P0.02
G1 X73.823 Y-211.088 F2200.0
G1 Z0.0000 F2500.0
G4 P0.02
G0 X78.221 Y-211.088 F15000.0
G1 Z11.9000 F2500.0
G4 P0.02
G1 X81.773 Y-221.068 F12000.0
G1 X81.773 Y-211.088
G1 X78.221 Y-221.068
G1 X78.221 Y-211.088
G1 X74.670 Y-221.068
G1 X74.670 Y-211.088
G1 X78.221 Y-221.068
G1 Z0.0000 F2500.0
G4 P0.02
G0 X81.773 Y-218.952 F15000.0
G1 Z11.9000 F2500.0
G4 P0.02
G1 X83.803 Y-221.068 F2200.0
G1 Z0.0000 F2500.0
G4 P0.02
G0 X88.031 Y-221.068 F15000.0
G1 Z11.9000 F2500.0
G4 P0.02
G1 X81.773 Y-214.725 F2200.0
G1 Z0.0000 F2500.0
G4 P0.02
G0 X82.281 Y-211.088 F15000.0
G1 Z11.9000 F2500.0
G4 P0.02
G1 X92.344 Y-221.068 F2200.0
G1 Z0.0000 F2500.0
G4 P0.02
G0 X96.572 Y-221.068 F15000.0
G1 Z11.9000 F2500.0
G4 P0.02
G1 X86.594 Y-211.088 F2200.0
G1 Z0.0000 F2500.0
G4 P0.02
G0 X90.822 Y-211.088 F15000.0
G1 Z11.9000 F2500.0
G4 P0.02
G1 X100.801 Y-221.068 F2200.0
G1 Z0.0000 F2500.0
G4 P0.02
G0 X105.029 Y-221.068 F15000.0
G1 Z11.9000 F2500.0
G4 P0.02
G1 X95.051 Y-211.088 F2200.0
G1 Z0.0000 F2500.0
G4 P0.02
G0 X99.279 Y-211.088 F15000.0
G1 Z11.9000 F2500.0
G4 P0.02
G1 X109.258 Y-221.068 F2200.0
G1 Z0.0000 F2500.0
G4 P0.02
G0 X113.486 Y-221.068 F15000.0
G1 Z11.9000 F2500.0
G4 P0.02
G1 X103.508 Y-211.088 F2200.0
G1 Z0.0000 F2500.0
G4 P0.02
G0 X107.736 Y-211.088 F15000.0
G1 Z11.9000 F2500.0
G4 P0.02
G1 X117.715 Y-221.068 F2200.0
G1 Z0.0000 F2500.0
G4 P0.02
G0 X121.945 Y-221.068 F15000.0
G1 Z11.9000 F2500.0
G4 P0.02
G1 X111.965 Y-211.088 F2200.0
G1 Z0.0000 F2500.0
G4 P0.02
G0 X116.193 Y-211.088 F15000.0
G1 Z11.9000 F2500.0
G4 P0.02
G1 X126.172 Y-221.068 F2200.0
G1 Z0.0000 F2500.0
G4 P0.02
G0 X130.486 Y-221.068 F15000.0
G1 Z11.9000 F2500.0
G4 P0.02
G1 X120.422 Y-211.088 F2200.0
G1 Z0.0000 F2500.0
G4 P0.02
G0 X124.735 Y-211.088 F15000.0
G1 Z11.9000 F2500.0
G4 P0.02
G1 X134.714 Y-221.068 F2200.0
G1 Z0.0000 F2500.0
G4 P0.02
G0 X135.137 Y-221.068 F15000.0
G1 Z11.9000 F2500.0
G4 P0.02
G1 X135.137 Y-211.088 F2200.0
G1 Z0.0000 F2500.0
G4 P0.02
G0 X133.192 Y-211.088 F15000.0
G1 Z11.9000 F2500.0
G4 P0.02
G1 X135.137 Y-213.032 F2200.0
G1 Z0.0000 F2500.0
G4 P0.02
G0 X135.137 Y-217.262 F15000.0
G1 Z11.9000 F2500.0
G4 P0.02
G1 X128.963 Y-211.088 F2200.0
G1 Z0.0000 F2500.0
G4 P0.02
G0 X138.182 Y-207.789 F15000.0
G1 Z11.9000 F2500.0
G4 P0.02
G1 X138.182 Y-223.858 F12000.0
G1 Z0.0000 F2500.0
G4 P0.02
G0 X141.142 Y-221.068 F15000.0
G1 Z11.9000 F2500.0
G4 P0.02
G1 X141.142 Y-211.088 F2200.0
G1 Z0.0000 F2500.0
G4 P0.02
G0 X141.649 Y-211.088 F15000.0
G1 Z11.9000 F2500.0
G4 P0.02
G1 X151.628 Y-221.068 F2200.0
G1 Z0.0000 F2500.0
G4 P0.02
G0 X153.150 Y-221.068 F15000.0
G1 Z11.9000 F2500.0
G4 P0.02
G1 X166.935 Y-221.068 F2200.0
G1 Z0.0000 F2500.0
G4 P0.02
G0 X165.244 Y-223.155 F15000.0
G1 Z11.9000 F2500.0
G4 P0.02
G1 X165.244 Y-224.054 F2200.0
G1 Z0.0000 F2500.0
G4 P0.02
G0 X164.610 Y-224.350 F15000.0
G1 Z11.9000 F2500.0
G4 P0.02
G1 X164.610 Y-223.450 F2200.0
G1 Z0.0000 F2500.0
G4 P0.02
G0 X164.906 Y-228.002 F15000.0
G1 Z11.9000 F2500.0
G4 P0.02
G1 X164.906 Y-221.068 F12000.0
G1 X165.583 Y-226.056
G1 X164.906 Y-225.549
G1 X164.230 Y-226.056
G1 X164.906 Y-221.068
G1 X164.906 Y-211.088
G1 X164.230 Y-206.014
G1 X164.906 Y-206.521
G1 X165.583 Y-206.014
G1 X164.906 Y-211.088
G1 X164.906 Y-204.068
G1 Z0.0000 F2500.0
G4 P0.02
G0 X164.610 Y-207.848 F15000.0
G1 Z11.9000 F2500.0
G4 P0.02
G1 X164.610 Y-208.747 F2200.0
G1 Z0.0000 F2500.0
G4 P0.02
G0 X165.244 Y-209.043 F15000.0
G1 Z11.9000 F2500.0
G4 P0.02
G1 X165.244 Y-208.143 F2200.0
G1 Z0.0000 F2500.0
G4 P0.02
G0 X166.935 Y-211.088 F15000.0
G1 Z11.9000 F2500.0
G4 P0.02
G1 X153.150 Y-211.088 F2200.0
G1 Z0.0000 F2500.0
G4 P0.02
G0 X153.150 Y-214.048 F15000.0
G1 Z11.9000 F2500.0
G4 P0.02
G1 X150.106 Y-211.088 F2200.0
G1 Z0.0000 F2500.0
G4 P0.02
G0 X145.877 Y-211.088 F15000.0
G1 Z11.9000 F2500.0
G4 P0.02
G1 X153.150 Y-218.276 F2200.0
G1 Z0.0000 F2500.0
G4 P0.02
G0 X153.150 Y-216.078 F15000.0
G1 Z11.9000 F2500.0
G4 P0.02
G1 X153.150 Y-188.677 F12000.0
G1 Z0.0000 F2500.0
G4 P0.02
G0 X153.150 Y-190.707 F15000.0
G1 Z11.9000 F2500.0
G4 P0.02
G1 X148.160 Y-191.383 F12000.0
G1 X148.667 Y-190.707
G1 X148.160 Y-190.030
G1 X153.150 Y-190.707
G1 X3.291 Y-190.707
G1 X8.281 Y-190.030
G1 X7.774 Y-190.707
G1 X8.281 Y-191.383
G1 X3.291 Y-190.707
G1 Z0.0000 F2500.0
G4 P0.02
G0 X5.336 Y-190.411 F15000.0
G1 Z11.9000 F2500.0
G4 P0.02
G1 X6.236 Y-190.411 F2200.0
G1 Z0.0000 F2500.0
G4 P0.02
G0 X6.574 Y-191.044 F15000.0
G1 Z11.9000 F2500.0
G4 P0.02
G1 X5.675 Y-191.044 F2200.0
G1 Z0.0000 F2500.0
G4 P0.02
G0 X54.417 Y-188.816 F15000.0
G1 Z11.9000 F2500.0
G4 P0.02
G1 X50.088 Y-184.488 F12000.0
G1 X54.035 Y-178.047
G1 X56.070 Y-180.049
G1 X57.090 Y-180.584
G1 X57.816 Y-180.692
G1 X58.540 Y-180.593
G1 X59.223 Y-180.293
G1 X60.101 Y-179.499
G1 X61.201 Y-177.705
G1 X61.596 Y-176.428
G1 X61.633 Y-175.044
G1 X61.305 Y-173.709
G1 X60.651 Y-172.575
G1 X58.642 Y-170.532
G1 Z0.0000 F2500.0
G4 P0.02
G0 X56.993 Y-164.743 F15000.0
G1 Z11.9000 F2500.0
G4 P0.02
G1 X52.089 Y-159.839 F12000.0
G1 X56.063 Y-162.883
G1 X55.303 Y-162.967
G1 X55.133 Y-163.813
G1 X52.089 Y-159.839
G1 X48.536 Y-156.286
G1 X44.562 Y-153.242
G1 X45.407 Y-153.072
G1 X45.492 Y-152.312
G1 X48.536 Y-156.286
G1 X43.632 Y-151.296
G1 Z0.0000 F2500.0
G4 P0.02
G0 X46.496 Y-154.521 F15000.0
G1 Z11.9000 F2500.0
G4 P0.02
G1 X47.194 Y-153.822 F2200.0
G1 Z0.0000 F2500.0
G4 P0.02
G0 X46.899 Y-154.329 F15000.0
G1 Z11.9000 F2500.0
G4 P0.02
G1 X46.199 Y-155.029 F2200.0
G1 Z0.0000 F2500.0
G4 P0.02
G0 X47.183 Y-157.723 F15000.0
G1 Z11.9000 F2500.0
G4 P0.02
G1 X76.445 Y-128.378 F12000.0
G1 Z0.0000 F2500.0
G4 P0.02
G0 X78.221 Y-126.602 F15000.0
G1 Z11.9000 F2500.0
G4 P0.02
G1 X81.773 Y-130.154 F2200.0
G1 X78.221 Y-133.706
G1 X74.670 Y-130.154
G1 Z0.0000 F2500.0
G4 P0.02
G0 X78.221 Y-124.318 F15000.0
G1 Z11.9000 F2500.0
G4 P0.02
G1 X78.221 Y-130.154 F12000.0
G1 X99.618 Y-164.151
G1 X114.925 Y-164.151
G1 Z0.0000 F2500.0
G4 P0.02
G0 X112.573 Y-169.448 F15000.0
G1 Z11.9000 F2500.0
G4 P0.02
G1 X112.725 Y-170.794 F2200.0
G1 X112.612 Y-171.509
G1 X112.341 Y-171.976
G1 X111.944 Y-172.139
G1 X111.470 Y-171.976
G1 X110.974 Y-171.509
G1 X110.322 Y-170.368
G1 X109.932 Y-168.981
G1 X109.907 Y-167.717
G1 X110.102 Y-167.116
G1 X110.441 Y-166.796
G1 X110.883 Y-166.796
G1 X111.376 Y-167.116
G1 X112.079 Y-168.101
G1 X112.573 Y-169.448
G1 Z0.0000 F2500.0
G4 P0.02
G0 X107.913 Y-166.716 F15000.0
G1 Z11.9000 F2500.0
G4 P0.02
G1 X105.393 Y-166.716 F2200.0
G1 X108.591 Y-170.367
G1 X108.850 Y-170.758
G1 X108.919 Y-171.713
G1 X108.389 Y-172.231
G1 X107.409 Y-172.185
G1 X106.502 Y-171.340
G1 Z0.0000 F2500.0
G4 P0.02
G0 X103.265 Y-169.237 F15000.0
G1 Z11.9000 F2500.0
G4 P0.02
G1 X104.132 Y-166.716 F2200.0
G1 Z0.0000 F2500.0
G4 P0.02
G0 X101.612 Y-166.716 F15000.0
G1 Z11.9000 F2500.0
G4 P0.02
G1 X102.922 Y-172.178 F2200.0
G1 X104.608 Y-172.014
G1 X105.104 Y-171.318
G1 X104.894 Y-170.226
G1 X103.839 Y-169.343
G1 X103.267 Y-169.237
G1 X102.217 Y-169.237
G1 Z0.0000 F2500.0
G4 P0.02
G0 X88.877 Y-147.068 F15000.0
G1 Z11.9000 F2500.0
G4 P0.02
G1 X85.664 Y-143.178 F2200.0
G1 Z0.0000 F2500.0
G4 P0.02
G0 X88.877 Y-147.068
G1 Z11.9000 F2500.0
G4 P0.02
G1 X86.762 Y-142.502
G1 X86.424 Y-143.262
G1 Z0.0000 F2500.0
G4 P0.02
G0 X90.484 Y-145.883 F15000.0
G1 Z11.9000 F2500.0
G4 P0.02
G1 X89.554 Y-146.560 F12000.0
G1 X87.355 Y-147.913
G1 X84.987 Y-148.929
G1 X82.450 Y-149.689
G1 X79.913 Y-150.028
G1 X78.221 Y-150.113
G1 X76.530 Y-150.028
G1 X17.076 Y-145.039
G1 X14.793 Y-144.700
G1 X12.679 Y-144.023
G1 X10.649 Y-143.009
G1 X8.788 Y-141.739
G1 X7.182 Y-140.218
G1 X5.828 Y-138.442
G1 X4.729 Y-136.412
G1 X3.884 Y-134.382
G1 X3.461 Y-132.183
G1 X3.291 Y-129.899
G1 X3.545 Y-127.617
G1 X4.052 Y-125.502
G1 X4.898 Y-123.388
G1 X6.082 Y-121.442
G1 X7.521 Y-119.751
G1 X9.211 Y-118.229
G1 X11.072 Y-117.045
G1 X13.102 Y-116.031
G1 X15.301 Y-115.438
G1 X17.076 Y-115.185
G1 X76.530 Y-110.195
G1 X79.913 Y-110.195
G1 X139.450 Y-115.185
G1 X141.142 Y-115.438
G1 X143.340 Y-116.031
G1 X145.370 Y-117.045
G1 X147.230 Y-118.229
G1 X148.923 Y-119.751
G1 X150.360 Y-121.442
G1 X151.543 Y-123.388
G1 X152.390 Y-125.502
G1 X152.897 Y-127.617
G1 X153.150 Y-129.899
G1 X152.981 Y-132.183
G1 X152.559 Y-134.382
G1 X151.713 Y-136.412
G1 X150.613 Y-138.442
G1 X149.260 Y-140.218
G1 X147.653 Y-141.739
G1 X145.793 Y-143.009
G1 X143.763 Y-144.023
G1 X141.649 Y-144.700
G1 X139.450 Y-145.039
G1 X79.913 Y-150.028
G1 Z0.0000 F2500.0
G4 P0.02
G0 X78.221 Y-152.142 F15000.0
G1 Z11.9000 F2500.0
G4 P0.02
G1 X78.221 Y-140.472 F2200.0
G1 Z0.0000 F2500.0
G4 P0.02
G0 X78.221 Y-138.949 F15000.0
G1 Z11.9000 F2500.0
G4 P0.02
G1 X78.221 Y-137.426 F2200.0
G1 Z0.0000 F2500.0
G4 P0.02
G0 X78.221 Y-135.989 F15000.0
G1 Z11.9000 F2500.0
G4 P0.02
G1 X78.221 Y-130.154 F2200.0
G1 Z0.0000 F2500.0
G4 P0.02
G0 X79.997 Y-131.929 F15000.0
G1 Z11.9000 F2500.0
G4 P0.02
G1 X50.650 Y-161.190 F12000.0
G1 Z0.0000 F2500.0
G4 P0.02
G0 X53.430 Y-162.217 F15000.0
G1 Z11.9000 F2500.0
G4 P0.02
G1 X54.130 Y-161.518 F2200.0
G1 X53.980 Y-161.921
G1 X54.680 Y-161.222
G1 Z0.0000 F2500.0
G4 P0.02
G0 X55.640 Y-163.306 F15000.0
G1 Z11.9000 F2500.0
G4 P0.02
G1 X64.436 Y-172.186 F2200.0
G1 Z0.0000 F2500.0
G4 P0.02
G0 X48.936 Y-165.887 F15000.0
G1 Z11.9000 F2500.0
G4 P0.02
G1 X50.116 Y-176.897 F12000.0
G1 X45.200 Y-171.982
G1 X48.936 Y-165.887
G1 X53.852 Y-170.802
G1 Z0.0000 F2500.0
G4 P0.02
G0 X74.675 Y-193.264 F15000.0
G1 Z11.9000 F2500.0
G4 P0.02
G1 X75.986 Y-198.723 F2200.0
G1 X74.423 Y-197.465
G1 Z0.0000 F2500.0
G4 P0.02
G0 X75.936 Y-193.264 F15000.0
G1 Z11.9000 F2500.0
G4 P0.02
G1 X76.775 Y-193.264 F2200.0
G1 X77.875 Y-193.738
G1 X78.439 Y-194.944
G1 X78.444 Y-195.491
G1 X77.998 Y-196.080
G1 X76.642 Y-196.205
G1 X77.246 Y-198.726
G1 X79.347 Y-198.726
G1 Z0.0000 F2500.0
G4 P0.02
G0 X82.695 Y-195.996 F15000.0
G1 Z11.9000 F2500.0
G4 P0.02
G1 X82.848 Y-197.341 F2200.0
G1 X82.735 Y-198.057
G1 X82.464 Y-198.524
G1 X82.067 Y-198.687
G1 X81.593 Y-198.524
G1 X80.860 Y-197.725
G1 X80.278 Y-196.463
G1 X80.003 Y-195.074
G1 X80.107 Y-193.933
G1 X80.379 Y-193.466
G1 X80.776 Y-193.303
G1 X81.250 Y-193.466
G1 X81.746 Y-193.933
G1 X82.398 Y-195.074
G1 X82.695 Y-195.996
G1 Z0.0000 F2500.0
G4 P0.02
G0 X86.920 Y-145.387 F15000.0
G1 Z11.9000 F2500.0
G4 P0.02
G1 X87.619 Y-144.689 F2200.0
G1 X87.651 Y-144.334
G1 X87.651 Y-145.234
G1 Z0.0000 F2500.0
G4 P0.02
G0 X78.221 Y-122.796 F15000.0
G1 Z11.9000 F2500.0
G4 P0.02
G1 X78.221 Y-121.274 F2200.0
G1 Z0.0000 F2500.0
G4 P0.02
G0 X78.221 Y-119.836 F15000.0
G1 Z11.9000 F2500.0
G4 P0.02
G1 X78.221 Y-108.165 F2200.0
G1 Z0.0000 F2500.0
G4 P0.02
G0 X76.835 Y-100.106 F15000.0
G1 Z11.9000 F2500.0
G4 P0.02
G1 X77.741 Y-100.950 F2200.0
G1 X78.721 Y-100.998
G1 X79.252 Y-100.478
G1 X79.183 Y-99.523
G1 X78.924 Y-99.133
G1 X75.725 Y-95.483
G1 X78.246 Y-95.483
G1 Z0.0000 F2500.0
G4 P0.02
G0 X74.466 Y-95.483 F15000.0
G1 Z11.9000 F2500.0
G4 P0.02
G1 X75.775 Y-100.941 F2200.0
G1 X74.213 Y-99.683
G1 Z0.0000 F2500.0
G4 P0.02
G0 X82.905 Y-98.213 F15000.0
G1 Z11.9000 F2500.0
G4 P0.02
G1 X83.058 Y-99.559 F2200.0
G1 X82.945 Y-100.276
G1 X82.675 Y-100.743
G1 X82.278 Y-100.906
G1 X81.802 Y-100.743
G1 X81.071 Y-99.944
G1 X80.489 Y-98.681
G1 X80.213 Y-97.292
G1 X80.317 Y-96.151
G1 X80.588 Y-95.684
G1 X80.985 Y-95.522
G1 X81.459 Y-95.684
G1 X82.192 Y-96.483
G1 X82.774 Y-97.746
G1 Z0.0000 F2500.0
G4 P0.02
G0 X57.163 Y-54.970 F15000.0
G1 Z11.9000 F2500.0
G4 P0.02
G1 X57.163 Y0.000 F12000.0
G1 Z0.0000 F2500.0
G4 P0.02
G0 X57.163 Y-4.990 F15000.0
G1 Z11.9000 F2500.0
G4 P0.02
G1 X-3.000 Y-4.990 F12000.0
G1 Z0.0000 F2500.0
G4 P0.02
G0 X-2.955 Y-6.156 F15000.0
G1 Z11.9000 F2500.0
G4 P0.02
G1 X-2.501 Y-8.049 F2200.0
G1 Z0.0000 F2500.0
G4 P0.02
G0 X-2.378 Y-7.184 F15000.0
G1 Z11.9000 F2500.0
G4 P0.02
G1 X-1.904 Y-6.156 F2200.0
G1 Z0.0000 F2500.0
G4 P0.02
G0 X-2.804 Y-6.787 F15000.0
G1 Z11.9000 F2500.0
G4 P0.02
G1 X-1.449 Y-8.049 F2200.0
G1 Z0.0000 F2500.0
G4 P0.02
G0 X-0.104 Y-6.639 F15000.0
G1 Z11.9000 F2500.0
G4 P0.02
G1 X-0.001 Y-7.995 F2200.0
G1 X-0.840 Y-7.775
G1 X-1.037 Y-6.209
G1 X-0.246 Y-6.365
G1 X-0.104 Y-6.639
G1 Z0.0000 F2500.0
G4 P0.02
G0 X0.411 Y-6.156 F15000.0
G1 Z11.9000 F2500.0
G4 P0.02
G1 X0.866 Y-8.049 F2200.0
G1 Z0.0000 F2500.0
G4 P0.02
G0 X0.639 Y-7.102 F15000.0
G1 Z11.9000 F2500.0
G4 P0.02
G1 X1.690 Y-7.102 F2200.0
G1 Z0.0000 F2500.0
G4 P0.02
G0 X1.464 Y-6.156 F15000.0
G1 Z11.9000 F2500.0
G4 P0.02
G1 X1.918 Y-8.049 F2200.0
G1 Z0.0000 F2500.0
G4 P0.02
G0 X3.391 Y-8.049 F15000.0
G1 Z11.9000 F2500.0
G4 P0.02
G1 X2.936 Y-6.156 F2200.0
G1 Z0.0000 F2500.0
G4 P0.02
G0 X2.095 Y-6.156 F15000.0
G1 Z11.9000 F2500.0
G4 P0.02
G1 X2.550 Y-8.049 F2200.0
G1 X4.111 Y-7.876
G1 X4.132 Y-7.629
G1 X3.778 Y-6.156
G1 Z0.0000 F2500.0
G4 P0.02
G0 X4.409 Y-6.156 F15000.0
G1 Z11.9000 F2500.0
G4 P0.02
G1 X5.243 Y-6.201 F2200.0
G1 X5.816 Y-7.819
G1 X4.864 Y-8.049
G1 X4.208 Y-5.314
G1 Z0.0000 F2500.0
G4 P0.02
G0 X6.089 Y-6.139 F15000.0
G1 Z11.9000 F2500.0
G4 P0.02
G1 X6.097 Y-6.171 F2200.0
G1 Z0.0000 F2500.0
G4 P0.02
G0 X9.211 Y0.000 F15000.0
G1 Z11.9000 F2500.0
G4 P0.02
G1 X9.211 Y-54.970 F12000.0
G1 Z0.0000 F2500.0
G4 P0.02
G0 X-0.768 Y-54.970 F15000.0
G1 Z11.9000 F2500.0
G4 P0.02
G1 X-0.768 Y-30.022 F12000.0
G1 Z0.0000 F2500.0
G4 P0.02
G0 X-1.427 Y-31.111 F15000.0
G1 Z11.9000 F2500.0
G4 P0.02
G1 X-1.420 Y-31.144 F2200.0
G1 Z0.0000 F2500.0
G4 P0.02
G0 X-2.055 Y-31.127 F15000.0
G1 Z11.9000 F2500.0
G4 P0.02
G1 X-1.599 Y-33.022 F2200.0
G1 X-2.459 Y-32.072
G1 X-2.863 Y-33.022
G1 X-3.000 Y-32.451
G1 Z0.0000 F2500.0
G4 P0.02
G0 X-3.000 Y-30.022 F15000.0
G1 Z11.9000 F2500.0
G4 P0.02
G1 X57.163 Y-30.022 F12000.0
G1 Z0.0000 F2500.0
G4 P0.02
G0 X55.715 Y-31.127 F15000.0
G1 Z11.9000 F2500.0
G4 P0.02
G1 X55.600 Y-31.166 F2200.0
G1 X55.959 Y-33.021
G1 X55.125 Y-32.975
G1 X54.568 Y-31.611
G1 X54.863 Y-31.095
G1 X55.620 Y-31.611
G1 Z0.0000 F2500.0
G4 P0.02
G0 X53.820 Y-31.127 F15000.0
G1 Z11.9000 F2500.0
G4 P0.02
G1 X54.174 Y-32.600 F2200.0
G1 X54.153 Y-32.847
G1 X52.592 Y-33.021
G1 X52.137 Y-31.127
G1 Z0.0000 F2500.0
G4 P0.02
G0 X51.506 Y-31.127 F15000.0
G1 Z11.9000 F2500.0
G4 P0.02
G1 X51.390 Y-31.166 F2200.0
G1 X51.750 Y-33.021
G1 X50.916 Y-32.975
G1 X50.360 Y-31.611
G1 X50.654 Y-31.095
G1 X51.411 Y-31.611
G1 Z0.0000 F2500.0
G4 P0.02
G0 X52.979 Y-31.127 F15000.0
G1 Z11.9000 F2500.0
G4 P0.02
G1 X53.433 Y-33.021 F2200.0
G1 Z0.0000 F2500.0
G4 P0.02
G0 X57.163 Y-35.012 F15000.0
G1 Z11.9000 F2500.0
G4 P0.02
G1 X-3.000 Y-35.012 F12000.0
G1 Z0.0000 F2500.0
G4 P0.02
G0 X-0.012 Y-31.127 F15000.0
G1 Z11.9000 F2500.0
G4 P0.02
G1 X1.296 Y-33.862 F2200.0
G1 X1.908 Y-33.862
G1 X1.250 Y-31.127
G1 Z0.0000 F2500.0
G4 P0.02
G0 X2.336 Y-33.021 F15000.0
G1 Z11.9000 F2500.0
G4 P0.02
G1 X2.074 Y-31.207 F2200.0
G1 X2.303 Y-31.127
G1 X2.934 Y-31.127
G1 X3.389 Y-33.021
G1 Z0.0000 F2500.0
G4 P0.02
G0 X4.862 Y-33.021 F15000.0
G1 Z11.9000 F2500.0
G4 P0.02
G1 X3.940 Y-32.665 F2200.0
G1 X3.758 Y-31.207
G1 X3.986 Y-31.127
G1 X4.408 Y-31.127
G1 Z0.0000 F2500.0
G4 P0.02
G0 X5.039 Y-31.127 F15000.0
G1 Z11.9000 F2500.0
G4 P0.02
G1 X5.493 Y-33.021 F2200.0
G1 X7.055 Y-32.847
G1 X7.075 Y-32.600
G1 X6.723 Y-31.127
G1 Z0.0000 F2500.0
G4 P0.02
G0 X5.881 Y-31.127 F15000.0
G1 Z11.9000 F2500.0
G4 P0.02
G1 X6.335 Y-33.021 F2200.0
G1 Z0.0000 F2500.0
G4 P0.02
G0 X4.635 Y-28.868 F15000.0
G1 Z11.9000 F2500.0
G4 P0.02
G1 X3.583 Y-28.868 F2200.0
G1 X4.260 Y-27.903
G1 Z0.0000 F2500.0
G4 P0.02
G0 X4.095 Y-26.617 F15000.0
G1 Z11.9000 F2500.0
G4 P0.02
G1 X4.198 Y-27.971 F2200.0
G1 X3.359 Y-27.752
G1 X3.162 Y-26.187
G1 X3.953 Y-26.343
G1 X4.095 Y-26.617
G1 Z0.0000 F2500.0
G4 P0.02
G0 X4.614 Y-26.148 F15000.0
G1 Z11.9000 F2500.0
G4 P0.02
G1 X4.606 Y-26.117 F2200.0
G1 Z0.0000 F2500.0
G4 P0.02
G0 X2.295 Y-26.132 F15000.0
G1 Z11.9000 F2500.0
G4 P0.02
G1 X2.181 Y-26.172 F2200.0
G1 X2.539 Y-28.026
G1 X1.707 Y-27.981
G1 X1.149 Y-26.617
G1 X1.445 Y-26.101
G1 X2.201 Y-26.617
G1 Z0.0000 F2500.0
G4 P0.02
G0 X-0.651 Y-26.132 F15000.0
G1 Z11.9000 F2500.0
G4 P0.02
G1 X0.183 Y-26.179 F2200.0
G1 X0.756 Y-27.796
G1 X-0.196 Y-28.026
G1 X-0.852 Y-25.291
G1 Z0.0000 F2500.0
G4 P0.02
G0 X-2.206 Y-26.238 F15000.0
G1 Z11.9000 F2500.0
G4 P0.02
G1 X-2.048 Y-26.130 F2200.0
G1 X-1.163 Y-26.655
G1 X-1.551 Y-27.080
G1 X-1.259 Y-27.160
G1 X-0.989 Y-27.911
G1 X-1.696 Y-27.920
G1 Z0.0000 F2500.0
G4 P0.02
G0 X-1.583 Y-27.080 F15000.0
G1 Z11.9000 F2500.0
G4 P0.02
G1 X-1.551 Y-27.080 F2200.0
G1 Z0.0000 F2500.0
G4 P0.02
G0 X-2.957 Y-26.617 F15000.0
G1 Z11.9000 F2500.0
G4 P0.02
G1 X-2.862 Y-26.132 F2200.0
G1 X-2.976 Y-26.172
G1 X-2.618 Y-28.026
G1 X-3.000 Y-28.006
G1 Z0.0000 F2500.0
G4 P0.02
G0 X-3.000 Y-25.032 F15000.0
G1 Z11.9000 F2500.0
G4 P0.02
G1 X57.163 Y-25.032 F12000.0
G1 Z0.0000 F2500.0
G4 P0.02
G0 X57.163 Y-19.958 F15000.0
G1 Z11.9000 F2500.0
G4 P0.02
G1 X-3.000 Y-19.958 F12000.0
G1 Z0.0000 F2500.0
G4 P0.02
G0 X-2.501 Y-18.037 F15000.0
G1 Z11.9000 F2500.0
G4 P0.02
G1 X-2.955 Y-16.144 F2200.0
G1 Z0.0000 F2500.0
G4 P0.02
G0 X-2.804 Y-16.775 F15000.0
G1 Z11.9000 F2500.0
G4 P0.02
G1 X-1.449 Y-18.037 F2200.0
G1 Z0.0000 F2500.0
G4 P0.02
G0 X-2.378 Y-17.172 F15000.0
G1 Z11.9000 F2500.0
G4 P0.02
G1 X-1.904 Y-16.144 F2200.0
G1 Z0.0000 F2500.0
G4 P0.02
G0 X-3.000 Y-14.968 F15000.0
G1 Z11.9000 F2500.0
G4 P0.02
G1 X177.000 Y-14.968 F12000.0
G1 Z0.0000 F2500.0
G4 P0.02
G0 X177.000 Y-19.958 F15000.0
G1 Z11.9000 F2500.0
G4 P0.02
G1 X127.103 Y-19.958 F12000.0
G1 Z0.0000 F2500.0
G4 P0.02
G0 X129.986 Y-16.144 F15000.0
G1 Z11.9000 F2500.0
G4 P0.02
G1 X131.295 Y-18.879 F2200.0
G1 X131.905 Y-18.879
G1 X131.249 Y-16.144
G1 Z0.0000 F2500.0
G4 P0.02
G0 X132.335 Y-18.037 F15000.0
G1 Z11.9000 F2500.0
G4 P0.02
G1 X132.073 Y-16.224 F2200.0
G1 X132.301 Y-16.144
G1 X132.932 Y-16.144
G1 X133.387 Y-18.037
G1 Z0.0000 F2500.0
G4 P0.02
G0 X134.860 Y-18.037 F15000.0
G1 Z11.9000 F2500.0
G4 P0.02
G1 X133.938 Y-17.683 F2200.0
G1 X133.756 Y-16.224
G1 X133.984 Y-16.144
G1 X134.405 Y-16.144
G1 Z0.0000 F2500.0
G4 P0.02
G0 X135.036 Y-16.144 F15000.0
G1 Z11.9000 F2500.0
G4 P0.02
G1 X135.491 Y-18.037 F2200.0
G1 X137.053 Y-17.865
G1 X137.074 Y-17.617
G1 X136.720 Y-16.144
G1 Z0.0000 F2500.0
G4 P0.02
G0 X135.878 Y-16.144 F15000.0
G1 Z11.9000 F2500.0
G4 P0.02
G1 X136.333 Y-18.037 F2200.0
G1 Z0.0000 F2500.0
G4 P0.02
G0 X137.082 Y-19.958 F15000.0
G1 Z11.9000 F2500.0
G4 P0.02
G1 X137.082 Y-35.012 F12000.0
G1 Z0.0000 F2500.0
G4 P0.02
G0 X137.160 Y-36.121 F15000.0
G1 Z11.9000 F2500.0
G4 P0.02
G1 X137.514 Y-37.594 F2200.0
G1 X137.493 Y-37.841
G1 X135.932 Y-38.015
G1 X135.477 Y-36.121
G1 Z0.0000 F2500.0
G4 P0.02
G0 X136.319 Y-36.121 F15000.0
G1 Z11.9000 F2500.0
G4 P0.02
G1 X136.772 Y-38.015 F2200.0
G1 Z0.0000 F2500.0
G4 P0.02
G0 X135.299 Y-38.015 F15000.0
G1 Z11.9000 F2500.0
G4 P0.02
G1 X134.846 Y-36.121 F2200.0
G1 X134.213 Y-36.121
G1 X133.986 Y-36.201
G1 X134.248 Y-38.015
G1 Z0.0000 F2500.0
G4 P0.02
G0 X133.162 Y-36.121 F15000.0
G1 Z11.9000 F2500.0
G4 P0.02
G1 X133.818 Y-38.857 F2200.0
G1 X133.207 Y-38.857
G1 X131.900 Y-36.121
G1 Z0.0000 F2500.0
G4 P0.02
G0 X132.008 Y-35.012 F15000.0
G1 Z11.9000 F2500.0
G4 P0.02
G1 X132.008 Y-19.958 F12000.0
G1 Z0.0000 F2500.0
G4 P0.02
G0 X142.072 Y-19.958 F15000.0
G1 Z11.9000 F2500.0
G4 P0.02
G1 X142.072 Y-40.002 F12000.0
G1 Z0.0000 F2500.0
G4 P0.02
G0 X146.131 Y-36.121 F15000.0
G1 Z11.9000 F2500.0
G4 P0.02
G1 X146.788 Y-38.857 F2200.0
G1 X147.276 Y-37.383
G1 X148.470 Y-38.857
G1 X147.815 Y-36.121
G1 Z0.0000 F2500.0
G4 P0.02
G0 X149.614 Y-36.605 F15000.0
G1 Z11.9000 F2500.0
G4 P0.02
G1 X148.858 Y-36.090 F2200.0
G1 X148.561 Y-36.605
G1 X149.119 Y-37.969
G1 X149.953 Y-38.015
G1 X149.594 Y-36.161
G1 X149.708 Y-36.121
G1 Z0.0000 F2500.0
G4 P0.02
G0 X151.181 Y-36.121 F15000.0
G1 Z11.9000 F2500.0
G4 P0.02
G1 X150.761 Y-36.121 F2200.0
G1 X150.532 Y-36.201
G1 X150.714 Y-37.660
G1 X151.636 Y-38.015
G1 Z0.0000 F2500.0
G4 P0.02
G0 X153.109 Y-38.015 F15000.0
G1 Z11.9000 F2500.0
G4 P0.02
G1 X152.187 Y-37.660 F2200.0
G1 X152.005 Y-36.201
G1 X152.234 Y-36.121
G1 X152.654 Y-36.121
G1 Z0.0000 F2500.0
G4 P0.02
G0 X154.454 Y-36.605 F15000.0
G1 Z11.9000 F2500.0
G4 P0.02
G1 X153.697 Y-36.090 F2200.0
G1 X153.403 Y-36.605
G1 X153.959 Y-37.969
G1 X154.793 Y-38.015
G1 X154.433 Y-36.161
G1 X154.549 Y-36.121
G1 Z0.0000 F2500.0
G4 P0.02
G0 X159.070 Y-40.002 F15000.0
G1 Z11.9000 F2500.0
G4 P0.02
G1 X159.070 Y-19.958 F12000.0
G1 Z0.0000 F2500.0
G4 P0.02
G0 X157.701 Y-18.037 F15000.0
G1 Z11.9000 F2500.0
G4 P0.02
G1 X157.246 Y-16.144 F2200.0
G1 Z0.0000 F2500.0
G4 P0.02
G0 X158.088 Y-16.144 F15000.0
G1 Z11.9000 F2500.0
G4 P0.02
G1 X158.441 Y-17.617 F2200.0
G1 X158.420 Y-17.865
G1 X156.859 Y-18.037
G1 X156.404 Y-16.144
G1 Z0.0000 F2500.0
G4 P0.02
G0 X155.773 Y-16.144 F15000.0
G1 Z11.9000 F2500.0
G4 P0.02
G1 X155.351 Y-16.144 F2200.0
G1 X155.124 Y-16.224
G1 X155.305 Y-17.683
G1 X156.227 Y-18.037
G1 Z0.0000 F2500.0
G4 P0.02
G0 X154.754 Y-18.037 F15000.0
G1 Z11.9000 F2500.0
G4 P0.02
G1 X154.300 Y-16.144 F2200.0
G1 X153.668 Y-16.144
G1 X153.440 Y-16.224
G1 X153.702 Y-18.037
G1 Z0.0000 F2500.0
G4 P0.02
G0 X152.616 Y-16.144 F15000.0
G1 Z11.9000 F2500.0
G4 P0.02
G1 X153.273 Y-18.879 F2200.0
G1 X152.661 Y-18.879
G1 X151.353 Y-16.144
G1 Z0.0000 F2500.0
G4 P0.02
G0 X151.716 Y-13.608 F15000.0
G1 Z11.9000 F2500.0
G4 P0.02
G1 X151.367 Y-11.527 F2200.0
G1 X151.968 Y-10.827
G1 X152.464 Y-10.729
G1 X153.492 Y-10.729
G1 Z0.0000 F2500.0
G4 P0.02
G0 X154.134 Y-8.263 F15000.0
G1 Z11.9000 F2500.0
G4 P0.02
G1 X155.417 Y-13.608 F2200.0
G1 X157.884 Y-13.608
G1 X156.601 Y-8.263
G1 Z0.0000 F2500.0
G4 P0.02
G0 X159.890 Y-8.263 F15000.0
G1 Z11.9000 F2500.0
G4 P0.02
G1 X159.068 Y-8.263 F2200.0
G1 X158.560 Y-8.383
G1 X158.122 Y-8.960
G1 X158.917 Y-12.649
G1 X159.787 Y-13.487
G1 X161.173 Y-13.608
G1 Z0.0000 F2500.0
G4 P0.02
G0 X159.887 Y-16.627 F15000.0
G1 Z11.9000 F2500.0
G4 P0.02
G1 X159.989 Y-17.983 F2200.0
G1 X159.200 Y-17.828
G1 X159.057 Y-17.553
G1 X158.955 Y-16.198
G1 X159.792 Y-16.418
G1 X159.887 Y-16.627
G1 Z0.0000 F2500.0
G4 P0.02
G0 X160.740 Y-17.553 F15000.0
G1 Z11.9000 F2500.0
G4 P0.02
G1 X160.882 Y-17.828 F2200.0
G1 X161.673 Y-17.983
G1 X161.570 Y-16.627
G1 X161.373 Y-16.295
G1 X160.593 Y-16.243
G1 X160.993 Y-18.606
G1 X161.244 Y-18.892
G1 X161.628 Y-18.736
G1 X160.947 Y-17.894
G1 Z0.0000 F2500.0
G4 P0.02
G0 X154.182 Y-13.608 F15000.0
G1 Z11.9000 F2500.0
G4 P0.02
G1 X152.974 Y-8.898 F2200.0
G1 X152.147 Y-8.299
G1 X150.845 Y-8.263
G1 Z0.0000 F2500.0
G4 P0.02
G0 X152.193 Y-6.773 F15000.0
G1 Z11.9000 F2500.0
G4 P0.02
G1 X150.291 Y-6.773 F2200.0
G1 X149.744 Y-4.491
G1 X151.068 Y-4.316
G1 X151.403 Y-3.604
G1 X150.959 Y-2.362
G1 X149.995 Y-1.835
G1 X149.104 Y-1.829
G1 Z0.0000 F2500.0
G4 P0.02
G0 X148.374 Y-3.540 F15000.0
G1 Z11.9000 F2500.0
G4 P0.02
G1 X146.472 Y-3.540 F2200.0
G1 Z0.0000 F2500.0
G4 P0.02
G0 X143.780 Y-1.829 F15000.0
G1 Z11.9000 F2500.0
G4 P0.02
G1 X144.966 Y-6.773 F2200.0
G1 Z0.0000 F2500.0
G4 P0.02
G0 X146.107 Y-6.773 F15000.0
G1 Z11.9000 F2500.0
G4 P0.02
G1 X143.825 Y-6.773 F2200.0
G1 Z0.0000 F2500.0
G4 P0.02
G0 X143.443 Y-8.263 F15000.0
G1 Z11.9000 F2500.0
G4 P0.02
G1 X144.725 Y-13.608 F2200.0
G1 X147.193 Y-13.608
G1 X145.910 Y-8.263
G1 Z0.0000 F2500.0
G4 P0.02
G0 X147.143 Y-8.263 F15000.0
G1 Z11.9000 F2500.0
G4 P0.02
G1 X148.426 Y-13.608 F2200.0
G1 X150.482 Y-13.608
G1 Z0.0000 F2500.0
G4 P0.02
G0 X147.653 Y-14.968 F15000.0
G1 Z11.9000 F2500.0
G4 P0.02
G1 X147.653 Y-19.958 F2200.0
G1 Z0.0000 F2500.0
G4 P0.02
G0 X153.152 Y-6.014 F15000.0
G1 Z11.9000 F2500.0
G4 P0.02
G1 X154.104 Y-6.825 F2200.0
G1 X154.966 Y-6.773
G1 X155.397 Y-6.121
G1 X155.044 Y-5.133
G1 X152.147 Y-1.829
G1 X154.429 Y-1.829
G1 Z0.0000 F2500.0
G4 P0.02
G0 X158.649 Y-4.301 F15000.0
G1 Z11.9000 F2500.0
G4 P0.02
G1 X156.203 Y-3.081 F2200.0
G1 X156.412 Y-2.190
G1 X156.718 Y-1.900
G1 X157.119 Y-1.900
G1 X157.565 Y-2.190
G1 X158.202 Y-3.081
G1 X158.649 Y-4.301
G1 X158.786 Y-5.519
G1 X158.578 Y-6.412
G1 X158.271 Y-6.701
G1 X157.870 Y-6.701
G1 X157.425 Y-6.412
G1 X156.788 Y-5.519
G1 X156.342 Y-4.301
G1 Z0.0000 F2500.0
G4 P0.02
G0 X159.784 Y-3.540 F15000.0
G1 Z11.9000 F2500.0
G4 P0.02
G1 X161.686 Y-3.540 F2200.0
G1 Z0.0000 F2500.0
G4 P0.02
G0 X162.462 Y-2.019 F15000.0
G1 Z11.9000 F2500.0
G4 P0.02
G1 X162.641 Y-1.877 F2200.0
G1 X163.607 Y-1.833
G1 X164.285 Y-2.519
G1 X164.246 Y-3.232
G1 X163.645 Y-3.540
G1 X164.042 Y-3.621
G1 X164.724 Y-4.326
G1 X164.660 Y-5.044
G1 X164.154 Y-5.321
G1 X163.382 Y-5.062
G1 Z0.0000 F2500.0
G4 P0.02
G0 X163.588 Y-3.540 F15000.0
G1 Z11.9000 F2500.0
G4 P0.02
G1 X163.645 Y-3.540 F2200.0
G1 Z0.0000 F2500.0
G4 P0.02
G0 X171.445 Y-15.678 F15000.0
G1 Z11.9000 F2500.0
G4 P0.02
G1 X172.356 Y-19.470 F2200.0
G1 X171.270 Y-18.597
G1 Z0.0000 F2500.0
G4 P0.02
G0 X170.395 Y-24.883 F15000.0
G1 Z11.9000 F2500.0
G4 P0.02
G1 X171.704 Y-30.342 F2200.0
G1 X170.143 Y-29.085
G1 Z0.0000 F2500.0
G4 P0.02
G0 X167.964 Y-27.437 F15000.0
G1 Z11.9000 F2500.0
G4 P0.02
G1 X167.949 Y-27.372 F2200.0
G1 Z0.0000 F2500.0
G4 P0.02
G0 X167.359 Y-24.916 F15000.0
G1 Z11.9000 F2500.0
G4 P0.02
G1 X167.344 Y-24.852 F2200.0
G1 Z0.0000 F2500.0
G4 P0.02
G0 X166.091 Y-24.883 F15000.0
G1 Z11.9000 F2500.0
G4 P0.02
G1 X167.401 Y-30.342 F2200.0
G1 X165.839 Y-29.085
G1 Z0.0000 F2500.0
G4 P0.02
G0 X166.215 Y-36.121 F15000.0
G1 Z11.9000 F2500.0
G4 P0.02
G1 X165.795 Y-36.121 F2200.0
G1 X165.566 Y-36.201
G1 X165.748 Y-37.660
G1 X166.670 Y-38.015
G1 Z0.0000 F2500.0
G4 P0.02
G0 X167.301 Y-38.015 F15000.0
G1 Z11.9000 F2500.0
G4 P0.02
G1 X167.040 Y-36.201 F2200.0
G1 X167.268 Y-36.121
G1 X168.531 Y-36.121
G1 X168.985 Y-38.015
G1 Z0.0000 F2500.0
G4 P0.02
G0 X168.143 Y-38.015 F15000.0
G1 Z11.9000 F2500.0
G4 P0.02
G1 X167.689 Y-36.121 F2200.0
G1 Z0.0000 F2500.0
G4 P0.02
G0 X169.162 Y-36.121 F15000.0
G1 Z11.9000 F2500.0
G4 P0.02
G1 X169.617 Y-38.015 F2200.0
G1 X171.178 Y-37.841
G1 X171.198 Y-37.594
G1 X170.846 Y-36.121
G1 Z0.0000 F2500.0
G4 P0.02
G0 X170.004 Y-36.121 F15000.0
G1 Z11.9000 F2500.0
G4 P0.02
G1 X170.458 Y-38.015 F2200.0
G1 Z0.0000 F2500.0
G4 P0.02
G0 X172.645 Y-36.605 F15000.0
G1 Z11.9000 F2500.0
G4 P0.02
G1 X171.889 Y-36.090 F2200.0
G1 X171.593 Y-36.605
G1 X172.151 Y-37.969
G1 X172.983 Y-38.015
G1 X172.625 Y-36.161
G1 X172.739 Y-36.121
G1 Z0.0000 F2500.0
G4 P0.02
G0 X174.539 Y-36.605 F15000.0
G1 Z11.9000 F2500.0
G4 P0.02
G1 X174.642 Y-37.961 F2200.0
G1 X173.803 Y-37.740
G1 X173.606 Y-36.175
G1 X174.445 Y-36.395
G1 X174.539 Y-36.605
G1 Z0.0000 F2500.0
G4 P0.02
G0 X174.704 Y-37.892 F15000.0
G1 Z11.9000 F2500.0
G4 P0.02
G1 X174.028 Y-38.857 F2200.0
G1 X175.079 Y-38.857
G1 Z0.0000 F2500.0
G4 P0.02
G0 X177.000 Y-40.002 F15000.0
G1 Z11.9000 F2500.0
G4 P0.02
G1 X-3.000 Y-40.002 F12000.0
G1 Z0.0000 F2500.0
G4 P0.02
G0 X-3.000 Y-44.992 F15000.0
G1 Z11.9000 F2500.0
G4 P0.02
G1 X57.163 Y-44.992 F12000.0
G1 Z0.0000 F2500.0
G4 P0.02
G0 X57.163 Y-49.981 F15000.0
G1 Z11.9000 F2500.0
G4 P0.02
G1 X-3.000 Y-49.981 F12000.0
G1 Z0.0000 F2500.0
G4 P0.02
G0 X-3.000 Y-54.970 F15000.0
G1 Z11.9000 F2500.0
G4 P0.02
G1 X177.000 Y-54.970 F12000.0
G1 Z0.0000 F2500.0
G4 P0.02
G0 X177.000 Y-35.012 F15000.0
G1 Z11.9000 F2500.0
G4 P0.02
G1 X127.103 Y-35.012 F12000.0
G1 Z0.0000 F2500.0
G4 P0.02
G0 X127.103 Y-40.002 F15000.0
G1 Z11.9000 F2500.0
G4 P0.02
G1 X127.103 Y0.000 F12000.0
G1 Z0.0000 F2500.0
G4 P0.02
G0 X125.619 Y-6.171 F15000.0
G1 Z11.9000 F2500.0
G4 P0.02
G1 X124.866 Y-5.142 F2200.0
G1 X123.688 Y-4.910
G1 X123.069 Y-5.427
G1 X123.014 Y-6.171
G1 X123.598 Y-7.295
G1 X124.760 Y-7.747
G1 X125.574 Y-7.295
G1 X125.685 Y-6.447
G1 Z0.0000 F2500.0
G4 P0.02
G0 X126.065 Y-8.854 F15000.0
G1 Z11.9000 F2500.0
G4 P0.02
G1 X125.369 Y-7.944 F2200.0
G1 X124.439 Y-7.780
G1 X123.900 Y-8.226
G1 X123.856 Y-8.854
G1 X124.376 Y-9.863
G1 X125.292 Y-10.235
G1 X125.958 Y-9.956
G1 X126.155 Y-9.263
G1 X126.065 Y-8.854
G1 Z0.0000 F2500.0
G4 P0.02
G0 X122.277 Y-8.854 F15000.0
G1 Z11.9000 F2500.0
G4 P0.02
G1 X121.582 Y-7.944 F2200.0
G1 X120.651 Y-7.780
G1 X120.113 Y-8.226
G1 X120.068 Y-8.854
G1 X120.587 Y-9.863
G1 X121.504 Y-10.235
G1 X122.169 Y-9.956
G1 X122.368 Y-9.263
G1 X122.277 Y-8.854
G1 Z0.0000 F2500.0
G4 P0.02
G0 X121.830 Y-6.171 F15000.0
G1 Z11.9000 F2500.0
G4 P0.02
G1 X121.078 Y-5.142 F2200.0
G1 X119.900 Y-4.910
G1 X119.281 Y-5.427
G1 X119.226 Y-6.171
G1 X119.810 Y-7.295
G1 X120.973 Y-7.747
G1 X121.719 Y-7.390
G1 X121.896 Y-6.447
G1 X121.830 Y-6.171
G1 Z0.0000 F2500.0
G4 P0.02
G0 X118.185 Y-6.762 F15000.0
G1 Z11.9000 F2500.0
G4 P0.02
G1 X116.212 Y-6.762 F2200.0
G1 Z0.0000 F2500.0
G4 P0.02
G0 X115.034 Y-7.552 F15000.0
G1 Z11.9000 F2500.0
G4 P0.02
G1 X112.497 Y-6.287 F2200.0
G1 X112.713 Y-5.362
G1 X113.031 Y-5.062
G1 X113.446 Y-5.062
G1 X113.909 Y-5.362
G1 X114.569 Y-6.287
G1 X115.034 Y-7.552
G1 X115.177 Y-8.815
G1 X114.961 Y-9.741
G1 X114.642 Y-10.042
G1 X114.226 Y-10.042
G1 X113.763 Y-9.741
G1 X113.103 Y-8.815
G1 X112.640 Y-7.552
G1 Z0.0000 F2500.0
G4 P0.02
G0 X111.888 Y-10.116 F15000.0
G1 Z11.9000 F2500.0
G4 P0.02
G1 X109.914 Y-10.116 F2200.0
G1 X109.347 Y-7.749
G1 X110.621 Y-7.632
G1 X111.062 Y-6.956
G1 X110.701 Y-5.657
G1 X109.743 Y-5.016
G1 X108.684 Y-4.987
G1 Z0.0000 F2500.0
G4 P0.02
G0 X107.931 Y-7.552 F15000.0
G1 Z11.9000 F2500.0
G4 P0.02
G1 X108.075 Y-8.815 F2200.0
G1 X107.858 Y-9.741
G1 X107.540 Y-10.042
G1 X107.124 Y-10.042
G1 X106.662 Y-9.741
G1 X106.002 Y-8.815
G1 X105.538 Y-7.552
G1 X105.394 Y-6.287
G1 X105.611 Y-5.362
G1 X105.929 Y-5.062
G1 X106.345 Y-5.062
G1 X106.807 Y-5.362
G1 X107.468 Y-6.287
G1 X107.931 Y-7.552
G1 Z0.0000 F2500.0
G4 P0.02
G0 X103.318 Y-8.932 F15000.0
G1 Z11.9000 F2500.0
G4 P0.02
G1 X104.785 Y-10.113 F2200.0
G1 X103.555 Y-4.987
G1 Z0.0000 F2500.0
G4 P0.02
G0 X97.636 Y-4.987 F15000.0
G1 Z11.9000 F2500.0
G4 P0.02
G1 X98.867 Y-10.116 F2200.0
G1 Z0.0000 F2500.0
G4 P0.02
G0 X100.050 Y-10.116 F15000.0
G1 Z11.9000 F2500.0
G4 P0.02
G1 X97.683 Y-10.116 F2200.0
G1 Z0.0000 F2500.0
G4 P0.02
G0 X96.499 Y-10.116 F15000.0
G1 Z11.9000 F2500.0
G4 P0.02
G1 X95.037 Y-9.936 F2200.0
G1 X94.282 Y-9.065
G1 X93.572 Y-5.655
G1 X93.993 Y-5.103
G1 X94.479 Y-4.987
G1 X95.269 Y-4.987
G1 Z0.0000 F2500.0
G4 P0.02
G0 X92.368 Y-6.052 F15000.0
G1 Z11.9000 F2500.0
G4 P0.02
G1 X93.094 Y-9.565 F2200.0
G1 X92.563 Y-10.168
G1 X91.646 Y-10.118
G1 X90.813 Y-9.314
G1 X89.995 Y-5.538
G1 X90.525 Y-4.935
G1 X91.574 Y-5.050
G1 X92.329 Y-5.920
G1 X92.368 Y-6.052
G1 Z0.0000 F2500.0
G4 P0.02
G0 X89.792 Y-10.116 F15000.0
G1 Z11.9000 F2500.0
G4 P0.02
G1 X87.819 Y-10.116 F2200.0
G1 X86.588 Y-4.987
G1 Z0.0000 F2500.0
G4 P0.02
G0 X83.468 Y-7.552 F15000.0
G1 Z11.9000 F2500.0
G4 P0.02
G1 X83.612 Y-8.815 F2200.0
G1 X83.395 Y-9.741
G1 X83.077 Y-10.042
G1 X82.662 Y-10.042
G1 X82.199 Y-9.741
G1 X81.539 Y-8.815
G1 X81.075 Y-7.552
G1 X80.931 Y-6.287
G1 X81.148 Y-5.362
G1 X81.466 Y-5.062
G1 X81.882 Y-5.062
G1 X82.345 Y-5.362
G1 X83.005 Y-6.287
G1 X83.468 Y-7.552
G1 Z0.0000 F2500.0
G4 P0.02
G0 X78.855 Y-8.932 F15000.0
G1 Z11.9000 F2500.0
G4 P0.02
G1 X80.322 Y-10.113 F2200.0
G1 X79.092 Y-4.987
G1 Z0.0000 F2500.0
G4 P0.02
G0 X72.812 Y-6.762 F15000.0
G1 Z11.9000 F2500.0
G4 P0.02
G1 X74.028 Y-6.752 F2200.0
G1 X74.511 Y-6.428
G1 X74.503 Y-5.678
G1 X73.877 Y-5.075
G1 X72.386 Y-4.987
G1 X73.239 Y-8.538
G1 Z0.0000 F2500.0
G4 P0.02
G0 X71.203 Y-4.987 F15000.0
G1 Z11.9000 F2500.0
G4 P0.02
G1 X72.055 Y-8.538 F2200.0
G1 X71.069 Y-8.538
G1 X69.231 Y-4.987
G1 Z0.0000 F2500.0
G4 P0.02
G0 X68.047 Y-4.987 F15000.0
G1 Z11.9000 F2500.0
G4 P0.02
G1 X67.928 Y-5.005 F2200.0
G1 X67.735 Y-5.259
G1 X68.504 Y-8.538
G1 X67.195 Y-8.529
G1 X66.513 Y-8.107
G1 X65.897 Y-5.894
G1 X65.969 Y-5.272
G1 X66.451 Y-4.929
G1 X67.258 Y-5.089
G1 X67.869 Y-5.894
G1 Z0.0000 F2500.0
G4 P0.02
G0 X64.496 Y-4.987 F15000.0
G1 Z11.9000 F2500.0
G4 P0.02
G1 X65.178 Y-7.993 F2200.0
G1 X64.897 Y-8.453
G1 X62.192 Y-8.538
G1 X61.338 Y-4.987
G1 Z0.0000 F2500.0
G4 P0.02
G0 X60.155 Y-4.987 F15000.0
G1 Z11.9000 F2500.0
G4 P0.02
G1 X59.367 Y-4.987 F2200.0
G1 X58.879 Y-5.103
G1 X58.458 Y-5.655
G1 X59.168 Y-9.065
G1 X59.923 Y-9.936
G1 X61.387 Y-10.116
G1 Z0.0000 F2500.0
G4 P0.02
G0 X63.769 Y-8.538 F15000.0
G1 Z11.9000 F2500.0
G4 P0.02
G1 X62.918 Y-4.987 F2200.0
G1 Z0.0000 F2500.0
G4 P0.02
G0 X57.163 Y-9.980 F15000.0
G1 Z11.9000 F2500.0
G4 P0.02
G1 X-3.000 Y-9.980 F12000.0
G1 Z0.0000 F2500.0
G4 P0.02
G0 X-2.864 Y-3.055 F15000.0
G1 Z11.9000 F2500.0
G4 P0.02
G1 X-3.000 Y-2.490 F2200.0
G1 X-3.000 Y-2.977
G1 X-2.145 Y-2.881
G1 X-2.124 Y-2.633
G1 X-2.477 Y-1.160
G1 Z0.0000 F2500.0
G4 P0.02
G0 X-3.000 Y0.000 F15000.0
G1 Z11.9000 F2500.0
G4 P0.02
G1 X177.000 Y0.000 F12000.0
G1 X177.000 Y-280.000
G1 Z0.0000 F2500.0
G4 P0.02
G0 X159.617 Y-218.831 F15000.0
G1 Z11.9000 F2500.0
G4 P0.02
G1 X158.273 Y-218.983 F2200.0
G1 X157.556 Y-218.870
G1 X157.089 Y-218.600
G1 X156.926 Y-218.203
G1 X157.089 Y-217.727
G1 X157.888 Y-216.996
G1 X159.150 Y-216.414
G1 X160.538 Y-216.138
G1 X161.680 Y-216.242
G1 X162.148 Y-216.513
G1 X162.310 Y-216.910
G1 X162.148 Y-217.386
G1 X161.348 Y-218.117
G1 X160.086 Y-218.699
G1 Z0.0000 F2500.0
G4 P0.02
G0 X158.147 Y-213.918 F15000.0
G1 Z11.9000 F2500.0
G4 P0.02
G1 X156.890 Y-215.481 F2200.0
G1 X162.349 Y-214.171
G1 Z0.0000 F2500.0
G4 P0.02
G0 X147.400 Y-221.068 F15000.0
G1 Z11.9000 F2500.0
G4 P0.02
G1 X141.142 Y-214.809 F2200.0
G1 Z0.0000 F2500.0
G4 P0.02
G0 X141.142 Y-219.038 F15000.0
G1 Z11.9000 F2500.0
G4 P0.02
G1 X143.171 Y-221.068 F2200.0
G1 Z0.0000 F2500.0
G4 P0.02
G0 X149.952 Y-191.044 F15000.0
G1 Z11.9000 F2500.0
G4 P0.02
G1 X150.852 Y-191.044 F2200.0
G1 Z0.0000 F2500.0
G4 P0.02
G0 X151.148 Y-190.411 F15000.0
G1 Z11.9000 F2500.0
G4 P0.02
G1 X150.248 Y-190.411 F2200.0
G1 Z0.0000 F2500.0
G4 P0.02
G0 X163.218 Y-144.279 F15000.0
G1 Z11.9000 F2500.0
G4 P0.02
G1 X163.654 Y-146.440 F2200.0
G1 X163.313 Y-146.931
G1 X162.531 Y-146.984
G1 X161.740 Y-146.312
G1 X161.202 Y-143.880
G1 X161.542 Y-143.389
G1 X162.325 Y-143.335
G1 X163.116 Y-144.009
G1 X163.218 Y-144.279
G1 Z0.0000 F2500.0
G4 P0.02
G0 X135.841 Y-93.240 F15000.0
G1 Z11.9000 F2500.0
G4 P0.02
G1 X134.941 Y-93.240 F2200.0
G1 Z0.0000 F2500.0
G4 P0.02
G0 X135.280 Y-92.647 F15000.0
G1 Z11.9000 F2500.0
G4 P0.02
G1 X136.178 Y-92.647 F2200.0
G1 Z0.0000 F2500.0
G4 P0.02
G0 X134.766 Y-50.903 F15000.0
G1 Z11.9000 F2500.0
G4 P0.02
G1 X132.445 Y-48.749 F2200.0
G1 X131.937 Y-47.595
G1 X131.436 Y-45.157
G1 X131.760 Y-44.468
G1 X132.463 Y-44.144
G1 X133.501 Y-44.369
G1 X134.406 Y-45.321
G1 X134.719 Y-46.827
G1 X134.395 Y-47.516
G1 X133.692 Y-47.840
G1 X132.019 Y-47.850
G1 Z0.0000 F2500.0
G4 P0.02
G0 X130.172 Y-47.595 F15000.0
G1 Z11.9000 F2500.0
G4 P0.02
G1 X130.356 Y-49.226 F2200.0
G1 X130.220 Y-50.093
G1 X129.892 Y-50.660
G1 X129.667 Y-50.807
G1 X129.131 Y-50.807
G1 X128.534 Y-50.420
G1 X127.949 Y-49.692
G1 X127.244 Y-48.161
G1 X126.910 Y-46.480
G1 X126.943 Y-45.499
G1 X127.178 Y-44.771
G1 X127.589 Y-44.384
G1 X128.125 Y-44.384
G1 X128.722 Y-44.771
G1 X129.308 Y-45.499
G1 X130.013 Y-47.028
G1 Z0.0000 F2500.0
G4 P0.02
G0 X123.903 Y-44.327 F15000.0
G1 Z11.9000 F2500.0
G4 P0.02
G1 X123.883 Y-44.247 F2200.0
G1 Z0.0000 F2500.0
G4 P0.02
G0 X123.077 Y-47.341 F15000.0
G1 Z11.9000 F2500.0
G4 P0.02
G1 X121.088 Y-47.425 F2200.0
G1 X120.516 Y-47.914
G1 X120.412 Y-48.867
G1 X120.882 Y-50.191
G1 X121.766 Y-50.905
G1 X122.795 Y-51.018
G1 X123.437 Y-50.608
G1 X123.668 Y-49.868
G1 X122.448 Y-46.130
G1 X120.331 Y-44.287
G1 Z0.0000 F2500.0
G4 P0.02
G0 X118.344 Y-47.595 F15000.0
G1 Z11.9000 F2500.0
G4 P0.02
G1 X118.528 Y-49.226 F2200.0
G1 X118.392 Y-50.093
G1 X118.063 Y-50.660
G1 X117.838 Y-50.807
G1 X117.302 Y-50.807
G1 X116.705 Y-50.420
G1 X116.120 Y-49.692
G1 X115.415 Y-48.161
G1 X115.082 Y-46.480
G1 X115.114 Y-45.499
G1 X115.349 Y-44.771
G1 X115.761 Y-44.384
G1 X116.297 Y-44.384
G1 X116.894 Y-44.771
G1 X117.478 Y-45.499
G1 X118.184 Y-47.028
G1 Z0.0000 F2500.0
G4 P0.02
G0 X112.126 Y-50.903 F15000.0
G1 Z11.9000 F2500.0
G4 P0.02
G1 X109.581 Y-50.903 F2200.0
G1 X107.993 Y-44.287
G1 Z0.0000 F2500.0
G4 P0.02
G0 X106.466 Y-44.287 F15000.0
G1 Z11.9000 F2500.0
G4 P0.02
G1 X108.054 Y-50.903 F2200.0
G1 Z0.0000 F2500.0
G4 P0.02
G0 X105.002 Y-50.903 F15000.0
G1 Z11.9000 F2500.0
G4 P0.02
G1 X103.414 Y-44.287 F2200.0
G1 Z0.0000 F2500.0
G4 P0.02
G0 X101.887 Y-44.287 F15000.0
G1 Z11.9000 F2500.0
G4 P0.02
G1 X100.753 Y-48.154 F2200.0
G1 Z0.0000 F2500.0
G4 P0.02
G0 X99.444 Y-46.831 F15000.0
G1 Z11.9000 F2500.0
G4 P0.02
G1 X103.475 Y-50.903 F2200.0
G1 Z0.0000 F2500.0
G4 P0.02
G0 X100.421 Y-50.903 F15000.0
G1 Z11.9000 F2500.0
G4 P0.02
G1 X98.834 Y-44.287 F2200.0
G1 Z0.0000 F2500.0
G4 P0.02
G0 X104.269 Y-47.850 F15000.0
G1 Z11.9000 F2500.0
G4 P0.02
G1 X107.322 Y-47.850 F2200.0
G1 Z0.0000 F2500.0
G4 P0.02
G0 X112.074 Y-44.327 F15000.0
G1 Z11.9000 F2500.0
G4 P0.02
G1 X112.056 Y-44.247 F2200.0
G1 Z0.0000 F2500.0
G4 P0.02
G0 X110.126 Y-29.068 F15000.0
G1 Z11.9000 F2500.0
G4 P0.02
G1 X106.227 Y-25.434 F2200.0
G1 Z0.0000 F2500.0
G4 P0.02
G0 X107.453 Y-26.578 F15000.0
G1 Z11.9000 F2500.0
G4 P0.02
G1 X108.819 Y-23.618 F2200.0
G1 Z0.0000 F2500.0
G4 P0.02
G0 X105.790 Y-23.618 F15000.0
G1 Z11.9000 F2500.0
G4 P0.02
G1 X107.099 Y-29.068 F2200.0
G1 Z0.0000 F2500.0
G4 P0.02
G0 X105.281 Y-29.068 F15000.0
G1 Z11.9000 F2500.0
G4 P0.02
G1 X103.974 Y-23.618 F2200.0
G1 X102.156 Y-23.618
G1 X101.499 Y-23.848
G1 X101.205 Y-24.455
G1 X102.254 Y-29.068
G1 Z0.0000 F2500.0
G4 P0.02
G0 X97.669 Y-28.656 F15000.0
G1 Z11.9000 F2500.0
G4 P0.02
G1 X99.414 Y-30.284 F2200.0
G1 X99.642 Y-30.882
G1 X99.564 Y-31.254
G1 X99.313 Y-31.514
G1 X98.730 Y-31.592
G1 X98.139 Y-31.275
G1 X97.800 Y-30.704
G1 X96.392 Y-24.602
G1 X96.649 Y-23.904
G1 X97.285 Y-23.529
G1 X98.113 Y-23.584
G1 X99.053 Y-24.223
G1 X99.462 Y-25.010
G1 X100.144 Y-28.084
G1 X99.886 Y-28.782
G1 X99.251 Y-29.158
G1 X98.423 Y-29.101
G1 X97.643 Y-28.632
G1 X97.137 Y-27.882
G1 X97.074 Y-27.675
G1 Z0.0000 F2500.0
G4 P0.02
G0 X94.617 Y-25.010 F15000.0
G1 Z11.9000 F2500.0
G4 P0.02
G1 X95.299 Y-28.084 F2200.0
G1 X95.041 Y-28.782
G1 X94.406 Y-29.158
G1 X93.578 Y-29.101
G1 X92.798 Y-28.632
G1 X92.292 Y-27.882
G1 X91.546 Y-24.602
G1 X91.804 Y-23.904
G1 X92.439 Y-23.529
G1 X93.268 Y-23.584
G1 X94.207 Y-24.223
G1 X94.617 Y-25.010
G1 Z0.0000 F2500.0
G4 P0.02
G0 X89.438 Y-23.618 F15000.0
G1 Z11.9000 F2500.0
G4 P0.02
G1 X87.718 Y-29.068 F2200.0
G1 Z0.0000 F2500.0
G4 P0.02
G0 X90.746 Y-29.068 F15000.0
G1 Z11.9000 F2500.0
G4 P0.02
G1 X86.409 Y-23.618 F2200.0
G1 Z0.0000 F2500.0
G4 P0.02
G0 X84.593 Y-23.618 F15000.0
G1 Z11.9000 F2500.0
G4 P0.02
G1 X84.262 Y-23.731 F2200.0
G1 X84.115 Y-24.036
G1 X85.296 Y-29.068
G1 X83.478 Y-29.068
G1 X82.710 Y-28.837
G1 X82.125 Y-28.232
G1 X81.251 Y-24.602
G1 X81.507 Y-23.904
G1 X82.143 Y-23.529
G1 X82.972 Y-23.584
G1 X83.912 Y-24.223
G1 X84.321 Y-25.010
G1 Z0.0000 F2500.0
G4 P0.02
G0 X79.141 Y-23.618 F15000.0
G1 Z11.9000 F2500.0
G4 P0.02
G1 X81.031 Y-31.490 F12000.0
G1 X77.591 Y-27.252
G1 X76.186 Y-31.490
G1 X74.296 Y-23.618
G1 Z0.0000 F2500.0
G4 P0.02
G0 X49.562 Y-30.916 F15000.0
G1 Z11.9000 F2500.0
G4 P0.02
G1 X49.611 Y-31.127 F2200.0
G1 X48.138 Y-31.127
G1 X48.089 Y-30.916
G1 X48.349 Y-31.127
G1 X49.427 Y-33.862
G1 X50.058 Y-33.862
G1 X49.402 Y-31.127
G1 Z0.0000 F2500.0
G4 P0.02
G0 X43.429 Y-31.144 F15000.0
G1 Z11.9000 F2500.0
G4 P0.02
G1 X43.421 Y-31.111 F2200.0
G1 Z0.0000 F2500.0
G4 P0.02
G0 X42.794 Y-31.127 F15000.0
G1 Z11.9000 F2500.0
G4 P0.02
G1 X43.148 Y-32.790 F2200.0
G1 X42.196 Y-33.021
G1 X41.741 Y-31.127
G1 Z0.0000 F2500.0
G4 P0.02
G0 X41.565 Y-33.021 F15000.0
G1 Z11.9000 F2500.0
G4 P0.02
G1 X40.731 Y-32.975 F2200.0
G1 X40.175 Y-31.611
G1 X40.213 Y-31.279
G1 X40.901 Y-31.181
G1 X41.692 Y-33.547
G1 X41.668 Y-33.743
G1 X40.926 Y-33.862
G1 Z0.0000 F2500.0
G4 P0.02
G0 X39.543 Y-31.611 F15000.0
G1 Z11.9000 F2500.0
G4 P0.02
G1 X39.645 Y-32.967 F2200.0
G1 X38.807 Y-32.746
G1 X38.565 Y-31.226
G1 X39.345 Y-31.279
G1 X39.543 Y-31.611
G1 Z0.0000 F2500.0
G4 P0.02
G0 X37.744 Y-31.127 F15000.0
G1 Z11.9000 F2500.0
G4 P0.02
G1 X38.400 Y-33.862 F2200.0
G1 X37.137 Y-33.862
G1 X36.481 Y-31.127
G1 Z0.0000 F2500.0
G4 P0.02
G0 X27.050 Y-31.144 F15000.0
G1 Z11.9000 F2500.0
G4 P0.02
G1 X27.042 Y-31.111 F2200.0
G1 Z0.0000 F2500.0
G4 P0.02
G0 X26.415 Y-31.127 F15000.0
G1 Z11.9000 F2500.0
G4 P0.02
G1 X26.870 Y-33.022 F2200.0
G1 X26.011 Y-32.072
G1 X25.607 Y-33.022
G1 X25.153 Y-31.127
G1 Z0.0000 F2500.0
G4 P0.02
G0 X24.521 Y-31.127 F15000.0
G1 Z11.9000 F2500.0
G4 P0.02
G1 X23.889 Y-31.127 F2200.0
G1 X23.662 Y-31.207
G1 X23.923 Y-33.021
G1 Z0.0000 F2500.0
G4 P0.02
G0 X23.292 Y-33.021 F15000.0
G1 Z11.9000 F2500.0
G4 P0.02
G1 X21.936 Y-31.758 F2200.0
G1 Z0.0000 F2500.0
G4 P0.02
G0 X22.363 Y-32.155 F15000.0
G1 Z11.9000 F2500.0
G4 P0.02
G1 X22.837 Y-31.127 F2200.0
G1 Z0.0000 F2500.0
G4 P0.02
G0 X23.372 Y-30.285 F15000.0
G1 Z11.9000 F2500.0
G4 P0.02
G1 X24.003 Y-30.285 F2200.0
G1 X24.215 Y-30.355
G1 X24.975 Y-33.021
G1 Z0.0000 F2500.0
G4 P0.02
G0 X22.239 Y-33.021 F15000.0
G1 Z11.9000 F2500.0
G4 P0.02
G1 X21.785 Y-31.127 F2200.0
G1 Z0.0000 F2500.0
G4 P0.02
G0 X21.271 Y-31.611 F15000.0
G1 Z11.9000 F2500.0
G4 P0.02
G1 X21.373 Y-32.967 F2200.0
G1 X20.533 Y-32.746
G1 X20.292 Y-31.226
G1 X21.072 Y-31.279
G1 X21.271 Y-31.611
G1 Z0.0000 F2500.0
G4 P0.02
G0 X19.924 Y-33.021 F15000.0
G1 Z11.9000 F2500.0
G4 P0.02
G1 X19.092 Y-32.975 F2200.0
G1 X18.534 Y-31.611
G1 X18.572 Y-31.279
G1 X19.260 Y-31.181
G1 X20.051 Y-33.547
G1 X20.028 Y-33.743
G1 X19.285 Y-33.862
G1 Z0.0000 F2500.0
G4 P0.02
G0 X15.932 Y-32.916 F15000.0
G1 Z11.9000 F2500.0
G4 P0.02
G1 X16.103 Y-32.607 F2200.0
G1 X16.563 Y-32.916
G1 X16.654 Y-33.794
G1 X16.147 Y-33.683
G1 X15.932 Y-32.916
G1 Z0.0000 F2500.0
G4 P0.02
G0 X15.738 Y-33.862 F15000.0
G1 Z11.9000 F2500.0
G4 P0.02
G1 X15.082 Y-31.129 F2200.0
G1 X14.476 Y-33.861
G1 X13.818 Y-31.127
G1 Z0.0000 F2500.0
G4 P0.02
G0 X13.085 Y-28.868 F15000.0
G1 Z11.9000 F2500.0
G4 P0.02
G1 X12.032 Y-28.868 F2200.0
G1 X11.376 Y-26.132
G1 Z0.0000 F2500.0
G4 P0.02
G0 X13.514 Y-28.026 F15000.0
G1 Z11.9000 F2500.0
G4 P0.02
G1 X13.252 Y-26.213 F2200.0
G1 X13.481 Y-26.132
G1 X14.112 Y-26.132
G1 X14.567 Y-28.026
G1 Z0.0000 F2500.0
G4 P0.02
G0 X15.198 Y-28.026 F15000.0
G1 Z11.9000 F2500.0
G4 P0.02
G1 X14.743 Y-26.132 F2200.0
G1 Z0.0000 F2500.0
G4 P0.02
G0 X14.970 Y-27.080 F15000.0
G1 Z11.9000 F2500.0
G4 P0.02
G1 X16.022 Y-27.080 F2200.0
G1 Z0.0000 F2500.0
G4 P0.02
G0 X16.249 Y-28.026 F15000.0
G1 Z11.9000 F2500.0
G4 P0.02
G1 X15.794 Y-26.132 F2200.0
G1 Z0.0000 F2500.0
G4 P0.02
G0 X16.425 Y-26.132 F15000.0
G1 Z11.9000 F2500.0
G4 P0.02
G1 X16.880 Y-28.026 F2200.0
G1 X18.443 Y-27.853
G1 X18.464 Y-27.605
G1 X18.109 Y-26.132
G1 Z0.0000 F2500.0
G4 P0.02
G0 X17.267 Y-26.132 F15000.0
G1 Z11.9000 F2500.0
G4 P0.02
G1 X17.722 Y-28.026 F2200.0
G1 Z0.0000 F2500.0
G4 P0.02
G0 X18.968 Y-27.080 F15000.0
G1 Z11.9000 F2500.0
G4 P0.02
G1 X20.021 Y-27.080 F2200.0
G1 X20.131 Y-27.543
G1 X20.094 Y-27.875
G1 X19.405 Y-27.971
G1 X18.841 Y-26.362
G1 X19.793 Y-26.132
G1 Z0.0000 F2500.0
G4 P0.02
G0 X20.424 Y-26.132 F15000.0
G1 Z11.9000 F2500.0
G4 P0.02
G1 X21.258 Y-26.179 F2200.0
G1 X21.830 Y-27.605
G1 X21.809 Y-27.853
G1 X20.879 Y-28.026
G1 X20.222 Y-25.291
G1 Z0.0000 F2500.0
G4 P0.02
G0 X19.986 Y-23.032 F15000.0
G1 Z11.9000 F2500.0
G4 P0.02
G1 X19.533 Y-21.138 F2200.0
G1 Z0.0000 F2500.0
G4 P0.02
G0 X19.759 Y-22.084 F15000.0
G1 Z11.9000 F2500.0
G4 P0.02
G1 X18.707 Y-22.084 F2200.0
G1 Z0.0000 F2500.0
G4 P0.02
G0 X18.480 Y-21.138 F15000.0
G1 Z11.9000 F2500.0
G4 P0.02
G1 X18.935 Y-23.032 F2200.0
G1 Z0.0000 F2500.0
G4 P0.02
G0 X17.252 Y-23.032 F15000.0
G1 Z11.9000 F2500.0
G4 P0.02
G1 X16.797 Y-21.138 F2200.0
G1 X17.889 Y-21.438
G1 X17.798 Y-22.038
G1 X17.025 Y-22.084
G1 Z0.0000 F2500.0
G4 P0.02
G0 X16.166 Y-21.138 F15000.0
G1 Z11.9000 F2500.0
G4 P0.02
G1 X16.621 Y-23.032 F2200.0
G1 X16.095 Y-23.032
G1 X15.115 Y-21.138
G1 Z0.0000 F2500.0
G4 P0.02
G0 X14.484 Y-21.138 F15000.0
G1 Z11.9000 F2500.0
G4 P0.02
G1 X14.368 Y-21.178 F2200.0
G1 X14.728 Y-23.032
G1 X13.894 Y-22.986
G1 X13.337 Y-21.621
G1 X13.567 Y-21.127
G1 X14.389 Y-21.621
G1 Z0.0000 F2500.0
G4 P0.02
G0 X12.589 Y-21.138 F15000.0
G1 Z11.9000 F2500.0
G4 P0.02
G1 X12.169 Y-21.138 F2200.0
G1 X11.806 Y-21.276
G1 X12.063 Y-23.314
G1 X13.246 Y-23.873
G1 Z0.0000 F2500.0
G4 P0.02
G0 X20.619 Y-23.032 F15000.0
G1 Z11.9000 F2500.0
G4 P0.02
G1 X20.356 Y-21.218 F2200.0
G1 X20.584 Y-21.138
G1 X21.215 Y-21.138
G1 X21.670 Y-23.032
G1 Z0.0000 F2500.0
G4 P0.02
G0 X22.301 Y-23.032 F15000.0
G1 Z11.9000 F2500.0
G4 P0.02
G1 X21.847 Y-21.138 F2200.0
G1 Z0.0000 F2500.0
G4 P0.02
G0 X21.998 Y-21.769 F15000.0
G1 Z11.9000 F2500.0
G4 P0.02
G1 X23.354 Y-23.032 F2200.0
G1 Z0.0000 F2500.0
G4 P0.02
G0 X22.425 Y-22.167 F15000.0
G1 Z11.9000 F2500.0
G4 P0.02
G1 X22.899 Y-21.138 F2200.0
G1 Z0.0000 F2500.0
G4 P0.02
G0 X24.699 Y-21.621 F15000.0
G1 Z11.9000 F2500.0
G4 P0.02
G1 X24.801 Y-22.977 F2200.0
G1 X24.012 Y-22.822
G1 X23.870 Y-22.547
G1 X23.766 Y-21.193
G1 X24.605 Y-21.412
G1 X24.699 Y-21.621
G1 Z0.0000 F2500.0
G4 P0.02
G0 X25.552 Y-22.547 F15000.0
G1 Z11.9000 F2500.0
G4 P0.02
G1 X25.694 Y-22.822 F2200.0
G1 X26.485 Y-22.977
G1 X26.382 Y-21.621
G1 X26.185 Y-21.291
G1 X25.405 Y-21.237
G1 X25.804 Y-23.600
G1 X26.055 Y-23.886
G1 X26.440 Y-23.730
G1 X25.759 Y-22.889
G1 Z0.0000 F2500.0
G4 P0.02
G0 X28.066 Y-21.621 F15000.0
G1 Z11.9000 F2500.0
G4 P0.02
G1 X27.244 Y-21.127 F2200.0
G1 X27.014 Y-21.621
G1 X27.571 Y-22.986
G1 X28.405 Y-23.032
G1 X28.045 Y-21.178
G1 X28.161 Y-21.138
G1 Z0.0000 F2500.0
G4 P0.02
G0 X32.215 Y0.000 F15000.0
G1 Z11.9000 F2500.0
G4 P0.02
G1 X32.215 Y-54.970 F12000.0
G1 Z0.0000 F2500.0
G4 P0.02
G0 X47.183 Y-54.970 F15000.0
G1 Z11.9000 F2500.0
G4 P0.02
G1 X47.183 Y0.000 F12000.0
G1 Z0.0000 F2500.0
G4 P0.02
G0 X6.089 Y-16.127 F15000.0
G1 Z11.9000 F2500.0
G4 P0.02
G1 X6.097 Y-16.160 F2200.0
G1 Z0.0000 F2500.0
G4 P0.02
G0 X4.409 Y-16.144 F15000.0
G1 Z11.9000 F2500.0
G4 P0.02
G1 X5.243 Y-16.189 F2200.0
G1 X5.816 Y-17.808
G1 X4.864 Y-18.037
G1 X4.208 Y-15.302
G1 Z0.0000 F2500.0
G4 P0.02
G0 X3.778 Y-16.144 F15000.0
G1 Z11.9000 F2500.0
G4 P0.02
G1 X4.132 Y-17.617 F2200.0
G1 X4.111 Y-17.865
G1 X2.550 Y-18.037
G1 X2.095 Y-16.144
G1 Z0.0000 F2500.0
G4 P0.02
G0 X1.464 Y-16.144 F15000.0
G1 Z11.9000 F2500.0
G4 P0.02
G1 X1.918 Y-18.037 F2200.0
G1 Z0.0000 F2500.0
G4 P0.02
G0 X1.690 Y-17.090 F15000.0
G1 Z11.9000 F2500.0
G4 P0.02
G1 X0.639 Y-17.090 F2200.0
G1 Z0.0000 F2500.0
G4 P0.02
G0 X-0.104 Y-16.627 F15000.0
G1 Z11.9000 F2500.0
G4 P0.02
G1 X-0.001 Y-17.983 F2200.0
G1 X-0.792 Y-17.828
G1 X-0.934 Y-17.553
G1 X-1.037 Y-16.198
G1 X-0.198 Y-16.418
G1 X-0.104 Y-16.627
G1 Z0.0000 F2500.0
G4 P0.02
G0 X0.411 Y-16.144 F15000.0
G1 Z11.9000 F2500.0
G4 P0.02
G1 X0.866 Y-18.037 F2200.0
G1 Z0.0000 F2500.0
G4 P0.02
G0 X3.391 Y-18.037 F15000.0
G1 Z11.9000 F2500.0
G4 P0.02
G1 X2.936 Y-16.144 F2200.0
G1 Z0.0000 F2500.0
G4 P0.02
G0 X0.869 Y-21.121 F15000.0
G1 Z11.9000 F2500.0
G4 P0.02
G1 X0.876 Y-21.154 F2200.0
G1 Z0.0000 F2500.0
G4 P0.02
G0 X-0.473 Y-22.547 F15000.0
G1 Z11.9000 F2500.0
G4 P0.02
G1 X-0.330 Y-22.822 F2200.0
G1 X0.459 Y-22.977
G1 X0.357 Y-21.621
G1 X0.216 Y-21.349
G1 X-0.621 Y-21.237
G1 X-0.220 Y-23.600
G1 X0.030 Y-23.886
G1 X0.414 Y-23.730
G1 X-0.265 Y-22.889
G1 Z0.0000 F2500.0
G4 P0.02
G0 X-1.327 Y-21.621 F15000.0
G1 Z11.9000 F2500.0
G4 P0.02
G1 X-1.223 Y-22.977 F2200.0
G1 X-2.014 Y-22.822
G1 X-2.156 Y-22.547
G1 X-2.259 Y-21.193
G1 X-1.420 Y-21.412
G1 X-1.327 Y-21.621
G1 Z0.0000 F2500.0
G4 P0.02
G0 X-3.000 Y-22.043 F15000.0
G1 Z11.9000 F2500.0
G4 P0.02
G1 X-2.772 Y-22.611 F2200.0
G1 X-2.793 Y-22.859
G1 X-3.000 Y-22.898
G1 Z0.0000 F2500.0
G4 P0.02
G0 X-1.300 Y-2.912 F15000.0
G1 Z11.9000 F2500.0
G4 P0.02
G1 X-0.621 Y-3.752 F2200.0
G1 X-1.005 Y-3.908
G1 X-1.255 Y-3.623
G1 X-1.654 Y-1.261
G1 X-0.819 Y-1.371
G1 X-0.677 Y-1.645
G1 X-0.575 Y-3.000
G1 X-1.413 Y-2.781
G1 X-1.507 Y-2.570
G1 Z0.0000 F2500.0
G4 P0.02
G0 X-0.159 Y-1.177 F15000.0
G1 Z11.9000 F2500.0
G4 P0.02
G1 X-0.166 Y-1.144 F2200.0
G1 Z0.0000 F2500.0
G4 P0.02
G0 X20.306 Y-92.647 F15000.0
G1 Z11.9000 F2500.0
G4 P0.02
G1 X21.204 Y-92.647 F2200.0
G1 Z0.0000 F2500.0
G4 P0.02
G0 X21.585 Y-93.240 F15000.0
G1 Z11.9000 F2500.0
G4 P0.02
G1 X20.686 Y-93.240 F2200.0
G1 Z0.0000 F2500.0
G4 P0.02
G0 X12.255 Y-130.154 F15000.0
G1 Z11.9000 F2500.0
G4 P0.02
G1 X-1.445 Y-130.154 F2200.0
G1 Z0.0000 F2500.0
G4 P0.02
G0 X-3.000 Y-272.740 F15000.0
G1 Z11.9000 F2500.0
G4 P0.02
G1 X62.153 Y-272.740 F12000.0
G1 X62.153 Y-280.000
G1 Z0.0000 F2500.0
G4 P0.02
G0 X44.739 Y-280.000 F15000.0
G1 Z11.9000 F2500.0
G4 P0.02
G1 X43.844 Y-276.272 F2200.0
G1 Z0.0000 F2500.0
G4 P0.02
G0 X43.511 Y-279.020 F15000.0
G1 Z11.9000 F2500.0
G4 P0.02
G1 X43.224 Y-280.000 F2200.0
G1 Z0.0000 F2500.0
G4 P0.02
G0 X44.482 Y-280.000 F15000.0
G1 Z11.9000 F2500.0
G4 P0.02
G1 X40.791 Y-276.272 F2200.0
G1 Z0.0000 F2500.0
G4 P0.02
G0 X39.264 Y-276.272 F15000.0
G1 Z11.9000 F2500.0
G4 P0.02
G1 X40.158 Y-280.000 F2200.0
G1 Z0.0000 F2500.0
G4 P0.02
G0 X39.997 Y-279.324 F15000.0
G1 Z11.9000 F2500.0
G4 P0.02
G1 X36.943 Y-279.324 F2200.0
G1 Z0.0000 F2500.0
G4 P0.02
G0 X37.105 Y-280.000 F15000.0
G1 Z11.9000 F2500.0
G4 P0.02
G1 X36.210 Y-276.272 F2200.0
G1 Z0.0000 F2500.0
G4 P0.02
G0 X35.579 Y-280.000 F15000.0
G1 Z11.9000 F2500.0
G4 P0.02
G1 X34.684 Y-276.272 F2200.0
G1 X32.139 Y-276.272
G1 Z0.0000 F2500.0
G4 P0.02
G0 X29.046 Y-280.000 F15000.0
G1 Z11.9000 F2500.0
G4 P0.02
G1 X28.850 Y-279.013 F2200.0
G1 X28.146 Y-277.483
G1 X27.560 Y-276.754
G1 X26.963 Y-276.367
G1 X26.427 Y-276.367
G1 X26.203 Y-276.514
G1 X25.873 Y-277.081
G1 X25.737 Y-277.949
G1 X25.922 Y-279.579
G1 X26.040 Y-280.000
G1 Z0.0000 F2500.0
G4 P0.02
G0 X21.437 Y-280.000 F15000.0
G1 Z11.9000 F2500.0
G4 P0.02
G1 X20.597 Y-277.305 F2200.0
G1 X20.828 Y-276.565
G1 X21.470 Y-276.158
G1 X22.500 Y-276.269
G1 X23.383 Y-276.983
G1 X23.853 Y-278.307
G1 X23.750 Y-279.261
G1 X23.178 Y-279.750
G1 X21.188 Y-279.834
G1 Z0.0000 F2500.0
G4 P0.02
G0 X17.217 Y-280.000 F15000.0
G1 Z11.9000 F2500.0
G4 P0.02
G1 X17.021 Y-279.013 F2200.0
G1 X16.317 Y-277.483
G1 X15.731 Y-276.754
G1 X15.134 Y-276.367
G1 X14.598 Y-276.367
G1 X14.373 Y-276.514
G1 X14.046 Y-277.081
G1 X13.909 Y-277.949
G1 X14.094 Y-279.579
G1 X14.212 Y-280.000
G1 Z0.0000 F2500.0
G4 P0.02
G0 X12.415 Y-280.000 F15000.0
G1 Z11.9000 F2500.0
G4 P0.02
G1 X12.329 Y-279.579 F2200.0
G1 X11.820 Y-278.426
G1 X9.499 Y-276.272
G1 X12.246 Y-279.324
G1 X10.573 Y-279.334
G1 X9.870 Y-279.658
G1 X9.709 Y-280.000
G1 Z0.0000 F2500.0
G4 P0.02
G0 X137.795 Y-36.138 F15000.0
G1 Z11.9000 F2500.0
G4 P0.02
G1 X137.788 Y-36.105 F2200.0
G1 Z0.0000 F2500.0
G4 P0.02
G0 X161.165 Y-36.121 F15000.0
G1 Z11.9000 F2500.0
G4 P0.02
G1 X161.822 Y-38.857 F2200.0
G1 X162.310 Y-37.383
G1 X163.505 Y-38.857
G1 X162.849 Y-36.121
G1 Z0.0000 F2500.0
G4 P0.02
G0 X164.649 Y-36.605 F15000.0
G1 Z11.9000 F2500.0
G4 P0.02
G1 X163.892 Y-36.090 F2200.0
G1 X163.596 Y-36.605
G1 X164.154 Y-37.969
G1 X164.986 Y-38.015
G1 X164.628 Y-36.161
G1 X164.742 Y-36.121
G1 Z0.0000 F2500.0
G4 P0.02
G0 X140.402 Y-6.773 F15000.0
G1 Z11.9000 F2500.0
G4 P0.02
G1 X142.010 Y-6.660 F2200.0
G1 X142.436 Y-6.008
G1 X142.410 Y-5.632
G1 X141.540 Y-2.474
G1 X140.617 Y-1.856
G1 X139.216 Y-1.829
G1 Z0.0000 F2500.0
G4 P0.02
G0 X140.616 Y-4.491 F15000.0
G1 Z11.9000 F2500.0
G4 P0.02
G1 X142.137 Y-4.491 F2200.0
G1 Z0.0000 F2500.0
G4 P0.02

G0 Z0.0000 F800.0
G4 P0.06
G0 X-3.000 Y5.000 F15000.0
M5
G4 P0.10
