$X
$1=255
G21
G90
G92 Z4.0000
G0 Z0.0000 F800.0
G4 P0.06
G92 Z0.0000
G0 Z0.0000 F800.0
G0 X0.0000 Y0.0000 F15000.0
G21
G90
G17
G91.1
G0 Z0.0000
G0 X0.0000 Y-5.0000 F15000.0
G1 Z11.9000 F8000.0
G1 X180.0000 Y-5.0000 F12000.0
G1 X180.0000 Y-285.0000
G1 X0.0000 Y-285.0000
G1 X0.0000 Y-5.0000
G1 Z0.0000 F8000.0
G0 X148.3115 Y-185.4445 F15000.0
G1 Z11.9000 F8000.0
G1 X148.4442 Y-183.8524 F12000.0
G1 X150.3017 Y-183.1890
G1 X150.4786 Y-184.2946
G1 Z0.0000 F8000.0
G0 X150.6556 Y-184.4716 F15000.0
G1 Z11.9000 F8000.0
G1 X151.0094 Y-184.5600 F12000.0
G1 X151.4074 Y-184.4273
G1 Z0.0000 F8000.0
G0 X151.8497 Y-184.2504 F15000.0
G1 Z11.9000 F8000.0
G1 X152.2919 Y-184.0293 F12000.0
G1 Z0.0000 F8000.0
G0 X152.3804 Y-183.9408 F15000.0
G1 Z11.9000 F8000.0
G1 X152.9553 Y-182.0833 F12000.0
G1 Z0.0000 F8000.0
G0 X151.6285 Y-180.3585 F15000.0
G1 Z11.9000 F8000.0
G1 X151.8497 Y-180.3142 F12000.0
G1 X151.3190 Y-181.7295
G1 X151.0978 Y-181.9064
G1 X150.3017 Y-182.1718
G1 X150.0806 Y-182.0833
G1 Z0.0000 F8000.0
G0 X149.5057 Y-181.8179 F15000.0
G1 Z11.9000 F8000.0
G1 X150.3017 Y-181.2430 F12000.0
G1 Z0.0000 F8000.0
G0 X149.6826 Y-181.5526 F15000.0
G1 Z11.9000 F8000.0
G1 X150.0806 Y-180.3142 F12000.0
G1 Z0.0000 F8000.0
G0 X150.3017 Y-180.0931 F15000.0
G1 Z11.9000 F8000.0
G1 X151.4074 Y-179.7835 F12000.0
G1 Z0.0000 F8000.0
G0 X151.5843 Y-179.8720 F15000.0
G1 Z11.9000 F8000.0
G1 X151.6728 Y-179.9604 F12000.0
G1 Z0.0000 F8000.0
G0 X151.8497 Y-180.1373 F15000.0
G1 Z11.9000 F8000.0
G1 X152.8227 Y-179.5624 F12000.0
G1 Z0.0000 F8000.0
G0 X151.2747 Y-180.5796 F15000.0
G1 Z11.9000 F8000.0
G1 X151.1863 Y-180.6680 F12000.0
G1 Z0.0000 F8000.0
G0 X149.1518 Y-182.0391 F15000.0
G1 Z11.9000 F8000.0
G1 X148.6653 Y-182.3929 F12000.0
G1 Z0.0000 F8000.0
G0 X148.9749 Y-186.2406 F15000.0
G1 Z11.9000 F8000.0
G1 X151.2305 Y-185.3561 F12000.0
G1 Z0.0000 F8000.0
G0 X151.6728 Y-185.1792 F15000.0
G1 Z11.9000 F8000.0
G1 X152.3804 Y-185.0465 F12000.0
G1 X152.6458 Y-185.2234
G1 Z0.0000 F8000.0
G0 X152.7342 Y-185.3561 F15000.0
G1 Z11.9000 F8000.0
G1 X152.7342 Y-186.3291 F12000.0
G1 X152.6458 Y-186.5944
G1 X152.2035 Y-187.0809
G1 X151.4074 Y-187.4348
G1 Z0.0000 F8000.0
G0 X150.9209 Y-187.6117 F15000.0
G1 Z11.9000 F8000.0
G1 X150.7882 Y-187.6559 F12000.0
G1 Z0.0000 F8000.0
G0 X150.1691 Y-187.8770 F15000.0
G1 Z11.9000 F8000.0
G1 X150.0364 Y-187.9212 F12000.0
G1 Z0.0000 F8000.0
G0 X149.0634 Y-188.2751 F15000.0
G1 Z11.9000 F8000.0
G1 X148.5327 Y-188.1866 F12000.0
G1 X148.4000 Y-186.8598
G1 X148.7096 Y-186.4618
G1 Z0.0000 F8000.0
G0 X139.1765 Y-185.9353 F15000.0
G1 Z11.9000 F8000.0
G1 X139.1765 Y-186.9083 F12000.0
G1 X139.0880 Y-187.1737
G1 X138.6457 Y-187.6602
G1 X137.8496 Y-188.0140
G1 Z0.0000 F8000.0
G0 X137.3632 Y-188.1909 F15000.0
G1 Z11.9000 F8000.0
G1 X137.2305 Y-188.2351 F12000.0
G1 Z0.0000 F8000.0
G0 X136.6113 Y-188.4563 F15000.0
G1 Z11.9000 F8000.0
G1 X136.4786 Y-188.5005 F12000.0
G1 Z0.0000 F8000.0
G0 X135.5056 Y-188.8543 F15000.0
G1 Z11.9000 F8000.0
G1 X134.9749 Y-188.7658 F12000.0
G1 X134.8422 Y-187.4390
G1 X135.1518 Y-187.0410
G1 Z0.0000 F8000.0
G0 X135.4172 Y-186.8199 F15000.0
G1 Z11.9000 F8000.0
G1 X137.6727 Y-185.9353 F12000.0
G1 Z0.0000 F8000.0
G0 X138.1150 Y-185.7584 F15000.0
G1 Z11.9000 F8000.0
G1 X138.8226 Y-185.6257 F12000.0
G1 X139.0880 Y-185.8026
G1 Z0.0000 F8000.0
G0 X138.2316 Y-184.7752 F15000.0
G1 Z11.9000 F8000.0
G1 X138.2316 Y-184.3329 F12000.0
G1 Z0.0000 F8000.0
G0 X138.2316 Y-184.1118 F15000.0
G1 Z11.9000 F8000.0
G1 X138.1874 Y-184.2887 F12000.0
G1 X137.1702 Y-184.5983
G1 Z0.0000 F8000.0
G0 X136.3299 Y-182.6523 F15000.0
G1 Z11.9000 F8000.0
G1 X136.1972 Y-182.6965 F12000.0
G1 Z0.0000 F8000.0
G0 X135.7107 Y-182.8734 F15000.0
G1 Z11.9000 F8000.0
G1 X135.3127 Y-182.8734 F12000.0
G1 X135.4011 Y-182.6081
G1 Z0.0000 F8000.0
G0 X135.7107 Y-182.2985 F15000.0
G1 Z11.9000 F8000.0
G1 X136.1972 Y-181.8120 F12000.0
G1 Z0.0000 F8000.0
G0 X136.6837 Y-181.2813 F15000.0
G1 Z11.9000 F8000.0
G1 X136.7722 Y-181.0159 F12000.0
G1 Z0.0000 F8000.0
G0 X136.9933 Y-180.9275 F15000.0
G1 Z11.9000 F8000.0
G1 X136.7279 Y-180.9717 F12000.0
G1 X135.8434 Y-180.7505
G1 Z0.0000 F8000.0
G0 X135.4011 Y-180.6179 F15000.0
G1 Z11.9000 F8000.0
G1 X135.2684 Y-180.5736 F12000.0
G1 Z0.0000 F8000.0
G0 X135.4011 Y-180.2640 F15000.0
G1 Z11.9000 F8000.0
G1 X135.1800 Y-180.5294 F12000.0
G1 X134.8704 Y-180.5294
G1 Z0.0000 F8000.0
G0 X134.8262 Y-183.1830 F15000.0
G1 Z11.9000 F8000.0
G1 X134.6935 Y-183.2715 F12000.0
G1 Z0.0000 F8000.0
G0 X133.7849 Y-184.0480 F15000.0
G1 Z11.9000 F8000.0
G1 X121.8398 Y-184.0480 F12000.0
G1 Z0.0000 F8000.0
G0 X120.3570 Y-184.0480 F15000.0
G1 Z11.9000 F8000.0
G1 X118.7918 Y-184.0480 F12000.0
G1 Z0.0000 F8000.0
G0 X117.3913 Y-184.0480 F15000.0
G1 Z11.9000 F8000.0
G1 X105.3638 Y-184.0480 F12000.0
G1 Z0.0000 F8000.0
G0 X103.8810 Y-184.0480 F15000.0
G1 Z11.9000 F8000.0
G1 X102.3158 Y-184.0480 F12000.0
G1 Z0.0000 F8000.0
G0 X100.9153 Y-184.0480 F15000.0
G1 Z11.9000 F8000.0
G1 X88.8879 Y-184.0480 F12000.0
G1 Z0.0000 F8000.0
G0 X87.4050 Y-184.0480 F15000.0
G1 Z11.9000 F8000.0
G1 X85.9222 Y-184.0480 F12000.0
G1 Z0.0000 F8000.0
G0 X84.4394 Y-184.0480 F15000.0
G1 Z11.9000 F8000.0
G1 X72.4119 Y-184.0480 F12000.0
G1 Z0.0000 F8000.0
G0 X71.0114 Y-184.0480 F15000.0
G1 Z11.9000 F8000.0
G1 X69.4462 Y-184.0480 F12000.0
G1 Z0.0000 F8000.0
G0 X67.9634 Y-184.0480 F15000.0
G1 Z11.9000 F8000.0
G1 X55.9359 Y-184.0480 F12000.0
G1 Z0.0000 F8000.0
G0 X57.9131 Y-184.0480 F15000.0
G1 Z11.9000 F8000.0
G1 X57.9131 Y-137.3387 F12000.0
G1 X69.6110 Y-125.7231 F12000.0
G1 X77.3547 Y-125.7231 F12000.0
G1 X81.3089 Y-125.7231 F12000.0
G1 X92.9245 Y-125.7231 F12000.0
G1 X92.9245 Y-133.4668 F12000.0
G1 X131.8902 Y-133.4668 F12000.0
G1 X131.8902 Y-145.1648 F12000.0
G1 X108.4943 Y-145.1648 F12000.0
G1 X108.4943 Y-154.8856 F12000.0
G1 X108.4943 Y-219.0595 F12000.0
G1 X108.4943 Y-223.0137 F12000.0
G1 X131.8902 Y-223.0137 F12000.0
G1 X131.8902 Y-234.6293 F12000.0
G1 X92.9245 Y-234.6293 F12000.0
G1 X92.9245 Y-242.4554 F12000.0
G1 X81.3089 Y-242.4554 F12000.0
G1 X77.3547 Y-242.4554 F12000.0
G1 X69.6110 Y-242.4554 F12000.0
G1 X25.9497 Y-242.4554 F12000.0
G1 Z0.0000 F8000.0
G0 X27.9268 Y-242.4554 F15000.0
G1 Z11.9000 F8000.0
G1 X28.5034 Y-237.5949 F12000.0
G1 X27.9268 Y-238.0892 F12000.0
G1 X27.2678 Y-237.5949 F12000.0
G1 X27.9268 Y-242.4554 F12000.0
G1 X27.9268 Y-125.7231 F12000.0
G1 X27.2678 Y-130.5835 F12000.0
G1 X27.9268 Y-130.0892 F12000.0
G1 X28.5034 Y-130.5835 F12000.0
G1 X27.9268 Y-125.7231 F12000.0
G1 Z0.0000 F8000.0
G0 X25.9497 Y-125.7231 F15000.0
G1 Z11.9000 F8000.0
G1 X69.6110 Y-125.7231 F12000.0
G1 X69.6110 Y-113.2838 F12000.0
G1 Z0.0000 F8000.0
G0 X69.6110 Y-115.1785 F15000.0
G1 Z11.9000 F8000.0
G1 X74.4714 Y-115.8375 F12000.0
G1 X73.9771 Y-115.1785 F12000.0
G1 X74.4714 Y-114.5195 F12000.0
G1 X69.6110 Y-115.1785 F12000.0
G1 X92.9245 Y-115.1785 F12000.0
G1 X88.0641 Y-114.5195 F12000.0
G1 X88.5584 Y-115.1785 F12000.0
G1 X88.0641 Y-115.8375 F12000.0
G1 X92.9245 Y-115.1785 F12000.0
G1 X97.7849 Y-115.8375 F12000.0
G1 X97.2906 Y-115.1785 F12000.0
G1 X97.7849 Y-114.5195 F12000.0
G1 X92.9245 Y-115.1785 F12000.0
G1 X131.8902 Y-115.1785 F12000.0
G1 X127.0297 Y-114.5195 F12000.0
G1 X127.5240 Y-115.1785 F12000.0
G1 X127.0297 Y-115.8375 F12000.0
G1 X131.8902 Y-115.1785 F12000.0
G1 Z0.0000 F8000.0
G0 X129.9390 Y-114.8902 F15000.0
G1 Z11.9000 F8000.0
G1 X129.0633 Y-114.8902 F12000.0
G1 Z0.0000 F8000.0
G0 X128.7750 Y-115.5080 F15000.0
G1 Z11.9000 F8000.0
G1 X129.6507 Y-115.5080 F12000.0
G1 Z0.0000 F8000.0
G0 X114.6470 Y-119.4245 F15000.0
G1 Z11.9000 F8000.0
G1 X115.4431 Y-121.9454 F12000.0
G1 X115.1335 Y-122.2992
G1 X113.9836 Y-122.2108
G1 X113.4529 Y-121.7243
G1 X112.3472 Y-118.9380
G1 X112.2587 Y-118.2304
G1 X112.3914 Y-118.0092
G1 Z0.0000 F8000.0
G0 X112.5241 Y-117.9208 F15000.0
G1 Z11.9000 F8000.0
G1 X113.4529 Y-117.8765 F12000.0
G1 X113.8067 Y-118.0092
G1 X114.2490 Y-118.4073
G1 X114.5143 Y-119.0707
G1 Z0.0000 F8000.0
G0 X112.3914 Y-121.8127 F15000.0
G1 Z11.9000 F8000.0
G1 X112.2587 Y-121.1051 F12000.0
G1 X109.2955 Y-117.9208
G1 X108.9860 Y-117.7881
G1 Z0.0000 F8000.0
G0 X109.2955 Y-117.9208 F15000.0
G1 Z11.9000 F8000.0
G1 X110.9319 Y-117.8323 F12000.0
G1 Z0.0000 F8000.0
G0 X110.4454 Y-121.6801 F15000.0
G1 Z11.9000 F8000.0
G1 X110.7108 Y-121.9454 F12000.0
G1 X111.1973 Y-122.2108
G1 X111.9492 Y-122.2992
G1 Z0.0000 F8000.0
G0 X113.5194 Y-133.4668 F15000.0
G1 Z11.9000 F8000.0
G1 X129.0892 Y-149.0366 F12000.0
G1 Z0.0000 F8000.0
G0 X131.8902 Y-149.0366 F15000.0
G1 Z11.9000 F8000.0
G1 X92.9245 Y-149.0366 F12000.0
G1 X92.9245 Y-184.0480 F12000.0
G1 X92.9245 Y-219.0595 F12000.0
G1 X131.8902 Y-219.0595 F12000.0
G1 Z0.0000 F8000.0
G0 X128.9245 Y-219.0595 F15000.0
G1 Z11.9000 F8000.0
G1 X131.8902 Y-222.0252 F12000.0
G1 Z0.0000 F8000.0
G0 X131.8902 Y-223.0137 F15000.0
G1 Z11.9000 F8000.0
G1 X131.8902 Y-145.1648 F12000.0
G1 X143.8352 Y-145.1648 F12000.0
G1 Z0.0000 F8000.0
G0 X141.9405 Y-145.1648 F15000.0
G1 Z11.9000 F8000.0
G1 X141.2815 Y-150.0252 F12000.0
G1 X141.9405 Y-149.5309 F12000.0
G1 X142.5172 Y-150.0252 F12000.0
G1 X141.9405 Y-145.1648 F12000.0
G1 X141.9405 Y-223.0137 F12000.0
G1 X142.5172 Y-218.1533 F12000.0
G1 X141.9405 Y-218.5652 F12000.0
G1 X141.2815 Y-218.1533 F12000.0
G1 X141.9405 Y-223.0137 F12000.0
G1 Z0.0000 F8000.0
G0 X143.8352 Y-223.0137 F15000.0
G1 Z11.9000 F8000.0
G1 X131.8902 Y-223.0137 F12000.0
G1 Z0.0000 F8000.0
G0 X131.8902 Y-226.1441 F15000.0
G1 Z11.9000 F8000.0
G1 X124.8055 Y-219.0595 F12000.0
G1 Z0.0000 F8000.0
G0 X120.6865 Y-219.0595 F15000.0
G1 Z11.9000 F8000.0
G1 X131.8902 Y-230.2631 F12000.0
G1 Z0.0000 F8000.0
G0 X131.8902 Y-234.3821 F15000.0
G1 Z11.9000 F8000.0
G1 X116.5675 Y-219.0595 F12000.0
G1 Z0.0000 F8000.0
G0 X112.4485 Y-219.0595 F15000.0
G1 Z11.9000 F8000.0
G1 X128.0183 Y-234.6293 F12000.0
G1 Z0.0000 F8000.0
G0 X131.8902 Y-234.6293 F15000.0
G1 Z11.9000 F8000.0
G1 X157.4279 Y-234.6293 F12000.0
G1 Z0.0000 F8000.0
G0 X155.5332 Y-234.6293 F15000.0
G1 Z11.9000 F8000.0
G1 X156.1922 Y-229.7689 F12000.0
G1 X155.5332 Y-230.2631 F12000.0
G1 X154.8741 Y-229.7689 F12000.0
G1 X155.5332 Y-234.6293 F12000.0
G1 X155.5332 Y-133.4668 F12000.0
G1 X154.8741 Y-138.3272 F12000.0
G1 X155.5332 Y-137.8330 F12000.0
G1 X156.1922 Y-138.3272 F12000.0
G1 X155.5332 Y-133.4668 F12000.0
G1 Z0.0000 F8000.0
G0 X157.4279 Y-133.4668 F15000.0
G1 Z11.9000 F8000.0
G1 X131.8902 Y-133.4668 F12000.0
G1 X131.8902 Y-95.4897 F12000.0
G1 Z0.0000 F8000.0
G0 X131.8902 Y-97.4668 F15000.0
G1 Z11.9000 F8000.0
G1 X127.0297 Y-96.8078 F12000.0
G1 X127.5240 Y-97.4668 F12000.0
G1 X127.0297 Y-98.0435 F12000.0
G1 X131.8902 Y-97.4668 F12000.0
G1 X57.9131 Y-97.4668 F12000.0
G1 X62.7735 Y-98.0435 F12000.0
G1 X62.2792 Y-97.4668 F12000.0
G1 X62.7735 Y-96.8078 F12000.0
G1 X57.9131 Y-97.4668 F12000.0
G1 Z0.0000 F8000.0
G0 X57.9131 Y-95.4897 F15000.0
G1 Z11.9000 F8000.0
G1 X57.9131 Y-137.3387 F12000.0
G1 X50.6636 Y-144.5881 F12000.0
G1 Z0.0000 F8000.0
G0 X52.0641 Y-143.1876 F15000.0
G1 Z11.9000 F8000.0
G1 X50.4989 Y-141.4577 F12000.0
G1 X48.8513 Y-139.2334 F12000.0
G1 X47.3684 Y-136.6796 F12000.0
G1 X46.2975 Y-134.1259 F12000.0
G1 X45.4737 Y-131.3249 F12000.0
G1 X44.9794 Y-128.5240 F12000.0
G1 X44.8147 Y-125.7231 F12000.0
G1 X44.5675 Y-130.5835 F12000.0
G1 X45.2266 Y-130.0069 F12000.0
G1 X45.8856 Y-130.5011 F12000.0
G1 X44.8147 Y-125.7231 F12000.0
G1 Z0.0000 F8000.0
G0 X44.9382 Y-127.7567 F15000.0
G1 Z11.9000 F8000.0
G1 X44.9382 Y-128.6324 F12000.0
G1 Z0.0000 F8000.0
G0 X45.3913 Y-128.7559 F15000.0
G1 Z11.9000 F8000.0
G1 X45.3913 Y-127.8802 F12000.0
G1 Z0.0000 F8000.0
G0 X47.6980 Y-137.3387 F15000.0
G1 Z11.9000 F8000.0
G1 X42.9199 Y-139.3158 F12000.0
G1 X29.4096 Y-139.3158 F12000.0
G1 Z0.0000 F8000.0
G0 X33.3373 Y-142.1430 F15000.0
G1 Z11.9000 F8000.0
G1 X33.5585 Y-142.6737 F12000.0
G1 X33.6027 Y-143.0275
G1 X32.4528 Y-143.1159
G1 X32.4970 Y-143.3813
G1 X33.5142 Y-145.1504
G1 Z0.0000 F8000.0
G0 X33.8238 Y-145.7253 F15000.0
G1 Z11.9000 F8000.0
G1 X34.2661 Y-146.5214 F12000.0
G1 Z0.0000 F8000.0
G0 X36.1236 Y-145.3273 F15000.0
G1 Z11.9000 F8000.0
G1 X36.5217 Y-146.3887 F12000.0
G1 Z0.0000 F8000.0
G0 X36.6101 Y-146.4772 F15000.0
G1 Z11.9000 F8000.0
G1 X38.1138 Y-146.5214 F12000.0
G1 Z0.0000 F8000.0
G0 X38.8334 Y-145.5955 F15000.0
G1 Z11.9000 F8000.0
G1 X38.9219 Y-146.0377 F12000.0
G1 X39.2757 Y-146.3473
G1 X39.6737 Y-146.3915
G1 Z0.0000 F8000.0
G0 X39.7622 Y-146.3031 F15000.0
G1 Z11.9000 F8000.0
G1 X39.8506 Y-146.0820 F12000.0
G1 X39.7622 Y-145.8608
G1 Z0.0000 F8000.0
G0 X39.4083 Y-145.5070 F15000.0
G1 Z11.9000 F8000.0
G1 X38.9661 Y-145.5070 F12000.0
G1 Z0.0000 F8000.0
G0 X37.1408 Y-144.1774 F15000.0
G1 Z11.9000 F8000.0
G1 X37.0966 Y-143.3371 F12000.0
G1 X36.8313 Y-142.6737
G1 X36.3890 Y-142.2314
G1 X34.7526 Y-141.9218
G1 Z0.0000 F8000.0
G0 X34.4872 Y-143.1159 F15000.0
G1 Z11.9000 F8000.0
G1 X33.8238 Y-143.0717 F12000.0
G1 X34.1334 Y-144.0889
G1 Z0.0000 F8000.0
G0 X35.9467 Y-144.8850 F15000.0
G1 Z11.9000 F8000.0
G1 X35.9025 Y-144.5312 F12000.0
G1 X36.9639 Y-144.3543
G1 Z0.0000 F8000.0
G0 X48.4394 Y-139.8924 F15000.0
G1 Z11.9000 F8000.0
G1 X49.2632 Y-139.8924 F12000.0
G1 X49.4279 Y-139.0687 F12000.0
G1 X52.0641 Y-143.1876 F12000.0
G1 X48.4394 Y-139.8924 F12000.0
G1 Z0.0000 F8000.0
G0 X50.2819 Y-141.4275 F15000.0
G1 Z11.9000 F8000.0
G1 X50.9630 Y-140.7464 F12000.0
G1 Z0.0000 F8000.0
G0 X50.6747 Y-141.1995 F15000.0
G1 Z11.9000 F8000.0
G1 X49.9936 Y-141.8806 F12000.0
G1 Z0.0000 F8000.0
G0 X57.9131 Y-143.9291 F15000.0
G1 Z11.9000 F8000.0
G1 X92.9245 Y-178.9405 F12000.0
G1 Z0.0000 F8000.0
G0 X92.9245 Y-183.0595 F15000.0
G1 Z11.9000 F8000.0
G1 X57.9131 Y-148.0481 F12000.0
G1 Z0.0000 F8000.0
G0 X57.9131 Y-152.1670 F15000.0
G1 Z11.9000 F8000.0
G1 X92.9245 Y-187.2609 F12000.0
G1 Z0.0000 F8000.0
G0 X92.9245 Y-191.3799 F15000.0
G1 Z11.9000 F8000.0
G1 X57.9131 Y-156.2860 F12000.0
G1 Z0.0000 F8000.0
G0 X57.9131 Y-160.4874 F15000.0
G1 Z11.9000 F8000.0
G1 X92.9245 Y-195.4988 F12000.0
G1 Z0.0000 F8000.0
G0 X92.9245 Y-199.6178 F15000.0
G1 Z11.9000 F8000.0
G1 X57.9131 Y-164.6064 F12000.0
G1 Z0.0000 F8000.0
G0 X57.9131 Y-168.7254 F15000.0
G1 Z11.9000 F8000.0
G1 X92.9245 Y-203.7368 F12000.0
G1 Z0.0000 F8000.0
G0 X92.9245 Y-207.8558 F15000.0
G1 Z11.9000 F8000.0
G1 X57.9131 Y-172.8444 F12000.0
G1 Z0.0000 F8000.0
G0 X57.9131 Y-176.9634 F15000.0
G1 Z11.9000 F8000.0
G1 X92.9245 Y-211.9748 F12000.0
G1 Z0.0000 F8000.0
G0 X92.9245 Y-216.0938 F15000.0
G1 Z11.9000 F8000.0
G1 X57.9131 Y-181.0824 F12000.0
G1 Z0.0000 F8000.0
G0 X57.9131 Y-184.0480 F15000.0
G1 Z11.9000 F8000.0
G1 X57.9131 Y-230.7574 F12000.0
G1 Z0.0000 F8000.0
G0 X57.9131 Y-230.5927 F15000.0
G1 Z11.9000 F8000.0
G1 X69.6934 Y-242.4554 F12000.0
G1 Z0.0000 F8000.0
G0 X73.8947 Y-242.4554 F15000.0
G1 Z11.9000 F8000.0
G1 X57.9131 Y-226.4737 F12000.0
G1 Z0.0000 F8000.0
G0 X57.9131 Y-222.3547 F15000.0
G1 Z11.9000 F8000.0
G1 X78.0137 Y-242.4554 F12000.0
G1 Z0.0000 F8000.0
G0 X82.1327 Y-242.4554 F15000.0
G1 Z11.9000 F8000.0
G1 X57.9131 Y-218.2357 F12000.0
G1 Z0.0000 F8000.0
G0 X57.9131 Y-214.1167 F15000.0
G1 Z11.9000 F8000.0
G1 X86.2517 Y-242.4554 F12000.0
G1 Z0.0000 F8000.0
G0 X90.3707 Y-242.4554 F15000.0
G1 Z11.9000 F8000.0
G1 X57.9131 Y-209.9977 F12000.0
G1 Z0.0000 F8000.0
G0 X57.9131 Y-205.8787 F15000.0
G1 Z11.9000 F8000.0
G1 X92.9245 Y-240.8901 F12000.0
G1 Z0.0000 F8000.0
G0 X92.9245 Y-236.7711 F15000.0
G1 Z11.9000 F8000.0
G1 X57.9131 Y-201.7597 F12000.0
G1 Z0.0000 F8000.0
G0 X57.9131 Y-197.6407 F15000.0
G1 Z11.9000 F8000.0
G1 X94.9840 Y-234.6293 F12000.0
G1 Z0.0000 F8000.0
G0 X99.1030 Y-234.6293 F15000.0
G1 Z11.9000 F8000.0
G1 X57.9131 Y-193.4393 F12000.0
G1 Z0.0000 F8000.0
G0 X57.9131 Y-189.3204 F15000.0
G1 Z11.9000 F8000.0
G1 X103.2220 Y-234.6293 F12000.0
G1 Z0.0000 F8000.0
G0 X107.3410 Y-234.6293 F15000.0
G1 Z11.9000 F8000.0
G1 X57.9131 Y-185.2014 F12000.0
G1 Z0.0000 F8000.0
G0 X25.1142 Y-185.5492 F15000.0
G1 Z11.9000 F8000.0
G1 X25.1142 Y-186.5222 F12000.0
G1 X25.0257 Y-186.7875
G1 X24.5835 Y-187.2740
G1 X23.7874 Y-187.6278
G1 Z0.0000 F8000.0
G0 X23.3009 Y-187.8047 F15000.0
G1 Z11.9000 F8000.0
G1 X23.1682 Y-187.8490 F12000.0
G1 Z0.0000 F8000.0
G0 X22.5490 Y-188.0701 F15000.0
G1 Z11.9000 F8000.0
G1 X22.4163 Y-188.1143 F12000.0
G1 Z0.0000 F8000.0
G0 X21.4434 Y-188.4681 F15000.0
G1 Z11.9000 F8000.0
G1 X20.9126 Y-188.3797 F12000.0
G1 X20.7799 Y-187.0529
G1 X21.0895 Y-186.6548
G1 Z0.0000 F8000.0
G0 X21.3549 Y-186.4337 F15000.0
G1 Z11.9000 F8000.0
G1 X23.6105 Y-185.5492 F12000.0
G1 Z0.0000 F8000.0
G0 X24.0527 Y-185.3723 F15000.0
G1 Z11.9000 F8000.0
G1 X24.7604 Y-185.2396 F12000.0
G1 X25.0257 Y-185.4165
G1 Z0.0000 F8000.0
G0 X24.7161 Y-184.2224 F15000.0
G1 Z11.9000 F8000.0
G1 X24.0527 Y-184.5319 F12000.0
G1 X23.3009 Y-184.7531
G1 X23.0355 Y-184.6646
G1 Z0.0000 F8000.0
G0 X22.9028 Y-184.5319 F15000.0
G1 Z11.9000 F8000.0
G1 X22.6817 Y-183.0282 F12000.0
G1 X21.9741 Y-183.3821
G1 X21.7529 Y-183.6032
G1 Z0.0000 F8000.0
G0 X21.2664 Y-184.0897 F15000.0
G1 Z11.9000 F8000.0
G1 X20.7357 Y-185.0184 F12000.0
G1 Z0.0000 F8000.0
G0 X22.7259 Y-183.0282 F15000.0
G1 Z11.9000 F8000.0
G1 X22.9471 Y-182.8513 F12000.0
G1 X23.3009 Y-182.7186
G1 Z0.0000 F8000.0
G0 X23.2567 Y-181.8341 F15000.0
G1 Z11.9000 F8000.0
G1 X22.8586 Y-181.9668 F12000.0
G1 X22.2394 Y-181.7457
G1 X22.0625 Y-181.5245
G1 X21.8856 Y-181.6130
G1 Z0.0000 F8000.0
G0 X21.5318 Y-181.8341 F15000.0
G1 Z11.9000 F8000.0
G1 X21.0453 Y-182.1879 F12000.0
G1 Z0.0000 F8000.0
G0 X22.3721 Y-181.2592 F15000.0
G1 Z11.9000 F8000.0
G1 X22.0625 Y-181.3476 F12000.0
G1 X22.2837 Y-180.3304
G1 Z0.0000 F8000.0
G0 X22.4606 Y-180.1093 F15000.0
G1 Z11.9000 F8000.0
G1 X22.7259 Y-179.8439 F12000.0
G1 X23.7431 Y-179.5785
G1 X24.0527 Y-179.7997
G1 Z0.0000 F8000.0
G0 X24.2296 Y-179.9324 F15000.0
G1 Z11.9000 F8000.0
G1 X25.2026 Y-179.3574 F12000.0
G1 Z0.0000 F8000.0
G0 X24.0085 Y-180.1977 F15000.0
G1 Z11.9000 F8000.0
G1 X24.2296 Y-180.1535 F12000.0
G1 X24.0527 Y-181.0823
G1 X23.7431 Y-181.4803
G1 Z0.0000 F8000.0
G0 X24.4065 Y-182.3206 F15000.0
G1 Z11.9000 F8000.0
G1 X25.0257 Y-182.4533 F12000.0
G1 Z0.0000 F8000.0
G0 X25.1142 Y-182.5860 F15000.0
G1 Z11.9000 F8000.0
G1 X25.2026 Y-182.8513 F12000.0
G1 X25.0257 Y-183.8243
G1 Z0.0000 F8000.0
G0 X57.9131 Y-139.8101 F15000.0
G1 Z11.9000 F8000.0
G1 X92.9245 Y-174.8215 F12000.0
G1 Z0.0000 F8000.0
G0 X92.9245 Y-170.7025 F15000.0
G1 Z11.9000 F8000.0
G1 X58.7369 Y-136.5149 F12000.0
G1 Z0.0000 F8000.0
G0 X60.7963 Y-134.4554 F15000.0
G1 Z11.9000 F8000.0
G1 X92.9245 Y-166.5835 F12000.0
G1 Z0.0000 F8000.0
G0 X92.9245 Y-162.4645 F15000.0
G1 Z11.9000 F8000.0
G1 X62.8558 Y-132.3959 F12000.0
G1 Z0.0000 F8000.0
G0 X64.9153 Y-130.3364 F15000.0
G1 Z11.9000 F8000.0
G1 X92.9245 Y-158.3455 F12000.0
G1 Z0.0000 F8000.0
G0 X92.9245 Y-154.2265 F15000.0
G1 Z11.9000 F8000.0
G1 X66.9748 Y-128.2769 F12000.0
G1 Z0.0000 F8000.0
G0 X69.1167 Y-126.2174 F15000.0
G1 Z11.9000 F8000.0
G1 X92.9245 Y-150.1076 F12000.0
G1 Z0.0000 F8000.0
G0 X96.0549 Y-149.0366 F15000.0
G1 Z11.9000 F8000.0
G1 X72.6590 Y-125.7231 F12000.0
G1 Z0.0000 F8000.0
G0 X76.7780 Y-125.7231 F15000.0
G1 Z11.9000 F8000.0
G1 X100.1739 Y-149.0366 F12000.0
G1 Z0.0000 F8000.0
G0 X104.2929 Y-149.0366 F15000.0
G1 Z11.9000 F8000.0
G1 X80.9794 Y-125.7231 F12000.0
G1 Z0.0000 F8000.0
G0 X81.1251 Y-122.2992 F15000.0
G1 Z11.9000 F8000.0
G1 X80.8597 Y-121.9454 F12000.0
G1 X79.4003 Y-117.8765
G1 Z0.0000 F8000.0
G0 X80.6828 Y-118.0977 F15000.0
G1 Z11.9000 F8000.0
G1 X80.6828 Y-118.9380 F12000.0
G1 X81.7885 Y-121.7243
G1 X82.3192 Y-122.2108
G1 X83.4691 Y-122.2992
G1 Z0.0000 F8000.0
G0 X83.7787 Y-121.9454 F15000.0
G1 Z11.9000 F8000.0
G1 X82.9826 Y-119.4245 F12000.0
G1 Z0.0000 F8000.0
G0 X82.8500 Y-119.0707 F15000.0
G1 Z11.9000 F8000.0
G1 X82.4961 Y-118.3188 F12000.0
G1 Z0.0000 F8000.0
G0 X82.2750 Y-118.0977 F15000.0
G1 Z11.9000 F8000.0
G1 X81.5674 Y-117.8323 F12000.0
G1 X80.7713 Y-118.0092
G1 Z0.0000 F8000.0
G0 X79.5772 Y-121.2378 F15000.0
G1 Z11.9000 F8000.0
G1 X79.7541 Y-121.4147 F12000.0
G1 Z0.0000 F8000.0
G0 X80.5059 Y-121.9012 F15000.0
G1 Z11.9000 F8000.0
G1 X80.8155 Y-121.9896 F12000.0
G1 Z0.0000 F8000.0
G0 X85.0984 Y-125.7231 F15000.0
G1 Z11.9000 F8000.0
G1 X108.4119 Y-149.0366 F12000.0
G1 Z0.0000 F8000.0
G0 X112.5309 Y-149.0366 F15000.0
G1 Z11.9000 F8000.0
G1 X96.9611 Y-133.4668 F12000.0
G1 Z0.0000 F8000.0
G0 X101.0801 Y-133.4668 F15000.0
G1 Z11.9000 F8000.0
G1 X116.6499 Y-149.0366 F12000.0
G1 Z0.0000 F8000.0
G0 X120.7689 Y-149.0366 F15000.0
G1 Z11.9000 F8000.0
G1 X105.1991 Y-133.4668 F12000.0
G1 Z0.0000 F8000.0
G0 X109.4005 Y-133.4668 F15000.0
G1 Z11.9000 F8000.0
G1 X124.9702 Y-149.0366 F12000.0
G1 Z0.0000 F8000.0
G0 X131.8902 Y-147.7185 F15000.0
G1 Z11.9000 F8000.0
G1 X117.6384 Y-133.4668 F12000.0
G1 Z0.0000 F8000.0
G0 X121.7574 Y-133.4668 F15000.0
G1 Z11.9000 F8000.0
G1 X131.8902 Y-143.5995 F12000.0
G1 Z0.0000 F8000.0
G0 X131.8902 Y-139.4806 F15000.0
G1 Z11.9000 F8000.0
G1 X125.8764 Y-133.4668 F12000.0
G1 Z0.0000 F8000.0
G0 X129.9954 Y-133.4668 F15000.0
G1 Z11.9000 F8000.0
G1 X131.8902 Y-135.3616 F12000.0
G1 Z0.0000 F8000.0
G0 X141.6522 Y-147.4866 F15000.0
G1 Z11.9000 F8000.0
G1 X141.6522 Y-148.3623 F12000.0
G1 Z0.0000 F8000.0
G0 X142.2288 Y-148.0740 F15000.0
G1 Z11.9000 F8000.0
G1 X142.2288 Y-147.1983 F12000.0
G1 Z0.0000 F8000.0
G0 X155.2448 Y-136.6644 F15000.0
G1 Z11.9000 F8000.0
G1 X155.2448 Y-135.7887 F12000.0
G1 Z0.0000 F8000.0
G0 X155.8627 Y-135.5004 F15000.0
G1 Z11.9000 F8000.0
G1 X155.8627 Y-136.3761 F12000.0
G1 Z0.0000 F8000.0
G0 X129.6095 Y-97.7552 F15000.0
G1 Z11.9000 F8000.0
G1 X128.7338 Y-97.7552 F12000.0
G1 Z0.0000 F8000.0
G0 X129.0633 Y-97.1785 F15000.0
G1 Z11.9000 F8000.0
G1 X129.9390 Y-97.1785 F12000.0
G1 Z0.0000 F8000.0
G0 X97.6868 Y-104.5947 F15000.0
G1 Z11.9000 F8000.0
G1 X95.4754 Y-102.6045 F12000.0
G1 X96.5369 Y-102.4276
G1 Z0.0000 F8000.0
G0 X96.7138 Y-102.2507 F15000.0
G1 Z11.9000 F8000.0
G1 X96.8022 Y-101.9853 F12000.0
G1 X96.4484 Y-100.8797
G1 Z0.0000 F8000.0
G0 X95.8735 Y-100.2605 F15000.0
G1 Z11.9000 F8000.0
G1 X94.3255 Y-99.9951 F12000.0
G1 Z0.0000 F8000.0
G0 X94.0159 Y-101.2777 F15000.0
G1 Z11.9000 F8000.0
G1 X93.7506 Y-100.6585 F12000.0
G1 X93.4852 Y-100.3932
G1 X92.9545 Y-100.1278
G1 X91.7604 Y-99.9951
G1 Z0.0000 F8000.0
G0 X94.1486 Y-101.5873 F15000.0
G1 Z11.9000 F8000.0
G1 X94.1928 Y-101.6757 F12000.0
G1 X93.9275 Y-102.5161
G1 X93.6179 Y-102.5161
G1 Z0.0000 F8000.0
G0 X94.0159 Y-102.6045 F15000.0
G1 Z11.9000 F8000.0
G1 X94.5466 Y-103.3564 F12000.0
G1 X94.8120 Y-104.1967
G1 X94.7236 Y-104.3736
G1 Z0.0000 F8000.0
G0 X94.5466 Y-104.5063 F15000.0
G1 Z11.9000 F8000.0
G1 X93.6179 Y-104.5947 F12000.0
G1 Z0.0000 F8000.0
G0 X92.9245 Y-113.2838 F15000.0
G1 Z11.9000 F8000.0
G1 X92.9245 Y-125.7231 F12000.0
G1 Z0.0000 F8000.0
G0 X89.2174 Y-125.7231 F15000.0
G1 Z11.9000 F8000.0
G1 X92.9245 Y-129.4302 F12000.0
G1 Z0.0000 F8000.0
G0 X90.6850 Y-115.5080 F15000.0
G1 Z11.9000 F8000.0
G1 X89.8093 Y-115.5080 F12000.0
G1 Z0.0000 F8000.0
G0 X90.0976 Y-114.8902 F15000.0
G1 Z11.9000 F8000.0
G1 X90.9733 Y-114.8902 F12000.0
G1 Z0.0000 F8000.0
G0 X94.9168 Y-114.8902 F15000.0
G1 Z11.9000 F8000.0
G1 X95.7925 Y-114.8902 F12000.0
G1 Z0.0000 F8000.0
G0 X96.1221 Y-115.5080 F15000.0
G1 Z11.9000 F8000.0
G1 X95.2464 Y-115.5080 F12000.0
G1 Z0.0000 F8000.0
G0 X72.8086 Y-115.5080 F15000.0
G1 Z11.9000 F8000.0
G1 X71.9329 Y-115.5080 F12000.0
G1 Z0.0000 F8000.0
G0 X71.6034 Y-114.8902 F15000.0
G1 Z11.9000 F8000.0
G1 X72.4790 Y-114.8902 F12000.0
G1 Z0.0000 F8000.0
G0 X61.1518 Y-97.7552 F15000.0
G1 Z11.9000 F8000.0
G1 X60.2761 Y-97.7552 F12000.0
G1 Z0.0000 F8000.0
G0 X59.9054 Y-97.1785 F15000.0
G1 Z11.9000 F8000.0
G1 X60.7811 Y-97.1785 F12000.0
G1 Z0.0000 F8000.0
G0 X63.2677 Y-58.9131 F15000.0
G1 Z11.9000 F8000.0
G1 X63.2677 Y-5.3662 F12000.0
G1 Z0.0000 F8000.0
G0 X63.2677 Y-10.2266 F15000.0
G1 Z11.9000 F8000.0
G1 X0.0000 Y-10.2266 F12000.0
G1 Z0.0000 F8000.0
G0 X1.6976 Y-11.5119 F15000.0
G1 Z11.9000 F8000.0
G1 X2.3541 Y-10.4452 F12000.0
G1 X2.6934 Y-10.5286
G1 X2.5338 Y-10.3534
G1 X2.7057 Y-10.5165
G1 X2.6180 Y-10.3647
G1 Z0.0000 F8000.0
G0 X3.1495 Y-11.3979 F15000.0
G1 Z11.9000 F8000.0
G1 X2.2465 Y-9.6252 F12000.0
G1 X1.9708 Y-9.5745
G1 X2.7968 Y-10.5750
G1 X3.4736 Y-10.8999
G1 X4.5593 Y-10.9767
G1 X4.1650 Y-10.9163
G1 X4.2436 Y-9.6863
G1 X5.2698 Y-10.3262
G1 X5.8956 Y-10.3001
G1 X6.2002 Y-10.1560
G1 X6.1367 Y-10.7353
G1 X6.2159 Y-9.7344
G1 X5.8958 Y-9.6287
G1 X5.3379 Y-10.1214
G1 X5.2411 Y-10.3096
G1 X5.9788 Y-10.9767
G1 Z0.0000 F8000.0
G0 X3.9940 Y-12.3971 F15000.0
G1 Z11.9000 F8000.0
G1 X4.0185 Y-13.0138 F12000.0
G1 X4.5122 Y-13.3358
G1 X4.8697 Y-13.8080
G1 Z0.0000 F8000.0
G0 X3.9940 Y-13.7593 F15000.0
G1 Z11.9000 F8000.0
G1 X4.0688 Y-13.1917 F12000.0
G1 X4.5320 Y-12.9236
G1 X4.4475 Y-13.1616
G1 X4.4462 Y-13.0537
G1 X4.8419 Y-12.4773
G1 X5.3742 Y-12.8527
G1 X5.4642 Y-13.4566
G1 X5.7231 Y-13.7626
G1 X5.6613 Y-13.7138
G1 X6.0546 Y-13.8066
G1 X6.3885 Y-13.6940
G1 X6.4976 Y-13.5011
G1 X6.5914 Y-12.7606
G1 X6.4655 Y-12.5662
G1 X6.0061 Y-12.3867
G1 X5.7840 Y-12.4346
G1 X5.4501 Y-12.7348
G1 X5.6066 Y-12.5057
G1 X5.7943 Y-12.4117
G1 X7.1476 Y-12.4311
G1 X7.2049 Y-13.6758
G1 X7.2495 Y-13.1636
G1 X8.1852 Y-13.0414
G1 X8.2694 Y-12.5023
G1 X8.3082 Y-13.7027
G1 X8.7533 Y-13.7983
G1 X9.9293 Y-13.8080
G1 Z0.0000 F8000.0
G0 X9.3455 Y-13.8080 F15000.0
G1 Z11.9000 F8000.0
G1 X9.4267 Y-12.4567 F12000.0
G1 X10.5015 Y-12.5258
G1 X11.2125 Y-12.4151
G1 X11.5085 Y-12.6368
G1 X11.6087 Y-12.8475
G1 X11.5147 Y-13.5858
G1 X11.2233 Y-13.7401
G1 X10.6242 Y-13.6397
G1 X10.4828 Y-12.8160
G1 X10.5400 Y-11.8412
G1 X11.5347 Y-12.6404
G1 Z0.0000 F8000.0
G0 X16.5584 Y-5.3662 F15000.0
G1 Z11.9000 F8000.0
G1 X16.5584 Y-58.9131 F12000.0
G1 Z0.0000 F8000.0
G0 X6.8375 Y-58.9131 F15000.0
G1 Z11.9000 F8000.0
G1 X6.8375 Y-34.6110 F12000.0
G1 Z0.0000 F8000.0
G0 X7.0322 Y-33.7740 F15000.0
G1 Z11.9000 F8000.0
G1 X6.9835 Y-33.6767 F12000.0
G1 Z0.0000 F8000.0
G0 X6.0105 Y-33.6281 F15000.0
G1 Z11.9000 F8000.0
G1 X6.6090 Y-33.4656 F12000.0
G1 X6.9537 Y-33.6738
G1 X7.0534 Y-33.8835
G1 X6.9541 Y-34.6183
G1 X6.7913 Y-34.7864
G1 X6.3112 Y-34.7830
G1 X6.0347 Y-34.5866
G1 X5.9619 Y-32.8497
G1 Z0.0000 F8000.0
G0 X4.5997 Y-33.4821 F15000.0
G1 Z11.9000 F8000.0
G1 X4.9537 Y-33.5084 F12000.0
G1 X5.2593 Y-33.6790
G1 X5.1374 Y-34.0914
G1 X4.9895 Y-34.1613
G1 X5.1659 Y-34.2345
G1 X5.2064 Y-34.6867
G1 X4.9093 Y-34.8190
G1 X4.6829 Y-34.7871
G1 X4.5024 Y-34.6011
G1 Z0.0000 F8000.0
G0 X3.7240 Y-34.7957 F15000.0
G1 Z11.9000 F8000.0
G1 X3.8463 Y-34.3069 F12000.0
G1 X3.8469 Y-33.5404
G1 X3.5339 Y-33.6381
G1 X3.1633 Y-34.0785
G1 X3.7874 Y-34.1648
G1 X3.9082 Y-33.5007
G1 X3.0396 Y-33.4782
G1 X2.9063 Y-33.9705
G1 X3.0307 Y-34.0547
G1 X2.8451 Y-33.6594
G1 X2.9294 Y-34.5656
G1 X3.6267 Y-34.8443
G1 Z0.0000 F8000.0
G0 X2.3132 Y-34.7470 F15000.0
G1 Z11.9000 F8000.0
G1 X2.2216 Y-35.1175 F12000.0
G1 X1.0302 Y-35.3861
G1 X0.9447 Y-35.2305
G1 X0.9053 Y-33.5713
G1 X1.0077 Y-34.3380
G1 X2.2645 Y-34.6497
G1 Z0.0000 F8000.0
G0 X0.0000 Y-34.6110 F15000.0
G1 Z11.9000 F8000.0
G1 X63.2677 Y-34.6110 F12000.0
G1 Z0.0000 F8000.0
G0 X61.3329 Y-36.7023 F15000.0
G1 Z11.9000 F8000.0
G1 X61.2824 Y-36.6252 F12000.0
G1 X60.9984 Y-36.5812
G1 X61.0648 Y-36.6541
G1 Z0.0000 F8000.0
G0 X61.2816 Y-37.3549 F15000.0
G1 Z11.9000 F8000.0
G1 X61.3474 Y-36.6094 F12000.0
G1 X60.3198 Y-36.5687
G1 X60.1327 Y-36.8465
G1 X60.3872 Y-37.2479
G1 X61.2813 Y-37.5499
G1 X61.2491 Y-37.8853
G1 X60.9553 Y-38.0884
G1 X60.4653 Y-38.0569
G1 X60.2930 Y-37.9560
G1 X60.3350 Y-38.0163
G1 Z0.0000 F8000.0
G0 X59.6540 Y-38.0650 F15000.0
G1 Z11.9000 F8000.0
G1 X58.6492 Y-38.0623 F12000.0
G1 X58.4294 Y-37.9866
G1 X57.9675 Y-37.4165
G1 X57.9578 Y-36.6936
G1 X57.1985 Y-36.5360
G1 X56.9629 Y-36.5688
G1 X56.7759 Y-36.8465
G1 X57.1354 Y-37.3017
G1 X57.8557 Y-37.4793
G1 X57.9366 Y-37.7767
G1 X57.8111 Y-37.9723
G1 X57.5985 Y-38.0884
G1 X57.1085 Y-38.0569
G1 X56.9361 Y-37.9560
G1 X56.9782 Y-38.0163
G1 Z0.0000 F8000.0
G0 X59.0215 Y-38.0650 F15000.0
G1 Z11.9000 F8000.0
G1 X59.0702 Y-36.6055 F12000.0
G1 Z0.0000 F8000.0
G0 X54.8377 Y-38.7461 F15000.0
G1 Z11.9000 F8000.0
G1 X55.8761 Y-38.6868 F12000.0
G1 X55.9716 Y-36.6351
G1 X56.1225 Y-36.5474
G1 X56.1820 Y-36.1239
G1 X55.8424 Y-36.5848
G1 X54.6102 Y-36.6260
G1 X54.3136 Y-36.1157
G1 X54.3171 Y-36.4289
G1 X54.5878 Y-36.7915
G1 X54.6894 Y-37.1528
G1 X54.7890 Y-38.6488
G1 Z0.0000 F8000.0
G0 X49.2865 Y-36.9298 F15000.0
G1 Z11.9000 F8000.0
G1 X49.2072 Y-38.2124 F12000.0
G1 X48.2633 Y-36.9441
G1 X47.7139 Y-36.5114
G1 X47.5586 Y-36.8775
G1 X46.5107 Y-36.9283
G1 X47.3807 Y-36.9077
G1 X47.4543 Y-36.9689
G1 X47.3954 Y-38.2060
G1 X46.5014 Y-37.0417
G1 X46.2428 Y-36.5750
G1 X46.2703 Y-36.8811
G1 Z0.0000 F8000.0
G0 X45.7838 Y-38.0974 F15000.0
G1 Z11.9000 F8000.0
G1 X45.5674 Y-38.2400 F12000.0
G1 X45.7428 Y-37.9999
G1 X45.8491 Y-37.2640
G1 X45.6728 Y-36.9892
G1 X45.7160 Y-37.0621
G1 X45.3069 Y-36.9132
G1 X44.9611 Y-36.9921
G1 X44.8081 Y-37.1641
G1 X44.6905 Y-37.5151
G1 X44.9079 Y-38.1448
G1 X45.4919 Y-38.2920
G1 Z0.0000 F8000.0
G0 X44.0324 Y-36.9298 F15000.0
G1 Z11.9000 F8000.0
G1 X43.9278 Y-38.7791 F12000.0
G1 X42.5729 Y-36.9298
G1 Z0.0000 F8000.0
G0 X34.5082 Y-36.5338 F15000.0
G1 Z11.9000 F8000.0
G1 X34.3498 Y-37.4550 F12000.0
G1 X34.3794 Y-37.8143
G1 X34.1258 Y-37.5532
G1 X33.8991 Y-36.9142
G1 X34.0281 Y-37.3307
G1 X33.6914 Y-36.6984
G1 X33.8481 Y-36.8372
G1 X33.9963 Y-37.2386
G1 X33.6660 Y-36.7443
G1 X33.0367 Y-37.7423
G1 X33.1669 Y-37.6071
G1 X32.9255 Y-37.6175
G1 X32.8259 Y-36.5536
G1 X32.6352 Y-36.5128
G1 X31.6516 Y-36.6630
G1 X31.0541 Y-37.8960
G1 Z0.0000 F8000.0
G0 X30.6163 Y-38.1392 F15000.0
G1 Z11.9000 F8000.0
G1 X31.0174 Y-37.9527 F12000.0
G1 X30.9953 Y-37.8981
G1 X30.4582 Y-37.9739
G1 Z0.0000 F8000.0
G0 X30.4217 Y-38.0419 F15000.0
G1 Z11.9000 F8000.0
G1 X29.9079 Y-37.3857 F12000.0
G1 X29.5460 Y-37.9933
G1 Z0.0000 F8000.0
G0 X30.0008 Y-37.4039 F15000.0
G1 Z11.9000 F8000.0
G1 X29.5802 Y-37.2167 F12000.0
G1 X29.5668 Y-36.5604
G1 X30.0119 Y-37.1416
G1 X30.9841 Y-35.9171
G1 X31.1605 Y-35.8070
G1 X31.4522 Y-35.9718
G1 X31.5847 Y-36.5690
G1 X31.8436 Y-36.9362
G1 X32.2703 Y-38.0419
G1 Z0.0000 F8000.0
G0 X27.6000 Y-37.7014 F15000.0
G1 Z11.9000 F8000.0
G1 X27.9870 Y-38.0419 F12000.0
G1 X28.3563 Y-38.0691
G1 X28.5549 Y-37.9578
G1 X28.8290 Y-37.0028
G1 X28.7664 Y-36.7797
G1 X28.5353 Y-36.4941
G1 X28.3092 Y-36.4197
G1 X27.6537 Y-36.7215
G1 X27.5625 Y-36.9445
G1 X27.5513 Y-37.6041
G1 Z0.0000 F8000.0
G0 X26.7729 Y-36.5338 F15000.0
G1 Z11.9000 F8000.0
G1 X26.9468 Y-36.3845 F12000.0
G1 X27.0162 Y-35.9500
G1 Z0.0000 F8000.0
G0 X25.3135 Y-35.9500 F15000.0
G1 Z11.9000 F8000.0
G1 X25.3621 Y-36.4365 F12000.0
G1 Z0.0000 F8000.0
G0 X25.8486 Y-38.0419 F15000.0
G1 Z11.9000 F8000.0
G1 X26.7729 Y-36.5338 F12000.0
G1 X25.3621 Y-36.4365
G1 X25.5567 Y-36.7284
G1 X25.8486 Y-38.0419
G1 Z0.0000 F8000.0
G0 X23.8905 Y-37.2635 F15000.0
G1 Z11.9000 F8000.0
G1 X23.9627 Y-37.4967 F12000.0
G1 X23.8667 Y-37.9891
G1 X23.3762 Y-38.1340
G1 X23.7258 Y-38.1115
G1 X23.8531 Y-38.0128
G1 X23.1657 Y-37.9823
G1 X23.1522 Y-37.3051
G1 X23.8548 Y-36.6452
G1 X23.8385 Y-37.2178
G1 X23.4743 Y-37.1102
G1 X23.3067 Y-37.1662
G1 Z0.0000 F8000.0
G0 X22.5283 Y-38.6257 F15000.0
G1 Z11.9000 F8000.0
G1 X22.4906 Y-36.9600 F12000.0
G1 X22.4003 Y-36.7401
G1 X22.1252 Y-36.9200
G1 X21.5721 Y-37.8089
G1 X21.0741 Y-38.2770
G1 X20.9735 Y-38.0344
G1 X20.9715 Y-36.4851
G1 Z0.0000 F8000.0
G0 X21.1107 Y-33.0887 F15000.0
G1 Z11.9000 F8000.0
G1 X20.7335 Y-32.0970 F12000.0
G1 X20.8036 Y-32.2262
G1 X20.6249 Y-32.0133
G1 X20.4934 Y-31.4411
G1 X20.3553 Y-31.2467
G1 X20.2027 Y-31.1878
G1 X20.5189 Y-32.0103
G1 X20.4321 Y-32.1380
G1 Z0.0000 F8000.0
G0 X20.8171 Y-32.3197 F15000.0
G1 Z11.9000 F8000.0
G1 X20.4535 Y-32.1925 F12000.0
G1 X20.0271 Y-33.1581
G1 X19.5877 Y-33.3443
G1 X19.2628 Y-33.6451
G1 X18.5532 Y-33.7383
G1 X18.1860 Y-33.5339
G1 X18.3780 Y-33.7017
G1 X18.1133 Y-33.3952
G1 X17.9470 Y-32.8080
G1 X17.9795 Y-32.5730
G1 X18.2497 Y-31.9957
G1 Z0.0000 F8000.0
G0 X18.3920 Y-31.9008 F15000.0
G1 Z11.9000 F8000.0
G1 X18.9595 Y-31.7996 F12000.0
G1 X19.3817 Y-32.0162
G1 X19.3087 Y-31.9434
G1 X19.5307 Y-32.2804
G1 Z0.0000 F8000.0
G0 X19.5930 Y-30.7423 F15000.0
G1 Z11.9000 F8000.0
G1 X20.1114 Y-29.6187 F12000.0
G1 X20.1860 Y-29.5994
G1 X20.3382 Y-29.7468
G1 X20.7088 Y-30.6599
G1 X21.2570 Y-30.5877
G1 X21.8491 Y-30.7027
G1 X22.0807 Y-30.3485
G1 X21.9260 Y-30.6753
G1 X22.0339 Y-30.1406
G1 X21.9904 Y-30.0534
G1 X21.7820 Y-30.0125
G1 X22.0155 Y-29.8905
G1 X22.1027 Y-29.4425
G1 X21.7937 Y-29.3049
G1 X21.3782 Y-29.3912
G1 X21.4904 Y-29.3314
G1 Z0.0000 F8000.0
G0 X20.2255 Y-29.5747 F15000.0
G1 Z11.9000 F8000.0
G1 X20.0410 Y-28.9597 F12000.0
G1 X19.7650 Y-28.7037
G1 X19.9716 Y-28.8326
G1 X19.9336 Y-28.6990
G1 Z0.0000 F8000.0
G0 X18.9119 Y-29.3314 F15000.0
G1 Z11.9000 F8000.0
G1 X18.8440 Y-31.2917 F12000.0
G1 X17.4038 Y-29.3801
G1 Z0.0000 F8000.0
G0 X21.6657 Y-32.5650 F15000.0
G1 Z11.9000 F8000.0
G1 X22.4854 Y-32.4528 F12000.0
G1 X22.5819 Y-32.1177
G1 X22.5671 Y-31.8534
G1 Z0.0000 F8000.0
G0 X22.5671 Y-33.0395 F15000.0
G1 Z11.9000 F8000.0
G1 X22.4925 Y-33.1201 F12000.0
G1 X22.6576 Y-32.0816
G1 X22.6578 Y-32.1922
G1 X22.6269 Y-31.9493
G1 X22.3977 Y-31.8437
G1 X21.7045 Y-32.4779
G1 X21.7864 Y-32.6594
G1 X22.4672 Y-33.1505
G1 X23.2796 Y-33.0145
G1 X23.8963 Y-33.1651
G1 X23.3901 Y-32.9920
G1 X23.2198 Y-32.5433
G1 X23.2325 Y-32.3097
G1 X23.3846 Y-31.9861
G1 X23.6904 Y-31.8319
G1 X24.1410 Y-31.9680
G1 X24.3390 Y-32.2438
G1 X24.2128 Y-32.9542
G1 X24.0715 Y-33.1323
G1 X24.3129 Y-33.0291
G1 X24.8824 Y-33.1365
G1 X24.9857 Y-32.8543
G1 X24.9446 Y-31.3223
G1 X25.0105 Y-31.9210
G1 X25.5365 Y-31.8362
G1 X25.8473 Y-31.9464
G1 X26.0103 Y-32.3224
G1 X25.9236 Y-32.9270
G1 X25.6772 Y-33.1550
G1 X25.4391 Y-33.1519
G1 X24.9867 Y-32.9920
G1 Z0.0000 F8000.0
G0 X24.2751 Y-32.0431 F15000.0
G1 Z11.9000 F8000.0
G1 X24.0853 Y-31.8534 F12000.0
G1 Z0.0000 F8000.0
G0 X24.6039 Y-30.6936 F15000.0
G1 Z11.9000 F8000.0
G1 X24.6039 Y-29.3314 F12000.0
G1 Z0.0000 F8000.0
G0 X22.9012 Y-29.3314 F15000.0
G1 Z11.9000 F8000.0
G1 X23.8457 Y-29.4547 F12000.0
G1 X23.9376 Y-30.1187
G1 X25.6336 Y-29.9753
G1 X25.7172 Y-29.4362
G1 X25.7562 Y-30.6360
G1 X25.9514 Y-30.7002
G1 X27.2060 Y-30.7115
G1 X27.4720 Y-30.5053
G1 X27.5943 Y-30.1692
G1 X27.4667 Y-29.5630
G1 X27.2775 Y-29.3521
G1 X26.9148 Y-29.3021
G1 X26.7025 Y-29.4008
G1 X26.4015 Y-29.7930
G1 X26.3863 Y-30.2599
G1 X26.5871 Y-30.5939
G1 X26.4194 Y-30.3032
G1 X26.4514 Y-29.6789
G1 X26.5416 Y-29.4743
G1 X26.7445 Y-29.3314
G1 Z0.0000 F8000.0
G0 X28.2040 Y-30.0612 F15000.0
G1 Z11.9000 F8000.0
G1 X29.2536 Y-29.7713 F12000.0
G1 X28.9677 Y-29.3452
G1 X28.2489 Y-29.9647
G1 X28.3245 Y-30.1438
G1 X29.0378 Y-30.6347
G1 X29.1249 Y-30.6229
G1 X29.2014 Y-30.4265
G1 X29.1697 Y-29.9644
G1 X29.3050 Y-29.8837
G1 X30.1007 Y-30.6333
G1 X30.7103 Y-30.7124
G1 X30.9806 Y-30.4917
G1 X30.9641 Y-30.1795
G1 X30.1391 Y-29.9677
G1 X29.8944 Y-29.6591
G1 X29.9456 Y-29.4434
G1 X30.2534 Y-29.3098
G1 X30.9686 Y-29.4719
G1 X31.0257 Y-30.1585
G1 Z0.0000 F8000.0
G0 X30.7778 Y-31.8534 F15000.0
G1 Z11.9000 F8000.0
G1 X31.9840 Y-31.8412 F12000.0
G1 X32.0383 Y-31.9196
G1 X31.9879 Y-33.6762
G1 X30.8652 Y-31.9864
G1 X30.6048 Y-31.4195
G1 X30.7026 Y-31.7808
G1 X32.0320 Y-31.8428
G1 X32.2232 Y-31.7554
G1 X32.2960 Y-31.3315
G1 Z0.0000 F8000.0
G0 X33.9565 Y-31.9957 F15000.0
G1 Z11.9000 F8000.0
G1 X33.8480 Y-32.1132 F12000.0
G1 X33.6585 Y-32.6901
G1 X33.8627 Y-33.5117
G1 X34.2290 Y-33.7343
G1 X34.9413 Y-33.6590
G1 X35.1854 Y-33.2978
G1 X35.1890 Y-32.2026
G1 X35.0261 Y-31.9572
G1 X34.5633 Y-31.7881
G1 X34.0989 Y-31.9008
G1 Z0.0000 F8000.0
G0 X29.2092 Y-31.8534 F15000.0
G1 Z11.9000 F8000.0
G1 X29.2991 Y-32.1262 F12000.0
G1 X29.2474 Y-32.3533
G1 X28.9593 Y-32.5242
G1 X28.2441 Y-32.5000
G1 X27.4538 Y-31.8534
G1 Z0.0000 F8000.0
G0 X27.6436 Y-32.9920 F15000.0
G1 Z11.9000 F8000.0
G1 X27.4254 Y-33.1380 F12000.0
G1 X27.6269 Y-32.8084
G1 X27.7103 Y-32.3246
G1 X27.6546 Y-32.1127
G1 X27.2617 Y-31.8550
G1 X27.0260 Y-31.8394
G1 X26.8149 Y-31.9375
G1 X26.5941 Y-32.3430
G1 X26.6868 Y-32.9151
G1 X26.8046 Y-33.0505
G1 X27.3589 Y-33.1818
G1 Z0.0000 F8000.0
G0 X29.0669 Y-33.1818 F15000.0
G1 Z11.9000 F8000.0
G1 X28.3473 Y-32.5218 F12000.0
G1 X28.4500 Y-32.3396
G1 X28.9960 Y-31.8600
G1 X29.1004 Y-31.8454
G1 X29.3236 Y-32.0690
G1 X29.2092 Y-33.0395
G1 Z0.0000 F8000.0
G0 X22.9012 Y-30.6450 F15000.0
G1 Z11.9000 F8000.0
G1 X23.5261 Y-30.7150 F12000.0
G1 X23.7356 Y-30.6119
G1 X23.8589 Y-30.4115
G1 X23.8355 Y-30.1953
G1 X23.1348 Y-30.0196
G1 X22.7632 Y-29.7205
G1 X22.7524 Y-29.5594
G1 X22.9985 Y-30.0125
G1 Z0.0000 F8000.0
G0 X14.3694 Y-36.6704 F15000.0
G1 Z11.9000 F8000.0
G1 X14.3208 Y-38.0326 F12000.0
G1 Z0.0000 F8000.0
G0 X14.8559 Y-38.0326 F15000.0
G1 Z11.9000 F8000.0
G1 X13.0674 Y-37.9914 F12000.0
G1 X12.4959 Y-37.7658
G1 X12.3917 Y-37.2966
G1 X12.4578 Y-36.9420
G1 X12.9832 Y-36.6595
G1 X13.3836 Y-36.8306
G1 X13.3478 Y-36.7677
G1 Z0.0000 F8000.0
G0 X11.7424 Y-36.6704 F15000.0
G1 Z11.9000 F8000.0
G1 X11.5659 Y-37.6688 F12000.0
G1 X11.3268 Y-37.4909
G1 X10.9797 Y-36.9938
G1 X10.8329 Y-36.9311
G1 X10.9307 Y-36.9836
G1 X10.7395 Y-37.0044
G1 X10.6721 Y-37.9839
G1 Z0.0000 F8000.0
G0 X11.5478 Y-37.7407 F15000.0
G1 Z11.9000 F8000.0
G1 X11.6994 Y-37.8903 F12000.0
G1 X11.1046 Y-37.1771
G1 X10.5732 Y-36.8567
G1 X9.9979 Y-36.7203
G1 X9.8765 Y-38.5222
G1 X9.8166 Y-38.5904
G1 X8.8720 Y-38.6164
G1 Z0.0000 F8000.0
G0 X8.8234 Y-38.5191 F15000.0
G1 Z11.9000 F8000.0
G1 X8.7731 Y-36.8402 F12000.0
G1 X8.6933 Y-36.6474
G1 X8.5315 Y-36.5731
G1 Z0.0000 F8000.0
G0 X10.5836 Y-35.4768 F15000.0
G1 Z11.9000 F8000.0
G1 X9.6173 Y-35.2891 F12000.0
G1 X9.4924 Y-35.1482
G1 X9.3992 Y-34.8069
G1 X9.4899 Y-33.7655
G1 X9.6343 Y-33.5729
G1 X9.9705 Y-33.4726
G1 X10.3237 Y-33.5917
G1 X10.5022 Y-33.7469
G1 X10.5565 Y-33.9754
G1 X10.3751 Y-34.6918
G1 X10.1723 Y-34.8043
G1 X9.8054 Y-34.8052
G1 X9.5413 Y-34.6749
G1 X10.2082 Y-34.7658
G1 X10.4049 Y-34.6748
G1 X10.4834 Y-34.4761
G1 X10.4376 Y-33.6281
G1 Z0.0000 F8000.0
G0 X8.7349 Y-33.4821 F15000.0
G1 Z11.9000 F8000.0
G1 X8.6209 Y-33.6613 F12000.0
G1 X8.6682 Y-34.2704
G1 X8.5311 Y-34.7407
G1 X8.3403 Y-34.8017
G1 X7.7749 Y-34.5888
G1 X7.6683 Y-33.7499
G1 X7.7411 Y-33.5371
G1 X7.9521 Y-33.4574
G1 X8.7254 Y-33.4945
G1 X8.6082 Y-34.1567
G1 X7.9771 Y-34.0853
G1 X8.4327 Y-33.5833
G1 X8.5890 Y-33.5794
G1 Z0.0000 F8000.0
G0 X6.2009 Y-36.6704 F15000.0
G1 Z11.9000 F8000.0
G1 X6.0898 Y-37.6477 F12000.0
G1 X5.8790 Y-37.5132
G1 X5.5110 Y-36.7663
G1 X4.8497 Y-37.7274
G1 X4.7488 Y-36.7520
G1 X4.7498 Y-37.6480
G1 X3.4042 Y-37.8453
G1 X3.6421 Y-38.0124
G1 X3.9859 Y-37.9376
G1 X4.0303 Y-37.4951
G1 X3.8251 Y-37.3522
G1 X3.9809 Y-37.2610
G1 X4.1049 Y-36.9371
G1 X4.0720 Y-36.8517
G1 X3.6407 Y-36.6576
G1 X2.6675 Y-36.6995
G1 X2.5824 Y-36.8839
G1 X2.4756 Y-38.1372
G1 X2.5614 Y-38.4000
G1 X2.0595 Y-37.8634
G1 X2.2524 Y-38.1163
G1 X1.5503 Y-37.1432
G1 X1.2391 Y-36.8376
G1 X1.1413 Y-38.5677
G1 Z0.0000 F8000.0
G0 X0.0000 Y-39.4714 F15000.0
G1 Z11.9000 F8000.0
G1 X63.2677 Y-39.4714 F12000.0
G1 Z0.0000 F8000.0
G0 X63.2677 Y-44.3318 F15000.0
G1 Z11.9000 F8000.0
G1 X0.0000 Y-44.3318 F12000.0
G1 Z0.0000 F8000.0
G0 X0.0000 Y-49.1922 F15000.0
G1 Z11.9000 F8000.0
G1 X63.2677 Y-49.1922 F12000.0
G1 Z0.0000 F8000.0
G0 X63.2677 Y-44.3318 F15000.0
G1 Z11.9000 F8000.0
G1 X180.0000 Y-44.3318 F12000.0
G1 Z0.0000 F8000.0
G0 X178.0591 Y-43.6779 F15000.0
G1 Z11.9000 F8000.0
G1 X176.9660 Y-43.3808 F12000.0
G1 X176.7468 Y-43.0607
G1 X176.7453 Y-42.7254
G1 X177.7972 Y-42.7511
G1 X178.0533 Y-42.3572
G1 X178.0890 Y-42.1113
G1 X178.0186 Y-41.8944
G1 X177.2979 Y-41.2470
G1 X177.0255 Y-41.4300
G1 X176.7385 Y-42.5029
G1 X177.0472 Y-42.7633
G1 X176.7456 Y-42.5589
G1 Z0.0000 F8000.0
G0 X175.9186 Y-42.2670 F15000.0
G1 Z11.9000 F8000.0
G1 X175.9507 Y-41.6397 F12000.0
G1 X175.8626 Y-41.4231
G1 X175.2391 Y-41.2300
G1 X174.7806 Y-41.5036
G1 X175.7846 Y-42.1852
G1 X175.9075 Y-42.3709
G1 X175.8661 Y-42.7165
G1 X175.1660 Y-42.8767
G1 X174.8989 Y-42.8121
G1 X174.9942 Y-42.8995
G1 Z0.0000 F8000.0
G0 X174.1672 Y-42.8995 F15000.0
G1 Z11.9000 F8000.0
G1 X172.9509 Y-42.8995 F12000.0
G1 Z0.0000 F8000.0
G0 X172.4158 Y-42.8508 F15000.0
G1 Z11.9000 F8000.0
G1 X171.3941 Y-41.2940 F12000.0
G1 Z0.0000 F8000.0
G0 X171.3455 Y-42.8508 F15000.0
G1 Z11.9000 F8000.0
G1 X171.3216 Y-41.3499 F12000.0
G1 X171.1500 Y-41.2638
G1 X170.5251 Y-41.3247
G1 X170.3494 Y-41.4187
G1 X170.3239 Y-42.8508
G1 Z0.0000 F8000.0
G0 X169.6428 Y-42.6076 F15000.0
G1 Z11.9000 F8000.0
G1 X169.4021 Y-42.8716 F12000.0
G1 X168.8039 Y-42.8487
G1 X168.5683 Y-42.5704
G1 X168.4480 Y-41.9606
G1 X168.6910 Y-41.4003
G1 X169.1316 Y-41.2344
G1 X169.4757 Y-41.3608
G1 X169.6481 Y-41.5575
G1 X169.5941 Y-41.4400
G1 Z0.0000 F8000.0
G0 X167.7454 Y-41.4886 F15000.0
G1 Z11.9000 F8000.0
G1 X167.7469 Y-42.1683 F12000.0
G1 X167.6793 Y-41.4261
G1 X167.0521 Y-41.2339
G1 X166.6130 Y-41.5116
G1 X167.6239 Y-42.1938
G1 X167.7380 Y-42.3843
G1 X167.6839 Y-42.7261
G1 X166.9777 Y-42.8780
G1 X166.7289 Y-42.8173
G1 X166.8211 Y-42.8995
G1 Z0.0000 F8000.0
G0 X165.6048 Y-43.2887 F15000.0
G1 Z11.9000 F8000.0
G1 X165.2099 Y-42.6448 F12000.0
G1 X165.5914 Y-43.1900
G1 X165.7021 Y-41.2940
G1 Z0.0000 F8000.0
G0 X164.7292 Y-41.4886 F15000.0
G1 Z11.9000 F8000.0
G1 X164.9769 Y-41.9893 F12000.0
G1 X164.8955 Y-41.7140
G1 X165.0802 Y-42.2796
G1 X164.6877 Y-41.5621
G1 X163.8576 Y-43.0450
G1 X163.6737 Y-43.2327
G1 X163.6952 Y-43.3461
G1 X163.6102 Y-41.3427
G1 Z0.0000 F8000.0
G0 X162.5355 Y-44.3318 F15000.0
G1 Z11.9000 F8000.0
G1 X162.5355 Y-24.8078 F12000.0
G1 Z0.0000 F8000.0
G0 X162.1612 Y-23.4200 F15000.0
G1 Z11.9000 F8000.0
G1 X162.6130 Y-23.4835 F12000.0
G1 X163.1348 Y-23.1734
G1 X163.2609 Y-22.5704
G1 X163.1758 Y-22.2080
G1 X163.0306 Y-22.0385
G1 X162.3170 Y-21.8495
G1 X162.2137 Y-21.8951
G1 X161.8674 Y-22.4043
G1 X161.9184 Y-23.0138
G1 X162.1011 Y-23.3509
G1 X161.9145 Y-23.1484
G1 X161.3014 Y-23.4577
G1 X160.1666 Y-23.4687
G1 Z0.0000 F8000.0
G0 X160.7017 Y-23.4687 F15000.0
G1 Z11.9000 F8000.0
G1 X160.7504 Y-21.8632 F12000.0
G1 Z0.0000 F8000.0
G0 X159.7287 Y-22.2524 F15000.0
G1 Z11.9000 F8000.0
G1 X159.5250 Y-21.9935 F12000.0
G1 X158.9307 Y-21.8460
G1 X158.6205 Y-21.9900
G1 X158.4495 Y-22.3132
G1 X158.4643 Y-22.9340
G1 X158.7160 Y-23.3495
G1 X159.0511 Y-23.4895
G1 X159.5341 Y-23.3714
G1 Z0.0000 F8000.0
G0 X157.6854 Y-21.9119 F15000.0
G1 Z11.9000 F8000.0
G1 X157.2445 Y-22.8060 F12000.0
G1 X157.2684 Y-22.9071
G1 X157.5614 Y-23.1283
G1 X157.3008 Y-22.9627
G1 X156.8882 Y-22.3737
G1 X156.5475 Y-22.2240
G1 X156.5131 Y-23.3567
G1 X157.1846 Y-22.9317
G1 X156.9194 Y-22.4237
G1 X156.5207 Y-22.0279
G1 X156.5179 Y-22.1065
G1 Z0.0000 F8000.0
G0 X155.5935 Y-21.9119 F15000.0
G1 Z11.9000 F8000.0
G1 X155.5264 Y-24.1184 F12000.0
G1 X154.1724 Y-21.9013
G1 X153.9881 Y-21.8146
G1 Z0.0000 F8000.0
G0 X151.4142 Y-19.9474 F15000.0
G1 Z11.9000 F8000.0
G1 X151.4142 Y-24.8078 F12000.0
G1 Z0.0000 F8000.0
G0 X145.9771 Y-24.8078 F15000.0
G1 Z11.9000 F8000.0
G1 X145.9771 Y-44.3318 F12000.0
G1 Z0.0000 F8000.0
G0 X149.1025 Y-41.8025 F15000.0
G1 Z11.9000 F8000.0
G1 X149.1742 Y-43.4877 F12000.0
G1 X149.2512 Y-43.5929
G1 X150.0412 Y-42.0961
G1 X150.2055 Y-42.0810
G1 X150.4701 Y-42.6473
G1 X150.1206 Y-42.0041
G1 X150.1728 Y-42.0458
G1 Z0.0000 F8000.0
G0 X151.0971 Y-41.8512 F15000.0
G1 Z11.9000 F8000.0
G1 X150.9527 Y-43.3852 F12000.0
G1 X151.0153 Y-43.6464
G1 X150.6757 Y-43.1939
G1 X150.5340 Y-42.8048
G1 X150.6106 Y-43.0674
G1 Z0.0000 F8000.0
G0 X151.9728 Y-43.1647 F15000.0
G1 Z11.9000 F8000.0
G1 X152.1740 Y-43.2581 F12000.0
G1 X152.8658 Y-42.6887
G1 X151.9688 Y-42.3983
G1 X151.8150 Y-42.0845
G1 X151.9854 Y-41.7893
G1 X152.2098 Y-41.7400
G1 X152.8986 Y-41.9402
G1 X152.9788 Y-41.8908
G1 X152.9261 Y-42.5430
G1 X153.6850 Y-42.8988
G1 X153.6515 Y-42.3258
G1 X153.8419 Y-41.8821
G1 X154.1513 Y-41.7352
G1 X154.6972 Y-41.8998
G1 Z0.0000 F8000.0
G0 X154.7458 Y-43.0674 F15000.0
G1 Z11.9000 F8000.0
G1 X154.5447 Y-43.2517 F12000.0
G1 X154.0692 Y-43.2820
G1 X153.8369 Y-43.1208
G1 X154.1929 Y-43.2734
G1 X155.3393 Y-42.9095
G1 X155.3093 Y-42.3099
G1 X155.5078 Y-41.8735
G1 X155.8210 Y-41.7341
G1 X156.2826 Y-41.8934
G1 X156.3913 Y-42.0855
G1 X156.3694 Y-43.0956
G1 X156.1100 Y-43.2889
G1 X155.6380 Y-43.2349
G1 X155.4269 Y-43.0674
G1 Z0.0000 F8000.0
G0 X157.1296 Y-43.1647 F15000.0
G1 Z11.9000 F8000.0
G1 X157.3309 Y-43.2581 F12000.0
G1 X158.0226 Y-42.6887
G1 X157.1257 Y-42.3983
G1 X156.9718 Y-42.0845
G1 X157.1423 Y-41.7893
G1 X157.3666 Y-41.7400
G1 X158.0554 Y-41.9402
G1 X158.1356 Y-41.8908
G1 X158.1026 Y-42.5809
G1 Z0.0000 F8000.0
G0 X145.9771 Y-39.4714 F15000.0
G1 Z11.9000 F8000.0
G1 X180.0000 Y-39.4714 F12000.0
G1 Z0.0000 F8000.0
G0 X177.0375 Y-41.3427 F15000.0
G1 Z11.9000 F8000.0
G1 X176.8915 Y-41.4886 F12000.0
G1 Z0.0000 F8000.0
G0 X173.5834 Y-41.2940 F15000.0
G1 Z11.9000 F8000.0
G1 X173.5347 Y-42.8995 F12000.0
G1 Z0.0000 F8000.0
G0 X174.6492 Y-34.6217 F15000.0
G1 Z11.9000 F8000.0
G1 X174.3838 Y-34.2679 F12000.0
G1 X172.9243 Y-30.1990
G1 Z0.0000 F8000.0
G0 X171.4621 Y-31.3749 F15000.0
G1 Z11.9000 F8000.0
G1 X171.3294 Y-31.2422 F12000.0
G1 Z0.0000 F8000.0
G0 X170.6124 Y-31.2799 F15000.0
G1 Z11.9000 F8000.0
G1 X169.9490 Y-31.2357 F12000.0
G1 X170.2586 Y-32.2529
G1 Z0.0000 F8000.0
G0 X169.6394 Y-33.3144 F15000.0
G1 Z11.9000 F8000.0
G1 X168.6222 Y-31.5453 F12000.0
G1 X168.5780 Y-31.2799
G1 X169.7279 Y-31.1915
G1 X169.6836 Y-30.8377
G1 X169.4625 Y-30.3069
G1 Z0.0000 F8000.0
G0 X169.9490 Y-33.8893 F15000.0
G1 Z11.9000 F8000.0
G1 X170.3913 Y-34.6854 F12000.0
G1 Z0.0000 F8000.0
G0 X172.0945 Y-33.1123 F15000.0
G1 Z11.9000 F8000.0
G1 X171.9618 Y-32.9796 F12000.0
G1 Z0.0000 F8000.0
G0 X173.1012 Y-33.5603 F15000.0
G1 Z11.9000 F8000.0
G1 X173.2781 Y-33.7372 F12000.0
G1 Z0.0000 F8000.0
G0 X174.0300 Y-34.2237 F15000.0
G1 Z11.9000 F8000.0
G1 X174.3396 Y-34.3121 F12000.0
G1 Z0.0000 F8000.0
G0 X174.8195 Y-23.7306 F15000.0
G1 Z11.9000 F8000.0
G1 X174.5984 Y-23.5979 F12000.0
G1 Z0.0000 F8000.0
G0 X175.2618 Y-23.7306 F15000.0
G1 Z11.9000 F8000.0
G1 X174.4215 Y-21.3866 F12000.0
G1 X174.2446 Y-21.0770
G1 Z0.0000 F8000.0
G0 X180.0000 Y-19.9474 F15000.0
G1 Z11.9000 F8000.0
G1 X131.3959 Y-19.9474 F12000.0
G1 X63.2677 Y-19.9474 F12000.0
G1 X0.0000 Y-19.9474 F12000.0
G1 Z0.0000 F8000.0
G0 X2.2817 Y-21.9791 F15000.0
G1 Z11.9000 F8000.0
G1 X2.2330 Y-24.0224 F12000.0
G1 Z0.0000 F8000.0
G0 X1.6006 Y-24.0224 F15000.0
G1 Z11.9000 F8000.0
G1 X3.0601 Y-24.0224 F12000.0
G1 Z0.0000 F8000.0
G0 X4.1304 Y-23.3413 F15000.0
G1 Z11.9000 F8000.0
G1 X4.1667 Y-22.8025 F12000.0
G1 X4.6840 Y-22.4992
G1 X4.6119 Y-22.7582
G1 X5.0061 Y-21.9791
G1 Z0.0000 F8000.0
G0 X4.1304 Y-21.9791 F15000.0
G1 Z11.9000 F8000.0
G1 X4.1548 Y-22.5958 F12000.0
G1 X4.6486 Y-22.9177
G1 X5.0449 Y-23.3318
G1 X5.5440 Y-23.0372
G1 X5.5606 Y-22.4524
G1 X5.7825 Y-22.0812
G1 X5.5872 Y-22.3432
G1 X5.9849 Y-21.9780
G1 X6.4567 Y-22.0709
G1 X6.7158 Y-22.3048
G1 X6.6419 Y-23.0414
G1 X6.5458 Y-23.2447
G1 X5.9608 Y-23.3593
G1 X5.6385 Y-23.1467
G1 Z0.0000 F8000.0
G0 X7.3899 Y-23.3413 F15000.0
G1 Z11.9000 F8000.0
G1 X7.3899 Y-22.0729 F12000.0
G1 X7.4113 Y-22.6183
G1 X7.5773 Y-22.6972
G1 X8.3897 Y-22.5870
G1 X8.4571 Y-22.0612
G1 X8.5193 Y-23.3136
G1 X10.0656 Y-23.3899
G1 Z0.0000 F8000.0
G0 X9.4818 Y-23.3899 F15000.0
G1 Z11.9000 F8000.0
G1 X9.5631 Y-22.0387 F12000.0
G1 X10.6378 Y-22.1078
G1 X11.3489 Y-21.9970
G1 X11.6449 Y-22.2187
G1 X11.7451 Y-22.4295
G1 X11.6510 Y-23.1678
G1 X11.3597 Y-23.3221
G1 X10.7605 Y-23.2217
G1 X10.6191 Y-22.3980
G1 X10.6763 Y-21.4231
G1 X11.6710 Y-22.2223
G1 Z0.0000 F8000.0
G0 X7.4225 Y-28.9491 F15000.0
G1 Z11.9000 F8000.0
G1 X7.4412 Y-30.0302 F12000.0
G1 X7.3492 Y-30.2350
G1 X7.2588 Y-30.2572
G1 X6.5388 Y-29.6405
G1 X6.6388 Y-29.4528
G1 X7.1970 Y-28.9615
G1 X7.4823 Y-29.0570
G1 X7.5125 Y-29.2953
G1 X7.5169 Y-29.2020
G1 X7.4835 Y-29.4302
G1 X7.3906 Y-29.5275
G1 X6.4325 Y-29.7304
G1 X5.6009 Y-30.2591
G1 X5.7242 Y-30.1254
G1 X5.8883 Y-29.4023
G1 X5.7075 Y-29.0083
G1 X5.7517 Y-29.0801
G1 X5.3401 Y-28.9325
G1 X4.9944 Y-29.0114
G1 X4.8414 Y-29.1833
G1 X4.7238 Y-29.5344
G1 X4.9412 Y-30.1641
G1 X5.5252 Y-30.3112
G1 Z0.0000 F8000.0
G0 X3.0927 Y-29.0950 F15000.0
G1 Z11.9000 F8000.0
G1 X3.6911 Y-28.9325 F12000.0
G1 X4.0455 Y-29.1321
G1 X4.1392 Y-29.3440
G1 X4.0382 Y-30.0816
G1 X3.8772 Y-30.2516
G1 X3.3975 Y-30.2509
G1 X3.1179 Y-30.0572
G1 X3.0440 Y-28.3166
G1 Z0.0000 F8000.0
G0 X2.3143 Y-28.9491 F15000.0
G1 Z11.9000 F8000.0
G1 X2.2097 Y-30.7984 F12000.0
G1 X0.8548 Y-28.9491
G1 Z0.0000 F8000.0
G0 X0.0000 Y-29.7506 F15000.0
G1 Z11.9000 F8000.0
G1 X63.2677 Y-29.7506 F12000.0
G1 Z0.0000 F8000.0
G0 X63.2677 Y-24.8078 F15000.0
G1 Z11.9000 F8000.0
G1 X0.0000 Y-24.8078 F12000.0
G1 Z0.0000 F8000.0
G0 X0.0000 Y-15.0870 F15000.0
G1 Z11.9000 F8000.0
G1 X63.2677 Y-15.0870 F12000.0
G1 Z0.0000 F8000.0
G0 X53.5469 Y-5.3662 F15000.0
G1 Z11.9000 F8000.0
G1 X53.5469 Y-58.9131 F12000.0
G1 Z0.0000 F8000.0
G0 X63.2677 Y-54.0526 F15000.0
G1 Z11.9000 F8000.0
G1 X0.0000 Y-54.0526 F12000.0
G1 Z0.0000 F8000.0
G0 X0.0000 Y-58.9131 F15000.0
G1 Z11.9000 F8000.0
G1 X180.0000 Y-58.9131 F12000.0
G1 Z0.0000 F8000.0
G0 X180.0000 Y-24.8078 F15000.0
G1 Z11.9000 F8000.0
G1 X131.3959 Y-24.8078 F12000.0
G1 Z0.0000 F8000.0
G0 X133.4113 Y-21.6855 F15000.0
G1 Z11.9000 F8000.0
G1 X135.0973 Y-24.1267 F12000.0
G1 X135.1627 Y-21.7828
G1 Z0.0000 F8000.0
G0 X136.1357 Y-21.9774 F15000.0
G1 Z11.9000 F8000.0
G1 X136.4423 Y-22.1587 F12000.0
G1 X137.3648 Y-23.3140
G1 X137.5604 Y-23.3552
G1 X138.2664 Y-23.2146
G1 X138.1704 Y-22.2738
G1 X138.3273 Y-21.9380
G1 X138.4955 Y-21.7756
G1 X138.7120 Y-21.7359
G1 X139.4981 Y-22.0247
G1 X140.5645 Y-21.8209
G1 X140.6570 Y-21.9602
G1 X140.5928 Y-23.4117
G1 X139.9790 Y-23.4855
G1 Z0.0000 F8000.0
G0 X139.3952 Y-23.2423 F15000.0
G1 Z11.9000 F8000.0
G1 X138.9701 Y-23.4926 F12000.0
G1 X138.3735 Y-23.3396
G1 Z0.0000 F8000.0
G0 X136.8638 Y-22.7631 F15000.0
G1 Z11.9000 F8000.0
G1 X136.5321 Y-22.2086 F12000.0
G1 X136.7025 Y-22.5003
G1 X137.2654 Y-23.0686
G1 X137.4006 Y-21.7828
G1 Z0.0000 F8000.0
G0 X136.5888 Y-22.2956 F15000.0
G1 Z11.9000 F8000.0
G1 X136.1595 Y-22.0592 F12000.0
G1 X136.0870 Y-23.4369
G1 Z0.0000 F8000.0
G0 X136.1739 Y-24.8078 F15000.0
G1 Z11.9000 F8000.0
G1 X136.1739 Y-39.4714 F12000.0
G1 Z0.0000 F8000.0
G0 X135.5838 Y-41.4736 F15000.0
G1 Z11.9000 F8000.0
G1 X136.8838 Y-43.5687 F12000.0
G1 X136.9460 Y-41.4736
G1 Z0.0000 F8000.0
G0 X137.9677 Y-41.7168 F15000.0
G1 Z11.9000 F8000.0
G1 X138.3082 Y-42.1547 F12000.0
G1 Z0.0000 F8000.0
G0 X138.8920 Y-41.4249 F15000.0
G1 Z11.9000 F8000.0
G1 X138.8274 Y-42.6435 F12000.0
G1 X138.4344 Y-42.3235
G1 X138.0462 Y-41.8260
G1 X137.8788 Y-41.7230
G1 X137.8062 Y-41.8878
G1 X137.7514 Y-42.8450
G1 X138.4241 Y-42.3791
G1 X138.7765 Y-42.6946
G1 X138.8920 Y-42.9330
G1 Z0.0000 F8000.0
G0 X139.4758 Y-42.9817 F15000.0
G1 Z11.9000 F8000.0
G1 X140.6920 Y-42.9817 F12000.0
G1 Z0.0000 F8000.0
G0 X140.0596 Y-42.9817 F15000.0
G1 Z11.9000 F8000.0
G1 X140.1082 Y-41.4736 F12000.0
G1 Z0.0000 F8000.0
G0 X141.1167 Y-39.4714 F15000.0
G1 Z11.9000 F8000.0
G1 X141.1167 Y-24.8078 F12000.0
G1 Z0.0000 F8000.0
G0 X141.2925 Y-23.4855 F15000.0
G1 Z11.9000 F8000.0
G1 X140.6601 Y-23.4369 F12000.0
G1 Z0.0000 F8000.0
G0 X148.0199 Y-16.1494 F15000.0
G1 Z11.9000 F8000.0
G1 X151.0848 Y-16.1494 F12000.0
G1 Z0.0000 F8000.0
G0 X149.5280 Y-16.1494 F15000.0
G1 Z11.9000 F8000.0
G1 X149.5767 Y-12.1601 F12000.0
G1 Z0.0000 F8000.0
G0 X152.0092 Y-13.4737 F15000.0
G1 Z11.9000 F8000.0
G1 X153.1281 Y-13.4737 F12000.0
G1 Z0.0000 F8000.0
G0 X155.0723 Y-12.0344 F15000.0
G1 Z11.9000 F8000.0
G1 X154.8602 Y-12.1436 F12000.0
G1 X154.2986 Y-12.7258
G1 X154.5852 Y-12.2827
G1 X154.8688 Y-12.1041
G1 X156.1873 Y-12.2905
G1 X156.2903 Y-12.4034
G1 Z0.0000 F8000.0
G0 X155.9366 Y-12.1499 F15000.0
G1 Z11.9000 F8000.0
G1 X156.3617 Y-12.4952 F12000.0
G1 X156.5601 Y-13.7133
G1 X156.2924 Y-14.2616
G1 X156.0153 Y-14.4592
G1 X155.5398 Y-14.6132
G1 X154.4651 Y-14.4134
G1 X154.6062 Y-15.7926
G1 X154.7212 Y-16.0769
G1 X156.4363 Y-16.1007
G1 Z0.0000 F8000.0
G0 X159.4039 Y-16.1980 F15000.0
G1 Z11.9000 F8000.0
G1 X159.3335 Y-15.8266 F12000.0
G1 X159.2162 Y-15.6317
G1 X158.2303 Y-15.1248
G1 X159.2729 Y-15.5999
G1 X159.3553 Y-12.1115
G1 Z0.0000 F8000.0
G0 X162.0310 Y-12.0628 F15000.0
G1 Z11.9000 F8000.0
G1 X161.6040 Y-12.4178 F12000.0
G1 X162.0878 Y-12.0596
G1 X162.9427 Y-12.1114
G1 X163.4113 Y-12.4912
G1 X163.6620 Y-13.0033
G1 X163.7625 Y-13.6223
G1 X163.6720 Y-14.1493
G1 X163.2959 Y-13.9602
G1 Z0.0000 F8000.0
G0 X161.9823 Y-13.7656 F15000.0
G1 Z11.9000 F8000.0
G1 X161.6438 Y-14.0357 F12000.0
G1 X161.3928 Y-14.4933
G1 X161.4958 Y-14.2521
G1 Z0.0000 F8000.0
G0 X161.4472 Y-15.4197 F15000.0
G1 Z11.9000 F8000.0
G1 X161.9585 Y-16.0468 F12000.0
G1 X161.4917 Y-15.4518
G1 X161.5488 Y-14.2244
G1 X162.0931 Y-13.7208
G1 X162.9565 Y-13.7716
G1 X163.6913 Y-14.2168
G1 X163.6748 Y-15.2022
G1 X163.4219 Y-15.7522
G1 X163.1602 Y-15.9692
G1 X162.4510 Y-16.1738
G1 X162.0310 Y-16.1007
G1 Z0.0000 F8000.0
G0 X164.8527 Y-13.4737 F15000.0
G1 Z11.9000 F8000.0
G1 X165.9840 Y-13.4469 F12000.0
G1 X167.0710 Y-12.8247
G1 X167.3138 Y-12.4070
G1 X167.5740 Y-12.1673
G1 X168.5527 Y-12.0510
G1 X168.9549 Y-12.2169
G1 X168.7786 Y-12.1132
G1 X169.1524 Y-12.4021
G1 X169.3964 Y-12.9076
G1 X169.1277 Y-13.8632
G1 X168.7446 Y-14.3007
G1 Z0.0000 F8000.0
G0 X168.0149 Y-14.1061 F15000.0
G1 Z11.9000 F8000.0
G1 X168.7235 Y-14.3221 F12000.0
G1 X169.0168 Y-14.6820
G1 X169.2034 Y-15.1290
G1 X169.0456 Y-15.7250
G1 X168.1878 Y-16.1657
G1 X167.4296 Y-15.8847
G1 X167.2822 Y-15.7107
G1 X167.1878 Y-15.4197
G1 Z0.0000 F8000.0
G0 X164.9342 Y-22.6903 F15000.0
G1 Z11.9000 F8000.0
G1 X164.0875 Y-22.7850 F12000.0
G1 X164.7519 Y-23.4060
G1 X165.0749 Y-23.0911
G1 X165.0162 Y-22.6294
G1 X165.1348 Y-22.0476
G1 X165.0252 Y-21.9254
G1 X164.0896 Y-21.9203
G1 X164.0099 Y-22.6416
G1 Z0.0000 F8000.0
G0 X162.1612 Y-21.9119 F15000.0
G1 Z11.9000 F8000.0
G1 X161.9180 Y-22.2038 F12000.0
G1 Z0.0000 F8000.0
G0 X146.7550 Y-12.1115 F15000.0
G1 Z11.9000 F8000.0
G1 X146.6596 Y-16.1116 F12000.0
G1 X144.8003 Y-16.1486
G1 X144.5988 Y-16.0952
G1 X144.4028 Y-12.4702
G1 X144.2947 Y-12.2141
G1 X144.1097 Y-12.0845
G1 X143.7874 Y-12.0142
G1 Z0.0000 F8000.0
G0 X131.3959 Y-5.3662 F15000.0
G1 Z11.9000 F8000.0
G1 X131.3959 Y-44.3318 F12000.0
G1 Z0.0000 F8000.0
G0 X131.3959 Y-39.4714 F15000.0
G1 Z11.9000 F8000.0
G1 X145.9771 Y-39.4714 F12000.0
G1 Z0.0000 F8000.0
G0 X136.9132 Y-51.0013 F15000.0
G1 Z11.9000 F8000.0
G1 X137.0592 Y-51.1959 F12000.0
G1 Z0.0000 F8000.0
G0 X135.1619 Y-54.3095 F15000.0
G1 Z11.9000 F8000.0
G1 X135.5879 Y-54.9145 F12000.0
G1 X135.1601 Y-54.2211
G1 X134.9929 Y-52.4661
G1 X135.2281 Y-51.4858
G1 X135.3739 Y-51.2390
G1 X135.9375 Y-50.8430
G1 X136.7938 Y-50.9669
G1 X137.1593 Y-51.3531
G1 X137.4274 Y-52.1902
G1 X137.0985 Y-54.6711
G1 X136.5951 Y-55.0322
G1 X135.9687 Y-55.0772
G1 X135.6970 Y-54.9906
G1 Z0.0000 F8000.0
G0 X138.9079 Y-54.5527 F15000.0
G1 Z11.9000 F8000.0
G1 X139.1310 Y-54.8478 F12000.0
G1 X139.4069 Y-55.0122
G1 X140.5551 Y-54.8907
G1 X140.1308 Y-55.0737
G1 X139.4006 Y-54.9955
G1 X138.9137 Y-54.2743
G1 X138.8522 Y-54.0525
G1 X139.0198 Y-53.5900
G1 X139.3543 Y-53.1713
G1 X138.8095 Y-52.5736
G1 X139.1213 Y-52.8547
G1 X140.2112 Y-53.1530
G1 X140.4253 Y-53.0909
G1 X140.9044 Y-52.6164
G1 X141.0730 Y-51.7625
G1 X141.0395 Y-51.5201
G1 X140.7225 Y-51.0592
G1 X140.2643 Y-50.8369
G1 X139.3928 Y-50.9318
G1 X139.0696 Y-51.0581
G1 X138.7795 Y-51.4466
G1 X138.6433 Y-52.0490
G1 X138.8449 Y-52.6380
G1 X139.3618 Y-53.0829
G1 X140.2906 Y-53.1960
G1 X140.7065 Y-53.5576
G1 X140.8674 Y-54.0093
G1 X140.6593 Y-54.7960
G1 Z0.0000 F8000.0
G0 X130.2969 Y-55.0879 F15000.0
G1 Z11.9000 F8000.0
G1 X131.1203 Y-55.0154 F12000.0
G1 X131.4022 Y-54.8375
G1 X131.6113 Y-54.4949
G1 X131.8871 Y-52.2392
G1 X131.6946 Y-51.5124
G1 X131.5070 Y-51.1661
G1 X131.6578 Y-51.4500
G1 X131.2849 Y-50.9811
G1 X130.4296 Y-50.8365
G1 X129.8162 Y-51.2483
G1 X129.7015 Y-51.4491
G1 X129.4360 Y-52.5488
G1 X129.5877 Y-54.0565
G1 X129.6910 Y-54.4102
G1 X130.0903 Y-54.9423
G1 X129.7933 Y-54.6428
G1 X129.6158 Y-54.3095
G1 Z0.0000 F8000.0
G0 X129.8104 Y-51.1959 F15000.0
G1 Z11.9000 F8000.0
G1 X130.2969 Y-50.8554 F12000.0
G1 Z0.0000 F8000.0
G0 X127.8644 Y-51.1959 F15000.0
G1 Z11.9000 F8000.0
G1 X127.5331 Y-50.9516 F12000.0
G1 X126.7810 Y-50.8709
G1 X126.4335 Y-50.9581
G1 X126.1617 Y-51.1959
G1 Z0.0000 F8000.0
G0 X125.9671 Y-54.3095 F15000.0
G1 Z11.9000 F8000.0
G1 X126.4361 Y-54.9395 F12000.0
G1 X125.9812 Y-54.2830
G1 X125.8083 Y-52.4065
G1 X126.1687 Y-51.2465
G1 X126.6873 Y-50.8678
G1 X126.9198 Y-50.8294
G1 X127.5398 Y-50.9185
G1 X127.8188 Y-51.1236
G1 X127.9864 Y-51.3951
G1 X128.2373 Y-52.2365
G1 X127.9632 Y-54.4921
G1 X127.7558 Y-54.8367
G1 X127.4742 Y-55.0141
G1 X126.7287 Y-55.0718
G1 X126.5022 Y-54.9906
G1 Z0.0000 F8000.0
G0 X122.6589 Y-50.8554 F15000.0
G1 Z11.9000 F8000.0
G1 X120.2655 Y-50.8607 F12000.0
G1 X120.4032 Y-50.9886
G1 X120.6418 Y-51.5491
G1 X121.4310 Y-52.2744
G1 Z0.0000 F8000.0
G0 X120.9998 Y-51.8771 F15000.0
G1 Z11.9000 F8000.0
G1 X121.6327 Y-52.4223 F12000.0
G1 X122.4633 Y-53.3634
G1 X122.6305 Y-53.8283
G1 X122.3255 Y-54.7767
G1 X122.1757 Y-54.9483
G1 X121.5865 Y-55.1215
G1 X120.9694 Y-55.0229
G1 X120.5523 Y-54.7100
G1 X120.3091 Y-54.2413
G1 X120.4211 Y-54.5041
G1 Z0.0000 F8000.0
G0 X118.9129 Y-55.0392 F15000.0
G1 Z11.9000 F8000.0
G1 X116.8925 Y-53.3462 F12000.0
G1 X117.9277 Y-53.5018
G1 X118.8047 Y-53.0560
G1 X119.0763 Y-52.2396
G1 X118.8473 Y-51.4007
G1 X118.5307 Y-50.9932
G1 X118.0931 Y-50.8340
G1 X117.1199 Y-51.0570
G1 X116.7150 Y-51.5576
G1 X117.0642 Y-51.0013
G1 Z0.0000 F8000.0
G0 X111.9074 Y-55.0879 F15000.0
G1 Z11.9000 F8000.0
G1 X111.6149 Y-54.8508 F12000.0
G1 X111.2230 Y-54.2152
G1 X111.0456 Y-52.5842
G1 X111.2224 Y-51.7197
G1 X111.4243 Y-51.2516
G1 X112.0072 Y-50.8405
G1 X112.8625 Y-50.9650
G1 X113.0757 Y-51.1281
G1 X113.2443 Y-51.3927
G1 X113.4965 Y-52.2339
G1 X113.1880 Y-54.6015
G1 X113.0166 Y-54.8356
G1 X112.7357 Y-55.0130
G1 X111.9914 Y-55.0708
G1 X111.4831 Y-54.7373
G1 Z0.0000 F8000.0
G0 X108.1127 Y-54.9906 F15000.0
G1 Z11.9000 F8000.0
G1 X108.3392 Y-55.0718 F12000.0
G1 X109.0847 Y-55.0141
G1 X109.3663 Y-54.8367
G1 X109.5737 Y-54.4921
G1 X109.8477 Y-52.2365
G1 X109.5968 Y-51.3951
G1 X109.4291 Y-51.1297
G1 X109.2163 Y-50.9658
G1 X108.3608 Y-50.8394
G1 X107.7757 Y-51.2513
G1 X107.6480 Y-51.4780
G1 X107.4097 Y-52.4573
G1 X107.5736 Y-54.2127
G1 X108.0017 Y-54.9110
G1 X107.5776 Y-54.3095
G1 Z0.0000 F8000.0
G0 X106.0694 Y-53.7257 F15000.0
G1 Z11.9000 F8000.0
G1 X106.0694 Y-52.2662 F12000.0
G1 Z0.0000 F8000.0
G0 X106.0694 Y-50.9040 F15000.0
G1 Z11.9000 F8000.0
G1 X106.0683 Y-52.0411 F12000.0
G1 X106.0084 Y-52.2260
G1 X104.6621 Y-52.0922
G1 X104.3213 Y-52.2130
G1 X104.0088 Y-52.5922
G1 X103.8802 Y-53.7257
G1 Z0.0000 F8000.0
G0 X102.2748 Y-54.6500 F15000.0
G1 Z11.9000 F8000.0
G1 X102.0802 Y-54.5041 F12000.0
G1 Z0.0000 F8000.0
G0 X98.7720 Y-54.6500 F15000.0
G1 Z11.9000 F8000.0
G1 X98.8776 Y-54.6681 F12000.0
G1 X100.3942 Y-51.3814
G1 X100.6657 Y-51.1795
G1 X100.8647 Y-51.2783
G1 X102.1553 Y-54.5455
G1 X102.4012 Y-54.6594
G1 X102.6153 Y-50.9040
G1 Z0.0000 F8000.0
G0 X100.8153 Y-51.2446 F15000.0
G1 Z11.9000 F8000.0
G1 X100.6660 Y-51.1039 F12000.0
G1 X100.6693 Y-50.9527
G1 Z0.0000 F8000.0
G0 X98.7234 Y-50.9527 F15000.0
G1 Z11.9000 F8000.0
G1 X98.7234 Y-54.5527 F12000.0
G1 Z0.0000 F8000.0
G0 X102.1710 Y-34.3794 F15000.0
G1 Z11.9000 F8000.0
G1 X102.5035 Y-34.8504 F12000.0
G1 X102.1873 Y-34.4581
G1 X102.6073 Y-34.9562
G1 X103.1906 Y-35.2197
G1 X102.8292 Y-35.0524
G1 X103.2334 Y-35.2207
G1 X103.9822 Y-35.2920
G1 X104.3504 Y-35.2157
G1 X105.0339 Y-34.8917
G1 X105.2056 Y-34.7319
G1 X105.3569 Y-33.6155
G1 X105.3071 Y-33.4254
G1 X102.9825 Y-33.0105
G1 X102.4298 Y-32.7189
G1 X102.2318 Y-32.5077
G1 X102.0556 Y-31.7821
G1 X102.2774 Y-31.2173
G1 X102.4316 Y-31.0573
G1 X103.0061 Y-30.8226
G1 X103.2527 Y-30.8005
G1 X104.1186 Y-30.9720
G1 X105.3592 Y-31.5048
G1 X106.0096 Y-30.6470
G1 X106.2269 Y-30.6458
G1 X107.5283 Y-31.0495
G1 X107.5711 Y-33.1632
G1 Z0.0000 F8000.0
G0 X107.5711 Y-35.1092 F15000.0
G1 Z11.9000 F8000.0
G1 X107.5723 Y-33.3395 F12000.0
G1 X107.6326 Y-33.1478
G1 X110.5080 Y-33.1581
G1 X110.7009 Y-33.0812
G1 X110.7333 Y-31.0226
G1 Z0.0000 F8000.0
G0 X110.7333 Y-33.2118 F15000.0
G1 Z11.9000 F8000.0
G1 X110.7333 Y-35.1092 F12000.0
G1 Z0.0000 F8000.0
G0 X105.3819 Y-33.4064 F15000.0
G1 Z11.9000 F8000.0
G1 X105.3537 Y-31.6521 F12000.0
G1 X104.1657 Y-30.9253
G1 Z0.0000 F8000.0
G0 X100.2250 Y-31.0226 F15000.0
G1 Z11.9000 F8000.0
G1 X97.2487 Y-35.0730 F12000.0
G1 X97.1601 Y-31.0226
G1 Z0.0000 F8000.0
G0 X95.6033 Y-30.5848 F15000.0
G1 Z11.9000 F8000.0
G1 X94.9376 Y-31.5668 F12000.0
G1 X94.9403 Y-33.2417
G1 X94.2257 Y-33.2864
G1 X94.7712 Y-33.3837
G1 X94.9370 Y-33.4823
G1 X94.8373 Y-34.5909
G1 X94.7446 Y-34.8072
G1 X94.1970 Y-35.1066
G1 X93.5991 Y-35.2914
G1 X93.0954 Y-35.2691
G1 X92.3092 Y-35.0242
G1 X91.7698 Y-34.4493
G1 X92.0811 Y-34.8409
G1 X91.9060 Y-34.5740
G1 Z0.0000 F8000.0
G0 X92.4898 Y-33.0172 F15000.0
G1 Z11.9000 F8000.0
G1 X92.0033 Y-32.7253 F12000.0
G1 Z0.0000 F8000.0
G0 X94.1438 Y-33.3091 F15000.0
G1 Z11.9000 F8000.0
G1 X92.5722 Y-33.0126 F12000.0
G1 X91.9342 Y-32.6749
G1 X91.7824 Y-32.4069
G1 X91.6505 Y-31.6748
G1 X92.0091 Y-31.0611
G1 X92.7058 Y-30.8024
G1 X93.8177 Y-30.9944
G1 X94.7763 Y-31.4605
G1 Z0.0000 F8000.0
G0 X89.8140 Y-31.0226 F15000.0
G1 Z11.9000 F8000.0
G1 X86.8201 Y-35.0846 F12000.0
G1 X86.5991 Y-31.2737
G1 X85.9384 Y-30.9584
G1 X84.4618 Y-30.9789
G1 X82.7705 Y-33.4778
G1 X83.4896 Y-32.5307
G1 Z0.0000 F8000.0
G0 X83.5869 Y-32.3848 F15000.0
G1 Z11.9000 F8000.0
G1 X84.5112 Y-30.9253 F12000.0
G1 Z0.0000 F8000.0
G0 X80.9598 Y-31.0713 F15000.0
G1 Z11.9000 F8000.0
G1 X80.9951 Y-34.0879 F12000.0
G1 X82.3186 Y-34.3246
G1 X82.7549 Y-34.6331
G1 X82.5576 Y-34.3983
G1 X82.4949 Y-33.7758
G1 X82.3176 Y-33.9874
G1 X82.3386 Y-34.2168
G1 X82.9965 Y-34.9747
G1 X83.7656 Y-36.5122
G1 X84.0792 Y-36.7992
G1 X84.8031 Y-37.0065
G1 Z0.0000 F8000.0
G0 X80.9598 Y-36.9092 F15000.0
G1 Z11.9000 F8000.0
G1 X80.9598 Y-34.1362 F12000.0
G1 Z0.0000 F8000.0
G0 X89.0710 Y-17.8622 F15000.0
G1 Z11.9000 F8000.0
G1 X88.8107 Y-18.2739 F12000.0
G1 X87.7283 Y-18.5591
G1 X86.7768 Y-18.0062
G1 X86.6792 Y-17.7816
G1 X86.5069 Y-16.6601
G1 X86.5760 Y-16.2918
G1 X86.9933 Y-15.5939
G1 X87.2896 Y-15.4080
G1 X88.0348 Y-15.2957
G1 X88.4005 Y-15.3601
G1 X88.9102 Y-15.6864
G1 X89.0201 Y-15.8341
G1 X88.8347 Y-15.5976
G1 Z0.0000 F8000.0
G0 X90.8224 Y-15.3811 F15000.0
G1 Z11.9000 F8000.0
G1 X90.7929 Y-17.5035 F12000.0
G1 X90.0841 Y-17.6139
G1 X91.6542 Y-17.6075
G1 X92.6159 Y-17.4218
G1 X93.0335 Y-17.5931
G1 X94.0147 Y-17.4140
G1 X94.1389 Y-17.2341
G1 X94.2157 Y-16.7366
G1 X94.1576 Y-15.5500
G1 X94.3645 Y-15.2686
G1 X94.5731 Y-15.1748
G1 X95.4006 Y-15.4194
G1 X97.1084 Y-17.5374
G1 X97.1955 Y-15.3811
G1 Z0.0000 F8000.0
G0 X98.3145 Y-16.6460 F15000.0
G1 Z11.9000 F8000.0
G1 X99.6819 Y-16.4726 F12000.0
G1 X99.8583 Y-16.3373
G1 X99.9975 Y-15.8770
G1 X99.9241 Y-15.6542
G1 X99.7294 Y-15.5549
G1 X98.3801 Y-15.4195
G1 X98.3159 Y-15.6001
G1 X98.3145 Y-17.5703
G1 Z0.0000 F8000.0
G0 X95.4928 Y-15.4784 F15000.0
G1 Z11.9000 F8000.0
G1 X95.3955 Y-15.3324 F12000.0
G1 Z0.0000 F8000.0
G0 X94.0333 Y-15.5270 F15000.0
G1 Z11.9000 F8000.0
G1 X93.0840 Y-15.2886 F12000.0
G1 X92.4771 Y-15.6567
G1 X92.6546 Y-16.2286
G1 X92.8306 Y-16.3728
G1 X94.1569 Y-16.6551
G1 X94.2279 Y-16.5973
G1 Z0.0000 F8000.0
G0 X92.3514 Y-11.7149 F15000.0
G1 Z11.9000 F8000.0
G1 X91.2325 Y-11.6663 F12000.0
G1 Z0.0000 F8000.0
G0 X90.1136 Y-11.7149 F15000.0
G1 Z11.9000 F8000.0
G1 X91.1948 Y-11.6204 F12000.0
G1 X91.2325 Y-8.7473
G1 Z0.0000 F8000.0
G0 X89.1406 Y-8.8446 F15000.0
G1 Z11.9000 F8000.0
G1 X89.4236 Y-9.2448 F12000.0
G1 X89.3413 Y-9.1114
G1 X89.3828 Y-9.1642
G1 X89.1024 Y-8.8754
G1 X88.6577 Y-8.6755
G1 X87.7899 Y-8.8174
G1 X87.4833 Y-8.9727
G1 X87.1044 Y-9.7361
G1 X87.1049 Y-10.6068
G1 X87.3031 Y-11.1394
G1 X87.0973 Y-10.6446
G1 Z0.0000 F8000.0
G0 X87.3892 Y-11.3257 F15000.0
G1 Z11.9000 F8000.0
G1 X87.7503 Y-11.6171 F12000.0
G1 X87.5722 Y-11.4883
G1 X87.8553 Y-11.6544
G1 X88.4740 Y-11.7446
G1 X89.0614 Y-11.5605
G1 X89.4325 Y-11.0825
G1 Z0.0000 F8000.0
G0 X85.9783 Y-10.8392 F15000.0
G1 Z11.9000 F8000.0
G1 X85.7642 Y-11.2749 F12000.0
G1 X85.3341 Y-11.6045
G1 X85.9636 Y-10.9505
G1 X86.1043 Y-10.0010
G1 X85.9366 Y-9.3985
G1 X85.4135 Y-8.8681
G1 X84.4436 Y-8.6715
G1 X83.9842 Y-8.8408
G1 X83.7122 Y-9.0754
G1 X83.4700 Y-9.5108
G1 X83.3936 Y-10.6307
G1 X83.6830 Y-11.2776
G1 Z0.0000 F8000.0
G0 X83.4233 Y-10.7229 F15000.0
G1 Z11.9000 F8000.0
G1 X83.7769 Y-11.3756 F12000.0
G1 X84.0678 Y-11.5724
G1 X84.6678 Y-11.7462
G1 X85.2486 Y-11.6663
G1 Z0.0000 F8000.0
G0 X82.9621 Y-11.7149 F15000.0
G1 Z11.9000 F8000.0
G1 X81.2107 Y-8.7473 F12000.0
G1 Z0.0000 F8000.0
G0 X85.4432 Y-8.8446 F15000.0
G1 Z11.9000 F8000.0
G1 X85.5885 Y-8.9108 F12000.0
G1 X85.8672 Y-9.2490
G1 X85.7269 Y-9.0540
G1 X85.9783 Y-9.4284
G1 Z0.0000 F8000.0
G0 X94.9694 Y-11.0825 F15000.0
G1 Z11.9000 F8000.0
G1 X94.9308 Y-11.0292 F12000.0
G1 X95.4216 Y-11.2148
G1 X95.1264 Y-11.1109
G1 X95.0927 Y-10.9321
G1 X95.4559 Y-8.6500
G1 Z0.0000 F8000.0
G0 X98.1803 Y-8.6500 F15000.0
G1 Z11.9000 F8000.0
G1 X98.4159 Y-8.8012 F12000.0
G1 X98.5202 Y-8.9783
G1 X98.1686 Y-8.6772
G1 X97.3674 Y-8.7584
G1 X97.2364 Y-8.8879
G1 X96.9356 Y-9.6643
G1 X97.0023 Y-10.4979
G1 X97.2340 Y-11.2923
G1 X97.7465 Y-11.6300
G1 X98.3240 Y-11.5050
G1 X98.5035 Y-11.3235
G1 X98.6541 Y-9.3317
G1 X98.5695 Y-9.0392
G1 Z0.0000 F8000.0
G0 X100.1208 Y-8.6561 F15000.0
G1 Z11.9000 F8000.0
G1 X99.6719 Y-8.9820 F12000.0
G1 X100.0110 Y-8.6621
G1 X100.7246 Y-8.6627
G1 X100.8073 Y-8.7473
G1 Z0.0000 F8000.0
G0 X100.7437 Y-8.6622 F15000.0
G1 Z11.9000 F8000.0
G1 X100.9139 Y-8.7589 F12000.0
G1 X101.1655 Y-9.0861
G1 X101.2648 Y-9.4906
G1 X101.0619 Y-10.2684
G1 X100.8618 Y-10.4667
G1 X100.5701 Y-10.5645
G1 X99.6915 Y-10.4638
G1 X99.9663 Y-11.6368
G1 X101.0992 Y-11.6663
G1 Z0.0000 F8000.0
G0 X102.3641 Y-11.2771 F15000.0
G1 Z11.9000 F8000.0
G1 X102.4614 Y-11.4717 F12000.0
G1 Z0.0000 F8000.0
G0 X103.5317 Y-11.3744 F15000.0
G1 Z11.9000 F8000.0
G1 X103.6699 Y-11.3296 F12000.0
G1 X103.3271 Y-11.5645
G1 X102.9257 Y-11.6362
G1 X102.5602 Y-11.4512
G1 X102.2646 Y-11.0288
G1 X102.0898 Y-9.6820
G1 X102.3848 Y-8.9035
G1 X102.5118 Y-8.7637
G1 X103.3089 Y-8.6751
G1 X103.6701 Y-8.9736
G1 X103.5852 Y-8.8137
G1 X103.3942 Y-8.6936
G1 X103.7640 Y-9.1237
G1 X103.8142 Y-9.4238
G1 X103.7177 Y-11.1939
G1 X103.6290 Y-11.2771
G1 Z0.0000 F8000.0
G0 X104.7966 Y-9.7203 F15000.0
G1 Z11.9000 F8000.0
G1 X105.5750 Y-9.7203 F12000.0
G1 Z0.0000 F8000.0
G0 X106.8399 Y-8.6500 F15000.0
G1 Z11.9000 F8000.0
G1 X106.9893 Y-9.3678 F12000.0
G1 X107.8699 Y-11.5204
G1 X107.6564 Y-11.6643
G1 X106.3534 Y-11.6663
G1 Z0.0000 F8000.0
G0 X107.6183 Y-10.9852 F15000.0
G1 Z11.9000 F8000.0
G1 X107.5210 Y-10.6933 F12000.0
G1 Z0.0000 F8000.0
G0 X108.8832 Y-9.5257 F15000.0
G1 Z11.9000 F8000.0
G1 X109.0071 Y-9.9210 F12000.0
G1 X109.7413 Y-10.9351
G1 X110.1321 Y-11.1066
G1 X110.2458 Y-9.3789
G1 X110.2677 Y-9.4692
G1 X108.9208 Y-9.4788
G1 X108.9805 Y-9.4284
G1 Z0.0000 F8000.0
G0 X106.6250 Y-15.2990 F15000.0
G1 Z11.9000 F8000.0
G1 X106.7004 Y-15.3811 F12000.0
G1 Z0.0000 F8000.0
G0 X106.0160 Y-15.3012 F15000.0
G1 Z11.9000 F8000.0
G1 X105.8247 Y-15.3811 F12000.0
G1 Z0.0000 F8000.0
G0 X104.0733 Y-16.1595 F15000.0
G1 Z11.9000 F8000.0
G1 X103.8788 Y-16.1595 F12000.0
G1 Z0.0000 F8000.0
G0 X102.6968 Y-16.7969 F15000.0
G1 Z11.9000 F8000.0
G1 X103.5070 Y-17.8902 F12000.0
G1 X103.8688 Y-18.0216
G1 X103.9670 Y-16.3756
G1 X103.9074 Y-16.0872
G1 X102.4571 Y-16.2114
G1 X102.5166 Y-16.1595
G1 Z0.0000 F8000.0
G0 X102.4537 Y-16.3257 F15000.0
G1 Z11.9000 F8000.0
G1 X102.7112 Y-16.8406 F12000.0
G1 Z0.0000 F8000.0
G0 X105.5328 Y-18.0082 F15000.0
G1 Z11.9000 F8000.0
G1 X105.8894 Y-18.4330 F12000.0
G1 X105.5847 Y-18.1456
G1 X105.4500 Y-17.7580
G1 X105.3486 Y-16.2922
G1 X105.3940 Y-16.1005
G1 X106.0495 Y-15.3061
G1 X106.6616 Y-15.3016
G1 X107.1110 Y-15.8530
G1 X107.2623 Y-16.3478
G1 X107.1873 Y-17.3914
G1 X106.9578 Y-18.2920
G1 X106.5230 Y-18.5321
G1 X105.9220 Y-18.4946
G1 Z0.0000 F8000.0
G0 X38.9657 Y-5.3662 F15000.0
G1 Z11.9000 F8000.0
G1 X38.9657 Y-58.9131 F12000.0
G1 Z0.0000 F8000.0
G0 X2.3399 Y-12.3971 F15000.0
G1 Z11.9000 F8000.0
G1 X2.3362 Y-14.2929 F12000.0
G1 X2.2523 Y-13.5090
G1 X0.9349 Y-13.4792
G1 X0.8804 Y-12.5481
G1 X0.8804 Y-14.3918
G1 Z0.0000 F8000.0
G0 X28.2151 Y-127.7567 F15000.0
G1 Z11.9000 F8000.0
G1 X28.2151 Y-128.6324 F12000.0
G1 Z0.0000 F8000.0
G0 X27.6385 Y-128.9207 F15000.0
G1 Z11.9000 F8000.0
G1 X27.6385 Y-128.0450 F12000.0
G1 Z0.0000 F8000.0
G0 X27.6385 Y-239.3402 F15000.0
G1 Z11.9000 F8000.0
G1 X27.6385 Y-240.2159 F12000.0
G1 Z0.0000 F8000.0
G0 X28.2151 Y-240.5042 F15000.0
G1 Z11.9000 F8000.0
G1 X28.2151 Y-239.6285 F12000.0
G1 Z0.0000 F8000.0
G0 X24.7889 Y-276.2348 F15000.0
G1 Z11.9000 F8000.0
G1 X24.3024 Y-276.5754 F12000.0
G1 Z0.0000 F8000.0
G0 X22.3078 Y-276.5267 F15000.0
G1 Z11.9000 F8000.0
G1 X22.0251 Y-276.3311 F12000.0
G1 X21.1494 Y-276.2537
G1 X20.9255 Y-276.3375
G1 X20.6537 Y-276.5754
G1 Z0.0000 F8000.0
G0 X18.9510 Y-276.2835 F15000.0
G1 Z11.9000 F8000.0
G1 X18.9498 Y-277.4205 F12000.0
G1 X18.8900 Y-277.6055
G1 X17.5436 Y-277.4716
G1 X17.2028 Y-277.5925
G1 X16.8903 Y-277.9716
G1 X16.7618 Y-279.1051
G1 Z0.0000 F8000.0
G0 X15.1563 Y-280.0295 F15000.0
G1 Z11.9000 F8000.0
G1 X14.9617 Y-279.8835 F12000.0
G1 Z0.0000 F8000.0
G0 X11.6536 Y-280.0295 F15000.0
G1 Z11.9000 F8000.0
G1 X11.7592 Y-280.0475 F12000.0
G1 X13.2757 Y-276.7608
G1 X13.5473 Y-276.5589
G1 X13.7463 Y-276.6578
G1 X15.0368 Y-279.9250
G1 X15.2828 Y-280.0389
G1 X15.4969 Y-276.2835
G1 Z0.0000 F8000.0
G0 X13.6968 Y-276.6240 F15000.0
G1 Z11.9000 F8000.0
G1 X13.5475 Y-276.4833 F12000.0
G1 X13.5509 Y-276.3321
G1 Z0.0000 F8000.0
G0 X11.6049 Y-276.3321 F15000.0
G1 Z11.9000 F8000.0
G1 X11.6049 Y-279.9322 F12000.0
G1 Z0.0000 F8000.0
G0 X18.9510 Y-279.1051 F15000.0
G1 Z11.9000 F8000.0
G1 X18.9510 Y-277.6457 F12000.0
G1 Z0.0000 F8000.0
G0 X20.4591 Y-279.6889 F15000.0
G1 Z11.9000 F8000.0
G1 X20.8718 Y-280.2909 F12000.0
G1 X20.4510 Y-279.5757
G1 X20.2807 Y-278.0688
G1 X20.5375 Y-276.8422
G1 X20.6584 Y-276.6292
G1 X21.2572 Y-276.2218
G1 X22.2194 Y-276.4623
G1 X22.5311 Y-276.8889
G1 X22.7293 Y-277.6160
G1 X22.4553 Y-279.8715
G1 X22.2478 Y-280.2162
G1 X21.9662 Y-280.3936
G1 X21.2208 Y-280.4513
G1 X20.9943 Y-280.3700
G1 Z0.0000 F8000.0
G0 X24.1078 Y-279.6889 F15000.0
G1 Z11.9000 F8000.0
G1 X24.3646 Y-280.1168 F12000.0
G1 X24.8729 Y-280.4503
G1 X25.6173 Y-280.3925
G1 X25.8981 Y-280.2151
G1 X26.0695 Y-279.9810
G1 X26.3792 Y-277.6130
G1 X26.2307 Y-277.0041
G1 X25.9919 Y-276.5449
G1 X26.1442 Y-276.8067
G1 X25.7258 Y-276.3392
G1 X24.9882 Y-276.2122
G1 X24.7665 Y-276.2820
G1 X24.3144 Y-276.6224
G1 X24.1292 Y-276.9953
G1 X23.9332 Y-278.1079
G1 X24.1092 Y-279.6128
G1 X24.5078 Y-280.2457
G1 X24.7889 Y-280.4673
G1 Z0.0000 F8000.0
G0 X29.9458 Y-276.3808 F15000.0
G1 Z11.9000 F8000.0
G1 X29.5966 Y-276.9371 F12000.0
G1 X30.0014 Y-276.4364
G1 X30.9747 Y-276.2134
G1 X31.4122 Y-276.3727
G1 X31.7288 Y-276.7801
G1 X31.9578 Y-277.6191
G1 X31.6863 Y-278.4355
G1 X30.8092 Y-278.8813
G1 X29.7740 Y-278.7257
G1 X31.7945 Y-280.4187
G1 Z0.0000 F8000.0
G0 X33.2539 Y-279.7862 F15000.0
G1 Z11.9000 F8000.0
G1 X33.4895 Y-280.1463 F12000.0
G1 X33.8512 Y-280.4025
G1 X34.3438 Y-280.4947
G1 X34.7157 Y-280.4608
G1 X35.0576 Y-280.3276
G1 X35.2072 Y-280.1559
G1 X35.5121 Y-279.2074
G1 X35.3442 Y-278.7429
G1 X34.6386 Y-277.9180
G1 X35.0362 Y-278.3244
G1 X33.8709 Y-277.2589
G1 Z0.0000 F8000.0
G0 X34.4509 Y-277.7509 F15000.0
G1 Z11.9000 F8000.0
G1 X33.7125 Y-277.1229 F12000.0
G1 X33.9811 Y-277.3676
G1 X33.4783 Y-276.8770
G1 X33.3072 Y-276.4161
G1 X33.1435 Y-276.2054
G1 X35.5405 Y-276.2348
G1 Z0.0000 F8000.0
G0 X39.0432 Y-276.5754 F15000.0
G1 Z11.9000 F8000.0
G1 X39.3150 Y-276.3375 F12000.0
G1 X39.6619 Y-276.2552
G1 X40.5296 Y-276.3836
G1 X40.7460 Y-276.5754
G1 Z0.0000 F8000.0
G0 X44.1514 Y-276.3321 F15000.0
G1 Z11.9000 F8000.0
G1 X44.2849 Y-276.4562 F12000.0
G1 X43.9413 Y-276.3054
G1 X43.4440 Y-276.2177
G1 X43.0858 Y-276.2707
G1 X42.7301 Y-276.5723
G1 X42.4986 Y-277.0002
G1 X42.3165 Y-277.9908
G1 X42.4978 Y-279.6226
G1 X42.7065 Y-280.0753
G1 X43.0750 Y-280.4004
G1 X43.3074 Y-280.4567
G1 X43.9337 Y-280.4110
G1 X44.4356 Y-280.0482
G1 X44.7670 Y-277.6903
G1 X44.6486 Y-277.0761
G1 X44.3716 Y-276.5351
G1 X44.6379 Y-277.0132
G1 Z0.0000 F8000.0
G0 X48.2380 Y-276.5754 F15000.0
G1 Z11.9000 F8000.0
G1 X48.5098 Y-276.3376 F12000.0
G1 X48.7332 Y-276.2569
G1 X49.8129 Y-276.4380
G1 X49.9407 Y-276.5754
G1 Z0.0000 F8000.0
G0 X52.2759 Y-278.5213 F15000.0
G1 Z11.9000 F8000.0
G1 X51.7756 Y-278.0832 F12000.0
G1 X51.5975 Y-277.7551
G1 X51.5258 Y-277.2647
G1 X51.8132 Y-276.5795
G1 X52.0807 Y-276.3643
G1 X53.1850 Y-276.2285
G1 X53.7785 Y-276.6796
G1 X53.9466 Y-277.0015
G1 X53.7787 Y-277.9831
G1 X53.3587 Y-278.6453
G1 X53.6381 Y-279.0078
G1 Z0.0000 F8000.0
G0 X53.5895 Y-280.1754 F15000.0
G1 Z11.9000 F8000.0
G1 X53.1739 Y-280.4294 F12000.0
G1 X53.5027 Y-280.1740
G1 X53.7350 Y-279.4666
G1 X53.7178 Y-279.2402
G1 X53.2669 Y-278.5526
G1 X53.6331 Y-278.1857
G1 X53.3250 Y-278.4553
G1 X53.1145 Y-278.5325
G1 X52.0240 Y-278.2438
G1 X51.6983 Y-277.9608
G1 X52.2351 Y-278.5313
G1 X52.1638 Y-278.7240
G1 X51.9171 Y-278.9538
G1 X51.7171 Y-279.5328
G1 X51.7984 Y-279.8936
G1 X52.3245 Y-280.4021
G1 X53.1030 Y-280.4673
G1 Z0.0000 F8000.0
G0 X53.8814 Y-276.7700 F15000.0
G1 Z11.9000 F8000.0
G1 X53.5070 Y-276.3897 F12000.0
G1 X53.5408 Y-276.4294
G1 Z0.0000 F8000.0
G0 X48.5786 Y-280.3700 F15000.0
G1 Z11.9000 F8000.0
G1 X48.8051 Y-280.4513 F12000.0
G1 X49.5505 Y-280.3936
G1 X49.8321 Y-280.2162
G1 X50.0396 Y-279.8715
G1 X50.3136 Y-277.6160
G1 X50.0627 Y-276.7746
G1 X49.7163 Y-276.3333
G1 X48.8373 Y-276.2171
G1 X48.2424 Y-276.6297
G1 X48.1192 Y-276.8472
G1 X47.8771 Y-277.8253
G1 X48.0366 Y-279.5811
G1 X48.4649 Y-280.2859
G1 X48.2303 Y-280.0411
G1 X48.0434 Y-279.6889
G1 Z0.0000 F8000.0
G0 X39.3838 Y-280.3700 F15000.0
G1 Z11.9000 F8000.0
G1 X39.6103 Y-280.4513 F12000.0
G1 X40.3558 Y-280.3936
G1 X40.6374 Y-280.2162
G1 X40.8448 Y-279.8715
G1 X41.1188 Y-277.6160
G1 X40.8679 Y-276.7746
G1 X40.5218 Y-276.3669
G1 X39.6675 Y-276.2157
G1 X39.0494 Y-276.6272
G1 X38.6870 Y-277.7991
G1 X38.8660 Y-279.6751
G1 X39.3230 Y-280.3193
G1 X38.8486 Y-279.6889
G1 Z0.0000 F8000.0
G0 X68.1282 Y-284.6338 F15000.0
G1 Z11.9000 F8000.0
G1 X68.1282 Y-271.0412 F12000.0
G1 X0.0000 Y-271.0412 F12000.0
G1 Z0.0000 F8000.0
G0 X95.8902 Y-219.0595 F15000.0
G1 Z11.9000 F8000.0
G1 X111.4600 Y-234.6293 F12000.0
G1 Z0.0000 F8000.0
G0 X115.5789 Y-234.6293 F15000.0
G1 Z11.9000 F8000.0
G1 X100.0092 Y-219.0595 F12000.0
G1 Z0.0000 F8000.0
G0 X104.2105 Y-219.0595 F15000.0
G1 Z11.9000 F8000.0
G1 X119.7803 Y-234.6293 F12000.0
G1 Z0.0000 F8000.0
G0 X123.8993 Y-234.6293 F15000.0
G1 Z11.9000 F8000.0
G1 X108.3295 Y-219.0595 F12000.0
G1 Z0.0000 F8000.0
G0 X141.6522 Y-219.8985 F15000.0
G1 Z11.9000 F8000.0
G1 X141.6522 Y-220.7742 F12000.0
G1 Z0.0000 F8000.0
G0 X142.2288 Y-221.0625 F15000.0
G1 Z11.9000 F8000.0
G1 X142.2288 Y-220.1869 F12000.0
G1 Z0.0000 F8000.0
G0 X155.2448 Y-231.5141 F15000.0
G1 Z11.9000 F8000.0
G1 X155.2448 Y-232.3898 F12000.0
G1 Z0.0000 F8000.0
G0 X155.8627 Y-232.6781 F15000.0
G1 Z11.9000 F8000.0
G1 X155.8627 Y-231.8024 F12000.0
G1 Z0.0000 F8000.0
G0 X139.2489 Y-183.7580 F15000.0
G1 Z11.9000 F8000.0
G1 X138.9393 Y-183.8907 F12000.0
G1 X138.2316 Y-184.0233
G1 X138.1432 Y-182.9619
G1 X137.6125 Y-183.1388
G1 X135.0473 Y-184.5983
G1 Z0.0000 F8000.0
G0 X136.6837 Y-182.5196 F15000.0
G1 Z11.9000 F8000.0
G1 X139.1162 Y-181.6351 F12000.0
G1 Z0.0000 F8000.0

G0 Z0.0000 F800.0
G4 P0.06
G0 X0.0000 Y0.0000 F15000.0
M5
G4 P0.10
$1=0
