$X
$1=255
G21
G90
G92 Z4.0000
G0 Z0.0000 F800.0
G4 P0.06
G92 Z0.0000
G0 Z0.0000 F800.0
G0 X0.0000 Y0.0000 F15000.0
G21
G90
G17
G91.1
G0 Z0.0000
G0 X0.0000 Y-5.0000 F15000.0
G1 Z11.9000 F2500.0
G4 P0.02
G1 X180.0000 Y-5.0000 F12000.0
G1 X180.0000 Y-285.0000
G1 X0.0000 Y-285.0000
G1 X0.0000 Y-5.0000
G1 Z0.0000 F2500.0
G4 P0.02
G0 X135.3076 Y-137.0486 F15000.0
G1 Z11.9000 F2500.0
G4 P0.02
G1 X136.6344 Y-137.2255 F3500.0
G1 X137.0987 Y-137.6456
G1 X137.4968 Y-138.6629
G1 X137.4968 Y-139.1272
G1 X137.2978 Y-139.4589
G1 X137.3862 Y-139.6801
G1 X137.7843 Y-140.0339
G1 Z0.0000 F2500.0
G4 P0.02
G0 X137.9169 Y-140.3656 F15000.0
G1 Z11.9000 F2500.0
G4 P0.02
G1 X138.1381 Y-141.1396 F3500.0
G1 Z0.0000 F2500.0
G4 P0.02
G0 X138.0496 Y-141.3386 F15000.0
G1 Z11.9000 F2500.0
G4 P0.02
G1 X137.8727 Y-141.4934 F3500.0
G1 X136.8997 Y-141.5376
G1 Z0.0000 F2500.0
G4 P0.02
G0 X137.2756 Y-139.4811 F15000.0
G1 Z11.9000 F2500.0
G4 P0.02
G1 X136.7007 Y-139.3926 F3500.0
G1 Z0.0000 F2500.0
G4 P0.02
G0 X138.2929 Y-137.2918 F15000.0
G1 Z11.9000 F2500.0
G4 P0.02
G1 X138.2708 Y-138.0437 F3500.0
G1 X139.4207 Y-141.0069
G1 X139.8850 Y-141.4049
G1 X140.9686 Y-141.5376
G1 X141.1013 Y-141.4934
G1 Z0.0000 F2500.0
G4 P0.02
G0 X141.3003 Y-141.3165 F15000.0
G1 Z11.9000 F2500.0
G4 P0.02
G1 X140.6590 Y-138.8398 F3500.0
G1 Z0.0000 F2500.0
G4 P0.02
G0 X140.4379 Y-138.2206 F15000.0
G1 Z11.9000 F2500.0
G4 P0.02
G1 X140.1283 Y-137.5572 F3500.0
G1 X139.8187 Y-137.2918
G1 X139.3543 Y-137.0707
G1 X138.3813 Y-137.2034
G1 Z0.0000 F2500.0
G4 P0.02
G0 X139.3985 Y-137.0928 F15000.0
G1 Z11.9000 F2500.0
G4 P0.02
G1 X139.5312 Y-137.1591 F3500.0
G1 Z0.0000 F2500.0
G4 P0.02
G0 X139.2437 Y-140.6310 F15000.0
G1 Z11.9000 F2500.0
G4 P0.02
G1 X139.2880 Y-140.7415 F3500.0
G1 Z0.0000 F2500.0
G4 P0.02
G0 X138.6453 Y-145.4943 F15000.0
G1 Z11.9000 F2500.0
G4 P0.02
G1 X138.6453 Y-153.5675 F3500.0
G1 Z0.0000 F2500.0
G4 P0.02
G0 X138.6453 Y-155.0503 F15000.0
G1 Z11.9000 F2500.0
G4 P0.02
G1 X138.6453 Y-156.5332 F3500.0
G1 Z0.0000 F2500.0
G4 P0.02
G0 X138.6453 Y-158.0160 F15000.0
G1 Z11.9000 F2500.0
G4 P0.02
G1 X138.6453 Y-166.1716 F3500.0
G1 Z0.0000 F2500.0
G4 P0.02
G0 X138.6453 Y-167.5721 F15000.0
G1 Z11.9000 F2500.0
G4 P0.02
G1 X138.6453 Y-169.0549 F3500.0
G1 Z0.0000 F2500.0
G4 P0.02
G0 X138.6453 Y-170.5378 F15000.0
G1 Z11.9000 F2500.0
G4 P0.02
G1 X138.6453 Y-178.6934 F3500.0
G1 Z0.0000 F2500.0
G4 P0.02
G0 X138.0686 Y-178.3638 F15000.0
G1 Z11.9000 F2500.0
G4 P0.02
G1 X139.7986 Y-178.2815 F3500.0
G1 X141.5286 Y-177.8696 F3500.0
G1 Z0.0000 F2500.0
G4 P0.02
G0 X140.9519 Y-175.9748 F15000.0
G1 Z11.9000 F2500.0
G4 P0.02
G1 X142.4348 Y-175.3158 F3500.0
G1 X143.6705 Y-174.3272 F3500.0
G1 X144.7414 Y-173.1739 F3500.0
G1 X145.5652 Y-171.7735 F3500.0
G1 X146.0595 Y-170.2082 F3500.0
G1 X146.2242 Y-168.6430 F3500.0
G1 X146.1419 Y-167.8192 F3500.0
G1 X145.8123 Y-166.2540 F3500.0
G1 X145.1533 Y-164.7712 F3500.0
G1 X144.2471 Y-163.4531 F3500.0
G1 X143.0938 Y-162.3821 F3500.0
G1 X141.6934 Y-161.5583 F3500.0
G1 X140.2105 Y-161.0641 F3500.0
G1 X138.5629 Y-160.8169 F3500.0
G1 X136.9977 Y-160.9817 F3500.0
G1 X135.4325 Y-161.3936 F3500.0
G1 X134.0320 Y-162.2174 F3500.0
G1 X132.7963 Y-163.2059 F3500.0
G1 X131.8078 Y-164.4416 F3500.0
G1 X131.1487 Y-165.9245 F3500.0
G1 X130.7368 Y-167.4897 F3500.0
G1 X130.6545 Y-169.0549 F3500.0
G1 X130.9016 Y-170.6201 F3500.0
G1 X131.4783 Y-172.1030 F3500.0
G1 X132.3021 Y-173.5034 F3500.0
G1 X133.4554 Y-174.6567 F3500.0
G1 X134.7734 Y-175.4805 F3500.0
G1 X136.2563 Y-176.1396 F3500.0
G1 X137.8215 Y-176.3867 F3500.0
G1 X139.3867 Y-176.3867 F3500.0
G1 X140.9519 Y-175.9748 F3500.0
G1 Z0.0000 F2500.0
G4 P0.02
G0 X138.0686 Y-178.3638 F15000.0
G1 Z11.9000 F2500.0
G4 P0.02
G1 X136.2563 Y-178.1167 F3500.0
G1 X134.5263 Y-177.5400 F3500.0
G1 X132.9611 Y-176.7162 F3500.0
G1 X131.6430 Y-175.5629 F3500.0
G1 X130.4073 Y-174.2448 F3500.0
G1 X129.5835 Y-172.6796 F3500.0
G1 X129.0069 Y-170.9497 F3500.0
G1 X128.6773 Y-169.2197 F3500.0
G1 X128.7597 Y-167.4073 F3500.0
G1 X129.1716 Y-165.6773 F3500.0
G1 X129.8307 Y-164.0297 F3500.0
G1 X130.8192 Y-162.5469 F3500.0
G1 X132.0549 Y-161.2288 F3500.0
G1 X133.5378 Y-160.2403 F3500.0
G1 X135.1853 Y-159.4989 F3500.0
G1 X136.9153 Y-159.0046 F3500.0
G1 X138.6453 Y-158.9222 F3500.0
G1 X140.4577 Y-159.0870 F3500.0
G1 X142.1876 Y-159.6636 F3500.0
G1 X143.7529 Y-160.4874 F3500.0
G1 X145.1533 Y-161.6407 F3500.0
G1 X146.3066 Y-162.9588 F3500.0
G1 X147.2128 Y-164.5240 F3500.0
G1 X147.7895 Y-166.1716 F3500.0
G1 X147.9542 Y-166.5835 F3500.0
G1 Z0.0000 F2500.0
G4 P0.02
G0 X147.1304 Y-168.6430 F15000.0
G1 Z11.9000 F2500.0
G4 P0.02
G1 X155.3684 Y-168.6430 F3500.0
G1 Z0.0000 F2500.0
G4 P0.02
G0 X145.6476 Y-168.6430 F15000.0
G1 Z11.9000 F2500.0
G4 P0.02
G1 X144.2471 Y-168.6430 F3500.0
G1 Z0.0000 F2500.0
G4 P0.02
G0 X142.7643 Y-168.6430 F15000.0
G1 Z11.9000 F2500.0
G4 P0.02
G1 X134.4439 Y-168.6430 F3500.0
G1 Z0.0000 F2500.0
G4 P0.02
G0 X133.0435 Y-168.6430 F15000.0
G1 Z11.9000 F2500.0
G4 P0.02
G1 X131.5606 Y-168.6430 F3500.0
G1 Z0.0000 F2500.0
G4 P0.02
G0 X130.0778 Y-168.6430 F15000.0
G1 Z11.9000 F2500.0
G4 P0.02
G1 X121.8398 Y-168.6430 F3500.0
G1 Z0.0000 F2500.0
G4 P0.02
G0 X123.8169 Y-181.4943 F15000.0
G1 Z11.9000 F2500.0
G4 P0.02
G1 X123.8169 Y-155.7918 F12000.0
G1 X125.6293 Y-153.9794 F3500.0
G1 X127.6064 Y-152.4142 F3500.0
G1 X129.8307 Y-151.1785 F3500.0
G1 X132.1373 Y-150.1899 F3500.0
G1 X134.6087 Y-149.5309 F3500.0
G1 X137.0801 Y-149.2014 F3500.0
G1 X139.6339 Y-149.2014 F3500.0
G1 X142.1876 Y-149.5309 F3500.0
G1 X144.5767 Y-150.1899 F3500.0
G1 X146.9657 Y-151.1785 F3500.0
G1 X149.1075 Y-152.4142 F3500.0
G1 X151.1670 Y-153.8970 F3500.0
G1 X152.9794 Y-155.7094 F3500.0
G1 Z0.0000 F2500.0
G4 P0.02
G0 X152.9794 Y-155.7918 F15000.0
G1 Z11.9000 F2500.0
G4 P0.02
G1 X152.9794 Y-181.4943 F12000.0
G1 X151.2494 Y-183.3066 F3500.0
G1 X149.1899 Y-184.7895 F3500.0
G1 X147.0480 Y-186.1075 F3500.0
G1 X144.6590 Y-187.0961 F3500.0
G1 X142.1876 Y-187.7551 F3500.0
G1 X139.7162 Y-188.0847 F3500.0
G1 X137.1625 Y-188.0847 F3500.0
G1 X134.6911 Y-187.7551 F3500.0
G1 X132.2197 Y-187.0961 F3500.0
G1 X129.9130 Y-186.1075 F3500.0
G1 X127.6888 Y-184.8718 F3500.0
G1 X125.7117 Y-183.3066 F3500.0
G1 X123.8993 Y-181.5767 F3500.0
G1 Z0.0000 F2500.0
G4 P0.02
G0 X132.0137 Y-183.8162 F15000.0
G1 Z11.9000 F2500.0
G4 P0.02
G1 X132.0137 Y-184.6918 F3500.0
G1 Z0.0000 F2500.0
G4 P0.02
G0 X132.3432 Y-184.9802 F15000.0
G1 Z11.9000 F2500.0
G4 P0.02
G1 X132.3432 Y-184.1045 F3500.0
G1 Z0.0000 F2500.0
G4 P0.02
G0 X132.7963 Y-182.6476 F15000.0
G1 Z11.9000 F2500.0
G4 P0.02
G1 X133.5378 Y-182.4005 F3500.0
G1 X131.1487 Y-186.6842 F3500.0
G1 X123.8169 Y-204.8078 F12000.0
G1 X108.6590 Y-204.8078 F12000.0
G1 Z0.0000 F2500.0
G4 P0.02
G0 X111.7868 Y-207.8096 F15000.0
G1 Z11.9000 F2500.0
G4 P0.02
G1 X113.5780 Y-210.5296 F3500.0
G1 X113.8654 Y-210.8613
G1 Z0.0000 F2500.0
G4 P0.02
G0 X114.2414 Y-211.4141 F15000.0
G1 Z11.9000 F2500.0
G4 P0.02
G1 X114.4183 Y-211.6573 F3500.0
G1 Z0.0000 F2500.0
G4 P0.02
G0 X115.8778 Y-210.5296 F15000.0
G1 Z11.9000 F2500.0
G4 P0.02
G1 X116.4748 Y-211.5689 F3500.0
G1 Z0.0000 F2500.0
G4 P0.02
G0 X115.7230 Y-210.2421 F15000.0
G1 Z11.9000 F2500.0
G4 P0.02
G1 X115.1259 Y-209.1806 F3500.0
G1 Z0.0000 F2500.0
G4 P0.02
G0 X114.9711 Y-208.8932 F15000.0
G1 Z11.9000 F2500.0
G4 P0.02
G1 X116.2095 Y-208.5393 F3500.0
G1 X116.5191 Y-209.4460
G1 Z0.0000 F2500.0
G4 P0.02
G0 X116.2537 Y-208.5393 F15000.0
G1 Z11.9000 F2500.0
G4 P0.02
G1 X116.6960 Y-208.5172 F3500.0
G1 Z0.0000 F2500.0
G4 P0.02
G0 X116.0768 Y-208.5172 F15000.0
G1 Z11.9000 F2500.0
G4 P0.02
G1 X115.8114 Y-207.6769 F3500.0
G1 Z0.0000 F2500.0
G4 P0.02
G0 X117.8315 Y-207.7338 F15000.0
G1 Z11.9000 F2500.0
G4 P0.02
G1 X117.7652 Y-207.8444 F3500.0
G1 X117.7652 Y-208.2866
G1 X118.0305 Y-209.0606
G1 Z0.0000 F2500.0
G4 P0.02
G0 X118.1632 Y-209.4144 F15000.0
G1 Z11.9000 F2500.0
G4 P0.02
G1 X118.9372 Y-211.4046 F3500.0
G1 X119.3573 Y-211.8027
G1 X119.5785 Y-211.9132
G1 X120.7284 Y-211.8690
G1 Z0.0000 F2500.0
G4 P0.02
G0 X120.8389 Y-211.7584 F15000.0
G1 Z11.9000 F2500.0
G4 P0.02
G1 X120.7062 Y-210.6749 F3500.0
G1 Z0.0000 F2500.0
G4 P0.02
G0 X120.5515 Y-210.2547 F15000.0
G1 Z11.9000 F2500.0
G4 P0.02
G1 X119.7111 Y-208.0655 F3500.0
G1 Z0.0000 F2500.0
G4 P0.02
G0 X119.4016 Y-207.7559 F15000.0
G1 Z11.9000 F2500.0
G4 P0.02
G1 X118.8929 Y-207.5126 F3500.0
G1 X118.0305 Y-207.5569
G1 Z0.0000 F2500.0
G4 P0.02
G0 X117.8094 Y-208.4414 F15000.0
G1 Z11.9000 F2500.0
G4 P0.02
G1 X117.8315 Y-208.5299 F3500.0
G1 Z0.0000 F2500.0
G4 P0.02
G0 X118.9593 Y-211.4488 F15000.0
G1 Z11.9000 F2500.0
G4 P0.02
G1 X119.0035 Y-211.4931 F3500.0
G1 Z0.0000 F2500.0
G4 P0.02
G0 X111.8531 Y-209.4460 F15000.0
G1 Z11.9000 F2500.0
G4 P0.02
G1 X112.0300 Y-209.8662 F3500.0
G1 X112.6713 Y-210.4632
G1 X113.0030 Y-210.6180
G1 X113.7549 Y-210.6180
G1 X114.0866 Y-210.2863
G1 X113.9981 Y-209.3354
G1 X113.8654 Y-209.1143
G1 X113.2242 Y-208.6057
G1 X112.2069 Y-208.4951
G1 X111.8752 Y-208.8268
G1 X111.8310 Y-209.4018
G1 Z0.0000 F2500.0
G4 P0.02
G0 X131.1487 Y-186.6842 F15000.0
G1 Z11.9000 F2500.0
G4 P0.02
G1 X132.3844 Y-181.9062 F3500.0
G1 X132.7963 Y-182.6476 F3500.0
G1 Z0.0000 F2500.0
G4 P0.02
G0 X131.1487 Y-186.6842 F15000.0
G1 Z11.9000 F2500.0
G4 P0.02
G1 X145.7300 Y-150.6018 F12000.0
G1 X143.2586 Y-154.8856 F3500.0
G1 X144.0824 Y-154.6384 F3500.0
G1 X144.4943 Y-155.3799 F3500.0
G1 X145.7300 Y-150.6018 F3500.0
G1 Z0.0000 F2500.0
G4 P0.02
G0 X144.4943 Y-152.4294 F15000.0
G1 Z11.9000 F2500.0
G4 P0.02
G1 X144.4943 Y-153.3051 F3500.0
G1 Z0.0000 F2500.0
G4 P0.02
G0 X144.8650 Y-153.5935 F15000.0
G1 Z11.9000 F2500.0
G4 P0.02
G1 X144.8650 Y-152.7178 F3500.0
G1 Z0.0000 F2500.0
G4 P0.02
G0 X152.9794 Y-155.7918 F15000.0
G1 Z11.9000 F2500.0
G4 P0.02
G1 X152.9794 Y-132.4783 F12000.0
G1 Z0.0000 F2500.0
G4 P0.02
G0 X152.9794 Y-134.3730 F15000.0
G1 Z11.9000 F2500.0
G4 P0.02
G1 X148.1190 Y-133.7963 F3500.0
G1 X148.6133 Y-134.3730 F3500.0
G1 X148.1190 Y-135.0320 F3500.0
G1 X152.9794 Y-134.3730 F3500.0
G1 X123.8169 Y-134.3730 F12000.0
G1 X128.6773 Y-135.0320 F3500.0
G1 X128.1831 Y-134.3730 F3500.0
G1 X128.6773 Y-133.7963 F3500.0
G1 X123.8169 Y-134.3730 F3500.0
G1 Z0.0000 F2500.0
G4 P0.02
G0 X123.8169 Y-132.4783 F15000.0
G1 Z11.9000 F2500.0
G4 P0.02
G1 X123.8169 Y-155.7918 F12000.0
G1 Z0.0000 F2500.0
G4 P0.02
G0 X126.1388 Y-134.7025 F15000.0
G1 Z11.9000 F2500.0
G4 P0.02
G1 X127.0145 Y-134.7025 F3500.0
G1 Z0.0000 F2500.0
G4 P0.02
G0 X126.6850 Y-134.1259 F15000.0
G1 Z11.9000 F2500.0
G4 P0.02
G1 X125.8093 Y-134.1259 F3500.0
G1 Z0.0000 F2500.0
G4 P0.02
G0 X106.7643 Y-141.5400 F15000.0
G1 Z11.9000 F2500.0
G4 P0.02
G1 X81.3089 Y-141.5400 F12000.0
G1 Z0.0000 F2500.0
G4 P0.02
G0 X80.8147 Y-141.5400 F15000.0
G1 Z11.9000 F2500.0
G4 P0.02
G1 X81.3089 Y-140.8810 F3500.0
G1 X76.4485 Y-141.5400 F3500.0
G1 X81.3089 Y-142.1991 F3500.0
G1 X80.8147 Y-141.5400 F3500.0
G1 Z0.0000 F2500.0
G4 P0.02
G0 X79.6461 Y-141.8696 F15000.0
G1 Z11.9000 F2500.0
G4 P0.02
G1 X78.7704 Y-141.8696 F3500.0
G1 Z0.0000 F2500.0
G4 P0.02
G0 X78.4409 Y-141.2517 F15000.0
G1 Z11.9000 F2500.0
G4 P0.02
G1 X79.3166 Y-141.2517 F3500.0
G1 Z0.0000 F2500.0
G4 P0.02
G0 X76.4485 Y-141.5400 F15000.0
G1 Z11.9000 F2500.0
G4 P0.02
G1 X83.2860 Y-141.5400 F3500.0
G1 Z0.0000 F2500.0
G4 P0.02
G0 X83.9344 Y-144.2219 F15000.0
G1 Z11.9000 F2500.0
G4 P0.02
G1 X85.2612 Y-144.3988 F3500.0
G1 X85.7256 Y-144.8190
G1 X86.1237 Y-145.8362
G1 X86.1237 Y-146.3006
G1 X85.9246 Y-146.6323
G1 X86.0131 Y-146.8534
G1 X86.4111 Y-147.2072
G1 X86.5880 Y-147.6495
G1 X86.5438 Y-147.5389
G1 X86.7649 Y-148.3129
G1 X86.4996 Y-148.6667
G1 X85.5266 Y-148.7110
G1 Z0.0000 F2500.0
G4 P0.02
G0 X85.9025 Y-146.6544 F15000.0
G1 Z11.9000 F2500.0
G4 P0.02
G1 X85.3276 Y-146.5660 F3500.0
G1 Z0.0000 F2500.0
G4 P0.02
G0 X87.3620 Y-146.4775 F15000.0
G1 Z11.9000 F2500.0
G4 P0.02
G1 X88.2908 Y-144.9517 F3500.0
G1 X87.6937 Y-145.6151
G1 X86.7649 Y-145.0180
G1 X86.5217 Y-144.7527
G1 Z0.0000 F2500.0
G4 P0.02
G0 X85.3939 Y-144.4873 F15000.0
G1 Z11.9000 F2500.0
G4 P0.02
G1 X85.3497 Y-144.4431 F3500.0
G1 Z0.0000 F2500.0
G4 P0.02
G0 X87.9812 Y-145.8804 F15000.0
G1 Z11.9000 F2500.0
G4 P0.02
G1 X89.0426 Y-146.6102 F3500.0
G1 X89.1090 Y-146.7650
G1 X89.9083 Y-146.1995
G1 X89.4882 Y-145.3150
G1 X90.7044 Y-145.2486
G1 X90.3948 Y-144.3420
G1 Z0.0000 F2500.0
G4 P0.02
G0 X90.7044 Y-145.2486 F15000.0
G1 Z11.9000 F2500.0
G4 P0.02
G1 X90.8150 Y-145.2707 F3500.0
G1 X91.1688 Y-146.2658
G1 X91.3015 Y-145.2486
G1 X90.8592 Y-145.2707
G1 Z0.0000 F2500.0
G4 P0.02
G0 X90.2622 Y-146.8408 F15000.0
G1 Z11.9000 F2500.0
G4 P0.02
G1 X91.3236 Y-148.7204 F3500.0
G1 Z0.0000 F2500.0
G4 P0.02
G0 X93.4550 Y-147.9378 F15000.0
G1 Z11.9000 F2500.0
G4 P0.02
G1 X93.7867 Y-148.7118 F3500.0
G1 X95.3789 Y-148.7339
G1 Z0.0000 F2500.0
G4 P0.02
G0 X96.1926 Y-147.8166 F15000.0
G1 Z11.9000 F2500.0
G4 P0.02
G1 X96.3474 Y-148.4137 F3500.0
G1 X96.9887 Y-148.5906
G1 X97.0329 Y-148.0156
G1 X96.7233 Y-147.7724
G1 X96.2589 Y-147.7503
G1 Z0.0000 F2500.0
G4 P0.02
G0 X93.2781 Y-147.4513 F15000.0
G1 Z11.9000 F2500.0
G4 P0.02
G1 X93.0791 Y-146.6995 F3500.0
G1 X94.0299 Y-146.6110
G1 X94.3174 Y-146.4341
G1 X94.4059 Y-146.2351
G1 X94.3395 Y-145.7928
G1 X94.0521 Y-144.9967
G1 X93.4992 Y-144.3997
G1 X92.1724 Y-144.2228
G1 Z0.0000 F2500.0
G4 P0.02
G0 X94.0742 Y-145.0410 F15000.0
G1 Z11.9000 F2500.0
G4 P0.02
G1 X94.0963 Y-145.1073 F3500.0
G1 Z0.0000 F2500.0
G4 P0.02
G0 X91.8075 Y-139.1391 F15000.0
G1 Z11.9000 F2500.0
G4 P0.02
G1 X91.5863 Y-138.4536 F3500.0
G1 X90.5691 Y-138.3209
G1 Z0.0000 F2500.0
G4 P0.02
G0 X89.9278 Y-137.7681 F15000.0
G1 Z11.9000 F2500.0
G4 P0.02
G1 X89.3086 Y-136.1538 F3500.0
G1 X89.3086 Y-135.6009
G1 X89.3750 Y-135.5125
G1 Z0.0000 F2500.0
G4 P0.02
G0 X89.5077 Y-135.4019 F15000.0
G1 Z11.9000 F2500.0
G4 P0.02
G1 X90.4143 Y-135.2914 F3500.0
G1 X91.2767 Y-137.7681
G1 Z0.0000 F2500.0
G4 P0.02
G0 X91.4094 Y-138.1219 F15000.0
G1 Z11.9000 F2500.0
G4 P0.02
G1 X91.4536 Y-138.4094 F3500.0
G1 Z0.0000 F2500.0
G4 P0.02
G0 X91.6306 Y-138.4536 F15000.0
G1 Z11.9000 F2500.0
G4 P0.02
G1 X92.3824 Y-138.3430 F3500.0
G1 X92.6035 Y-138.0555
G1 X91.9844 Y-136.0211
G1 X91.7853 Y-135.7557
G1 Z0.0000 F2500.0
G4 P0.02
G0 X91.4536 Y-135.5125 F15000.0
G1 Z11.9000 F2500.0
G4 P0.02
G1 X90.4585 Y-135.2914 F3500.0
G1 Z0.0000 F2500.0
G4 P0.02
G0 X90.3037 Y-135.2692 F15000.0
G1 Z11.9000 F2500.0
G4 P0.02
G1 X89.8394 Y-133.8982 F3500.0
G1 Z0.0000 F2500.0
G4 P0.02
G0 X89.7509 Y-137.3479 F15000.0
G1 Z11.9000 F2500.0
G4 P0.02
G1 X89.7730 Y-137.4142 F3500.0
G1 Z0.0000 F2500.0
G4 P0.02
G0 X92.3603 Y-136.9720 F15000.0
G1 Z11.9000 F2500.0
G4 P0.02
G1 X92.4045 Y-137.1047 F3500.0
G1 Z0.0000 F2500.0
G4 P0.02
G0 X93.4631 Y-136.9475 F15000.0
G1 Z11.9000 F2500.0
G4 P0.02
G1 X93.0650 Y-135.4659 F3500.0
G1 Z0.0000 F2500.0
G4 P0.02
G0 X93.1756 Y-135.3554 F15000.0
G1 Z11.9000 F2500.0
G4 P0.02
G1 X94.4361 Y-135.4438 F3500.0
G1 X94.7457 Y-135.5544
G1 X95.6523 Y-138.4070
G1 X94.2149 Y-138.3407
G1 X93.9496 Y-138.1195
G1 X93.6400 Y-137.4340
G1 Z0.0000 F2500.0
G4 P0.02
G0 X94.7457 Y-135.5544 F15000.0
G1 Z11.9000 F2500.0
G4 P0.02
G1 X94.8120 Y-135.4438 F3500.0
G1 Z0.0000 F2500.0
G4 P0.02
G0 X97.1392 Y-135.3003 F15000.0
G1 Z11.9000 F2500.0
G4 P0.02
G1 X95.8124 Y-135.4330 F3500.0
G1 X96.1883 Y-136.9588
G1 X96.6527 Y-138.1087
G1 X96.8296 Y-138.2635
G1 X98.3112 Y-138.4183
G1 Z0.0000 F2500.0
G4 P0.02
G0 X99.3565 Y-138.3264 F15000.0
G1 Z11.9000 F2500.0
G4 P0.02
G1 X98.8479 Y-136.7122 F3500.0
G1 X98.2287 Y-135.3190
G1 X98.2730 Y-135.4296
G1 Z0.0000 F2500.0
G4 P0.02
G0 X98.9143 Y-136.8006 F15000.0
G1 Z11.9000 F2500.0
G4 P0.02
G1 X99.5113 Y-136.9996 F3500.0
G1 X100.0420 Y-137.5525
G1 Z0.0000 F2500.0
G4 P0.02
G0 X100.3737 Y-137.7957 F15000.0
G1 Z11.9000 F2500.0
G4 P0.02
G1 X100.7718 Y-138.1053 F3500.0
G1 Z0.0000 F2500.0
G4 P0.02
G0 X101.2141 Y-138.4812 F15000.0
G1 Z11.9000 F2500.0
G4 P0.02
G1 X101.2362 Y-138.5697 F3500.0
G1 Z0.0000 F2500.0
G4 P0.02
G0 X102.0810 Y-138.2948 F15000.0
G1 Z11.9000 F2500.0
G4 P0.02
G1 X102.1031 Y-138.3611 F3500.0
G1 Z0.0000 F2500.0
G4 P0.02
G0 X101.9041 Y-137.8083 F15000.0
G1 Z11.9000 F2500.0
G4 P0.02
G1 X101.1743 Y-135.4864 F3500.0
G1 X102.7001 Y-135.3758
G1 X103.8279 Y-138.3611
G1 Z0.0000 F2500.0
G4 P0.02
G0 X99.5334 Y-136.9996 F15000.0
G1 Z11.9000 F2500.0
G4 P0.02
G1 X99.9315 Y-135.4517 F3500.0
G1 Z0.0000 F2500.0
G4 P0.02
G0 X87.0177 Y-139.6414 F15000.0
G1 Z11.9000 F2500.0
G4 P0.02
G1 X87.2167 Y-139.3318 F3500.0
G1 X85.6245 Y-137.0762
G1 Z0.0000 F2500.0
G4 P0.02
G0 X85.9783 Y-135.3735 F15000.0
G1 Z11.9000 F2500.0
G4 P0.02
G1 X84.0987 Y-135.3735 F3500.0
G1 Z0.0000 F2500.0
G4 P0.02
G0 X84.1650 Y-135.6167 F15000.0
G1 Z11.9000 F2500.0
G4 P0.02
G1 X84.0766 Y-135.3735 F3500.0
G1 X83.8112 Y-135.2850
G1 Z0.0000 F2500.0
G4 P0.02
G0 X85.1823 Y-139.0001 F15000.0
G1 Z11.9000 F2500.0
G4 P0.02
G1 X85.9341 Y-139.6414 F3500.0
G1 X86.8408 Y-139.7298
G1 Z0.0000 F2500.0
G4 P0.02
G0 X76.4485 Y-139.6453 F15000.0
G1 Z11.9000 F2500.0
G4 P0.02
G1 X76.4485 Y-168.6430 F12000.0
G1 Z0.0000 F2500.0
G4 P0.02
G0 X77.6842 Y-168.6430 F15000.0
G1 Z11.9000 F2500.0
G4 P0.02
G1 X68.2929 Y-168.6430 F12000.0
G1 Z0.0000 F2500.0
G4 P0.02
G0 X66.8101 Y-168.6430 F15000.0
G1 Z11.9000 F2500.0
G4 P0.02
G1 X65.3272 Y-168.6430 F3500.0
G1 Z0.0000 F2500.0
G4 P0.02
G0 X66.7277 Y-168.6430 F15000.0
G1 Z11.9000 F2500.0
G4 P0.02
G1 X66.7277 Y-188.0847 F12000.0
G1 X76.4485 Y-188.0847 F12000.0
G1 X76.4485 Y-149.2014 F12000.0
G1 X66.7277 Y-149.2014 F12000.0
G1 X66.7277 Y-154.0618 F3500.0
G1 X42.0137 Y-154.0618 F12000.0
G1 X37.5652 Y-154.0618 F3500.0
G1 X37.5652 Y-149.2014 F3500.0
G1 X27.7620 Y-149.2014 F12000.0
G1 X27.7620 Y-188.0847 F12000.0
G1 X37.5652 Y-188.0847 F12000.0
G1 X37.5652 Y-168.6430 F12000.0
G1 Z0.0000 F2500.0
G4 P0.02
G0 X37.7300 Y-168.6430 F15000.0
G1 Z11.9000 F2500.0
G4 P0.02
G1 X39.2128 Y-168.6430 F3500.0
G1 Z0.0000 F2500.0
G4 P0.02
G0 X40.6957 Y-168.6430 F15000.0
G1 Z11.9000 F2500.0
G4 P0.02
G1 X50.0870 Y-168.6430 F12000.0
G1 Z0.0000 F2500.0
G4 P0.02
G0 X51.5698 Y-168.6430 F15000.0
G1 Z11.9000 F2500.0
G4 P0.02
G1 X52.9703 Y-168.6430 F3500.0
G1 Z0.0000 F2500.0
G4 P0.02
G0 X54.4531 Y-168.6430 F15000.0
G1 Z11.9000 F2500.0
G4 P0.02
G1 X63.8444 Y-168.6430 F12000.0
G1 Z0.0000 F2500.0
G4 P0.02
G0 X71.5881 Y-168.6430 F15000.0
G1 Z11.9000 F2500.0
G4 P0.02
G1 X66.7277 Y-181.4943 F12000.0
G1 X76.4485 Y-181.4943 F12000.0
G1 X71.5881 Y-168.6430 F12000.0
G1 Z0.0000 F2500.0
G4 P0.02
G0 X74.4714 Y-168.6430 F15000.0
G1 Z11.9000 F2500.0
G4 P0.02
G1 X74.4714 Y-139.6453 F12000.0
G1 Z0.0000 F2500.0
G4 P0.02
G0 X74.4714 Y-141.5400 F15000.0
G1 Z11.9000 F2500.0
G4 P0.02
G1 X69.6110 Y-142.1991 F3500.0
G1 X70.1053 Y-141.5400 F3500.0
G1 X69.6110 Y-140.8810 F3500.0
G1 X74.4714 Y-141.5400 F3500.0
G1 X67.7163 Y-141.5400 F3500.0
G1 Z0.0000 F2500.0
G4 P0.02
G0 X66.7277 Y-139.0687 F15000.0
G1 Z11.9000 F2500.0
G4 P0.02
G1 X61.8673 Y-138.4096 F3500.0
G1 X62.3616 Y-139.0687 F3500.0
G1 X61.8673 Y-139.7277 F3500.0
G1 X66.7277 Y-139.0687 F3500.0
G1 X37.5652 Y-139.0687 F12000.0
G1 X42.4256 Y-139.7277 F3500.0
G1 X41.9314 Y-139.0687 F3500.0
G1 X42.4256 Y-138.4096 F3500.0
G1 X37.5652 Y-139.0687 F3500.0
G1 Z0.0000 F2500.0
G4 P0.02
G0 X37.5652 Y-137.1739 F15000.0
G1 Z11.9000 F2500.0
G4 P0.02
G1 X37.5652 Y-149.2014 F12000.0
G1 Z0.0000 F2500.0
G4 P0.02
G0 X37.5652 Y-152.4142 F15000.0
G1 Z11.9000 F2500.0
G4 P0.02
G1 X34.2700 Y-149.2014 F3500.0
G1 Z0.0000 F2500.0
G4 P0.02
G0 X30.1510 Y-149.2014 F15000.0
G1 Z11.9000 F2500.0
G4 P0.02
G1 X41.7666 Y-160.8169 F12000.0
G1 Z0.0000 F2500.0
G4 P0.02
G0 X37.6476 Y-160.8169 F15000.0
G1 Z11.9000 F2500.0
G4 P0.02
G1 X27.7620 Y-151.0137 F12000.0
G1 Z0.0000 F2500.0
G4 P0.02
G0 X27.7620 Y-149.2014 F15000.0
G1 Z11.9000 F2500.0
G4 P0.02
G1 X27.7620 Y-123.8284 F12000.0
G1 Z0.0000 F2500.0
G4 P0.02
G0 X27.7620 Y-125.7231 F15000.0
G1 Z11.9000 F2500.0
G4 P0.02
G1 X32.6224 Y-126.3822 F3500.0
G1 X32.2105 Y-125.7231 F3500.0
G1 X32.6224 Y-125.0641 F3500.0
G1 X27.7620 Y-125.7231 F3500.0
G1 X76.4485 Y-125.7231 F12000.0
G1 X71.5881 Y-125.0641 F3500.0
G1 X72.0824 Y-125.7231 F3500.0
G1 X71.5881 Y-126.3822 F3500.0
G1 X76.4485 Y-125.7231 F3500.0
G1 Z0.0000 F2500.0
G4 P0.02
G0 X76.4485 Y-123.8284 F15000.0
G1 Z11.9000 F2500.0
G4 P0.02
G1 X76.4485 Y-149.2014 F12000.0
G1 Z0.0000 F2500.0
G4 P0.02
G0 X75.5423 Y-149.2014 F15000.0
G1 Z11.9000 F2500.0
G4 P0.02
G1 X76.4485 Y-150.1076 F3500.0
G1 Z0.0000 F2500.0
G4 P0.02
G0 X76.4485 Y-154.2265 F15000.0
G1 Z11.9000 F2500.0
G4 P0.02
G1 X71.4233 Y-149.2014 F3500.0
G1 Z0.0000 F2500.0
G4 P0.02
G0 X67.3044 Y-149.2014 F15000.0
G1 Z11.9000 F2500.0
G4 P0.02
G1 X76.4485 Y-158.3455 F12000.0
G1 Z0.0000 F2500.0
G4 P0.02
G0 X76.4485 Y-158.9222 F15000.0
G1 Z11.9000 F2500.0
G4 P0.02
G1 X27.7620 Y-158.9222 F12000.0
G1 X29.7391 Y-160.8169 F3500.0
G1 X29.7391 Y-168.6430 F3500.0
G1 Z0.0000 F2500.0
G4 P0.02
G0 X26.8559 Y-168.6430 F15000.0
G1 Z11.9000 F2500.0
G4 P0.02
G1 X36.2472 Y-168.6430 F12000.0
G1 Z0.0000 F2500.0
G4 P0.02
G0 X32.6224 Y-168.6430 F15000.0
G1 Z11.9000 F2500.0
G4 P0.02
G1 X27.7620 Y-181.4943 F12000.0
G1 X37.5652 Y-181.4943 F12000.0
G1 X32.6224 Y-168.6430 F12000.0
G1 Z0.0000 F2500.0
G4 P0.02
G0 X33.5286 Y-160.8169 F15000.0
G1 Z11.9000 F2500.0
G4 P0.02
G1 X27.7620 Y-155.1327 F3500.0
G1 Z0.0000 F2500.0
G4 P0.02
G0 X29.7391 Y-160.8169 F15000.0
G1 Z11.9000 F2500.0
G4 P0.02
G1 X74.4714 Y-160.8169 F12000.0
G1 X76.4485 Y-158.9222 F3500.0
G1 X91.1945 Y-158.9222 F12000.0
G1 Z0.0000 F2500.0
G4 P0.02
G0 X89.2998 Y-158.9222 F15000.0
G1 Z11.9000 F2500.0
G4 P0.02
G1 X88.6407 Y-163.7826 F3500.0
G1 X89.2998 Y-163.2883 F3500.0
G1 X89.9588 Y-163.7826 F3500.0
G1 X89.2998 Y-158.9222 F3500.0
G1 X89.2998 Y-181.4943 F12000.0
G1 Z0.0000 F2500.0
G4 P0.02
G0 X86.6170 Y-176.6968 F15000.0
G1 Z11.9000 F2500.0
G4 P0.02
G1 X85.8873 Y-176.9622 F3500.0
G1 Z0.0000 F2500.0
G4 P0.02
G0 X85.5335 Y-177.0949 F15000.0
G1 Z11.9000 F2500.0
G4 P0.02
G1 X84.2067 Y-177.4929 F3500.0
G1 X84.1182 Y-177.6035
G1 X82.1722 Y-178.3553
G1 Z0.0000 F2500.0
G4 P0.02
G0 X82.1280 Y-176.2767 F15000.0
G1 Z11.9000 F2500.0
G4 P0.02
G1 X84.1625 Y-175.5911 F3500.0
G1 X84.3173 Y-175.4806
G1 Z0.0000 F2500.0
G4 P0.02
G0 X84.2067 Y-175.6354 F15000.0
G1 Z11.9000 F2500.0
G4 P0.02
G1 X84.2067 Y-177.4708 F3500.0
G1 Z0.0000 F2500.0
G4 P0.02
G0 X84.6711 Y-175.3479 F15000.0
G1 Z11.9000 F2500.0
G4 P0.02
G1 X86.0863 Y-174.8172 F3500.0
G1 Z0.0000 F2500.0
G4 P0.02
G0 X86.4401 Y-174.6845 F15000.0
G1 Z11.9000 F2500.0
G4 P0.02
G1 X86.5065 Y-174.6624 F3500.0
G1 Z0.0000 F2500.0
G4 P0.02
G0 X86.5949 Y-173.5338 F15000.0
G1 Z11.9000 F2500.0
G4 P0.02
G1 X86.3296 Y-172.2954 F3500.0
G1 Z0.0000 F2500.0
G4 P0.02
G0 X86.2190 Y-172.3397 F15000.0
G1 Z11.9000 F2500.0
G4 P0.02
G1 X82.2386 Y-173.7992 F3500.0
G1 Z0.0000 F2500.0
G4 P0.02
G0 X82.3721 Y-172.4398 F15000.0
G1 Z11.9000 F2500.0
G4 P0.02
G1 X83.4556 Y-172.3071 F3500.0
G1 Z0.0000 F2500.0
G4 P0.02
G0 X83.8758 Y-172.1523 F15000.0
G1 Z11.9000 F2500.0
G4 P0.02
G1 X86.1092 Y-171.2899 F3500.0
G1 Z0.0000 F2500.0
G4 P0.02
G0 X86.3746 Y-171.0024 F15000.0
G1 Z11.9000 F2500.0
G4 P0.02
G1 X86.5957 Y-170.5381 F3500.0
G1 X86.5736 Y-169.6314
G1 Z0.0000 F2500.0
G4 P0.02
G0 X86.3083 Y-169.3882 F15000.0
G1 Z11.9000 F2500.0
G4 P0.02
G1 X85.5343 Y-169.4766 F3500.0
G1 X85.0478 Y-169.6535
G1 Z0.0000 F2500.0
G4 P0.02
G0 X84.6940 Y-169.7862 F15000.0
G1 Z11.9000 F2500.0
G4 P0.02
G1 X82.5932 Y-170.6486 F3500.0
G1 X82.2615 Y-171.0688
G1 X82.1509 Y-172.1081
G1 X82.1952 Y-172.2408
G1 Z0.0000 F2500.0
G4 P0.02
G0 X82.9691 Y-167.3039 F15000.0
G1 Z11.9000 F2500.0
G4 P0.02
G1 X82.7922 Y-167.4145 F3500.0
G1 X82.2615 Y-168.1884
G1 X82.2394 Y-169.0287
G1 X82.5711 Y-169.3383
G1 X83.0576 Y-169.3383
G1 X85.0036 Y-167.6135
G1 Z0.0000 F2500.0
G4 P0.02
G0 X86.6621 Y-167.9452 F15000.0
G1 Z11.9000 F2500.0
G4 P0.02
G1 X86.5957 Y-166.2646 F3500.0
G1 Z0.0000 F2500.0
G4 P0.02
G0 X86.6400 Y-166.0213 F15000.0
G1 Z11.9000 F2500.0
G4 P0.02
G1 X86.5515 Y-166.2203 F3500.0
G1 X86.3304 Y-166.3088
G1 Z0.0000 F2500.0
G4 P0.02
G0 X86.5355 Y-164.9274 F15000.0
G1 Z11.9000 F2500.0
G4 P0.02
G1 X82.9310 Y-166.2321 F3500.0
G1 X82.6214 Y-166.2321
G1 X84.0366 Y-164.6399
G1 X84.1914 Y-164.3082
G1 Z0.0000 F2500.0
G4 P0.02
G0 X84.3905 Y-164.2419 F15000.0
G1 Z11.9000 F2500.0
G4 P0.02
G1 X84.1914 Y-164.2861 F3500.0
G1 X82.5550 Y-163.8217
G1 X82.0685 Y-163.8217
G1 Z0.0000 F2500.0
G4 P0.02
G0 X82.5772 Y-163.8217 F15000.0
G1 Z11.9000 F2500.0
G4 P0.02
G1 X86.6681 Y-162.1190 F3500.0
G1 Z0.0000 F2500.0
G4 P0.02
G0 X89.0114 Y-162.1198 F15000.0
G1 Z11.9000 F2500.0
G4 P0.02
G1 X89.0114 Y-161.2441 F3500.0
G1 Z0.0000 F2500.0
G4 P0.02
G0 X89.6293 Y-160.9557 F15000.0
G1 Z11.9000 F2500.0
G4 P0.02
G1 X89.6293 Y-161.8314 F3500.0
G1 Z0.0000 F2500.0
G4 P0.02
G0 X82.3339 Y-166.4090 F15000.0
G1 Z11.9000 F2500.0
G4 P0.02
G1 X82.0685 Y-166.5859 F3500.0
G1 Z0.0000 F2500.0
G4 P0.02
G0 X74.6362 Y-160.6522 F15000.0
G1 Z11.9000 F2500.0
G4 P0.02
G1 X66.7277 Y-152.7437 F3500.0
G1 Z0.0000 F2500.0
G4 P0.02
G0 X63.9268 Y-154.0618 F15000.0
G1 Z11.9000 F2500.0
G4 P0.02
G1 X70.6819 Y-160.8169 F3500.0
G1 Z0.0000 F2500.0
G4 P0.02
G0 X66.5629 Y-160.8169 F15000.0
G1 Z11.9000 F2500.0
G4 P0.02
G1 X59.7254 Y-154.0618 F3500.0
G1 Z0.0000 F2500.0
G4 P0.02
G0 X55.6064 Y-154.0618 F15000.0
G1 Z11.9000 F2500.0
G4 P0.02
G1 X62.4439 Y-160.8169 F3500.0
G1 Z0.0000 F2500.0
G4 P0.02
G0 X58.3250 Y-160.8169 F15000.0
G1 Z11.9000 F2500.0
G4 P0.02
G1 X51.4874 Y-154.0618 F3500.0
G1 Z0.0000 F2500.0
G4 P0.02
G0 X52.1465 Y-153.7323 F15000.0
G1 Z11.9000 F2500.0
G4 P0.02
G1 X52.1465 Y-160.8993 F3500.0
G1 Z0.0000 F2500.0
G4 P0.02
G0 X52.1465 Y-162.3821 F15000.0
G1 Z11.9000 F2500.0
G4 P0.02
G1 X52.1465 Y-163.7826 F3500.0
G1 Z0.0000 F2500.0
G4 P0.02
G0 X52.1465 Y-165.2654 F15000.0
G1 Z11.9000 F2500.0
G4 P0.02
G1 X52.1465 Y-172.4325 F3500.0
G1 Z0.0000 F2500.0
G4 P0.02
G0 X52.1465 Y-173.8329 F15000.0
G1 Z11.9000 F2500.0
G4 P0.02
G1 X52.1465 Y-175.3158 F3500.0
G1 Z0.0000 F2500.0
G4 P0.02
G0 X52.1465 Y-176.7986 F15000.0
G1 Z11.9000 F2500.0
G4 P0.02
G1 X52.1465 Y-183.8833 F3500.0
G1 Z0.0000 F2500.0
G4 P0.02
G0 X46.9565 Y-183.2242 F15000.0
G1 Z11.9000 F2500.0
G4 P0.02
G1 X46.9565 Y-188.0847 F3500.0
G1 X46.9565 Y-202.9130 F12000.0
G1 Z0.0000 F2500.0
G4 P0.02
G0 X43.7727 Y-198.7681 F15000.0
G1 Z11.9000 F2500.0
G4 P0.02
G1 X41.5393 Y-199.6305 F3500.0
G1 Z0.0000 F2500.0
G4 P0.02
G0 X41.1191 Y-199.7853 F15000.0
G1 Z11.9000 F2500.0
G4 P0.02
G1 X40.0355 Y-199.9180 F3500.0
G1 Z0.0000 F2500.0
G4 P0.02
G0 X39.8586 Y-199.7189 F15000.0
G1 Z11.9000 F2500.0
G4 P0.02
G1 X39.8144 Y-199.5863 F3500.0
G1 X39.9250 Y-198.5469
G1 X40.2567 Y-198.1268
G1 X42.3574 Y-197.2644
G1 Z0.0000 F2500.0
G4 P0.02
G0 X42.7113 Y-197.1317 F15000.0
G1 Z11.9000 F2500.0
G4 P0.02
G1 X43.1978 Y-196.9548 F3500.0
G1 X43.9717 Y-196.8663
G1 Z0.0000 F2500.0
G4 P0.02
G0 X44.2371 Y-197.1096 F15000.0
G1 Z11.9000 F2500.0
G4 P0.02
G1 X44.2592 Y-198.0162 F3500.0
G1 X44.0381 Y-198.4806
G1 Z0.0000 F2500.0
G4 P0.02
G0 X43.6621 Y-195.7606 F15000.0
G1 Z11.9000 F2500.0
G4 P0.02
G1 X42.6891 Y-196.1366 F3500.0
G1 X42.2690 Y-196.1587
G1 X41.9373 Y-195.9376
G1 Z0.0000 F2500.0
G4 P0.02
G0 X41.5171 Y-196.2029 F15000.0
G1 Z11.9000 F2500.0
G4 P0.02
G1 X41.8488 Y-195.9154 F3500.0
G1 X42.0036 Y-195.2741
G1 Z0.0000 F2500.0
G4 P0.02
G0 X41.3181 Y-196.4240 F15000.0
G1 Z11.9000 F2500.0
G4 P0.02
G1 X40.8758 Y-196.5788 F3500.0
G1 Z0.0000 F2500.0
G4 P0.02
G0 X40.5884 Y-196.6894 F15000.0
G1 Z11.9000 F2500.0
G4 P0.02
G1 X40.2124 Y-196.7557 F3500.0
G1 Z0.0000 F2500.0
G4 P0.02
G0 X40.0355 Y-196.6894 F15000.0
G1 Z11.9000 F2500.0
G4 P0.02
G1 X39.9250 Y-195.3405 F3500.0
G1 Z0.0000 F2500.0
G4 P0.02
G0 X40.1461 Y-193.8589 F15000.0
G1 Z11.9000 F2500.0
G4 P0.02
G1 X40.2788 Y-193.7704 F3500.0
G1 Z0.0000 F2500.0
G4 P0.02
G0 X40.9422 Y-193.3282 F15000.0
G1 Z11.9000 F2500.0
G4 P0.02
G1 X41.1633 Y-193.2176 F3500.0
G1 X41.2297 Y-192.3331
G1 Z0.0000 F2500.0
G4 P0.02
G0 X41.4287 Y-191.9571 F15000.0
G1 Z11.9000 F2500.0
G4 P0.02
G1 X41.6056 Y-191.7802 F3500.0
G1 Z0.0000 F2500.0
G4 P0.02
G0 X41.8046 Y-191.5812 F15000.0
G1 Z11.9000 F2500.0
G4 P0.02
G1 X41.8488 Y-191.5370 F3500.0
G1 Z0.0000 F2500.0
G4 P0.02
G0 X42.1142 Y-191.4043 F15000.0
G1 Z11.9000 F2500.0
G4 P0.02
G1 X42.5122 Y-191.2937 F3500.0
G1 X42.9766 Y-191.3380
G1 X43.1756 Y-191.5149
G1 X43.0651 Y-191.4043
G1 Z0.0000 F2500.0
G4 P0.02
G0 X43.3083 Y-191.6697 F15000.0
G1 Z11.9000 F2500.0
G4 P0.02
G1 X44.2592 Y-191.0505 F3500.0
G1 Z0.0000 F2500.0
G4 P0.02
G0 X44.4361 Y-193.6820 F15000.0
G1 Z11.9000 F2500.0
G4 P0.02
G1 X43.9275 Y-195.5174 F3500.0
G1 Z0.0000 F2500.0
G4 P0.02
G0 X41.9815 Y-192.6205 F15000.0
G1 Z11.9000 F2500.0
G4 P0.02
G1 X43.3304 Y-191.8023 F3500.0
G1 X43.1535 Y-192.7753
G1 X42.6228 Y-193.3724
G1 X42.3796 Y-193.5051
G1 X41.4729 Y-193.5272
G1 X41.2297 Y-193.2618
G1 Z0.0000 F2500.0
G4 P0.02
G0 X41.2076 Y-193.0849 F15000.0
G1 Z11.9000 F2500.0
G4 P0.02
G1 X41.6719 Y-192.8196 F3500.0
G1 Z0.0000 F2500.0
G4 P0.02
G0 X42.0137 Y-183.2242 F15000.0
G1 Z11.9000 F2500.0
G4 P0.02
G1 X66.7277 Y-183.2242 F12000.0
G1 Z0.0000 F2500.0
G4 P0.02
G0 X47.2861 Y-181.2731 F15000.0
G1 Z11.9000 F2500.0
G4 P0.02
G1 X47.2861 Y-180.3974 F3500.0
G1 Z0.0000 F2500.0
G4 P0.02
G0 X46.6682 Y-180.1091 F15000.0
G1 Z11.9000 F2500.0
G4 P0.02
G1 X46.6682 Y-180.9847 F3500.0
G1 Z0.0000 F2500.0
G4 P0.02
G0 X46.9565 Y-178.8581 F15000.0
G1 Z11.9000 F2500.0
G4 P0.02
G1 X47.6156 Y-178.3638 F3500.0
G1 X46.9565 Y-183.2242 F3500.0
G1 X46.2975 Y-178.3638 F3500.0
G1 X46.9565 Y-178.8581 F3500.0
G1 Z0.0000 F2500.0
G4 P0.02
G0 X46.9565 Y-183.2242 F15000.0
G1 Z11.9000 F2500.0
G4 P0.02
G1 X46.9565 Y-154.0618 F12000.0
G1 X46.2975 Y-158.9222 F3500.0
G1 X46.9565 Y-158.4279 F3500.0
G1 X47.6156 Y-158.9222 F3500.0
G1 X46.9565 Y-154.0618 F3500.0
G1 Z0.0000 F2500.0
G4 P0.02
G0 X47.3684 Y-154.0618 F15000.0
G1 Z11.9000 F2500.0
G4 P0.02
G1 X54.2060 Y-160.8169 F3500.0
G1 Z0.0000 F2500.0
G4 P0.02
G0 X50.0870 Y-160.8169 F15000.0
G1 Z11.9000 F2500.0
G4 P0.02
G1 X43.2494 Y-154.0618 F3500.0
G1 Z0.0000 F2500.0
G4 P0.02
G0 X39.1304 Y-154.0618 F15000.0
G1 Z11.9000 F2500.0
G4 P0.02
G1 X45.9680 Y-160.8169 F3500.0
G1 Z0.0000 F2500.0
G4 P0.02
G0 X46.6682 Y-157.2594 F15000.0
G1 Z11.9000 F2500.0
G4 P0.02
G1 X46.6682 Y-156.3837 F3500.0
G1 Z0.0000 F2500.0
G4 P0.02
G0 X47.2861 Y-156.0953 F15000.0
G1 Z11.9000 F2500.0
G4 P0.02
G1 X47.2861 Y-156.9710 F3500.0
G1 Z0.0000 F2500.0
G4 P0.02
G0 X50.6093 Y-146.2191 F15000.0
G1 Z11.9000 F2500.0
G4 P0.02
G1 X51.5823 Y-146.1749 F3500.0
G1 X51.7592 Y-146.0201
G1 Z0.0000 F2500.0
G4 P0.02
G0 X51.8477 Y-145.8210 F15000.0
G1 Z11.9000 F2500.0
G4 P0.02
G1 X51.6265 Y-145.0471 F3500.0
G1 X51.6708 Y-145.1576
G1 Z0.0000 F2500.0
G4 P0.02
G0 X51.4939 Y-144.7154 F15000.0
G1 Z11.9000 F2500.0
G4 P0.02
G1 X51.0958 Y-144.3616 F3500.0
G1 X51.0074 Y-144.1404
G1 X51.2064 Y-143.8087
G1 X51.2064 Y-143.3443
G1 X50.8083 Y-142.3271
G1 X50.3440 Y-141.9070
G1 X49.0172 Y-141.7301
G1 Z0.0000 F2500.0
G4 P0.02
G0 X50.4324 Y-141.9512 F15000.0
G1 Z11.9000 F2500.0
G4 P0.02
G1 X50.4766 Y-141.9954 F3500.0
G1 Z0.0000 F2500.0
G4 P0.02
G0 X52.0025 Y-141.9733 F15000.0
G1 Z11.9000 F2500.0
G4 P0.02
G1 X51.9804 Y-142.7252 F3500.0
G1 X53.1303 Y-145.6884
G1 X53.5946 Y-146.0864
G1 X54.6782 Y-146.2191
G1 X54.8109 Y-146.1749
G1 Z0.0000 F2500.0
G4 P0.02
G0 X55.0099 Y-145.9980 F15000.0
G1 Z11.9000 F2500.0
G4 P0.02
G1 X54.3686 Y-143.5212 F3500.0
G1 Z0.0000 F2500.0
G4 P0.02
G0 X54.1475 Y-142.9021 F15000.0
G1 Z11.9000 F2500.0
G4 P0.02
G1 X53.8379 Y-142.2387 F3500.0
G1 X53.5283 Y-141.9733
G1 X53.0639 Y-141.7522
G1 X52.0909 Y-141.8849
G1 Z0.0000 F2500.0
G4 P0.02
G0 X53.1081 Y-141.7743 F15000.0
G1 Z11.9000 F2500.0
G4 P0.02
G1 X53.2408 Y-141.8406 F3500.0
G1 Z0.0000 F2500.0
G4 P0.02
G0 X50.9852 Y-144.1625 F15000.0
G1 Z11.9000 F2500.0
G4 P0.02
G1 X50.4103 Y-144.0741 F3500.0
G1 Z0.0000 F2500.0
G4 P0.02
G0 X52.9533 Y-145.3124 F15000.0
G1 Z11.9000 F2500.0
G4 P0.02
G1 X52.9976 Y-145.4230 F3500.0
G1 Z0.0000 F2500.0
G4 P0.02
G0 X63.6125 Y-139.3982 F15000.0
G1 Z11.9000 F2500.0
G4 P0.02
G1 X64.4882 Y-139.3982 F3500.0
G1 Z0.0000 F2500.0
G4 P0.02
G0 X64.7765 Y-138.7803 F15000.0
G1 Z11.9000 F2500.0
G4 P0.02
G1 X63.9008 Y-138.7803 F3500.0
G1 Z0.0000 F2500.0
G4 P0.02
G0 X66.7277 Y-137.1739 F15000.0
G1 Z11.9000 F2500.0
G4 P0.02
G1 X66.7277 Y-149.2014 F12000.0
G1 Z0.0000 F2500.0
G4 P0.02
G0 X71.3562 Y-141.8696 F15000.0
G1 Z11.9000 F2500.0
G4 P0.02
G1 X72.2319 Y-141.8696 F3500.0
G1 Z0.0000 F2500.0
G4 P0.02
G0 X72.5202 Y-141.2517 F15000.0
G1 Z11.9000 F2500.0
G4 P0.02
G1 X71.6445 Y-141.2517 F3500.0
G1 Z0.0000 F2500.0
G4 P0.02
G0 X74.4714 Y-141.5400 F15000.0
G1 Z11.9000 F2500.0
G4 P0.02
G1 X76.4485 Y-141.5400 F3500.0
G1 Z0.0000 F2500.0
G4 P0.02
G0 X74.2090 Y-126.0526 F15000.0
G1 Z11.9000 F2500.0
G4 P0.02
G1 X73.3333 Y-126.0526 F3500.0
G1 Z0.0000 F2500.0
G4 P0.02
G0 X73.6217 Y-125.4348 F15000.0
G1 Z11.9000 F2500.0
G4 P0.02
G1 X74.4973 Y-125.4348 F3500.0
G1 Z0.0000 F2500.0
G4 P0.02
G0 X54.3686 Y-130.1734 F15000.0
G1 Z11.9000 F2500.0
G4 P0.02
G1 X55.0099 Y-132.6501 F3500.0
G1 Z0.0000 F2500.0
G4 P0.02
G0 X54.8109 Y-132.8270 F15000.0
G1 Z11.9000 F2500.0
G4 P0.02
G1 X54.6782 Y-132.8713 F3500.0
G1 X53.5946 Y-132.7386
G1 X53.1303 Y-132.3405
G1 X51.9804 Y-129.3773
G1 X52.0025 Y-128.6255
G1 Z0.0000 F2500.0
G4 P0.02
G0 X52.0909 Y-128.5370 F15000.0
G1 Z11.9000 F2500.0
G4 P0.02
G1 X53.0639 Y-128.4044 F3500.0
G1 X53.5283 Y-128.6255
G1 X53.8379 Y-128.8908
G1 X54.1475 Y-129.5543
G1 Z0.0000 F2500.0
G4 P0.02
G0 X53.2408 Y-128.4928 F15000.0
G1 Z11.9000 F2500.0
G4 P0.02
G1 X53.1081 Y-128.4265 F3500.0
G1 Z0.0000 F2500.0
G4 P0.02
G0 X50.9189 Y-129.2004 F15000.0
G1 Z11.9000 F2500.0
G4 P0.02
G1 X50.9410 Y-129.2668 F3500.0
G1 Z0.0000 F2500.0
G4 P0.02
G0 X51.2506 Y-130.3946 F15000.0
G1 Z11.9000 F2500.0
G4 P0.02
G1 X51.1843 Y-129.9523 F3500.0
G1 X50.8968 Y-129.1562
G1 X50.3440 Y-128.5591
G1 X49.0172 Y-128.3822
G1 Z0.0000 F2500.0
G4 P0.02
G0 X51.1622 Y-130.5936 F15000.0
G1 Z11.9000 F2500.0
G4 P0.02
G1 X50.8747 Y-130.7705 F3500.0
G1 X49.9238 Y-130.8589
G1 X50.1228 Y-131.6108
G1 Z0.0000 F2500.0
G4 P0.02
G0 X50.2997 Y-132.0973 F15000.0
G1 Z11.9000 F2500.0
G4 P0.02
G1 X50.5430 Y-132.7828 F3500.0
G1 Z0.0000 F2500.0
G4 P0.02
G0 X50.6314 Y-132.8713 F15000.0
G1 Z11.9000 F2500.0
G4 P0.02
G1 X52.2236 Y-132.8934 F3500.0
G1 Z0.0000 F2500.0
G4 P0.02
G0 X52.9976 Y-132.0752 F15000.0
G1 Z11.9000 F2500.0
G4 P0.02
G1 X52.9533 Y-131.9646 F3500.0
G1 Z0.0000 F2500.0
G4 P0.02
G0 X40.4333 Y-138.7803 F15000.0
G1 Z11.9000 F2500.0
G4 P0.02
G1 X39.5576 Y-138.7803 F3500.0
G1 Z0.0000 F2500.0
G4 P0.02
G0 X39.8871 Y-139.3982 F15000.0
G1 Z11.9000 F2500.0
G4 P0.02
G1 X40.7628 Y-139.3982 F3500.0
G1 Z0.0000 F2500.0
G4 P0.02
G0 X30.9596 Y-126.0526 F15000.0
G1 Z11.9000 F2500.0
G4 P0.02
G1 X30.0839 Y-126.0526 F3500.0
G1 Z0.0000 F2500.0
G4 P0.02
G0 X29.7544 Y-125.4348 F15000.0
G1 Z11.9000 F2500.0
G4 P0.02
G1 X30.6301 Y-125.4348 F3500.0
G1 Z0.0000 F2500.0
G4 P0.02
G0 X37.5652 Y-183.2242 F15000.0
G1 Z11.9000 F2500.0
G4 P0.02
G1 X42.0137 Y-183.2242 F3500.0
G1 Z0.0000 F2500.0
G4 P0.02
G0 X41.8880 Y-274.5991 F15000.0
G1 Z11.9000 F2500.0
G4 P0.02
G1 X44.3205 Y-274.7539 F3500.0
G1 X46.3770 Y-280.2159
G1 Z0.0000 F2500.0
G4 P0.02
G0 X46.2443 Y-279.8621 F15000.0
G1 Z11.9000 F2500.0
G4 P0.02
G1 X46.6866 Y-281.0783 F3500.0
G1 X48.0883 Y-281.0783 F3500.0
G1 X46.8721 Y-277.5844
G1 X46.7836 Y-277.5181
G1 X45.5895 Y-274.5991
G1 X48.5969 Y-274.6654
G1 X48.8180 Y-275.1298
G1 Z0.0000 F2500.0
G4 P0.02
G0 X48.5969 Y-274.6654 F15000.0
G1 Z11.9000 F2500.0
G4 P0.02
G1 X50.0159 Y-274.6578 F12000.0
G1 X52.5368 Y-276.9133
G1 X52.7579 Y-277.3335
G1 X54.0626 Y-278.0411
G1 X54.2838 Y-278.3507
G1 X54.5712 Y-279.0362
G1 X52.7579 Y-277.3335
G1 X52.4041 Y-280.8716
G1 X51.0073 Y-281.0783
G1 X48.8180 Y-275.1298
G1 X49.5920 Y-277.6065
G1 X46.8861 Y-277.6247
G1 Z0.0000 F2500.0
G4 P0.02
G0 X43.0154 Y-280.9860 F15000.0
G1 Z11.9000 F2500.0
G4 P0.02
G1 X42.8385 Y-280.8091 F12000.0
G1 X39.5269 Y-280.9674
G1 X39.3058 Y-280.9011
G1 X38.5097 Y-280.3040
G1 X36.8070 Y-275.9698
G1 X36.7627 Y-275.2179
G1 X36.8291 Y-276.0804
G1 X36.8512 Y-275.0189
G1 X38.6424 Y-274.8199
G1 X39.4606 Y-275.4170
G1 X41.0527 Y-279.5079
G1 X41.1854 Y-280.4146
G1 X40.9422 Y-280.8347
G1 X41.0970 Y-279.6185
G1 Z0.0000 F2500.0
G4 P0.02
G0 X38.5097 Y-280.3040 F15000.0
G1 Z11.9000 F2500.0
G4 P0.02
G1 X37.3076 Y-281.1001 F3500.0
G1 X35.4500 Y-280.8790
G1 X35.0520 Y-280.6799
G1 X34.6097 Y-280.1935
G1 X34.0569 Y-278.8003
G1 X34.1011 Y-277.9379
G1 X35.0299 Y-277.6504
G1 X34.3665 Y-277.6283
G1 X34.3001 Y-277.7389
G1 X34.1011 Y-277.2524
G1 X34.2338 Y-277.3629
G1 X34.9635 Y-274.7314
G1 X33.5704 Y-274.7757
G1 X33.2829 Y-275.0189
G1 X33.1723 Y-275.2843
G1 X33.2166 Y-275.7265
G1 X33.6367 Y-276.8101
G1 X33.8579 Y-277.0533
G1 Z0.0000 F2500.0
G4 P0.02
G0 X34.6097 Y-280.1935 F15000.0
G1 Z11.9000 F2500.0
G4 P0.02
G1 X33.4678 Y-280.8091 F3500.0
G1 X33.6447 Y-280.9860
G1 X34.6097 Y-280.1935
G1 Z0.0000 F2500.0
G4 P0.02
G0 X33.4678 Y-280.8091 F15000.0
G1 Z11.9000 F2500.0
G4 P0.02
G1 X31.9153 Y-280.9674 F12000.0
G1 X31.7827 Y-280.6136
G1 X31.0750 Y-279.9060
G1 X32.1586 Y-281.0780
G1 X31.9153 Y-280.9895
G1 X29.3281 Y-280.9674
G1 X29.8146 Y-278.6455
G1 X28.7752 Y-277.6062
G1 X30.0799 Y-275.5054
G1 X28.9964 Y-274.7978
G1 X27.7580 Y-274.9526
G1 X27.5811 Y-275.1074
G1 X27.4705 Y-275.3506
G1 X27.4705 Y-275.9919
G1 X27.6917 Y-276.4784
G1 X28.5099 Y-277.3408
G1 X26.4976 Y-277.6062
G1 X24.5516 Y-277.6725
G1 X24.1314 Y-278.1369
G1 Z0.0000 F2500.0
G4 P0.02
G0 X23.6007 Y-274.6430 F15000.0
G1 Z11.9000 F2500.0
G4 P0.02
G1 X25.4582 Y-275.8592 F12000.0
G1 X26.3870 Y-277.0533
G1 X26.5197 Y-277.5841
G1 X26.6745 Y-277.6725
G1 X27.4263 Y-279.7733
G1 X27.4927 Y-280.4146
G1 X27.3158 Y-280.7684
G1 X27.1388 Y-280.9232
G1 X25.8342 Y-280.9674
G1 X25.2371 Y-280.7242
G1 X24.7948 Y-280.2819
G1 X24.4189 Y-279.5079
G1 X24.1314 Y-278.1369
G1 X23.7334 Y-280.9895
G1 X20.1477 Y-280.9453
G1 X19.4179 Y-280.5030
G1 X18.9314 Y-279.8175
G1 X17.5604 Y-276.0804
G1 X17.5825 Y-275.0189
G1 X17.7815 Y-274.8199
G1 X19.1084 Y-274.7314
G1 X19.7496 Y-275.0189
G1 X20.2361 Y-275.5054
G1 X21.8725 Y-279.8839 F12000.0
G1 X21.8283 Y-280.6578
G1 X19.7718 Y-280.7684
G1 X19.6612 Y-280.7021
G1 X17.6931 Y-280.9674
G1 X17.5604 Y-280.6136
G1 X15.0837 Y-280.9674
G1 X16.3884 Y-281.0559
G1 X17.6931 Y-280.9895
G1 X17.9363 Y-281.0780
G1 X14.2876 Y-277.3408
G1 X15.3048 Y-275.0410
G1 X14.8405 Y-274.8199
G1 X13.7127 Y-274.8199
G1 X13.3146 Y-275.1516
G1 X13.2483 Y-276.0140
G1 X13.5137 Y-276.5669
G1 Z0.0000 F2500.0
G4 P0.02
G0 X15.1788 Y-275.3259 F15000.0
G1 Z11.9000 F2500.0
G4 P0.02
G1 X16.0346 Y-275.7044 F3500.0
G1 X15.6144 Y-275.2843
G1 X15.2655 Y-275.1299
G1 Z0.0000 F2500.0
G4 P0.02
G0 X0.0000 Y-271.0412 F15000.0
G1 Z11.9000 F2500.0
G4 P0.02
G1 X68.1282 Y-271.0412 F12000.0
G1 X68.1282 Y-284.6338 F12000.0
G1 Z0.0000 F2500.0
G4 P0.02
G0 X55.3452 Y-281.0707 F15000.0
G1 Z11.9000 F2500.0
G4 P0.02
G1 X54.5712 Y-279.0362 F3500.0
G1 Z0.0000 F2500.0
G4 P0.02
G0 X54.0701 Y-278.0516 F15000.0
G1 Z11.9000 F2500.0
G4 P0.02
G1 X53.9963 Y-277.4883 F3500.0
G1 X52.8906 Y-274.6356
G1 Z0.0000 F2500.0
G4 P0.02
G0 X138.6453 Y-191.2151 F15000.0
G1 Z11.9000 F2500.0
G4 P0.02
G1 X138.6453 Y-183.0595 F3500.0
G1 Z0.0000 F2500.0
G4 P0.02
G0 X138.6453 Y-181.5767 F15000.0
G1 Z11.9000 F2500.0
G4 P0.02
G1 X138.6453 Y-180.0938 F3500.0
G1 Z0.0000 F2500.0
G4 P0.02
G0 X149.8642 Y-134.7025 F15000.0
G1 Z11.9000 F2500.0
G4 P0.02
G1 X150.7399 Y-134.7025 F3500.0
G1 Z0.0000 F2500.0
G4 P0.02
G0 X151.0282 Y-134.1259 F15000.0
G1 Z11.9000 F2500.0
G4 P0.02
G1 X150.1525 Y-134.1259 F3500.0
G1 Z0.0000 F2500.0
G4 P0.02
G0 X180.0000 Y-58.9131 F15000.0
G1 Z11.9000 F2500.0
G4 P0.02
G1 X0.0000 Y-58.9131 F12000.0
G1 Z0.0000 F2500.0
G4 P0.02
G0 X1.0650 Y-6.2380 F15000.0
G1 Z11.9000 F2500.0
G4 P0.02
G1 X2.4139 Y-6.5697 F3500.0
G1 X3.5859 Y-9.3117
G1 X2.1706 Y-9.4002
G1 X1.6399 Y-8.0071
G1 X1.7726 Y-8.4272
G1 X1.7947 Y-7.7638
G1 X2.7898 Y-7.6754
G1 X2.9004 Y-7.7417
G1 X1.9937 Y-8.9579
G1 X2.9567 Y-11.0798
G1 Z0.0000 F2500.0
G4 P0.02
G0 X0.8278 Y-10.9783 F15000.0
G1 Z11.9000 F2500.0
G4 P0.02
G1 X1.6239 Y-12.7474 F12000.0
G1 X2.8623 Y-12.7916
G1 X2.2873 Y-10.9783
G1 X1.6681 Y-13.0128
G1 X2.1767 Y-14.2732
G1 X3.5920 Y-14.1848
G1 X2.9728 Y-12.8801
G1 X4.6172 Y-13.3061
G1 X3.6221 Y-10.9842
G1 X4.2413 Y-12.1562
G1 X4.5730 Y-12.2447
G1 X5.6566 Y-13.1292
G1 X4.5951 Y-12.2226
G1 X4.8384 Y-11.1611
G1 X6.7384 Y-11.1958
G1 X5.7433 Y-11.1958
G1 X6.2961 Y-12.9870
G1 X6.5173 Y-13.1639
G1 X7.3134 Y-13.2524 F3500.0
G1 X7.4239 Y-13.1418
G1 X6.8711 Y-11.3727
G1 X7.4040 Y-11.0727
G1 X7.4040 Y-10.9842
G1 X7.8463 Y-11.9793
G1 X8.6203 Y-10.9621
G1 X8.9520 Y-12.1783
G1 X8.0453 Y-12.1783
G1 X8.0232 Y-12.3995
G1 X8.3992 Y-13.3061
G1 X9.5491 Y-13.1734
G1 X9.0626 Y-12.2447
G1 Z0.0000 F2500.0
G4 P0.02
G0 X9.4606 Y-13.0186 F15000.0
G1 Z11.9000 F2500.0
G4 P0.02
G1 X10.1365 Y-13.1463 F3500.0
G1 X9.2962 Y-10.9571
G1 X10.2250 Y-13.2348
G1 X11.8171 Y-13.2348
G1 X11.8835 Y-12.8146
G1 X11.2201 Y-10.9571
G1 X11.8607 Y-10.7018
G1 Z0.0000 F2500.0
G4 P0.02
G0 X10.4240 Y-11.4657 F15000.0
G1 Z11.9000 F2500.0
G4 P0.02
G1 X10.9768 Y-12.9031 F3500.0
G1 X13.3657 Y-11.3552
G1 X13.8743 Y-12.8147
G1 X13.7859 Y-13.2570
G1 X12.8350 Y-13.1464
G1 X11.6188 Y-10.0947
G1 X12.1274 Y-11.0677
G1 X13.2551 Y-11.2225
G1 X13.7928 Y-11.0135
G1 X13.8592 Y-11.0798
G1 Z0.0000 F2500.0
G4 P0.02
G0 X11.0653 Y-13.2127 F15000.0
G1 Z11.9000 F2500.0
G4 P0.02
G1 X10.2692 Y-10.9571 F3500.0
G1 X9.4212 Y-11.2826
G1 Z0.0000 F2500.0
G4 P0.02
G0 X7.0356 Y-8.4272 F15000.0
G1 Z11.9000 F2500.0
G4 P0.02
G1 X6.6376 Y-8.3609 F3500.0
G1 X7.0135 Y-8.4272
G1 X7.4779 Y-9.2012
G1 X7.1019 Y-9.2896
G1 X6.8587 Y-9.1570
G1 X6.9914 Y-9.2233
G1 X6.7923 Y-9.0022
G1 X6.1511 Y-7.2110
G1 X6.8366 Y-6.3043
G1 X6.0184 Y-6.2380
G1 X6.0405 Y-6.9014
G1 X5.9078 Y-6.3485
G1 X4.9348 Y-6.1495
G1 X5.6203 Y-8.2724
G1 X4.7579 Y-8.3388
G1 X3.9618 Y-6.1053
G1 X3.4974 Y-7.4763
G1 Z0.0000 F2500.0
G4 P0.02
G0 X3.2542 Y-6.8572 F15000.0
G1 Z11.9000 F2500.0
G4 P0.02
G1 X5.5319 Y-8.3609 F3500.0
G1 X3.8513 Y-8.3166
G1 X2.9888 Y-6.1053
G1 X2.4139 Y-6.5697
G1 Z0.0000 F2500.0
G4 P0.02
G0 X0.0000 Y-10.2266 F15000.0
G1 Z11.9000 F2500.0
G4 P0.02
G1 X63.2677 Y-10.2266 F12000.0
G1 Z0.0000 F2500.0
G4 P0.02
G0 X67.6889 Y-9.4356 F15000.0
G1 Z11.9000 F2500.0
G4 P0.02
G1 X66.5519 Y-9.5555 F3500.0
G1 X65.4020 Y-9.5555
G1 X65.0703 Y-9.8429
G1 X66.2202 Y-14.7742
G1 X66.7162 Y-15.4251
G1 Z0.0000 F2500.0
G4 P0.02
G0 X66.4127 Y-15.0583 F15000.0
G1 Z11.9000 F2500.0
G4 P0.02
G1 X66.4635 Y-15.1944 F3500.0
G1 X66.9721 Y-15.6588
G1 X68.4095 Y-15.9020
G1 Z0.0000 F2500.0
G4 P0.02
G0 X63.2677 Y-15.0870 F15000.0
G1 Z11.9000 F2500.0
G4 P0.02
G1 X0.0000 Y-15.0870 F12000.0
G1 Z0.0000 F2500.0
G4 P0.02
G0 X0.0000 Y-19.9474 F15000.0
G1 Z11.9000 F2500.0
G4 P0.02
G1 X63.2677 Y-19.9474 F12000.0
G1 X131.3959 Y-19.9474 F12000.0
G1 X180.0000 Y-19.9474 F12000.0
G1 Z0.0000 F2500.0
G4 P0.02
G0 X180.0000 Y-24.8078 F15000.0
G1 Z11.9000 F2500.0
G4 P0.02
G1 X131.3959 Y-24.8078 F12000.0
G1 Z0.0000 F2500.0
G4 P0.02
G0 X133.1266 Y-20.8437 F15000.0
G1 Z11.9000 F2500.0
G4 P0.02
G1 X133.9670 Y-22.1042 F12000.0
G1 X134.7630 Y-20.8658
G1 X135.8466 Y-23.9175
G1 X135.1832 Y-23.8954
G1 X136.4437 Y-23.0330
G1 X135.7139 Y-20.9101
G1 X136.7311 Y-20.8658
G1 X137.6599 Y-23.0330
G1 X135.9129 Y-21.6840
G1 X135.8687 Y-21.5292
G1 X138.1464 Y-22.7234
G1 X137.5936 Y-21.1754
G1 X137.6157 Y-20.9101
G1 X139.2300 Y-20.6889
G1 Z0.0000 F2500.0
G4 P0.02
G0 X138.1464 Y-22.7234 F15000.0
G1 Z11.9000 F2500.0
G4 P0.02
G1 X138.2791 Y-22.8560 F3500.0
G1 X139.4953 Y-22.9445
G1 X140.0703 Y-22.8782
G1 X139.2300 Y-20.6889
G1 X140.1587 Y-22.9666
G1 X141.8393 Y-22.9003
G1 X141.8172 Y-22.5465
G1 X141.1759 Y-20.6889
G1 X140.2029 Y-20.6889
G1 X141.0211 Y-22.9445
G1 Z0.0000 F2500.0
G4 P0.02
G0 X141.1167 Y-24.8078 F15000.0
G1 Z11.9000 F2500.0
G4 P0.02
G1 X141.1167 Y-39.4714 F12000.0
G1 Z0.0000 F2500.0
G4 P0.02
G0 X141.4166 Y-40.1487 F15000.0
G1 Z11.9000 F2500.0
G4 P0.02
G1 X142.1242 Y-42.3158 F3500.0
G1 X141.1734 Y-42.0947
G1 Z0.0000 F2500.0
G4 P0.02
G0 X141.2617 Y-42.4164 F15000.0
G1 Z11.9000 F2500.0
G4 P0.02
G1 X140.4657 Y-40.1930 F3500.0
G1 Z0.0000 F2500.0
G4 P0.02
G0 X142.0437 Y-42.2971 F15000.0
G1 Z11.9000 F2500.0
G4 P0.02
G1 X142.0137 Y-42.4264 F12000.0
G1 X140.3552 Y-42.4043
G1 X139.4927 Y-40.1487
G1 X138.3871 Y-41.9620
G1 X138.4313 Y-42.1168
G1 X139.8023 Y-42.4928
G1 X138.8736 Y-40.3256
G1 X137.8563 Y-40.3699
G1 X138.5861 Y-42.4928
G1 X137.3256 Y-43.3552
G1 X137.9890 Y-43.3773
G1 X136.9055 Y-40.3256
G1 X136.1094 Y-41.5640
G1 X135.2691 Y-40.3035
G1 Z0.0000 F2500.0
G4 P0.02
G0 X136.1739 Y-39.4714 F15000.0
G1 Z11.9000 F2500.0
G4 P0.02
G1 X136.1739 Y-24.8078 F12000.0
G1 Z0.0000 F2500.0
G4 P0.02
G0 X145.9771 Y-24.8078 F15000.0
G1 Z11.9000 F2500.0
G4 P0.02
G1 X145.9771 Y-44.3318 F12000.0
G1 Z0.0000 F2500.0
G4 P0.02
G0 X149.6892 Y-42.3906 F15000.0
G1 Z11.9000 F2500.0
G4 P0.02
G1 X148.8046 Y-40.1571 F3500.0
G1 Z0.0000 F2500.0
G4 P0.02
G0 X149.4459 Y-41.7935 F15000.0
G1 Z11.9000 F2500.0
G4 P0.02
G1 X149.9988 Y-43.0098 F12000.0
G1 X150.1314 Y-43.5184
G1 X150.1093 Y-43.0098
G1 X150.3747 Y-42.0368
G1 X151.0602 Y-42.5012
G1 X150.3747 Y-41.9926
G1 X150.3083 Y-41.8157
G1 X151.5909 Y-42.9656
G1 X151.7457 Y-42.9656
G1 X150.8391 Y-40.3783
G1 X151.7236 Y-40.4004
G1 X152.3649 Y-42.2579
G1 X152.5639 Y-42.3685
G1 X153.5148 Y-42.4569
G1 X152.9177 Y-40.4667
G1 X152.9620 Y-40.3119
G1 X152.8956 Y-40.4446
G1 X151.8121 Y-40.3119
G1 X154.7531 Y-40.2235
G1 X153.6696 Y-40.3562
G1 X153.6475 Y-40.6436
G1 X154.2003 Y-42.1916
G1 X154.4436 Y-42.3464
G1 X155.5492 Y-42.4127
G1 X156.1021 Y-42.1916
G1 Z0.0000 F2500.0
G4 P0.02
G0 X157.4510 Y-42.4127 F15000.0
G1 Z11.9000 F2500.0
G4 P0.02
G1 X156.1021 Y-42.1916 F3500.0
G1 X155.5492 Y-40.6436
G1 X155.5492 Y-40.3783
G1 X156.6770 Y-40.2235
G1 X158.5788 Y-40.4446
G1 X157.4289 Y-40.3562
G1 X157.4510 Y-40.7100
G1 X158.0480 Y-42.2579
G1 X159.1758 Y-42.4569
G1 X158.6009 Y-40.4667
G1 X158.6451 Y-40.3119
G1 X158.0923 Y-42.3021
G1 X158.2249 Y-42.3685
G1 Z0.0000 F2500.0
G4 P0.02
G0 X162.5355 Y-44.3318 F15000.0
G1 Z11.9000 F2500.0
G4 P0.02
G1 X162.5355 Y-24.8078 F12000.0
G1 Z0.0000 F2500.0
G4 P0.02
G0 X160.4996 Y-22.7418 F15000.0
G1 Z11.9000 F2500.0
G4 P0.02
G1 X159.9961 Y-22.9350 F3500.0
G1 X158.6251 Y-22.7360
G1 X158.0502 Y-21.1217
G1 X158.0723 Y-20.9227
G1 X159.1779 Y-20.7679
G1 X156.5339 Y-22.0188
G1 Z0.0000 F2500.0
G4 P0.02
G0 X156.2243 Y-21.2227 F15000.0
G1 Z11.9000 F2500.0
G4 P0.02
G1 X156.2686 Y-21.3554 F3500.0
G1 X158.1261 Y-23.0360
G1 X157.2858 Y-21.0237
G1 X156.2022 Y-20.9131
G1 X156.2022 Y-21.1785
G1 X156.9320 Y-23.0360
G1 X155.6576 Y-23.8954
G1 X156.3210 Y-23.9175
G1 X155.2375 Y-20.8658
G1 X154.4414 Y-22.1042
G1 X154.3529 Y-21.9936
G1 Z0.0000 F2500.0
G4 P0.02
G0 X154.0655 Y-21.5514 F15000.0
G1 Z11.9000 F2500.0
G4 P0.02
G1 X153.6011 Y-20.8437 F3500.0
G1 Z0.0000 F2500.0
G4 P0.02
G0 X151.4142 Y-19.9474 F15000.0
G1 Z11.9000 F2500.0
G4 P0.02
G1 X151.4142 Y-24.8078 F3500.0
G1 Z0.0000 F2500.0
G4 P0.02
G0 X159.9961 Y-22.9350 F15000.0
G1 Z11.9000 F2500.0
G4 P0.02
G1 X160.5512 Y-22.8762 F12000.0
G1 X159.7109 Y-20.6870
G1 X160.6397 Y-22.9647
G1 X162.2318 Y-22.9647
G1 X162.2982 Y-22.5445
G1 X161.6348 Y-20.6870
G1 X160.6839 Y-20.6870
G1 X161.4800 Y-22.9426
G1 X163.1982 Y-22.7169
G1 X162.6454 Y-20.9257
G1 X163.6405 Y-20.9257
G1 X163.4194 Y-22.8938
G1 X164.2155 Y-22.9823
G1 X164.3260 Y-22.8717
G1 X163.7732 Y-21.1026
G1 X164.5835 Y-21.1026
G1 Z0.0000 F2500.0
G4 P0.02
G0 X165.4459 Y-20.8992 F15000.0
G1 Z11.9000 F2500.0
G4 P0.02
G1 X164.5835 Y-20.8771 F3500.0
G1 X164.5835 Y-21.2530
G1 X165.5123 Y-23.7739
G1 X166.0209 Y-23.9287
G1 X165.2469 Y-22.9557
G1 X165.6228 Y-23.0221
G1 X165.6671 Y-23.1105
G1 X166.0872 Y-22.2702
G1 X165.6671 Y-21.0761
G1 X165.6892 Y-23.1547
G1 X166.0872 Y-23.7960
G1 Z0.0000 F2500.0
G4 P0.02
G0 X163.4591 Y-18.3149 F15000.0
G1 Z11.9000 F2500.0
G4 P0.02
G1 X162.2429 Y-18.1601 F3500.0
G1 X161.9112 Y-18.0274
G1 X161.5132 Y-17.6515
G1 X160.8498 Y-15.9487
G1 X161.7122 Y-13.7595
G1 X160.3633 Y-14.0249
G1 X160.3411 Y-14.5556
G1 X160.5844 Y-15.2190
G1 X160.0375 Y-16.5688
G1 X159.0424 Y-13.8267
G1 Z0.0000 F2500.0
G4 P0.02
G0 X159.3078 Y-14.5564 F15000.0
G1 Z11.9000 F2500.0
G4 P0.02
G1 X156.8974 Y-13.6940 F3500.0
G1 X158.4896 Y-17.9619
G1 X157.5990 Y-18.2493
G1 X157.0020 Y-16.6572
G1 X155.6973 Y-13.9593
G1 X155.7329 Y-14.0143
G1 Z0.0000 F2500.0
G4 P0.02
G0 X156.6260 Y-15.8168 F15000.0
G1 Z11.9000 F2500.0
G4 P0.02
G1 X156.4712 Y-15.2419 F3500.0
G1 X156.0511 Y-14.2689
G1 X155.6088 Y-13.9151
G1 X154.2820 Y-13.7382
G1 X154.9454 Y-16.1043
G1 X154.9454 Y-16.7014
G1 X155.4982 Y-18.2493
G1 X155.0560 Y-15.9937
G1 X156.6058 Y-15.8380
G1 Z0.0000 F2500.0
G4 P0.02
G0 X156.8914 Y-16.3697 F15000.0
G1 Z11.9000 F2500.0
G4 P0.02
G1 X154.5769 Y-18.3157 F3500.0
G1 X152.8520 Y-18.2273
G1 X151.1051 Y-13.6940
G1 X151.1493 Y-13.7603
G1 X150.2550 Y-14.0856
G1 Z0.0000 F2500.0
G4 P0.02
G0 X150.1608 Y-13.8267 F15000.0
G1 Z11.9000 F2500.0
G4 P0.02
G1 X151.6866 Y-18.2051 F3500.0
G1 X151.8193 Y-18.3157
G1 X151.6645 Y-18.2273
G1 X149.7628 Y-18.2273
G1 X148.0158 Y-13.6940
G1 X148.0600 Y-13.7603
G1 Z0.0000 F2500.0
G4 P0.02
G0 X148.1786 Y-11.5394 F15000.0
G1 Z11.9000 F2500.0
G4 P0.02
G1 X146.6528 Y-7.1609 F3500.0
G1 X145.4808 Y-8.9521
G1 X144.1097 Y-7.0282
G1 Z0.0000 F2500.0
G4 P0.02
G0 X148.6500 Y-6.9974 F15000.0
G1 Z11.9000 F2500.0
G4 P0.02
G1 X150.1537 Y-11.0663 F3500.0
G1 X150.2643 Y-11.5307
G1 X151.4584 Y-11.6413
G1 X150.2421 Y-11.5528
G1 X147.2277 Y-11.5173
G1 Z0.0000 F2500.0
G4 P0.02
G0 X150.4262 Y-14.5564 F15000.0
G1 Z11.9000 F2500.0
G4 P0.02
G1 X151.3233 Y-14.2265 F3500.0
G1 Z0.0000 F2500.0
G4 P0.02
G0 X151.2407 Y-8.6214 F15000.0
G1 Z11.9000 F2500.0
G4 P0.02
G1 X153.1424 Y-8.6214 F3500.0
G1 X153.5484 Y-7.0595
G1 X154.8752 Y-7.2364
G1 X155.4280 Y-7.8334
G1 X155.7155 Y-8.6295
G1 X155.7818 Y-9.0718
G1 X155.6934 Y-9.2708
G1 X155.4059 Y-9.4477
G1 X154.4550 Y-9.5362
G1 X155.0742 Y-11.4600
G1 X155.1626 Y-11.5485
G1 X156.7548 Y-11.5706
G1 X158.6228 Y-11.2502
G1 X158.0921 Y-11.0069
G1 Z0.0000 F2500.0
G4 P0.02
G0 X157.3182 Y-10.4099 F15000.0
G1 Z11.9000 F2500.0
G4 P0.02
G1 X158.9324 Y-11.6261 F3500.0
G1 X158.7334 Y-11.3386
G1 X157.2297 Y-7.1813
G1 X155.4501 Y-7.8777
G1 X155.4722 Y-7.9440
G1 Z0.0000 F2500.0
G4 P0.02
G0 X159.9266 Y-7.6336 F15000.0
G1 Z11.9000 F2500.0
G4 P0.02
G1 X158.9536 Y-7.1028 F12000.0
G1 X159.4401 Y-10.4420
G1 X159.7497 Y-11.0611
G1 X160.1919 Y-11.4150
G1 X161.2755 Y-11.5476
G1 X161.6072 Y-11.2602
G1 X161.5187 Y-10.4199
G1 X160.8996 Y-8.8056
G1 X160.9438 Y-9.1373
G1 X159.4843 Y-9.2478
G1 X159.6833 Y-10.9727
G1 X160.5679 Y-8.3191
G1 X160.2140 Y-7.8989
G1 X161.1207 Y-9.2921
G1 X161.4082 Y-10.1103
G1 X161.7956 Y-8.6214
G1 X165.1615 Y-8.5966
G1 Z0.0000 F2500.0
G4 P0.02
G0 X166.2663 Y-9.0742 F15000.0
G1 Z11.9000 F2500.0
G4 P0.02
G1 X165.9567 Y-8.6983 F3500.0
G1 X166.0894 Y-8.8530
G1 X166.4432 Y-10.0472
G1 X166.3547 Y-10.1356
G1 X165.5365 Y-10.0693
G1 X165.1827 Y-9.8482
G1 X165.1606 Y-8.5435
G1 X165.8682 Y-8.6098
G1 X165.9346 Y-8.4329
G1 X165.7134 Y-7.5041
G1 X165.3375 Y-7.1724
G1 X164.2982 Y-7.1282
G1 X163.6974 Y-8.6214
G1 Z0.0000 F2500.0
G4 P0.02
G0 X161.6016 Y-17.7841 F15000.0
G1 Z11.9000 F2500.0
G4 P0.02
G1 X160.1923 Y-16.9889 F3500.0
G1 X160.5682 Y-18.2051
G1 X158.6444 Y-18.2273
G1 Z0.0000 F2500.0
G4 P0.02
G0 X160.5461 Y-18.2273 F15000.0
G1 Z11.9000 F2500.0
G4 P0.02
G1 X160.7009 Y-18.3157 F3500.0
G1 Z0.0000 F2500.0
G4 P0.02
G0 X174.1553 Y-20.7957 F15000.0
G1 Z11.9000 F2500.0
G4 P0.02
G1 X174.5755 Y-21.7687 F3500.0
G1 X175.2168 Y-23.6262
G1 X175.0841 Y-23.6926
G1 Z0.0000 F2500.0
G4 P0.02
G0 X175.2168 Y-23.6483 F15000.0
G1 Z11.9000 F2500.0
G4 P0.02
G1 X175.3495 Y-23.8031 F3500.0
G1 Z0.0000 F2500.0
G4 P0.02
G0 X174.8851 Y-23.5820 F15000.0
G1 Z11.9000 F2500.0
G4 P0.02
G1 X174.4207 Y-23.3166 F3500.0
G1 Z0.0000 F2500.0
G4 P0.02
G0 X172.5401 Y-29.9805 F15000.0
G1 Z11.9000 F2500.0
G4 P0.02
G1 X174.0438 Y-34.1378 F3500.0
G1 X174.2429 Y-34.4253
G1 Z0.0000 F2500.0
G4 P0.02
G0 X173.9333 Y-34.0494 F15000.0
G1 Z11.9000 F2500.0
G4 P0.02
G1 X173.4026 Y-33.8061 F3500.0
G1 Z0.0000 F2500.0
G4 P0.02
G0 X172.8718 Y-33.4523 F15000.0
G1 Z11.9000 F2500.0
G4 P0.02
G1 X172.6286 Y-33.2091 F3500.0
G1 Z0.0000 F2500.0
G4 P0.02
G0 X171.5517 Y-32.8331 F15000.0
G1 Z11.9000 F2500.0
G4 P0.02
G1 X171.4853 Y-32.7889 F3500.0
G1 Z0.0000 F2500.0
G4 P0.02
G0 X170.8440 Y-34.0494 F15000.0
G1 Z11.9000 F2500.0
G4 P0.02
G1 X170.3133 Y-33.8061 F3500.0
G1 Z0.0000 F2500.0
G4 P0.02
G0 X169.7826 Y-33.4523 F15000.0
G1 Z11.9000 F2500.0
G4 P0.02
G1 X169.5393 Y-33.2091 F3500.0
G1 Z0.0000 F2500.0
G4 P0.02
G0 X171.1536 Y-34.4253 F15000.0
G1 Z11.9000 F2500.0
G4 P0.02
G1 X170.9546 Y-34.1378 F3500.0
G1 X169.4509 Y-29.9805
G1 Z0.0000 F2500.0
G4 P0.02
G0 X170.7556 Y-30.9977 F15000.0
G1 Z11.9000 F2500.0
G4 P0.02
G1 X170.8440 Y-31.0420 F3500.0
G1 Z0.0000 F2500.0
G4 P0.02
G0 X171.6517 Y-40.4106 F15000.0
G1 Z11.9000 F2500.0
G4 P0.02
G1 X172.2734 Y-40.1468 F3500.0
G1 X173.1358 Y-42.4024
G1 X173.9983 Y-42.4245
G1 X174.8386 Y-42.1370
G1 X174.1531 Y-40.1468
G1 X173.2243 Y-40.1468
G1 X174.0204 Y-42.4024
G1 Z0.0000 F2500.0
G4 P0.02
G0 X173.6002 Y-41.2525 F15000.0
G1 Z11.9000 F2500.0
G4 P0.02
G1 X175.2328 Y-41.0534 F3500.0
G1 X175.9626 Y-40.3458
G1 X176.2058 Y-40.4342
G1 X176.8471 Y-42.4244
G1 X175.9183 Y-42.3802
G1 X175.6972 Y-42.2475
G1 X175.2549 Y-41.0976
G1 X176.2500 Y-40.4563
G1 X176.2943 Y-40.3015
G1 X176.9565 Y-40.4062
G1 X177.3103 Y-41.6225
G1 X177.4935 Y-41.6741
G1 Z0.0000 F2500.0
G4 P0.02
G0 X176.9565 Y-40.4062 F15000.0
G1 Z11.9000 F2500.0
G4 P0.02
G1 X177.0671 Y-40.2957 F3500.0
G1 X177.8631 Y-40.3620
G1 X177.4209 Y-41.9321
G1 X177.5093 Y-42.1753
G1 X177.7305 Y-42.3522
G1 X178.5266 Y-42.4628
G1 X178.6150 Y-42.3743
G1 X178.6371 Y-42.1311
G1 X178.0843 Y-40.5389
G1 X178.4381 Y-42.5070
G1 X178.0843 Y-43.3694
G1 X177.9295 Y-43.4579
G1 X178.1064 Y-43.3694
G1 X179.1900 Y-43.3694
G1 Z0.0000 F2500.0
G4 P0.02
G0 X180.0000 Y-44.3318 F15000.0
G1 Z11.9000 F2500.0
G4 P0.02
G1 X63.2677 Y-44.3318 F12000.0
G1 X0.0000 Y-44.3318 F12000.0
G1 Z0.0000 F2500.0
G4 P0.02
G0 X0.0000 Y-49.1922 F15000.0
G1 Z11.9000 F2500.0
G4 P0.02
G1 X63.2677 Y-49.1922 F12000.0
G1 Z0.0000 F2500.0
G4 P0.02
G0 X63.2677 Y-54.0526 F15000.0
G1 Z11.9000 F2500.0
G4 P0.02
G1 X0.0000 Y-54.0526 F12000.0
G1 Z0.0000 F2500.0
G4 P0.02
G0 X6.8375 Y-58.9131 F15000.0
G1 Z11.9000 F2500.0
G4 P0.02
G1 X6.8375 Y-34.6110 F12000.0
G1 Z0.0000 F2500.0
G4 P0.02
G0 X4.9963 Y-37.1895 F15000.0
G1 Z11.9000 F2500.0
G4 P0.02
G1 X5.0184 Y-37.6538 F12000.0
G1 X4.1338 Y-35.3540
G1 X4.2002 Y-35.5309
G1 X3.7579 Y-36.5039
G1 X3.4483 Y-36.5261
G1 X3.4041 Y-37.4106
G1 X4.0233 Y-37.5654
G1 X4.1338 Y-37.4548
G1 X4.1117 Y-37.1010
G1 X3.8685 Y-36.5924
G1 X3.6473 Y-35.6415
G1 X3.5589 Y-35.5531
G1 X2.8955 Y-35.4867
G1 X2.8291 Y-35.7300
G1 X2.8955 Y-37.9192
G1 X2.1657 Y-35.4867
G1 X1.2591 Y-36.0174
G1 X2.7628 Y-37.9413
G1 X2.9397 Y-38.0519
G1 X3.2051 Y-38.6047
G1 X2.0110 Y-38.6268
G1 X1.1706 Y-35.9953
G1 X0.8611 Y-35.3983
G1 Z0.0000 F2500.0
G4 P0.02
G0 X0.0000 Y-34.6110 F15000.0
G1 Z11.9000 F2500.0
G4 P0.02
G1 X63.2677 Y-34.6110 F12000.0
G1 Z0.0000 F2500.0
G4 P0.02
G0 X60.1979 Y-35.8530 F15000.0
G1 Z11.9000 F2500.0
G4 P0.02
G1 X59.5799 Y-35.3491 F12000.0
G1 X60.1769 Y-37.1403
G1 X59.5135 Y-37.5384
G1 X58.7838 Y-35.3491
G1 X58.7174 Y-37.4720
G1 X57.9656 Y-35.3491
G1 X56.6609 Y-35.4376
G1 X57.5454 Y-35.5481
G1 X57.5896 Y-35.6808
G1 X57.5675 Y-35.3712
G1 X58.0098 Y-37.1403
G1 X58.0540 Y-37.5826
G1 X57.0589 Y-37.3393
G1 X56.5724 Y-35.5260
G1 X55.7542 Y-35.3934
G1 X55.7100 Y-35.1501
G1 X54.7149 Y-35.3934
G1 X55.7321 Y-35.3934
G1 X56.5945 Y-38.5335
G1 X55.9754 Y-38.5556
G1 X55.7321 Y-38.2239
G1 X54.6707 Y-35.4155
G1 X54.5159 Y-35.3934
G1 X54.2947 Y-35.1501
G1 Z0.0000 F2500.0
G4 P0.02
G0 X49.4661 Y-35.3934 F15000.0
G1 Z11.9000 F2500.0
G4 P0.02
G1 X49.7536 Y-36.0125 F12000.0
G1 X48.5595 Y-38.0027
G1 X48.5153 Y-37.8479
G1 X49.8642 Y-36.3221
G1 X50.1738 Y-37.2509
G1 X50.0632 Y-37.5605
G1 X49.1344 Y-37.5162
G1 X48.2720 Y-35.2828
G1 X47.7413 Y-35.6808
G1 X48.3826 Y-37.5826
G1 X47.5202 Y-38.5777
G1 X48.6037 Y-38.4671
G1 X48.4931 Y-37.8037
G1 X48.3605 Y-37.5826
G1 X47.2990 Y-37.4499
G1 X47.1442 Y-37.2730
G1 Z0.0000 F2500.0
G4 P0.02
G0 X47.7413 Y-35.6808 F15000.0
G1 Z11.9000 F2500.0
G4 P0.02
G1 X47.6307 Y-35.5481 F3500.0
G1 X46.6356 Y-35.4818
G1 X46.6798 Y-35.9241
G1 X47.1442 Y-37.2730
G1 X46.3924 Y-37.4720
G1 X46.2818 Y-36.8750
G1 X45.9059 Y-35.8135
G1 X45.6184 Y-35.4818
G1 X44.7118 Y-35.5260
G1 X45.1540 Y-37.0076
G1 X46.3039 Y-37.5605
G1 X43.4292 Y-38.2460
G1 Z0.0000 F2500.0
G4 P0.02
G0 X42.8763 Y-36.8307 F15000.0
G1 Z11.9000 F2500.0
G4 P0.02
G1 X43.8272 Y-35.4597 F3500.0
G1 X44.4685 Y-37.1403
G1 X44.8887 Y-38.5335
G1 X43.5397 Y-38.4892
G1 X42.3235 Y-35.3049
G1 X42.3235 Y-35.4376
G1 Z0.0000 F2500.0
G4 P0.02
G0 X35.0198 Y-37.1845 F15000.0
G1 Z11.9000 F2500.0
G4 P0.02
G1 X35.2188 Y-37.4720 F12000.0
G1 X34.9977 Y-37.2067
G1 X34.7544 Y-37.1182
G1 X34.0468 Y-36.6317
G1 X33.8920 Y-37.1624
G1 X33.8920 Y-37.6489
G1 X33.8478 Y-37.2067
G1 X33.6930 Y-37.1403
G1 X32.8969 Y-35.4155
G1 X32.8969 Y-35.2828
G1 X32.0124 Y-34.7742
G1 X32.2114 Y-35.3934
G1 X31.4595 Y-36.3000
G1 X33.2065 Y-37.6268
G1 X32.1893 Y-35.4155
G1 X31.3047 Y-35.4818
G1 X31.2384 Y-35.7693
G1 X31.9902 Y-37.6268
G1 X31.8576 Y-34.5752
G1 X30.7740 Y-34.4867
G1 X30.3317 Y-35.5039
G1 X30.0688 Y-36.5895
G1 Z0.0000 F2500.0
G4 P0.02
G0 X29.6905 Y-36.4548 F15000.0
G1 Z11.9000 F2500.0
G4 P0.02
G1 X30.1106 Y-37.6268 F12000.0
G1 X28.1646 Y-37.4720
G1 X27.4570 Y-37.8479
G1 X27.5012 Y-38.0027
G1 X29.1155 Y-37.4720
G1 X28.6511 Y-35.8135
G1 X28.4300 Y-35.5039
G1 X28.1425 Y-35.4376
G1 X27.4349 Y-35.5260
G1 X28.0098 Y-37.3172
G1 X26.6830 Y-35.6808
G1 X27.3243 Y-37.5826
G1 X26.4619 Y-38.5777
G1 X27.2801 Y-38.5335
G1 X27.5676 Y-38.4450
G1 X27.4349 Y-37.8037
G1 X27.3022 Y-37.5826
G1 X26.2408 Y-37.4499
G1 X26.0860 Y-37.2730
G1 Z0.0000 F2500.0
G4 P0.02
G0 X26.6830 Y-35.6808 F15000.0
G1 Z11.9000 F2500.0
G4 P0.02
G1 X26.5725 Y-35.5481 F3500.0
G1 X25.5552 Y-35.5260
G1 X26.0860 Y-37.2730
G1 X23.6409 Y-38.4166
G1 X24.1716 Y-38.4387
G1 X24.1053 Y-38.0185
G1 X23.7515 Y-37.2003
G1 X23.3534 Y-37.1561
G1 X23.1987 Y-37.3994
G1 X23.4861 Y-38.2176
G1 X22.4468 Y-36.6033
G1 Z0.0000 F2500.0
G4 P0.02
G0 X22.0045 Y-35.8514 F15000.0
G1 Z11.9000 F2500.0
G4 P0.02
G1 X21.9824 Y-35.5639 F3500.0
G1 Z0.0000 F2500.0
G4 P0.02
G0 X20.9652 Y-36.5812 F15000.0
G1 Z11.9000 F2500.0
G4 P0.02
G1 X21.8055 Y-38.5935 F3500.0
G1 X21.6286 Y-37.9743
G1 X21.6949 Y-37.9964
G1 X22.0045 Y-35.8514
G1 X22.3141 Y-36.2716
G1 X23.2650 Y-38.5935
G1 Z0.0000 F2500.0
G4 P0.02
G0 X21.1421 Y-37.0013 F15000.0
G1 Z11.9000 F2500.0
G4 P0.02
G1 X20.4566 Y-35.2986 F3500.0
G1 Z0.0000 F2500.0
G4 P0.02
G0 X18.5971 Y-33.4677 F15000.0
G1 Z11.9000 F2500.0
G4 P0.02
G1 X18.7077 Y-33.7330 F12000.0
G1 X18.2433 Y-32.5610
G1 X18.2433 Y-32.2293
G1 X18.3318 Y-32.0745
G1 X19.2826 Y-32.0082
G1 X19.2384 Y-31.6323
G1 X18.8183 Y-30.4381
G1 X18.9288 Y-30.8583
G1 X20.0124 Y-31.4996
G1 X19.3932 Y-32.0745
G1 X20.1229 Y-33.6446
G1 X20.5210 Y-32.7601
G1 X19.7691 Y-30.9025
G1 X19.8355 Y-30.6150
G1 X20.7200 Y-30.5487
G1 X21.7372 Y-32.7601
G1 X22.4227 Y-32.7822
G1 X22.3785 Y-32.3399
G1 X22.2237 Y-32.2736
G1 X21.4276 Y-30.4381
G1 X20.7421 Y-30.5266
G1 X20.5431 Y-29.9074
G1 X20.3883 Y-29.7084
G1 X19.3048 Y-29.6199
G1 X18.4522 Y-28.4417
G1 Z0.0000 F2500.0
G4 P0.02
G0 X20.2484 Y-27.1946 F15000.0
G1 Z11.9000 F2500.0
G4 P0.02
G1 X21.6370 Y-25.9133 F3500.0
G1 X21.6591 Y-25.8027
G1 X22.0793 Y-25.6922
G1 X22.4995 Y-25.8248
G1 X22.6542 Y-25.9575
G1 Z0.0000 F2500.0
G4 P0.02
G0 X21.4180 Y-27.1778 F15000.0
G1 Z11.9000 F2500.0
G4 P0.02
G1 X22.3004 Y-26.7978 F12000.0
G1 X22.8533 Y-26.8421
G1 X23.0744 Y-27.1295
G1 X23.1629 Y-27.7487
G1 X22.3668 Y-27.6824
G1 X22.2120 Y-27.5939
G1 X22.7869 Y-26.7536
G1 X22.6542 Y-25.9575
G1 X22.7427 Y-26.2671
G1 X24.6938 Y-26.0384
G1 X24.5833 Y-25.8394
G1 X23.4555 Y-25.7951
G1 X24.0525 Y-27.6306
G1 X25.2246 Y-27.8517
G1 X24.7159 Y-26.0826
G1 X24.6717 Y-25.7067
G1 X25.1162 Y-25.6675
G1 X25.1162 Y-25.5790
G1 X25.5585 Y-26.5741
G1 X26.3325 Y-25.5569
G1 X26.6642 Y-26.7732
G1 X25.7575 Y-26.7732
G1 X25.7354 Y-26.9943
G1 X26.1113 Y-27.9010
G1 X27.2612 Y-27.7683
G1 X26.7747 Y-26.8395
G1 Z0.0000 F2500.0
G4 P0.02
G0 X27.1236 Y-27.5055 F15000.0
G1 Z11.9000 F2500.0
G4 P0.02
G1 X27.1728 Y-27.6135 F12000.0
G1 X27.7926 Y-27.5818
G1 X27.2398 Y-25.7907
G1 X28.2349 Y-25.7907
G1 X28.0138 Y-27.7588
G1 X28.8099 Y-27.8472
G1 X28.9204 Y-27.7366
G1 X28.3676 Y-25.9676
G1 X30.0403 Y-25.7641
G1 X29.1779 Y-25.7420
G1 X29.1779 Y-26.1179
G1 X30.1067 Y-28.6389
G1 X30.6153 Y-28.7937
G1 X30.6816 Y-28.6610
G1 X30.2172 Y-27.8870
G1 X29.8413 Y-27.8207
G1 X29.9076 Y-28.2187
G1 X30.2393 Y-27.8870
G1 X30.6816 Y-27.1352
G1 X30.2614 Y-25.9410
G1 X32.2404 Y-25.7067
G1 X32.2846 Y-26.0826
G1 X32.7932 Y-27.8517
G1 X31.6212 Y-27.6306
G1 X31.0241 Y-25.7951
G1 X32.1519 Y-25.8394
G1 X32.2625 Y-26.0384
G1 Z0.0000 F2500.0
G4 P0.02
G0 X29.2235 Y-32.4448 F15000.0
G1 Z11.9000 F2500.0
G4 P0.02
G1 X30.0840 Y-32.5309 F3500.0
G1 X30.2167 Y-32.6856
G1 X30.5705 Y-32.7520
G1 X31.1454 Y-32.6414
G1 X31.0791 Y-32.0886
G1 X30.7695 Y-31.2262
G1 X29.5312 Y-30.6070
G1 X29.5090 Y-30.9166
G1 X30.3494 Y-33.2827
G1 X30.5263 Y-33.5260
G1 X30.9685 Y-33.6586
G1 X30.5926 Y-32.7741
G1 X30.6368 Y-32.8847
G1 X29.1995 Y-32.6856
G1 Z0.0000 F2500.0
G4 P0.02
G0 X27.6073 Y-32.6414 F15000.0
G1 Z11.9000 F2500.0
G4 P0.02
G1 X27.1429 Y-31.7348 F12000.0
G1 X27.9169 Y-31.6242
G1 X29.0889 Y-31.7348
G1 X29.2437 Y-32.2434
G1 X29.1995 Y-32.6856
G1 X28.2265 Y-32.5309
G1 X27.6736 Y-31.0493
G1 X28.7572 Y-30.4964
G1 X27.6294 Y-30.9387
G1 X26.6785 Y-30.4301
G1 X26.9660 Y-31.2704
G1 X27.0102 Y-31.6463
G1 X26.1478 Y-31.7127
G1 X26.4574 Y-32.7520
G1 X25.7840 Y-32.7601
G1 X24.8552 Y-30.5929
G1 X23.8601 Y-30.6372
G1 X23.8601 Y-30.9025
G1 X24.5899 Y-32.7601
G1 Z0.0000 F2500.0
G4 P0.02
G0 X24.0591 Y-31.4111 F15000.0
G1 Z11.9000 F2500.0
G4 P0.02
G1 X22.5997 Y-31.7649 F3500.0
G1 X22.5333 Y-31.5880
G1 X22.8650 Y-30.5266
G1 X23.5505 Y-32.2957
G1 X23.7717 Y-32.6274
G1 X23.6169 Y-32.4062
G1 X23.2409 Y-32.2072
G1 X22.8208 Y-31.8534
G1 X22.5997 Y-31.7649
G1 X22.3785 Y-32.3399
G1 Z0.0000 F2500.0
G4 P0.02
G0 X20.0715 Y-26.7523 F15000.0
G1 Z11.9000 F2500.0
G4 P0.02
G1 X20.7349 Y-25.6909 F12000.0
G1 X19.8504 Y-25.7351
G1 X19.7398 Y-25.8678
G1 X20.5359 Y-27.9022
G1 X21.7300 Y-27.9022
G1 X20.4253 Y-24.8727
G1 X20.2926 Y-24.8064
G1 X19.2975 Y-24.7400
G1 X18.8723 Y-25.7218
G1 X19.9338 Y-28.7955
G1 X18.5849 Y-28.7513
G1 X17.3686 Y-25.5670
G1 X17.3686 Y-25.6996
G1 Z0.0000 F2500.0
G4 P0.02
G0 X13.8592 Y-20.8097 F15000.0
G1 Z11.9000 F2500.0
G4 P0.02
G1 X13.7928 Y-20.7434 F3500.0
G1 X13.2551 Y-20.9524
G1 X12.1274 Y-20.7976
G1 X11.6188 Y-19.8246
G1 X12.8350 Y-22.8763
G1 X13.7859 Y-22.9868
G1 X13.8743 Y-22.5446
G1 X13.3657 Y-21.0851
G1 Z0.0000 F2500.0
G4 P0.02
G0 X11.0653 Y-22.9426 F15000.0
G1 Z11.9000 F2500.0
G4 P0.02
G1 X10.2692 Y-20.6870 F3500.0
G1 X11.2201 Y-20.6870
G1 X11.8835 Y-22.5445
G1 X11.8171 Y-22.9647
G1 X10.2250 Y-22.9647
G1 X9.2962 Y-20.6870
G1 X10.1365 Y-22.8762
G1 X9.4606 Y-22.7485
G1 Z0.0000 F2500.0
G4 P0.02
G0 X9.0626 Y-21.9746 F15000.0
G1 Z11.9000 F2500.0
G4 P0.02
G1 X9.5491 Y-22.9033 F3500.0
G1 X8.3992 Y-23.0360
G1 X8.0232 Y-22.1293
G1 X8.0453 Y-21.9082
G1 X8.9520 Y-21.9082
G1 X8.6203 Y-20.6920
G1 X7.8463 Y-21.7092
G1 X7.4040 Y-20.7141
G1 X7.4040 Y-20.8025
G1 X6.8711 Y-21.1026
G1 X7.4239 Y-22.8717
G1 X7.3134 Y-22.9823 F12000.0
G1 X6.5173 Y-22.8938
G1 X6.2961 Y-22.7169
G1 X5.7433 Y-20.9257
G1 X6.7384 Y-20.9257
G1 X4.8384 Y-20.8910
G1 X4.5951 Y-21.9524
G1 X4.2413 Y-21.8861
G1 X4.5730 Y-21.9746
G1 X5.6566 Y-22.8591
G1 X4.6172 Y-23.0360
G1 X3.6221 Y-20.7141
G1 X2.9567 Y-20.8097
G1 X2.8904 Y-20.7434
G1 X1.8397 Y-21.5504
G1 X3.5645 Y-23.9165
G1 X2.7242 Y-23.8723
G1 X1.5522 Y-20.7100
G1 X1.5522 Y-20.8427
G1 Z0.0000 F2500.0
G4 P0.02
G0 X2.7242 Y-23.8944 F15000.0
G1 Z11.9000 F2500.0
G4 P0.02
G1 X1.9723 Y-23.9828 F3500.0
G1 X2.6190 Y-24.6824
G1 Z0.0000 F2500.0
G4 P0.02
G0 X0.8278 Y-25.6996 F15000.0
G1 Z11.9000 F2500.0
G4 P0.02
G1 X0.8278 Y-25.5670 F12000.0
G1 X2.0440 Y-28.7513
G1 X3.3930 Y-28.7955
G1 X2.3315 Y-25.7218
G1 X1.9335 Y-28.5080
G1 X3.5699 Y-27.0707
G1 X2.6190 Y-24.6824
G1 X2.9286 Y-25.3679
G1 X4.4986 Y-26.3630
G1 X4.7861 Y-27.1812
G1 X4.8967 Y-27.7562
G1 X3.8795 Y-27.8446
G1 X3.7247 Y-27.4908
G1 X6.5331 Y-26.7390
G1 X6.1350 Y-25.8102
G1 X5.1399 Y-25.7660
G1 X5.1620 Y-26.1198
G1 X5.7812 Y-27.7120
G1 X5.8918 Y-27.7562
G1 X6.6215 Y-26.9822
G1 X7.2664 Y-26.7554
G1 Z0.0000 F2500.0
G4 P0.02
G0 X6.6010 Y-27.0040 F15000.0
G1 Z11.9000 F2500.0
G4 P0.02
G1 X7.7272 Y-28.0658 F3500.0
G1 X7.0196 Y-26.0535
G1 X7.0417 Y-25.7439
G1 X8.2800 Y-26.3630
G1 X7.5503 Y-27.5572
G1 X7.7272 Y-27.8225
G1 X8.0810 Y-27.8889
G1 X8.5012 Y-28.7734
G1 X8.2800 Y-28.7955
G1 X7.9483 Y-28.6186
G1 X7.8599 Y-28.3975
G1 X8.1031 Y-27.8889
G1 X8.6560 Y-27.7783
G1 X8.5896 Y-27.2255
G1 X8.3242 Y-26.4736
G1 X8.6338 Y-25.6775
G1 X8.5675 Y-25.6112
G1 Z0.0000 F2500.0
G4 P0.02
G0 X10.7127 Y-30.7006 F15000.0
G1 Z11.9000 F2500.0
G4 P0.02
G1 X10.0452 Y-30.9034 F12000.0
G1 X9.9346 Y-30.7043
G1 X8.8068 Y-30.6601
G1 X9.4039 Y-32.4955
G1 X10.5759 Y-32.7167
G1 X10.0673 Y-30.9476
G1 X10.0230 Y-30.5717
G1 X7.9391 Y-30.6823
G1 X6.8113 Y-30.5275
G1 X6.5017 Y-29.9968
G1 X6.5459 Y-30.0853
G1 X8.0496 Y-30.8150
G1 X8.5583 Y-32.2745
G1 X8.4698 Y-32.7168
G1 X7.5189 Y-32.6062
G1 X6.3027 Y-29.5545
G1 X6.2019 Y-31.1321
G1 X6.1134 Y-30.8225
G1 X6.2461 Y-31.6186
G1 X5.6711 Y-32.4589
G1 X5.8259 Y-32.5473
G1 X6.6220 Y-32.6137
G1 X6.5336 Y-31.9945
G1 X6.3124 Y-31.7070
G1 X5.7596 Y-31.6628
G1 X5.9586 Y-30.6898
G1 Z0.0000 F2500.0
G4 P0.02
G0 X6.1134 Y-30.8225 F15000.0
G1 Z11.9000 F2500.0
G4 P0.02
G1 X5.9586 Y-30.6898 F12000.0
G1 X5.5385 Y-30.5571
G1 X5.1183 Y-30.6677
G1 X5.0962 Y-30.7783
G1 X4.4367 Y-30.5717
G1 X4.4809 Y-30.9476
G1 X4.9895 Y-32.7167
G1 X3.8175 Y-32.4955
G1 X3.2204 Y-30.6601
G1 X4.3482 Y-30.7043
G1 X4.4588 Y-30.9034
G1 X3.1939 Y-33.5499
G1 X3.2160 Y-32.9971
G1 X2.9728 Y-32.3558
G1 X1.7566 Y-32.9086
G1 X1.7123 Y-32.7759
G1 X2.6190 Y-32.1125
G1 X1.4912 Y-31.9799
G1 X0.8278 Y-30.4319
G1 X2.0219 Y-33.6163
G1 X3.1055 Y-33.6384
G1 Z0.0000 F2500.0
G4 P0.02
G0 X1.0047 Y-30.9626 F15000.0
G1 Z11.9000 F2500.0
G4 P0.02
G1 X0.9826 Y-30.8963 F3500.0
G1 Z0.0000 F2500.0
G4 P0.02
G0 X0.0000 Y-29.7506 F15000.0
G1 Z11.9000 F2500.0
G4 P0.02
G1 X63.2677 Y-29.7506 F12000.0
G1 Z0.0000 F2500.0
G4 P0.02
G0 X63.2677 Y-24.8078 F15000.0
G1 Z11.9000 F2500.0
G4 P0.02
G1 X0.0000 Y-24.8078 F12000.0
G1 Z0.0000 F2500.0
G4 P0.02
G0 X11.7179 Y-30.6832 F15000.0
G1 Z11.9000 F2500.0
G4 P0.02
G1 X10.7007 Y-30.6611 F3500.0
G1 X11.2314 Y-32.4081
G1 X11.3862 Y-32.5850
G1 X12.1602 Y-32.7398
G1 X12.3149 Y-32.6955
G1 X12.4034 Y-32.3859
G1 X11.8285 Y-30.8159
G1 X12.2611 Y-30.4733
G1 X12.3274 Y-30.5396
G1 Z0.0000 F2500.0
G4 P0.02
G0 X12.2044 Y-32.7840 F15000.0
G1 Z11.9000 F2500.0
G4 P0.02
G1 X11.8285 Y-33.6464 F12000.0
G1 X12.9784 Y-33.6464
G1 X14.5200 Y-35.3491
G1 X15.0950 Y-37.1403
G1 X15.1392 Y-37.4720
G1 X13.7239 Y-37.5605
G1 X15.0508 Y-37.5605
G1 X14.4316 Y-37.5384
G1 X13.7018 Y-35.3491
G1 X12.8836 Y-35.3491
G1 X13.6355 Y-37.4720
G1 X13.0827 Y-37.5384
G1 X11.9991 Y-37.3393
G1 X11.5347 Y-35.7914
G1 X11.5347 Y-35.4818
G1 X12.4193 Y-35.3712
G1 X10.9262 Y-35.8963
G1 Z0.0000 F2500.0
G4 P0.02
G0 X11.5347 Y-35.6145 F15000.0
G1 Z11.9000 F2500.0
G4 P0.02
G1 X10.8271 Y-35.6145 F12000.0
G1 X11.5347 Y-37.6268
G1 X10.5175 Y-37.6268
G1 X9.8983 Y-35.4818
G1 X10.7386 Y-35.4597
G1 X9.1022 Y-35.3934
G1 X10.0310 Y-38.2902
G1 X9.6551 Y-38.5335
G1 X9.2570 Y-38.0470
G1 X7.6649 Y-35.4376
G1 X6.0356 Y-35.5309
G1 X5.9250 Y-35.3983
G1 X5.4606 Y-35.4646
G1 X5.9471 Y-37.1673
G1 X6.1904 Y-37.6096
G1 X5.9250 Y-37.1895
G1 X5.1068 Y-36.4597
G1 X5.1511 Y-36.6366
G1 X5.3059 Y-36.7030
G1 X5.1289 Y-36.7030
G1 X4.9963 Y-37.1895
G1 X4.8599 Y-37.2419
G1 Z0.0000 F2500.0
G4 P0.02
G0 X0.0000 Y-39.4714 F15000.0
G1 Z11.9000 F2500.0
G4 P0.02
G1 X63.2677 Y-39.4714 F12000.0
G1 Z0.0000 F2500.0
G4 P0.02
G0 X59.5135 Y-37.5384 F15000.0
G1 Z11.9000 F2500.0
G4 P0.02
G1 X58.8059 Y-37.5605 F3500.0
G1 X60.4644 Y-35.5260
G1 X60.9509 Y-37.3393
G1 X61.9460 Y-37.5826
G1 X61.9018 Y-37.1403
G1 X61.4595 Y-35.3712
G1 X61.4816 Y-35.6808
G1 X61.4374 Y-35.5481
G1 X60.5528 Y-35.4376
G1 X59.7037 Y-35.7206
G1 Z0.0000 F2500.0
G4 P0.02
G0 X79.6383 Y-27.5280 F15000.0
G1 Z11.9000 F2500.0
G4 P0.02
G1 X82.8005 Y-35.6657 F12000.0
G1 X83.2427 Y-35.5994
G1 X83.0216 Y-35.7984
G1 X83.0437 Y-36.4397
G1 X84.1052 Y-32.4150
G1 X84.5917 Y-32.5698
G1 X84.1052 Y-32.3929
G1 X84.0167 Y-32.0170
G1 X88.7048 Y-36.7493
G1 X88.3288 Y-36.1522
G1 X87.5106 Y-35.4888
G1 X88.0192 Y-35.6657
G1 X88.1740 Y-35.8868
G1 X88.0414 Y-35.6657
G1 X87.7760 Y-34.4495
G1 X85.9185 Y-29.2970
G1 X85.9406 Y-29.3634
G1 X85.7416 Y-28.8105
G1 Z0.0000 F2500.0
G4 P0.02
G0 X85.9185 Y-29.2970 F15000.0
G1 Z11.9000 F2500.0
G4 P0.02
G1 X85.2993 Y-27.6606 F3500.0
G1 X87.8500 Y-28.6409
G1 X87.8279 Y-27.9554
G1 X87.9827 Y-27.7564
G1 X90.7736 Y-27.5685
G1 Z0.0000 F2500.0
G4 P0.02
G0 X87.8500 Y-28.6409 F15000.0
G1 Z11.9000 F2500.0
G4 P0.02
G1 X89.7739 Y-33.7933 F3500.0
G1 Z0.0000 F2500.0
G4 P0.02
G0 X92.4054 Y-31.6262 F15000.0
G1 Z11.9000 F2500.0
G4 P0.02
G1 X90.7690 Y-27.5574 F3500.0
G1 X90.6584 Y-26.8940
G1 X90.0172 Y-25.3902
G1 X89.5085 Y-24.9922
G1 X86.7665 Y-24.7047
G1 Z0.0000 F2500.0
G4 P0.02
G0 X94.6072 Y-24.8702 F15000.0
G1 Z11.9000 F2500.0
G4 P0.02
G1 X95.2264 Y-26.4623 F12000.0
G1 X95.4696 Y-27.5680
G1 X94.0544 Y-27.6786
G1 X93.5679 Y-28.0545
G1 X93.4352 Y-28.3862
G1 X94.0323 Y-30.8629
G1 X93.2457 Y-33.7933
G1 X92.4054 Y-31.6262
G1 Z0.0000 F2500.0
G4 P0.02
G0 X93.9375 Y-31.2161 F15000.0
G1 Z11.9000 F2500.0
G4 P0.02
G1 X94.1871 Y-31.2831 F12000.0
G1 X94.7178 Y-32.5214
G1 X95.5139 Y-33.3617
G1 X96.2878 Y-33.7155
G1 X98.0348 Y-33.8482
G1 X98.3444 Y-35.0202
G1 X98.2338 Y-34.7107
G1 X99.5827 Y-33.6713
G1 X98.0348 Y-33.8482
G1 X97.7694 Y-33.8040
G1 X97.5483 Y-32.8531
G1 X96.0888 Y-28.8727
G1 X96.1994 Y-29.1823
G1 X95.7129 Y-27.5680
G1 X95.5139 Y-27.5680
G1 X97.4820 Y-27.7449
G1 X98.0127 Y-28.0324
G1 X98.6761 Y-28.6737
G1 X99.0741 Y-29.4255
G1 X99.8481 Y-31.5263
G1 X100.0471 Y-32.1676 F3500.0
G1 X99.9808 Y-33.2954
G1 X99.5827 Y-33.6713
G1 Z0.0000 F2500.0
G4 P0.02
G0 X100.7965 Y-28.2173 F15000.0
G1 Z11.9000 F2500.0
G4 P0.02
G1 X100.4206 Y-27.4654 F12000.0
G1 X101.0177 Y-28.8144
G1 X102.7867 Y-33.6130
G1 X102.8973 Y-33.7456
G1 X105.4625 Y-33.8341
G1 X107.8507 Y-33.6351
G1 X108.0276 Y-33.3918
G1 X107.5190 Y-31.4459
G1 X106.2585 Y-27.9740
G1 Z0.0000 F2500.0
G4 P0.02
G0 X108.6490 Y-27.9962 F15000.0
G1 Z11.9000 F2500.0
G4 P0.02
G1 X110.4623 Y-33.2149 F12000.0
G1 X110.8825 Y-33.5687
G1 X112.0324 Y-33.8120
G1 X113.8899 Y-33.8341
G1 X112.0766 Y-28.0404
G1 X111.3468 Y-27.7308
G1 X108.8923 Y-27.6866
G1 Z0.0000 F2500.0
G4 P0.02
G0 X112.0766 Y-28.0404 F15000.0
G1 Z11.9000 F2500.0
G4 P0.02
G1 X112.3641 Y-27.6423 F3500.0
G1 X112.5189 Y-27.6202
G1 X112.0766 Y-28.0404
G1 Z0.0000 F2500.0
G4 P0.02
G0 X110.3082 Y-32.7715 F15000.0
G1 Z11.9000 F2500.0
G4 P0.02
G1 X110.2633 Y-32.8611 F3500.0
G1 X110.6897 Y-33.4065
G1 Z0.0000 F2500.0
G4 P0.02
G0 X105.4862 Y-33.8321 F15000.0
G1 Z11.9000 F2500.0
G4 P0.02
G1 X104.6885 Y-31.2689 F3500.0
G1 X103.9366 Y-29.1903
G1 X103.2069 Y-27.4654
G1 X103.6049 Y-28.2836
G1 Z0.0000 F2500.0
G4 P0.02
G0 X103.2328 Y-15.8382 F15000.0
G1 Z11.9000 F2500.0
G4 P0.02
G1 X101.9228 Y-15.9020 F12000.0
G1 X100.5739 Y-15.7030
G1 X100.0211 Y-15.2607
G1 X99.6230 Y-14.5089
G1 X97.1021 Y-15.7030
G1 X98.2299 Y-15.7693
G1 X98.4068 Y-15.6588
G1 X98.5837 Y-15.3492
G1 X98.0530 Y-12.7840
G1 X97.1905 Y-10.1746
G1 X96.9915 Y-9.9314
G1 X96.4608 Y-9.5776
G1 X95.5763 Y-9.5333
G1 X95.2446 Y-9.6881
G1 X95.0898 Y-10.8601
G1 X96.3723 Y-15.0175
G1 X96.7483 Y-15.4819
G1 X95.3994 Y-15.9020
G1 Z0.0000 F2500.0
G4 P0.02
G0 X96.4197 Y-15.0760 F15000.0
G1 Z11.9000 F2500.0
G4 P0.02
G1 X95.3994 Y-15.9020 F3500.0
G1 X93.4976 Y-15.7251
G1 X91.5958 Y-9.4449
G1 Z0.0000 F2500.0
G4 P0.02
G0 X88.1205 Y-9.9559 F15000.0
G1 Z11.9000 F2500.0
G4 P0.02
G1 X87.5898 Y-9.5800 F3500.0
G1 X86.5062 Y-9.5800
G1 X86.3736 Y-9.6906
G1 X86.2188 Y-10.8626
G1 X86.7053 Y-12.5211
G1 X86.0419 Y-14.2238
G1 X86.4620 Y-15.6833
G1 X86.2851 Y-15.3958
G1 X85.9976 Y-14.0690
G1 X85.2679 Y-11.5481
G1 X85.2887 Y-11.6590
G1 Z0.0000 F2500.0
G4 P0.02
G0 X86.6272 Y-12.7216 F15000.0
G1 Z11.9000 F2500.0
G4 P0.02
G1 X86.7937 Y-12.7865 F12000.0
G1 X87.5677 Y-15.1084
G1 X89.0935 Y-12.5211
G1 X88.3417 Y-10.2213
G1 X88.1205 Y-9.9559
G1 X88.6070 Y-10.8626
G1 X88.5628 Y-10.7078
G1 X89.6464 Y-14.4007
G1 X89.7569 Y-15.1747
G1 X89.4473 Y-15.7275
G1 X88.2311 Y-15.7054
G1 X86.5505 Y-15.8602
G1 X86.2630 Y-15.3958
G1 X85.9092 Y-15.2632
G1 X84.8920 Y-14.3344
G1 X84.9804 Y-14.4450
G1 X85.6217 Y-12.8086
G1 X84.6929 Y-9.6021
G1 X84.5824 Y-9.4252
G1 Z0.0000 F2500.0
G4 P0.02
G0 X80.1711 Y-10.1820 F15000.0
G1 Z11.9000 F2500.0
G4 P0.02
G1 X80.1278 Y-10.1056 F3500.0
G1 Z0.0000 F2500.0
G4 P0.02
G0 X76.9697 Y-9.6125 F15000.0
G1 Z11.9000 F2500.0
G4 P0.02
G1 X77.7879 Y-12.4430 F3500.0
G1 X76.8149 Y-13.3939
G1 X74.9353 Y-9.4577
G1 Z0.0000 F2500.0
G4 P0.02
G0 X74.0009 Y-9.7730 F15000.0
G1 Z11.9000 F2500.0
G4 P0.02
G1 X74.1541 Y-9.5904 F3500.0
G1 X74.3974 Y-11.2489
G1 X75.8419 Y-11.3595
G1 Z0.0000 F2500.0
G4 P0.02
G0 X77.5362 Y-12.6890 F15000.0
G1 Z11.9000 F2500.0
G4 P0.02
G1 X78.0090 Y-13.1728 F12000.0
G1 X78.0975 Y-13.4823
G1 X78.0754 Y-13.8804
G1 X77.1909 Y-13.8583
G1 X77.6773 Y-12.0229
G1 X78.0754 Y-13.4381
G1 X78.4646 Y-10.9013
G1 X78.3541 Y-10.5254
G1 X79.8136 Y-9.6187
G1 X78.6194 Y-11.3878
G1 X78.6416 Y-11.4984
G1 X79.9020 Y-9.7072
G1 X80.2779 Y-10.3706
G1 X80.4549 Y-11.3657
G1 X80.3001 Y-11.6089
G1 X78.8406 Y-11.6974
G1 X79.3492 Y-13.9087
G1 Z0.0000 F2500.0
G4 P0.02
G0 X73.3580 Y-13.7035 F15000.0
G1 Z11.9000 F2500.0
G4 P0.02
G1 X73.6897 Y-13.8362 F12000.0
G1 X74.9502 Y-13.2170
G1 X73.9993 Y-9.7673
G1 X73.6455 Y-9.6346
G1 X72.1418 Y-9.7010
G1 X72.0976 Y-10.2096
G1 X73.0706 Y-13.3939
G1 X70.5194 Y-13.8583
G1 X69.2590 Y-9.4577
G1 X70.8290 Y-9.4577
G1 X71.7357 Y-12.4430
G1 X71.8462 Y-13.7477
G1 X70.4973 Y-13.8804
G1 X69.0157 Y-13.7698
G1 X67.6889 Y-9.4356
G1 Z0.0000 F2500.0
G4 P0.02
G0 X63.2677 Y-5.3662 F15000.0
G1 Z11.9000 F2500.0
G4 P0.02
G1 X63.2677 Y-58.9131 F12000.0
G1 Z0.0000 F2500.0
G4 P0.02
G0 X53.5469 Y-58.9131 F15000.0
G1 Z11.9000 F2500.0
G4 P0.02
G1 X53.5469 Y-5.3662 F12000.0
G1 Z0.0000 F2500.0
G4 P0.02
G0 X38.9657 Y-5.3662 F15000.0
G1 Z11.9000 F2500.0
G4 P0.02
G1 X38.9657 Y-58.9131 F12000.0
G1 Z0.0000 F2500.0
G4 P0.02
G0 X34.9977 Y-37.2067 F15000.0
G1 Z11.9000 F2500.0
G4 P0.02
G1 X34.3343 Y-35.3934 F3500.0
G1 X33.9805 Y-36.4548
G1 X34.0468 Y-36.6317
G1 Z0.0000 F2500.0
G4 P0.02
G0 X31.8181 Y-37.2016 F15000.0
G1 Z11.9000 F2500.0
G4 P0.02
G1 X31.1499 Y-37.4720 F3500.0
G1 X30.0664 Y-36.5875
G1 X29.7126 Y-36.4769
G1 X29.1155 Y-35.3049
G1 Z0.0000 F2500.0
G4 P0.02
G0 X16.5584 Y-58.9131 F15000.0
G1 Z11.9000 F2500.0
G4 P0.02
G1 X16.5584 Y-5.3662 F12000.0
G1 Z0.0000 F2500.0
G4 P0.02
G0 X97.3726 Y-10.7256 F15000.0
G1 Z11.9000 F2500.0
G4 P0.02
G1 X97.4338 Y-10.7054 F3500.0
G1 X97.4780 Y-10.8601
G1 X97.4231 Y-10.8783
G1 Z0.0000 F2500.0
G4 P0.02
G0 X100.1775 Y-15.3858 F15000.0
G1 Z11.9000 F2500.0
G4 P0.02
G1 X99.5346 Y-14.2435 F12000.0
G1 X99.3577 Y-13.6022
G1 X99.4240 Y-13.8676
G1 X98.4731 Y-10.5284
G1 X98.5616 Y-9.8429
G1 X98.9154 Y-9.5555
G1 X102.4146 Y-9.5580
G1 X104.2058 Y-15.8161
G1 X105.3999 Y-15.9046
G1 X103.2328 Y-15.8382
G1 Z0.0000 F2500.0
G4 P0.02
G0 X109.1662 Y-12.8086 F15000.0
G1 Z11.9000 F2500.0
G4 P0.02
G1 X110.3322 Y-12.7840 F12000.0
G1 X110.8850 Y-14.6194
G1 X111.3715 Y-15.4155
G1 X111.6369 Y-15.6366
G1 X112.8974 Y-15.7693
G1 X113.0743 Y-15.6588
G1 X113.2512 Y-15.3492
G1 X112.7205 Y-12.7840
G1 X111.7917 Y-10.0862
G1 X111.0620 Y-9.5555
G1 X109.8457 Y-9.7766
G1 X109.7573 Y-10.8601
G1 X110.2438 Y-12.5187
G1 X109.5863 Y-14.2238
G1 X110.0065 Y-15.6833
G1 X109.8296 Y-15.3958
G1 X109.5421 Y-14.0690
G1 X108.8124 Y-11.5481
G1 X108.8332 Y-11.6590
G1 Z0.0000 F2500.0
G4 P0.02
G0 X108.1269 Y-9.4252 F15000.0
G1 Z11.9000 F2500.0
G4 P0.02
G1 X108.2374 Y-9.6021 F3500.0
G1 X109.1662 Y-12.8086
G1 X108.5249 Y-14.4450
G1 X108.4364 Y-14.3344
G1 X109.4537 Y-15.2632
G1 X109.8075 Y-15.3958
G1 X110.0949 Y-15.8602
G1 X110.0065 Y-15.6833
G1 Z0.0000 F2500.0
G4 P0.02
G0 X112.0674 Y-10.8870 F15000.0
G1 Z11.9000 F2500.0
G4 P0.02
G1 X112.1455 Y-10.8601 F3500.0
G1 X112.1013 Y-10.7054
G1 X112.9574 Y-9.4891
G1 X114.4169 Y-9.7102
G1 X114.9476 Y-10.2631
G1 X115.2793 Y-11.1918
G1 X115.3899 Y-12.5408
G1 X115.0803 Y-12.8282
G1 X114.6380 Y-15.5924
G1 X114.7043 Y-15.7472
G1 X116.5840 Y-15.9020
G1 X117.7502 Y-15.1893
G1 Z0.0000 F2500.0
G4 P0.02
G0 X115.3899 Y-12.5408 F15000.0
G1 Z11.9000 F2500.0
G4 P0.02
G1 X116.7606 Y-12.5187 F12000.0
G1 X116.2741 Y-10.8601
G1 X116.3626 Y-9.7766
G1 X117.5788 Y-9.5555
G1 X118.3085 Y-10.0862
G1 X119.2373 Y-12.7840
G1 X119.7680 Y-15.3492
G1 X119.5911 Y-15.6588
G1 X119.4142 Y-15.7693
G1 X118.1537 Y-15.6366
G1 X117.8884 Y-15.4155
G1 X117.4019 Y-14.6194
G1 X116.8490 Y-12.7840
G1 X118.6623 Y-10.8601
G1 X118.6181 Y-10.7054
G1 X119.7983 Y-11.6144
G1 X122.0760 Y-11.7470
G1 X122.9236 Y-11.2361
G1 X122.8794 Y-9.7766 F12000.0
G1 X124.0956 Y-9.5555
G1 X124.5821 Y-9.8208
G1 X124.8696 Y-10.1525
G1 X125.1350 Y-10.7496
G1 X125.3782 Y-12.5629
G1 X123.4322 Y-12.3196
G1 X123.1669 Y-11.9216
G1 X123.6976 Y-12.6071
G1 X123.9851 Y-12.7840
G1 X125.0907 Y-12.8946
G1 X125.5993 Y-13.4695
G1 X124.1177 Y-12.9609
G1 X123.9187 Y-13.5359
G1 X123.9408 Y-13.9781
G1 X124.3389 Y-15.1059
G1 X124.7590 Y-15.5482
G1 X125.7984 Y-15.7472
G1 X126.1301 Y-15.2165
G1 X125.7762 Y-13.7570
G1 X125.2676 Y-13.1599
G1 X125.2013 Y-12.7840
G1 X125.1128 Y-12.8946
G1 X124.8917 Y-15.6588
G1 X124.8254 Y-15.5924
G1 Z0.0000 F2500.0
G4 P0.02
G0 X128.2640 Y-15.5924 F15000.0
G1 Z11.9000 F2500.0
G4 P0.02
G1 X128.3303 Y-15.6588 F12000.0
G1 X128.5515 Y-12.8946
G1 X128.6399 Y-12.7840
G1 X128.7063 Y-13.1599
G1 X129.2149 Y-13.7570
G1 X129.5687 Y-15.2165
G1 X129.2370 Y-15.7472
G1 X128.1976 Y-15.5482
G1 X127.7775 Y-15.1059
G1 X127.3794 Y-13.9781
G1 X127.3573 Y-13.5359
G1 X127.5564 Y-12.9609
G1 X129.0380 Y-13.4695
G1 X128.5293 Y-12.8946
G1 X127.4237 Y-12.7840
G1 X127.1362 Y-12.6071
G1 X126.6055 Y-11.9216
G1 X126.3622 Y-11.2361
G1 X126.3180 Y-9.7766
G1 X127.5342 Y-9.5555
G1 X128.0207 Y-9.8208
G1 X128.3082 Y-10.1525
G1 X128.5736 Y-10.7496
G1 X128.8168 Y-12.5629
G1 Z0.0000 F2500.0
G4 P0.02
G0 X128.1433 Y-9.9623 F15000.0
G1 Z11.9000 F2500.0
G4 P0.02
G1 X128.1025 Y-9.9151 F3500.0
G1 Z0.0000 F2500.0
G4 P0.02
G0 X124.7047 Y-9.9623 F15000.0
G1 Z11.9000 F2500.0
G4 P0.02
G1 X124.6638 Y-9.9151 F3500.0
G1 Z0.0000 F2500.0
G4 P0.02
G0 X131.3959 Y-5.3662 F15000.0
G1 Z11.9000 F2500.0
G4 P0.02
G1 X131.3959 Y-44.3318 F12000.0
G1 Z0.0000 F2500.0
G4 P0.02
G0 X131.3959 Y-39.4714 F15000.0
G1 Z11.9000 F2500.0
G4 P0.02
G1 X145.9771 Y-39.4714 F12000.0
G1 X180.0000 Y-39.4714 F12000.0
G1 Z0.0000 F2500.0
G4 P0.02
G0 X172.8428 Y-41.6359 F15000.0
G1 Z11.9000 F2500.0
G4 P0.02
G1 X172.2709 Y-41.8545 F3500.0
G1 Z0.0000 F2500.0
G4 P0.02
G0 X171.7844 Y-40.6604 F15000.0
G1 Z11.9000 F2500.0
G4 P0.02
G1 X171.8287 Y-40.7931 F12000.0
G1 X171.3643 Y-41.9430
G1 X171.4085 Y-42.0756
G1 X172.5363 Y-42.4958
G1 X171.6075 Y-40.3066
G1 X170.7672 Y-40.3066
G1 X170.4576 Y-41.9651
G1 X170.5019 Y-42.1199
G1 X171.5854 Y-42.4958
G1 X170.7230 Y-40.3066
G1 X169.9269 Y-40.3729
G1 X170.6567 Y-42.4958
G1 X168.6471 Y-42.2621
G1 X168.1385 Y-40.9132
G1 X169.1557 Y-40.2277
G1 X168.0943 Y-40.8026
G1 X167.3453 Y-40.3015
G1 X167.2674 Y-40.4672
G1 Z0.0000 F2500.0
G4 P0.02
G0 X167.3010 Y-40.4563 F15000.0
G1 Z11.9000 F2500.0
G4 P0.02
G1 X166.2838 Y-41.0534 F12000.0
G1 X167.0136 Y-40.3458
G1 X167.2568 Y-40.4342
G1 X167.8981 Y-42.4244
G1 X166.9693 Y-42.3802
G1 X166.7482 Y-42.2475
G1 X166.3059 Y-41.0976
G1 X165.8024 Y-42.7445
G1 X166.3110 Y-43.1204
G1 X165.2717 Y-40.3120
G1 X164.8073 Y-41.8158
G1 X164.8515 Y-41.9927
G1 X165.5813 Y-42.5455
G1 X165.0505 Y-42.0590
G1 X164.8515 Y-42.0369
G1 X164.6083 Y-42.9878
G1 X163.9227 Y-41.7052
G1 X164.6304 Y-43.4743
G1 X164.5861 Y-43.0099
G1 X164.4314 Y-42.9435
G1 X163.3257 Y-40.1572
G1 Z0.0000 F2500.0
G4 P0.02
G0 X138.0206 Y-48.4529 F15000.0
G1 Z11.9000 F2500.0
G4 P0.02
G1 X140.5857 Y-48.4529 F3500.0
G1 X138.7945 Y-49.4702
G1 X142.1337 Y-52.8093
G1 X142.3769 Y-53.2516
G1 X142.3990 Y-54.2024
G1 X142.2000 Y-54.4457
G1 X140.9395 Y-54.6447
G1 X140.3204 Y-54.3351
G1 X139.7233 Y-53.7823
G1 X138.1532 Y-53.4948
G1 X138.1276 Y-53.4379
G1 Z0.0000 F2500.0
G4 P0.02
G0 X136.6495 Y-49.4259 F15000.0
G1 Z11.9000 F2500.0
G4 P0.02
G1 X138.1532 Y-48.8289 F3500.0
G1 X138.0206 Y-48.4529
G1 X137.7331 Y-48.3424
G1 X136.4726 Y-49.1163 F12000.0
G1 X136.0746 Y-48.7404
G1 X135.7429 Y-48.5635
G1 X134.1507 Y-48.5193
G1 X136.6495 Y-49.4259
G1 X138.1975 Y-53.6275
G1 X138.1975 Y-54.2467
G1 X138.1311 Y-54.4236
G1 X137.7110 Y-54.7110
G1 X136.5611 Y-54.6889
G1 X135.9198 Y-54.4015
G1 X135.4554 Y-53.9371
G1 X133.8411 Y-49.6913
G1 X133.8853 Y-48.7625
G1 X131.9250 Y-48.3866
G1 X131.9692 Y-48.4308
G1 X131.3058 Y-50.0009
G1 X130.8857 Y-49.1385
G1 X130.9084 Y-49.1925
G1 Z0.0000 F2500.0
G4 P0.02
G0 X126.3524 Y-48.4529 F15000.0
G1 Z11.9000 F2500.0
G4 P0.02
G1 X123.7872 Y-48.4308 F3500.0
G1 Z0.0000 F2500.0
G4 P0.02
G0 X124.5391 Y-49.4702 F15000.0
G1 Z11.9000 F2500.0
G4 P0.02
G1 X123.7651 Y-48.4308 F3500.0
G1 X123.4998 Y-48.3424
G1 X122.1575 Y-48.5787
G1 Z0.0000 F2500.0
G4 P0.02
G0 X121.0534 Y-49.1827 F15000.0
G1 Z11.9000 F2500.0
G4 P0.02
G1 X122.1575 Y-48.5787 F3500.0
G1 X122.0911 Y-48.5123
G1 X121.0534 Y-49.1827
G1 Z0.0000 F2500.0
G4 P0.02
G0 X120.4342 Y-48.6520 F15000.0
G1 Z11.9000 F2500.0
G4 P0.02
G1 X120.1025 Y-48.4972 F12000.0
G1 X118.2892 Y-48.2982
G1 X120.7217 Y-48.8289
G1 X121.0534 Y-49.1827
G1 X121.6505 Y-50.6201
G1 X121.5841 Y-51.5046
G1 X121.3188 Y-51.8142
G1 X120.6996 Y-51.7921
G1 X122.0706 Y-52.6324
G1 X122.3581 Y-53.2737
G1 X122.5129 Y-54.2024
G1 X122.3802 Y-54.4678
G1 X122.2033 Y-54.6226
G1 X120.7217 Y-54.7110
G1 X121.8053 Y-52.3449
G1 X121.5399 Y-52.1238
G1 Z0.0000 F2500.0
G4 P0.02
G0 X125.4900 Y-53.7823 F15000.0
G1 Z11.9000 F2500.0
G4 P0.02
G1 X126.2640 Y-54.4678 F3500.0
G1 X126.7062 Y-54.6447
G1 X127.7456 Y-54.6226
G1 X127.9225 Y-54.4899
G1 Z0.0000 F2500.0
G4 P0.02
G0 X130.8193 Y-54.0698 F15000.0
G1 Z11.9000 F2500.0
G4 P0.02
G1 X130.0675 Y-53.4285 F12000.0
G1 X129.1829 Y-51.8363
G1 X131.4827 Y-51.4825
G1 X131.5491 Y-51.3056
G1 X131.4385 Y-50.3547
G1 X130.8635 Y-49.0942
G1 X130.4655 Y-48.7183
G1 X129.9790 Y-48.4972
G1 X128.5637 Y-48.5193
G1 X128.2984 Y-48.7625
G1 X128.2542 Y-49.6913
G1 X129.2493 Y-52.2565
G1 X129.8463 Y-53.1631
G1 X128.2099 Y-54.0698
G1 X127.9225 Y-54.4899
G1 X128.1215 Y-54.2909
G1 X128.2320 Y-54.0255
G1 X128.1878 Y-53.3842
G1 X127.9667 Y-52.8977
G1 X125.7332 Y-50.6643
G1 X125.8438 Y-50.7749
G1 Z0.0000 F2500.0
G4 P0.02
G0 X130.8193 Y-54.0698 F15000.0
G1 Z11.9000 F2500.0
G4 P0.02
G1 X132.0134 Y-54.7553 F3500.0
G1 Z0.0000 F2500.0
G4 P0.02
G0 X118.2892 Y-48.2982 F15000.0
G1 Z11.9000 F2500.0
G4 P0.02
G1 X117.1906 Y-49.1163 F12000.0
G1 X116.7925 Y-48.7404
G1 X116.4608 Y-48.5635
G1 X114.8687 Y-48.5193
G1 X117.3675 Y-49.4259
G1 X118.9154 Y-53.6275
G1 X118.9154 Y-54.2467
G1 X118.8712 Y-53.4285
G1 X118.8491 Y-54.4236
G1 X118.4289 Y-54.7110
G1 X117.2790 Y-54.6889
G1 X116.6377 Y-54.4015
G1 X116.1734 Y-53.9371
G1 X114.5591 Y-49.6913
G1 X114.6033 Y-48.7625
G1 X112.7204 Y-48.5123
G1 X112.7868 Y-48.5787
G1 Z0.0000 F2500.0
G4 P0.02
G0 X109.2312 Y-48.9837 F15000.0
G1 Z11.9000 F2500.0
G4 P0.02
G1 X108.8867 Y-51.8892 F3500.0
G1 X109.9924 Y-54.7197
G1 Z0.0000 F2500.0
G4 P0.02
G0 X109.6828 Y-53.9457 F15000.0
G1 Z11.9000 F2500.0
G4 P0.02
G1 X107.0071 Y-54.6534 F3500.0
G1 X105.5255 Y-50.6287
G1 X105.6360 Y-50.9383
G1 X104.6409 Y-48.3510
G1 X103.3013 Y-48.5943 F12000.0
G1 X102.9475 Y-52.0882
G1 X101.9524 Y-52.6631
G1 X102.6821 Y-54.6533
G1 X105.6896 Y-54.7860
G1 X103.1686 Y-52.5304
G1 X102.9254 Y-52.0882
G1 X102.4389 Y-51.8892
G1 X101.5322 Y-51.2700
G1 X100.3160 Y-48.3510
G1 Z0.0000 F2500.0
G4 P0.02
G0 X101.4880 Y-51.1815 F15000.0
G1 Z11.9000 F2500.0
G4 P0.02
G1 X101.7976 Y-52.2430 F3500.0
G1 Z0.0000 F2500.0
G4 P0.02
G0 X105.9001 Y-51.6464 F15000.0
G1 Z11.9000 F2500.0
G4 P0.02
G1 X105.8572 Y-51.5133 F3500.0
G1 X106.1004 Y-51.8229
G1 X108.7762 Y-51.8229
G1 X107.5820 Y-48.3510
G1 X109.0101 Y-48.3866
G1 X111.3099 Y-54.6005 F3500.0
G1 X113.7644 Y-54.8216
G1 Z0.0000 F2500.0
G4 P0.02
G0 X114.8389 Y-10.1498 F15000.0
G1 Z11.9000 F2500.0
G4 P0.02
G1 X114.7956 Y-10.1047 F3500.0
G1 Z0.0000 F2500.0
G4 P0.02

G0 Z0.0000 F800.0
G4 P0.06
G0 X0.0000 Y0.0000 F15000.0
M5
G4 P0.10
$1=0
