$X
$1=255
G21
G90
G92 Z4.0000
G0 Z0.0000 F800.0
G4 P0.06
G92 Z0.0000
G0 Z0.0000 F800.0
G0 X0.0000 Y0.0000 F15000.0
G21
G90
G17
G91.1
G0 Z0.0000
G0 X0.0000 Y-5.0000 F15000.0
G1 Z11.9000 F8000.0
G1 X180.0000 Y-5.0000 F12000.0
G1 X180.0000 Y-285.0000
G1 X0.0000 Y-285.0000
G1 X0.0000 Y-5.0000
G1 Z0.0000 F8000.0
G0 X82.2151 Y-202.2540 F15000.0
G1 Z11.9000 F8000.0
G1 X91.9359 Y-202.2540 F12000.0
G1 Z0.0000 F8000.0
G0 X82.2151 Y-202.2540 F15000.0
G1 Z11.9000 F8000.0
G1 X82.2151 Y-175.9748 F12000.0
G1 X82.2151 Y-99.3616 F12000.0
G1 Z0.0000 F8000.0
G0 X82.2151 Y-101.2563 F15000.0
G1 Z11.9000 F8000.0
G1 X87.0755 Y-101.9153 F12000.0
G1 X86.5812 Y-101.2563 F12000.0
G1 X87.0755 Y-100.5973 F12000.0
G1 X82.2151 Y-101.2563 F12000.0
G1 X107.5057 Y-101.2563 F12000.0
G1 X102.6453 Y-100.5973 F12000.0
G1 X103.1396 Y-101.2563 F12000.0
G1 X102.6453 Y-101.9153 F12000.0
G1 X107.5057 Y-101.2563 F12000.0
G1 Z0.0000 F8000.0
G0 X107.5057 Y-99.3616 F15000.0
G1 Z11.9000 F8000.0
G1 X107.5057 Y-175.9748 F12000.0
G1 X107.5057 Y-227.5446 F12000.0
G1 X91.9359 Y-227.5446 F12000.0
G1 X91.9359 Y-175.9748 F12000.0
G1 Z0.0000 F8000.0
G0 X92.6773 Y-175.9748 F15000.0
G1 Z11.9000 F8000.0
G1 X80.5675 Y-175.9748 F12000.0
G1 Z0.0000 F8000.0
G0 X76.9428 Y-173.0091 F15000.0
G1 Z11.9000 F8000.0
G1 X76.3661 Y-168.1487 F12000.0
G1 X75.7071 Y-173.0091 F12000.0
G1 Z0.0000 F8000.0
G0 X76.3661 Y-168.1487 F15000.0
G1 Z11.9000 F8000.0
G1 X76.3661 Y-189.0732 F12000.0
G1 Z0.0000 F8000.0
G0 X71.1104 Y-181.0519 F15000.0
G1 Z11.9000 F8000.0
G1 X69.9369 Y-181.0404 F12000.0
G1 X69.7289 Y-180.9318
G1 X69.3029 Y-180.4774
G1 X69.1706 Y-177.7137
G1 X69.2851 Y-176.9747
G1 X69.6288 Y-176.6192
G1 X70.1033 Y-176.4766
G1 X71.1104 Y-176.3815
G1 Z0.0000 F8000.0
G0 X73.4456 Y-179.1059 F15000.0
G1 Z11.9000 F8000.0
G1 X73.0894 Y-179.7492 F12000.0
G1 X73.2538 Y-180.6038
G1 X73.6789 Y-181.0290
G1 X74.4179 Y-181.0222
G1 X74.8895 Y-180.6317
G1 X75.0685 Y-179.9041
G1 X75.0251 Y-179.6740
G1 X74.6108 Y-179.0610
G1 X73.5416 Y-179.0820
G1 X72.9688 Y-178.4303
G1 X72.8695 Y-178.2185
G1 X72.9216 Y-177.1042
G1 X73.3350 Y-176.6458
G1 X73.9129 Y-176.4132
G1 X74.7275 Y-176.5504
G1 X75.1397 Y-177.0168
G1 X75.3672 Y-177.5872
G1 X75.2771 Y-178.2043
G1 X74.8078 Y-178.9113
G1 Z0.0000 F8000.0
G0 X74.3890 Y-168.1487 F15000.0
G1 Z11.9000 F8000.0
G1 X82.2151 Y-168.1487 F12000.0
G1 X107.5057 Y-168.1487 F12000.0
G1 Z0.0000 F8000.0
G0 X106.9291 Y-168.1487 F15000.0
G1 Z11.9000 F8000.0
G1 X88.3936 Y-149.6957 F12000.0
G1 Z0.0000 F8000.0
G0 X85.6751 Y-149.6957 F15000.0
G1 Z11.9000 F8000.0
G1 X104.1281 Y-168.1487 F12000.0
G1 Z0.0000 F8000.0
G0 X101.4096 Y-168.1487 F15000.0
G1 Z11.9000 F8000.0
G1 X82.8741 Y-149.6957 F12000.0
G1 Z0.0000 F8000.0
G0 X82.2151 Y-149.6957 F15000.0
G1 Z11.9000 F8000.0
G1 X97.7849 Y-149.6957 F12000.0
G1 X97.7849 Y-131.1602 F12000.0
G1 X91.9359 Y-131.1602 F12000.0
G1 X91.9359 Y-149.6957 F12000.0
G1 Z0.0000 F8000.0
G0 X91.1945 Y-149.6957 F15000.0
G1 Z11.9000 F8000.0
G1 X107.5057 Y-166.0069 F12000.0
G1 Z0.0000 F8000.0
G0 X107.5057 Y-163.2059 F15000.0
G1 Z11.9000 F8000.0
G1 X93.9130 Y-149.6957 F12000.0
G1 Z0.0000 F8000.0
G0 X96.7140 Y-149.6957 F15000.0
G1 Z11.9000 F8000.0
G1 X107.5057 Y-160.4874 F12000.0
G1 Z0.0000 F8000.0
G0 X107.5057 Y-157.7689 F15000.0
G1 Z11.9000 F8000.0
G1 X97.7849 Y-148.0481 F12000.0
G1 Z0.0000 F8000.0
G0 X97.7849 Y-145.2471 F15000.0
G1 Z11.9000 F8000.0
G1 X107.5057 Y-154.9680 F12000.0
G1 Z0.0000 F8000.0
G0 X107.5057 Y-152.2494 F15000.0
G1 Z11.9000 F8000.0
G1 X97.7849 Y-142.5286 F12000.0
G1 Z0.0000 F8000.0
G0 X97.7849 Y-139.7277 F15000.0
G1 Z11.9000 F8000.0
G1 X107.5057 Y-149.4485 F12000.0
G1 Z0.0000 F8000.0
G0 X107.5057 Y-146.7300 F15000.0
G1 Z11.9000 F8000.0
G1 X97.7849 Y-137.0092 F12000.0
G1 Z0.0000 F8000.0
G0 X97.7849 Y-134.2082 F15000.0
G1 Z11.9000 F8000.0
G1 X107.5057 Y-144.0114 F12000.0
G1 Z0.0000 F8000.0
G0 X107.5057 Y-141.2105 F15000.0
G1 Z11.9000 F8000.0
G1 X97.7849 Y-131.4897 F12000.0
G1 Z0.0000 F8000.0
G0 X97.7849 Y-131.1602 F15000.0
G1 Z11.9000 F8000.0
G1 X97.7849 Y-112.1304 F12000.0
G1 Z0.0000 F8000.0
G0 X97.7849 Y-114.0252 F15000.0
G1 Z11.9000 F8000.0
G1 X92.9245 Y-113.4485 F12000.0
G1 Z0.0000 F8000.0
G0 X92.9245 Y-114.6842 F15000.0
G1 Z11.9000 F8000.0
G1 X97.7849 Y-114.0252 F12000.0
G1 X82.2151 Y-114.0252 F12000.0
G1 X87.0755 Y-114.6842 F12000.0
G1 Z0.0000 F8000.0
G0 X87.0755 Y-113.4485 F15000.0
G1 Z11.9000 F8000.0
G1 X82.2151 Y-114.0252 F12000.0
G1 Z0.0000 F8000.0
G0 X84.2075 Y-113.7780 F15000.0
G1 Z11.9000 F8000.0
G1 X85.0832 Y-113.7780 F12000.0
G1 Z0.0000 F8000.0
G0 X85.4116 Y-118.4892 F15000.0
G1 Z11.9000 F8000.0
G1 X84.8594 Y-119.4588 F12000.0
G1 X84.9062 Y-120.0781
G1 X85.2218 Y-120.7560
G1 X85.3878 Y-120.9203
G1 X86.4897 Y-121.1718
G1 X86.7250 Y-121.1614
G1 X87.3422 Y-120.7377
G1 X87.5083 Y-120.4122
G1 X87.6284 Y-119.5402
G1 X87.2101 Y-118.6420
G1 X87.2014 Y-118.4030
G1 X87.3273 Y-118.0636
G1 X87.7594 Y-117.6282
G1 X87.9359 Y-117.0249
G1 X88.0208 Y-116.2745
G1 X87.8303 Y-115.6815
G1 X87.2162 Y-115.0571
G1 X86.0037 Y-114.8159
G1 X85.4092 Y-115.0001
G1 X84.8331 Y-115.4885
G1 X84.6297 Y-115.8060
G1 X84.5370 Y-116.1598
G1 X84.5777 Y-117.2881
G1 X84.7524 Y-117.6196
G1 X85.3761 Y-118.2370
G1 X86.9684 Y-118.3919
G1 Z0.0000 F8000.0
G0 X91.9359 Y-124.4050 F15000.0
G1 Z11.9000 F8000.0
G1 X91.9359 Y-131.1602 F12000.0
G1 X48.8513 Y-131.1602 F12000.0
G1 Z0.0000 F8000.0
G0 X50.7460 Y-131.1602 F15000.0
G1 Z11.9000 F8000.0
G1 X50.1693 Y-136.0206 F12000.0
G1 X50.7460 Y-135.5263 F12000.0
G1 X51.4050 Y-136.0206 F12000.0
G1 X50.7460 Y-131.1602 F12000.0
G1 X50.7460 Y-175.9748 F12000.0
G1 X50.7460 Y-196.0755 F12000.0
G1 Z0.0000 F8000.0
G0 X46.8477 Y-190.6575 F15000.0
G1 Z11.9000 F8000.0
G1 X47.4247 Y-190.6318 F12000.0
G1 X47.5712 Y-190.5014
G1 X47.5921 Y-189.7130
G1 X46.9500 Y-189.6570
G1 X46.7504 Y-190.5602
G1 Z0.0000 F8000.0
G0 X45.8747 Y-189.9764 F15000.0
G1 Z11.9000 F8000.0
G1 X45.1710 Y-190.0808 F12000.0
G1 X45.4855 Y-191.4359
G1 Z0.0000 F8000.0
G0 X44.4153 Y-191.5332 F15000.0
G1 Z11.9000 F8000.0
G1 X43.9993 Y-191.5225 F12000.0
G1 X43.6892 Y-191.2778
G1 X43.5782 Y-189.9498
G1 X43.8254 Y-189.6299
G1 X44.4153 Y-189.5872
G1 Z0.0000 F8000.0
G0 X57.9228 Y-179.0973 F15000.0
G1 Z11.9000 F8000.0
G1 X57.5069 Y-179.0867 F12000.0
G1 X57.1968 Y-178.8419
G1 X57.0858 Y-177.5140
G1 X57.3330 Y-177.1940
G1 X57.9228 Y-177.1514
G1 Z0.0000 F8000.0
G0 X58.7012 Y-177.2487 F15000.0
G1 Z11.9000 F8000.0
G1 X58.7311 Y-177.1873 F12000.0
G1 X58.8044 Y-177.5270
G1 X59.3583 Y-178.4101
G1 X59.3758 Y-178.7154
G1 X59.0611 Y-179.0593
G1 X58.6039 Y-178.9027
G1 Z0.0000 F8000.0
G0 X60.0634 Y-179.0973 F15000.0
G1 Z11.9000 F8000.0
G1 X60.6832 Y-179.0799 F12000.0
G1 X60.8028 Y-178.9515
G1 X60.4942 Y-177.7004
G1 X60.4526 Y-177.7352
G1 Z0.0000 F8000.0
G0 X63.5973 Y-197.3112 F15000.0
G1 Z11.9000 F8000.0
G1 X64.2563 Y-197.8055 F12000.0
G1 X64.9153 Y-197.3112 F12000.0
G1 X64.2563 Y-202.2540 F12000.0
G1 X63.5973 Y-197.3112 F12000.0
G1 Z0.0000 F8000.0
G0 X63.9680 Y-199.0976 F15000.0
G1 Z11.9000 F8000.0
G1 X63.9680 Y-199.9733 F12000.0
G1 Z0.0000 F8000.0
G0 X64.5858 Y-200.2616 F15000.0
G1 Z11.9000 F8000.0
G1 X64.5858 Y-199.3859 F12000.0
G1 Z0.0000 F8000.0
G0 X64.2563 Y-202.2540 F15000.0
G1 Z11.9000 F8000.0
G1 X64.2563 Y-149.6957 F12000.0
G1 X63.5973 Y-154.5561 F12000.0
G1 X64.2563 Y-154.0618 F12000.0
G1 X64.9153 Y-154.5561 F12000.0
G1 X64.2563 Y-149.6957 F12000.0
G1 Z0.0000 F8000.0
G0 X62.3616 Y-149.6957 F15000.0
G1 Z11.9000 F8000.0
G1 X82.2151 Y-149.6957 F12000.0
G1 Z0.0000 F8000.0
G0 X82.2151 Y-151.6728 F15000.0
G1 Z11.9000 F8000.0
G1 X98.6087 Y-168.1487 F12000.0
G1 Z0.0000 F8000.0
G0 X95.8902 Y-168.1487 F15000.0
G1 Z11.9000 F8000.0
G1 X82.2151 Y-154.4737 F12000.0
G1 Z0.0000 F8000.0
G0 X82.2151 Y-157.1922 F15000.0
G1 Z11.9000 F8000.0
G1 X93.1716 Y-168.1487 F12000.0
G1 Z0.0000 F8000.0
G0 X90.3707 Y-168.1487 F15000.0
G1 Z11.9000 F8000.0
G1 X82.2151 Y-159.9931 F12000.0
G1 Z0.0000 F8000.0
G0 X82.2151 Y-162.7117 F15000.0
G1 Z11.9000 F8000.0
G1 X87.6522 Y-168.1487 F12000.0
G1 Z0.0000 F8000.0
G0 X84.8513 Y-168.1487 F15000.0
G1 Z11.9000 F8000.0
G1 X82.2151 Y-165.4302 F12000.0
G1 Z0.0000 F8000.0
G0 X94.0778 Y-175.9748 F15000.0
G1 Z11.9000 F8000.0
G1 X95.5606 Y-175.9748 F12000.0
G1 Z0.0000 F8000.0
G0 X97.0435 Y-175.9748 F15000.0
G1 Z11.9000 F8000.0
G1 X109.1533 Y-175.9748 F12000.0
G1 Z0.0000 F8000.0
G0 X125.3750 Y-176.4151 F15000.0
G1 Z11.9000 F8000.0
G1 X124.8984 Y-176.4180 F12000.0
G1 X124.6539 Y-176.5675
G1 X124.5985 Y-176.7547
G1 X124.6502 Y-178.2029
G1 X124.8676 Y-178.4147
G1 X125.3750 Y-178.4583
G1 Z0.0000 F8000.0
G0 X126.9318 Y-178.4583 F15000.0
G1 Z11.9000 F8000.0
G1 X126.2704 Y-178.4034 F12000.0
G1 X126.1899 Y-177.5203
G1 X126.6666 Y-177.4520
G1 X126.9043 Y-177.2747
G1 X126.9975 Y-176.7841
G1 X126.8906 Y-176.5486
G1 X126.9318 Y-176.6097
G1 Z0.0000 F8000.0
G0 X128.3913 Y-177.2907 F15000.0
G1 Z11.9000 F8000.0
G1 X128.4707 Y-177.2232 F12000.0
G1 X128.4461 Y-176.5471
G1 X128.5527 Y-176.8827
G1 X128.3558 Y-177.4937
G1 X128.4861 Y-177.8044
G1 X128.3913 Y-178.3610
G1 Z0.0000 F8000.0
G0 X131.1487 Y-222.6842 F15000.0
G1 Z11.9000 F8000.0
G1 X131.8078 Y-223.0961 F12000.0
G1 X132.4668 Y-222.6842 F12000.0
G1 X131.8078 Y-227.5446 F12000.0
G1 X131.1487 Y-222.6842 F12000.0
G1 Z0.0000 F8000.0
G0 X131.5194 Y-224.4294 F15000.0
G1 Z11.9000 F8000.0
G1 X131.5194 Y-225.3051 F12000.0
G1 Z0.0000 F8000.0
G0 X132.1373 Y-225.5934 F15000.0
G1 Z11.9000 F8000.0
G1 X132.1373 Y-224.7177 F12000.0
G1 Z0.0000 F8000.0
G0 X131.8078 Y-227.5446 F15000.0
G1 Z11.9000 F8000.0
G1 X131.8078 Y-124.4050 F12000.0
G1 X131.1487 Y-129.2654 F12000.0
G1 X131.8078 Y-128.7712 F12000.0
G1 X132.4668 Y-129.2654 F12000.0
G1 X131.8078 Y-124.4050 F12000.0
G1 Z0.0000 F8000.0
G0 X133.7849 Y-124.4050 F15000.0
G1 Z11.9000 F8000.0
G1 X107.5057 Y-124.4050 F12000.0
G1 X91.9359 Y-124.4050 F12000.0
G1 Z0.0000 F8000.0
G0 X91.9359 Y-125.6407 F15000.0
G1 Z11.9000 F8000.0
G1 X97.4554 Y-131.1602 F12000.0
G1 Z0.0000 F8000.0
G0 X94.7368 Y-131.1602 F15000.0
G1 Z11.9000 F8000.0
G1 X91.9359 Y-128.4417 F12000.0
G1 Z0.0000 F8000.0
G0 X93.4188 Y-124.4050 F15000.0
G1 Z11.9000 F8000.0
G1 X107.5057 Y-138.4920 F12000.0
G1 Z0.0000 F8000.0
G0 X107.5057 Y-135.6911 F15000.0
G1 Z11.9000 F8000.0
G1 X96.1373 Y-124.4050 F12000.0
G1 Z0.0000 F8000.0
G0 X98.8558 Y-124.4050 F15000.0
G1 Z11.9000 F8000.0
G1 X107.5057 Y-132.9725 F12000.0
G1 Z0.0000 F8000.0
G0 X107.5057 Y-130.2540 F15000.0
G1 Z11.9000 F8000.0
G1 X101.6568 Y-124.4050 F12000.0
G1 Z0.0000 F8000.0
G0 X104.3753 Y-124.4050 F15000.0
G1 Z11.9000 F8000.0
G1 X107.5057 Y-127.4531 F12000.0
G1 Z0.0000 F8000.0
G0 X107.5057 Y-124.7346 F15000.0
G1 Z11.9000 F8000.0
G1 X107.1762 Y-124.4050 F12000.0
G1 Z0.0000 F8000.0
G0 X95.5454 Y-114.3547 F15000.0
G1 Z11.9000 F8000.0
G1 X94.6697 Y-114.3547 F12000.0
G1 Z0.0000 F8000.0
G0 X94.9580 Y-113.7780 F15000.0
G1 Z11.9000 F8000.0
G1 X95.8337 Y-113.7780 F12000.0
G1 Z0.0000 F8000.0
G0 X93.9530 Y-108.4309 F15000.0
G1 Z11.9000 F8000.0
G1 X93.9428 Y-108.3497 F12000.0
G1 X94.0866 Y-108.2722
G1 X94.2352 Y-107.9668
G1 X94.2195 Y-107.5607
G1 X94.0104 Y-107.1388
G1 X94.1561 Y-106.7716
G1 X94.2222 Y-105.9425
G1 X93.8721 Y-105.6077
G1 X93.0774 Y-105.5119
G1 Z0.0000 F8000.0
G0 X92.1044 Y-105.6092 F15000.0
G1 Z11.9000 F8000.0
G1 X91.9860 Y-108.0784 F12000.0
G1 X91.7152 Y-108.0417
G1 Z0.0000 F8000.0
G0 X85.4127 Y-101.5858 F15000.0
G1 Z11.9000 F8000.0
G1 X84.5370 Y-101.5858 F12000.0
G1 Z0.0000 F8000.0
G0 X84.2075 Y-100.9680 F15000.0
G1 Z11.9000 F8000.0
G1 X85.0832 Y-100.9680 F12000.0
G1 Z0.0000 F8000.0
G0 X104.3905 Y-101.5858 F15000.0
G1 Z11.9000 F8000.0
G1 X105.2662 Y-101.5858 F12000.0
G1 Z0.0000 F8000.0
G0 X105.5546 Y-100.9680 F15000.0
G1 Z11.9000 F8000.0
G1 X104.6789 Y-100.9680 F12000.0
G1 Z0.0000 F8000.0
G0 X131.5194 Y-126.7269 F15000.0
G1 Z11.9000 F8000.0
G1 X131.5194 Y-127.6026 F12000.0
G1 Z0.0000 F8000.0
G0 X132.1373 Y-127.3143 F15000.0
G1 Z11.9000 F8000.0
G1 X132.1373 Y-126.4386 F12000.0
G1 Z0.0000 F8000.0
G0 X139.4201 Y-55.2037 F15000.0
G1 Z11.9000 F8000.0
G1 X141.4633 Y-55.2037 F12000.0
G1 Z0.0000 F8000.0
G0 X139.3714 Y-55.1064 F15000.0
G1 Z11.9000 F8000.0
G1 X139.3298 Y-53.3367 F12000.0
G1 X139.3907 Y-53.1158
G1 X140.9682 Y-52.8187
G1 X141.1663 Y-52.7018
G1 X141.3676 Y-52.4288
G1 X141.5399 Y-51.1902
G1 X141.3221 Y-50.6328
G1 X141.0475 Y-50.3876
G1 X139.4687 Y-50.1928
G1 Z0.0000 F8000.0
G0 X135.9173 Y-50.3387 F15000.0
G1 Z11.9000 F8000.0
G1 X135.6284 Y-50.6150 F12000.0
G1 X135.9304 Y-50.3449
G1 X136.5455 Y-50.2271
G1 X136.9055 Y-50.2698
G1 X137.4688 Y-50.5587
G1 X137.3019 Y-50.3823
G1 X137.4989 Y-50.6119
G1 X137.6604 Y-51.2081
G1 X137.5282 Y-54.6186
G1 X137.3925 Y-54.9178
G1 X136.9825 Y-55.1631
G1 X135.9886 Y-55.0993
G1 X135.6843 Y-54.8734
G1 X135.8495 Y-55.0357
G1 X135.5851 Y-54.6360
G1 X135.4377 Y-51.4816
G1 X135.5768 Y-50.6792
G1 Z0.0000 F8000.0
G0 X130.3713 Y-50.3387 F15000.0
G1 Z11.9000 F8000.0
G1 X130.0824 Y-50.6150 F12000.0
G1 X130.3843 Y-50.3449
G1 X131.2429 Y-50.2299
G1 X131.8665 Y-50.4925
G1 X131.7543 Y-50.3895
G1 X132.0835 Y-50.9301
G1 X131.9351 Y-54.8104
G1 X131.4668 Y-55.1554
G1 X130.4043 Y-55.0930
G1 X130.1362 Y-54.8599
G1 X130.3140 Y-55.0491
G1 X130.0834 Y-54.7171
G1 X129.8941 Y-51.4382
G1 X130.0307 Y-50.6792
G1 Z0.0000 F8000.0
G0 X126.4793 Y-50.3387 F15000.0
G1 Z11.9000 F8000.0
G1 X126.1904 Y-50.6150 F12000.0
G1 X126.3902 Y-50.4058
G1 X127.2320 Y-50.2134
G1 X127.8655 Y-50.3868
G1 X128.2064 Y-50.9887
G1 X128.0654 Y-54.7601
G1 X127.6353 Y-55.1330
G1 X127.3944 Y-55.1869
G1 X126.4510 Y-55.0412
G1 X126.1810 Y-54.7537
G1 X125.9997 Y-51.4894
G1 X126.1387 Y-50.6792
G1 Z0.0000 F8000.0
G0 X122.6846 Y-50.3874 F15000.0
G1 Z11.9000 F8000.0
G1 X122.5985 Y-54.7600 F12000.0
G1 X122.1008 Y-54.6199
G1 Z0.0000 F8000.0
G0 X119.7170 Y-50.5333 F15000.0
G1 Z11.9000 F8000.0
G1 X119.5500 Y-50.3830 F12000.0
G1 X119.7774 Y-50.6845
G1 X119.9044 Y-51.1636
G1 X119.7314 Y-54.8037
G1 X119.4895 Y-55.0471
G1 X119.1474 Y-55.1815
G1 X118.1934 Y-55.0947
G1 X117.8701 Y-54.7659
G1 X117.6817 Y-51.5177
G1 X117.8207 Y-50.7775
G1 X118.0075 Y-50.4696
G1 X118.3363 Y-50.3091
G1 X118.9576 Y-50.2127
G1 X119.4738 Y-50.3387
G1 Z0.0000 F8000.0
G0 X112.6142 Y-50.3387 F15000.0
G1 Z11.9000 F8000.0
G1 X112.3253 Y-50.6150 F12000.0
G1 X112.5251 Y-50.4058
G1 X113.3669 Y-50.2134
G1 X114.0004 Y-50.3868
G1 X114.3412 Y-50.9887
G1 X114.2003 Y-54.7601
G1 X113.7702 Y-55.1330
G1 X113.4047 Y-55.1842
G1 X112.6805 Y-55.1024
G1 X112.4858 Y-54.9698
G1 X112.5513 Y-55.0371
G1 X112.3268 Y-54.7840
G1 X112.3700 Y-54.8499
G1 X112.1479 Y-51.2919
G1 X112.2736 Y-50.6792
G1 Z0.0000 F8000.0
G0 X108.7222 Y-50.3387 F15000.0
G1 Z11.9000 F8000.0
G1 X108.4333 Y-50.6150 F12000.0
G1 X108.6331 Y-50.4058
G1 X109.4749 Y-50.2134
G1 X110.1084 Y-50.3868
G1 X110.4493 Y-50.9887
G1 X110.3084 Y-54.7601
G1 X109.8782 Y-55.1330
G1 X109.6374 Y-55.1869
G1 X108.6939 Y-55.0412
G1 X108.4239 Y-54.7537
G1 X108.2426 Y-51.4894
G1 X108.3817 Y-50.6792
G1 Z0.0000 F8000.0
G0 X106.5816 Y-50.3874 F15000.0
G1 Z11.9000 F8000.0
G1 X106.5800 Y-51.6516 F12000.0
G1 X106.5124 Y-51.8576
G1 X104.6741 Y-52.1084
G1 X104.5410 Y-52.2957
G1 X104.3924 Y-53.4036
G1 Z0.0000 F8000.0
G0 X102.5924 Y-54.4253 F15000.0
G1 Z11.9000 F8000.0
G1 X102.6897 Y-50.3874 F12000.0
G1 Z0.0000 F8000.0
G0 X101.0356 Y-52.5279 F15000.0
G1 Z11.9000 F8000.0
G1 X102.1642 Y-54.1586 F12000.0
G1 X102.5582 Y-54.4419
G1 X102.7383 Y-55.1550
G1 Z0.0000 F8000.0
G0 X101.0356 Y-52.7225 F15000.0
G1 Z11.9000 F8000.0
G1 X99.4586 Y-54.3216 F12000.0
G1 X99.3470 Y-55.0227
G1 X99.4492 Y-54.3955
G1 X99.3815 Y-54.0143
G1 X99.3815 Y-50.3387
G1 Z0.0000 F8000.0
G0 X106.5816 Y-51.9441 F15000.0
G1 Z11.9000 F8000.0
G1 X106.5816 Y-53.3550 F12000.0
G1 Z0.0000 F8000.0
G0 X107.9799 Y-35.0014 F15000.0
G1 Z11.9000 F8000.0
G1 X106.7508 Y-33.6668 F12000.0
G1 X106.4585 Y-33.1354
G1 X105.3762 Y-32.5675
G1 X105.2033 Y-31.0014
G1 X103.2689 Y-30.9970
G1 X102.9999 Y-34.9183
G1 X100.8991 Y-32.0315
G1 X100.4406 Y-30.8972
G1 X98.1881 Y-30.8228
G1 X96.0511 Y-31.0221
G1 X95.7294 Y-31.3456
G1 X95.5742 Y-32.9095
G1 Z0.0000 F8000.0
G0 X97.8121 Y-34.8554 F15000.0
G1 Z11.9000 F8000.0
G1 X96.7434 Y-34.9837 F12000.0
G1 X95.9433 Y-34.7176
G1 X95.7931 Y-34.5556
G1 X95.6122 Y-32.9223
G1 X95.7997 Y-32.8661
G1 X98.3019 Y-32.9678
G1 X98.1626 Y-34.3783
G1 X98.0067 Y-34.7095
G1 Z0.0000 F8000.0
G0 X105.2555 Y-34.8068 F15000.0
G1 Z11.9000 F8000.0
G1 X105.2280 Y-32.8181 F12000.0
G1 X105.3528 Y-32.6176
G1 Z0.0000 F8000.0
G0 X106.4717 Y-33.1041 F15000.0
G1 Z11.9000 F8000.0
G1 X107.9799 Y-30.8175 F12000.0
G1 Z0.0000 F8000.0
G0 X112.4556 Y-30.9635 F15000.0
G1 Z11.9000 F8000.0
G1 X111.9764 Y-30.8392 F12000.0
G1 X110.4988 Y-31.0997
G1 X110.3209 Y-31.3327
G1 X110.1784 Y-31.9343
G1 X110.3331 Y-34.4501
G1 X110.5665 Y-34.7473
G1 X110.7904 Y-34.8217
G1 X112.6591 Y-34.9720
G1 X112.7276 Y-34.9172
G1 X112.9266 Y-31.4118
G1 X112.8157 Y-31.2198
G1 X112.5492 Y-31.0145
G1 X113.2722 Y-30.9953
G1 X113.6719 Y-30.8175
G1 Z0.0000 F8000.0
G0 X112.4909 Y-16.2115 F15000.0
G1 Z11.9000 F8000.0
G1 X111.6468 Y-15.5380 F12000.0
G1 X111.3656 Y-15.0143
G1 X111.1498 Y-12.7521
G1 X111.3578 Y-12.3337
G1 X111.6253 Y-12.1529
G1 X112.6808 Y-12.2503
G1 X112.9595 Y-12.5955
G1 X112.8629 Y-14.0212
G1 X112.3298 Y-14.4538
G1 X111.3233 Y-14.5574
G1 Z0.0000 F8000.0
G0 X112.5882 Y-14.3628 F15000.0
G1 Z11.9000 F8000.0
G1 X112.8801 Y-14.0709 F12000.0
G1 Z0.0000 F8000.0
G0 X112.8801 Y-12.4168 F15000.0
G1 Z11.9000 F8000.0
G1 X112.7828 Y-12.2222 F12000.0
G1 Z0.0000 F8000.0
G0 X115.3126 Y-12.2222 F15000.0
G1 Z11.9000 F8000.0
G1 X115.2153 Y-15.9196 F12000.0
G1 Z0.0000 F8000.0
G0 X116.7721 Y-16.3088 F15000.0
G1 Z11.9000 F8000.0
G1 X117.7308 Y-16.2929 F12000.0
G1 X118.1640 Y-16.0969
G1 X118.3158 Y-15.9468
G1 X118.4924 Y-15.1454
G1 X118.0910 Y-14.4568
G1 X118.4276 Y-13.8749
G1 X118.5107 Y-12.9207
G1 X118.3716 Y-12.4746
G1 X118.0301 Y-12.1550
G1 X116.7721 Y-12.1249
G1 Z0.0000 F8000.0
G0 X119.9829 Y-13.5844 F15000.0
G1 Z11.9000 F8000.0
G1 X121.7343 Y-13.5844 F12000.0
G1 Z0.0000 F8000.0
G0 X123.9722 Y-12.8060 F15000.0
G1 Z11.9000 F8000.0
G1 X124.8257 Y-15.8938 F12000.0
G1 X124.6748 Y-16.2869
G1 X123.1938 Y-16.3088
G1 Z0.0000 F8000.0
G0 X123.9722 Y-12.6114 F15000.0
G1 Z11.9000 F8000.0
G1 X123.9269 Y-12.4831 F12000.0
G1 X123.9722 Y-12.5141
G1 Z0.0000 F8000.0
G0 X126.8912 Y-12.1249 F15000.0
G1 Z11.9000 F8000.0
G1 X127.3907 Y-12.4524 F12000.0
G1 X127.8994 Y-13.1199
G1 X128.1416 Y-14.0285
G1 X128.0551 Y-15.8248
G1 X127.9077 Y-16.1151
G1 X127.4906 Y-16.2880
G1 X126.6946 Y-16.1558
G1 X126.5817 Y-16.0051
G1 X126.3556 Y-14.5026
G1 X126.6019 Y-14.1011
G1 X126.8018 Y-13.9907
G1 X127.8751 Y-13.9630
G1 X128.0588 Y-13.8763
G1 Z0.0000 F8000.0
G0 X131.3959 Y-19.9474 F15000.0
G1 Z11.9000 F8000.0
G1 X180.0000 Y-19.9474 F12000.0
G1 Z0.0000 F8000.0
G0 X180.0000 Y-24.8078 F15000.0
G1 Z11.9000 F8000.0
G1 X131.3959 Y-24.8078 F12000.0
G1 Z0.0000 F8000.0
G0 X133.3970 Y-21.8519 F15000.0
G1 Z11.9000 F8000.0
G1 X134.6372 Y-24.1527 F12000.0
G1 X134.7105 Y-21.8519
G1 Z0.0000 F8000.0
G0 X135.5375 Y-23.3114 F15000.0
G1 Z11.9000 F8000.0
G1 X135.4977 Y-22.4877 F12000.0
G1 X135.6104 Y-22.0127
G1 X135.8790 Y-21.8774
G1 X136.6078 Y-23.3114
G1 Z0.0000 F8000.0
G0 X138.1160 Y-23.4087 F15000.0
G1 Z11.9000 F8000.0
G1 X137.6207 Y-23.3492 F12000.0
G1 X137.4760 Y-23.2434
G1 X137.3542 Y-22.4059
G1 X137.4994 Y-21.9491
G1 X138.0865 Y-21.8162
G1 X138.9204 Y-21.9217
G1 X139.0652 Y-23.3401
G1 X139.6334 Y-23.4083
G1 X140.2594 Y-23.3389
G1 X140.4553 Y-23.2371
G1 X140.5971 Y-21.9005
G1 Z0.0000 F8000.0
G0 X139.7700 Y-21.8519 F15000.0
G1 Z11.9000 F8000.0
G1 X139.7214 Y-23.4087 F12000.0
G1 Z0.0000 F8000.0
G0 X141.1167 Y-24.8078 F15000.0
G1 Z11.9000 F8000.0
G1 X141.1167 Y-39.4714 F12000.0
G1 Z0.0000 F8000.0
G0 X140.5016 Y-41.4922 F15000.0
G1 Z11.9000 F8000.0
G1 X140.4585 Y-42.6129 F12000.0
G1 X140.3262 Y-42.9217
G1 X139.1395 Y-43.0004
G1 Z0.0000 F8000.0
G0 X139.8205 Y-42.9517 F15000.0
G1 Z11.9000 F8000.0
G1 X139.8186 Y-41.7963 F12000.0
G1 X139.7457 Y-41.6116
G1 X139.2708 Y-41.5559
G1 X139.1101 Y-41.6370
G1 X139.0564 Y-42.8469
G1 X138.3978 Y-42.8572
G1 X138.2474 Y-41.5669
G1 X137.5569 Y-41.5603
G1 X137.3881 Y-42.9031
G1 Z0.0000 F8000.0
G0 X136.6583 Y-41.5409 F15000.0
G1 Z11.9000 F8000.0
G1 X136.5805 Y-43.6125 F12000.0
G1 X136.0845 Y-43.3543
G1 X135.9339 Y-43.1695
G1 X135.5394 Y-41.6382
G1 Z0.0000 F8000.0
G0 X136.1739 Y-39.4714 F15000.0
G1 Z11.9000 F8000.0
G1 X136.1739 Y-24.8078 F12000.0
G1 Z0.0000 F8000.0
G0 X131.3959 Y-19.9474 F15000.0
G1 Z11.9000 F8000.0
G1 X63.2677 Y-19.9474 F12000.0
G1 X0.0000 Y-19.9474 F12000.0
G1 Z0.0000 F8000.0
G0 X2.0873 Y-21.9935 F15000.0
G1 Z11.9000 F8000.0
G1 X2.0387 Y-24.0854 F12000.0
G1 Z0.0000 F8000.0
G0 X1.5522 Y-24.0854 F15000.0
G1 Z11.9000 F8000.0
G1 X2.6225 Y-24.0854 F12000.0
G1 Z0.0000 F8000.0
G0 X4.0333 Y-23.3070 F15000.0
G1 Z11.9000 F8000.0
G1 X4.1495 Y-22.6716 F12000.0
G1 X4.3834 Y-22.7013
G1 X4.0820 Y-22.6259
G1 Z0.0000 F8000.0
G0 X4.0333 Y-22.0421 F15000.0
G1 Z11.9000 F8000.0
G1 X4.5454 Y-22.9139 F12000.0
G1 X4.8924 Y-23.2904
G1 X4.5930 Y-22.9725
G1 X4.5267 Y-22.7442
G1 X4.5995 Y-22.5155
G1 X4.9577 Y-21.9935
G1 Z0.0000 F8000.0
G0 X5.6388 Y-23.0151 F15000.0
G1 Z11.9000 F8000.0
G1 X5.8180 Y-23.2803 F12000.0
G1 X5.6516 Y-22.8427
G1 X5.6888 Y-22.3418
G1 X5.7975 Y-22.1333
G1 X5.9952 Y-22.0305
G1 X6.4614 Y-22.1511
G1 X6.5418 Y-22.3461
G1 X6.3587 Y-23.3073
G1 X5.8820 Y-23.3556
G1 Z0.0000 F8000.0
G0 X6.5144 Y-22.1394 F15000.0
G1 Z11.9000 F8000.0
G1 X6.4888 Y-22.0764 F12000.0
G1 X7.0366 Y-22.0440
G1 X7.2169 Y-22.1166
G1 X7.2865 Y-23.2736
G1 X7.3182 Y-22.7961
G1 X8.0273 Y-22.7480
G1 X8.0999 Y-22.8023
G1 X8.1665 Y-23.2528
G1 X8.2368 Y-22.0279
G1 X8.8037 Y-22.0758
G1 X8.9949 Y-23.3640
G1 X9.8403 Y-23.3823
G1 X10.0534 Y-23.3090
G1 X10.2776 Y-22.1193
G1 X10.4636 Y-22.0442
G1 X11.7100 Y-22.0756
G1 X11.8171 Y-22.3881
G1 X11.7658 Y-23.2504
G1 X11.6834 Y-23.3231
G1 X11.0980 Y-23.3674
G1 X10.9491 Y-22.0451
G1 X10.9617 Y-21.4552
G1 X11.8172 Y-22.1394
G1 Z0.0000 F8000.0
G0 X9.5794 Y-22.0908 F15000.0
G1 Z11.9000 F8000.0
G1 X9.5794 Y-23.3556 F12000.0
G1 Z0.0000 F8000.0
G0 X5.0603 Y-28.9511 F15000.0
G1 Z11.9000 F8000.0
G1 X5.2360 Y-29.3082 F12000.0
G1 X5.1349 Y-30.1672
G1 X4.9446 Y-30.2714
G1 X4.5846 Y-30.2853
G1 X4.4430 Y-30.1945
G1 X4.3820 Y-29.9883
G1 X4.3986 Y-29.1093
G1 X4.5252 Y-28.9025
G1 Z0.0000 F8000.0
G0 X2.6765 Y-28.3187 F15000.0
G1 Z11.9000 F8000.0
G1 X2.6776 Y-30.0523 F12000.0
G1 X2.7618 Y-30.3356
G1 X3.2105 Y-30.3230
G1 X3.4213 Y-30.2404
G1 X3.5775 Y-29.2690
G1 X3.4912 Y-29.0444
G1 X3.1834 Y-28.9165
G1 X2.0725 Y-29.0198
G1 X1.9879 Y-29.2016
G1 X1.8830 Y-30.9489
G1 X1.8216 Y-31.0171
G1 X0.8764 Y-31.0431
G1 Z0.0000 F8000.0
G0 X0.8278 Y-30.9458 F15000.0
G1 Z11.9000 F8000.0
G1 X0.8278 Y-28.9998 F12000.0
G1 Z0.0000 F8000.0
G0 X0.0000 Y-29.7506 F15000.0
G1 Z11.9000 F8000.0
G1 X63.2677 Y-29.7506 F12000.0
G1 Z0.0000 F8000.0
G0 X63.2677 Y-34.6110 F15000.0
G1 Z11.9000 F8000.0
G1 X0.0000 Y-34.6110 F12000.0
G1 Z0.0000 F8000.0
G0 X0.8623 Y-35.6247 F15000.0
G1 Z11.9000 F8000.0
G1 X0.8623 Y-33.6882 F12000.0
G1 X0.8642 Y-34.2717
G1 X0.9374 Y-34.4749
G1 X1.7596 Y-34.6058
G1 X1.9473 Y-34.8344
G1 X1.9963 Y-35.0664
G1 X1.8376 Y-35.5173
G1 X0.9109 Y-35.7220
G1 Z0.0000 F8000.0
G0 X1.1277 Y-38.7692 F15000.0
G1 Z11.9000 F8000.0
G1 X1.2485 Y-37.2855 F12000.0
G1 X1.3778 Y-37.2571
G1 X1.2423 Y-37.1153
G1 X1.2005 Y-36.9249
G1 X2.1313 Y-38.2443
G1 X2.2752 Y-38.6402
G1 X2.2143 Y-38.3555
G1 X2.3112 Y-36.8637
G1 X2.3765 Y-36.7986
G1 X3.5982 Y-36.7476
G1 X3.7279 Y-36.8567
G1 X3.7752 Y-37.0736
G1 X3.6237 Y-37.4581
G1 X3.4591 Y-37.4337
G1 X3.7116 Y-37.6243
G1 X3.7050 Y-37.9753
G1 X3.5182 Y-38.0949
G1 X3.1073 Y-38.0574
G1 X4.4837 Y-37.9703
G1 X4.6132 Y-37.7335
G1 X5.1362 Y-37.5054
G1 X5.5347 Y-37.6862
G1 X5.6477 Y-36.8621
G1 X5.6521 Y-37.9422
G1 Z0.0000 F8000.0
G0 X4.5331 Y-37.6989 F15000.0
G1 Z11.9000 F8000.0
G1 X4.4845 Y-36.7259 F12000.0
G1 Z0.0000 F8000.0
G0 X4.4137 Y-34.8949 F15000.0
G1 Z11.9000 F8000.0
G1 X4.8884 Y-34.9530 F12000.0
G1 X5.1926 Y-34.6049
G1 X5.0824 Y-34.2942
G1 X4.8956 Y-34.2558
G1 X5.0476 Y-34.2008
G1 X5.1853 Y-33.9038
G1 X4.4508 Y-33.5373
G1 X3.9510 Y-33.5509
G1 X3.6061 Y-33.6501
G1 X2.8927 Y-33.5987
G1 X2.7695 Y-33.9061
G1 X2.8345 Y-34.7764
G1 X2.9071 Y-34.8597
G1 X3.5669 Y-34.9107
G1 X3.6840 Y-33.6787
G1 Z0.0000 F8000.0
G0 X5.9705 Y-34.8949 F15000.0
G1 Z11.9000 F8000.0
G1 X5.9705 Y-32.9412 F12000.0
G1 X6.0179 Y-33.5405
G1 X6.7034 Y-33.5605
G1 X6.8179 Y-33.6889
G1 X6.8181 Y-34.7938
G1 X6.6375 Y-34.9057
G1 X6.0191 Y-34.9922
G1 Z0.0000 F8000.0
G0 X6.8375 Y-34.6110 F15000.0
G1 Z11.9000 F8000.0
G1 X6.8375 Y-58.9131 F12000.0
G1 Z0.0000 F8000.0
G0 X0.0000 Y-58.9131 F15000.0
G1 Z11.9000 F8000.0
G1 X180.0000 Y-58.9131 F12000.0
G1 Z0.0000 F8000.0
G0 X180.0000 Y-44.3318 F15000.0
G1 Z11.9000 F8000.0
G1 X63.2677 Y-44.3318 F12000.0
G1 X0.0000 Y-44.3318 F12000.0
G1 Z0.0000 F8000.0
G0 X0.0000 Y-49.1922 F15000.0
G1 Z11.9000 F8000.0
G1 X63.2677 Y-49.1922 F12000.0
G1 Z0.0000 F8000.0
G0 X63.2677 Y-54.0526 F15000.0
G1 Z11.9000 F8000.0
G1 X0.0000 Y-54.0526 F12000.0
G1 Z0.0000 F8000.0
G0 X0.0000 Y-58.9131 F15000.0
G1 Z11.9000 F8000.0
G1 X0.0000 Y-5.3662 F12000.0
G1 Z0.0000 F8000.0
G0 X1.9053 Y-9.7865 F15000.0
G1 Z11.9000 F8000.0
G1 X2.5952 Y-9.8354 F12000.0
G1 X2.6932 Y-10.1148
G1 X2.6652 Y-10.6764
G1 X1.9451 Y-10.6788
G1 X1.7574 Y-10.7768
G1 X1.6620 Y-11.6352
G1 Z0.0000 F8000.0
G0 X2.7323 Y-11.6352 F15000.0
G1 Z11.9000 F8000.0
G1 X2.7323 Y-10.7108 F12000.0
G1 Z0.0000 F8000.0
G0 X3.3648 Y-9.8351 F15000.0
G1 Z11.9000 F8000.0
G1 X3.3704 Y-10.8843 F12000.0
G1 X3.4493 Y-11.0675
G1 X4.3613 Y-11.0655
G1 X4.4905 Y-10.9277
G1 X3.9972 Y-9.7865
G1 Z0.0000 F8000.0
G0 X4.6297 Y-9.7865 F15000.0
G1 Z11.9000 F8000.0
G1 X4.6284 Y-10.6821 F12000.0
G1 X4.5324 Y-11.0027
G1 Z0.0000 F8000.0
G0 X5.2621 Y-11.1000 F15000.0
G1 Z11.9000 F8000.0
G1 X5.6286 Y-11.0905 F12000.0
G1 X5.7629 Y-11.4011
G1 X5.7202 Y-11.5913
G1 X5.7026 Y-11.1468
G1 X6.0423 Y-9.9592
G1 X5.7512 Y-9.8171
G1 X5.4068 Y-9.8513
G1 X5.3104 Y-10.0444
G1 X5.2693 Y-10.9265
G1 X5.3289 Y-11.4262
G1 X5.4255 Y-11.6188
G1 X5.6513 Y-11.6838
G1 Z0.0000 F8000.0
G0 X4.3792 Y-12.3723 F15000.0
G1 Z11.9000 F8000.0
G1 X3.4793 Y-13.0883 F12000.0
G1 X3.4063 Y-13.8318
G1 Z0.0000 F8000.0
G0 X3.4063 Y-12.3723 F15000.0
G1 Z11.9000 F8000.0
G1 X3.4852 Y-12.9824 F12000.0
G1 X3.8837 Y-13.2268
G1 X4.3682 Y-13.7884
G1 X5.7457 Y-13.8419
G1 X5.5638 Y-13.8556
G1 X5.3482 Y-13.7561
G1 X5.2454 Y-13.5479
G1 X5.1823 Y-12.6744
G1 X5.3934 Y-12.4275
G1 X5.7589 Y-12.3907
G1 X5.9525 Y-12.4942
G1 X6.1026 Y-12.9518
G1 X6.0080 Y-13.7531
G1 X6.8170 Y-13.7438
G1 X6.8604 Y-12.5130
G1 X6.8806 Y-13.0573
G1 X6.9399 Y-13.1213
G1 X7.7483 Y-13.0533
G1 X7.7871 Y-12.5170
G1 X7.8718 Y-13.7375
G1 X8.5288 Y-13.7268
G1 X8.5825 Y-12.5169
G1 X8.6403 Y-12.4522
G1 X9.2182 Y-12.4918
G1 X9.2909 Y-12.6767
G1 X9.2928 Y-13.8318
G1 Z0.0000 F8000.0
G0 X8.6118 Y-13.8804 F15000.0
G1 Z11.9000 F8000.0
G1 X9.7985 Y-13.8018 F12000.0
G1 X9.9308 Y-13.4930
G1 X10.0246 Y-12.4117
G1 X10.4932 Y-12.4087
G1 X10.6755 Y-12.4911
G1 X10.7487 Y-13.8124
G1 X11.2698 Y-13.8421
G1 X11.4927 Y-13.7716
G1 X11.5887 Y-13.5686
G1 X11.6600 Y-12.9422
G1 X11.4957 Y-12.4253
G1 X10.7322 Y-12.3480
G1 X10.7037 Y-11.6912
G1 Z0.0000 F8000.0
G0 X16.5584 Y-5.3662 F15000.0
G1 Z11.9000 F8000.0
G1 X16.5584 Y-58.9131 F12000.0
G1 Z0.0000 F8000.0
G0 X13.8738 Y-38.0881 F15000.0
G1 Z11.9000 F8000.0
G1 X13.8738 Y-36.8232 F12000.0
G1 Z0.0000 F8000.0
G0 X14.5549 Y-36.7746 F15000.0
G1 Z11.9000 F8000.0
G1 X14.3729 Y-38.0202 F12000.0
G1 X14.1702 Y-38.1139
G1 X13.3165 Y-38.1047
G1 X13.2539 Y-38.0407
G1 X13.1150 Y-36.8308
G1 X12.1601 Y-36.7279
G1 X11.9409 Y-36.7965
G1 X11.8170 Y-36.9971
G1 X11.8836 Y-37.8635
G1 X12.0175 Y-38.0487
G1 X12.3655 Y-38.1267
G1 X11.8278 Y-38.0179
G1 X11.1357 Y-38.0295
G1 X11.0687 Y-36.8340
G1 X10.8768 Y-36.7597
G1 X10.3973 Y-36.7747
G1 X10.2803 Y-36.9491
G1 X10.1918 Y-38.0606
G1 X8.9891 Y-38.6610
G1 X8.9119 Y-38.6331
G1 X8.3278 Y-36.7259
G1 Z0.0000 F8000.0
G0 X9.4954 Y-36.7746 F15000.0
G1 Z11.9000 F8000.0
G1 X9.3677 Y-38.7587 F12000.0
G1 X8.9602 Y-38.8178
G1 Z0.0000 F8000.0
G0 X10.1544 Y-35.7220 F15000.0
G1 Z11.9000 F8000.0
G1 X9.6348 Y-35.6726 F12000.0
G1 X9.5207 Y-35.5402
G1 X10.0405 Y-34.8835
G1 X10.1842 Y-33.8984
G1 X10.0731 Y-33.5965
G1 X9.5220 Y-33.5736
G1 X9.3333 Y-33.6829
G1 X9.3273 Y-34.7976
G1 Z0.0000 F8000.0
G0 X9.4246 Y-33.5814 F15000.0
G1 Z11.9000 F8000.0
G1 X8.8340 Y-33.5533 F12000.0
G1 X8.4891 Y-33.6501
G1 X7.9967 Y-33.5706
G1 X7.7089 Y-33.6722
G1 X7.6766 Y-34.6622
G1 X7.7724 Y-34.8597
G1 X8.2510 Y-34.9615
G1 X8.4318 Y-34.9107
G1 X8.5489 Y-33.6787
G1 Z0.0000 F8000.0
G0 X6.7630 Y-30.2160 F15000.0
G1 Z11.9000 F8000.0
G1 X6.8393 Y-29.9627 F12000.0
G1 X6.6830 Y-28.9949
G1 X6.3471 Y-28.9199
G1 X6.0734 Y-29.0486
G1 X6.5173 Y-30.5934
G1 X6.3216 Y-30.9838
G1 X6.1334 Y-30.9354
G1 X6.0192 Y-30.3680
G1 X6.0764 Y-30.3069
G1 X6.4225 Y-30.3620
G1 Z0.0000 F8000.0
G0 X0.0000 Y-24.8078 F15000.0
G1 Z11.9000 F8000.0
G1 X63.2677 Y-24.8078 F12000.0
G1 Z0.0000 F8000.0
G0 X64.7657 Y-16.3088 F15000.0
G1 Z11.9000 F8000.0
G1 X66.6630 Y-16.3088 F12000.0
G1 Z0.0000 F8000.0
G0 X64.7171 Y-16.2115 F15000.0
G1 Z11.9000 F8000.0
G1 X64.7504 Y-12.3233 F12000.0
G1 X65.9558 Y-12.1910
G1 X66.1938 Y-12.2546
G1 X66.8053 Y-12.7253
G1 X66.3351 Y-12.3261
G1 X66.8046 Y-12.8062
G1 X66.9002 Y-13.0196
G1 X66.8724 Y-13.7673
G1 X66.7386 Y-13.9693
G1 X66.1287 Y-14.3985
G1 X64.6684 Y-14.5087
G1 Z0.0000 F8000.0
G0 X63.2677 Y-15.0870 F15000.0
G1 Z11.9000 F8000.0
G1 X0.0000 Y-15.0870 F12000.0
G1 Z0.0000 F8000.0
G0 X0.8278 Y-14.4642 F15000.0
G1 Z11.9000 F8000.0
G1 X0.8629 Y-12.4754 F12000.0
G1 X1.9211 Y-12.4478
G1 X2.0024 Y-12.6270
G1 X1.9975 Y-14.3765
G1 X1.9368 Y-13.6244
G1 X0.8278 Y-13.6372
G1 Z0.0000 F8000.0
G0 X0.0000 Y-10.2266 F15000.0
G1 Z11.9000 F8000.0
G1 X63.2677 Y-10.2266 F12000.0
G1 Z0.0000 F8000.0
G0 X63.2677 Y-5.3662 F15000.0
G1 Z11.9000 F8000.0
G1 X63.2677 Y-58.9131 F12000.0
G1 Z0.0000 F8000.0
G0 X53.5469 Y-58.9131 F15000.0
G1 Z11.9000 F8000.0
G1 X53.5469 Y-5.3662 F12000.0
G1 Z0.0000 F8000.0
G0 X38.9657 Y-5.3662 F15000.0
G1 Z11.9000 F8000.0
G1 X38.9657 Y-58.9131 F12000.0
G1 Z0.0000 F8000.0
G0 X42.5974 Y-38.8129 F15000.0
G1 Z11.9000 F8000.0
G1 X43.5425 Y-38.7870 F12000.0
G1 X43.6040 Y-38.7188
G1 X43.7088 Y-36.9714
G1 X43.7932 Y-36.7866
G1 X44.5158 Y-36.7365
G1 X44.4461 Y-37.5633
G1 X44.5585 Y-38.0150
G1 X45.1357 Y-37.9999
G1 X45.2401 Y-37.8116
G1 X45.2697 Y-36.9427
G1 X45.1272 Y-36.7210
G1 Z0.0000 F8000.0
G0 X46.9759 Y-38.0832 F15000.0
G1 Z11.9000 F8000.0
G1 X46.9222 Y-36.9528 F12000.0
G1 X46.6720 Y-36.7198
G1 X46.2045 Y-36.7348
G1 X46.1067 Y-36.9213
G1 X46.1356 Y-37.9872
G1 X46.9097 Y-38.2054
G1 X46.8810 Y-38.5222
G1 X46.7633 Y-38.7175
G1 X46.1975 Y-38.8129
G1 Z0.0000 F8000.0
G0 X47.7056 Y-38.0345 F15000.0
G1 Z11.9000 F8000.0
G1 X47.7460 Y-36.8080 F12000.0
G1 X48.5574 Y-36.7537
G1 X48.5077 Y-37.8118
G1 X48.4304 Y-38.0234
G1 X47.7543 Y-38.1318
G1 Z0.0000 F8000.0
G0 X42.5488 Y-38.7156 F15000.0
G1 Z11.9000 F8000.0
G1 X42.5488 Y-36.7697 F12000.0
G1 Z0.0000 F8000.0
G0 X33.2641 Y-36.6237 F15000.0
G1 Z11.9000 F8000.0
G1 X32.8335 Y-37.4053 F12000.0
G1 X33.1800 Y-37.7073
G1 X33.2343 Y-37.8888
G1 X32.7135 Y-37.3972
G1 X32.4162 Y-37.4723
G1 X32.0799 Y-36.7010
G1 X32.3932 Y-37.4164
G1 X32.3660 Y-37.5137
G1 X32.1025 Y-37.6421
G1 X32.0275 Y-37.9219
G1 X31.8277 Y-37.9846
G1 X31.3620 Y-37.9467
G1 X31.2758 Y-36.6175
G1 X30.5749 Y-35.8721
G1 X31.1227 Y-35.9230
G1 X31.2771 Y-36.5734
G1 X30.6999 Y-36.5881
G1 X30.5121 Y-36.6772
G1 X30.3341 Y-37.8952
G1 X30.2670 Y-37.9612
G1 X29.5539 Y-37.9349
G1 X29.0422 Y-37.3981
G1 X28.7722 Y-37.3164
G1 X28.9654 Y-37.4062
G1 X28.6231 Y-37.9559
G1 X28.6456 Y-37.3158
G1 X28.5650 Y-36.6356
G1 X27.2321 Y-36.6228
G1 X27.0369 Y-36.7210
G1 Z0.0000 F8000.0
G0 X27.1829 Y-38.0345 F15000.0
G1 Z11.9000 F8000.0
G1 X27.4956 Y-38.0599 F12000.0
G1 X27.7922 Y-37.8913
G1 X27.8957 Y-37.0297
G1 X27.7341 Y-36.6317
G1 X27.5312 Y-36.5888
G1 X27.0624 Y-36.6879
G1 X26.9588 Y-37.0120
G1 X27.1042 Y-37.9743
G1 X26.9439 Y-37.9199
G1 X26.1701 Y-37.9839
G1 X25.9832 Y-36.6691
G1 X25.4173 Y-36.6333
G1 X25.2754 Y-36.8125
G1 X25.5191 Y-38.0034
G1 X26.1632 Y-38.1889
G1 X25.9905 Y-38.7214
G1 X25.3829 Y-38.8129
G1 Z0.0000 F8000.0
G0 X23.0477 Y-37.8886 F15000.0
G1 Z11.9000 F8000.0
G1 X23.0185 Y-37.8257 F12000.0
G1 X23.1183 Y-38.4750
G1 X22.9578 Y-38.7059
G1 X22.7236 Y-38.5969
G1 X22.6884 Y-37.9177
G1 X22.9504 Y-37.7913
G1 Z0.0000 F8000.0
G0 X22.1720 Y-38.6670 F15000.0
G1 Z11.9000 F8000.0
G1 X22.1414 Y-37.2113 F12000.0
G1 X21.9903 Y-37.1402
G1 X21.7507 Y-37.1949
G1 X22.0461 Y-37.0664
G1 X21.5327 Y-37.6213
G1 X21.5440 Y-37.5708
G1 X21.4352 Y-37.8197
G1 X21.6855 Y-37.3048
G1 Z0.0000 F8000.0
G0 X21.1990 Y-38.0832 F15000.0
G1 Z11.9000 F8000.0
G1 X20.9929 Y-38.2059 F12000.0
G1 X20.9181 Y-38.0480
G1 X20.9071 Y-36.6237
G1 Z0.0000 F8000.0
G0 X18.6162 Y-33.8293 F15000.0
G1 Z11.9000 F8000.0
G1 X17.5323 Y-32.8140 F12000.0
G1 X18.2722 Y-31.5923
G1 X18.6110 Y-31.7721
G1 X18.4481 Y-31.6328
G1 X18.7084 Y-32.0505
G1 X18.6968 Y-32.4246
G1 X18.5798 Y-32.6289
G1 X18.2656 Y-32.8003
G1 X17.4973 Y-32.8563
G1 Z0.0000 F8000.0
G0 X19.5406 Y-32.3698 F15000.0
G1 Z11.9000 F8000.0
G1 X20.2974 Y-32.3326 F12000.0
G1 X20.4998 Y-32.4021
G1 X20.5224 Y-32.7432
G1 X20.4189 Y-32.9464
G1 X19.8233 Y-33.0231
G1 X19.5750 Y-32.7833
G1 X19.5487 Y-32.2889
G1 X19.7009 Y-31.6896
G1 X20.0220 Y-31.5758
G1 X21.2589 Y-31.6247
G1 X21.8371 Y-32.9911
G1 X22.3302 Y-31.6545
G1 X22.9765 Y-31.8849
G1 X23.0480 Y-32.5973
G1 X23.1528 Y-32.8857
G1 X23.6303 Y-33.0239
G1 X23.9443 Y-32.8970
G1 X24.0141 Y-32.6706
G1 X23.9936 Y-31.7946
G1 X23.7238 Y-31.5859
G1 X23.3664 Y-31.6373
G1 X23.1022 Y-31.8011
G1 X23.1893 Y-31.6887
G1 Z0.0000 F8000.0
G0 X24.8434 Y-33.0023 F15000.0
G1 Z11.9000 F8000.0
G1 X24.8116 Y-33.5042 F12000.0
G1 X24.9884 Y-33.7835
G1 X25.3243 Y-33.7205
G1 X25.4367 Y-33.5310
G1 X25.3910 Y-33.3011
G1 X24.8544 Y-32.9037
G1 X24.8454 Y-31.8019
G1 X25.3966 Y-31.5810
G1 X25.6191 Y-31.6374
G1 X25.7700 Y-31.8187
G1 X25.7388 Y-32.6884
G1 X25.6464 Y-32.9852
G1 X25.7677 Y-32.9050
G1 Z0.0000 F8000.0
G0 X24.1177 Y-28.1798 F15000.0
G1 Z11.9000 F8000.0
G1 X23.3706 Y-28.0789 F12000.0
G1 X23.2068 Y-27.9339
G1 X23.1126 Y-27.1904
G1 X23.2509 Y-26.7298
G1 X23.7052 Y-26.5974
G1 X24.2680 Y-26.6771
G1 X24.1664 Y-26.8979
G1 X24.1541 Y-28.1207
G1 X24.9392 Y-28.0524
G1 X24.9867 Y-26.7695
G1 X24.9736 Y-27.3654
G1 X25.0344 Y-27.4240
G1 X25.8779 Y-27.4262
G1 X25.9529 Y-27.4823
G1 X26.0549 Y-28.0021
G1 X26.0637 Y-26.6716
G1 Z0.0000 F8000.0
G0 X27.5718 Y-28.1798 F15000.0
G1 Z11.9000 F8000.0
G1 X26.8925 Y-27.9211 F12000.0
G1 X26.8923 Y-26.8317
G1 X27.3230 Y-26.6274
G1 X27.6442 Y-26.6400
G1 X27.8148 Y-26.8386
G1 X27.6691 Y-28.1311
G1 Z0.0000 F8000.0
G0 X29.1286 Y-29.0068 F15000.0
G1 Z11.9000 F8000.0
G1 X28.6421 Y-28.1798 F12000.0
G1 X29.7124 Y-26.8662
G1 X29.6151 Y-26.6716
G1 X29.3719 Y-26.5744
G1 X28.7394 Y-26.7689
G1 X28.6421 Y-27.1095
G1 X28.7394 Y-28.1311
G1 X29.3232 Y-28.8122
G1 X29.1286 Y-29.0068
G1 Z0.0000 F8000.0
G0 X31.5124 Y-28.1798 F15000.0
G1 Z11.9000 F8000.0
G1 X30.6854 Y-28.0825 F12000.0
G1 X30.5881 Y-27.9852
G1 X30.4908 Y-27.1095
G1 X30.6368 Y-26.6716
G1 X31.2205 Y-26.5744
G1 X31.7557 Y-26.6716
G1 X31.5611 Y-26.7689
G1 X31.5124 Y-28.1798
G1 Z0.0000 F8000.0
G0 X31.4151 Y-26.6716 F15000.0
G1 Z11.9000 F8000.0
G1 X31.4151 Y-26.6230 F12000.0
G1 Z0.0000 F8000.0
G0 X21.5393 Y-28.1798 F15000.0
G1 Z11.9000 F8000.0
G1 X22.0472 Y-28.0685 F12000.0
G1 X22.2270 Y-27.9485
G1 X22.1599 Y-27.5002
G1 X21.9153 Y-27.4134
G1 X22.0746 Y-27.4187
G1 X22.2393 Y-27.1707
G1 X22.1947 Y-26.8055
G1 X22.0591 Y-26.6305
G1 X20.6098 Y-26.6650
G1 X20.5914 Y-27.9907
G1 X20.5339 Y-28.0575
G1 X19.5855 Y-28.0430
G1 X19.5060 Y-27.2021
G1 X19.6453 Y-26.7395
G1 X20.5310 Y-26.4905
G1 X20.5005 Y-26.0191
G1 X20.3999 Y-25.8711
G1 X19.6931 Y-25.8287
G1 X18.7319 Y-26.6300
G1 X17.4860 Y-28.9143
G1 X17.4041 Y-26.6716
G1 Z0.0000 F8000.0
G0 X29.5667 Y-36.6237 F15000.0
G1 Z11.9000 F8000.0
G1 X29.1289 Y-37.2561 F12000.0
G1 Z0.0000 F8000.0
G0 X54.6640 Y-38.6714 F15000.0
G1 Z11.9000 F8000.0
G1 X54.4899 Y-36.8981 F12000.0
G1 X54.2924 Y-36.5756
G1 X55.2082 Y-36.6182
G1 X55.5519 Y-36.4098
G1 X55.5268 Y-36.5519
G1 X55.3966 Y-36.6645
G1 X55.2599 Y-38.7235
G1 X54.7127 Y-38.7687
G1 Z0.0000 F8000.0
G0 X57.2424 Y-36.7741 F15000.0
G1 Z11.9000 F8000.0
G1 X57.1251 Y-38.0077 F12000.0
G1 X56.9431 Y-38.0700
G1 X56.4711 Y-37.9924
G1 X56.3758 Y-37.8451
G1 X56.4128 Y-36.7474
G1 X56.7144 Y-36.6701
G1 X57.2074 Y-36.7476
G1 X57.5659 Y-36.6911
G1 X57.9111 Y-36.7522
G1 X58.0317 Y-38.0335
G1 X59.1700 Y-37.9915
G1 X59.2926 Y-37.6841
G1 X59.3344 Y-36.6281
G1 Z0.0000 F8000.0
G0 X58.6533 Y-36.6768 F15000.0
G1 Z11.9000 F8000.0
G1 X58.6533 Y-38.0390 F12000.0
G1 Z0.0000 F8000.0
G0 X60.9885 Y-36.7741 F15000.0
G1 Z11.9000 F8000.0
G1 X60.8712 Y-38.0077 F12000.0
G1 X60.6891 Y-38.0700
G1 X60.1510 Y-37.9317
G1 X60.0735 Y-36.9767
G1 X60.1345 Y-36.7562
G1 X60.3236 Y-36.6603
G1 X60.9351 Y-36.7472
G1 X61.1831 Y-36.6768
G1 Z0.0000 F8000.0
G0 X63.2677 Y-39.4714 F15000.0
G1 Z11.9000 F8000.0
G1 X0.0000 Y-39.4714 F12000.0
G1 Z0.0000 F8000.0
G0 X68.3658 Y-12.1735 F15000.0
G1 Z11.9000 F8000.0
G1 X69.7481 Y-12.2792 F12000.0
G1 X70.0333 Y-12.4949
G1 X70.1122 Y-12.7210
G1 X70.1152 Y-14.3636
G1 X70.0537 Y-14.5970
G1 X69.7861 Y-14.8488
G1 X68.4525 Y-14.9024
G1 X68.3171 Y-10.9573
G1 Z0.0000 F8000.0
G0 X70.0199 Y-12.4168 F15000.0
G1 Z11.9000 F8000.0
G1 X70.0685 Y-12.5141 F12000.0
G1 Z0.0000 F8000.0
G0 X71.9658 Y-12.2708 F15000.0
G1 Z11.9000 F8000.0
G1 X72.0631 Y-12.2222 F12000.0
G1 Z0.0000 F8000.0
G0 X74.7389 Y-12.1735 F15000.0
G1 Z11.9000 F8000.0
G1 X75.9963 Y-12.2369 F12000.0
G1 X76.4528 Y-12.6315
G1 X76.5442 Y-13.1043
G1 X76.1133 Y-14.2845
G1 X75.9279 Y-14.4121
G1 X74.8284 Y-14.5828
G1 X74.7928 Y-14.6561
G1 X76.4997 Y-16.2761
G1 X77.7451 Y-16.1813
G1 X77.9241 Y-16.0895
G1 X78.0244 Y-12.3449
G1 X78.2048 Y-12.2636
G1 X80.4535 Y-12.1909
G1 X80.6245 Y-12.0775
G1 X80.6916 Y-11.6636
G1 X80.2467 Y-12.3094
G1 X80.2363 Y-16.1628
G1 Z0.0000 F8000.0
G0 X83.7877 Y-16.3088 F15000.0
G1 Z11.9000 F8000.0
G1 X82.0907 Y-14.6570 F12000.0
G1 X82.2252 Y-14.5444
G1 X83.2236 Y-14.4125
G1 X83.4099 Y-14.2859
G1 X83.8414 Y-13.1060
G1 X83.7993 Y-12.7475
G1 X83.6836 Y-12.5315
G1 X83.3972 Y-12.2992
G1 X82.0363 Y-12.1735
G1 Z0.0000 F8000.0
G0 X86.9985 Y-12.1735 F15000.0
G1 Z11.9000 F8000.0
G1 X85.9887 Y-12.2216 F12000.0
G1 X85.7561 Y-12.2956
G1 X85.3598 Y-12.7698
G1 X85.2538 Y-13.3852
G1 X85.3886 Y-15.7726
G1 X85.7222 Y-16.1404
G1 X85.9386 Y-16.2495
G1 X86.9985 Y-16.3088
G1 Z0.0000 F8000.0
G0 X90.2094 Y-16.3088 F15000.0
G1 Z11.9000 F8000.0
G1 X88.5124 Y-14.6570 F12000.0
G1 X88.6469 Y-14.5444
G1 X89.6454 Y-14.4125
G1 X89.8316 Y-14.2859
G1 X90.2631 Y-13.1060
G1 X90.1727 Y-12.6331
G1 X89.7172 Y-12.2373
G1 X88.4580 Y-12.1735
G1 Z0.0000 F8000.0
G0 X94.5392 Y-12.3195 F15000.0
G1 Z11.9000 F8000.0
G1 X96.2906 Y-16.3088 F12000.0
G1 Z0.0000 F8000.0
G0 X97.8474 Y-12.7573 F15000.0
G1 Z11.9000 F8000.0
G1 X97.7565 Y-13.3801 F12000.0
G1 X97.8895 Y-15.7681
G1 X98.2179 Y-16.1406
G1 X98.4261 Y-16.2488
G1 X99.3064 Y-16.2582
G1 X99.5399 Y-16.1972
G1 X99.8977 Y-15.8494
G1 X99.9817 Y-15.6253
G1 X99.9517 Y-12.7290
G1 X99.5268 Y-12.2914
G1 X98.7832 Y-12.1883
G1 X98.4173 Y-12.2360
G1 X97.9089 Y-12.6899
G1 X98.3825 Y-12.2222
G1 Z0.0000 F8000.0
G0 X103.1502 Y-12.1735 F15000.0
G1 Z11.9000 F8000.0
G1 X102.0191 Y-12.2454 F12000.0
G1 X101.8107 Y-12.3707
G1 X101.5114 Y-12.7698
G1 X101.4054 Y-13.3852
G1 X101.5402 Y-15.7726
G1 X101.9764 Y-16.2082
G1 X103.2234 Y-16.3079
G1 X106.8476 Y-16.3088
G1 Z0.0000 F8000.0
G0 X105.7286 Y-16.3088 F15000.0
G1 Z11.9000 F8000.0
G1 X105.7773 Y-12.2708 F12000.0
G1 Z0.0000 F8000.0
G0 X90.7093 Y-28.8229 F15000.0
G1 Z11.9000 F8000.0
G1 X90.7118 Y-30.5990 F12000.0
G1 X90.7959 Y-30.7904
G1 X93.0115 Y-30.9779
G1 X93.2332 Y-31.1874
G1 X93.4701 Y-31.8889
G1 X93.2632 Y-34.5310
G1 X93.1318 Y-34.7213
G1 X92.8191 Y-34.8588
G1 X90.8436 Y-34.9047
G1 X90.6793 Y-30.9285
G1 X90.4871 Y-30.8595
G1 X89.4778 Y-30.8248
G1 X88.8954 Y-31.0007
G1 X88.2083 Y-30.9880
G1 X88.5269 Y-31.2548
G1 X88.6057 Y-31.4625
G1 X88.3857 Y-34.9547
G1 X86.5369 Y-34.8300
G1 X86.2237 Y-34.7245
G1 X86.0082 Y-34.4501
G1 X85.8536 Y-31.9343
G1 X85.9961 Y-31.3327
G1 X86.1740 Y-31.0997
G1 X87.6517 Y-30.8392
G1 X88.1308 Y-30.9635
G1 Z0.0000 F8000.0
G0 X82.0010 Y-30.9635 F15000.0
G1 Z11.9000 F8000.0
G1 X81.9714 Y-37.0248 F12000.0
G1 X81.7854 Y-37.0918
G1 X80.3956 Y-37.0933
G1 Z0.0000 F8000.0
G0 X81.6781 Y-37.0933 F15000.0
G1 Z11.9000 F8000.0
G1 X85.6143 Y-37.1818 F12000.0
G1 Z0.0000 F8000.0
G0 X83.5578 Y-37.0933 F15000.0
G1 Z11.9000 F8000.0
G1 X82.0010 Y-37.0933 F12000.0
G1 Z0.0000 F8000.0
G0 X72.0145 Y-16.2601 F15000.0
G1 Z11.9000 F8000.0
G1 X72.8902 Y-16.2601 F12000.0
G1 X73.2307 Y-15.9682
G1 X73.3767 Y-12.9033
G1 X73.2794 Y-12.5627
G1 X72.9875 Y-12.2708
G1 X72.3064 Y-12.1735
G1 X72.0631 Y-12.2222
G1 X71.5280 Y-13.0979
G1 X72.0145 Y-16.2601
G1 Z0.0000 F8000.0
G0 X131.3959 Y-5.3662 F15000.0
G1 Z11.9000 F8000.0
G1 X131.3959 Y-44.3318 F12000.0
G1 Z0.0000 F8000.0
G0 X131.3959 Y-39.4714 F15000.0
G1 Z11.9000 F8000.0
G1 X145.9771 Y-39.4714 F12000.0
G1 X180.0000 Y-39.4714 F12000.0
G1 Z0.0000 F8000.0
G0 X177.8824 Y-41.2769 F15000.0
G1 Z11.9000 F8000.0
G1 X177.9310 Y-41.3742 F12000.0
G1 Z0.0000 F8000.0
G0 X177.8824 Y-42.7364 F15000.0
G1 Z11.9000 F8000.0
G1 X177.6323 Y-42.9273 F12000.0
G1 X177.7948 Y-42.8193
G1 X177.8915 Y-42.6165
G1 X177.9228 Y-41.3759
G1 X177.7650 Y-41.1970
G1 X177.0504 Y-41.2551
G1 X176.9108 Y-41.5490
G1 X176.9445 Y-42.6568
G1 X177.0654 Y-42.7965
G1 X177.4734 Y-42.9937
G1 X177.1526 Y-43.6121
G1 Z0.0000 F8000.0
G0 X177.1526 Y-43.7094 F15000.0
G1 Z11.9000 F8000.0
G1 X177.9796 Y-43.7094 F12000.0
G1 Z0.0000 F8000.0
G0 X175.9850 Y-41.3256 F15000.0
G1 Z11.9000 F8000.0
G1 X175.9092 Y-42.8116 F12000.0
G1 X175.3447 Y-42.8472
G1 X175.0186 Y-42.7562
G1 X174.9303 Y-42.5936
G1 X174.8794 Y-41.5949
G1 X174.9504 Y-41.3671
G1 X175.1238 Y-41.2316
G1 X175.4903 Y-41.1590
G1 X176.1800 Y-41.1904
G1 X175.8877 Y-41.2283
G1 Z0.0000 F8000.0
G0 X174.0390 Y-41.2283 F15000.0
G1 Z11.9000 F8000.0
G1 X173.9754 Y-42.6142 F12000.0
G1 X173.7373 Y-42.8624
G1 X172.5046 Y-42.8544
G1 X172.4453 Y-42.7831
G1 X172.3363 Y-41.2283
G1 Z0.0000 F8000.0
G0 X171.5093 Y-41.2283 F15000.0
G1 Z11.9000 F8000.0
G1 X171.5093 Y-42.7851 F12000.0
G1 Z0.0000 F8000.0
G0 X170.6822 Y-42.7851 F15000.0
G1 Z11.9000 F8000.0
G1 X170.7023 Y-41.2054 F12000.0
G1 X171.4520 Y-41.1737
G1 X170.4476 Y-41.1563
G1 X169.9743 Y-41.2743
G1 X169.8612 Y-41.4572
G1 X169.8065 Y-42.7851
G1 Z0.0000 F8000.0
G0 X168.9308 Y-42.8824 F15000.0
G1 Z11.9000 F8000.0
G1 X168.4296 Y-42.8318 F12000.0
G1 X168.2336 Y-42.7390
G1 X168.1650 Y-42.5667
G1 X168.2036 Y-41.3359
G1 X168.3926 Y-41.2217
G1 X168.9308 Y-41.1310
G1 Z0.0000 F8000.0
G0 X167.2281 Y-41.3256 F15000.0
G1 Z11.9000 F8000.0
G1 X167.1523 Y-42.8116 F12000.0
G1 X166.5878 Y-42.8472
G1 X166.2617 Y-42.7562
G1 X166.1604 Y-42.4765
G1 X166.1970 Y-41.3608
G1 X166.3714 Y-41.2299
G1 X166.7387 Y-41.1582
G1 X167.4256 Y-41.1910
G1 X167.2008 Y-41.2393
G1 X167.0335 Y-41.1796
G1 Z0.0000 F8000.0
G0 X165.2821 Y-41.2283 F15000.0
G1 Z11.9000 F8000.0
G1 X165.2821 Y-43.6121 F12000.0
G1 Z0.0000 F8000.0
G0 X164.6983 Y-42.6878 F15000.0
G1 Z11.9000 F8000.0
G1 X164.9325 Y-43.0553 F12000.0
G1 X164.4603 Y-42.5035
G1 X163.6723 Y-43.1389
G1 X163.5956 Y-43.5201
G1 X163.5794 Y-41.2283
G1 Z0.0000 F8000.0
G0 X162.5355 Y-44.3318 F15000.0
G1 Z11.9000 F8000.0
G1 X162.5355 Y-24.8078 F12000.0
G1 Z0.0000 F8000.0
G0 X162.6698 Y-23.3257 F15000.0
G1 Z11.9000 F8000.0
G1 X162.1299 Y-23.1681 F12000.0
G1 X161.9634 Y-23.0236
G1 X161.9423 Y-22.1494
G1 X162.0187 Y-21.9354
G1 X162.5937 Y-21.7518
G1 X162.7797 Y-21.8056
G1 X162.9367 Y-22.1528
G1 X162.7671 Y-23.2770
G1 Z0.0000 F8000.0
G0 X164.2266 Y-24.1527 F15000.0
G1 Z11.9000 F8000.0
G1 X163.7401 Y-23.3257 F12000.0
G1 X164.8104 Y-22.0122
G1 X164.7131 Y-21.8176
G1 X164.4698 Y-21.7203
G1 X163.8374 Y-21.9149
G1 X163.7401 Y-22.3041
G1 X163.8374 Y-23.2770
G1 X164.4212 Y-23.9581
G1 X164.2266 Y-24.1527
G1 Z0.0000 F8000.0
G0 X161.1616 Y-21.8176 F15000.0
G1 Z11.9000 F8000.0
G1 X161.0071 Y-23.1726 F12000.0
G1 X160.2985 Y-23.3231
G1 X159.6880 Y-23.3025
G1 X159.6213 Y-23.2386
G1 X159.5436 Y-21.8963
G1 X160.1112 Y-21.7841
G1 X160.3007 Y-21.8332
G1 X160.2859 Y-23.3257
G1 Z0.0000 F8000.0
G0 X158.6805 Y-23.3257 F15000.0
G1 Z11.9000 F8000.0
G1 X158.1852 Y-23.2662 F12000.0
G1 X158.0406 Y-23.1604
G1 X157.9188 Y-22.3229
G1 X158.0639 Y-21.8661
G1 X158.6805 Y-21.7203
G1 Z0.0000 F8000.0
G0 X157.1724 Y-23.2284 F15000.0
G1 Z11.9000 F8000.0
G1 X156.4436 Y-21.7945 F12000.0
G1 X156.1749 Y-21.9297
G1 X156.0622 Y-22.4047
G1 X156.1021 Y-23.2284
G1 Z0.0000 F8000.0
G0 X155.2750 Y-21.7689 F15000.0
G1 Z11.9000 F8000.0
G1 X155.2017 Y-24.0698 F12000.0
G1 X153.9615 Y-21.7689
G1 Z0.0000 F8000.0
G0 X151.4142 Y-19.9474 F15000.0
G1 Z11.9000 F8000.0
G1 X151.4142 Y-24.8078 F12000.0
G1 Z0.0000 F8000.0
G0 X145.9771 Y-24.8078 F15000.0
G1 Z11.9000 F8000.0
G1 X145.9771 Y-44.3318 F12000.0
G1 Z0.0000 F8000.0
G0 X149.0749 Y-43.7094 F15000.0
G1 Z11.9000 F8000.0
G1 X149.1654 Y-43.2539 F12000.0
G1 X149.4693 Y-43.0237
G1 X149.0749 Y-41.2769
G1 Z0.0000 F8000.0
G0 X149.7074 Y-42.6878 F15000.0
G1 Z11.9000 F8000.0
G1 X149.5673 Y-42.9635 F12000.0
G1 X150.0089 Y-42.7029
G1 X150.4274 Y-43.1029
G1 X149.9598 Y-42.6318
G1 X149.7949 Y-42.6703
G1 X150.1509 Y-42.7937
G1 X150.6600 Y-43.3037
G1 X150.7550 Y-43.6072
G1 X150.6882 Y-43.1417
G1 X150.7777 Y-41.3256
G1 Z0.0000 F8000.0
G0 X152.4804 Y-41.2769 F15000.0
G1 Z11.9000 F8000.0
G1 X151.7606 Y-41.3717 F12000.0
G1 X151.6539 Y-41.6947
G1 X151.6820 Y-42.6940
G1 X151.7787 Y-42.8137
G1 X152.6647 Y-41.4497
G1 X152.5699 Y-41.3234
G1 X152.8210 Y-41.3742
G1 Z0.0000 F8000.0
G0 X154.3777 Y-41.2283 F15000.0
G1 Z11.9000 F8000.0
G1 X153.6684 Y-41.3979 F12000.0
G1 X153.6013 Y-42.5019
G1 X153.6851 Y-42.7911
G1 X154.3777 Y-42.9310
G1 Z0.0000 F8000.0
G0 X156.0805 Y-42.9310 F15000.0
G1 Z11.9000 F8000.0
G1 X155.5792 Y-42.8805 F12000.0
G1 X155.3832 Y-42.7876
G1 X155.3146 Y-42.6154
G1 X155.3042 Y-41.6121
G1 X155.3749 Y-41.3953
G1 X156.0805 Y-41.2283
G1 Z0.0000 F8000.0
G0 X157.9292 Y-41.3256 F15000.0
G1 Z11.9000 F8000.0
G1 X157.9978 Y-41.4035 F12000.0
G1 X157.9632 Y-41.5958
G1 X157.1590 Y-42.8193
G1 X156.9990 Y-42.5199
G1 X157.0026 Y-41.5198
G1 X157.2668 Y-41.3073
G1 X157.6382 Y-41.2495
G1 X158.1724 Y-41.3742
G1 Z0.0000 F8000.0
G0 X168.8570 Y-34.5976 F15000.0
G1 Z11.9000 F8000.0
G1 X168.8546 Y-34.5194 F12000.0
G1 X169.1803 Y-34.3449
G1 X169.3217 Y-33.5328
G1 X168.3032 Y-31.8342
G1 X168.0595 Y-31.1080
G1 X169.2462 Y-30.9975
G1 Z0.0000 F8000.0
G0 X172.6517 Y-30.9975 F15000.0
G1 Z11.9000 F8000.0
G1 X172.6102 Y-34.1742 F12000.0
G1 X172.6517 Y-34.1111
G1 Z0.0000 F8000.0
G0 X173.2120 Y-41.2283 F15000.0
G1 Z11.9000 F8000.0
G1 X173.1147 Y-42.8824 F12000.0
G1 Z0.0000 F8000.0
G0 X174.2733 Y-23.6455 F15000.0
G1 Z11.9000 F8000.0
G1 X174.2446 Y-23.7067 F12000.0
G1 X174.2733 Y-22.2833
G1 Z0.0000 F8000.0
G0 X51.0755 Y-133.1937 F15000.0
G1 Z11.9000 F8000.0
G1 X51.0755 Y-134.0694 F12000.0
G1 Z0.0000 F8000.0
G0 X50.4989 Y-134.3989 F15000.0
G1 Z11.9000 F8000.0
G1 X50.4989 Y-133.5233 F12000.0
G1 Z0.0000 F8000.0
G0 X63.9680 Y-152.0175 F15000.0
G1 Z11.9000 F8000.0
G1 X63.9680 Y-152.8932 F12000.0
G1 Z0.0000 F8000.0
G0 X64.5858 Y-152.6049 F15000.0
G1 Z11.9000 F8000.0
G1 X64.5858 Y-151.7292 F12000.0
G1 Z0.0000 F8000.0
G0 X62.3616 Y-202.2540 F15000.0
G1 Z11.9000 F8000.0
G1 X82.2151 Y-202.2540 F12000.0
G1 Z0.0000 F8000.0
G0 X91.9359 Y-227.5446 F15000.0
G1 Z11.9000 F8000.0
G1 X91.9359 Y-237.4302 F12000.0
G1 Z0.0000 F8000.0
G0 X91.9359 Y-235.4531 F15000.0
G1 Z11.9000 F8000.0
G1 X96.7963 Y-236.1121 F12000.0
G1 Z0.0000 F8000.0
G0 X96.7963 Y-234.7940 F15000.0
G1 Z11.9000 F8000.0
G1 X91.9359 Y-235.4531 F12000.0
G1 X107.5057 Y-235.4531 F12000.0
G1 X102.6453 Y-234.7940 F12000.0
G1 Z0.0000 F8000.0
G0 X102.6453 Y-236.1121 F15000.0
G1 Z11.9000 F8000.0
G1 X107.5057 Y-235.4531 F12000.0
G1 Z0.0000 F8000.0
G0 X105.5546 Y-235.1647 F15000.0
G1 Z11.9000 F8000.0
G1 X104.6789 Y-235.1647 F12000.0
G1 Z0.0000 F8000.0
G0 X104.3905 Y-235.7826 F15000.0
G1 Z11.9000 F8000.0
G1 X105.2662 Y-235.7826 F12000.0
G1 Z0.0000 F8000.0
G0 X107.5057 Y-237.4302 F15000.0
G1 Z11.9000 F8000.0
G1 X107.5057 Y-227.5446 F12000.0
G1 X133.7849 Y-227.5446 F12000.0
G1 Z0.0000 F8000.0
G0 X96.6892 Y-239.8017 F15000.0
G1 Z11.9000 F8000.0
G1 X95.0970 Y-239.6468 F12000.0
G1 X94.4732 Y-239.0293
G1 X94.2985 Y-238.6978
G1 X94.2578 Y-237.5696
G1 X94.3505 Y-237.2158
G1 X94.5539 Y-236.8983
G1 X95.1300 Y-236.4098
G1 X95.7245 Y-236.2256
G1 X96.9371 Y-236.4668
G1 X97.5511 Y-237.0913
G1 X97.7416 Y-237.6842
G1 X97.6567 Y-238.4346
G1 X97.4803 Y-239.0379
G1 X97.0481 Y-239.4733
G1 X96.9222 Y-239.8128
G1 X96.9309 Y-240.0517
G1 X97.3492 Y-240.9499
G1 X97.2291 Y-241.8219
G1 X97.0630 Y-242.1475
G1 X96.4458 Y-242.5712
G1 X96.2106 Y-242.5815
G1 X95.1086 Y-242.3301
G1 X94.9426 Y-242.1658
G1 X94.6270 Y-241.4878
G1 X94.5802 Y-240.8685
G1 X95.1324 Y-239.8990
G1 Z0.0000 F8000.0
G0 X94.8040 Y-235.1647 F15000.0
G1 Z11.9000 F8000.0
G1 X93.9283 Y-235.1647 F12000.0
G1 Z0.0000 F8000.0
G0 X68.1282 Y-271.0412 F15000.0
G1 Z11.9000 F8000.0
G1 X0.0000 Y-271.0412 F12000.0
G1 Z0.0000 F8000.0
G0 X11.6339 Y-275.8575 F15000.0
G1 Z11.9000 F8000.0
G1 X11.7270 Y-279.8784 F12000.0
G1 X11.6460 Y-280.5430
G1 X11.7313 Y-280.0279
G1 X12.1748 Y-279.7106
G1 X12.9218 Y-278.5434
G1 X13.2070 Y-278.3125
G1 X13.3951 Y-278.2952
G1 X14.2609 Y-279.5549
G1 Z0.0000 F8000.0
G0 X14.1150 Y-279.3117 F15000.0
G1 Z11.9000 F8000.0
G1 X13.5478 Y-278.4040 F12000.0
G1 X13.3280 Y-278.2280
G1 X13.2880 Y-277.9981
G1 Z0.0000 F8000.0
G0 X14.9420 Y-275.9062 F15000.0
G1 Z11.9000 F8000.0
G1 X14.4333 Y-279.5368 F12000.0
G1 X14.4977 Y-279.7408
G1 X14.7739 Y-279.9703
G1 X14.9420 Y-280.6252
G1 Z0.0000 F8000.0
G0 X16.5475 Y-278.9711 F15000.0
G1 Z11.9000 F8000.0
G1 X16.6103 Y-278.0489 F12000.0
G1 X16.8493 Y-277.6348
G1 X17.0612 Y-277.5490
G1 X18.6675 Y-277.3764
G1 X18.7350 Y-277.1704
G1 X18.7367 Y-275.9062
G1 Z0.0000 F8000.0
G0 X18.7367 Y-277.4630 F15000.0
G1 Z11.9000 F8000.0
G1 X18.7367 Y-278.9225 F12000.0
G1 Z0.0000 F8000.0
G0 X20.4881 Y-276.2954 F15000.0
G1 Z11.9000 F8000.0
G1 X20.3973 Y-276.8067 F12000.0
G1 X20.5315 Y-280.2062
G1 X20.7350 Y-280.4538
G1 X20.9944 Y-280.5837
G1 X21.7453 Y-280.6567
G1 X21.9854 Y-280.6025
G1 X22.4142 Y-280.2352
G1 X22.5548 Y-276.5901
G1 X22.3842 Y-276.1458
G1 X22.1101 Y-275.8928
G1 X21.7729 Y-275.7954
G1 X20.8585 Y-275.9431
G1 X20.5997 Y-276.1290
G1 X20.8286 Y-275.9548
G1 Z0.0000 F8000.0
G0 X24.3314 Y-276.2954 F15000.0
G1 Z11.9000 F8000.0
G1 X24.2400 Y-276.7631 F12000.0
G1 X24.3701 Y-280.1643
G1 X24.6360 Y-280.5170
G1 X24.4393 Y-280.3116
G1 X24.7235 Y-280.5462
G1 X25.5887 Y-280.6567
G1 X25.8287 Y-280.6025
G1 X26.2575 Y-280.2352
G1 X26.3982 Y-276.5901
G1 X26.2275 Y-276.1458
G1 X25.9534 Y-275.8928
G1 X25.6162 Y-275.7954
G1 X24.7018 Y-275.9431
G1 X24.4430 Y-276.1290
G1 X24.6719 Y-275.9548
G1 Z0.0000 F8000.0
G0 X29.8288 Y-276.2954 F15000.0
G1 Z11.9000 F8000.0
G1 X29.7369 Y-276.7322 F12000.0
G1 X29.8552 Y-280.1368
G1 X30.0627 Y-280.4556
G1 X29.9325 Y-280.3100
G1 X30.1400 Y-280.5218
G1 X29.9971 Y-280.3962
G1 X30.3758 Y-280.5910
G1 X31.2483 Y-280.6300
G1 X31.6487 Y-280.3831
G1 X31.7809 Y-280.0808
G1 X31.8864 Y-276.5493
G1 X31.5632 Y-275.9526
G1 X31.6630 Y-276.0455
G1 X31.1096 Y-275.8077
G1 X30.1992 Y-275.9431
G1 X29.9404 Y-276.1290
G1 X30.1693 Y-275.9548
G1 Z0.0000 F8000.0
G0 X34.6938 Y-275.9062 F15000.0
G1 Z11.9000 F8000.0
G1 X34.5601 Y-280.2771 F12000.0
G1 X34.1100 Y-280.1387
G1 Z0.0000 F8000.0
G0 X38.0506 Y-276.2954 F15000.0
G1 Z11.9000 F8000.0
G1 X37.9597 Y-276.8067 F12000.0
G1 X38.0940 Y-280.2062
G1 X38.2974 Y-280.4538
G1 X38.5569 Y-280.5837
G1 X39.3078 Y-280.6567
G1 X39.5479 Y-280.6025
G1 X39.9767 Y-280.2352
G1 X40.1173 Y-276.5901
G1 X39.9467 Y-276.1458
G1 X39.6726 Y-275.8928
G1 X39.3354 Y-275.7954
G1 X38.4209 Y-275.9431
G1 X38.1622 Y-276.1290
G1 X38.3911 Y-275.9548
G1 Z0.0000 F8000.0
G0 X41.8939 Y-276.2954 F15000.0
G1 Z11.9000 F8000.0
G1 X41.8025 Y-276.7631 F12000.0
G1 X41.9326 Y-280.1643
G1 X42.1985 Y-280.5170
G1 X42.0018 Y-280.3116
G1 X42.2860 Y-280.5462
G1 X43.1511 Y-280.6567
G1 X43.3912 Y-280.6025
G1 X43.8200 Y-280.2352
G1 X43.9606 Y-276.5901
G1 X43.7900 Y-276.1458
G1 X43.5159 Y-275.8928
G1 X43.1787 Y-275.7954
G1 X42.2643 Y-275.9431
G1 X42.0055 Y-276.1290
G1 X42.2344 Y-275.9548
G1 Z0.0000 F8000.0
G0 X47.3913 Y-276.2954 F15000.0
G1 Z11.9000 F8000.0
G1 X47.2994 Y-276.7314 F12000.0
G1 X47.4173 Y-280.1361
G1 X47.6254 Y-280.4559
G1 X47.4948 Y-280.3096
G1 X47.7028 Y-280.5220
G1 X47.5593 Y-280.3960
G1 X47.9374 Y-280.5909
G1 X48.8100 Y-280.6302
G1 X49.2105 Y-280.3836
G1 X49.3434 Y-280.0817
G1 X49.4490 Y-276.5501
G1 X49.3160 Y-276.2008
G1 X49.0805 Y-275.9418
G1 X48.6761 Y-275.7954
G1 X47.7617 Y-275.9431
G1 X47.5029 Y-276.1290
G1 X47.7318 Y-275.9548
G1 Z0.0000 F8000.0
G0 X49.1913 Y-276.0035 F15000.0
G1 Z11.9000 F8000.0
G1 X49.3373 Y-276.1981 F12000.0
G1 Z0.0000 F8000.0
G0 X51.2832 Y-275.7602 F15000.0
G1 Z11.9000 F8000.0
G1 X52.8334 Y-275.9955 F12000.0
G1 X53.0345 Y-276.1185
G1 X53.2841 Y-276.6891
G1 X53.1352 Y-277.9292
G1 X53.0171 Y-278.1398
G1 X52.7113 Y-278.3404
G1 X51.3422 Y-278.5534
G1 X51.2174 Y-278.6317
G1 X53.2292 Y-280.6738
G1 Z0.0000 F8000.0
G0 X68.1282 Y-284.6338 F15000.0
G1 Z11.9000 F8000.0
G1 X68.1282 Y-271.0412 F12000.0
G1 Z0.0000 F8000.0

G0 Z0.0000 F800.0
G4 P0.06
G0 X0.0000 Y0.0000 F15000.0
M5
G4 P0.10
$1=0
