$X
$1=255
G21
G90
G92 Z4.0000
G0 Z0.0000 F800.0
G4 P0.06
G92 Z0.0000
G0 Z0.0000 F800.0
G0 X0.0000 Y0.0000 F15000.0
G21
G90
G17
G91.1
G0 Z0.0000
G0 X180.0000 Y-74.6459 F15000.0
G1 Z11.9000 F8000.0
G1 X179.7067 Y-74.7559 F12000.0
G1 Z0.0000 F8000.0
G0 X180.0000 Y-76.9770 F15000.0
G1 Z11.9000 F8000.0
G1 X177.7420 Y-77.7656 F12000.0
G1 Z0.0000 F8000.0
G0 X179.6648 Y-76.4698 F15000.0
G1 Z11.9000 F8000.0
G1 X179.2886 Y-76.5952 F12000.0
G1 X179.1632 Y-75.8846
G1 X178.8288 Y-75.6755
G1 X178.2435 Y-75.8846
G1 Z0.0000 F8000.0
G0 X179.2886 Y-73.5436 F15000.0
G1 Z11.9000 F8000.0
G1 X177.9510 Y-74.0870 F12000.0
G1 Z0.0000 F8000.0
G0 X178.8706 Y-75.0485 F15000.0
G1 Z11.9000 F8000.0
G1 X178.6198 Y-75.1321 F12000.0
G1 Z0.0000 F8000.0
G0 X178.1599 Y-75.2993 F15000.0
G1 Z11.9000 F8000.0
G1 X177.9092 Y-75.3411 F12000.0
G1 Z0.0000 F8000.0
G0 X177.9928 Y-76.0100 F15000.0
G1 Z11.9000 F8000.0
G1 X177.6584 Y-77.3058 F12000.0
G1 Z0.0000 F8000.0
G0 X177.7001 Y-74.4633 F15000.0
G1 Z11.9000 F8000.0
G1 X177.7001 Y-75.1740 F12000.0
G1 Z0.0000 F8000.0
G0 X133.8363 Y-87.4654 F15000.0
G1 Z11.9000 F8000.0
G1 X133.7946 Y-86.2949 F12000.0
G1 Z0.0000 F8000.0
G0 X133.3765 Y-88.3014 F15000.0
G1 Z11.9000 F8000.0
G1 X133.7946 Y-88.4268 F12000.0
G1 X133.8781 Y-88.7612
G1 X133.6273 Y-89.4301
G1 X133.5019 Y-89.5554
G1 Z0.0000 F8000.0
G0 X133.7109 Y-90.0989 F15000.0
G1 Z11.9000 F8000.0
G1 X133.3347 Y-90.8513 F12000.0
G1 Z0.0000 F8000.0
G0 X133.4601 Y-90.2661 F15000.0
G1 Z11.9000 F8000.0
G1 X130.9938 Y-91.1022 F12000.0
G1 Z0.0000 F8000.0
G0 X133.2510 Y-89.6809 F15000.0
G1 Z11.9000 F8000.0
G1 X131.6208 Y-90.2661 F12000.0
G1 Z0.0000 F8000.0
G0 X132.9167 Y-87.8416 F15000.0
G1 Z11.9000 F8000.0
G1 X132.5404 Y-87.9670 F12000.0
G1 X132.4151 Y-87.2563
G1 X132.0806 Y-87.0474
G1 X131.4955 Y-87.2563
G1 Z0.0000 F8000.0
G0 X132.5404 Y-88.5940 F15000.0
G1 Z11.9000 F8000.0
G1 X131.2028 Y-89.1374 F12000.0
G1 X130.9102 Y-89.5973
G1 X131.4118 Y-90.3497
G1 Z0.0000 F8000.0
G0 X131.2446 Y-87.3818 F15000.0
G1 Z11.9000 F8000.0
G1 X130.9102 Y-88.6776 F12000.0
G1 Z0.0000 F8000.0
G0 X96.1350 Y-120.3200 F15000.0
G1 Z11.9000 F8000.0
G1 X95.1735 Y-117.7701 F12000.0
G1 Z0.0000 F8000.0
G0 X95.7169 Y-117.8536 F15000.0
G1 Z11.9000 F8000.0
G1 X95.4244 Y-117.6865 F12000.0
G1 Z0.0000 F8000.0
G0 X95.3407 Y-119.8602 F15000.0
G1 Z11.9000 F8000.0
G1 X94.5465 Y-120.3200 F12000.0
G1 X94.4210 Y-120.2782
G1 Z0.0000 F8000.0
G0 X95.2571 Y-119.6512 F15000.0
G1 Z11.9000 F8000.0
G1 X94.6719 Y-118.0209 F12000.0
G1 Z0.0000 F8000.0
G0 X94.5047 Y-117.7283 F15000.0
G1 Z11.9000 F8000.0
G1 X93.5851 Y-117.3521 F12000.0
G1 X93.3342 Y-117.4774
G1 Z0.0000 F8000.0
G0 X94.0449 Y-119.9856 F15000.0
G1 Z11.9000 F8000.0
G1 X93.3761 Y-118.2299 F12000.0
G1 Z0.0000 F8000.0
G0 X93.3761 Y-119.8602 F15000.0
G1 Z11.9000 F8000.0
G1 X92.5818 Y-120.3200 F12000.0
G1 X92.4564 Y-120.2782
G1 Z0.0000 F8000.0
G0 X93.2925 Y-119.6512 F15000.0
G1 Z11.9000 F8000.0
G1 X92.7072 Y-118.0209 F12000.0
G1 Z0.0000 F8000.0
G0 X93.2506 Y-117.8955 F15000.0
G1 Z11.9000 F8000.0
G1 X93.2089 Y-117.6865 F12000.0
G1 Z0.0000 F8000.0
G0 X92.5400 Y-117.7283 F15000.0
G1 Z11.9000 F8000.0
G1 X91.6204 Y-117.3521 F12000.0
G1 X91.3696 Y-117.4774
G1 Z0.0000 F8000.0
G0 X92.0802 Y-119.9856 F15000.0
G1 Z11.9000 F8000.0
G1 X91.2860 Y-117.6029 F12000.0
G1 Z0.0000 F8000.0
G0 X110.5721 Y-101.8422 F15000.0
G1 Z11.9000 F8000.0
G1 X110.4467 Y-101.4242 F12000.0
G1 Z0.0000 F8000.0
G0 X110.3213 Y-101.1316 F15000.0
G1 Z11.9000 F8000.0
G1 X109.4434 Y-98.7908 F12000.0
G1 X108.3566 Y-98.8325
G1 X108.2312 Y-99.0416
G1 X108.5238 Y-99.9612
G1 X108.7746 Y-100.2120
G1 X109.3598 Y-100.3792
G1 X109.1926 Y-101.5078
G1 Z0.0000 F8000.0
G0 X109.9451 Y-100.3792 F15000.0
G1 Z11.9000 F8000.0
G1 X109.4434 Y-100.3792 F12000.0
G1 Z0.0000 F8000.0
G0 X108.3566 Y-100.9644 F15000.0
G1 Z11.9000 F8000.0
G1 X108.1894 Y-100.9226 F12000.0
G1 X107.0607 Y-98.8325
G1 Z0.0000 F8000.0
G0 X108.1894 Y-100.9226 F15000.0
G1 Z11.9000 F8000.0
G1 X106.8518 Y-101.0899 F12000.0
G1 Z0.0000 F8000.0
G0 X107.6878 Y-101.8005 F15000.0
G1 Z11.9000 F8000.0
G1 X107.0607 Y-100.3374 F12000.0
G1 Z0.0000 F8000.0
G0 X29.2047 Y-240.8907 F15000.0
G1 Z11.9000 F8000.0
G1 X28.2433 Y-238.4661 F12000.0
G1 Z0.0000 F8000.0
G0 X27.7835 Y-239.3439 F15000.0
G1 Z11.9000 F8000.0
G1 X27.7417 Y-239.0931 F12000.0
G1 X27.9925 Y-238.1735
G1 X27.9507 Y-237.7137
G1 Z0.0000 F8000.0
G0 X27.6998 Y-239.1350 F15000.0
G1 Z11.9000 F8000.0
G1 X27.5326 Y-239.0931 F12000.0
G1 X26.9892 Y-238.5916
G1 X26.4877 Y-238.2571
G1 X27.2819 Y-240.6398
G1 Z0.0000 F8000.0
G0 X26.1532 Y-239.0931 F15000.0
G1 Z11.9000 F8000.0
G1 X26.6130 Y-240.4726 F12000.0
G1 X26.1114 Y-240.8070
G1 X25.5262 Y-240.5980
G1 X25.2754 Y-239.9710
G1 Z0.0000 F8000.0
G0 X25.9442 Y-238.8424 F15000.0
G1 Z11.9000 F8000.0
G1 X24.9409 Y-238.7169 F12000.0
G1 X25.1500 Y-239.6365
G1 Z0.0000 F8000.0
G0 X24.5648 Y-239.4694 F15000.0
G1 Z11.9000 F8000.0
G1 X24.8573 Y-240.3472 F12000.0
G1 X24.8573 Y-240.6816
G1 X23.8541 Y-240.8070
G1 Z0.0000 F8000.0
G0 X24.4393 Y-239.1350 F15000.0
G1 Z11.9000 F8000.0
G1 X24.0631 Y-238.8005 F12000.0
G1 X23.1016 Y-238.7588
G1 Z0.0000 F8000.0
G0 X23.1853 Y-240.4726 F15000.0
G1 Z11.9000 F8000.0
G1 X23.1853 Y-240.6816 F12000.0
G1 X22.1403 Y-240.8070
G1 Z0.0000 F8000.0
G0 X23.0599 Y-240.1382 F15000.0
G1 Z11.9000 F8000.0
G1 X22.8509 Y-239.4694 F12000.0
G1 Z0.0000 F8000.0
G0 X22.7255 Y-239.1350 F15000.0
G1 Z11.9000 F8000.0
G1 X22.0148 Y-238.7588 F12000.0
G1 X21.3878 Y-238.7588
G1 Z0.0000 F8000.0
G0 X21.5132 Y-240.4726 F15000.0
G1 Z11.9000 F8000.0
G1 X20.9698 Y-240.8070 F12000.0
G1 X20.3846 Y-240.5980
G1 X19.7993 Y-238.7588
G1 X21.0534 Y-239.1350
G1 Z0.0000 F8000.0
G0 X21.3878 Y-240.1382 F15000.0
G1 Z11.9000 F8000.0
G1 X21.1788 Y-239.4694 F12000.0
G1 Z0.0000 F8000.0
G0 X169.2900 Y-245.3886 F15000.0
G1 Z11.9000 F8000.0
G1 X169.2482 Y-245.2632 F12000.0
G1 Z0.0000 F8000.0
G0 X169.0393 Y-244.8869 F15000.0
G1 Z11.9000 F8000.0
G1 X168.1614 Y-242.3371 F12000.0
G1 Z0.0000 F8000.0
G0 X168.7884 Y-244.6779 F15000.0
G1 Z11.9000 F8000.0
G1 X167.4925 Y-243.0895 F12000.0
G1 Z0.0000 F8000.0
G0 X167.9942 Y-245.2213 F15000.0
G1 Z11.9000 F8000.0
G1 X167.3253 Y-243.1731 F12000.0
G1 Z0.0000 F8000.0
G0 X167.4089 Y-245.0960 F15000.0
G1 Z11.9000 F8000.0
G1 X167.3672 Y-245.3050 F12000.0
G1 X166.6983 Y-245.2632
G1 Z0.0000 F8000.0
G0 X167.1581 Y-242.7969 F15000.0
G1 Z11.9000 F8000.0
G1 X166.9491 Y-242.3788 F12000.0
G1 Z0.0000 F8000.0
G0 X166.8238 Y-244.3435 F15000.0
G1 Z11.9000 F8000.0
G1 X166.4893 Y-244.3435 F12000.0
G1 X166.4057 Y-244.4690
G1 X166.6147 Y-245.1796
G1 Z0.0000 F8000.0
G0 X166.7402 Y-243.4239 F15000.0
G1 Z11.9000 F8000.0
G1 X166.4475 Y-243.2985 F12000.0
G1 X166.1131 Y-243.4239
G1 X166.1131 Y-243.7165
G1 Z0.0000 F8000.0
G0 X166.3221 Y-244.2181 F15000.0
G1 Z11.9000 F8000.0
G1 X166.2385 Y-244.0091 F12000.0
G1 Z0.0000 F8000.0
G0 X166.1967 Y-245.4304 F15000.0
G1 Z11.9000 F8000.0
G1 X165.5279 Y-243.8837 F12000.0
G1 Z0.0000 F8000.0
G0 X165.1934 Y-244.0927 F15000.0
G1 Z11.9000 F8000.0
G1 X165.3189 Y-243.6747 F12000.0
G1 X165.2770 Y-243.2567
G1 Z0.0000 F8000.0
G0 X165.1098 Y-244.1763 F15000.0
G1 Z11.9000 F8000.0
G1 X164.9845 Y-244.1345 F12000.0
G1 Z0.0000 F8000.0
G0 X164.8172 Y-245.2632 F15000.0
G1 Z11.9000 F8000.0
G1 X164.3574 Y-243.8001 F12000.0
G1 X164.1066 Y-243.3403
G1 Z0.0000 F8000.0
G0 X164.6500 Y-243.8837 F15000.0
G1 Z11.9000 F8000.0
G1 X164.3992 Y-243.7583 F12000.0
G1 Z0.0000 F8000.0
G0 X164.3992 Y-245.3468 F15000.0
G1 Z11.9000 F8000.0
G1 X164.3574 Y-245.1796 F12000.0
G1 Z0.0000 F8000.0
G0 X162.8777 Y-245.3296 F15000.0
G1 Z11.9000 F8000.0
G1 X162.7941 Y-245.2041 F12000.0
G1 Z0.0000 F8000.0
G0 X162.5015 Y-244.7443 F15000.0
G1 Z11.9000 F8000.0
G1 X162.2089 Y-244.2845 F12000.0
G1 Z0.0000 F8000.0
G0 X161.9163 Y-243.8247 F15000.0
G1 Z11.9000 F8000.0
G1 X161.7073 Y-243.5321 F12000.0
G1 Z0.0000 F8000.0
G0 X161.3311 Y-245.2460 F15000.0
G1 Z11.9000 F8000.0
G1 X160.4533 Y-242.4452 F12000.0
G1 X160.9967 Y-242.4452
G1 X161.2893 Y-242.8633
G1 Z0.0000 F8000.0
G0 X160.1188 Y-243.2813 F15000.0
G1 Z11.9000 F8000.0
G1 X160.7459 Y-244.9952 F12000.0
G1 X160.7459 Y-245.2877
G1 X159.8262 Y-245.1624
G1 Z0.0000 F8000.0
G0 X159.7426 Y-244.9533 F15000.0
G1 Z11.9000 F8000.0
G1 X159.1156 Y-243.2813 F12000.0
G1 Z0.0000 F8000.0
G0 X158.3631 Y-245.4132 F15000.0
G1 Z11.9000 F8000.0
G1 X159.1991 Y-245.2877 F12000.0
G1 X158.8229 Y-243.6993
G1 X158.6976 Y-243.4903
G1 X157.6943 Y-243.3648
G1 Z0.0000 F8000.0
G0 X157.9451 Y-245.4132 F15000.0
G1 Z11.9000 F8000.0
G1 X157.3599 Y-243.8665 F12000.0
G1 Z0.0000 F8000.0
G0 X157.2345 Y-243.5739 F15000.0
G1 Z11.9000 F8000.0
G1 X157.1927 Y-243.4484 F12000.0
G1 Z0.0000 F8000.0
G0 X157.1091 Y-243.3648 F15000.0
G1 Z11.9000 F8000.0
G1 X156.4402 Y-243.3231 F12000.0
G1 X155.6460 Y-243.5321
G1 X156.3149 Y-245.4132
G1 Z0.0000 F8000.0
G0 X157.1091 Y-245.4132 F15000.0
G1 Z11.9000 F8000.0
G1 X156.3985 Y-243.3648 F12000.0
G1 Z0.0000 F8000.0
G0 X150.3443 Y-245.5036 F15000.0
G1 Z11.9000 F8000.0
G1 X149.0903 Y-242.3685 F12000.0
G1 Z0.0000 F8000.0
G0 X149.1739 Y-242.9956 F15000.0
G1 Z11.9000 F8000.0
G1 X148.8813 Y-244.9185 F12000.0
G1 X148.9231 Y-245.2111
G1 Z0.0000 F8000.0
G0 X148.5469 Y-244.4168 F15000.0
G1 Z11.9000 F8000.0
G1 X147.7109 Y-242.3685 F12000.0
G1 Z0.0000 F8000.0
G0 X147.2510 Y-243.7062 F15000.0
G1 Z11.9000 F8000.0
G1 X147.7527 Y-243.6644 F12000.0
G1 X147.4182 Y-242.6194
G1 X146.9584 Y-242.4104
G1 X146.7912 Y-242.6611
G1 X146.9584 Y-243.1628
G1 Z0.0000 F8000.0
G0 X145.9077 Y-245.1006 F15000.0
G1 Z11.9000 F8000.0
G1 X145.9077 Y-245.2260 F12000.0
G1 Z0.0000 F8000.0
G0 X145.7824 Y-245.3514 F15000.0
G1 Z11.9000 F8000.0
G1 X144.1521 Y-243.3449 F12000.0
G1 X143.9849 Y-242.8015
G1 X143.9849 Y-242.5089
G1 Z0.0000 F8000.0
G0 X145.7405 Y-244.6408 F15000.0
G1 Z11.9000 F8000.0
G1 X145.3226 Y-243.5539 F12000.0
G1 X144.1939 Y-243.3031
G1 Z0.0000 F8000.0
G0 X144.9881 Y-242.3835 F15000.0
G1 Z11.9000 F8000.0
G1 X144.5701 Y-242.3417 F12000.0
G1 X144.0685 Y-242.4253
G1 Z0.0000 F8000.0
G0 X144.1939 Y-245.1006 F15000.0
G1 Z11.9000 F8000.0
G1 X144.1521 Y-245.3096 F12000.0
G1 X143.3579 Y-245.3096
G1 Z0.0000 F8000.0
G0 X144.0267 Y-244.6408 F15000.0
G1 Z11.9000 F8000.0
G1 X143.6086 Y-243.5539 F12000.0
G1 X142.6890 Y-243.3031
G1 X142.5218 Y-243.5122
G1 X143.0235 Y-245.0170
G1 Z0.0000 F8000.0
G0 X142.6890 Y-245.3932 F15000.0
G1 Z11.9000 F8000.0
G1 X142.3546 Y-244.7243 F12000.0
G1 Z0.0000 F8000.0
G0 X141.7276 Y-243.2613 F15000.0
G1 Z11.9000 F8000.0
G1 X142.1038 Y-244.1392 F12000.0
G1 X142.1038 Y-244.3064
G1 X141.8112 Y-244.3064
G1 X141.3095 Y-243.8466
G1 Z0.0000 F8000.0
G0 X141.7694 Y-244.3064 F15000.0
G1 Z11.9000 F8000.0
G1 X141.5604 Y-245.1842 F12000.0
G1 Z0.0000 F8000.0
G0 X141.2260 Y-246.2711 F15000.0
G1 Z11.9000 F8000.0
G1 X140.3482 Y-246.2292 F12000.0
G1 X139.9301 Y-245.6858
G1 X138.8851 Y-243.2613
G1 Z0.0000 F8000.0
G0 X141.0588 Y-243.6794 F15000.0
G1 Z11.9000 F8000.0
G1 X140.8497 Y-243.5122 F12000.0
G1 Z0.0000 F8000.0
G0 X140.0137 Y-243.2613 F15000.0
G1 Z11.9000 F8000.0
G1 X140.7661 Y-245.0588 F12000.0
G1 X140.7661 Y-245.2260
G1 Z0.0000 F8000.0
G0 X140.6408 Y-245.3514 F15000.0
G1 Z11.9000 F8000.0
G1 X139.8883 Y-245.3514 F12000.0
G1 Z0.0000 F8000.0
G0 X138.5089 Y-243.7630 F15000.0
G1 Z11.9000 F8000.0
G1 X138.3834 Y-243.6794 F12000.0
G1 X138.3417 Y-243.2613
G1 Z0.0000 F8000.0
G0 X138.3417 Y-243.7211 F15000.0
G1 Z11.9000 F8000.0
G1 X138.1744 Y-244.1809 F12000.0
G1 X137.9655 Y-244.1392
G1 Z0.0000 F8000.0
G0 X137.8819 Y-245.3514 F15000.0
G1 Z11.9000 F8000.0
G1 X137.1712 Y-243.5958 F12000.0
G1 Z0.0000 F8000.0
G0 X137.7146 Y-243.9720 F15000.0
G1 Z11.9000 F8000.0
G1 X137.3385 Y-243.7630 F12000.0
G1 Z0.0000 F8000.0
G0 X129.8895 Y-245.3932 F15000.0
G1 Z11.9000 F8000.0
G1 X128.8027 Y-242.5507 F12000.0
G1 X127.4650 Y-242.4253
G1 X127.4650 Y-242.6343
G1 X128.3010 Y-244.9752
G1 Z0.0000 F8000.0
G0 X127.7576 Y-245.1006 F15000.0
G1 Z11.9000 F8000.0
G1 X127.7576 Y-245.2260 F12000.0
G1 Z0.0000 F8000.0
G0 X127.6322 Y-245.3514 F15000.0
G1 Z11.9000 F8000.0
G1 X126.0855 Y-243.5122 F12000.0
G1 X126.1274 Y-243.4285
G1 Z0.0000 F8000.0
G0 X127.5904 Y-244.6408 F15000.0
G1 Z11.9000 F8000.0
G1 X127.1723 Y-243.5539 F12000.0
G1 X126.9216 Y-243.3867
G1 X126.2110 Y-243.3449
G1 Z0.0000 F8000.0
G0 X126.0438 Y-245.1006 F15000.0
G1 Z11.9000 F8000.0
G1 X126.0438 Y-245.2260 F12000.0
G1 Z0.0000 F8000.0
G0 X125.9183 Y-245.3514 F15000.0
G1 Z11.9000 F8000.0
G1 X124.2881 Y-243.3449 F12000.0
G1 X124.1208 Y-242.8015
G1 X124.1208 Y-242.5089
G1 Z0.0000 F8000.0
G0 X125.8765 Y-244.6408 F15000.0
G1 Z11.9000 F8000.0
G1 X125.4585 Y-243.5539 F12000.0
G1 X124.3298 Y-243.3031
G1 Z0.0000 F8000.0
G0 X125.1241 Y-242.3835 F15000.0
G1 Z11.9000 F8000.0
G1 X124.7061 Y-242.3417 F12000.0
G1 X124.2045 Y-242.4253
G1 Z0.0000 F8000.0
G0 X124.4970 Y-245.2678 F15000.0
G1 Z11.9000 F8000.0
G1 X123.7864 Y-243.5539 F12000.0
G1 Z0.0000 F8000.0
G0 X123.7028 Y-243.3867 F15000.0
G1 Z11.9000 F8000.0
G1 X122.7832 Y-243.3867 F12000.0
G1 X123.1176 Y-244.8079
G1 Z0.0000 F8000.0
G0 X122.9086 Y-245.3932 F15000.0
G1 Z11.9000 F8000.0
G1 X122.8250 Y-245.3096 F12000.0
G1 Z0.0000 F8000.0
G0 X118.7898 Y-245.6022 F15000.0
G1 Z11.9000 F8000.0
G1 X118.6644 Y-245.4350 F12000.0
G1 X118.4554 Y-245.3514
G1 X118.0792 Y-244.4318
G1 Z0.0000 F8000.0
G0 X118.3718 Y-245.3932 F15000.0
G1 Z11.9000 F8000.0
G1 X117.3686 Y-245.3514 F12000.0
G1 X116.7415 Y-243.3031
G1 Z0.0000 F8000.0
G0 X117.9120 Y-244.0556 F15000.0
G1 Z11.9000 F8000.0
G1 X117.2431 Y-242.4253 F12000.0
G1 X116.5325 Y-242.3835
G1 X116.5325 Y-242.7179
G1 Z0.0000 F8000.0
G0 X117.4103 Y-245.6022 F15000.0
G1 Z11.9000 F8000.0
G1 X117.3267 Y-245.3932 F12000.0
G1 Z0.0000 F8000.0
G0 X116.6161 Y-245.3096 F15000.0
G1 Z11.9000 F8000.0
G1 X116.5743 Y-244.7662 F12000.0
G1 X116.1563 Y-243.5539
G1 X115.9055 Y-243.3867
G1 X115.1531 Y-243.3031
G1 X115.3620 Y-244.3064
G1 X115.6546 Y-245.2260
G1 X116.5743 Y-245.3514
G1 Z0.0000 F8000.0
G0 X115.3202 Y-245.4350 F15000.0
G1 Z11.9000 F8000.0
G1 X114.6096 Y-243.4703 F12000.0
G1 X113.8154 Y-243.3449
G1 X113.1047 Y-243.3867
G1 X113.6900 Y-245.4350
G1 Z0.0000 F8000.0
G0 X114.5260 Y-245.4350 F15000.0
G1 Z11.9000 F8000.0
G1 X113.7736 Y-243.3867 F12000.0
G1 Z0.0000 F8000.0
G0 X112.9376 Y-245.3096 F15000.0
G1 Z11.9000 F8000.0
G1 X112.8957 Y-244.7662 F12000.0
G1 X112.4777 Y-243.5539
G1 X112.2270 Y-243.3867
G1 X111.4745 Y-243.3031
G1 X111.6834 Y-244.3064
G1 X111.9761 Y-245.2260
G1 X112.8957 Y-245.3514
G1 Z0.0000 F8000.0
G0 X41.9981 Y-240.7314 F15000.0
G1 Z11.9000 F8000.0
G1 X41.3292 Y-239.7281 F12000.0
G1 Z0.0000 F8000.0
G0 X41.0366 Y-239.2683 F15000.0
G1 Z11.9000 F8000.0
G1 X40.7858 Y-238.9339 F12000.0
G1 Z0.0000 F8000.0
G0 X40.4096 Y-238.3487 F15000.0
G1 Z11.9000 F8000.0
G1 X40.3260 Y-238.2651 F12000.0
G1 Z0.0000 F8000.0
G0 X40.2842 Y-240.3552 F15000.0
G1 Z11.9000 F8000.0
G1 X40.2424 Y-240.2297 F12000.0
G1 Z0.0000 F8000.0
G0 X40.0334 Y-237.8470 F15000.0
G1 Z11.9000 F8000.0
G1 X39.4482 Y-237.8053 F12000.0
G1 X39.5318 Y-238.2651
G1 Z0.0000 F8000.0
G0 X39.6990 Y-238.7249 F15000.0
G1 Z11.9000 F8000.0
G1 X39.6571 Y-238.5995 F12000.0
G1 Z0.0000 F8000.0
G0 X39.0301 Y-238.6831 F15000.0
G1 Z11.9000 F8000.0
G1 X39.6154 Y-240.1461 F12000.0
G1 X39.7407 Y-240.6895
G1 X38.6957 Y-240.5642
G1 Z0.0000 F8000.0
G0 X38.6121 Y-240.3969 F15000.0
G1 Z11.9000 F8000.0
G1 X38.2777 Y-239.5610 F12000.0
G1 Z0.0000 F8000.0
G0 X38.2777 Y-240.8986 F15000.0
G1 Z11.9000 F8000.0
G1 X37.6507 Y-239.2683 F12000.0
G1 Z0.0000 F8000.0
G0 X38.1523 Y-239.2683 F15000.0
G1 Z11.9000 F8000.0
G1 X37.9015 Y-238.6831 F12000.0
G1 Z0.0000 F8000.0
G0 X37.5253 Y-238.9757 F15000.0
G1 Z11.9000 F8000.0
G1 X36.6474 Y-238.7249 F12000.0
G1 X35.8532 Y-238.7667
G1 X35.7696 Y-238.8503
G1 X36.4384 Y-240.8986
G1 Z0.0000 F8000.0
G0 X37.3580 Y-240.8986 F15000.0
G1 Z11.9000 F8000.0
G1 X36.7729 Y-239.2683 F12000.0
G1 Z0.0000 F8000.0
G0 X36.6474 Y-238.9757 F15000.0
G1 Z11.9000 F8000.0
G1 X36.6057 Y-238.7667 F12000.0
G1 Z0.0000 F8000.0
G0 X35.9786 Y-240.8150 F15000.0
G1 Z11.9000 F8000.0
G1 X35.8532 Y-240.6895 F12000.0
G1 Z0.0000 F8000.0
G0 X169.3227 Y-254.7017 F15000.0
G1 Z11.9000 F8000.0
G1 X168.4448 Y-252.2771 F12000.0
G1 Z0.0000 F8000.0
G0 X168.3194 Y-251.9845 F15000.0
G1 Z11.9000 F8000.0
G1 X168.2776 Y-251.8592 F12000.0
G1 X166.8982 Y-251.6083
G1 X166.9818 Y-252.0681
G1 Z0.0000 F8000.0
G0 X167.7342 Y-254.1583 F15000.0
G1 Z11.9000 F8000.0
G1 X167.6924 Y-254.0328 F12000.0
G1 Z0.0000 F8000.0
G0 X167.6924 Y-255.4959 F15000.0
G1 Z11.9000 F8000.0
G1 X166.5638 Y-252.5698 F12000.0
G1 X165.5187 Y-252.7788
G1 X166.1457 Y-254.4090
G1 X167.2325 Y-254.5762
G1 Z0.0000 F8000.0
G0 X167.1489 Y-252.5279 F15000.0
G1 Z11.9000 F8000.0
G1 X167.1072 Y-252.4026 F12000.0
G1 Z0.0000 F8000.0
G0 X164.3064 Y-254.2000 F15000.0
G1 Z11.9000 F8000.0
G1 X163.8049 Y-252.7788 F12000.0
G1 X163.9302 Y-252.5279
G1 X164.8917 Y-252.7370
G1 X165.4769 Y-254.4508
G1 X164.8081 Y-254.5762
G1 X164.5155 Y-254.4926
G1 Z0.0000 F8000.0
G0 X162.1745 Y-252.6115 F15000.0
G1 Z11.9000 F8000.0
G1 X162.1745 Y-252.9041 F12000.0
G1 X162.7598 Y-254.4508
G1 X163.7212 Y-254.5345
G1 X163.5958 Y-253.8238
G1 X162.8434 Y-251.8173
G1 Z0.0000 F8000.0
G0 X163.0524 Y-252.5279 F15000.0
G1 Z11.9000 F8000.0
G1 X162.2581 Y-252.5279 F12000.0
G1 Z0.0000 F8000.0
G0 X162.5926 Y-252.3190 F15000.0
G1 Z11.9000 F8000.0
G1 X162.3417 Y-252.0681 F12000.0
G1 Z0.0000 F8000.0
G0 X162.5090 Y-251.6083 F15000.0
G1 Z11.9000 F8000.0
G1 X162.3000 Y-251.6501 F12000.0
G1 X162.2581 Y-251.9845
G1 Z0.0000 F8000.0
G0 X44.0229 Y-259.1241 F15000.0
G1 Z11.9000 F8000.0
G1 X43.3542 Y-258.1208 F12000.0
G1 Z0.0000 F8000.0
G0 X43.0615 Y-257.6610 F15000.0
G1 Z11.9000 F8000.0
G1 X42.8107 Y-257.3266 F12000.0
G1 Z0.0000 F8000.0
G0 X42.4345 Y-256.7413 F15000.0
G1 Z11.9000 F8000.0
G1 X42.3509 Y-256.6577 F12000.0
G1 Z0.0000 F8000.0
G0 X42.3091 Y-258.7479 F15000.0
G1 Z11.9000 F8000.0
G1 X42.2673 Y-258.6225 F12000.0
G1 Z0.0000 F8000.0
G0 X42.0583 Y-256.2398 F15000.0
G1 Z11.9000 F8000.0
G1 X41.4730 Y-256.1979 F12000.0
G1 X41.5566 Y-256.6577
G1 Z0.0000 F8000.0
G0 X41.7238 Y-257.1176 F15000.0
G1 Z11.9000 F8000.0
G1 X41.6821 Y-256.9922 F12000.0
G1 Z0.0000 F8000.0
G0 X41.0551 Y-257.0758 F15000.0
G1 Z11.9000 F8000.0
G1 X41.6402 Y-258.5389 F12000.0
G1 X41.7657 Y-259.0823
G1 X40.7206 Y-258.9568
G1 Z0.0000 F8000.0
G0 X40.6370 Y-258.7896 F15000.0
G1 Z11.9000 F8000.0
G1 X40.3026 Y-257.9536 F12000.0
G1 Z0.0000 F8000.0
G0 X40.1772 Y-257.6610 F15000.0
G1 Z11.9000 F8000.0
G1 X39.9264 Y-257.0758 F12000.0
G1 Z0.0000 F8000.0
G0 X39.8010 Y-258.0790 F15000.0
G1 Z11.9000 F8000.0
G1 X40.0518 Y-259.0823 F12000.0
G1 X39.0486 Y-259.2077
G1 Z0.0000 F8000.0
G0 X39.6338 Y-257.6192 F15000.0
G1 Z11.9000 F8000.0
G1 X39.5084 Y-257.3266 F12000.0
G1 X38.2962 Y-257.1594
G1 Z0.0000 F8000.0
G0 X38.5888 Y-259.2913 F15000.0
G1 Z11.9000 F8000.0
G1 X37.9617 Y-257.5774 F12000.0
G1 Z0.0000 F8000.0
G0 X37.8363 Y-257.2848 F15000.0
G1 Z11.9000 F8000.0
G1 X36.9585 Y-257.1176 F12000.0
G1 X36.1224 Y-257.4520
G1 X36.7495 Y-259.2913
G1 Z0.0000 F8000.0
G0 X37.6691 Y-259.2913 F15000.0
G1 Z11.9000 F8000.0
G1 X37.0839 Y-257.6610 F12000.0
G1 Z0.0000 F8000.0
G0 X36.9585 Y-257.3684 F15000.0
G1 Z11.9000 F8000.0
G1 X36.9167 Y-257.1594 F12000.0
G1 Z0.0000 F8000.0
G0 X169.0776 Y-272.9289 F15000.0
G1 Z11.9000 F8000.0
G1 X167.9908 Y-272.7617 F12000.0
G1 Z0.0000 F8000.0
G0 X168.0744 Y-270.0028 F15000.0
G1 Z11.9000 F8000.0
G1 X168.5342 Y-271.1314 F12000.0
G1 X168.5342 Y-271.2986
G1 Z0.0000 F8000.0
G0 X168.3669 Y-271.5494 F15000.0
G1 Z11.9000 F8000.0
G1 X167.4891 Y-271.5913 F12000.0
G1 X167.6982 Y-272.3855
G1 Z0.0000 F8000.0
G0 X167.3637 Y-273.0962 F15000.0
G1 Z11.9000 F8000.0
G1 X166.7367 Y-271.3822 F12000.0
G1 Z0.0000 F8000.0
G0 X167.3219 Y-271.3822 F15000.0
G1 Z11.9000 F8000.0
G1 X166.7367 Y-270.0028 F12000.0
G1 Z0.0000 F8000.0
G0 X166.6113 Y-271.0896 F15000.0
G1 Z11.9000 F8000.0
G1 X165.7334 Y-270.9224 F12000.0
G1 X164.8974 Y-271.2569
G1 X165.5244 Y-273.0962
G1 Z0.0000 F8000.0
G0 X166.4440 Y-273.0962 F15000.0
G1 Z11.9000 F8000.0
G1 X165.8589 Y-271.4658 F12000.0
G1 Z0.0000 F8000.0
G0 X165.7334 Y-271.1732 F15000.0
G1 Z11.9000 F8000.0
G1 X165.6917 Y-270.9643 F12000.0
G1 Z0.0000 F8000.0
G0 X163.9778 Y-270.3790 F15000.0
G1 Z11.9000 F8000.0
G1 X164.7721 Y-272.6781 F12000.0
G1 X164.7302 Y-272.9289
G1 X163.8106 Y-272.8453
G1 X163.1417 Y-271.0896
G1 X163.1836 Y-271.0060
G1 Z0.0000 F8000.0
G0 X164.1032 Y-270.9224 F15000.0
G1 Z11.9000 F8000.0
G1 X163.2672 Y-270.9224 F12000.0
G1 Z0.0000 F8000.0
G0 X163.8942 Y-270.2118 F15000.0
G1 Z11.9000 F8000.0
G1 X163.3508 Y-270.0028 F12000.0
G1 X163.3089 Y-270.0864
G1 X163.5179 Y-270.5880
G1 Z0.0000 F8000.0
G0 X10.3129 Y-250.4964 F15000.0
G1 Z11.9000 F8000.0
G1 X8.9334 Y-246.6506 F12000.0
G1 X8.6827 Y-246.3161
G1 Z0.0000 F8000.0
G0 X10.1457 Y-247.3195 F15000.0
G1 Z11.9000 F8000.0
G1 X9.9785 Y-247.1522 F12000.0
G1 Z0.0000 F8000.0
G0 X9.2679 Y-246.6924 F15000.0
G1 Z11.9000 F8000.0
G1 X8.9753 Y-246.6088 F12000.0
G1 Z0.0000 F8000.0
G0 X8.5991 Y-250.5800 F15000.0
G1 Z11.9000 F8000.0
G1 X8.3483 Y-250.4964 F12000.0
G1 X8.2228 Y-250.2037
G1 Z0.0000 F8000.0
G0 X8.5572 Y-247.8210 F15000.0
G1 Z11.9000 F8000.0
G1 X8.3483 Y-247.6956 F12000.0
G1 Z0.0000 F8000.0
G0 X8.2646 Y-250.4964 F15000.0
G1 Z11.9000 F8000.0
G1 X6.7598 Y-250.5382 F12000.0
G1 Z0.0000 F8000.0
G0 X7.3032 Y-247.0268 F15000.0
G1 Z11.9000 F8000.0
G1 X6.9270 Y-246.6088 F12000.0
G1 X6.3836 Y-246.3580
G1 X5.9655 Y-246.2744
G1 X5.5057 Y-246.5252
G1 X5.3803 Y-246.7760
G1 X5.5475 Y-247.4867
G1 Z0.0000 F8000.0
G0 X7.1778 Y-246.8597 F15000.0
G1 Z11.9000 F8000.0
G1 X7.0942 Y-246.7760 F12000.0
G1 Z0.0000 F8000.0
G0 X7.0942 Y-249.0333 F15000.0
G1 Z11.9000 F8000.0
G1 X6.9270 Y-248.8661 F12000.0
G1 Z0.0000 F8000.0
G0 X107.8152 Y-269.4649 F15000.0
G1 Z11.9000 F8000.0
G1 X107.9824 Y-269.2558 F12000.0
G1 X108.0660 Y-268.9215
G1 X106.6447 Y-264.7831
G1 X106.3939 Y-264.4069
G1 Z0.0000 F8000.0
G0 X107.6061 Y-269.5902 F15000.0
G1 Z11.9000 F8000.0
G1 X106.1431 Y-269.5902 F12000.0
G1 Z0.0000 F8000.0
G0 X106.0177 Y-264.0306 F15000.0
G1 Z11.9000 F8000.0
G1 X104.0112 Y-263.6126 F12000.0
G1 Z0.0000 F8000.0
G0 X103.0916 Y-264.3650 F15000.0
G1 Z11.9000 F8000.0
G1 X103.5514 Y-265.7027 F12000.0
G1 X103.5096 Y-266.5805
G1 X101.3777 Y-266.8732
G1 X101.5867 Y-267.7928
G1 Z0.0000 F8000.0
G0 X102.9661 Y-264.0306 F15000.0
G1 Z11.9000 F8000.0
G1 X102.9244 Y-263.9052 F12000.0
G1 Z0.0000 F8000.0
G0 X102.2974 Y-269.6738 F15000.0
G1 Z11.9000 F8000.0
G1 X101.8375 Y-268.4616 F12000.0
G1 Z0.0000 F8000.0
G0 X101.2523 Y-266.8313 F15000.0
G1 Z11.9000 F8000.0
G1 X100.0819 Y-263.7380 F12000.0
G1 Z0.0000 F8000.0
G0 X97.1309 Y-269.5462 F15000.0
G1 Z11.9000 F8000.0
G1 X96.3367 Y-267.4143 F12000.0
G1 Z0.0000 F8000.0
G0 X96.8801 Y-265.0316 F15000.0
G1 Z11.9000 F8000.0
G1 X95.7933 Y-264.2791 F12000.0
G1 X95.2917 Y-264.1119
G1 X94.9155 Y-263.6521
G1 Z0.0000 F8000.0
G0 X96.2113 Y-267.0798 F15000.0
G1 Z11.9000 F8000.0
G1 X96.1695 Y-266.9545 F12000.0
G1 Z0.0000 F8000.0
G0 X96.0441 Y-266.6200 F15000.0
G1 Z11.9000 F8000.0
G1 X95.6261 Y-265.4496 F12000.0
G1 Z0.0000 F8000.0
G0 X95.9188 Y-269.6715 F15000.0
G1 Z11.9000 F8000.0
G1 X94.3303 Y-269.5462 F12000.0
G1 X93.9122 Y-269.3371
G1 Z0.0000 F8000.0
G0 X95.5007 Y-265.1152 F15000.0
G1 Z11.9000 F8000.0
G1 X95.4589 Y-264.9897 F12000.0
G1 Z0.0000 F8000.0
G0 X95.3335 Y-264.6554 F15000.0
G1 Z11.9000 F8000.0
G1 X95.1663 Y-264.0284 F12000.0
G1 Z0.0000 F8000.0
G0 X92.9926 Y-267.7905 F15000.0
G1 Z11.9000 F8000.0
G1 X92.9926 Y-266.7454 F12000.0
G1 X93.3270 Y-266.4946
G1 X94.7065 Y-266.3692
G1 X91.5295 Y-263.6103
G1 Z0.0000 F8000.0
G0 X93.7033 Y-269.1699 F15000.0
G1 Z11.9000 F8000.0
G1 X93.5361 Y-269.0028 F12000.0
G1 Z0.0000 F8000.0
G0 X93.4106 Y-268.7519 F15000.0
G1 Z11.9000 F8000.0
G1 X93.1598 Y-268.2085 F12000.0
G1 Z0.0000 F8000.0
G0 X71.4120 Y-269.5462 F15000.0
G1 Z11.9000 F8000.0
G1 X70.6178 Y-267.4143 F12000.0
G1 Z0.0000 F8000.0
G0 X71.1612 Y-265.0316 F15000.0
G1 Z11.9000 F8000.0
G1 X70.0743 Y-264.2791 F12000.0
G1 X69.5727 Y-264.1119
G1 X69.1965 Y-263.6521
G1 Z0.0000 F8000.0
G0 X70.4924 Y-267.0798 F15000.0
G1 Z11.9000 F8000.0
G1 X70.4505 Y-266.9545 F12000.0
G1 Z0.0000 F8000.0
G0 X70.3252 Y-266.6200 F15000.0
G1 Z11.9000 F8000.0
G1 X69.9071 Y-265.4496 F12000.0
G1 Z0.0000 F8000.0
G0 X69.7818 Y-265.1152 F15000.0
G1 Z11.9000 F8000.0
G1 X69.7399 Y-264.9897 F12000.0
G1 Z0.0000 F8000.0
G0 X69.6145 Y-264.6554 F15000.0
G1 Z11.9000 F8000.0
G1 X69.4473 Y-264.0284 F12000.0
G1 Z0.0000 F8000.0
G0 X68.2350 Y-269.0864 F15000.0
G1 Z11.9000 F8000.0
G1 X68.0678 Y-268.2921 F12000.0
G1 X69.6145 Y-268.2085
G1 X69.5309 Y-267.8741
G1 Z0.0000 F8000.0
G0 X69.1129 Y-267.1216 F15000.0
G1 Z11.9000 F8000.0
G1 X67.1482 Y-263.6939 F12000.0
G1 Z0.0000 F8000.0
G0 X68.4859 Y-269.6715 F15000.0
G1 Z11.9000 F8000.0
G1 X68.4023 Y-269.5043 F12000.0
G1 Z0.0000 F8000.0
G0 X67.9842 Y-268.2921 F15000.0
G1 Z11.9000 F8000.0
G1 X67.8589 Y-268.2921 F12000.0
G1 X67.3991 Y-266.9126
G1 Z0.0000 F8000.0
G0 X67.7752 Y-268.2921 F15000.0
G1 Z11.9000 F8000.0
G1 X67.0229 Y-268.2085 F12000.0
G1 Z0.0000 F8000.0
G0 X64.9397 Y-269.5462 F15000.0
G1 Z11.9000 F8000.0
G1 X64.1454 Y-267.4143 F12000.0
G1 Z0.0000 F8000.0
G0 X64.6888 Y-265.0316 F15000.0
G1 Z11.9000 F8000.0
G1 X63.6020 Y-264.2791 F12000.0
G1 X63.1004 Y-264.1119
G1 X62.7242 Y-263.6521
G1 Z0.0000 F8000.0
G0 X64.0201 Y-267.0798 F15000.0
G1 Z11.9000 F8000.0
G1 X63.9782 Y-266.9545 F12000.0
G1 Z0.0000 F8000.0
G0 X63.8529 Y-266.6200 F15000.0
G1 Z11.9000 F8000.0
G1 X63.4348 Y-265.4496 F12000.0
G1 Z0.0000 F8000.0
G0 X63.7274 Y-269.7134 F15000.0
G1 Z11.9000 F8000.0
G1 X63.4766 Y-269.6298 F12000.0
G1 X61.6791 Y-267.5815
G1 X59.5891 Y-265.4914
G1 Z0.0000 F8000.0
G0 X63.4348 Y-269.6298 F15000.0
G1 Z11.9000 F8000.0
G1 X61.1775 Y-269.6298 F12000.0
G1 Z0.0000 F8000.0
G0 X63.3094 Y-265.1152 F15000.0
G1 Z11.9000 F8000.0
G1 X63.2676 Y-264.9897 F12000.0
G1 Z0.0000 F8000.0
G0 X63.1422 Y-264.6554 F15000.0
G1 Z11.9000 F8000.0
G1 X62.9750 Y-264.0284 F12000.0
G1 Z0.0000 F8000.0
G0 X61.1357 Y-263.9448 F15000.0
G1 Z11.9000 F8000.0
G1 X60.8013 Y-263.8193 F12000.0
G1 X59.8817 Y-263.7357
G1 X59.5891 Y-263.9448
G1 Z0.0000 F8000.0
G0 X59.3800 Y-265.1152 F15000.0
G1 Z11.9000 F8000.0
G1 X59.2547 Y-264.4463 F12000.0
G1 X59.2964 Y-264.3627
G1 Z0.0000 F8000.0
G0 X59.3383 Y-267.6651 F15000.0
G1 Z11.9000 F8000.0
G1 X56.6630 Y-267.5396 F12000.0
G1 Z0.0000 F8000.0
G0 X55.0161 Y-269.5066 F15000.0
G1 Z11.9000 F8000.0
G1 X51.9228 Y-264.3650 F12000.0
G1 X51.7138 Y-263.7380
G1 X54.1800 Y-263.6962
G1 Z0.0000 F8000.0
G0 X54.5563 Y-264.3650 F15000.0
G1 Z11.9000 F8000.0
G1 X54.3891 Y-263.9471 F12000.0
G1 Z0.0000 F8000.0
G0 X51.6719 Y-269.6738 F15000.0
G1 Z11.9000 F8000.0
G1 X51.2121 Y-269.4649 F12000.0
G1 Z0.0000 F8000.0
G0 X51.1703 Y-266.4133 F15000.0
G1 Z11.9000 F8000.0
G1 X51.0867 Y-265.5773 F12000.0
G1 X50.6269 Y-264.5322
G1 Z0.0000 F8000.0
G0 X51.0867 Y-266.5805 F15000.0
G1 Z11.9000 F8000.0
G1 X50.9613 Y-266.7060 F12000.0
G1 Z0.0000 F8000.0
G0 X50.9613 Y-269.3394 F15000.0
G1 Z11.9000 F8000.0
G1 X49.7909 Y-268.5034 F12000.0
G1 Z0.0000 F8000.0
G0 X50.7941 Y-266.8313 F15000.0
G1 Z11.9000 F8000.0
G1 X48.9548 Y-266.9149 F12000.0
G1 X49.1639 Y-267.6674
G1 X49.2892 Y-267.8345
G1 Z0.0000 F8000.0
G0 X50.1253 Y-263.9888 F15000.0
G1 Z11.9000 F8000.0
G1 X49.9163 Y-263.8635 F12000.0
G1 Z0.0000 F8000.0
G0 X49.6654 Y-263.7380 F15000.0
G1 Z11.9000 F8000.0
G1 X48.0770 Y-263.9888 F12000.0
G1 X47.9934 Y-264.7831
G1 X48.0770 Y-265.0339
G1 Z0.0000 F8000.0
G0 X48.6622 Y-266.6224 F15000.0
G1 Z11.9000 F8000.0
G1 X48.6205 Y-266.4969 F12000.0
G1 Z0.0000 F8000.0
G0 X140.4123 Y-250.0028 F15000.0
G1 Z11.9000 F8000.0
G1 X140.2034 Y-249.9610 F12000.0
G1 X139.3674 Y-248.0799
G1 Z0.0000 F8000.0
G0 X140.1198 Y-250.0028 F15000.0
G1 Z11.9000 F8000.0
G1 X138.9911 Y-249.9610 F12000.0
G1 X138.0297 Y-247.0348
G1 X138.8240 Y-246.9931
G1 Z0.0000 F8000.0
G0 X139.2419 Y-247.8291 F15000.0
G1 Z11.9000 F8000.0
G1 X139.2002 Y-247.7037 F12000.0
G1 Z0.0000 F8000.0
G0 X139.0329 Y-250.2118 F15000.0
G1 Z11.9000 F8000.0
G1 X138.9911 Y-249.9610 F12000.0
G1 X138.7821 Y-249.8773
G1 Z0.0000 F8000.0
G0 X138.4477 Y-250.0028 F15000.0
G1 Z11.9000 F8000.0
G1 X138.3641 Y-249.9192 F12000.0
G1 Z0.0000 F8000.0
G0 X137.4862 Y-249.2503 F15000.0
G1 Z11.9000 F8000.0
G1 X137.6117 Y-249.6684 F12000.0
G1 X137.4445 Y-249.8773
G1 X136.5666 Y-250.0028
G1 Z0.0000 F8000.0
G0 X137.3191 Y-248.7905 F15000.0
G1 Z11.9000 F8000.0
G1 X137.2773 Y-248.6652 F12000.0
G1 Z0.0000 F8000.0
G0 X137.1519 Y-248.3307 F15000.0
G1 Z11.9000 F8000.0
G1 X136.7338 Y-247.3693 F12000.0
G1 Z0.0000 F8000.0
G0 X136.3994 Y-247.0767 F15000.0
G1 Z11.9000 F8000.0
G1 X135.5216 Y-247.0348 F12000.0
G1 Z0.0000 F8000.0
G0 X93.8243 Y-110.6214 F15000.0
G1 Z11.9000 F8000.0
G1 X115.0029 Y-110.6214 F12000.0
G1 Z0.0000 F8000.0
G0 X118.6624 Y-106.9618 F15000.0
G1 Z11.9000 F8000.0
G1 X118.6624 Y-44.4383 F12000.0
G1 Z0.0000 F8000.0
G0 X118.6624 Y-106.9618 F15000.0
G1 Z11.9000 F8000.0
G1 X118.5067 Y-108.0520 F12000.0
G1 X118.0395 Y-108.9863 F12000.0
G1 X117.3388 Y-109.7649 F12000.0
G1 X116.4823 Y-110.3879 F12000.0
G1 X115.3922 Y-110.6214 F12000.0
G1 X115.0029 Y-110.6214 F12000.0
G1 Z0.0000 F8000.0
G0 X93.8243 Y-42.5696 F15000.0
G1 Z11.9000 F8000.0
G1 X120.5311 Y-42.5696 F12000.0
G1 X120.5311 Y-40.7787 F12000.0
G1 X93.8243 Y-40.7787 F12000.0
G1 Z0.0000 F8000.0
G0 X120.5311 Y-42.5696 F15000.0
G1 Z11.9000 F8000.0
G1 X119.7525 Y-42.7253 F12000.0
G1 X119.2075 Y-43.1925 F12000.0
G1 X118.8182 Y-43.8153 F12000.0
G1 X118.6624 Y-44.4383 F12000.0
G1 Z0.0000 F8000.0
G0 X93.8243 Y-110.6214 F15000.0
G1 Z11.9000 F8000.0
G1 X72.7236 Y-110.6214 F12000.0
G1 X71.6335 Y-110.4657 F12000.0
G1 X70.6991 Y-110.0764 F12000.0
G1 X69.8426 Y-109.3756 F12000.0
G1 X69.2976 Y-108.4413 F12000.0
G1 X69.0640 Y-107.4290 F12000.0
G1 X68.9862 Y-106.9618 F12000.0
G1 X68.9862 Y-44.4383 F12000.0
G1 Z0.0000 F8000.0
G0 X93.8243 Y-42.5696 F15000.0
G1 Z11.9000 F8000.0
G1 X67.1953 Y-42.5696 F12000.0
G1 X67.1953 Y-40.7787 F12000.0
G1 X93.8243 Y-40.7787 F12000.0
G1 Z0.0000 F8000.0
G0 X67.1953 Y-42.5696 F15000.0
G1 Z11.9000 F8000.0
G1 X67.8960 Y-42.7253 F12000.0
G1 X68.5190 Y-43.1925 F12000.0
G1 X68.9083 Y-43.8153 F12000.0
G1 X68.9862 Y-44.4383 F12000.0
G1 Z0.0000 F8000.0
G0 X91.5663 Y-77.2963 F15000.0
G1 Z11.9000 F8000.0
G1 X91.5663 Y-109.2977 F12000.0
G1 Z0.0000 F8000.0
G0 X96.1602 Y-77.2963 F15000.0
G1 Z11.9000 F8000.0
G1 X96.1602 Y-109.2977 F12000.0
G1 Z0.0000 F8000.0
G0 X91.5663 Y-109.2977 F15000.0
G1 Z11.9000 F8000.0
G1 X91.4105 Y-109.9207 F12000.0
G1 X90.9433 Y-110.3879 F12000.0
G1 X90.3984 Y-110.6214 F12000.0
G1 Z0.0000 F8000.0
G0 X96.1602 Y-109.2977 F15000.0
G1 Z11.9000 F8000.0
G1 X96.3159 Y-109.9207 F12000.0
G1 X96.7052 Y-110.3879 F12000.0
G1 X97.3281 Y-110.6214 F12000.0
G1 Z0.0000 F8000.0
G0 X88.3739 Y-67.4077 F15000.0
G1 Z11.9000 F8000.0
G1 X88.4518 Y-66.1619 F12000.0
G1 X88.9189 Y-64.9161 F12000.0
G1 X89.6976 Y-63.8260 F12000.0
G1 X90.6320 Y-62.9695 F12000.0
G1 X91.7999 Y-62.3467 F12000.0
G1 X93.0456 Y-61.9573 F12000.0
G1 X94.3694 Y-61.9573 F12000.0
G1 X95.6151 Y-62.1909 F12000.0
G1 X96.8609 Y-62.8138 F12000.0
G1 X97.8732 Y-63.5924 F12000.0
G1 X98.6517 Y-64.6825 F12000.0
G1 X99.1189 Y-65.8505 F12000.0
G1 X99.3525 Y-67.1741 F12000.0
G1 X99.2747 Y-68.4200 F12000.0
G1 X98.8853 Y-69.6657 F12000.0
G1 X98.1846 Y-70.8336 F12000.0
G1 X97.2502 Y-71.7680 F12000.0
G1 X96.1602 Y-72.4687 F12000.0
G1 X94.9143 Y-72.8581 F12000.0
G1 X93.5907 Y-72.9359 F12000.0
G1 X92.3449 Y-72.7023 F12000.0
G1 X91.0991 Y-72.2352 F12000.0
G1 X90.0869 Y-71.4566 F12000.0
G1 X89.2304 Y-70.4444 F12000.0
G1 X88.6854 Y-69.2764 F12000.0
G1 X88.3739 Y-68.0306 F12000.0
G1 X88.3739 Y-67.4077 F12000.0
G1 Z0.0000 F8000.0
G0 X83.7021 Y-67.4077 F15000.0
G1 Z11.9000 F8000.0
G1 X83.8579 Y-65.6947 F12000.0
G1 X84.3251 Y-63.9818 F12000.0
G1 X85.1036 Y-62.3467 F12000.0
G1 X86.1159 Y-60.8673 F12000.0
G1 X87.3617 Y-59.6214 F12000.0
G1 X88.8411 Y-58.6093 F12000.0
G1 X90.4762 Y-57.9085 F12000.0
G1 X92.1892 Y-57.4413 F12000.0
G1 X93.9800 Y-57.2855 F12000.0
G1 X95.6930 Y-57.5191 F12000.0
G1 X97.4060 Y-57.9863 F12000.0
G1 X99.0411 Y-58.7650 F12000.0
G1 X100.4426 Y-59.7772 F12000.0
G1 X101.6884 Y-61.0229 F12000.0
G1 X102.7006 Y-62.5024 F12000.0
G1 X103.4014 Y-64.1375 F12000.0
G1 X103.8686 Y-65.8505 F12000.0
G1 X103.9465 Y-67.6413 F12000.0
G1 X103.7907 Y-69.3543 F12000.0
G1 X103.3235 Y-71.0672 F12000.0
G1 X102.5449 Y-72.7023 F12000.0
G1 X101.4548 Y-74.1039 F12000.0
G1 X100.2090 Y-75.3497 F12000.0
G1 X98.7296 Y-76.2840 F12000.0
G1 X97.0945 Y-76.9848 F12000.0
G1 X95.3815 Y-77.4520 F12000.0
G1 X93.5907 Y-77.5299 F12000.0
G1 X91.7999 Y-77.3741 F12000.0
G1 X90.0869 Y-76.8291 F12000.0
G1 X88.5297 Y-76.0505 F12000.0
G1 X87.1281 Y-74.9604 F12000.0
G1 X85.8823 Y-73.7146 F12000.0
G1 X84.9480 Y-72.2352 F12000.0
G1 X84.2472 Y-70.6000 F12000.0
G1 X83.8579 Y-68.8092 F12000.0
G1 X83.7021 Y-67.4077 F12000.0
G1 Z0.0000 F8000.0
G0 X93.8243 Y-38.9100 F15000.0
G1 Z11.9000 F8000.0
G1 X93.8243 Y-50.2780 F12000.0
G1 Z0.0000 F8000.0
G0 X93.8243 Y-51.6016 F15000.0
G1 Z11.9000 F8000.0
G1 X93.8243 Y-53.0811 F12000.0
G1 Z0.0000 F8000.0
G0 X93.8243 Y-54.4825 F15000.0
G1 Z11.9000 F8000.0
G1 X93.8243 Y-65.8505 F12000.0
G1 Z0.0000 F8000.0
G0 X93.8243 Y-67.1741 F15000.0
G1 Z11.9000 F8000.0
G1 X93.8243 Y-68.6535 F12000.0
G1 Z0.0000 F8000.0
G0 X93.8243 Y-70.0551 F15000.0
G1 Z11.9000 F8000.0
G1 X93.8243 Y-81.3451 F12000.0
G1 Z0.0000 F8000.0
G0 X93.8243 Y-82.7466 F15000.0
G1 Z11.9000 F8000.0
G1 X93.8243 Y-84.2260 F12000.0
G1 Z0.0000 F8000.0
G0 X93.8243 Y-85.6276 F15000.0
G1 Z11.9000 F8000.0
G1 X93.8243 Y-96.9176 F12000.0
G1 Z0.0000 F8000.0
G0 X93.8243 Y-98.3191 F15000.0
G1 Z11.9000 F8000.0
G1 X93.8243 Y-99.7985 F12000.0
G1 Z0.0000 F8000.0
G0 X93.8243 Y-101.2000 F15000.0
G1 Z11.9000 F8000.0
G1 X93.8243 Y-112.4901 F12000.0
G1 Z0.0000 F8000.0
G0 X94.6029 Y-67.4077 F15000.0
G1 Z11.9000 F8000.0
G1 X93.1235 Y-67.4077 F12000.0
G1 Z0.0000 F8000.0
G0 X91.7220 Y-67.4077 F15000.0
G1 Z11.9000 F8000.0
G1 X81.5998 Y-67.4077 F12000.0
G1 Z0.0000 F8000.0
G0 X80.1983 Y-67.4077 F15000.0
G1 Z11.9000 F8000.0
G1 X78.7190 Y-67.4077 F12000.0
G1 Z0.0000 F8000.0
G0 X77.3175 Y-67.4077 F15000.0
G1 Z11.9000 F8000.0
G1 X67.1953 Y-67.4077 F12000.0
G1 Z0.0000 F8000.0
G0 X180.0000 Y-110.6214 F15000.0
G1 Z11.9000 F8000.0
G1 X173.9448 Y-110.6214 F12000.0
G1 Z0.0000 F8000.0
G0 X180.0000 Y-40.7787 F15000.0
G1 Z11.9000 F8000.0
G1 X173.9448 Y-40.7787 F12000.0
G1 Z0.0000 F8000.0
G0 X180.0000 Y-95.9054 F15000.0
G1 Z11.9000 F8000.0
G1 X179.1616 Y-95.9054 F12000.0
G1 Z0.0000 F8000.0
G0 X180.0000 Y-168.9404 F15000.0
G1 Z11.9000 F8000.0
G1 X176.6699 Y-168.9404 F12000.0
G1 Z0.0000 F8000.0
G0 X180.0000 Y-189.1846 F15000.0
G1 Z11.9000 F8000.0
G1 X176.6699 Y-189.1846 F12000.0
G1 Z0.0000 F8000.0
G0 X115.0029 Y-110.6214 F15000.0
G1 Z11.9000 F8000.0
G1 X130.8868 Y-110.6214 F12000.0
G1 Z0.0000 F8000.0
G0 X93.8243 Y-67.4077 F15000.0
G1 Z11.9000 F8000.0
G1 X130.8868 Y-67.4077 F12000.0
G1 Z0.0000 F8000.0
G0 X118.6624 Y-106.9618 F15000.0
G1 Z11.9000 F8000.0
G1 X118.6624 Y-124.0916 F12000.0
G1 Z0.0000 F8000.0
G0 X68.9862 Y-106.9618 F15000.0
G1 Z11.9000 F8000.0
G1 X68.9862 Y-124.0916 F12000.0
G1 Z0.0000 F8000.0
G0 X112.7449 Y-103.7695 F15000.0
G1 Z11.9000 F8000.0
G1 X103.7907 Y-103.7695 F12000.0
G1 Z0.0000 F8000.0
G0 X120.5311 Y-40.7787 F15000.0
G1 Z11.9000 F8000.0
G1 X125.9815 Y-40.7787 F12000.0
G1 Z0.0000 F8000.0
G0 X120.5311 Y-42.5696 F15000.0
G1 Z11.9000 F8000.0
G1 X125.9815 Y-42.5696 F12000.0
G1 Z0.0000 F8000.0
G0 X124.1128 Y-36.1848 F15000.0
G1 Z11.9000 F8000.0
G1 X124.1128 Y-29.4887 F12000.0
G1 Z0.0000 F8000.0
G0 X175.7356 Y-110.6214 F15000.0
G1 Z11.9000 F8000.0
G1 X176.3586 Y-106.0275 F12000.0
G1 X175.7356 Y-106.4947 F12000.0
G1 X175.1906 Y-106.0275 F12000.0
G1 X175.7356 Y-110.6214 F12000.0
G1 Z0.0000 F8000.0
G0 X176.0082 Y-107.5991 F15000.0
G1 Z11.9000 F8000.0
G1 X176.0082 Y-108.4268 F12000.0
G1 Z0.0000 F8000.0
G0 X175.4631 Y-107.8717 F15000.0
G1 Z11.9000 F8000.0
G1 X175.4631 Y-108.6994 F12000.0
G1 Z0.0000 F8000.0
G0 X175.7356 Y-40.7787 F15000.0
G1 Z11.9000 F8000.0
G1 X175.1906 Y-45.3727 F12000.0
G1 X175.7356 Y-44.9055 F12000.0
G1 X176.3586 Y-45.3727 F12000.0
G1 X175.7356 Y-40.7787 F12000.0
G1 Z0.0000 F8000.0
G0 X175.4631 Y-42.6229 F15000.0
G1 Z11.9000 F8000.0
G1 X175.4631 Y-43.4506 F12000.0
G1 Z0.0000 F8000.0
G0 X176.0082 Y-42.8954 F15000.0
G1 Z11.9000 F8000.0
G1 X176.0082 Y-43.7231 F12000.0
G1 Z0.0000 F8000.0
G0 X175.7356 Y-110.6214 F15000.0
G1 Z11.9000 F8000.0
G1 X175.7356 Y-40.7787 F12000.0
G1 Z0.0000 F8000.0
G0 X178.4608 Y-168.9404 F15000.0
G1 Z11.9000 F8000.0
G1 X177.9158 Y-173.5343 F12000.0
G1 X178.4608 Y-173.0672 F12000.0
G1 X179.0837 Y-173.5343 F12000.0
G1 X178.4608 Y-168.9404 F12000.0
G1 Z0.0000 F8000.0
G0 X178.1883 Y-170.7846 F15000.0
G1 Z11.9000 F8000.0
G1 X178.1883 Y-171.6123 F12000.0
G1 Z0.0000 F8000.0
G0 X178.7333 Y-171.0571 F15000.0
G1 Z11.9000 F8000.0
G1 X178.7333 Y-171.8848 F12000.0
G1 Z0.0000 F8000.0
G0 X178.4608 Y-189.1846 F15000.0
G1 Z11.9000 F8000.0
G1 X179.0837 Y-184.5908 F12000.0
G1 X178.4608 Y-184.9801 F12000.0
G1 X177.9158 Y-184.5908 F12000.0
G1 X178.4608 Y-189.1846 F12000.0
G1 Z0.0000 F8000.0
G0 X178.7333 Y-186.1624 F15000.0
G1 Z11.9000 F8000.0
G1 X178.7333 Y-186.9901 F12000.0
G1 Z0.0000 F8000.0
G0 X178.1883 Y-186.4349 F15000.0
G1 Z11.9000 F8000.0
G1 X178.1883 Y-187.2626 F12000.0
G1 Z0.0000 F8000.0
G0 X178.4608 Y-168.9404 F15000.0
G1 Z11.9000 F8000.0
G1 X178.4608 Y-189.1846 F12000.0
G1 Z0.0000 F8000.0
G0 X129.0181 Y-110.6214 F15000.0
G1 Z11.9000 F8000.0
G1 X129.6410 Y-106.0275 F12000.0
G1 X129.0181 Y-106.4947 F12000.0
G1 X128.3953 Y-106.0275 F12000.0
G1 X129.0181 Y-110.6214 F12000.0
G1 Z0.0000 F8000.0
G0 X129.2906 Y-107.5991 F15000.0
G1 Z11.9000 F8000.0
G1 X129.2906 Y-108.4268 F12000.0
G1 Z0.0000 F8000.0
G0 X128.7067 Y-107.8717 F15000.0
G1 Z11.9000 F8000.0
G1 X128.7067 Y-108.6994 F12000.0
G1 Z0.0000 F8000.0
G0 X129.0181 Y-67.4077 F15000.0
G1 Z11.9000 F8000.0
G1 X128.3953 Y-72.0016 F12000.0
G1 X129.0181 Y-71.5344 F12000.0
G1 X129.6410 Y-72.0016 F12000.0
G1 X129.0181 Y-67.4077 F12000.0
G1 Z0.0000 F8000.0
G0 X128.7067 Y-69.2519 F15000.0
G1 Z11.9000 F8000.0
G1 X128.7067 Y-70.0795 F12000.0
G1 Z0.0000 F8000.0
G0 X129.2906 Y-69.5244 F15000.0
G1 Z11.9000 F8000.0
G1 X129.2906 Y-70.3521 F12000.0
G1 Z0.0000 F8000.0
G0 X129.0181 Y-110.6214 F15000.0
G1 Z11.9000 F8000.0
G1 X129.0181 Y-67.4077 F12000.0
G1 Z0.0000 F8000.0
G0 X118.6624 Y-122.2229 F15000.0
G1 Z11.9000 F8000.0
G1 X114.0685 Y-121.6000 F12000.0
G1 X114.5357 Y-122.2229 F12000.0
G1 X114.0685 Y-122.8458 F12000.0
G1 X118.6624 Y-122.2229 F12000.0
G1 Z0.0000 F8000.0
G0 X116.4679 Y-121.9115 F15000.0
G1 Z11.9000 F8000.0
G1 X115.6402 Y-121.9115 F12000.0
G1 Z0.0000 F8000.0
G0 X116.7793 Y-122.4954 F15000.0
G1 Z11.9000 F8000.0
G1 X115.9517 Y-122.4954 F12000.0
G1 Z0.0000 F8000.0
G0 X68.9862 Y-122.2229 F15000.0
G1 Z11.9000 F8000.0
G1 X73.6579 Y-122.8458 F12000.0
G1 X73.1908 Y-122.2229 F12000.0
G1 X73.6579 Y-121.6000 F12000.0
G1 X68.9862 Y-122.2229 F12000.0
G1 Z0.0000 F8000.0
G0 X71.6969 Y-122.4954 F15000.0
G1 Z11.9000 F8000.0
G1 X70.8692 Y-122.4954 F12000.0
G1 Z0.0000 F8000.0
G0 X71.9695 Y-121.9115 F15000.0
G1 Z11.9000 F8000.0
G1 X71.1418 Y-121.9115 F12000.0
G1 Z0.0000 F8000.0
G0 X118.6624 Y-122.2229 F15000.0
G1 Z11.9000 F8000.0
G1 X68.9862 Y-122.2229 F12000.0
G1 Z0.0000 F8000.0
G0 X117.1052 Y-109.9985 F15000.0
G1 Z11.9000 F8000.0
G1 X115.0029 Y-105.8718 F12000.0
G1 X114.7693 Y-106.5726 F12000.0
G1 X113.9906 Y-106.5726 F12000.0
G1 X117.1052 Y-109.9985 F12000.0
G1 Z0.0000 F8000.0
G0 X115.8204 Y-107.3656 F15000.0
G1 Z11.9000 F8000.0
G1 X115.8204 Y-108.1932 F12000.0
G1 Z0.0000 F8000.0
G0 X115.7140 Y-107.7690 F15000.0
G1 Z11.9000 F8000.0
G1 X115.0703 Y-108.4127 F12000.0
G1 Z0.0000 F8000.0
G0 X112.7449 Y-103.7695 F15000.0
G1 Z11.9000 F8000.0
G1 X117.1052 Y-109.9985 F12000.0
G1 Z0.0000 F8000.0
G0 X128.9082 Y-31.6713 F15000.0
G1 Z11.9000 F8000.0
G1 X128.6991 Y-32.9254 F12000.0
G1 X128.3647 Y-33.0507
G1 Z0.0000 F8000.0
G0 X128.0304 Y-33.1762 F15000.0
G1 Z11.9000 F8000.0
G1 X127.6541 Y-33.3016 F12000.0
G1 X127.5287 Y-32.5909
G1 X127.1943 Y-32.3820
G1 X126.4000 Y-32.6745
G1 X126.0239 Y-33.4688
G1 X126.0239 Y-34.0122
G1 Z0.0000 F8000.0
G0 X124.1128 Y-40.7787 F15000.0
G1 Z11.9000 F8000.0
G1 X123.4899 Y-36.1848 F12000.0
G1 X124.1128 Y-36.6520 F12000.0
G1 X124.7357 Y-36.1848 F12000.0
G1 X124.1128 Y-40.7787 F12000.0
G1 X124.1128 Y-34.3161 F12000.0
G1 Z0.0000 F8000.0
G0 X123.8013 Y-38.0290 F15000.0
G1 Z11.9000 F8000.0
G1 X123.8013 Y-38.8567 F12000.0
G1 Z0.0000 F8000.0
G0 X124.3853 Y-37.7565 F15000.0
G1 Z11.9000 F8000.0
G1 X124.3853 Y-38.5842 F12000.0
G1 Z0.0000 F8000.0
G0 X124.1128 Y-42.5696 F15000.0
G1 Z11.9000 F8000.0
G1 X124.7357 Y-47.1635 F12000.0
G1 X124.1128 Y-46.7742 F12000.0
G1 X123.4899 Y-47.1635 F12000.0
G1 X124.1128 Y-42.5696 F12000.0
G1 X124.1128 Y-49.0322 F12000.0
G1 Z0.0000 F8000.0
G0 X124.3853 Y-44.6862 F15000.0
G1 Z11.9000 F8000.0
G1 X124.3853 Y-45.5139 F12000.0
G1 Z0.0000 F8000.0
G0 X123.8013 Y-44.4138 F15000.0
G1 Z11.9000 F8000.0
G1 X123.8013 Y-45.2414 F12000.0
G1 Z0.0000 F8000.0
G0 X124.1128 Y-40.7787 F15000.0
G1 Z11.9000 F8000.0
G1 X124.1128 Y-42.5696 F12000.0
G1 Z0.0000 F8000.0
G0 X0.0000 Y-216.9595 F15000.0
G1 Z11.9000 F8000.0
G1 X0.0000 Y-273.9770 F12000.0
G1 X174.7310 Y-273.9770 F12000.0
G1 Z0.0000 F8000.0
G0 X170.1296 Y-223.3663 F15000.0
G1 Z11.9000 F8000.0
G1 X0.0000 Y-223.3663 F12000.0
G1 Z0.0000 F8000.0
G0 X170.1296 Y-232.5541 F15000.0
G1 Z11.9000 F8000.0
G1 X110.3311 Y-232.5541 F12000.0
G1 Z0.0000 F8000.0
G0 X170.1296 Y-237.1480 F15000.0
G1 Z11.9000 F8000.0
G1 X110.3311 Y-237.1480 F12000.0
G1 Z0.0000 F8000.0
G0 X170.1296 Y-250.9296 F15000.0
G1 Z11.9000 F8000.0
G1 X110.3311 Y-250.9296 F12000.0
G1 Z0.0000 F8000.0
G0 X170.1296 Y-255.6014 F15000.0
G1 Z11.9000 F8000.0
G1 X110.3311 Y-255.6014 F12000.0
G1 Z0.0000 F8000.0
G0 X170.1296 Y-260.1953 F15000.0
G1 Z11.9000 F8000.0
G1 X110.3311 Y-260.1953 F12000.0
G1 Z0.0000 F8000.0
G0 X170.1296 Y-264.7892 F15000.0
G1 Z11.9000 F8000.0
G1 X110.3311 Y-264.7892 F12000.0
G1 Z0.0000 F8000.0
G0 X170.1296 Y-269.3830 F15000.0
G1 Z11.9000 F8000.0
G1 X110.3311 Y-269.3830 F12000.0
G1 Z0.0000 F8000.0
G0 X170.1296 Y-273.9770 F15000.0
G1 Z11.9000 F8000.0
G1 X170.1296 Y-223.3663 F12000.0
G1 Z0.0000 F8000.0
G0 X170.1296 Y-227.9602 F15000.0
G1 Z11.9000 F8000.0
G1 X110.3311 Y-227.9602 F12000.0
G1 Z0.0000 F8000.0
G0 X154.4792 Y-273.9770 F15000.0
G1 Z11.9000 F8000.0
G1 X154.4792 Y-223.3663 F12000.0
G1 Z0.0000 F8000.0
G0 X133.3006 Y-273.9770 F15000.0
G1 Z11.9000 F8000.0
G1 X133.3006 Y-223.3663 F12000.0
G1 Z0.0000 F8000.0
G0 X119.5189 Y-273.9770 F15000.0
G1 Z11.9000 F8000.0
G1 X119.5189 Y-223.3663 F12000.0
G1 Z0.0000 F8000.0
G0 X110.3311 Y-273.9770 F15000.0
G1 Z11.9000 F8000.0
G1 X110.3311 Y-223.3663 F12000.0
G1 Z0.0000 F8000.0
G0 X45.9388 Y-273.9770 F15000.0
G1 Z11.9000 F8000.0
G1 X45.9388 Y-237.1480 F12000.0
G1 Z0.0000 F8000.0
G0 X32.1572 Y-255.6014 F15000.0
G1 Z11.9000 F8000.0
G1 X32.1572 Y-237.1480 F12000.0
G1 Z0.0000 F8000.0
G0 X16.5068 Y-255.6014 F15000.0
G1 Z11.9000 F8000.0
G1 X16.5068 Y-237.1480 F12000.0
G1 Z0.0000 F8000.0
G0 X170.1296 Y-241.7419 F15000.0
G1 Z11.9000 F8000.0
G1 X110.3311 Y-241.7419 F12000.0
G1 Z0.0000 F8000.0
G0 X170.1296 Y-246.3357 F15000.0
G1 Z11.9000 F8000.0
G1 X110.3311 Y-246.3357 F12000.0
G1 Z0.0000 F8000.0
G0 X45.9388 Y-260.1953 F15000.0
G1 Z11.9000 F8000.0
G1 X0.0000 Y-260.1953 F12000.0
G1 Z0.0000 F8000.0
G0 X32.1572 Y-241.7419 F15000.0
G1 Z11.9000 F8000.0
G1 X0.0000 Y-241.7419 F12000.0
G1 Z0.0000 F8000.0
G0 X45.9388 Y-241.7419 F15000.0
G1 Z11.9000 F8000.0
G1 X32.1572 Y-241.7419 F12000.0
G1 Z0.0000 F8000.0
G0 X110.3311 Y-237.1480 F15000.0
G1 Z11.9000 F8000.0
G1 X0.0000 Y-237.1480 F12000.0
G1 Z0.0000 F8000.0
G0 X110.3311 Y-260.1953 F15000.0
G1 Z11.9000 F8000.0
G1 X45.9388 Y-260.1953 F12000.0
G1 Z0.0000 F8000.0
G0 X45.9388 Y-255.6014 F15000.0
G1 Z11.9000 F8000.0
G1 X0.0000 Y-255.6014 F12000.0
G1 Z0.0000 F8000.0
G0 X27.0183 Y-260.1953 F15000.0
G1 Z11.9000 F8000.0
G1 X27.0183 Y-255.6014 F12000.0
G1 Z0.0000 F8000.0
G0 X41.3449 Y-255.6014 F15000.0
G1 Z11.9000 F8000.0
G1 X41.3449 Y-241.7419 F12000.0
G1 Z0.0000 F8000.0
G0 X36.7511 Y-255.6014 F15000.0
G1 Z11.9000 F8000.0
G1 X36.7511 Y-241.7419 F12000.0
G1 Z0.0000 F8000.0
G0 X163.6669 Y-246.3357 F15000.0
G1 Z11.9000 F8000.0
G1 X163.6669 Y-223.3663 F12000.0
G1 Z0.0000 F8000.0
G0 X15.4956 Y-240.8907 F15000.0
G1 Z11.9000 F8000.0
G1 X14.5341 Y-238.4661 F12000.0
G1 Z0.0000 F8000.0
G0 X14.0743 Y-239.3439 F15000.0
G1 Z11.9000 F8000.0
G1 X14.0326 Y-239.0931 F12000.0
G1 X14.2833 Y-238.1735
G1 X14.2415 Y-237.7137
G1 Z0.0000 F8000.0
G0 X13.9907 Y-239.1350 F15000.0
G1 Z11.9000 F8000.0
G1 X13.8235 Y-239.0931 F12000.0
G1 X13.2801 Y-238.5916
G1 X12.7784 Y-238.2571
G1 X13.5727 Y-240.6398
G1 Z0.0000 F8000.0
G0 X12.8517 Y-240.7332 F15000.0
G1 Z11.9000 F8000.0
G1 X12.9353 Y-240.4824 F12000.0
G1 X12.3501 Y-238.9358
G1 X11.2215 Y-238.7268
G1 X11.7649 Y-240.5660
G1 X12.1829 Y-240.7332
G1 X12.7681 Y-240.7751
G1 Z0.0000 F8000.0
G0 X11.1485 Y-240.3641 F15000.0
G1 Z11.9000 F8000.0
G1 X10.1452 Y-240.8239 F12000.0
G1 Z0.0000 F8000.0
G0 X11.0230 Y-240.0297 F15000.0
G1 Z11.9000 F8000.0
G1 X10.7723 Y-239.2355 F12000.0
G1 Z0.0000 F8000.0
G0 X10.5215 Y-238.8593 F15000.0
G1 Z11.9000 F8000.0
G1 X9.3928 Y-238.7757 F12000.0
G1 Z0.0000 F8000.0
G0 X7.8568 Y-238.6802 F15000.0
G1 Z11.9000 F8000.0
G1 X8.6510 Y-240.7285 F12000.0
G1 X9.4452 Y-240.6867
G1 X9.3616 Y-240.1433
G1 X8.7765 Y-238.6802
G1 Z0.0000 F8000.0
G0 X8.6510 Y-240.7285 F15000.0
G1 Z11.9000 F8000.0
G1 X7.8568 Y-240.7285 F12000.0
G1 Z0.0000 F8000.0
G0 X7.7731 Y-240.6031 F15000.0
G1 Z11.9000 F8000.0
G1 X6.9372 Y-238.6802 F12000.0
G1 Z0.0000 F8000.0
G0 X7.3212 Y-240.9004 F15000.0
G1 Z11.9000 F8000.0
G1 X6.6942 Y-239.1866 F12000.0
G1 Z0.0000 F8000.0
G0 X6.5689 Y-238.8939 F15000.0
G1 Z11.9000 F8000.0
G1 X5.6910 Y-238.7268 F12000.0
G1 X4.8549 Y-239.0611
G1 X5.4820 Y-240.9004
G1 Z0.0000 F8000.0
G0 X6.4016 Y-240.9004 F15000.0
G1 Z11.9000 F8000.0
G1 X5.8164 Y-239.2702 F12000.0
G1 Z0.0000 F8000.0
G0 X5.6910 Y-238.9775 F15000.0
G1 Z11.9000 F8000.0
G1 X5.6492 Y-238.7685 F12000.0
G1 Z0.0000 F8000.0
G0 X4.6762 Y-240.7332 F15000.0
G1 Z11.9000 F8000.0
G1 X4.7598 Y-240.4824 F12000.0
G1 X4.1746 Y-238.9358
G1 X3.0459 Y-238.7268
G1 X3.5893 Y-240.5660
G1 X4.0074 Y-240.7332
G1 X4.5926 Y-240.7751
G1 Z0.0000 F8000.0
G0 X3.0549 Y-240.5024 F15000.0
G1 Z11.9000 F8000.0
G1 X3.0549 Y-240.6278 F12000.0
G1 Z0.0000 F8000.0
G0 X2.9295 Y-240.7532 F15000.0
G1 Z11.9000 F8000.0
G1 X1.3829 Y-238.8303 F12000.0
G1 X1.5919 Y-238.6631
G1 X2.4279 Y-238.9139
G1 X2.8878 Y-240.0426
G1 Z0.0000 F8000.0
G0 X0.8394 Y-237.8689 F15000.0
G1 Z11.9000 F8000.0
G1 X1.9263 Y-237.8689 F12000.0
G1 X1.6337 Y-238.6214
G1 Z0.0000 F8000.0
G0 X169.3227 Y-250.1035 F15000.0
G1 Z11.9000 F8000.0
G1 X169.1973 Y-249.6854 F12000.0
G1 Z0.0000 F8000.0
G0 X169.0718 Y-249.3929 F15000.0
G1 Z11.9000 F8000.0
G1 X168.1940 Y-247.0519 F12000.0
G1 X167.1072 Y-247.0938
G1 X166.9818 Y-247.4282
G1 X167.2744 Y-248.2224
G1 X167.5252 Y-248.4732
G1 X168.6956 Y-248.5986
G1 Z0.0000 F8000.0
G0 X167.1045 Y-249.9296 F15000.0
G1 Z11.9000 F8000.0
G1 X167.1881 Y-249.6788 F12000.0
G1 X166.6030 Y-248.1322
G1 X165.4743 Y-247.9231
G1 X166.0177 Y-249.7624
G1 X166.4358 Y-249.9296
G1 X167.0209 Y-249.9714
G1 Z0.0000 F8000.0
G0 X165.4795 Y-249.7971 F15000.0
G1 Z11.9000 F8000.0
G1 X165.0197 Y-249.9643 F12000.0
G1 X164.5599 Y-249.7552
G1 X164.3927 Y-249.3372
G1 X164.3509 Y-248.9610
G1 X163.9746 Y-248.0831
G1 X164.1418 Y-247.9578
G1 X164.8943 Y-248.1667
G1 Z0.0000 F8000.0
G0 X164.8943 Y-248.9192 F15000.0
G1 Z11.9000 F8000.0
G1 X164.3927 Y-248.9192 F12000.0
G1 Z0.0000 F8000.0
G0 X164.3826 Y-250.8910 F15000.0
G1 Z11.9000 F8000.0
G1 X163.9645 Y-250.0131 F12000.0
G1 X162.9195 Y-249.8877
G1 Z0.0000 F8000.0
G0 X163.9228 Y-249.7623 F15000.0
G1 Z11.9000 F8000.0
G1 X163.9228 Y-249.9295 F12000.0
G1 Z0.0000 F8000.0
G0 X163.7973 Y-249.4279 F15000.0
G1 Z11.9000 F8000.0
G1 X163.2539 Y-247.9649 F12000.0
G1 X162.3343 Y-247.9230
G1 Z0.0000 F8000.0
G0 X162.6687 Y-249.5115 F15000.0
G1 Z11.9000 F8000.0
G1 X162.3761 Y-248.6755 F12000.0
G1 Z0.0000 F8000.0
G0 X162.2507 Y-248.0066 F15000.0
G1 Z11.9000 F8000.0
G1 X162.2088 Y-248.2157 F12000.0
G1 Z0.0000 F8000.0
G0 X162.0800 Y-249.9296 F15000.0
G1 Z11.9000 F8000.0
G1 X162.1636 Y-249.6788 F12000.0
G1 X161.5784 Y-248.1322
G1 X160.4498 Y-247.9231
G1 X160.9932 Y-249.7624
G1 X161.4112 Y-249.9296
G1 X161.9964 Y-249.9714
G1 Z0.0000 F8000.0
G0 X160.4588 Y-249.6988 F15000.0
G1 Z11.9000 F8000.0
G1 X160.4588 Y-249.8242 F12000.0
G1 Z0.0000 F8000.0
G0 X160.3333 Y-249.9495 F15000.0
G1 Z11.9000 F8000.0
G1 X158.7867 Y-248.0267 F12000.0
G1 X158.9957 Y-247.8595
G1 X159.8318 Y-248.1103
G1 X160.2916 Y-249.2389
G1 Z0.0000 F8000.0
G0 X158.2433 Y-247.0653 F15000.0
G1 Z11.9000 F8000.0
G1 X159.3301 Y-247.0653 F12000.0
G1 X159.0375 Y-247.8177
G1 Z0.0000 F8000.0
G0 X159.0273 Y-250.0017 F15000.0
G1 Z11.9000 F8000.0
G1 X158.9437 Y-249.9181 F12000.0
G1 Z0.0000 F8000.0
G0 X168.6379 Y-259.1878 F15000.0
G1 Z11.9000 F8000.0
G1 X167.5511 Y-256.3034 F12000.0
G1 X166.7151 Y-256.2617
G1 Z0.0000 F8000.0
G0 X168.2200 Y-256.1780 F15000.0
G1 Z11.9000 F8000.0
G1 X167.5511 Y-256.2617 F12000.0
G1 Z0.0000 F8000.0
G0 X167.4583 Y-259.1981 F15000.0
G1 Z11.9000 F8000.0
G1 X167.3747 Y-259.1145 F12000.0
G1 Z0.0000 F8000.0
G0 X166.8518 Y-259.2466 F15000.0
G1 Z11.9000 F8000.0
G1 X166.6429 Y-258.7868 F12000.0
G1 Z0.0000 F8000.0
G0 X165.8904 Y-257.0730 F15000.0
G1 Z11.9000 F8000.0
G1 X166.2667 Y-257.9089 F12000.0
G1 X166.2667 Y-258.0762
G1 X165.9740 Y-258.0762
G1 X165.8068 Y-257.8672
G1 Z0.0000 F8000.0
G0 X165.9322 Y-258.1179 F15000.0
G1 Z11.9000 F8000.0
G1 X165.7232 Y-259.0794 F12000.0
G1 Z0.0000 F8000.0
G0 X165.5560 Y-257.7000 F15000.0
G1 Z11.9000 F8000.0
G1 X165.3470 Y-257.5328 F12000.0
G1 Z0.0000 F8000.0
G0 X165.0961 Y-257.3655 F15000.0
G1 Z11.9000 F8000.0
G1 X165.0125 Y-257.2819 F12000.0
G1 Z0.0000 F8000.0
G0 X164.8903 Y-259.1302 F15000.0
G1 Z11.9000 F8000.0
G1 X164.9739 Y-258.8794 F12000.0
G1 X164.3888 Y-257.3328
G1 X164.0125 Y-257.1237
G1 X163.3019 Y-257.2909
G1 X164.8067 Y-259.1720
G1 Z0.0000 F8000.0
G0 X163.4476 Y-259.2884 F15000.0
G1 Z11.9000 F8000.0
G1 X162.4862 Y-257.0730 F12000.0
G1 Z0.0000 F8000.0
G0 X162.8206 Y-258.1179 F15000.0
G1 Z11.9000 F8000.0
G1 X162.0264 Y-258.1179 F12000.0
G1 X161.8174 Y-257.9507
G1 X161.4830 Y-257.3237
G1 Z0.0000 F8000.0
G0 X162.3190 Y-259.2884 F15000.0
G1 Z11.9000 F8000.0
G1 X161.9845 Y-258.1598 F12000.0
G1 Z0.0000 F8000.0
G0 X161.7444 Y-259.2931 F15000.0
G1 Z11.9000 F8000.0
G1 X161.1173 Y-257.5792 F12000.0
G1 Z0.0000 F8000.0
G0 X160.9920 Y-257.2867 F15000.0
G1 Z11.9000 F8000.0
G1 X160.1141 Y-257.1194 F12000.0
G1 X159.2781 Y-257.4539
G1 X159.9052 Y-259.2931
G1 Z0.0000 F8000.0
G0 X160.8248 Y-259.2931 F15000.0
G1 Z11.9000 F8000.0
G1 X160.2395 Y-257.6628 F12000.0
G1 Z0.0000 F8000.0
G0 X160.1141 Y-257.3703 F15000.0
G1 Z11.9000 F8000.0
G1 X160.0723 Y-257.1612 F12000.0
G1 Z0.0000 F8000.0
G0 X159.6987 Y-260.0872 F15000.0
G1 Z11.9000 F8000.0
G1 X159.2806 Y-259.2095 F12000.0
G1 X158.2356 Y-259.0840
G1 Z0.0000 F8000.0
G0 X159.2389 Y-258.9587 F15000.0
G1 Z11.9000 F8000.0
G1 X159.2389 Y-259.1259 F12000.0
G1 Z0.0000 F8000.0
G0 X159.1134 Y-258.6242 F15000.0
G1 Z11.9000 F8000.0
G1 X158.5700 Y-257.1611 F12000.0
G1 X157.6504 Y-257.1194
G1 Z0.0000 F8000.0
G0 X157.9848 Y-258.7078 F15000.0
G1 Z11.9000 F8000.0
G1 X157.6921 Y-257.8718 F12000.0
G1 Z0.0000 F8000.0
G0 X157.5668 Y-257.2030 F15000.0
G1 Z11.9000 F8000.0
G1 X157.5250 Y-257.4120 F12000.0
G1 Z0.0000 F8000.0
G0 X157.7499 Y-259.1981 F15000.0
G1 Z11.9000 F8000.0
G1 X157.6663 Y-259.1145 F12000.0
G1 Z0.0000 F8000.0
G0 X24.5861 Y-259.1241 F15000.0
G1 Z11.9000 F8000.0
G1 X23.9173 Y-258.1208 F12000.0
G1 Z0.0000 F8000.0
G0 X23.6246 Y-257.6610 F15000.0
G1 Z11.9000 F8000.0
G1 X23.3739 Y-257.3266 F12000.0
G1 Z0.0000 F8000.0
G0 X22.9976 Y-256.7413 F15000.0
G1 Z11.9000 F8000.0
G1 X22.9140 Y-256.6577 F12000.0
G1 Z0.0000 F8000.0
G0 X22.8722 Y-258.7479 F15000.0
G1 Z11.9000 F8000.0
G1 X22.8304 Y-258.6225 F12000.0
G1 Z0.0000 F8000.0
G0 X22.6214 Y-256.2398 F15000.0
G1 Z11.9000 F8000.0
G1 X22.0362 Y-256.1979 F12000.0
G1 X22.1197 Y-256.6577
G1 Z0.0000 F8000.0
G0 X22.2870 Y-257.1176 F15000.0
G1 Z11.9000 F8000.0
G1 X22.2452 Y-256.9922 F12000.0
G1 Z0.0000 F8000.0
G0 X21.0020 Y-258.3687 F15000.0
G1 Z11.9000 F8000.0
G1 X21.1693 Y-258.7449 F12000.0
G1 X22.2979 Y-259.0794
G1 X22.2143 Y-258.5360
G1 X21.6291 Y-257.0730
G1 Z0.0000 F8000.0
G0 X20.8767 Y-258.0762 F15000.0
G1 Z11.9000 F8000.0
G1 X20.4586 Y-257.0730 F12000.0
G1 Z0.0000 F8000.0
G0 X20.5947 Y-258.7568 F15000.0
G1 Z11.9000 F8000.0
G1 X19.5914 Y-259.2166 F12000.0
G1 Z0.0000 F8000.0
G0 X20.4693 Y-258.4224 F15000.0
G1 Z11.9000 F8000.0
G1 X20.2185 Y-257.6281 F12000.0
G1 Z0.0000 F8000.0
G0 X19.9676 Y-257.2520 F15000.0
G1 Z11.9000 F8000.0
G1 X18.8390 Y-257.1683 F12000.0
G1 Z0.0000 F8000.0
G0 X19.1520 Y-259.2931 F15000.0
G1 Z11.9000 F8000.0
G1 X18.5249 Y-257.5792 F12000.0
G1 Z0.0000 F8000.0
G0 X18.3995 Y-257.2867 F15000.0
G1 Z11.9000 F8000.0
G1 X17.5217 Y-257.1194 F12000.0
G1 X16.6856 Y-257.4539
G1 X17.3127 Y-259.2931
G1 Z0.0000 F8000.0
G0 X18.2324 Y-259.2931 F15000.0
G1 Z11.9000 F8000.0
G1 X17.6471 Y-257.6628 F12000.0
G1 Z0.0000 F8000.0
G0 X17.5217 Y-257.3703 F15000.0
G1 Z11.9000 F8000.0
G1 X17.4799 Y-257.1612 F12000.0
G1 Z0.0000 F8000.0
G0 X16.5069 Y-259.1302 F15000.0
G1 Z11.9000 F8000.0
G1 X16.5905 Y-258.8794 F12000.0
G1 X16.0053 Y-257.3328
G1 X15.6290 Y-257.1237
G1 X14.9184 Y-257.2909
G1 X16.4232 Y-259.1720
G1 Z0.0000 F8000.0
G0 X14.1750 Y-257.1279 F15000.0
G1 Z11.9000 F8000.0
G1 X13.7152 Y-257.0861 F12000.0
G1 X13.2136 Y-257.3787
G1 X13.8824 Y-259.0507
G1 X14.8020 Y-259.1343
G1 X14.8856 Y-258.8835
G1 X13.9660 Y-256.4173
G1 Z0.0000 F8000.0
G0 X13.6316 Y-256.2082 F15000.0
G1 Z11.9000 F8000.0
G1 X13.4226 Y-256.2501 F12000.0
G1 Z0.0000 F8000.0
G0 X13.5897 Y-256.7935 F15000.0
G1 Z11.9000 F8000.0
G1 X13.3390 Y-256.4173 F12000.0
G1 Z0.0000 F8000.0
G0 X169.3226 Y-268.4903 F15000.0
G1 Z11.9000 F8000.0
G1 X168.6956 Y-266.9437 F12000.0
G1 X168.5284 Y-266.7764
G1 X167.4416 Y-266.7764
G1 X167.3997 Y-266.9854
G1 X167.9431 Y-268.4903
G1 Z0.0000 F8000.0
G0 X168.0686 Y-265.3552 F15000.0
G1 Z11.9000 F8000.0
G1 X168.5284 Y-266.4839 F12000.0
G1 X168.5284 Y-266.7347
G1 Z0.0000 F8000.0
G0 X167.2325 Y-266.5675 F15000.0
G1 Z11.9000 F8000.0
G1 X166.7727 Y-265.5224 F12000.0
G1 Z0.0000 F8000.0
G0 X167.4583 Y-268.3944 F15000.0
G1 Z11.9000 F8000.0
G1 X167.3747 Y-268.3108 F12000.0
G1 Z0.0000 F8000.0
G0 X166.8518 Y-268.4430 F15000.0
G1 Z11.9000 F8000.0
G1 X166.6429 Y-267.9832 F12000.0
G1 Z0.0000 F8000.0
G0 X165.8904 Y-266.2693 F15000.0
G1 Z11.9000 F8000.0
G1 X166.2667 Y-267.1054 F12000.0
G1 X166.2667 Y-267.2726
G1 X165.9740 Y-267.2726
G1 X165.8068 Y-267.0635
G1 Z0.0000 F8000.0
G0 X165.9322 Y-267.3143 F15000.0
G1 Z11.9000 F8000.0
G1 X165.7232 Y-268.2758 F12000.0
G1 Z0.0000 F8000.0
G0 X165.5560 Y-266.8963 F15000.0
G1 Z11.9000 F8000.0
G1 X165.3470 Y-266.7291 F12000.0
G1 Z0.0000 F8000.0
G0 X165.0961 Y-266.5619 F15000.0
G1 Z11.9000 F8000.0
G1 X165.0125 Y-266.4783 F12000.0
G1 Z0.0000 F8000.0
G0 X164.8903 Y-268.3265 F15000.0
G1 Z11.9000 F8000.0
G1 X164.9739 Y-268.0758 F12000.0
G1 X164.3888 Y-266.5291
G1 X164.0125 Y-266.3201
G1 X163.3019 Y-266.4873
G1 X164.8067 Y-268.3684
G1 Z0.0000 F8000.0
G0 X163.4476 Y-268.4848 F15000.0
G1 Z11.9000 F8000.0
G1 X162.4862 Y-266.2693 F12000.0
G1 Z0.0000 F8000.0
G0 X162.8206 Y-267.3143 F15000.0
G1 Z11.9000 F8000.0
G1 X162.0264 Y-267.3143 F12000.0
G1 X161.8174 Y-267.1471
G1 X161.4830 Y-266.5201
G1 Z0.0000 F8000.0
G0 X162.3190 Y-268.4848 F15000.0
G1 Z11.9000 F8000.0
G1 X161.9845 Y-267.3561 F12000.0
G1 Z0.0000 F8000.0
G0 X161.7444 Y-268.4895 F15000.0
G1 Z11.9000 F8000.0
G1 X161.1173 Y-266.7756 F12000.0
G1 Z0.0000 F8000.0
G0 X160.9920 Y-266.4830 F15000.0
G1 Z11.9000 F8000.0
G1 X160.1141 Y-266.3158 F12000.0
G1 X159.2781 Y-266.6502
G1 X159.9052 Y-268.4895
G1 Z0.0000 F8000.0
G0 X160.8248 Y-268.4895 F15000.0
G1 Z11.9000 F8000.0
G1 X160.2395 Y-266.8593 F12000.0
G1 Z0.0000 F8000.0
G0 X160.1141 Y-266.5666 F15000.0
G1 Z11.9000 F8000.0
G1 X160.0723 Y-266.3576 F12000.0
G1 Z0.0000 F8000.0
G0 X159.6987 Y-269.2837 F15000.0
G1 Z11.9000 F8000.0
G1 X159.2806 Y-268.4058 F12000.0
G1 X158.2356 Y-268.2804
G1 Z0.0000 F8000.0
G0 X159.2389 Y-268.1550 F15000.0
G1 Z11.9000 F8000.0
G1 X159.2389 Y-268.3222 F12000.0
G1 Z0.0000 F8000.0
G0 X159.1134 Y-267.8206 F15000.0
G1 Z11.9000 F8000.0
G1 X158.5700 Y-266.3575 F12000.0
G1 X157.6504 Y-266.3158
G1 Z0.0000 F8000.0
G0 X157.9848 Y-267.9043 F15000.0
G1 Z11.9000 F8000.0
G1 X157.6921 Y-267.0682 F12000.0
G1 Z0.0000 F8000.0
G0 X157.5668 Y-266.3994 F15000.0
G1 Z11.9000 F8000.0
G1 X157.5250 Y-266.6084 F12000.0
G1 Z0.0000 F8000.0
G0 X157.7499 Y-268.3944 F15000.0
G1 Z11.9000 F8000.0
G1 X157.6663 Y-268.3108 F12000.0
G1 Z0.0000 F8000.0
G0 X76.2058 Y-232.9094 F15000.0
G1 Z11.9000 F8000.0
G1 X74.9935 Y-229.6907 F12000.0
G1 Z0.0000 F8000.0
G0 X74.6173 Y-228.6874 F15000.0
G1 Z11.9000 F8000.0
G1 X73.9067 Y-226.8482 F12000.0
G1 Z0.0000 F8000.0
G0 X73.9067 Y-227.5170 F15000.0
G1 Z11.9000 F8000.0
G1 X73.2797 Y-229.5653 F12000.0
G1 X72.1510 Y-228.8129
G1 Z0.0000 F8000.0
G0 X73.2797 Y-229.7743 F15000.0
G1 Z11.9000 F8000.0
G1 X73.2378 Y-229.6489 F12000.0
G1 Z0.0000 F8000.0
G0 X72.4437 Y-232.7841 F15000.0
G1 Z11.9000 F8000.0
G1 X70.6044 Y-227.6006 F12000.0
G1 X70.6461 Y-227.5588
G1 X71.5240 Y-228.1859
G1 Z0.0000 F8000.0
G0 X70.4372 Y-227.2244 F15000.0
G1 Z11.9000 F8000.0
G1 X70.2700 Y-226.9736 F12000.0
G1 Z0.0000 F8000.0
G0 X68.6387 Y-232.9011 F15000.0
G1 Z11.9000 F8000.0
G1 X67.7608 Y-230.1004 F12000.0
G1 X69.6419 Y-229.9750
G1 X69.8927 Y-229.7660
G1 X70.0181 Y-229.3898
G1 X69.2238 Y-226.9235
G1 Z0.0000 F8000.0
G0 X67.6353 Y-230.0586 F15000.0
G1 Z11.9000 F8000.0
G1 X66.6739 Y-227.5505 F12000.0
G1 Z0.0000 F8000.0
G0 X66.8556 Y-231.1328 F15000.0
G1 Z11.9000 F8000.0
G1 X67.0228 Y-231.5926 F12000.0
G1 X66.9809 Y-232.5540
G1 Z0.0000 F8000.0
G0 X66.7301 Y-230.7984 F15000.0
G1 Z11.9000 F8000.0
G1 X66.6884 Y-230.6729 F12000.0
G1 Z0.0000 F8000.0
G0 X66.6884 Y-232.8048 F15000.0
G1 Z11.9000 F8000.0
G1 X65.5179 Y-232.8466 F12000.0
G1 X65.2671 Y-232.7630
G1 Z0.0000 F8000.0
G0 X66.5629 Y-230.3386 F15000.0
G1 Z11.9000 F8000.0
G1 X66.4793 Y-230.0877 F12000.0
G1 Z0.0000 F8000.0
G0 X66.3539 Y-229.7533 F15000.0
G1 Z11.9000 F8000.0
G1 X66.2703 Y-229.5025 F12000.0
G1 Z0.0000 F8000.0
G0 X66.1449 Y-229.1680 F15000.0
G1 Z11.9000 F8000.0
G1 X66.1031 Y-229.0427 F12000.0
G1 Z0.0000 F8000.0
G0 X65.9777 Y-228.7082 F15000.0
G1 Z11.9000 F8000.0
G1 X65.6433 Y-227.9140 F12000.0
G1 Z0.0000 F8000.0
G0 X65.4761 Y-227.6214 F15000.0
G1 Z11.9000 F8000.0
G1 X65.2671 Y-227.4124 F12000.0
G1 Z0.0000 F8000.0
G0 X65.0163 Y-227.2034 F15000.0
G1 Z11.9000 F8000.0
G1 X63.7204 Y-226.8690 F12000.0
G1 X63.1352 Y-227.0780
G1 Z0.0000 F8000.0
G0 X64.9327 Y-232.5958 F15000.0
G1 Z11.9000 F8000.0
G1 X64.4729 Y-232.1778 F12000.0
G1 Z0.0000 F8000.0
G0 X64.2638 Y-231.8016 F15000.0
G1 Z11.9000 F8000.0
G1 X64.0131 Y-231.1328 F12000.0
G1 Z0.0000 F8000.0
G0 X63.8876 Y-230.7984 F15000.0
G1 Z11.9000 F8000.0
G1 X63.8458 Y-230.6729 F12000.0
G1 Z0.0000 F8000.0
G0 X63.7204 Y-230.3386 F15000.0
G1 Z11.9000 F8000.0
G1 X63.6368 Y-230.0877 F12000.0
G1 Z0.0000 F8000.0
G0 X63.5114 Y-229.7533 F15000.0
G1 Z11.9000 F8000.0
G1 X63.4278 Y-229.5025 F12000.0
G1 Z0.0000 F8000.0
G0 X63.3024 Y-229.1680 F15000.0
G1 Z11.9000 F8000.0
G1 X63.2606 Y-229.0427 F12000.0
G1 Z0.0000 F8000.0
G0 X63.1352 Y-228.7082 F15000.0
G1 Z11.9000 F8000.0
G1 X62.9261 Y-228.0812 F12000.0
G1 X62.8844 Y-227.4542
G1 X62.9680 Y-227.2452
G1 Z0.0000 F8000.0
G0 X62.9381 Y-231.1328 F15000.0
G1 Z11.9000 F8000.0
G1 X63.1053 Y-231.5926 F12000.0
G1 X63.0634 Y-232.5540
G1 Z0.0000 F8000.0
G0 X62.8127 Y-230.7984 F15000.0
G1 Z11.9000 F8000.0
G1 X62.7709 Y-230.6729 F12000.0
G1 Z0.0000 F8000.0
G0 X62.7709 Y-232.8048 F15000.0
G1 Z11.9000 F8000.0
G1 X61.6004 Y-232.8466 F12000.0
G1 X61.3496 Y-232.7630
G1 Z0.0000 F8000.0
G0 X62.6455 Y-230.3386 F15000.0
G1 Z11.9000 F8000.0
G1 X62.5619 Y-230.0877 F12000.0
G1 Z0.0000 F8000.0
G0 X62.4364 Y-229.7533 F15000.0
G1 Z11.9000 F8000.0
G1 X62.3528 Y-229.5025 F12000.0
G1 Z0.0000 F8000.0
G0 X62.2274 Y-229.1680 F15000.0
G1 Z11.9000 F8000.0
G1 X62.1857 Y-229.0427 F12000.0
G1 Z0.0000 F8000.0
G0 X62.0602 Y-228.7082 F15000.0
G1 Z11.9000 F8000.0
G1 X61.7258 Y-227.9140 F12000.0
G1 Z0.0000 F8000.0
G0 X61.5586 Y-227.6214 F15000.0
G1 Z11.9000 F8000.0
G1 X61.3496 Y-227.4124 F12000.0
G1 Z0.0000 F8000.0
G0 X61.0988 Y-227.2034 F15000.0
G1 Z11.9000 F8000.0
G1 X59.8030 Y-226.8690 F12000.0
G1 X59.2177 Y-227.0780
G1 Z0.0000 F8000.0
G0 X61.0152 Y-232.5958 F15000.0
G1 Z11.9000 F8000.0
G1 X60.5554 Y-232.1778 F12000.0
G1 Z0.0000 F8000.0
G0 X60.3464 Y-231.8016 F15000.0
G1 Z11.9000 F8000.0
G1 X60.0956 Y-231.1328 F12000.0
G1 Z0.0000 F8000.0
G0 X59.9702 Y-230.7984 F15000.0
G1 Z11.9000 F8000.0
G1 X59.9283 Y-230.6729 F12000.0
G1 Z0.0000 F8000.0
G0 X59.8030 Y-230.3386 F15000.0
G1 Z11.9000 F8000.0
G1 X59.7194 Y-230.0877 F12000.0
G1 Z0.0000 F8000.0
G0 X59.5939 Y-229.7533 F15000.0
G1 Z11.9000 F8000.0
G1 X59.5103 Y-229.5025 F12000.0
G1 Z0.0000 F8000.0
G0 X59.3849 Y-229.1680 F15000.0
G1 Z11.9000 F8000.0
G1 X59.3431 Y-229.0427 F12000.0
G1 Z0.0000 F8000.0
G0 X59.2177 Y-228.7082 F15000.0
G1 Z11.9000 F8000.0
G1 X59.0087 Y-228.0812 F12000.0
G1 X58.9669 Y-227.4542
G1 X59.0505 Y-227.2452
G1 Z0.0000 F8000.0
G0 X59.8009 Y-232.7695 F15000.0
G1 Z11.9000 F8000.0
G1 X59.6169 Y-232.7695 F12000.0
G1 Z0.0000 F8000.0
G0 X58.5399 Y-232.8884 F15000.0
G1 Z11.9000 F8000.0
G1 X56.9515 Y-232.7630 F12000.0
G1 X56.5335 Y-232.5540
G1 Z0.0000 F8000.0
G0 X55.6138 Y-231.0073 F15000.0
G1 Z11.9000 F8000.0
G1 X55.6138 Y-229.9623 F12000.0
G1 X55.9482 Y-229.7115
G1 X57.3277 Y-229.5861
G1 X54.1925 Y-226.8272
G1 Z0.0000 F8000.0
G0 X56.3244 Y-232.3868 F15000.0
G1 Z11.9000 F8000.0
G1 X56.1573 Y-232.2196 F12000.0
G1 Z0.0000 F8000.0
G0 X56.0318 Y-231.9688 F15000.0
G1 Z11.9000 F8000.0
G1 X55.7810 Y-231.4254 F12000.0
G1 Z0.0000 F8000.0
G0 X55.1449 Y-232.9302 F15000.0
G1 Z11.9000 F8000.0
G1 X54.8941 Y-232.8466 F12000.0
G1 X52.9294 Y-230.6311
G1 Z0.0000 F8000.0
G0 X54.8523 Y-232.8466 F15000.0
G1 Z11.9000 F8000.0
G1 X52.4696 Y-232.8048 F12000.0
G1 Z0.0000 F8000.0
G0 X53.3056 Y-227.8304 F15000.0
G1 Z11.9000 F8000.0
G1 X52.5114 Y-227.1198 F12000.0
G1 X52.2188 Y-227.0361
G1 X50.8394 Y-227.2452
G1 X50.6722 Y-228.0395
G1 X51.0066 Y-228.7082
G1 Z0.0000 F8000.0
G0 X51.4550 Y-232.7695 F15000.0
G1 Z11.9000 F8000.0
G1 X51.2710 Y-232.7695 F12000.0
G1 Z0.0000 F8000.0
G0 X49.6528 Y-231.1328 F15000.0
G1 Z11.9000 F8000.0
G1 X49.8200 Y-231.5926 F12000.0
G1 X49.7782 Y-232.5540
G1 Z0.0000 F8000.0
G0 X49.5274 Y-230.7984 F15000.0
G1 Z11.9000 F8000.0
G1 X49.4857 Y-230.6729 F12000.0
G1 Z0.0000 F8000.0
G0 X49.4857 Y-232.8048 F15000.0
G1 Z11.9000 F8000.0
G1 X48.3151 Y-232.8466 F12000.0
G1 X48.0644 Y-232.7630
G1 Z0.0000 F8000.0
G0 X49.3602 Y-230.3386 F15000.0
G1 Z11.9000 F8000.0
G1 X49.2766 Y-230.0877 F12000.0
G1 Z0.0000 F8000.0
G0 X49.1512 Y-229.7533 F15000.0
G1 Z11.9000 F8000.0
G1 X49.0676 Y-229.5025 F12000.0
G1 Z0.0000 F8000.0
G0 X48.9421 Y-229.1680 F15000.0
G1 Z11.9000 F8000.0
G1 X48.9004 Y-229.0427 F12000.0
G1 Z0.0000 F8000.0
G0 X48.7750 Y-228.7082 F15000.0
G1 Z11.9000 F8000.0
G1 X48.4406 Y-227.9140 F12000.0
G1 Z0.0000 F8000.0
G0 X48.2734 Y-227.6214 F15000.0
G1 Z11.9000 F8000.0
G1 X48.0644 Y-227.4124 F12000.0
G1 Z0.0000 F8000.0
G0 X47.8136 Y-227.2034 F15000.0
G1 Z11.9000 F8000.0
G1 X46.5177 Y-226.8690 F12000.0
G1 X45.9325 Y-227.0780
G1 Z0.0000 F8000.0
G0 X47.7300 Y-232.5958 F15000.0
G1 Z11.9000 F8000.0
G1 X47.2702 Y-232.1778 F12000.0
G1 Z0.0000 F8000.0
G0 X47.0611 Y-231.8016 F15000.0
G1 Z11.9000 F8000.0
G1 X46.8103 Y-231.1328 F12000.0
G1 Z0.0000 F8000.0
G0 X46.6849 Y-230.7984 F15000.0
G1 Z11.9000 F8000.0
G1 X46.6431 Y-230.6729 F12000.0
G1 Z0.0000 F8000.0
G0 X46.5177 Y-230.3386 F15000.0
G1 Z11.9000 F8000.0
G1 X46.4341 Y-230.0877 F12000.0
G1 Z0.0000 F8000.0
G0 X46.3087 Y-229.7533 F15000.0
G1 Z11.9000 F8000.0
G1 X46.2251 Y-229.5025 F12000.0
G1 Z0.0000 F8000.0
G0 X46.0996 Y-229.1680 F15000.0
G1 Z11.9000 F8000.0
G1 X46.0579 Y-229.0427 F12000.0
G1 Z0.0000 F8000.0
G0 X45.9325 Y-228.7082 F15000.0
G1 Z11.9000 F8000.0
G1 X45.7234 Y-228.0812 F12000.0
G1 X45.6817 Y-227.4542
G1 X45.7653 Y-227.2452
G1 Z0.0000 F8000.0
G0 X45.7354 Y-231.1328 F15000.0
G1 Z11.9000 F8000.0
G1 X45.9026 Y-231.5926 F12000.0
G1 X45.8608 Y-232.5540
G1 Z0.0000 F8000.0
G0 X45.6099 Y-230.7984 F15000.0
G1 Z11.9000 F8000.0
G1 X45.5682 Y-230.6729 F12000.0
G1 Z0.0000 F8000.0
G0 X45.5682 Y-232.8048 F15000.0
G1 Z11.9000 F8000.0
G1 X44.3977 Y-232.8466 F12000.0
G1 X44.1469 Y-232.7630
G1 Z0.0000 F8000.0
G0 X45.4427 Y-230.3386 F15000.0
G1 Z11.9000 F8000.0
G1 X45.3592 Y-230.0877 F12000.0
G1 Z0.0000 F8000.0
G0 X45.2337 Y-229.7533 F15000.0
G1 Z11.9000 F8000.0
G1 X45.1501 Y-229.5025 F12000.0
G1 Z0.0000 F8000.0
G0 X45.0248 Y-229.1680 F15000.0
G1 Z11.9000 F8000.0
G1 X44.9829 Y-229.0427 F12000.0
G1 Z0.0000 F8000.0
G0 X44.8575 Y-228.7082 F15000.0
G1 Z11.9000 F8000.0
G1 X44.5231 Y-227.9140 F12000.0
G1 Z0.0000 F8000.0
G0 X44.3559 Y-227.6214 F15000.0
G1 Z11.9000 F8000.0
G1 X44.1469 Y-227.4124 F12000.0
G1 Z0.0000 F8000.0
G0 X43.8961 Y-227.2034 F15000.0
G1 Z11.9000 F8000.0
G1 X42.6002 Y-226.8690 F12000.0
G1 X42.0150 Y-227.0780
G1 Z0.0000 F8000.0
G0 X43.8125 Y-232.5958 F15000.0
G1 Z11.9000 F8000.0
G1 X43.3527 Y-232.1778 F12000.0
G1 Z0.0000 F8000.0
G0 X43.1437 Y-231.8016 F15000.0
G1 Z11.9000 F8000.0
G1 X42.8929 Y-231.1328 F12000.0
G1 Z0.0000 F8000.0
G0 X42.7674 Y-230.7984 F15000.0
G1 Z11.9000 F8000.0
G1 X42.7257 Y-230.6729 F12000.0
G1 Z0.0000 F8000.0
G0 X42.6002 Y-230.3386 F15000.0
G1 Z11.9000 F8000.0
G1 X42.5166 Y-230.0877 F12000.0
G1 Z0.0000 F8000.0
G0 X42.3912 Y-229.7533 F15000.0
G1 Z11.9000 F8000.0
G1 X42.3076 Y-229.5025 F12000.0
G1 Z0.0000 F8000.0
G0 X42.1823 Y-229.1680 F15000.0
G1 Z11.9000 F8000.0
G1 X42.1404 Y-229.0427 F12000.0
G1 Z0.0000 F8000.0
G0 X42.0150 Y-228.7082 F15000.0
G1 Z11.9000 F8000.0
G1 X41.8060 Y-228.0812 F12000.0
G1 X41.7642 Y-227.4542
G1 X41.8478 Y-227.2452
G1 Z0.0000 F8000.0
G0 X42.5981 Y-232.7695 F15000.0
G1 Z11.9000 F8000.0
G1 X42.4142 Y-232.7695 F12000.0
G1 Z0.0000 F8000.0
G0 X40.7959 Y-231.1328 F15000.0
G1 Z11.9000 F8000.0
G1 X40.9631 Y-231.5926 F12000.0
G1 X40.9214 Y-232.5540
G1 Z0.0000 F8000.0
G0 X40.6706 Y-230.7984 F15000.0
G1 Z11.9000 F8000.0
G1 X40.6287 Y-230.6729 F12000.0
G1 Z0.0000 F8000.0
G0 X40.6287 Y-232.8048 F15000.0
G1 Z11.9000 F8000.0
G1 X39.4583 Y-232.8466 F12000.0
G1 X39.2074 Y-232.7630
G1 Z0.0000 F8000.0
G0 X40.5033 Y-230.3386 F15000.0
G1 Z11.9000 F8000.0
G1 X40.4197 Y-230.0877 F12000.0
G1 Z0.0000 F8000.0
G0 X40.2943 Y-229.7533 F15000.0
G1 Z11.9000 F8000.0
G1 X40.2108 Y-229.5025 F12000.0
G1 Z0.0000 F8000.0
G0 X40.0853 Y-229.1680 F15000.0
G1 Z11.9000 F8000.0
G1 X40.0435 Y-229.0427 F12000.0
G1 Z0.0000 F8000.0
G0 X39.9181 Y-228.7082 F15000.0
G1 Z11.9000 F8000.0
G1 X39.5836 Y-227.9140 F12000.0
G1 Z0.0000 F8000.0
G0 X39.4165 Y-227.6214 F15000.0
G1 Z11.9000 F8000.0
G1 X39.2074 Y-227.4124 F12000.0
G1 Z0.0000 F8000.0
G0 X38.9566 Y-227.2034 F15000.0
G1 Z11.9000 F8000.0
G1 X37.6608 Y-226.8690 F12000.0
G1 X37.0756 Y-227.0780
G1 Z0.0000 F8000.0
G0 X38.8730 Y-232.5958 F15000.0
G1 Z11.9000 F8000.0
G1 X38.4132 Y-232.1778 F12000.0
G1 Z0.0000 F8000.0
G0 X38.2042 Y-231.8016 F15000.0
G1 Z11.9000 F8000.0
G1 X37.9534 Y-231.1328 F12000.0
G1 Z0.0000 F8000.0
G0 X37.8280 Y-230.7984 F15000.0
G1 Z11.9000 F8000.0
G1 X37.7862 Y-230.6729 F12000.0
G1 Z0.0000 F8000.0
G0 X37.6608 Y-230.3386 F15000.0
G1 Z11.9000 F8000.0
G1 X37.5772 Y-230.0877 F12000.0
G1 Z0.0000 F8000.0
G0 X37.4518 Y-229.7533 F15000.0
G1 Z11.9000 F8000.0
G1 X37.3682 Y-229.5025 F12000.0
G1 Z0.0000 F8000.0
G0 X37.2428 Y-229.1680 F15000.0
G1 Z11.9000 F8000.0
G1 X37.2010 Y-229.0427 F12000.0
G1 Z0.0000 F8000.0
G0 X37.0756 Y-228.7082 F15000.0
G1 Z11.9000 F8000.0
G1 X36.8666 Y-228.0812 F12000.0
G1 X36.8247 Y-227.4542
G1 X36.9083 Y-227.2452
G1 Z0.0000 F8000.0
G0 X36.0727 Y-232.7607 F15000.0
G1 Z11.9000 F8000.0
G1 X35.2784 Y-230.6288 F12000.0
G1 Z0.0000 F8000.0
G0 X35.8218 Y-228.2461 F15000.0
G1 Z11.9000 F8000.0
G1 X34.7350 Y-227.4937 F12000.0
G1 X34.2334 Y-227.3265
G1 X33.8572 Y-226.8667
G1 Z0.0000 F8000.0
G0 X35.1530 Y-230.2944 F15000.0
G1 Z11.9000 F8000.0
G1 X35.1112 Y-230.1690 F12000.0
G1 Z0.0000 F8000.0
G0 X34.9857 Y-229.8346 F15000.0
G1 Z11.9000 F8000.0
G1 X34.5678 Y-228.6642 F12000.0
G1 Z0.0000 F8000.0
G0 X34.4423 Y-228.3297 F15000.0
G1 Z11.9000 F8000.0
G1 X34.4006 Y-228.2044 F12000.0
G1 Z0.0000 F8000.0
G0 X34.2751 Y-227.8699 F15000.0
G1 Z11.9000 F8000.0
G1 X34.1079 Y-227.2429 F12000.0
G1 Z0.0000 F8000.0
G0 X93.6553 Y-252.3239 F15000.0
G1 Z11.9000 F8000.0
G1 X92.4430 Y-249.0216 F12000.0
G1 X92.2340 Y-248.7290
G1 Z0.0000 F8000.0
G0 X87.0088 Y-244.2563 F15000.0
G1 Z11.9000 F8000.0
G1 X89.1824 Y-246.1791 F12000.0
G1 X90.2693 Y-247.4750
G1 X92.0668 Y-248.3528
G1 X91.8996 Y-247.5586
G1 Z0.0000 F8000.0
G0 X91.7741 Y-247.2241 F15000.0
G1 Z11.9000 F8000.0
G1 X91.7324 Y-247.0988 F12000.0
G1 Z0.0000 F8000.0
G0 X91.2726 Y-245.8446 F15000.0
G1 Z11.9000 F8000.0
G1 X90.5619 Y-243.9218 F12000.0
G1 Z0.0000 F8000.0
G0 X90.2693 Y-247.4750 F15000.0
G1 Z11.9000 F8000.0
G1 X89.8095 Y-252.3239 F12000.0
G1 Z0.0000 F8000.0
G0 X86.7997 Y-244.0890 F15000.0
G1 Z11.9000 F8000.0
G1 X86.6325 Y-243.9218 F12000.0
G1 Z0.0000 F8000.0
G0 X87.7520 Y-252.0285 F15000.0
G1 Z11.9000 F8000.0
G1 X86.8324 Y-249.0188 F12000.0
G1 Z0.0000 F8000.0
G0 X87.4594 Y-252.3211 F15000.0
G1 Z11.9000 F8000.0
G1 X85.3275 Y-252.3211 F12000.0
G1 Z0.0000 F8000.0
G0 X86.4979 Y-248.0991 F15000.0
G1 Z11.9000 F8000.0
G1 X85.9963 Y-247.0541 F12000.0
G1 X85.7456 Y-246.8033
G1 X83.9480 Y-246.4688
G1 X83.2374 Y-246.5942
G1 Z0.0000 F8000.0
G0 X84.9095 Y-252.0702 F15000.0
G1 Z11.9000 F8000.0
G1 X84.6586 Y-251.8613 F12000.0
G1 Z0.0000 F8000.0
G0 X84.4914 Y-251.5687 F15000.0
G1 Z11.9000 F8000.0
G1 X84.3661 Y-251.2760 F12000.0
G1 Z0.0000 F8000.0
G0 X84.2407 Y-250.9834 F15000.0
G1 Z11.9000 F8000.0
G1 X83.6972 Y-249.3950 F12000.0
G1 Z0.0000 F8000.0
G0 X83.4046 Y-248.6007 F15000.0
G1 Z11.9000 F8000.0
G1 X82.9448 Y-246.9286 F12000.0
G1 X82.9866 Y-246.8450
G1 Z0.0000 F8000.0
G0 X84.1466 Y-254.9546 F15000.0
G1 Z11.9000 F8000.0
G1 X83.9794 Y-254.4948 F12000.0
G1 Z0.0000 F8000.0
G0 X83.7286 Y-253.8259 F15000.0
G1 Z11.9000 F8000.0
G1 X81.0950 Y-246.6361 F12000.0
G1 Z0.0000 F8000.0
G0 X83.0598 Y-252.4047 F15000.0
G1 Z11.9000 F8000.0
G1 X80.3008 Y-252.2375 F12000.0
G1 X80.0082 Y-252.0285
G1 Z0.0000 F8000.0
G0 X81.0114 Y-246.5524 F15000.0
G1 Z11.9000 F8000.0
G1 X78.3780 Y-246.5942 F12000.0
G1 Z0.0000 F8000.0
G0 X79.7992 Y-251.8613 F15000.0
G1 Z11.9000 F8000.0
G1 X79.5484 Y-251.3596 F12000.0
G1 X78.0853 Y-246.9286
G1 X78.1271 Y-246.8450
G1 Z0.0000 F8000.0
G0 X78.2460 Y-252.1121 F15000.0
G1 Z11.9000 F8000.0
G1 X78.2042 Y-251.9866 F12000.0
G1 Z0.0000 F8000.0
G0 X78.0787 Y-251.6522 F15000.0
G1 Z11.9000 F8000.0
G1 X76.2395 Y-246.6778 F12000.0
G1 Z0.0000 F8000.0
G0 X76.1559 Y-246.5942 F15000.0
G1 Z11.9000 F8000.0
G1 X73.3552 Y-246.7197 F12000.0
G1 X73.2298 Y-246.9286
G1 X74.0658 Y-249.6458
G1 Z0.0000 F8000.0
G0 X74.9854 Y-252.2375 F15000.0
G1 Z11.9000 F8000.0
G1 X74.4002 Y-250.5654 F12000.0
G1 Z0.0000 F8000.0
G0 X74.0847 Y-255.1185 F15000.0
G1 Z11.9000 F8000.0
G1 X71.2839 Y-254.6587 F12000.0
G1 Z0.0000 F8000.0
G0 X73.0813 Y-252.0670 F15000.0
G1 Z11.9000 F8000.0
G1 X73.1650 Y-251.7325 F12000.0
G1 X72.8724 Y-250.8129
G1 Z0.0000 F8000.0
G0 X72.8724 Y-252.2759 F15000.0
G1 Z11.9000 F8000.0
G1 X70.3643 Y-252.4014 F12000.0
G1 X70.4061 Y-253.0284
G1 Z0.0000 F8000.0
G0 X72.6215 Y-250.1441 F15000.0
G1 Z11.9000 F8000.0
G1 X71.7019 Y-247.5524 F12000.0
G1 Z0.0000 F8000.0
G0 X71.4511 Y-246.8836 F15000.0
G1 Z11.9000 F8000.0
G1 X71.2839 Y-246.5073 F12000.0
G1 Z0.0000 F8000.0
G0 X71.0331 Y-254.4078 F15000.0
G1 Z11.9000 F8000.0
G1 X70.5315 Y-253.3210 F12000.0
G1 Z0.0000 F8000.0
G0 X70.1552 Y-252.2759 F15000.0
G1 Z11.9000 F8000.0
G1 X68.0652 Y-246.5909 F12000.0
G1 Z0.0000 F8000.0
G0 X66.4471 Y-246.9705 F15000.0
G1 Z11.9000 F8000.0
G1 X67.0323 Y-248.0991 F12000.0
G1 X68.2863 Y-251.9449
G1 X65.4857 Y-252.3629
G1 Z0.0000 F8000.0
G0 X66.2799 Y-246.8450 F15000.0
G1 Z11.9000 F8000.0
G1 X63.3119 Y-246.4688 F12000.0
G1 Z0.0000 F8000.0
G0 X90.0844 Y-269.6738 F15000.0
G1 Z11.9000 F8000.0
G1 X89.4992 Y-268.1272 F12000.0
G1 Z0.0000 F8000.0
G0 X89.2484 Y-267.4584 F15000.0
G1 Z11.9000 F8000.0
G1 X88.8721 Y-266.4133 F12000.0
G1 X85.6117 Y-263.6126
G1 Z0.0000 F8000.0
G0 X86.0142 Y-267.9182 F15000.0
G1 Z11.9000 F8000.0
G1 X86.1814 Y-268.3780 F12000.0
G1 X86.1395 Y-269.3394
G1 Z0.0000 F8000.0
G0 X85.8887 Y-267.5838 F15000.0
G1 Z11.9000 F8000.0
G1 X85.8470 Y-267.4584 F12000.0
G1 Z0.0000 F8000.0
G0 X85.8470 Y-269.5902 F15000.0
G1 Z11.9000 F8000.0
G1 X84.6765 Y-269.6321 F12000.0
G1 X84.4257 Y-269.5485
G1 Z0.0000 F8000.0
G0 X85.7216 Y-267.1239 F15000.0
G1 Z11.9000 F8000.0
G1 X85.6380 Y-266.8732 F12000.0
G1 Z0.0000 F8000.0
G0 X85.5125 Y-266.5388 F15000.0
G1 Z11.9000 F8000.0
G1 X85.4289 Y-266.2879 F12000.0
G1 Z0.0000 F8000.0
G0 X85.3036 Y-265.9535 F15000.0
G1 Z11.9000 F8000.0
G1 X85.2617 Y-265.8281 F12000.0
G1 Z0.0000 F8000.0
G0 X85.1363 Y-265.4937 F15000.0
G1 Z11.9000 F8000.0
G1 X84.8019 Y-264.6995 F12000.0
G1 Z0.0000 F8000.0
G0 X84.6347 Y-264.4069 F15000.0
G1 Z11.9000 F8000.0
G1 X84.4257 Y-264.1978 F12000.0
G1 Z0.0000 F8000.0
G0 X84.1749 Y-263.9888 F15000.0
G1 Z11.9000 F8000.0
G1 X82.8790 Y-263.6544 F12000.0
G1 X82.2938 Y-263.8635
G1 Z0.0000 F8000.0
G0 X84.0913 Y-269.3813 F15000.0
G1 Z11.9000 F8000.0
G1 X83.6315 Y-268.9632 F12000.0
G1 Z0.0000 F8000.0
G0 X83.4225 Y-268.5870 F15000.0
G1 Z11.9000 F8000.0
G1 X83.1717 Y-267.9182 F12000.0
G1 Z0.0000 F8000.0
G0 X83.0462 Y-267.5838 F15000.0
G1 Z11.9000 F8000.0
G1 X83.0045 Y-267.4584 F12000.0
G1 Z0.0000 F8000.0
G0 X82.8790 Y-267.1239 F15000.0
G1 Z11.9000 F8000.0
G1 X82.7955 Y-266.8732 F12000.0
G1 Z0.0000 F8000.0
G0 X82.6700 Y-266.5388 F15000.0
G1 Z11.9000 F8000.0
G1 X82.5864 Y-266.2879 F12000.0
G1 Z0.0000 F8000.0
G0 X82.4610 Y-265.9535 F15000.0
G1 Z11.9000 F8000.0
G1 X82.4192 Y-265.8281 F12000.0
G1 Z0.0000 F8000.0
G0 X82.2938 Y-265.4937 F15000.0
G1 Z11.9000 F8000.0
G1 X82.0848 Y-264.8667 F12000.0
G1 X82.0430 Y-264.2397
G1 X82.1266 Y-264.0306
G1 Z0.0000 F8000.0
G0 X82.0963 Y-269.4649 F15000.0
G1 Z11.9000 F8000.0
G1 X82.2634 Y-269.2558 F12000.0
G1 X82.3470 Y-268.9215
G1 X80.9257 Y-264.7831
G1 X80.6750 Y-264.4069
G1 Z0.0000 F8000.0
G0 X81.8872 Y-269.5902 F15000.0
G1 Z11.9000 F8000.0
G1 X80.4242 Y-269.5902 F12000.0
G1 Z0.0000 F8000.0
G0 X80.2987 Y-264.0306 F15000.0
G1 Z11.9000 F8000.0
G1 X78.2923 Y-263.6126 F12000.0
G1 Z0.0000 F8000.0
G0 X77.9679 Y-269.6738 F15000.0
G1 Z11.9000 F8000.0
G1 X77.5081 Y-268.4616 F12000.0
G1 Z0.0000 F8000.0
G0 X77.2573 Y-267.7928 F15000.0
G1 Z11.9000 F8000.0
G1 X75.8361 Y-263.6962 F12000.0
G1 X74.4148 Y-263.6126
G1 Z0.0000 F8000.0
G0 X77.0483 Y-263.6962 F15000.0
G1 Z11.9000 F8000.0
G1 X75.8779 Y-263.6544 F12000.0
G1 Z0.0000 F8000.0
G0 X153.3169 Y-249.2485 F15000.0
G1 Z11.9000 F8000.0
G1 X153.4423 Y-249.6665 F12000.0
G1 X153.2751 Y-249.8755
G1 X152.4391 Y-250.0009
G1 Z0.0000 F8000.0
G0 X153.1497 Y-248.7887 F15000.0
G1 Z11.9000 F8000.0
G1 X153.1079 Y-248.6632 F12000.0
G1 Z0.0000 F8000.0
G0 X152.9825 Y-248.3289 F15000.0
G1 Z11.9000 F8000.0
G1 X152.5644 Y-247.3674 F12000.0
G1 Z0.0000 F8000.0
G0 X152.2301 Y-247.0748 F15000.0
G1 Z11.9000 F8000.0
G1 X151.3523 Y-247.0330 F12000.0
G1 Z0.0000 F8000.0
G0 X152.1854 Y-250.8432 F15000.0
G1 Z11.9000 F8000.0
G1 X150.9314 Y-250.2998 F12000.0
G1 X149.8864 Y-247.8754
G1 Z0.0000 F8000.0
G0 X151.0568 Y-247.8754 F15000.0
G1 Z11.9000 F8000.0
G1 X151.7675 Y-249.6311 F12000.0
G1 X151.7675 Y-249.7983
G1 X150.8896 Y-249.9654
G1 Z0.0000 F8000.0
G0 X149.3944 Y-247.9316 F15000.0
G1 Z11.9000 F8000.0
G1 X148.9345 Y-247.8897 F12000.0
G1 X148.4330 Y-248.1824
G1 X149.1018 Y-249.8544
G1 X150.0215 Y-249.9380
G1 X150.1050 Y-249.6872
G1 X149.1854 Y-247.2209
G1 Z0.0000 F8000.0
G0 X148.8509 Y-247.0119 F15000.0
G1 Z11.9000 F8000.0
G1 X148.6420 Y-247.0537 F12000.0
G1 Z0.0000 F8000.0
G0 X148.8092 Y-247.5971 F15000.0
G1 Z11.9000 F8000.0
G1 X148.5583 Y-247.2209 F12000.0
G1 Z0.0000 F8000.0
G0 X148.3198 Y-249.9338 F15000.0
G1 Z11.9000 F8000.0
G1 X148.4033 Y-249.6830 F12000.0
G1 X147.8182 Y-248.1364
G1 X147.4420 Y-247.9274
G1 X146.7313 Y-248.0945
G1 X148.2362 Y-249.9757
G1 Z0.0000 F8000.0
G0 X147.2158 Y-250.8910 F15000.0
G1 Z11.9000 F8000.0
G1 X146.7978 Y-250.0131 F12000.0
G1 X145.7528 Y-249.8877
G1 Z0.0000 F8000.0
G0 X146.7560 Y-249.7623 F15000.0
G1 Z11.9000 F8000.0
G1 X146.7560 Y-249.9295 F12000.0
G1 Z0.0000 F8000.0
G0 X146.6306 Y-249.4279 F15000.0
G1 Z11.9000 F8000.0
G1 X146.0872 Y-247.9649 F12000.0
G1 X145.1675 Y-247.9230
G1 Z0.0000 F8000.0
G0 X145.5020 Y-249.5115 F15000.0
G1 Z11.9000 F8000.0
G1 X145.2094 Y-248.6755 F12000.0
G1 Z0.0000 F8000.0
G0 X145.0839 Y-248.0066 F15000.0
G1 Z11.9000 F8000.0
G1 X145.0422 Y-248.2157 F12000.0
G1 Z0.0000 F8000.0
G0 X144.9133 Y-249.9338 F15000.0
G1 Z11.9000 F8000.0
G1 X144.9969 Y-249.6830 F12000.0
G1 X144.4117 Y-248.1364
G1 X144.0354 Y-247.9274
G1 X143.3248 Y-248.0945
G1 X144.8296 Y-249.9757
G1 Z0.0000 F8000.0
G0 X142.5814 Y-247.9316 F15000.0
G1 Z11.9000 F8000.0
G1 X142.1216 Y-247.8897 F12000.0
G1 X141.6200 Y-248.1824
G1 X142.2888 Y-249.8544
G1 X143.2084 Y-249.9380
G1 X143.2920 Y-249.6872
G1 X142.3724 Y-247.2209
G1 Z0.0000 F8000.0
G0 X142.0380 Y-247.0119 F15000.0
G1 Z11.9000 F8000.0
G1 X141.8290 Y-247.0537 F12000.0
G1 Z0.0000 F8000.0
G0 X141.9961 Y-247.5971 F15000.0
G1 Z11.9000 F8000.0
G1 X141.7454 Y-247.2209 F12000.0
G1 Z0.0000 F8000.0
G0 X153.6889 Y-254.7017 F15000.0
G1 Z11.9000 F8000.0
G1 X152.8110 Y-252.2771 F12000.0
G1 Z0.0000 F8000.0
G0 X152.6856 Y-251.9845 F15000.0
G1 Z11.9000 F8000.0
G1 X152.6438 Y-251.8592 F12000.0
G1 X151.2643 Y-251.6083
G1 X151.3479 Y-252.0681
G1 Z0.0000 F8000.0
G0 X152.1004 Y-254.1583 F15000.0
G1 Z11.9000 F8000.0
G1 X152.0585 Y-254.0328 F12000.0
G1 Z0.0000 F8000.0
G0 X151.5151 Y-252.5279 F15000.0
G1 Z11.9000 F8000.0
G1 X151.4734 Y-252.4026 F12000.0
G1 Z0.0000 F8000.0
G0 X151.9300 Y-255.4414 F15000.0
G1 Z11.9000 F8000.0
G1 X150.6760 Y-254.8980 F12000.0
G1 X149.6309 Y-252.4735
G1 Z0.0000 F8000.0
G0 X150.8013 Y-252.4735 F15000.0
G1 Z11.9000 F8000.0
G1 X151.5119 Y-254.2292 F12000.0
G1 X151.5119 Y-254.3964
G1 X150.6341 Y-254.5636
G1 Z0.0000 F8000.0
G0 X149.8457 Y-254.3952 F15000.0
G1 Z11.9000 F8000.0
G1 X149.3859 Y-254.5624 F12000.0
G1 X148.9261 Y-254.3534
G1 X148.7589 Y-253.9353
G1 X148.7170 Y-253.5592
G1 X148.3409 Y-252.6813
G1 X148.5081 Y-252.5559
G1 X149.2605 Y-252.7649
G1 Z0.0000 F8000.0
G0 X149.2605 Y-253.5174 F15000.0
G1 Z11.9000 F8000.0
G1 X148.7589 Y-253.5174 F12000.0
G1 Z0.0000 F8000.0
G0 X148.1494 Y-254.5278 F15000.0
G1 Z11.9000 F8000.0
G1 X148.2330 Y-254.2770 F12000.0
G1 X147.6479 Y-252.7303
G1 X146.5192 Y-252.5213
G1 X147.0626 Y-254.3606
G1 X147.4806 Y-254.5278
G1 X148.0658 Y-254.5696
G1 Z0.0000 F8000.0
G0 X146.7067 Y-254.6903 F15000.0
G1 Z11.9000 F8000.0
G1 X145.7453 Y-252.4748 F12000.0
G1 Z0.0000 F8000.0
G0 X146.0797 Y-253.5198 F15000.0
G1 Z11.9000 F8000.0
G1 X145.2855 Y-253.5198 F12000.0
G1 X145.0765 Y-253.3526
G1 X144.7421 Y-252.7256
G1 Z0.0000 F8000.0
G0 X145.5780 Y-254.6903 F15000.0
G1 Z11.9000 F8000.0
G1 X145.2437 Y-253.5616 F12000.0
G1 Z0.0000 F8000.0
G0 X144.7429 Y-254.5320 F15000.0
G1 Z11.9000 F8000.0
G1 X144.8266 Y-254.2812 F12000.0
G1 X144.2413 Y-252.7346
G1 X143.8651 Y-252.5255
G1 X143.1545 Y-252.6927
G1 X144.6593 Y-254.5738
G1 Z0.0000 F8000.0
G0 X142.4111 Y-252.5297 F15000.0
G1 Z11.9000 F8000.0
G1 X141.9513 Y-252.4879 F12000.0
G1 X141.4496 Y-252.7805
G1 X142.1185 Y-254.4525
G1 X143.0381 Y-254.5362
G1 X143.1217 Y-254.2854
G1 X142.2021 Y-251.8191
G1 Z0.0000 F8000.0
G0 X141.8677 Y-251.6100 F15000.0
G1 Z11.9000 F8000.0
G1 X141.6586 Y-251.6519 F12000.0
G1 Z0.0000 F8000.0
G0 X141.8258 Y-252.1953 F15000.0
G1 Z11.9000 F8000.0
G1 X141.5750 Y-251.8191 F12000.0
G1 Z0.0000 F8000.0
G0 X141.3365 Y-254.5278 F15000.0
G1 Z11.9000 F8000.0
G1 X141.4201 Y-254.2770 F12000.0
G1 X140.8348 Y-252.7303
G1 X139.7063 Y-252.5213
G1 X140.2497 Y-254.3606
G1 X140.6676 Y-254.5278
G1 X141.2529 Y-254.5696
G1 Z0.0000 F8000.0
G0 X34.2408 Y-269.5485 F15000.0
G1 Z11.9000 F8000.0
G1 X32.3179 Y-264.4069 F12000.0
G1 X32.1507 Y-263.6962
G1 X33.4884 Y-263.7799
G1 Z0.0000 F8000.0
G0 X31.9021 Y-269.6738 F15000.0
G1 Z11.9000 F8000.0
G1 X31.4423 Y-268.4616 F12000.0
G1 Z0.0000 F8000.0
G0 X31.1915 Y-267.7928 F15000.0
G1 Z11.9000 F8000.0
G1 X29.7702 Y-263.6962 F12000.0
G1 X28.3490 Y-263.6126
G1 Z0.0000 F8000.0
G0 X30.9825 Y-263.6962 F15000.0
G1 Z11.9000 F8000.0
G1 X29.8120 Y-263.6544 F12000.0
G1 Z0.0000 F8000.0
G0 X28.7690 Y-267.6651 F15000.0
G1 Z11.9000 F8000.0
G1 X26.1355 Y-267.5397 F12000.0
G1 Z0.0000 F8000.0
G0 X25.8417 Y-269.6738 F15000.0
G1 Z11.9000 F8000.0
G1 X24.2532 Y-269.5485 F12000.0
G1 X23.8352 Y-269.3394
G1 Z0.0000 F8000.0
G0 X22.9156 Y-267.7928 F15000.0
G1 Z11.9000 F8000.0
G1 X22.9156 Y-266.7477 F12000.0
G1 X23.2500 Y-266.4969
G1 X24.6294 Y-266.3715
G1 X21.4943 Y-263.6126
G1 Z0.0000 F8000.0
G0 X23.6262 Y-269.1722 F15000.0
G1 Z11.9000 F8000.0
G1 X23.4590 Y-269.0051 F12000.0
G1 Z0.0000 F8000.0
G0 X23.3336 Y-268.7542 F15000.0
G1 Z11.9000 F8000.0
G1 X23.0828 Y-268.2108 F12000.0
G1 Z0.0000 F8000.0
G0 X21.0881 Y-269.5462 F15000.0
G1 Z11.9000 F8000.0
G1 X20.2938 Y-267.4143 F12000.0
G1 Z0.0000 F8000.0
G0 X20.8373 Y-265.0316 F15000.0
G1 Z11.9000 F8000.0
G1 X19.7504 Y-264.2791 F12000.0
G1 X19.2488 Y-264.1119
G1 X18.8726 Y-263.6521
G1 Z0.0000 F8000.0
G0 X20.1685 Y-267.0798 F15000.0
G1 Z11.9000 F8000.0
G1 X20.1266 Y-266.9545 F12000.0
G1 Z0.0000 F8000.0
G0 X20.0013 Y-266.6200 F15000.0
G1 Z11.9000 F8000.0
G1 X19.5832 Y-265.4496 F12000.0
G1 Z0.0000 F8000.0
G0 X19.4579 Y-265.1152 F15000.0
G1 Z11.9000 F8000.0
G1 X19.4160 Y-264.9897 F12000.0
G1 Z0.0000 F8000.0
G0 X19.2906 Y-264.6554 F15000.0
G1 Z11.9000 F8000.0
G1 X19.1234 Y-264.0284 F12000.0
G1 Z0.0000 F8000.0
G0 X19.0469 Y-269.6738 F15000.0
G1 Z11.9000 F8000.0
G1 X18.5871 Y-269.4649 F12000.0
G1 Z0.0000 F8000.0
G0 X17.7928 Y-264.2397 F15000.0
G1 Z11.9000 F8000.0
G1 X18.1272 Y-264.7413 F12000.0
G1 X18.5452 Y-265.7863
G1 X18.5452 Y-266.4969
G1 X16.3297 Y-266.9149
G1 X16.7059 Y-267.8764
G1 X17.8764 Y-269.0887
G1 X18.3362 Y-269.3394
G1 Z0.0000 F8000.0
G0 X17.5420 Y-263.9888 F15000.0
G1 Z11.9000 F8000.0
G1 X16.2043 Y-263.6544 F12000.0
G1 X15.7027 Y-263.7799
G1 Z0.0000 F8000.0
G0 X16.0371 Y-266.6224 F15000.0
G1 Z11.9000 F8000.0
G1 X15.9953 Y-266.4969 F12000.0
G1 Z0.0000 F8000.0
G0 X15.4519 Y-264.0306 F15000.0
G1 Z11.9000 F8000.0
G1 X15.3683 Y-264.7831 F12000.0
G1 X15.4519 Y-265.0339
G1 Z0.0000 F8000.0
G0 X15.4837 Y-267.6651 F15000.0
G1 Z11.9000 F8000.0
G1 X12.8503 Y-267.5397 F12000.0
G1 Z0.0000 F8000.0
G0 X12.5564 Y-269.6738 F15000.0
G1 Z11.9000 F8000.0
G1 X10.9680 Y-269.5485 F12000.0
G1 X10.5500 Y-269.3394
G1 Z0.0000 F8000.0
G0 X10.4245 Y-266.4551 F15000.0
G1 Z11.9000 F8000.0
G1 X9.8811 Y-266.4551 F12000.0
G1 X9.5467 Y-266.9149
G1 X9.5467 Y-267.4584
G1 X10.0483 Y-268.7542
G1 Z0.0000 F8000.0
G0 X10.3828 Y-263.6962 F15000.0
G1 Z11.9000 F8000.0
G1 X9.2960 Y-263.6962 F12000.0
G1 X9.0869 Y-263.7799
G1 Z0.0000 F8000.0
G0 X10.3409 Y-269.1722 F15000.0
G1 Z11.9000 F8000.0
G1 X10.1738 Y-269.0051 F12000.0
G1 Z0.0000 F8000.0
G0 X9.6721 Y-266.1626 F15000.0
G1 Z11.9000 F8000.0
G1 X9.2541 Y-265.7863 F12000.0
G1 Z0.0000 F8000.0
G0 X9.0451 Y-265.3683 F15000.0
G1 Z11.9000 F8000.0
G1 X8.7525 Y-264.3650 F12000.0
G1 X8.8779 Y-263.9888
G1 Z0.0000 F8000.0
G0 X5.4152 Y-259.1276 F15000.0
G1 Z11.9000 F8000.0
G1 X5.2480 Y-258.8351 F12000.0
G1 X4.4538 Y-256.6196
G1 Z0.0000 F8000.0
G0 X5.0808 Y-256.7449 F15000.0
G1 Z11.9000 F8000.0
G1 X4.8718 Y-256.6196 F12000.0
G1 Z0.0000 F8000.0

G0 Z0.0000 F800.0
G4 P0.06
G0 X0.0000 Y0.0000 F15000.0
M5
G4 P0.10
$1=0
