$X
$1=255
G21
G90
G92 Z4.0000
G0 Z0.0000 F800.0
G4 P0.06
G92 Z0.0000
G0 Z0.0000 F800.0
G4 P0.06
G92 Z0.0000
G0 X0.0000 Y0.0000 F15000.0
G21
G90
G17
G91.1
G0 Z0.0000
G0 X116.6217 Y-190.5802 F15000.0
G1 Z11.9000 F2500.0
G4 P0.02
G1 X116.6217 Y-205.1308 F12000.0
G1 Z0.0000 F2500.0
G4 P0.02
G0 X116.6217 Y-190.5802 F15000.0
G1 Z11.9000 F2500.0
G4 P0.02
G1 X116.7664 Y-190.0011 F12000.0
G1 X117.2008 Y-189.5667 F12000.0
G1 X117.7075 Y-189.3496 F12000.0
G1 Z0.0000 F2500.0
G4 P0.02
G0 X116.6217 Y-205.1308 F15000.0
G1 Z11.9000 F2500.0
G4 P0.02
G1 X116.7664 Y-205.7099 F12000.0
G1 X117.2008 Y-206.1442 F12000.0
G1 X117.7075 Y-206.3614 F12000.0
G1 Z0.0000 F2500.0
G4 P0.02
G0 X151.2969 Y-206.4338 F15000.0
G1 Z11.9000 F2500.0
G4 P0.02
G1 X117.9247 Y-206.4338 F12000.0
G1 Z0.0000 F2500.0
G4 P0.02
G0 X151.2969 Y-206.4338 F15000.0
G1 Z11.9000 F2500.0
G4 P0.02
G1 X151.8760 Y-206.2890 F12000.0
G1 X152.3103 Y-205.8547 F12000.0
G1 X152.5275 Y-205.2755 F12000.0
G1 Z0.0000 F2500.0
G4 P0.02
G0 X117.9247 Y-189.2772 F15000.0
G1 Z11.9000 F2500.0
G4 P0.02
G1 X151.2969 Y-189.2772 F12000.0
G1 X151.8760 Y-189.4219 F12000.0
G1 X152.3103 Y-189.8563 F12000.0
G1 X152.5275 Y-190.4354 F12000.0
G1 X152.5275 Y-190.7974 F12000.0
G1 Z0.0000 F2500.0
G4 P0.02
G0 X152.5275 Y-204.6964 F15000.0
G1 Z11.9000 F2500.0
G4 P0.02
G1 X152.5275 Y-205.1308 F12000.0
G1 Z0.0000 F2500.0
G4 P0.02
G0 X152.5275 Y-204.6964 F15000.0
G1 Z11.9000 F2500.0
G4 P0.02
G1 X152.6722 Y-204.1173 F12000.0
G1 X153.1066 Y-203.6830 F12000.0
G1 X153.6133 Y-203.3934 F12000.0
G1 Z0.0000 F2500.0
G4 P0.02
G0 X153.8305 Y-203.3934 F15000.0
G1 Z11.9000 F2500.0
G4 P0.02
G1 X179.8912 Y-203.3934 F12000.0
G1 Z0.0000 F2500.0
G4 P0.02
G0 X153.7581 Y-192.3176 F15000.0
G1 Z11.9000 F2500.0
G4 P0.02
G1 X179.8912 Y-192.3176 F12000.0
G1 Z0.0000 F2500.0
G4 P0.02
G0 X153.7581 Y-192.3176 F15000.0
G1 Z11.9000 F2500.0
G4 P0.02
G1 X153.1790 Y-192.1728 F12000.0
G1 X152.7447 Y-191.7385 F12000.0
G1 X152.5275 Y-191.2317 F12000.0
G1 X152.5275 Y-190.7974 F12000.0
G1 Z0.0000 F2500.0
G4 P0.02
G0 X179.8912 Y-192.3176 F15000.0
G1 Z11.9000 F2500.0
G4 P0.02
G1 X179.8912 Y-203.3934 F12000.0
G1 X179.8912 Y-207.6644 F12000.0
G1 Z0.0000 F2500.0
G4 P0.02
G0 X179.8912 Y-192.3176 F15000.0
G1 Z11.9000 F2500.0
G4 P0.02
G1 X179.8912 Y-188.0465 F12000.0
G1 X156.7985 Y-188.0465 F12000.0
G1 X156.2918 Y-184.8613 F12000.0
G1 Z0.0000 F2500.0
G4 P0.02
G0 X179.8912 Y-207.6644 F15000.0
G1 Z11.9000 F2500.0
G4 P0.02
G1 X158.1016 Y-207.6644 F12000.0
G1 X157.5225 Y-207.8093 F12000.0
G1 X157.0881 Y-208.2435 F12000.0
G1 X156.8709 Y-208.8227 F12000.0
G1 Z0.0000 F2500.0
G4 P0.02
G0 X155.4231 Y-184.2098 F15000.0
G1 Z11.9000 F2500.0
G4 P0.02
G1 X115.7530 Y-184.2098 F12000.0
G1 X114.8119 Y-184.3546 F12000.0
G1 X113.8707 Y-184.7165 F12000.0
G1 X113.1469 Y-185.3680 F12000.0
G1 X112.6401 Y-186.2367 F12000.0
G1 X112.3505 Y-187.1778 F12000.0
G1 X112.3505 Y-187.6122 F12000.0
G1 Z0.0000 F2500.0
G4 P0.02
G0 X155.4231 Y-184.2098 F15000.0
G1 Z11.9000 F2500.0
G4 P0.02
G1 X155.9298 Y-184.3546 F12000.0
G1 X156.2194 Y-184.7165 F12000.0
G1 Z0.0000 F2500.0
G4 P0.02
G0 X156.7985 Y-208.9675 F15000.0
G1 Z11.9000 F2500.0
G4 P0.02
G1 X156.7985 Y-245.3076 F12000.0
G1 X156.9434 Y-245.8868 F12000.0
G1 X157.3777 Y-246.3212 F12000.0
G1 X157.9568 Y-246.6107 F12000.0
G1 Z0.0000 F2500.0
G4 P0.02
G0 X158.1016 Y-246.6107 F15000.0
G1 Z11.9000 F2500.0
G4 P0.02
G1 X158.1016 Y-249.1444 F12000.0
G1 Z0.0000 F2500.0
G4 P0.02
G0 X129.8692 Y-236.3312 F15000.0
G1 Z11.9000 F2500.0
G4 P0.02
G1 X152.5275 Y-236.3312 F12000.0
G1 X152.5275 Y-211.5735 F12000.0
G1 Z0.0000 F2500.0
G4 P0.02
G0 X129.4348 Y-236.3312 F15000.0
G1 Z11.9000 F2500.0
G4 P0.02
G1 X116.6217 Y-236.3312 F12000.0
G1 Z0.0000 F2500.0
G4 P0.02
G0 X151.6588 Y-210.7048 F15000.0
G1 Z11.9000 F2500.0
G4 P0.02
G1 X149.9938 Y-210.7048 F12000.0
G1 X149.4871 Y-210.8496 F12000.0
G1 X149.1975 Y-211.2116 F12000.0
G1 X149.1251 Y-211.5735 F12000.0
G1 Z0.0000 F2500.0
G4 P0.02
G0 X151.6588 Y-210.7048 F15000.0
G1 Z11.9000 F2500.0
G4 P0.02
G1 X152.1656 Y-210.8496 F12000.0
G1 X152.4551 Y-211.2116 F12000.0
G1 X152.5275 Y-211.5735 F12000.0
G1 Z0.0000 F2500.0
G4 P0.02
G0 X149.1251 Y-211.5735 F15000.0
G1 Z11.9000 F2500.0
G4 P0.02
G1 X148.9803 Y-212.0079 F12000.0
G1 X148.6184 Y-212.2975 F12000.0
G1 X148.2564 Y-212.3698 F12000.0
G1 X146.5914 Y-212.3698 F12000.0
G1 Z0.0000 F2500.0
G4 P0.02
G0 X145.2884 Y-211.1392 F15000.0
G1 Z11.9000 F2500.0
G4 P0.02
G1 X145.2884 Y-206.4338 F12000.0
G1 Z0.0000 F2500.0
G4 P0.02
G0 X112.3505 Y-207.6644 F15000.0
G1 Z11.9000 F2500.0
G4 P0.02
G1 X112.3505 Y-214.1072 F12000.0
G1 Z0.0000 F2500.0
G4 P0.02
G0 X112.3505 Y-234.5938 F15000.0
G1 Z11.9000 F2500.0
G4 P0.02
G1 X112.3505 Y-245.3076 F12000.0
G1 X112.2058 Y-245.8868 F12000.0
G1 X111.8439 Y-246.3212 F12000.0
G1 X111.2647 Y-246.6107 F12000.0
G1 Z0.0000 F2500.0
G4 P0.02
G0 X116.6217 Y-236.3312 F15000.0
G1 Z11.9000 F2500.0
G4 P0.02
G1 X116.6217 Y-230.3228 F12000.0
G1 X116.4768 Y-229.8884 F12000.0
G1 X116.1149 Y-229.5264 F12000.0
G1 X115.7530 Y-229.5264 F12000.0
G1 Z0.0000 F2500.0
G4 P0.02
G0 X116.6217 Y-218.3783 F15000.0
G1 Z11.9000 F2500.0
G4 P0.02
G1 X116.6217 Y-211.5735 F12000.0
G1 X116.7664 Y-211.0668 F12000.0
G1 X117.1283 Y-210.7773 F12000.0
G1 X117.4903 Y-210.7048 F12000.0
G1 X119.2277 Y-210.7048 F12000.0
G1 X119.6621 Y-210.8496 F12000.0
G1 X120.0240 Y-211.2116 F12000.0
G1 X120.0240 Y-211.5735 F12000.0
G1 Z0.0000 F2500.0
G4 P0.02
G0 X120.8927 Y-212.3698 F15000.0
G1 Z11.9000 F2500.0
G4 P0.02
G1 X122.6301 Y-212.3698 F12000.0
G1 Z0.0000 F2500.0
G4 P0.02
G0 X123.9331 Y-211.1392 F15000.0
G1 Z11.9000 F2500.0
G4 P0.02
G1 X123.9331 Y-206.4338 F12000.0
G1 Z0.0000 F2500.0
G4 P0.02
G0 X120.0240 Y-211.5735 F15000.0
G1 Z11.9000 F2500.0
G4 P0.02
G1 X120.1688 Y-212.0079 F12000.0
G1 X120.6031 Y-212.2975 F12000.0
G1 X120.8927 Y-212.3698 F12000.0
G1 Z0.0000 F2500.0
G4 P0.02
G0 X112.3505 Y-207.6644 F15000.0
G1 Z11.9000 F2500.0
G4 P0.02
G1 X112.3505 Y-187.6122 F12000.0
G1 Z0.0000 F2500.0
G4 P0.02
G0 X158.1016 Y-249.1444 F15000.0
G1 Z11.9000 F2500.0
G4 P0.02
G1 X152.0931 Y-249.1444 F12000.0
G1 Z0.0000 F2500.0
G4 P0.02
G0 X111.0475 Y-249.1444 F15000.0
G1 Z11.9000 F2500.0
G4 P0.02
G1 X117.0560 Y-249.1444 F12000.0
G1 Z0.0000 F2500.0
G4 P0.02
G0 X129.4348 Y-236.3312 F15000.0
G1 Z11.9000 F2500.0
G4 P0.02
G1 X129.8692 Y-236.3312 F12000.0
G1 Z0.0000 F2500.0
G4 P0.02
G0 X179.8912 Y-206.4338 F15000.0
G1 Z11.9000 F2500.0
G4 P0.02
G1 X167.9467 Y-206.4338 F12000.0
G1 X167.9467 Y-207.6644 F12000.0
G1 Z0.0000 F2500.0
G4 P0.02
G0 X179.8912 Y-189.2772 F15000.0
G1 Z11.9000 F2500.0
G4 P0.02
G1 X167.9467 Y-189.2772 F12000.0
G1 X167.9467 Y-188.0465 F12000.0
G1 Z0.0000 F2500.0
G4 P0.02
G0 X152.5275 Y-236.3312 F15000.0
G1 Z11.9000 F2500.0
G4 P0.02
G1 X153.3962 Y-236.3312 F12000.0
G1 Z0.0000 F2500.0
G4 P0.02
G0 X152.5275 Y-236.3312 F15000.0
G1 Z11.9000 F2500.0
G4 P0.02
G1 X152.5275 Y-249.1444 F12000.0
G1 Z0.0000 F2500.0
G4 P0.02
G0 X116.6217 Y-236.3312 F15000.0
G1 Z11.9000 F2500.0
G4 P0.02
G1 X115.7530 Y-236.3312 F12000.0
G1 Z0.0000 F2500.0
G4 P0.02
G0 X116.6217 Y-236.3312 F15000.0
G1 Z11.9000 F2500.0
G4 P0.02
G1 X116.6217 Y-249.1444 F12000.0
G1 Z0.0000 F2500.0
G4 P0.02
G0 X153.3962 Y-249.1444 F15000.0
G1 Z11.9000 F2500.0
G4 P0.02
G1 X153.3962 Y-236.3312 F12000.0
G1 Z0.0000 F2500.0
G4 P0.02
G0 X115.7530 Y-236.3312 F15000.0
G1 Z11.9000 F2500.0
G4 P0.02
G1 X115.7530 Y-249.1444 F12000.0
G1 Z0.0000 F2500.0
G4 P0.02
G0 X122.6301 Y-212.3698 F15000.0
G1 Z11.9000 F2500.0
G4 P0.02
G1 X123.9331 Y-211.1392 F12000.0
G1 Z0.0000 F2500.0
G4 P0.02
G0 X111.4818 Y-214.9759 F15000.0
G1 Z11.9000 F2500.0
G4 P0.02
G1 X86.7242 Y-214.9759 F12000.0
G1 Z0.0000 F2500.0
G4 P0.02
G0 X111.4818 Y-214.9759 F15000.0
G1 Z11.9000 F2500.0
G4 P0.02
G1 X111.9886 Y-214.8311 F12000.0
G1 X112.2782 Y-214.4692 F12000.0
G1 X112.3505 Y-214.1072 F12000.0
G1 Z0.0000 F2500.0
G4 P0.02
G0 X111.4818 Y-233.7976 F15000.0
G1 Z11.9000 F2500.0
G4 P0.02
G1 X111.9886 Y-233.9423 F12000.0
G1 X112.2782 Y-234.3042 F12000.0
G1 X112.3505 Y-234.5938 F12000.0
G1 Z0.0000 F2500.0
G4 P0.02
G0 X115.7530 Y-219.2470 F15000.0
G1 Z11.9000 F2500.0
G4 P0.02
G1 X86.7242 Y-219.2470 F12000.0
G1 Z0.0000 F2500.0
G4 P0.02
G0 X115.7530 Y-219.2470 F15000.0
G1 Z11.9000 F2500.0
G4 P0.02
G1 X116.2596 Y-219.1021 F12000.0
G1 X116.5492 Y-218.7402 F12000.0
G1 X116.6217 Y-218.3783 F12000.0
G1 Z0.0000 F2500.0
G4 P0.02
G0 X115.7530 Y-229.5264 F15000.0
G1 Z11.9000 F2500.0
G4 P0.02
G1 X86.7242 Y-229.5264 F12000.0
G1 Z0.0000 F2500.0
G4 P0.02
G0 X86.7242 Y-233.7976 F15000.0
G1 Z11.9000 F2500.0
G4 P0.02
G1 X111.4818 Y-233.7976 F12000.0
G1 Z0.0000 F2500.0
G4 P0.02
G0 X86.7242 Y-233.7976 F15000.0
G1 Z11.9000 F2500.0
G4 P0.02
G1 X86.7242 Y-214.9759 F12000.0
G1 Z0.0000 F2500.0
G4 P0.02
G0 X99.5374 Y-233.7976 F15000.0
G1 Z11.9000 F2500.0
G4 P0.02
G1 X99.5374 Y-232.4945 F12000.0
G1 Z0.0000 F2500.0
G4 P0.02
G0 X99.5374 Y-214.9759 F15000.0
G1 Z11.9000 F2500.0
G4 P0.02
G1 X99.5374 Y-216.2066 F12000.0
G1 Z0.0000 F2500.0
G4 P0.02
G0 X99.5374 Y-232.4945 F15000.0
G1 Z11.9000 F2500.0
G4 P0.02
G1 X86.7242 Y-232.4945 F12000.0
G1 Z0.0000 F2500.0
G4 P0.02
G0 X99.5374 Y-216.2066 F15000.0
G1 Z11.9000 F2500.0
G4 P0.02
G1 X86.7242 Y-216.2066 F12000.0
G1 Z0.0000 F2500.0
G4 P0.02
G0 X180.0000 Y-197.8916 F15000.0
G1 Z11.9000 F2500.0
G4 P0.02
G1 X176.4165 Y-197.8916 F12000.0
G1 Z0.0000 F2500.0
G4 P0.02
G0 X175.1134 Y-197.8916 F15000.0
G1 Z11.9000 F2500.0
G4 P0.02
G1 X173.8104 Y-197.8916 F12000.0
G1 Z0.0000 F2500.0
G4 P0.02
G0 X171.3075 Y-197.5413 F15000.0
G1 Z11.9000 F2500.0
G4 P0.02
G1 X165.2267 Y-197.5413 F12000.0
G1 Z0.0000 F2500.0
G4 P0.02
G0 X163.9237 Y-197.5413 F15000.0
G1 Z11.9000 F2500.0
G4 P0.02
G1 X162.6930 Y-197.5413 F12000.0
G1 Z0.0000 F2500.0
G4 P0.02
G0 X162.5898 Y-197.8916 F15000.0
G1 Z11.9000 F2500.0
G4 P0.02
G1 X156.5090 Y-197.8916 F12000.0
G1 Z0.0000 F2500.0
G4 P0.02
G0 X155.2060 Y-197.8916 F15000.0
G1 Z11.9000 F2500.0
G4 P0.02
G1 X153.9029 Y-197.8916 F12000.0
G1 Z0.0000 F2500.0
G4 P0.02
G0 X152.6722 Y-197.8916 F15000.0
G1 Z11.9000 F2500.0
G4 P0.02
G1 X146.5914 Y-197.8916 F12000.0
G1 Z0.0000 F2500.0
G4 P0.02
G0 X103.0845 Y-214.5415 F15000.0
G1 Z11.9000 F2500.0
G4 P0.02
G1 X112.3505 Y-187.6122 F12000.0
G1 Z0.0000 F2500.0
G4 P0.02
G0 X102.5054 Y-214.9759 F15000.0
G1 Z11.9000 F2500.0
G4 P0.02
G1 X102.9398 Y-214.8311 F12000.0
G1 X103.0845 Y-214.5415 F12000.0
G1 Z0.0000 F2500.0
G4 P0.02
G0 X111.0475 Y-246.6107 F15000.0
G1 Z11.9000 F2500.0
G4 P0.02
G1 X111.0475 Y-249.1444 F12000.0
G1 Z0.0000 F2500.0
G4 P0.02
G0 X117.0560 Y-249.1444 F15000.0
G1 Z11.9000 F2500.0
G4 P0.02
G1 X152.0931 Y-249.1444 F12000.0
G1 Z0.0000 F2500.0
G4 P0.02
G0 X145.2884 Y-211.1392 F15000.0
G1 Z11.9000 F2500.0
G4 P0.02
G1 X146.5914 Y-212.3698 F12000.0
G1 Z0.0000 F2500.0
G4 P0.02
G0 X122.6301 Y-212.3698 F15000.0
G1 Z11.9000 F2500.0
G4 P0.02
G1 X146.5914 Y-212.3698 F12000.0
G1 Z0.0000 F2500.0
G4 P0.02
G0 X145.2884 Y-211.1392 F15000.0
G1 Z11.9000 F2500.0
G4 P0.02
G1 X123.9331 Y-211.1392 F12000.0
G1 Z0.0000 F2500.0
G4 P0.02
G0 X134.5746 Y-250.8818 F15000.0
G1 Z11.9000 F2500.0
G4 P0.02
G1 X134.5746 Y-242.3396 F12000.0
G1 Z0.0000 F2500.0
G4 P0.02
G0 X134.5746 Y-241.0366 F15000.0
G1 Z11.9000 F2500.0
G4 P0.02
G1 X134.5746 Y-239.5888 F12000.0
G1 Z0.0000 F2500.0
G4 P0.02
G0 X134.5746 Y-238.3581 F15000.0
G1 Z11.9000 F2500.0
G4 P0.02
G1 X134.5746 Y-229.7436 F12000.0
G1 Z0.0000 F2500.0
G4 P0.02
G0 X134.5746 Y-228.5130 F15000.0
G1 Z11.9000 F2500.0
G4 P0.02
G1 X134.5746 Y-227.0652 F12000.0
G1 Z0.0000 F2500.0
G4 P0.02
G0 X134.5746 Y-225.7622 F15000.0
G1 Z11.9000 F2500.0
G4 P0.02
G1 X134.5746 Y-217.2200 F12000.0
G1 Z0.0000 F2500.0
G4 P0.02
G0 X134.5746 Y-215.9170 F15000.0
G1 Z11.9000 F2500.0
G4 P0.02
G1 X134.5746 Y-214.5415 F12000.0
G1 Z0.0000 F2500.0
G4 P0.02
G0 X134.5746 Y-213.2385 F15000.0
G1 Z11.9000 F2500.0
G4 P0.02
G1 X134.5746 Y-204.6964 F12000.0
G1 Z0.0000 F2500.0
G4 P0.02
G0 X84.9869 Y-224.3867 F15000.0
G1 Z11.9000 F2500.0
G4 P0.02
G1 X94.1081 Y-224.3867 F12000.0
G1 Z0.0000 F2500.0
G4 P0.02
G0 X95.3387 Y-224.3867 F15000.0
G1 Z11.9000 F2500.0
G4 P0.02
G1 X96.7865 Y-224.3867 F12000.0
G1 Z0.0000 F2500.0
G4 P0.02
G0 X98.0896 Y-224.3867 F15000.0
G1 Z11.9000 F2500.0
G4 P0.02
G1 X107.2108 Y-224.3867 F12000.0
G1 Z0.0000 F2500.0
G4 P0.02
G0 X108.4414 Y-224.3867 F15000.0
G1 Z11.9000 F2500.0
G4 P0.02
G1 X109.8893 Y-224.3867 F12000.0
G1 Z0.0000 F2500.0
G4 P0.02
G0 X111.1923 Y-224.3867 F15000.0
G1 Z11.9000 F2500.0
G4 P0.02
G1 X120.2412 Y-224.3867 F12000.0
G1 Z0.0000 F2500.0
G4 P0.02
G0 X114.8119 Y-229.5264 F15000.0
G1 Z11.9000 F2500.0
G4 P0.02
G1 X116.6217 Y-231.3362 F12000.0
G1 Z0.0000 F2500.0
G4 P0.02
G0 X112.3505 Y-229.5264 F15000.0
G1 Z11.9000 F2500.0
G4 P0.02
G1 X116.6217 Y-233.7976 F12000.0
G1 Z0.0000 F2500.0
G4 P0.02
G0 X109.9616 Y-229.5264 F15000.0
G1 Z11.9000 F2500.0
G4 P0.02
G1 X116.6217 Y-236.1865 F12000.0
G1 Z0.0000 F2500.0
G4 P0.02
G0 X112.3505 Y-234.3042 F15000.0
G1 Z11.9000 F2500.0
G4 P0.02
G1 X116.6217 Y-238.5753 F12000.0
G1 Z0.0000 F2500.0
G4 P0.02
G0 X107.5004 Y-229.5264 F15000.0
G1 Z11.9000 F2500.0
G4 P0.02
G1 X111.7714 Y-233.7976 F12000.0
G1 Z0.0000 F2500.0
G4 P0.02
G0 X105.1115 Y-229.5264 F15000.0
G1 Z11.9000 F2500.0
G4 P0.02
G1 X109.3825 Y-233.7976 F12000.0
G1 Z0.0000 F2500.0
G4 P0.02
G0 X112.3505 Y-236.7656 F15000.0
G1 Z11.9000 F2500.0
G4 P0.02
G1 X115.7530 Y-240.1679 F12000.0
G1 Z0.0000 F2500.0
G4 P0.02
G0 X112.3505 Y-239.1545 F15000.0
G1 Z11.9000 F2500.0
G4 P0.02
G1 X115.7530 Y-242.5568 F12000.0
G1 Z0.0000 F2500.0
G4 P0.02
G0 X102.7226 Y-229.5264 F15000.0
G1 Z11.9000 F2500.0
G4 P0.02
G1 X106.9936 Y-233.7976 F12000.0
G1 Z0.0000 F2500.0
G4 P0.02
G0 X100.2613 Y-229.5264 F15000.0
G1 Z11.9000 F2500.0
G4 P0.02
G1 X104.5323 Y-233.7976 F12000.0
G1 Z0.0000 F2500.0
G4 P0.02
G0 X112.3505 Y-241.6157 F15000.0
G1 Z11.9000 F2500.0
G4 P0.02
G1 X115.7530 Y-245.0181 F12000.0
G1 Z0.0000 F2500.0
G4 P0.02
G0 X112.3505 Y-244.0046 F15000.0
G1 Z11.9000 F2500.0
G4 P0.02
G1 X115.7530 Y-247.4070 F12000.0
G1 Z0.0000 F2500.0
G4 P0.02
G0 X97.8724 Y-229.5264 F15000.0
G1 Z11.9000 F2500.0
G4 P0.02
G1 X102.1435 Y-233.7976 F12000.0
G1 Z0.0000 F2500.0
G4 P0.02
G0 X95.4111 Y-229.5264 F15000.0
G1 Z11.9000 F2500.0
G4 P0.02
G1 X99.6822 Y-233.7976 F12000.0
G1 Z0.0000 F2500.0
G4 P0.02
G0 X112.0610 Y-246.1040 F15000.0
G1 Z11.9000 F2500.0
G4 P0.02
G1 X115.1014 Y-249.1444 F12000.0
G1 Z0.0000 F2500.0
G4 P0.02
G0 X111.0475 Y-247.5518 F15000.0
G1 Z11.9000 F2500.0
G4 P0.02
G1 X112.7125 Y-249.1444 F12000.0
G1 Z0.0000 F2500.0
G4 P0.02
G0 X93.0222 Y-229.5264 F15000.0
G1 Z11.9000 F2500.0
G4 P0.02
G1 X97.2933 Y-233.7976 F12000.0
G1 Z0.0000 F2500.0
G4 P0.02
G0 X90.6333 Y-229.5264 F15000.0
G1 Z11.9000 F2500.0
G4 P0.02
G1 X94.9044 Y-233.7976 F12000.0
G1 Z0.0000 F2500.0
G4 P0.02
G0 X88.1720 Y-229.5264 F15000.0
G1 Z11.9000 F2500.0
G4 P0.02
G1 X92.4431 Y-233.7976 F12000.0
G1 Z0.0000 F2500.0
G4 P0.02
G0 X86.7242 Y-230.4675 F15000.0
G1 Z11.9000 F2500.0
G4 P0.02
G1 X90.0542 Y-233.7976 F12000.0
G1 Z0.0000 F2500.0
G4 P0.02
G0 X86.7242 Y-232.8564 F15000.0
G1 Z11.9000 F2500.0
G4 P0.02
G1 X87.5929 Y-233.7976 F12000.0
G1 Z0.0000 F2500.0
G4 P0.02
G0 X177.2852 Y-188.0465 F15000.0
G1 Z11.9000 F2500.0
G4 P0.02
G1 X179.8912 Y-190.6526 F12000.0
G1 Z0.0000 F2500.0
G4 P0.02
G0 X174.8963 Y-188.0465 F15000.0
G1 Z11.9000 F2500.0
G4 P0.02
G1 X179.1673 Y-192.3176 F12000.0
G1 Z0.0000 F2500.0
G4 P0.02
G0 X172.4350 Y-188.0465 F15000.0
G1 Z11.9000 F2500.0
G4 P0.02
G1 X176.7060 Y-192.3176 F12000.0
G1 Z0.0000 F2500.0
G4 P0.02
G0 X170.0461 Y-188.0465 F15000.0
G1 Z11.9000 F2500.0
G4 P0.02
G1 X174.3171 Y-192.3176 F12000.0
G1 Z0.0000 F2500.0
G4 P0.02
G0 X167.6572 Y-188.0465 F15000.0
G1 Z11.9000 F2500.0
G4 P0.02
G1 X171.9282 Y-192.3176 F12000.0
G1 Z0.0000 F2500.0
G4 P0.02
G0 X165.1958 Y-188.0465 F15000.0
G1 Z11.9000 F2500.0
G4 P0.02
G1 X169.4670 Y-192.3176 F12000.0
G1 Z0.0000 F2500.0
G4 P0.02
G0 X162.8070 Y-188.0465 F15000.0
G1 Z11.9000 F2500.0
G4 P0.02
G1 X167.0781 Y-192.3176 F12000.0
G1 Z0.0000 F2500.0
G4 P0.02
G0 X160.3457 Y-188.0465 F15000.0
G1 Z11.9000 F2500.0
G4 P0.02
G1 X164.6167 Y-192.3176 F12000.0
G1 Z0.0000 F2500.0
G4 P0.02
G0 X157.9568 Y-188.0465 F15000.0
G1 Z11.9000 F2500.0
G4 P0.02
G1 X162.2278 Y-192.3176 F12000.0
G1 Z0.0000 F2500.0
G4 P0.02
G0 X154.1201 Y-184.2098 F15000.0
G1 Z11.9000 F2500.0
G4 P0.02
G1 X156.5813 Y-186.6711 F12000.0
G1 Z0.0000 F2500.0
G4 P0.02
G0 X151.6588 Y-184.2098 F15000.0
G1 Z11.9000 F2500.0
G4 P0.02
G1 X159.8389 Y-192.3176 F12000.0
G1 Z0.0000 F2500.0
G4 P0.02
G0 X149.2699 Y-184.2098 F15000.0
G1 Z11.9000 F2500.0
G4 P0.02
G1 X157.3777 Y-192.3176 F12000.0
G1 Z0.0000 F2500.0
G4 P0.02
G0 X146.8810 Y-184.2098 F15000.0
G1 Z11.9000 F2500.0
G4 P0.02
G1 X154.9888 Y-192.3176 F12000.0
G1 Z0.0000 F2500.0
G4 P0.02
G0 X144.4197 Y-184.2098 F15000.0
G1 Z11.9000 F2500.0
G4 P0.02
G1 X149.5595 Y-189.2772 F12000.0
G1 Z0.0000 F2500.0
G4 P0.02
G0 X142.0308 Y-184.2098 F15000.0
G1 Z11.9000 F2500.0
G4 P0.02
G1 X147.1706 Y-189.2772 F12000.0
G1 Z0.0000 F2500.0
G4 P0.02
G0 X139.5695 Y-184.2098 F15000.0
G1 Z11.9000 F2500.0
G4 P0.02
G1 X144.7093 Y-189.2772 F12000.0
G1 Z0.0000 F2500.0
G4 P0.02
G0 X137.1806 Y-184.2098 F15000.0
G1 Z11.9000 F2500.0
G4 P0.02
G1 X142.3204 Y-189.2772 F12000.0
G1 Z0.0000 F2500.0
G4 P0.02
G0 X134.7917 Y-184.2098 F15000.0
G1 Z11.9000 F2500.0
G4 P0.02
G1 X139.8590 Y-189.2772 F12000.0
G1 Z0.0000 F2500.0
G4 P0.02
G0 X132.3304 Y-184.2098 F15000.0
G1 Z11.9000 F2500.0
G4 P0.02
G1 X137.4701 Y-189.2772 F12000.0
G1 Z0.0000 F2500.0
G4 P0.02
G0 X129.9415 Y-184.2098 F15000.0
G1 Z11.9000 F2500.0
G4 P0.02
G1 X135.0812 Y-189.2772 F12000.0
G1 Z0.0000 F2500.0
G4 P0.02
G0 X127.4803 Y-184.2098 F15000.0
G1 Z11.9000 F2500.0
G4 P0.02
G1 X132.6200 Y-189.2772 F12000.0
G1 Z0.0000 F2500.0
G4 P0.02
G0 X125.0914 Y-184.2098 F15000.0
G1 Z11.9000 F2500.0
G4 P0.02
G1 X130.2311 Y-189.2772 F12000.0
G1 Z0.0000 F2500.0
G4 P0.02
G0 X122.7025 Y-184.2098 F15000.0
G1 Z11.9000 F2500.0
G4 P0.02
G1 X127.7698 Y-189.2772 F12000.0
G1 Z0.0000 F2500.0
G4 P0.02
G0 X120.2412 Y-184.2098 F15000.0
G1 Z11.9000 F2500.0
G4 P0.02
G1 X125.3809 Y-189.2772 F12000.0
G1 Z0.0000 F2500.0
G4 P0.02
G0 X117.8523 Y-184.2098 F15000.0
G1 Z11.9000 F2500.0
G4 P0.02
G1 X122.9920 Y-189.2772 F12000.0
G1 Z0.0000 F2500.0
G4 P0.02
G0 X115.4634 Y-184.2098 F15000.0
G1 Z11.9000 F2500.0
G4 P0.02
G1 X120.5308 Y-189.2772 F12000.0
G1 Z0.0000 F2500.0
G4 P0.02
G0 X113.7260 Y-184.8613 F15000.0
G1 Z11.9000 F2500.0
G4 P0.02
G1 X118.1419 Y-189.2772 F12000.0
G1 Z0.0000 F2500.0
G4 P0.02
G0 X112.6401 Y-186.2367 F15000.0
G1 Z11.9000 F2500.0
G4 P0.02
G1 X116.6940 Y-190.2906 F12000.0
G1 Z0.0000 F2500.0
G4 P0.02
G0 X112.3505 Y-188.4085 F15000.0
G1 Z11.9000 F2500.0
G4 P0.02
G1 X116.6217 Y-192.6795 F12000.0
G1 Z0.0000 F2500.0
G4 P0.02
G0 X112.3505 Y-190.7974 F15000.0
G1 Z11.9000 F2500.0
G4 P0.02
G1 X116.6217 Y-195.0684 F12000.0
G1 Z0.0000 F2500.0
G4 P0.02
G0 X112.3505 Y-193.1863 F15000.0
G1 Z11.9000 F2500.0
G4 P0.02
G1 X116.6217 Y-197.4573 F12000.0
G1 Z0.0000 F2500.0
G4 P0.02
G0 X123.1368 Y-206.4338 F15000.0
G1 Z11.9000 F2500.0
G4 P0.02
G1 X123.9331 Y-207.1577 F12000.0
G1 Z0.0000 F2500.0
G4 P0.02
G0 X112.3505 Y-195.6476 F15000.0
G1 Z11.9000 F2500.0
G4 P0.02
G1 X116.6217 Y-199.9186 F12000.0
G1 Z0.0000 F2500.0
G4 P0.02
G0 X112.3505 Y-198.0365 F15000.0
G1 Z11.9000 F2500.0
G4 P0.02
G1 X116.6217 Y-202.3075 F12000.0
G1 Z0.0000 F2500.0
G4 P0.02
G0 X120.7479 Y-206.4338 F15000.0
G1 Z11.9000 F2500.0
G4 P0.02
G1 X123.9331 Y-209.6190 F12000.0
G1 Z0.0000 F2500.0
G4 P0.02
G0 X118.2866 Y-206.4338 F15000.0
G1 Z11.9000 F2500.0
G4 P0.02
G1 X123.4263 Y-211.5735 F12000.0
G1 Z0.0000 F2500.0
G4 P0.02
G0 X112.3505 Y-200.4977 F15000.0
G1 Z11.9000 F2500.0
G4 P0.02
G1 X116.6217 Y-204.7688 F12000.0
G1 Z0.0000 F2500.0
G4 P0.02
G0 X112.3505 Y-202.8866 F15000.0
G1 Z11.9000 F2500.0
G4 P0.02
G1 X121.8338 Y-212.3698 F12000.0
G1 Z0.0000 F2500.0
G4 P0.02
G0 X112.3505 Y-205.2755 F15000.0
G1 Z11.9000 F2500.0
G4 P0.02
G1 X117.7075 Y-210.7048 F12000.0
G1 Z0.0000 F2500.0
G4 P0.02
G0 X112.3505 Y-207.7368 F15000.0
G1 Z11.9000 F2500.0
G4 P0.02
G1 X116.6217 Y-212.0079 F12000.0
G1 Z0.0000 F2500.0
G4 P0.02
G0 X112.3505 Y-210.1257 F15000.0
G1 Z11.9000 F2500.0
G4 P0.02
G1 X116.6217 Y-214.3968 F12000.0
G1 Z0.0000 F2500.0
G4 P0.02
G0 X112.3505 Y-212.5870 F15000.0
G1 Z11.9000 F2500.0
G4 P0.02
G1 X116.6217 Y-216.8581 F12000.0
G1 Z0.0000 F2500.0
G4 P0.02
G0 X112.3505 Y-214.9759 F15000.0
G1 Z11.9000 F2500.0
G4 P0.02
G1 X116.6217 Y-219.2470 F12000.0
G1 Z0.0000 F2500.0
G4 P0.02
G0 X109.8893 Y-214.9759 F15000.0
G1 Z11.9000 F2500.0
G4 P0.02
G1 X114.1603 Y-219.2470 F12000.0
G1 Z0.0000 F2500.0
G4 P0.02
G0 X107.5004 Y-214.9759 F15000.0
G1 Z11.9000 F2500.0
G4 P0.02
G1 X111.7714 Y-219.2470 F12000.0
G1 Z0.0000 F2500.0
G4 P0.02
G0 X105.1115 Y-214.9759 F15000.0
G1 Z11.9000 F2500.0
G4 P0.02
G1 X109.3825 Y-219.2470 F12000.0
G1 Z0.0000 F2500.0
G4 P0.02
G0 X102.6502 Y-214.9759 F15000.0
G1 Z11.9000 F2500.0
G4 P0.02
G1 X106.9212 Y-219.2470 F12000.0
G1 Z0.0000 F2500.0
G4 P0.02
G0 X100.2613 Y-214.9759 F15000.0
G1 Z11.9000 F2500.0
G4 P0.02
G1 X104.5323 Y-219.2470 F12000.0
G1 Z0.0000 F2500.0
G4 P0.02
G0 X97.8000 Y-214.9759 F15000.0
G1 Z11.9000 F2500.0
G4 P0.02
G1 X102.0711 Y-219.2470 F12000.0
G1 Z0.0000 F2500.0
G4 P0.02
G0 X95.4111 Y-214.9759 F15000.0
G1 Z11.9000 F2500.0
G4 P0.02
G1 X99.6822 Y-219.2470 F12000.0
G1 Z0.0000 F2500.0
G4 P0.02
G0 X93.0222 Y-214.9759 F15000.0
G1 Z11.9000 F2500.0
G4 P0.02
G1 X97.2933 Y-219.2470 F12000.0
G1 Z0.0000 F2500.0
G4 P0.02
G0 X90.5609 Y-214.9759 F15000.0
G1 Z11.9000 F2500.0
G4 P0.02
G1 X94.8320 Y-219.2470 F12000.0
G1 Z0.0000 F2500.0
G4 P0.02
G0 X88.1720 Y-214.9759 F15000.0
G1 Z11.9000 F2500.0
G4 P0.02
G1 X92.4431 Y-219.2470 F12000.0
G1 Z0.0000 F2500.0
G4 P0.02
G0 X86.7242 Y-215.9170 F15000.0
G1 Z11.9000 F2500.0
G4 P0.02
G1 X89.9818 Y-219.2470 F12000.0
G1 Z0.0000 F2500.0
G4 P0.02
G0 X86.7242 Y-218.3783 F15000.0
G1 Z11.9000 F2500.0
G4 P0.02
G1 X87.5929 Y-219.2470 F12000.0
G1 Z0.0000 F2500.0
G4 P0.02
G0 X178.1539 Y-203.3934 F15000.0
G1 Z11.9000 F2500.0
G4 P0.02
G1 X179.8912 Y-205.1308 F12000.0
G1 Z0.0000 F2500.0
G4 P0.02
G0 X175.7650 Y-203.3934 F15000.0
G1 Z11.9000 F2500.0
G4 P0.02
G1 X179.8912 Y-207.5921 F12000.0
G1 Z0.0000 F2500.0
G4 P0.02
G0 X173.3761 Y-203.3934 F15000.0
G1 Z11.9000 F2500.0
G4 P0.02
G1 X177.6471 Y-207.6644 F12000.0
G1 Z0.0000 F2500.0
G4 P0.02
G0 X170.9147 Y-203.3934 F15000.0
G1 Z11.9000 F2500.0
G4 P0.02
G1 X175.1858 Y-207.6644 F12000.0
G1 Z0.0000 F2500.0
G4 P0.02
G0 X168.5258 Y-203.3934 F15000.0
G1 Z11.9000 F2500.0
G4 P0.02
G1 X172.7969 Y-207.6644 F12000.0
G1 Z0.0000 F2500.0
G4 P0.02
G0 X166.0645 Y-203.3934 F15000.0
G1 Z11.9000 F2500.0
G4 P0.02
G1 X170.3356 Y-207.6644 F12000.0
G1 Z0.0000 F2500.0
G4 P0.02
G0 X163.6757 Y-203.3934 F15000.0
G1 Z11.9000 F2500.0
G4 P0.02
G1 X167.9467 Y-207.6644 F12000.0
G1 Z0.0000 F2500.0
G4 P0.02
G0 X161.2868 Y-203.3934 F15000.0
G1 Z11.9000 F2500.0
G4 P0.02
G1 X165.5578 Y-207.6644 F12000.0
G1 Z0.0000 F2500.0
G4 P0.02
G0 X158.8255 Y-203.3934 F15000.0
G1 Z11.9000 F2500.0
G4 P0.02
G1 X163.0965 Y-207.6644 F12000.0
G1 Z0.0000 F2500.0
G4 P0.02
G0 X156.4366 Y-203.3934 F15000.0
G1 Z11.9000 F2500.0
G4 P0.02
G1 X160.7076 Y-207.6644 F12000.0
G1 Z0.0000 F2500.0
G4 P0.02
G0 X153.9753 Y-203.3934 F15000.0
G1 Z11.9000 F2500.0
G4 P0.02
G1 X158.2464 Y-207.6644 F12000.0
G1 Z0.0000 F2500.0
G4 P0.02
G0 X152.5999 Y-204.4068 F15000.0
G1 Z11.9000 F2500.0
G4 P0.02
G1 X156.8709 Y-208.6779 F12000.0
G1 Z0.0000 F2500.0
G4 P0.02
G0 X151.9484 Y-206.2166 F15000.0
G1 Z11.9000 F2500.0
G4 P0.02
G1 X156.7985 Y-211.0668 F12000.0
G1 Z0.0000 F2500.0
G4 P0.02
G0 X149.7042 Y-206.4338 F15000.0
G1 Z11.9000 F2500.0
G4 P0.02
G1 X156.7985 Y-213.5281 F12000.0
G1 Z0.0000 F2500.0
G4 P0.02
G0 X147.3153 Y-206.4338 F15000.0
G1 Z11.9000 F2500.0
G4 P0.02
G1 X151.5864 Y-210.7048 F12000.0
G1 Z0.0000 F2500.0
G4 P0.02
G0 X152.5275 Y-211.6459 F15000.0
G1 Z11.9000 F2500.0
G4 P0.02
G1 X156.7985 Y-215.9170 F12000.0
G1 Z0.0000 F2500.0
G4 P0.02
G0 X152.5275 Y-214.0348 F15000.0
G1 Z11.9000 F2500.0
G4 P0.02
G1 X156.7985 Y-218.3059 F12000.0
G1 Z0.0000 F2500.0
G4 P0.02
G0 X145.2884 Y-206.7957 F15000.0
G1 Z11.9000 F2500.0
G4 P0.02
G1 X149.4146 Y-210.9220 F12000.0
G1 Z0.0000 F2500.0
G4 P0.02
G0 X145.2884 Y-209.1846 F15000.0
G1 Z11.9000 F2500.0
G4 P0.02
G1 X148.4736 Y-212.3698 F12000.0
G1 Z0.0000 F2500.0
G4 P0.02
G0 X152.5275 Y-216.4961 F15000.0
G1 Z11.9000 F2500.0
G4 P0.02
G1 X156.7985 Y-220.7672 F12000.0
G1 Z0.0000 F2500.0
G4 P0.02
G0 X152.5275 Y-218.8850 F15000.0
G1 Z11.9000 F2500.0
G4 P0.02
G1 X156.7985 Y-223.1561 F12000.0
G1 Z0.0000 F2500.0
G4 P0.02
G0 X152.5275 Y-221.2739 F15000.0
G1 Z11.9000 F2500.0
G4 P0.02
G1 X156.7985 Y-225.6173 F12000.0
G1 Z0.0000 F2500.0
G4 P0.02
G0 X152.5275 Y-223.7352 F15000.0
G1 Z11.9000 F2500.0
G4 P0.02
G1 X156.7985 Y-228.0062 F12000.0
G1 Z0.0000 F2500.0
G4 P0.02
G0 X152.5275 Y-226.1241 F15000.0
G1 Z11.9000 F2500.0
G4 P0.02
G1 X156.7985 Y-230.3951 F12000.0
G1 Z0.0000 F2500.0
G4 P0.02
G0 X152.5275 Y-228.5854 F15000.0
G1 Z11.9000 F2500.0
G4 P0.02
G1 X156.7985 Y-232.8564 F12000.0
G1 Z0.0000 F2500.0
G4 P0.02
G0 X152.5275 Y-230.9743 F15000.0
G1 Z11.9000 F2500.0
G4 P0.02
G1 X156.7985 Y-235.2453 F12000.0
G1 Z0.0000 F2500.0
G4 P0.02
G0 X152.5275 Y-233.4355 F15000.0
G1 Z11.9000 F2500.0
G4 P0.02
G1 X156.7985 Y-237.7066 F12000.0
G1 Z0.0000 F2500.0
G4 P0.02
G0 X152.5275 Y-235.8244 F15000.0
G1 Z11.9000 F2500.0
G4 P0.02
G1 X156.7985 Y-240.0955 F12000.0
G1 Z0.0000 F2500.0
G4 P0.02
G0 X152.5275 Y-238.2133 F15000.0
G1 Z11.9000 F2500.0
G4 P0.02
G1 X156.7985 Y-242.4844 F12000.0
G1 Z0.0000 F2500.0
G4 P0.02
G0 X152.5275 Y-240.6747 F15000.0
G1 Z11.9000 F2500.0
G4 P0.02
G1 X156.7985 Y-244.9457 F12000.0
G1 Z0.0000 F2500.0
G4 P0.02
G0 X152.5275 Y-243.0636 F15000.0
G1 Z11.9000 F2500.0
G4 P0.02
G1 X158.1016 Y-248.6376 F12000.0
G1 Z0.0000 F2500.0
G4 P0.02
G0 X152.5275 Y-245.5248 F15000.0
G1 Z11.9000 F2500.0
G4 P0.02
G1 X156.2194 Y-249.1444 F12000.0
G1 Z0.0000 F2500.0
G4 P0.02
G0 X152.5275 Y-247.9137 F15000.0
G1 Z11.9000 F2500.0
G4 P0.02
G1 X153.7581 Y-249.1444 F12000.0
G1 Z0.0000 F2500.0
G4 P0.02
G0 X158.5359 Y-120.5782 F15000.0
G1 Z11.9000 F2500.0
G4 P0.02
G1 X158.3911 Y-123.2567 F12000.0
G1 X157.9568 Y-125.7904 F12000.0
G1 X157.2329 Y-128.3240 F12000.0
G1 X156.2194 Y-130.7854 F12000.0
G1 X154.9888 Y-133.1018 F12000.0
G1 X153.5409 Y-135.2736 F12000.0
G1 X151.8035 Y-137.3005 F12000.0
G1 X149.8490 Y-139.0379 F12000.0
G1 X147.7497 Y-140.6306 F12000.0
G1 X145.4332 Y-141.9336 F12000.0
G1 X143.0443 Y-143.0195 F12000.0
G1 X140.5106 Y-143.8157 F12000.0
G1 X137.9769 Y-144.3225 F12000.0
G1 X135.2984 Y-144.5397 F12000.0
G1 X132.6924 Y-144.4672 F12000.0
G1 X130.0864 Y-144.1053 F12000.0
G1 X127.5526 Y-143.4538 F12000.0
G1 X125.0914 Y-142.5851 F12000.0
G1 X122.7025 Y-141.3544 F12000.0
G1 X120.5308 Y-139.9790 F12000.0
G1 X118.4314 Y-138.3140 F12000.0
G1 X116.6217 Y-136.4319 F12000.0
G1 X115.0290 Y-134.3325 F12000.0
G1 X113.5812 Y-132.0884 F12000.0
G1 X112.4954 Y-129.7719 F12000.0
G1 X111.6267 Y-127.2382 F12000.0
G1 X110.9752 Y-124.7045 F12000.0
G1 X110.6856 Y-122.0985 F12000.0
G1 X110.6856 Y-119.4200 F12000.0
G1 X110.9752 Y-116.8140 F12000.0
G1 X111.4818 Y-114.2802 F12000.0
G1 X112.3505 Y-111.7466 F12000.0
G1 X113.4364 Y-109.3577 F12000.0
G1 X114.8119 Y-107.1135 F12000.0
G1 X116.4045 Y-105.0142 F12000.0
G1 X118.2142 Y-103.1321 F12000.0
G1 X120.2412 Y-101.4671 F12000.0
G1 X122.4129 Y-99.9468 F12000.0
G1 X124.8018 Y-98.7886 F12000.0
G1 X127.2631 Y-97.8475 F12000.0
G1 X129.7968 Y-97.1236 F12000.0
G1 X132.4028 Y-96.7617 F12000.0
G1 X135.0089 Y-96.6893 F12000.0
G1 X137.6150 Y-96.8341 F12000.0
G1 X140.2211 Y-97.3408 F12000.0
G1 X142.7547 Y-98.0647 F12000.0
G1 X145.1436 Y-99.1506 F12000.0
G1 X147.4601 Y-100.3812 F12000.0
G1 X149.5595 Y-101.9738 F12000.0
G1 X151.5864 Y-103.7112 F12000.0
G1 X153.3238 Y-105.6658 F12000.0
G1 X154.8440 Y-107.8375 F12000.0
G1 X156.1470 Y-110.0816 F12000.0
G1 X157.1605 Y-112.5429 F12000.0
G1 X157.8844 Y-115.0766 F12000.0
G1 X158.3187 Y-117.6827 F12000.0
G1 X158.5359 Y-120.2887 F12000.0
G1 X158.5359 Y-120.5782 F12000.0
G1 Z0.0000 F2500.0
G4 P0.02
G0 X116.2596 Y-116.3796 F15000.0
G1 Z11.9000 F2500.0
G4 P0.02
G1 X115.8977 Y-118.6237 F12000.0
G1 X115.7530 Y-121.0126 F12000.0
G1 X115.9701 Y-123.3291 F12000.0
G1 X116.4768 Y-125.5732 F12000.0
G1 X117.2008 Y-127.8174 F12000.0
G1 X118.2142 Y-129.9167 F12000.0
G1 X119.5172 Y-131.8712 F12000.0
G1 X121.0374 Y-133.6086 F12000.0
G1 X122.7748 Y-135.2012 F12000.0
G1 X124.6570 Y-136.5766 F12000.0
G1 X126.6839 Y-137.6625 F12000.0
G1 X128.8557 Y-138.5312 F12000.0
G1 X131.0998 Y-139.1103 F12000.0
G1 X133.4163 Y-139.3999 F12000.0
G1 X135.8052 Y-139.3999 F12000.0
G1 X138.1217 Y-139.1103 F12000.0
G1 X140.3658 Y-138.5312 F12000.0
G1 X142.5375 Y-137.6625 F12000.0
G1 X144.5645 Y-136.5766 F12000.0
G1 X146.4466 Y-135.2012 F12000.0
G1 X148.1840 Y-133.6086 F12000.0
G1 X149.7042 Y-131.7988 F12000.0
G1 X150.9349 Y-129.8443 F12000.0
G1 X151.9484 Y-127.7449 F12000.0
G1 X152.7447 Y-125.5732 F12000.0
G1 X153.1790 Y-123.2567 F12000.0
G1 X153.3962 Y-120.9402 F12000.0
G1 X153.3238 Y-118.6237 F12000.0
G1 X152.8894 Y-116.3796 F12000.0
G1 Z0.0000 F2500.0
G4 P0.02
G0 X116.2596 Y-116.3796 F15000.0
G1 Z11.9000 F2500.0
G4 P0.02
G1 X116.9112 Y-114.1355 F12000.0
G1 X117.8523 Y-111.9638 F12000.0
G1 X119.0829 Y-110.0092 F12000.0
G1 X120.5308 Y-108.1271 F12000.0
G1 X122.1233 Y-106.4620 F12000.0
G1 X124.0055 Y-105.0867 F12000.0
G1 X126.0324 Y-103.8560 F12000.0
G1 X128.1318 Y-102.9149 F12000.0
G1 X130.3759 Y-102.2634 F12000.0
G1 X132.6924 Y-101.9014 F12000.0
G1 X135.0089 Y-101.8291 F12000.0
G1 X137.3254 Y-101.9738 F12000.0
G1 X139.6419 Y-102.4806 F12000.0
G1 X141.8136 Y-103.2044 F12000.0
G1 X143.9130 Y-104.2903 F12000.0
G1 X145.8675 Y-105.5210 F12000.0
G1 X147.6049 Y-107.0412 F12000.0
G1 X149.1975 Y-108.7786 F12000.0
G1 X150.5729 Y-110.6607 F12000.0
G1 X151.6588 Y-112.7600 F12000.0
G1 X152.5275 Y-114.9318 F12000.0
G1 X152.8894 Y-116.3796 F12000.0
G1 Z0.0000 F2500.0
G4 P0.02
G0 X99.5374 Y-129.9891 F15000.0
G1 Z11.9000 F2500.0
G4 P0.02
G1 X99.5374 Y-120.5782 F12000.0
G1 Z0.0000 F2500.0
G4 P0.02
G0 X99.5374 Y-129.1204 F15000.0
G1 Z11.9000 F2500.0
G4 P0.02
G1 X86.7242 Y-129.1204 F12000.0
G1 Z0.0000 F2500.0
G4 P0.02
G0 X99.5374 Y-112.0362 F15000.0
G1 Z11.9000 F2500.0
G4 P0.02
G1 X86.7242 Y-112.0362 F12000.0
G1 Z0.0000 F2500.0
G4 P0.02
G0 X99.5374 Y-111.1675 F15000.0
G1 Z11.9000 F2500.0
G4 P0.02
G1 X99.5374 Y-120.5782 F12000.0
G1 Z0.0000 F2500.0
G4 P0.02
G0 X112.5677 Y-129.9891 F15000.0
G1 Z11.9000 F2500.0
G4 P0.02
G1 X86.7242 Y-129.9891 F12000.0
G1 Z0.0000 F2500.0
G4 P0.02
G0 X86.7242 Y-111.1675 F15000.0
G1 Z11.9000 F2500.0
G4 P0.02
G1 X112.5677 Y-111.1675 F12000.0
G1 Z0.0000 F2500.0
G4 P0.02
G0 X156.5813 Y-129.9891 F15000.0
G1 Z11.9000 F2500.0
G4 P0.02
G1 X179.6741 Y-129.9891 F12000.0
G1 X179.6741 Y-120.5782 F12000.0
G1 Z0.0000 F2500.0
G4 P0.02
G0 X169.4670 Y-120.5782 F15000.0
G1 Z11.9000 F2500.0
G4 P0.02
G1 X169.4670 Y-129.9891 F12000.0
G1 Z0.0000 F2500.0
G4 P0.02
G0 X169.4670 Y-129.1204 F15000.0
G1 Z11.9000 F2500.0
G4 P0.02
G1 X179.6741 Y-129.1204 F12000.0
G1 Z0.0000 F2500.0
G4 P0.02
G0 X156.5813 Y-111.1675 F15000.0
G1 Z11.9000 F2500.0
G4 P0.02
G1 X179.6741 Y-111.1675 F12000.0
G1 Z0.0000 F2500.0
G4 P0.02
G0 X169.4670 Y-112.0362 F15000.0
G1 Z11.9000 F2500.0
G4 P0.02
G1 X179.6741 Y-112.0362 F12000.0
G1 Z0.0000 F2500.0
G4 P0.02
G0 X169.4670 Y-120.5782 F15000.0
G1 Z11.9000 F2500.0
G4 P0.02
G1 X169.4670 Y-111.1675 F12000.0
G1 Z0.0000 F2500.0
G4 P0.02
G0 X179.6741 Y-111.1675 F15000.0
G1 Z11.9000 F2500.0
G4 P0.02
G1 X179.6741 Y-120.5782 F12000.0
G1 X167.3676 Y-120.5782 F12000.0
G1 Z0.0000 F2500.0
G4 P0.02
G0 X166.1369 Y-120.5782 F15000.0
G1 Z11.9000 F2500.0
G4 P0.02
G1 X164.8339 Y-120.5782 F12000.0
G1 Z0.0000 F2500.0
G4 P0.02
G0 X163.5309 Y-120.5782 F15000.0
G1 Z11.9000 F2500.0
G4 P0.02
G1 X151.2969 Y-120.5782 F12000.0
G1 Z0.0000 F2500.0
G4 P0.02
G0 X149.9938 Y-120.5782 F15000.0
G1 Z11.9000 F2500.0
G4 P0.02
G1 X148.6908 Y-120.5782 F12000.0
G1 Z0.0000 F2500.0
G4 P0.02
G0 X147.3878 Y-120.5782 F15000.0
G1 Z11.9000 F2500.0
G4 P0.02
G1 X135.1537 Y-120.5782 F12000.0
G1 Z0.0000 F2500.0
G4 P0.02
G0 X131.2446 Y-120.5782 F15000.0
G1 Z11.9000 F2500.0
G4 P0.02
G1 X119.0106 Y-120.5782 F12000.0
G1 Z0.0000 F2500.0
G4 P0.02
G0 X117.7075 Y-120.5782 F15000.0
G1 Z11.9000 F2500.0
G4 P0.02
G1 X116.4045 Y-120.5782 F12000.0
G1 Z0.0000 F2500.0
G4 P0.02
G0 X115.1738 Y-120.5782 F15000.0
G1 Z11.9000 F2500.0
G4 P0.02
G1 X102.8674 Y-120.5782 F12000.0
G1 Z0.0000 F2500.0
G4 P0.02
G0 X101.5643 Y-120.5782 F15000.0
G1 Z11.9000 F2500.0
G4 P0.02
G1 X100.2613 Y-120.5782 F12000.0
G1 Z0.0000 F2500.0
G4 P0.02
G0 X99.0307 Y-120.5782 F15000.0
G1 Z11.9000 F2500.0
G4 P0.02
G1 X86.7242 Y-120.5782 F12000.0
G1 Z0.0000 F2500.0
G4 P0.02
G0 X149.1251 Y-120.5782 F15000.0
G1 Z11.9000 F2500.0
G4 P0.02
G1 X148.9803 Y-122.6776 F12000.0
G1 X148.5460 Y-124.6321 F12000.0
G1 X147.8221 Y-126.5867 F12000.0
G1 X146.8810 Y-128.3965 F12000.0
G1 X145.6504 Y-130.0614 F12000.0
G1 X144.2025 Y-131.5093 F12000.0
G1 X142.6100 Y-132.7399 F12000.0
G1 X140.8002 Y-133.7534 F12000.0
G1 X138.9180 Y-134.4773 F12000.0
G1 X136.8910 Y-134.9841 F12000.0
G1 X134.8641 Y-135.1288 F12000.0
G1 X132.8372 Y-135.0564 F12000.0
G1 X130.8102 Y-134.6221 F12000.0
G1 X128.8557 Y-133.9705 F12000.0
G1 X127.0459 Y-133.0295 F12000.0
G1 X125.3809 Y-131.7988 F12000.0
G1 X123.8607 Y-130.4234 F12000.0
G1 X122.6301 Y-128.8308 F12000.0
G1 X121.5442 Y-127.0210 F12000.0
G1 X120.8203 Y-125.1389 F12000.0
G1 X120.3136 Y-123.1843 F12000.0
G1 X120.0964 Y-121.0850 F12000.0
G1 X120.1688 Y-119.0580 F12000.0
G1 X120.5308 Y-117.0312 F12000.0
G1 X121.1099 Y-115.0766 F12000.0
G1 X122.0510 Y-113.2668 F12000.0
G1 X123.2092 Y-111.6018 F12000.0
G1 X124.5846 Y-110.0816 F12000.0
G1 X126.1773 Y-108.7786 F12000.0
G1 X127.9146 Y-107.6927 F12000.0
G1 X129.7968 Y-106.8964 F12000.0
G1 X131.7513 Y-106.3173 F12000.0
G1 X133.7783 Y-106.1001 F12000.0
G1 X135.8776 Y-106.1001 F12000.0
G1 X137.9045 Y-106.4620 F12000.0
G1 X139.8590 Y-107.0412 F12000.0
G1 X141.6688 Y-107.9099 F12000.0
G1 X143.4062 Y-109.0681 F12000.0
G1 X144.9264 Y-110.3711 F12000.0
G1 X146.3019 Y-111.9638 F12000.0
G1 X147.3878 Y-113.7011 F12000.0
G1 X148.2564 Y-115.5833 F12000.0
G1 X148.8355 Y-117.5378 F12000.0
G1 X149.1251 Y-119.5648 F12000.0
G1 X149.1251 Y-120.5782 F12000.0
G1 Z0.0000 F2500.0
G4 P0.02
G0 X146.5914 Y-120.5782 F15000.0
G1 Z11.9000 F2500.0
G4 P0.02
G1 X146.4466 Y-122.4604 F12000.0
G1 X146.0123 Y-124.2702 F12000.0
G1 X145.2884 Y-126.0076 F12000.0
G1 X144.3473 Y-127.6002 F12000.0
G1 X143.1166 Y-128.9756 F12000.0
G1 X141.7413 Y-130.2063 F12000.0
G1 X140.1486 Y-131.2197 F12000.0
G1 X138.4113 Y-131.9436 F12000.0
G1 X136.6015 Y-132.3780 F12000.0
G1 X134.7917 Y-132.5952 F12000.0
G1 X132.9096 Y-132.4503 F12000.0
G1 X131.0998 Y-132.0160 F12000.0
G1 X129.3624 Y-131.3645 F12000.0
G1 X127.7698 Y-130.4234 F12000.0
G1 X126.3220 Y-129.2652 F12000.0
G1 X125.0914 Y-127.8897 F12000.0
G1 X124.0779 Y-126.2972 F12000.0
G1 X123.2816 Y-124.6321 F12000.0
G1 X122.8472 Y-122.8224 F12000.0
G1 X122.6301 Y-120.9402 F12000.0
G1 X122.7025 Y-119.1305 F12000.0
G1 X123.0644 Y-117.2483 F12000.0
G1 X123.7159 Y-115.5109 F12000.0
G1 X124.6570 Y-113.9183 F12000.0
G1 X125.8152 Y-112.4705 F12000.0
G1 X127.1907 Y-111.1675 F12000.0
G1 X128.7109 Y-110.1540 F12000.0
G1 X130.4483 Y-109.3577 F12000.0
G1 X132.1857 Y-108.8509 F12000.0
G1 X134.0678 Y-108.6338 F12000.0
G1 X135.8776 Y-108.7062 F12000.0
G1 X137.7597 Y-109.0681 F12000.0
G1 X139.4971 Y-109.6473 F12000.0
G1 X141.0897 Y-110.5883 F12000.0
G1 X142.6100 Y-111.6742 F12000.0
G1 X143.9130 Y-113.0496 F12000.0
G1 X144.9264 Y-114.5698 F12000.0
G1 X145.7227 Y-116.2348 F12000.0
G1 X146.3019 Y-118.0446 F12000.0
G1 X146.5191 Y-119.8543 F12000.0
G1 X146.5914 Y-120.5782 F12000.0
G1 Z0.0000 F2500.0
G4 P0.02
G0 X145.2884 Y-120.5782 F15000.0
G1 Z11.9000 F2500.0
G4 P0.02
G1 X145.1436 Y-122.3880 F12000.0
G1 X144.7093 Y-124.0530 F12000.0
G1 X143.9853 Y-125.6456 F12000.0
G1 X143.0443 Y-127.1658 F12000.0
G1 X141.8860 Y-128.4689 F12000.0
G1 X140.5106 Y-129.5547 F12000.0
G1 X138.9180 Y-130.3510 F12000.0
G1 X137.2530 Y-130.9301 F12000.0
G1 X135.5156 Y-131.2197 F12000.0
G1 X133.7783 Y-131.2921 F12000.0
G1 X132.0409 Y-131.0025 F12000.0
G1 X130.3759 Y-130.4234 F12000.0
G1 X128.8557 Y-129.6271 F12000.0
G1 X127.4079 Y-128.5412 F12000.0
G1 X126.2496 Y-127.2382 F12000.0
G1 X125.2361 Y-125.7904 F12000.0
G1 X124.5122 Y-124.1978 F12000.0
G1 X124.0779 Y-122.4604 F12000.0
G1 X123.9331 Y-120.7230 F12000.0
G1 X124.0055 Y-118.9856 F12000.0
G1 X124.4399 Y-117.2483 F12000.0
G1 X125.0914 Y-115.6557 F12000.0
G1 X126.0324 Y-114.2079 F12000.0
G1 X127.1907 Y-112.8325 F12000.0
G1 X128.5662 Y-111.7466 F12000.0
G1 X130.0864 Y-110.8779 F12000.0
G1 X131.7513 Y-110.2988 F12000.0
G1 X133.4887 Y-109.9368 F12000.0
G1 X135.2261 Y-109.9368 F12000.0
G1 X136.9635 Y-110.1540 F12000.0
G1 X138.7008 Y-110.7331 F12000.0
G1 X140.2211 Y-111.5294 F12000.0
G1 X141.6688 Y-112.5429 F12000.0
G1 X142.8995 Y-113.8459 F12000.0
G1 X143.8406 Y-115.2938 F12000.0
G1 X144.6368 Y-116.8863 F12000.0
G1 X145.0712 Y-118.5513 F12000.0
G1 X145.2884 Y-120.2887 F12000.0
G1 X145.2884 Y-120.5782 F12000.0
G1 Z0.0000 F2500.0
G4 P0.02
G0 X86.7242 Y-111.1675 F15000.0
G1 Z11.9000 F2500.0
G4 P0.02
G1 X86.7242 Y-129.9891 F12000.0
G1 Z0.0000 F2500.0
G4 P0.02
G0 X116.1149 Y-126.0800 F15000.0
G1 Z11.9000 F2500.0
G4 P0.02
G1 X115.6081 Y-123.7634 F12000.0
G1 X115.3186 Y-121.3745 F12000.0
G1 X115.3910 Y-119.0580 F12000.0
G1 X115.6805 Y-116.6691 F12000.0
G1 X116.3321 Y-114.4251 F12000.0
G1 X117.2008 Y-112.2534 F12000.0
G1 X118.3590 Y-110.1540 F12000.0
G1 X119.8068 Y-108.2718 F12000.0
G1 X121.3995 Y-106.5344 F12000.0
G1 X123.2092 Y-105.0142 F12000.0
G1 X125.1637 Y-103.7836 F12000.0
G1 X127.3354 Y-102.7701 F12000.0
G1 X129.5796 Y-101.9738 F12000.0
G1 X131.8961 Y-101.5395 F12000.0
G1 X134.2126 Y-101.3223 F12000.0
G1 X136.6015 Y-101.3947 F12000.0
G1 X138.9180 Y-101.8291 F12000.0
G1 X141.1621 Y-102.4806 F12000.0
G1 X143.3338 Y-103.4216 F12000.0
G1 X145.3608 Y-104.6523 F12000.0
G1 X147.2429 Y-106.1001 F12000.0
G1 X148.9080 Y-107.6927 F12000.0
G1 X150.4282 Y-109.5749 F12000.0
G1 X151.6588 Y-111.6018 F12000.0
G1 X152.5999 Y-113.7736 F12000.0
G1 X153.3238 Y-116.0176 F12000.0
G1 X153.7581 Y-118.3341 F12000.0
G1 X153.9029 Y-120.6507 F12000.0
G1 X153.6858 Y-123.0396 F12000.0
G1 X153.5409 Y-124.2702 F12000.0
G1 Z0.0000 F2500.0
G4 P0.02
G0 X134.5746 Y-94.9519 F15000.0
G1 Z11.9000 F2500.0
G4 P0.02
G1 X134.5746 Y-102.1186 F12000.0
G1 Z0.0000 F2500.0
G4 P0.02
G0 X134.5746 Y-103.4216 F15000.0
G1 Z11.9000 F2500.0
G4 P0.02
G1 X134.5746 Y-104.7246 F12000.0
G1 Z0.0000 F2500.0
G4 P0.02
G0 X134.5746 Y-105.9553 F15000.0
G1 Z11.9000 F2500.0
G4 P0.02
G1 X134.5746 Y-113.1944 F12000.0
G1 Z0.0000 F2500.0
G4 P0.02
G0 X134.5746 Y-114.4251 F15000.0
G1 Z11.9000 F2500.0
G4 P0.02
G1 X134.5746 Y-115.7281 F12000.0
G1 Z0.0000 F2500.0
G4 P0.02
G0 X134.5746 Y-117.0312 F15000.0
G1 Z11.9000 F2500.0
G4 P0.02
G1 X134.5746 Y-120.5782 F12000.0
G1 Z0.0000 F2500.0
G4 P0.02
G0 X134.5746 Y-146.2770 F15000.0
G1 Z11.9000 F2500.0
G4 P0.02
G1 X134.5746 Y-139.0379 F12000.0
G1 Z0.0000 F2500.0
G4 P0.02
G0 X134.5746 Y-137.8073 F15000.0
G1 Z11.9000 F2500.0
G4 P0.02
G1 X134.5746 Y-136.5043 F12000.0
G1 Z0.0000 F2500.0
G4 P0.02
G0 X134.5746 Y-135.2012 F15000.0
G1 Z11.9000 F2500.0
G4 P0.02
G1 X134.5746 Y-128.0345 F12000.0
G1 Z0.0000 F2500.0
G4 P0.02
G0 X134.5746 Y-126.7315 F15000.0
G1 Z11.9000 F2500.0
G4 P0.02
G1 X134.5746 Y-125.5008 F12000.0
G1 Z0.0000 F2500.0
G4 P0.02
G0 X134.5746 Y-124.1978 F15000.0
G1 Z11.9000 F2500.0
G4 P0.02
G1 X134.5746 Y-120.5782 F12000.0
G1 Z0.0000 F2500.0
G4 P0.02
G0 X151.8035 Y-120.5782 F15000.0
G1 Z11.9000 F2500.0
G4 P0.02
G1 X150.5005 Y-120.5782 F12000.0
G1 Z0.0000 F2500.0
G4 P0.02
G0 X149.1975 Y-120.5782 F15000.0
G1 Z11.9000 F2500.0
G4 P0.02
G1 X142.0308 Y-120.5782 F12000.0
G1 Z0.0000 F2500.0
G4 P0.02
G0 X138.1941 Y-120.5782 F15000.0
G1 Z11.9000 F2500.0
G4 P0.02
G1 X134.5746 Y-120.5782 F12000.0
G1 Z0.0000 F2500.0
G4 P0.02
G0 X108.9482 Y-120.5782 F15000.0
G1 Z11.9000 F2500.0
G4 P0.02
G1 X116.1149 Y-120.5782 F12000.0
G1 Z0.0000 F2500.0
G4 P0.02
G0 X117.4179 Y-120.5782 F15000.0
G1 Z11.9000 F2500.0
G4 P0.02
G1 X118.7210 Y-120.5782 F12000.0
G1 Z0.0000 F2500.0
G4 P0.02
G0 X131.0274 Y-120.5782 F15000.0
G1 Z11.9000 F2500.0
G4 P0.02
G1 X134.5746 Y-120.5782 F12000.0
G1 Z0.0000 F2500.0
G4 P0.02
G0 X122.4853 Y-212.5146 F15000.0
G1 Z11.9000 F2500.0
G4 P0.02
G1 X124.1503 Y-214.0348 F12000.0
G1 X125.9601 Y-215.2655 F12000.0
G1 X127.9870 Y-216.2789 F12000.0
G1 X130.0864 Y-216.9304 F12000.0
G1 X132.2581 Y-217.4372 F12000.0
G1 X134.5021 Y-217.5819 F12000.0
G1 X136.7463 Y-217.4372 F12000.0
G1 X138.9180 Y-217.0028 F12000.0
G1 X141.0173 Y-216.2789 F12000.0
G1 X143.0443 Y-215.3379 F12000.0
G1 X144.9264 Y-214.1072 F12000.0
G1 X146.5914 Y-212.6594 F12000.0
G1 Z0.0000 F2500.0
G4 P0.02
G0 X122.6301 Y-212.3698 F15000.0
G1 Z11.9000 F2500.0
G4 P0.02
G1 X121.2546 Y-213.7453 F12000.0
G1 Z0.0000 F2500.0
G4 P0.02
G0 X146.5914 Y-212.3698 F15000.0
G1 Z11.9000 F2500.0
G4 P0.02
G1 X147.8944 Y-213.7453 F12000.0
G1 Z0.0000 F2500.0
G4 P0.02
G0 X123.9331 Y-206.4338 F15000.0
G1 Z11.9000 F2500.0
G4 P0.02
G1 X123.9331 Y-198.1088 F12000.0
G1 Z0.0000 F2500.0
G4 P0.02
G0 X145.2884 Y-206.4338 F15000.0
G1 Z11.9000 F2500.0
G4 P0.02
G1 X145.2884 Y-198.1088 F12000.0
G1 Z0.0000 F2500.0
G4 P0.02
G0 X155.4231 Y-184.2098 F15000.0
G1 Z11.9000 F2500.0
G4 P0.02
G1 X180.0000 Y-184.2098 F12000.0
G1 Z0.0000 F2500.0
G4 P0.02
G0 X158.1016 Y-249.1444 F15000.0
G1 Z11.9000 F2500.0
G4 P0.02
G1 X180.0000 Y-249.1444 F12000.0
G1 Z0.0000 F2500.0
G4 P0.02
G0 X179.8912 Y-197.8916 F15000.0
G1 Z11.9000 F2500.0
G4 P0.02
G1 X180.0000 Y-197.8916 F12000.0
G1 Z0.0000 F2500.0
G4 P0.02
G0 X179.8188 Y-184.2098 F15000.0
G1 Z11.9000 F2500.0
G4 P0.02
G1 X180.0000 Y-184.2098 F12000.0
G1 Z0.0000 F2500.0
G4 P0.02
G0 X149.9938 Y-191.0145 F15000.0
G1 Z11.9000 F2500.0
G4 P0.02
G1 X141.6688 Y-191.0145 F12000.0
G1 Z0.0000 F2500.0
G4 P0.02
G0 X151.7312 Y-203.9001 F15000.0
G1 Z11.9000 F2500.0
G4 P0.02
G1 X153.8305 Y-198.1088 F12000.0
G1 Z0.0000 F2500.0
G4 P0.02
G0 X152.5275 Y-205.1308 F15000.0
G1 Z11.9000 F2500.0
G4 P0.02
G1 X152.3827 Y-204.5517 F12000.0
G1 X152.0207 Y-204.0449 F12000.0
G1 X151.4416 Y-203.8277 F12000.0
G1 X150.8625 Y-203.9001 F12000.0
G1 X150.3558 Y-204.2621 F12000.0
G1 Z0.0000 F2500.0
G4 P0.02
G0 X153.8305 Y-198.1088 F15000.0
G1 Z11.9000 F2500.0
G4 P0.02
G1 X162.1555 Y-198.1088 F12000.0
G1 Z0.0000 F2500.0
G4 P0.02
G0 X117.9247 Y-189.2772 F15000.0
G1 Z11.9000 F2500.0
G4 P0.02
G1 X106.0525 Y-189.2772 F12000.0
G1 Z0.0000 F2500.0
G4 P0.02
G0 X115.7530 Y-184.2098 F15000.0
G1 Z11.9000 F2500.0
G4 P0.02
G1 X97.8000 Y-184.2098 F12000.0
G1 Z0.0000 F2500.0
G4 P0.02
G0 X117.9247 Y-206.4338 F15000.0
G1 Z11.9000 F2500.0
G4 P0.02
G1 X97.8000 Y-206.4338 F12000.0
G1 Z0.0000 F2500.0
G4 P0.02
G0 X95.6283 Y-214.9759 F15000.0
G1 Z11.9000 F2500.0
G4 P0.02
G1 X95.7731 Y-213.5281 F12000.0
G1 X96.2074 Y-212.1526 F12000.0
G1 X96.9314 Y-210.8496 F12000.0
G1 X97.8724 Y-209.7637 F12000.0
G1 X98.9582 Y-208.8227 F12000.0
G1 X100.2613 Y-208.1712 F12000.0
G1 X101.7092 Y-207.8093 F12000.0
G1 X103.1569 Y-207.6644 F12000.0
G1 X104.6047 Y-207.8093 F12000.0
G1 X105.3287 Y-208.0263 F12000.0
G1 Z0.0000 F2500.0
G4 P0.02
G0 X103.0845 Y-214.5415 F15000.0
G1 Z11.9000 F2500.0
G4 P0.02
G1 X105.9078 Y-206.4338 F12000.0
G1 Z0.0000 F2500.0
G4 P0.02
G0 X99.1031 Y-208.7503 F15000.0
G1 Z11.9000 F2500.0
G4 P0.02
G1 X93.0946 Y-205.1308 F12000.0
G1 X82.3084 Y-205.1308 F12000.0
G1 Z0.0000 F2500.0
G4 P0.02
G0 X86.7242 Y-229.5264 F15000.0
G1 Z11.9000 F2500.0
G4 P0.02
G1 X82.3084 Y-229.5264 F12000.0
G1 Z0.0000 F2500.0
G4 P0.02
G0 X86.7242 Y-219.2470 F15000.0
G1 Z11.9000 F2500.0
G4 P0.02
G1 X82.3084 Y-219.2470 F12000.0
G1 Z0.0000 F2500.0
G4 P0.02
G0 X116.4045 Y-229.7436 F15000.0
G1 Z11.9000 F2500.0
G4 P0.02
G1 X121.7614 Y-224.3867 F12000.0
G1 X130.0864 Y-224.3867 F12000.0
G1 Z0.0000 F2500.0
G4 P0.02
G0 X153.3962 Y-236.3312 F15000.0
G1 Z11.9000 F2500.0
G4 P0.02
G1 X169.6117 Y-236.3312 F12000.0
G1 Z0.0000 F2500.0
G4 P0.02
G0 X147.3878 Y-212.3698 F15000.0
G1 Z11.9000 F2500.0
G4 P0.02
G1 X165.5578 Y-212.3698 F12000.0
G1 Z0.0000 F2500.0
G4 P0.02
G0 X150.8625 Y-210.7048 F15000.0
G1 Z11.9000 F2500.0
G4 P0.02
G1 X165.5578 Y-210.7048 F12000.0
G1 Z0.0000 F2500.0
G4 P0.02
G0 X163.8205 Y-216.6409 F15000.0
G1 Z11.9000 F2500.0
G4 P0.02
G1 X163.8205 Y-223.0837 F12000.0
G1 Z0.0000 F2500.0
G4 P0.02
G0 X115.7530 Y-249.1444 F15000.0
G1 Z11.9000 F2500.0
G4 P0.02
G1 X115.7530 Y-255.6596 F12000.0
G1 Z0.0000 F2500.0
G4 P0.02
G0 X153.3962 Y-249.1444 F15000.0
G1 Z11.9000 F2500.0
G4 P0.02
G1 X153.3962 Y-255.6596 F12000.0
G1 Z0.0000 F2500.0
G4 P0.02
G0 X86.7242 Y-129.9891 F15000.0
G1 Z11.9000 F2500.0
G4 P0.02
G1 X71.3774 Y-129.9891 F12000.0
G1 Z0.0000 F2500.0
G4 P0.02
G0 X86.7242 Y-111.1675 F15000.0
G1 Z11.9000 F2500.0
G4 P0.02
G1 X71.3774 Y-111.1675 F12000.0
G1 Z0.0000 F2500.0
G4 P0.02
G0 X86.7242 Y-129.9891 F15000.0
G1 Z11.9000 F2500.0
G4 P0.02
G1 X86.7242 Y-157.4252 F12000.0
G1 Z0.0000 F2500.0
G4 P0.02
G0 X134.5746 Y-144.5397 F15000.0
G1 Z11.9000 F2500.0
G4 P0.02
G1 X134.5746 Y-157.4252 F12000.0
G1 Z0.0000 F2500.0
G4 P0.02
G0 X179.6741 Y-129.9891 F15000.0
G1 Z11.9000 F2500.0
G4 P0.02
G1 X179.6741 Y-157.4252 F12000.0
G1 Z0.0000 F2500.0
G4 P0.02
G0 X99.5374 Y-129.9891 F15000.0
G1 Z11.9000 F2500.0
G4 P0.02
G1 X99.5374 Y-140.9201 F12000.0
G1 Z0.0000 F2500.0
G4 P0.02
G0 X179.6741 Y-129.9891 F15000.0
G1 Z11.9000 F2500.0
G4 P0.02
G1 X180.0000 Y-129.9891 F12000.0
G1 Z0.0000 F2500.0
G4 P0.02
G0 X179.6741 Y-111.1675 F15000.0
G1 Z11.9000 F2500.0
G4 P0.02
G1 X180.0000 Y-111.1675 F12000.0
G1 Z0.0000 F2500.0
G4 P0.02
G0 X169.4670 Y-129.9891 F15000.0
G1 Z11.9000 F2500.0
G4 P0.02
G1 X169.4670 Y-140.9201 F12000.0
G1 Z0.0000 F2500.0
G4 P0.02
G0 X121.1099 Y-100.8155 F15000.0
G1 Z11.9000 F2500.0
G4 P0.02
G1 X116.2596 Y-93.5765 F12000.0
G1 X104.5323 Y-93.5765 F12000.0
G1 Z0.0000 F2500.0
G4 P0.02
G0 X122.4853 Y-212.5146 F15000.0
G1 Z11.9000 F2500.0
G4 P0.02
G1 X125.4533 Y-215.6274 F12000.0
G1 X125.4533 Y-214.9759 F12000.0
G1 X126.1773 Y-214.7587 F12000.0
G1 X122.4853 Y-212.5146 F12000.0
G1 Z0.0000 F2500.0
G4 P0.02
G0 X123.7424 Y-214.3703 F15000.0
G1 Z11.9000 F2500.0
G4 P0.02
G1 X124.3409 Y-213.7718 F12000.0
G1 Z0.0000 F2500.0
G4 P0.02
G0 X124.1768 Y-214.1169 F15000.0
G1 Z11.9000 F2500.0
G4 P0.02
G1 X124.7753 Y-213.5184 F12000.0
G1 Z0.0000 F2500.0
G4 P0.02
G0 X146.7362 Y-212.5146 F15000.0
G1 Z11.9000 F2500.0
G4 P0.02
G1 X143.0443 Y-214.7587 F12000.0
G1 X143.6958 Y-214.9759 F12000.0
G1 X143.6958 Y-215.6274 F12000.0
G1 X146.7362 Y-212.5146 F12000.0
G1 Z0.0000 F2500.0
G4 P0.02
G0 X144.4824 Y-214.1169 F15000.0
G1 Z11.9000 F2500.0
G4 P0.02
G1 X145.0809 Y-213.5184 F12000.0
G1 Z0.0000 F2500.0
G4 P0.02
G0 X144.8805 Y-214.4064 F15000.0
G1 Z11.9000 F2500.0
G4 P0.02
G1 X145.4790 Y-213.8079 F12000.0
G1 Z0.0000 F2500.0
G4 P0.02
G0 X123.9331 Y-199.7739 F15000.0
G1 Z11.9000 F2500.0
G4 P0.02
G1 X128.2041 Y-200.3530 F12000.0
G1 X127.7698 Y-199.7739 F12000.0
G1 X128.2041 Y-199.2671 F12000.0
G1 X123.9331 Y-199.7739 F12000.0
G1 Z0.0000 F2500.0
G4 P0.02
G0 X125.9734 Y-200.0634 F15000.0
G1 Z11.9000 F2500.0
G4 P0.02
G1 X126.7429 Y-200.0634 F12000.0
G1 Z0.0000 F2500.0
G4 P0.02
G0 X125.6839 Y-199.5567 F15000.0
G1 Z11.9000 F2500.0
G4 P0.02
G1 X126.4534 Y-199.5567 F12000.0
G1 Z0.0000 F2500.0
G4 P0.02
G0 X145.2884 Y-199.7739 F15000.0
G1 Z11.9000 F2500.0
G4 P0.02
G1 X141.0173 Y-199.2671 F12000.0
G1 X141.4517 Y-199.7739 F12000.0
G1 X141.0173 Y-200.3530 F12000.0
G1 X145.2884 Y-199.7739 F12000.0
G1 Z0.0000 F2500.0
G4 P0.02
G0 X142.8043 Y-199.5567 F15000.0
G1 Z11.9000 F2500.0
G4 P0.02
G1 X143.5738 Y-199.5567 F12000.0
G1 Z0.0000 F2500.0
G4 P0.02
G0 X142.5510 Y-200.0634 F15000.0
G1 Z11.9000 F2500.0
G4 P0.02
G1 X143.3205 Y-200.0634 F12000.0
G1 Z0.0000 F2500.0
G4 P0.02
G0 X123.9331 Y-199.7739 F15000.0
G1 Z11.9000 F2500.0
G4 P0.02
G1 X145.2884 Y-199.7739 F12000.0
G1 Z0.0000 F2500.0
G4 P0.02
G0 X170.1908 Y-203.3934 F15000.0
G1 Z11.9000 F2500.0
G4 P0.02
G1 X170.7700 Y-199.1223 F12000.0
G1 X170.1908 Y-199.5567 F12000.0
G1 X169.6117 Y-199.1223 F12000.0
G1 X170.1908 Y-203.3934 F12000.0
G1 Z0.0000 F2500.0
G4 P0.02
G0 X170.4804 Y-201.6788 F15000.0
G1 Z11.9000 F2500.0
G4 P0.02
G1 X170.4804 Y-200.9093 F12000.0
G1 Z0.0000 F2500.0
G4 P0.02
G0 X169.9375 Y-201.4254 F15000.0
G1 Z11.9000 F2500.0
G4 P0.02
G1 X169.9375 Y-200.6559 F12000.0
G1 Z0.0000 F2500.0
G4 P0.02
G0 X170.1908 Y-192.3176 F15000.0
G1 Z11.9000 F2500.0
G4 P0.02
G1 X169.6117 Y-196.5886 F12000.0
G1 X170.1908 Y-196.1543 F12000.0
G1 X170.7700 Y-196.5886 F12000.0
G1 X170.1908 Y-192.3176 F12000.0
G1 Z0.0000 F2500.0
G4 P0.02
G0 X169.9375 Y-195.1274 F15000.0
G1 Z11.9000 F2500.0
G4 P0.02
G1 X169.9375 Y-194.3579 F12000.0
G1 Z0.0000 F2500.0
G4 P0.02
G0 X170.4804 Y-194.8741 F15000.0
G1 Z11.9000 F2500.0
G4 P0.02
G1 X170.4804 Y-194.1045 F12000.0
G1 Z0.0000 F2500.0
G4 P0.02
G0 X170.1908 Y-203.3934 F15000.0
G1 Z11.9000 F2500.0
G4 P0.02
G1 X170.1908 Y-192.3176 F12000.0
G1 Z0.0000 F2500.0
G4 P0.02
G0 X152.4551 Y-190.2183 F15000.0
G1 Z11.9000 F2500.0
G4 P0.02
G1 X156.3642 Y-188.2637 F12000.0
G1 X156.1470 Y-188.9876 F12000.0
G1 X156.7262 Y-189.3496 F12000.0
G1 X152.4551 Y-190.2183 F12000.0
G1 X158.1740 Y-188.2637 F12000.0
G1 Z0.0000 F2500.0
G4 P0.02
G0 X154.0973 Y-189.2772 F15000.0
G1 Z11.9000 F2500.0
G4 P0.02
G1 X154.8668 Y-189.2772 F12000.0
G1 Z0.0000 F2500.0
G4 P0.02
G0 X154.3145 Y-189.6029 F15000.0
G1 Z11.9000 F2500.0
G4 P0.02
G1 X155.0840 Y-189.6029 F12000.0
G1 Z0.0000 F2500.0
G4 P0.02
G0 X149.9938 Y-191.0145 F15000.0
G1 Z11.9000 F2500.0
G4 P0.02
G1 X152.4551 Y-190.2183 F12000.0
G1 Z0.0000 F2500.0
G4 P0.02
G0 X151.7312 Y-203.9001 F15000.0
G1 Z11.9000 F2500.0
G4 P0.02
G1 X152.6722 Y-199.7014 F12000.0
G1 X153.0342 Y-200.2805 F12000.0
G1 X153.6858 Y-200.0634 F12000.0
G1 X151.7312 Y-203.9001 F12000.0
G1 X153.7581 Y-198.3260 F12000.0
G1 Z0.0000 F2500.0
G4 P0.02
G0 X152.4189 Y-202.1493 F15000.0
G1 Z11.9000 F2500.0
G4 P0.02
G1 X152.4189 Y-201.3798 F12000.0
G1 Z0.0000 F2500.0
G4 P0.02
G0 X152.7085 Y-202.3665 F15000.0
G1 Z11.9000 F2500.0
G4 P0.02
G1 X152.7085 Y-201.5970 F12000.0
G1 Z0.0000 F2500.0
G4 P0.02
G0 X151.2969 Y-205.1308 F15000.0
G1 Z11.9000 F2500.0
G4 P0.02
G1 X151.7312 Y-203.9001 F12000.0
G1 Z0.0000 F2500.0
G4 P0.02
G0 X107.7176 Y-189.2772 F15000.0
G1 Z11.9000 F2500.0
G4 P0.02
G1 X108.2967 Y-193.5482 F12000.0
G1 X107.7176 Y-193.1863 F12000.0
G1 X107.1384 Y-193.5482 F12000.0
G1 X107.7176 Y-189.2772 F12000.0
G1 X107.7176 Y-195.2856 F12000.0
G1 Z0.0000 F2500.0
G4 P0.02
G0 X108.0071 Y-191.8336 F15000.0
G1 Z11.9000 F2500.0
G4 P0.02
G1 X108.0071 Y-191.0641 F12000.0
G1 Z0.0000 F2500.0
G4 P0.02
G0 X107.4641 Y-192.0870 F15000.0
G1 Z11.9000 F2500.0
G4 P0.02
G1 X107.4641 Y-191.3175 F12000.0
G1 Z0.0000 F2500.0
G4 P0.02
G0 X107.7176 Y-184.2098 F15000.0
G1 Z11.9000 F2500.0
G4 P0.02
G1 X107.1384 Y-179.8663 F12000.0
G1 X107.7176 Y-180.3007 F12000.0
G1 X108.2967 Y-179.8663 F12000.0
G1 X107.7176 Y-184.2098 F12000.0
G1 X107.7176 Y-178.2013 F12000.0
G1 Z0.0000 F2500.0
G4 P0.02
G0 X107.4641 Y-182.2056 F15000.0
G1 Z11.9000 F2500.0
G4 P0.02
G1 X107.4641 Y-181.4361 F12000.0
G1 Z0.0000 F2500.0
G4 P0.02
G0 X108.0071 Y-182.4590 F15000.0
G1 Z11.9000 F2500.0
G4 P0.02
G1 X108.0071 Y-181.6895 F12000.0
G1 Z0.0000 F2500.0
G4 P0.02
G0 X107.7176 Y-189.2772 F15000.0
G1 Z11.9000 F2500.0
G4 P0.02
G1 X107.7176 Y-184.2098 F12000.0
G1 Z0.0000 F2500.0
G4 P0.02
G0 X99.5374 Y-184.2098 F15000.0
G1 Z11.9000 F2500.0
G4 P0.02
G1 X98.9582 Y-188.4809 F12000.0
G1 X99.5374 Y-188.0465 F12000.0
G1 X100.1165 Y-188.4809 F12000.0
G1 X99.5374 Y-184.2098 F12000.0
G1 Z0.0000 F2500.0
G4 P0.02
G0 X99.2840 Y-187.0197 F15000.0
G1 Z11.9000 F2500.0
G4 P0.02
G1 X99.2840 Y-186.2502 F12000.0
G1 Z0.0000 F2500.0
G4 P0.02
G0 X99.8269 Y-186.7662 F15000.0
G1 Z11.9000 F2500.0
G4 P0.02
G1 X99.8269 Y-185.9967 F12000.0
G1 Z0.0000 F2500.0
G4 P0.02
G0 X99.5374 Y-206.4338 F15000.0
G1 Z11.9000 F2500.0
G4 P0.02
G1 X100.1165 Y-202.1628 F12000.0
G1 X99.5374 Y-202.5247 F12000.0
G1 X98.9582 Y-202.1628 F12000.0
G1 X99.5374 Y-206.4338 F12000.0
G1 Z0.0000 F2500.0
G4 P0.02
G0 X99.8269 Y-204.7192 F15000.0
G1 Z11.9000 F2500.0
G4 P0.02
G1 X99.8269 Y-203.9497 F12000.0
G1 Z0.0000 F2500.0
G4 P0.02
G0 X99.2840 Y-204.4658 F15000.0
G1 Z11.9000 F2500.0
G4 P0.02
G1 X99.2840 Y-203.6963 F12000.0
G1 Z0.0000 F2500.0
G4 P0.02
G0 X99.5374 Y-184.2098 F15000.0
G1 Z11.9000 F2500.0
G4 P0.02
G1 X99.5374 Y-206.4338 F12000.0
G1 Z0.0000 F2500.0
G4 P0.02
G0 X95.6283 Y-214.9759 F15000.0
G1 Z11.9000 F2500.0
G4 P0.02
G1 X97.3657 Y-210.9944 F12000.0
G1 X96.6418 Y-211.2116 F12000.0
G1 X96.2798 Y-210.7048 F12000.0
G1 X95.6283 Y-214.9759 F12000.0
G1 Z0.0000 F2500.0
G4 P0.02
G0 X96.5332 Y-213.3337 F15000.0
G1 Z11.9000 F2500.0
G4 P0.02
G1 X96.5332 Y-212.5642 F12000.0
G1 Z0.0000 F2500.0
G4 P0.02
G0 X96.1713 Y-213.1527 F15000.0
G1 Z11.9000 F2500.0
G4 P0.02
G1 X96.1713 Y-212.3832 F12000.0
G1 Z0.0000 F2500.0
G4 P0.02
G0 X105.3287 Y-208.0263 F15000.0
G1 Z11.9000 F2500.0
G4 P0.02
G1 X101.1300 Y-207.2301 F12000.0
G1 X101.4920 Y-207.8093 F12000.0
G1 X101.0576 Y-208.3159 F12000.0
G1 X105.3287 Y-208.0263 F12000.0
G1 Z0.0000 F2500.0
G4 P0.02
G0 X102.6998 Y-207.6282 F15000.0
G1 Z11.9000 F2500.0
G4 P0.02
G1 X103.4693 Y-207.6282 F12000.0
G1 Z0.0000 F2500.0
G4 P0.02
G0 X102.8446 Y-208.0626 F15000.0
G1 Z11.9000 F2500.0
G4 P0.02
G1 X103.6141 Y-208.0626 F12000.0
G1 Z0.0000 F2500.0
G4 P0.02
G0 X83.9733 Y-229.5264 F15000.0
G1 Z11.9000 F2500.0
G4 P0.02
G1 X84.5525 Y-225.1830 F12000.0
G1 X83.9733 Y-225.6173 F12000.0
G1 X83.3942 Y-225.1830 F12000.0
G1 X83.9733 Y-229.5264 F12000.0
G1 Z0.0000 F2500.0
G4 P0.02
G0 X84.2629 Y-227.7757 F15000.0
G1 Z11.9000 F2500.0
G4 P0.02
G1 X84.2629 Y-227.0062 F12000.0
G1 Z0.0000 F2500.0
G4 P0.02
G0 X83.7200 Y-227.5223 F15000.0
G1 Z11.9000 F2500.0
G4 P0.02
G1 X83.7200 Y-226.7528 F12000.0
G1 Z0.0000 F2500.0
G4 P0.02
G0 X83.9733 Y-219.2470 F15000.0
G1 Z11.9000 F2500.0
G4 P0.02
G1 X83.3942 Y-223.5180 F12000.0
G1 X83.9733 Y-223.0837 F12000.0
G1 X84.5525 Y-223.5180 F12000.0
G1 X83.9733 Y-219.2470 F12000.0
G1 Z0.0000 F2500.0
G4 P0.02
G0 X83.7200 Y-222.0568 F15000.0
G1 Z11.9000 F2500.0
G4 P0.02
G1 X83.7200 Y-221.2873 F12000.0
G1 Z0.0000 F2500.0
G4 P0.02
G0 X84.2629 Y-221.8035 F15000.0
G1 Z11.9000 F2500.0
G4 P0.02
G1 X84.2629 Y-221.0340 F12000.0
G1 Z0.0000 F2500.0
G4 P0.02
G0 X83.9733 Y-229.5264 F15000.0
G1 Z11.9000 F2500.0
G4 P0.02
G1 X83.9733 Y-219.2470 F12000.0
G1 Z0.0000 F2500.0
G4 P0.02
G0 X116.4045 Y-229.7436 F15000.0
G1 Z11.9000 F2500.0
G4 P0.02
G1 X119.0106 Y-226.3413 F12000.0
G1 X119.0829 Y-226.9928 F12000.0
G1 X119.8068 Y-227.1375 F12000.0
G1 X116.4045 Y-229.7436 F12000.0
G1 Z0.0000 F2500.0
G4 P0.02
G0 X117.5892 Y-228.2331 F15000.0
G1 Z11.9000 F2500.0
G4 P0.02
G1 X118.1877 Y-227.6346 F12000.0
G1 Z0.0000 F2500.0
G4 P0.02
G0 X117.8426 Y-228.6675 F15000.0
G1 Z11.9000 F2500.0
G4 P0.02
G1 X118.4411 Y-228.0690 F12000.0
G1 Z0.0000 F2500.0
G4 P0.02
G0 X115.7530 Y-230.3228 F15000.0
G1 Z11.9000 F2500.0
G4 P0.02
G1 X116.4045 Y-229.7436 F12000.0
G1 Z0.0000 F2500.0
G4 P0.02
G0 X167.9467 Y-249.1444 F15000.0
G1 Z11.9000 F2500.0
G4 P0.02
G1 X168.4534 Y-244.8733 F12000.0
G1 X167.9467 Y-245.3076 F12000.0
G1 Z0.0000 F2500.0
G4 P0.02
G0 X166.4077 Y-245.2780 F15000.0
G1 Z11.9000 F2500.0
G4 P0.02
G1 X165.8285 Y-244.8437 F12000.0
G1 Z0.0000 F2500.0
G4 P0.02
G0 X167.3676 Y-244.8733 F15000.0
G1 Z11.9000 F2500.0
G4 P0.02
G1 X167.9467 Y-249.1444 F12000.0
G1 Z0.0000 F2500.0
G4 P0.02
G0 X168.2001 Y-247.4298 F15000.0
G1 Z11.9000 F2500.0
G4 P0.02
G1 X168.2001 Y-246.6603 F12000.0
G1 Z0.0000 F2500.0
G4 P0.02
G0 X167.6933 Y-247.1764 F15000.0
G1 Z11.9000 F2500.0
G4 P0.02
G1 X167.6933 Y-246.4069 F12000.0
G1 Z0.0000 F2500.0
G4 P0.02
G0 X167.9467 Y-236.3312 F15000.0
G1 Z11.9000 F2500.0
G4 P0.02
G1 X167.3676 Y-240.6022 F12000.0
G1 Z0.0000 F2500.0
G4 P0.02
G0 X165.8285 Y-240.5727 F15000.0
G1 Z11.9000 F2500.0
G4 P0.02
G1 X166.4077 Y-240.1383 F12000.0
G1 Z0.0000 F2500.0
G4 P0.02
G0 X167.9467 Y-240.1679 F15000.0
G1 Z11.9000 F2500.0
G4 P0.02
G1 X168.4534 Y-240.6022 F12000.0
G1 X167.9467 Y-236.3312 F12000.0
G1 Z0.0000 F2500.0
G4 P0.02
G0 X167.6933 Y-239.1410 F15000.0
G1 Z11.9000 F2500.0
G4 P0.02
G1 X167.6933 Y-238.3715 F12000.0
G1 Z0.0000 F2500.0
G4 P0.02
G0 X168.2001 Y-238.8877 F15000.0
G1 Z11.9000 F2500.0
G4 P0.02
G1 X168.2001 Y-238.1182 F12000.0
G1 Z0.0000 F2500.0
G4 P0.02
G0 X167.9467 Y-249.1444 F15000.0
G1 Z11.9000 F2500.0
G4 P0.02
G1 X167.9467 Y-236.3312 F12000.0
G1 Z0.0000 F2500.0
G4 P0.02
G0 X163.8205 Y-212.3698 F15000.0
G1 Z11.9000 F2500.0
G4 P0.02
G1 X164.3996 Y-216.6409 F12000.0
G1 X163.8205 Y-216.2066 F12000.0
G1 X163.2414 Y-216.6409 F12000.0
G1 X163.8205 Y-212.3698 F12000.0
G1 X163.8205 Y-218.3783 F12000.0
G1 Z0.0000 F2500.0
G4 P0.02
G0 X164.1101 Y-214.9263 F15000.0
G1 Z11.9000 F2500.0
G4 P0.02
G1 X164.1101 Y-214.1568 F12000.0
G1 Z0.0000 F2500.0
G4 P0.02
G0 X163.5671 Y-215.1797 F15000.0
G1 Z11.9000 F2500.0
G4 P0.02
G1 X163.5671 Y-214.4102 F12000.0
G1 Z0.0000 F2500.0
G4 P0.02
G0 X163.8205 Y-210.7048 F15000.0
G1 Z11.9000 F2500.0
G4 P0.02
G1 X163.2414 Y-206.4338 F12000.0
G1 X163.8205 Y-206.8681 F12000.0
G1 X164.3996 Y-206.4338 F12000.0
G1 X163.8205 Y-210.7048 F12000.0
G1 X163.8205 Y-204.6964 F12000.0
G1 Z0.0000 F2500.0
G4 P0.02
G0 X163.5671 Y-208.7369 F15000.0
G1 Z11.9000 F2500.0
G4 P0.02
G1 X163.5671 Y-207.9673 F12000.0
G1 Z0.0000 F2500.0
G4 P0.02
G0 X164.1101 Y-208.9903 F15000.0
G1 Z11.9000 F2500.0
G4 P0.02
G1 X164.1101 Y-208.2208 F12000.0
G1 Z0.0000 F2500.0
G4 P0.02
G0 X163.8205 Y-212.3698 F15000.0
G1 Z11.9000 F2500.0
G4 P0.02
G1 X163.8205 Y-210.7048 F12000.0
G1 Z0.0000 F2500.0
G4 P0.02
G0 X115.7530 Y-253.9222 F15000.0
G1 Z11.9000 F2500.0
G4 P0.02
G1 X120.0240 Y-254.5013 F12000.0
G1 X119.6621 Y-253.9222 F12000.0
G1 X120.0240 Y-253.4154 F12000.0
G1 X115.7530 Y-253.9222 F12000.0
G1 Z0.0000 F2500.0
G4 P0.02
G0 X117.7933 Y-254.2117 F15000.0
G1 Z11.9000 F2500.0
G4 P0.02
G1 X118.5628 Y-254.2117 F12000.0
G1 Z0.0000 F2500.0
G4 P0.02
G0 X117.5037 Y-253.7050 F15000.0
G1 Z11.9000 F2500.0
G4 P0.02
G1 X118.2732 Y-253.7050 F12000.0
G1 Z0.0000 F2500.0
G4 P0.02
G0 X153.3962 Y-253.9222 F15000.0
G1 Z11.9000 F2500.0
G4 P0.02
G1 X149.1251 Y-253.4154 F12000.0
G1 X149.5595 Y-253.9222 F12000.0
G1 X149.1251 Y-254.5013 F12000.0
G1 X153.3962 Y-253.9222 F12000.0
G1 Z0.0000 F2500.0
G4 P0.02
G0 X150.9121 Y-253.7050 F15000.0
G1 Z11.9000 F2500.0
G4 P0.02
G1 X151.6816 Y-253.7050 F12000.0
G1 Z0.0000 F2500.0
G4 P0.02
G0 X150.6587 Y-254.2117 F15000.0
G1 Z11.9000 F2500.0
G4 P0.02
G1 X151.4282 Y-254.2117 F12000.0
G1 Z0.0000 F2500.0
G4 P0.02
G0 X115.7530 Y-253.9222 F15000.0
G1 Z11.9000 F2500.0
G4 P0.02
G1 X153.3962 Y-253.9222 F12000.0
G1 Z0.0000 F2500.0
G4 P0.02
G0 X73.0424 Y-129.9891 F15000.0
G1 Z11.9000 F2500.0
G4 P0.02
G1 X73.6215 Y-125.7180 F12000.0
G1 X73.0424 Y-126.1523 F12000.0
G1 X72.5356 Y-125.7180 F12000.0
G1 X73.0424 Y-129.9891 F12000.0
G1 Z0.0000 F2500.0
G4 P0.02
G0 X73.3320 Y-128.2745 F15000.0
G1 Z11.9000 F2500.0
G4 P0.02
G1 X73.3320 Y-127.5049 F12000.0
G1 Z0.0000 F2500.0
G4 P0.02
G0 X72.8252 Y-127.9849 F15000.0
G1 Z11.9000 F2500.0
G4 P0.02
G1 X72.8252 Y-127.2154 F12000.0
G1 Z0.0000 F2500.0
G4 P0.02
G0 X73.0424 Y-111.1675 F15000.0
G1 Z11.9000 F2500.0
G4 P0.02
G1 X72.5356 Y-115.4385 F12000.0
G1 X73.0424 Y-115.0766 F12000.0
G1 X73.6215 Y-115.4385 F12000.0
G1 X73.0424 Y-111.1675 F12000.0
G1 Z0.0000 F2500.0
G4 P0.02
G0 X72.8252 Y-114.0135 F15000.0
G1 Z11.9000 F2500.0
G4 P0.02
G1 X72.8252 Y-113.2440 F12000.0
G1 Z0.0000 F2500.0
G4 P0.02
G0 X73.3320 Y-113.7240 F15000.0
G1 Z11.9000 F2500.0
G4 P0.02
G1 X73.3320 Y-112.9545 F12000.0
G1 Z0.0000 F2500.0
G4 P0.02
G0 X73.0424 Y-129.9891 F15000.0
G1 Z11.9000 F2500.0
G4 P0.02
G1 X73.0424 Y-111.1675 F12000.0
G1 Z0.0000 F2500.0
G4 P0.02
G0 X86.7242 Y-155.6878 F15000.0
G1 Z11.9000 F2500.0
G4 P0.02
G1 X90.9953 Y-156.2669 F12000.0
G1 X90.5609 Y-155.6878 F12000.0
G1 X90.9953 Y-155.1087 F12000.0
G1 X86.7242 Y-155.6878 F12000.0
G1 Z0.0000 F2500.0
G4 P0.02
G0 X88.7646 Y-155.9774 F15000.0
G1 Z11.9000 F2500.0
G4 P0.02
G1 X89.5341 Y-155.9774 F12000.0
G1 Z0.0000 F2500.0
G4 P0.02
G0 X88.4750 Y-155.4345 F15000.0
G1 Z11.9000 F2500.0
G4 P0.02
G1 X89.2445 Y-155.4345 F12000.0
G1 Z0.0000 F2500.0
G4 P0.02
G0 X134.5746 Y-155.6878 F15000.0
G1 Z11.9000 F2500.0
G4 P0.02
G1 X130.3035 Y-155.1087 F12000.0
G1 X130.7379 Y-155.6878 F12000.0
G1 X130.3035 Y-156.2669 F12000.0
G1 X134.5746 Y-155.6878 F12000.0
G1 Z0.0000 F2500.0
G4 P0.02
G0 X132.0905 Y-155.4345 F15000.0
G1 Z11.9000 F2500.0
G4 P0.02
G1 X132.8600 Y-155.4345 F12000.0
G1 Z0.0000 F2500.0
G4 P0.02
G0 X131.8371 Y-155.9774 F15000.0
G1 Z11.9000 F2500.0
G4 P0.02
G1 X132.6066 Y-155.9774 F12000.0
G1 Z0.0000 F2500.0
G4 P0.02
G0 X86.7242 Y-155.6878 F15000.0
G1 Z11.9000 F2500.0
G4 P0.02
G1 X134.5746 Y-155.6878 F12000.0
G1 X138.8456 Y-156.2669 F12000.0
G1 X138.4113 Y-155.6878 F12000.0
G1 X138.8456 Y-155.1087 F12000.0
G1 X134.5746 Y-155.6878 F12000.0
G1 Z0.0000 F2500.0
G4 P0.02
G0 X136.6149 Y-155.9774 F15000.0
G1 Z11.9000 F2500.0
G4 P0.02
G1 X137.3844 Y-155.9774 F12000.0
G1 Z0.0000 F2500.0
G4 P0.02
G0 X136.3253 Y-155.4345 F15000.0
G1 Z11.9000 F2500.0
G4 P0.02
G1 X137.0948 Y-155.4345 F12000.0
G1 Z0.0000 F2500.0
G4 P0.02
G0 X179.6741 Y-155.6878 F15000.0
G1 Z11.9000 F2500.0
G4 P0.02
G1 X175.4029 Y-155.1087 F12000.0
G1 X175.8373 Y-155.6878 F12000.0
G1 X175.4029 Y-156.2669 F12000.0
G1 X179.6741 Y-155.6878 F12000.0
G1 Z0.0000 F2500.0
G4 P0.02
G0 X177.1899 Y-155.4345 F15000.0
G1 Z11.9000 F2500.0
G4 P0.02
G1 X177.9594 Y-155.4345 F12000.0
G1 Z0.0000 F2500.0
G4 P0.02
G0 X176.9366 Y-155.9774 F15000.0
G1 Z11.9000 F2500.0
G4 P0.02
G1 X177.7061 Y-155.9774 F12000.0
G1 Z0.0000 F2500.0
G4 P0.02
G0 X134.5746 Y-155.6878 F15000.0
G1 Z11.9000 F2500.0
G4 P0.02
G1 X179.6741 Y-155.6878 F12000.0
G1 Z0.0000 F2500.0
G4 P0.02
G0 X86.7242 Y-139.1827 F15000.0
G1 Z11.9000 F2500.0
G4 P0.02
G1 X90.9953 Y-139.7619 F12000.0
G1 Z0.0000 F2500.0
G4 P0.02
G0 X90.9513 Y-141.3009 F15000.0
G1 Z11.9000 F2500.0
G4 P0.02
G1 X90.5170 Y-140.7217 F12000.0
G1 Z0.0000 F2500.0
G4 P0.02
G0 X90.5609 Y-139.1827 F15000.0
G1 Z11.9000 F2500.0
G4 P0.02
G1 X90.9953 Y-138.6760 F12000.0
G1 X86.7242 Y-139.1827 F12000.0
G1 Z0.0000 F2500.0
G4 P0.02
G0 X88.7646 Y-139.4723 F15000.0
G1 Z11.9000 F2500.0
G4 P0.02
G1 X89.5341 Y-139.4723 F12000.0
G1 Z0.0000 F2500.0
G4 P0.02
G0 X88.4750 Y-138.9655 F15000.0
G1 Z11.9000 F2500.0
G4 P0.02
G1 X89.2445 Y-138.9655 F12000.0
G1 Z0.0000 F2500.0
G4 P0.02
G0 X99.5374 Y-139.1827 F15000.0
G1 Z11.9000 F2500.0
G4 P0.02
G1 X95.2663 Y-138.6760 F12000.0
G1 X95.7007 Y-139.1827 F12000.0
G1 Z0.0000 F2500.0
G4 P0.02
G0 X95.6567 Y-140.7217 F15000.0
G1 Z11.9000 F2500.0
G4 P0.02
G1 X95.2224 Y-141.3009 F12000.0
G1 Z0.0000 F2500.0
G4 P0.02
G0 X95.2663 Y-139.7619 F15000.0
G1 Z11.9000 F2500.0
G4 P0.02
G1 X99.5374 Y-139.1827 F12000.0
G1 Z0.0000 F2500.0
G4 P0.02
G0 X97.0533 Y-138.9655 F15000.0
G1 Z11.9000 F2500.0
G4 P0.02
G1 X97.8228 Y-138.9655 F12000.0
G1 Z0.0000 F2500.0
G4 P0.02
G0 X96.7999 Y-139.4723 F15000.0
G1 Z11.9000 F2500.0
G4 P0.02
G1 X97.5695 Y-139.4723 F12000.0
G1 Z0.0000 F2500.0
G4 P0.02
G0 X86.7242 Y-139.1827 F15000.0
G1 Z11.9000 F2500.0
G4 P0.02
G1 X99.5374 Y-139.1827 F12000.0
G1 Z0.0000 F2500.0
G4 P0.02
G0 X179.6741 Y-139.1827 F15000.0
G1 Z11.9000 F2500.0
G4 P0.02
G1 X175.4029 Y-138.6760 F12000.0
G1 X175.8373 Y-139.1827 F12000.0
G1 Z0.0000 F2500.0
G4 P0.02
G0 X176.7029 Y-140.7217 F15000.0
G1 Z11.9000 F2500.0
G4 P0.02
G1 X176.2686 Y-141.3009 F12000.0
G1 Z0.0000 F2500.0
G4 P0.02
G0 X175.4029 Y-139.7619 F15000.0
G1 Z11.9000 F2500.0
G4 P0.02
G1 X179.6741 Y-139.1827 F12000.0
G1 Z0.0000 F2500.0
G4 P0.02
G0 X177.1899 Y-138.9655 F15000.0
G1 Z11.9000 F2500.0
G4 P0.02
G1 X177.9594 Y-138.9655 F12000.0
G1 Z0.0000 F2500.0
G4 P0.02
G0 X176.9366 Y-139.4723 F15000.0
G1 Z11.9000 F2500.0
G4 P0.02
G1 X177.7061 Y-139.4723 F12000.0
G1 Z0.0000 F2500.0
G4 P0.02
G0 X169.4670 Y-139.1827 F15000.0
G1 Z11.9000 F2500.0
G4 P0.02
G1 X173.7380 Y-139.7619 F12000.0
G1 Z0.0000 F2500.0
G4 P0.02
G0 X174.6036 Y-141.3009 F15000.0
G1 Z11.9000 F2500.0
G4 P0.02
G1 X174.1693 Y-140.7217 F12000.0
G1 Z0.0000 F2500.0
G4 P0.02
G0 X173.3036 Y-139.1827 F15000.0
G1 Z11.9000 F2500.0
G4 P0.02
G1 X173.7380 Y-138.6760 F12000.0
G1 X169.4670 Y-139.1827 F12000.0
G1 Z0.0000 F2500.0
G4 P0.02
G0 X172.3729 Y-141.0113 F15000.0
G1 Z11.9000 F2500.0
G4 P0.02
G1 X173.1424 Y-141.0113 F12000.0
G1 Z0.0000 F2500.0
G4 P0.02
G0 X171.2177 Y-138.9655 F15000.0
G1 Z11.9000 F2500.0
G4 P0.02
G1 X171.9872 Y-138.9655 F12000.0
G1 Z0.0000 F2500.0
G4 P0.02
G0 X179.6741 Y-139.1827 F15000.0
G1 Z11.9000 F2500.0
G4 P0.02
G1 X169.4670 Y-139.1827 F12000.0
G1 Z0.0000 F2500.0
G4 P0.02
G0 X148.0393 Y-140.4134 F15000.0
G1 Z11.9000 F2500.0
G4 P0.02
G1 X146.0847 Y-136.5766 F12000.0
G1 X145.8675 Y-137.2281 F12000.0
G1 X145.1436 Y-137.1558 F12000.0
G1 X148.0393 Y-140.4134 F12000.0
G1 Z0.0000 F2500.0
G4 P0.02
G0 X146.9172 Y-138.8436 F15000.0
G1 Z11.9000 F2500.0
G4 P0.02
G1 X146.9172 Y-138.0741 F12000.0
G1 Z0.0000 F2500.0
G4 P0.02
G0 X146.2560 Y-138.9753 F15000.0
G1 Z11.9000 F2500.0
G4 P0.02
G1 X146.8545 Y-138.3767 F12000.0
G1 Z0.0000 F2500.0
G4 P0.02
G0 X121.1099 Y-100.8155 F15000.0
G1 Z11.9000 F2500.0
G4 P0.02
G1 X123.0644 Y-104.6523 F12000.0
G1 X123.2816 Y-104.0008 F12000.0
G1 X124.0055 Y-104.0008 F12000.0
G1 X121.1099 Y-100.8155 F12000.0
G1 Z0.0000 F2500.0
G4 P0.02
G0 X122.3043 Y-103.2634 F15000.0
G1 Z11.9000 F2500.0
G4 P0.02
G1 X122.3043 Y-102.4939 F12000.0
G1 Z0.0000 F2500.0
G4 P0.02
G0 X122.4032 Y-102.8884 F15000.0
G1 Z11.9000 F2500.0
G4 P0.02
G1 X123.0017 Y-102.2899 F12000.0
G1 Z0.0000 F2500.0
G4 P0.02
G0 X148.0393 Y-140.4134 F15000.0
G1 Z11.9000 F2500.0
G4 P0.02
G1 X121.1099 Y-100.8155 F12000.0
G1 Z0.0000 F2500.0
G4 P0.02
G0 X20.5203 Y-277.7388 F15000.0
G1 Z11.9000 F2500.0
G4 P0.02
G1 X180.0000 Y-277.7388 F12000.0
G1 Z0.0000 F2500.0
G4 P0.02
G0 X180.0000 Y-32.3338 F15000.0
G1 Z11.9000 F2500.0
G4 P0.02
G1 X20.5203 Y-32.3338 F12000.0
G1 Z0.0000 F2500.0
G4 P0.02
G0 X77.3858 Y-265.7943 F15000.0
G1 Z11.9000 F2500.0
G4 P0.02
G1 X20.5203 Y-265.7943 F12000.0
G1 Z0.0000 F2500.0
G4 P0.02
G0 X77.3858 Y-277.7388 F15000.0
G1 Z11.9000 F2500.0
G4 P0.02
G1 X77.3858 Y-265.7943 F12000.0
G1 Z0.0000 F2500.0
G4 P0.02

G0 Z0.0000 F800.0
G4 P0.06
G0 X0.0000 Y0.0000 F15000.0
M5
G4 P0.10
