$X
$1=255
G21
G90
G92 Z4.0000
G0 Z0.0000 F800.0
G4 P0.06
G92 Z0.0000
G0 Z0.0000 F800.0
G0 X0.0000 Y0.0000 F15000.0
G21
G90
G17
G91.1
G0 Z0.0000
G0 X0.0000 Y-5.0000 F15000.0
G1 Z11.9000 F8000.0
G1 X180.0000 Y-5.0000 F12000.0
G1 X180.0000 Y-285.0000
G1 X0.0000 Y-285.0000
G1 X0.0000 Y-5.0000
G1 Z0.0000 F8000.0
G0 X160.1542 Y-197.1826 F15000.0
G1 Z11.9000 F8000.0
G1 X160.6407 Y-197.1826 F12000.0
G1 X160.7291 Y-197.0057
G1 X163.2500 Y-195.9443
G1 Z0.0000 F8000.0
G0 X163.2943 Y-197.8902 F15000.0
G1 Z11.9000 F8000.0
G1 X160.7291 Y-198.7306 F12000.0
G1 X160.9503 Y-198.3767
G1 X161.4810 Y-197.8018
G1 X161.6579 Y-197.4480
G1 X161.8348 Y-197.3595
G1 Z0.0000 F8000.0
G0 X161.6579 Y-197.4480 F15000.0
G1 Z11.9000 F8000.0
G1 X161.3483 Y-197.3595 F12000.0
G1 Z0.0000 F8000.0
G0 X161.0829 Y-197.2711 F15000.0
G1 Z11.9000 F8000.0
G1 X160.7291 Y-197.1826 F12000.0
G1 Z0.0000 F8000.0
G0 X160.4638 Y-198.9517 F15000.0
G1 Z11.9000 F8000.0
G1 X160.3753 Y-199.0401 F12000.0
G1 Z0.0000 F8000.0
G0 X160.7733 Y-199.5709 F15000.0
G1 Z11.9000 F8000.0
G1 X160.5964 Y-199.8805 F12000.0
G1 Z0.0000 F8000.0
G0 X160.6849 Y-200.1458 F15000.0
G1 Z11.9000 F8000.0
G1 X163.2943 Y-199.2171 F12000.0
G1 Z0.0000 F8000.0
G0 X163.4712 Y-199.7035 F15000.0
G1 Z11.9000 F8000.0
G1 X163.3385 Y-200.0131 F12000.0
G1 Z0.0000 F8000.0
G0 X163.4712 Y-201.3399 F15000.0
G1 Z11.9000 F8000.0
G1 X163.3385 Y-200.0131 F12000.0
G1 X163.1174 Y-200.1016
G1 X161.5252 Y-201.6938
G1 Z0.0000 F8000.0
G0 X161.2156 Y-201.9591 F15000.0
G1 Z11.9000 F8000.0
G1 X160.6849 Y-202.1803 F12000.0
G1 X160.5522 Y-202.0918
G1 Z0.0000 F8000.0
G0 X160.4195 Y-202.0033 F15000.0
G1 Z11.9000 F8000.0
G1 X160.3753 Y-201.2515 F12000.0
G1 X160.7291 Y-200.7208
G1 Z0.0000 F8000.0
G0 X165.5835 Y-204.8901 F15000.0
G1 Z11.9000 F8000.0
G1 X165.5835 Y-193.6041 F12000.0
G1 Z0.0000 F8000.0
G0 X165.5835 Y-193.1098 F15000.0
G1 Z11.9000 F8000.0
G1 X166.1602 Y-193.6041 F12000.0
G1 X165.5835 Y-188.7437 F12000.0
G1 X164.9245 Y-193.6041 F12000.0
G1 X165.5835 Y-193.1098 F12000.0
G1 Z0.0000 F8000.0
G0 X165.2952 Y-191.9413 F15000.0
G1 Z11.9000 F8000.0
G1 X165.2952 Y-191.0656 F12000.0
G1 Z0.0000 F8000.0
G0 X165.8718 Y-190.7772 F15000.0
G1 Z11.9000 F8000.0
G1 X165.8718 Y-191.6529 F12000.0
G1 Z0.0000 F8000.0
G0 X165.5835 Y-188.7437 F15000.0
G1 Z11.9000 F8000.0
G1 X165.5835 Y-195.4988 F12000.0
G1 Z0.0000 F8000.0
G0 X160.5583 Y-193.6041 F15000.0
G1 Z11.9000 F8000.0
G1 X153.8032 Y-193.6041 F12000.0
G1 X158.6636 Y-192.9451 F12000.0
G1 X158.1693 Y-193.6041 F12000.0
G1 X158.6636 Y-194.2631 F12000.0
G1 X153.8032 Y-193.6041 F12000.0
G1 X146.9657 Y-193.6041 F12000.0
G1 X142.1053 Y-194.2631 F12000.0
G1 X142.5995 Y-193.6041 F12000.0
G1 X142.1053 Y-192.9451 F12000.0
G1 X146.9657 Y-193.6041 F12000.0
G1 X140.1281 Y-193.6041 F12000.0
G1 Z0.0000 F8000.0
G0 X139.6339 Y-191.1327 F15000.0
G1 Z11.9000 F8000.0
G1 X88.0641 Y-191.1327 F12000.0
G1 Z0.0000 F8000.0
G0 X88.0641 Y-191.6270 F15000.0
G1 Z11.9000 F8000.0
G1 X88.0641 Y-193.6041 F12000.0
G1 X68.6224 Y-193.6041 F12000.0
G1 X68.6224 Y-191.6270 F12000.0
G1 X68.6224 Y-180.4233 F12000.0
G1 X39.9542 Y-180.4233 F12000.0
G1 X39.9542 Y-185.7780 F12000.0
G1 X39.9542 Y-191.1327 F12000.0
G1 X68.6224 Y-191.1327 F12000.0
G1 Z0.0000 F8000.0
G0 X68.6224 Y-191.6270 F15000.0
G1 Z11.9000 F8000.0
G1 X88.0641 Y-191.6270 F12000.0
G1 X88.0641 Y-180.4233 F12000.0
G1 X88.0641 Y-179.9291 F12000.0
G1 X88.0641 Y-178.0343 F12000.0
G1 X68.6224 Y-178.0343 F12000.0
G1 X68.6224 Y-179.9291 F12000.0
G1 X68.6224 Y-180.4233 F12000.0
G1 Z0.0000 F8000.0
G0 X68.6224 Y-179.9291 F15000.0
G1 Z11.9000 F8000.0
G1 X88.0641 Y-179.9291 F12000.0
G1 Z0.0000 F8000.0
G0 X88.0641 Y-180.4233 F15000.0
G1 Z11.9000 F8000.0
G1 X139.6339 Y-180.4233 F12000.0
G1 X139.6339 Y-191.1327 F12000.0
G1 Z0.0000 F8000.0
G0 X139.6339 Y-189.7323 F15000.0
G1 Z11.9000 F8000.0
G1 X146.9657 Y-189.7323 F12000.0
G1 X146.9657 Y-185.7780 F12000.0
G1 X146.9657 Y-181.9062 F12000.0
G1 X139.6339 Y-181.9062 F12000.0
G1 X146.9657 Y-189.7323 F12000.0
G1 Z0.0000 F8000.0
G0 X146.9657 Y-188.7437 F15000.0
G1 Z11.9000 F8000.0
G1 X153.8032 Y-188.7437 F12000.0
G1 X153.8032 Y-185.7780 F12000.0
G1 X153.8032 Y-133.3844 F12000.0
G1 Z0.0000 F8000.0
G0 X153.8032 Y-135.3616 F15000.0
G1 Z11.9000 F8000.0
G1 X148.8604 Y-134.7025 F12000.0
G1 X149.3547 Y-135.3616 F12000.0
G1 X148.8604 Y-136.0206 F12000.0
G1 X153.8032 Y-135.3616 F12000.0
G1 X35.0938 Y-135.3616 F12000.0
G1 X39.9542 Y-136.0206 F12000.0
G1 X39.4600 Y-135.3616 F12000.0
G1 X39.9542 Y-134.7025 F12000.0
G1 X35.0938 Y-135.3616 F12000.0
G1 Z0.0000 F8000.0
G0 X35.0938 Y-133.3844 F15000.0
G1 Z11.9000 F8000.0
G1 X35.0938 Y-185.7780 F12000.0
G1 X51.6522 Y-185.7780 F12000.0
G1 Z0.0000 F8000.0
G0 X53.1350 Y-185.7780 F15000.0
G1 Z11.9000 F8000.0
G1 X54.6179 Y-185.7780 F12000.0
G1 Z0.0000 F8000.0
G0 X56.1007 Y-185.7780 F15000.0
G1 Z11.9000 F8000.0
G1 X72.6590 Y-185.7780 F12000.0
G1 Z0.0000 F8000.0
G0 X74.1419 Y-185.7780 F15000.0
G1 Z11.9000 F8000.0
G1 X75.6247 Y-185.7780 F12000.0
G1 Z0.0000 F8000.0
G0 X77.0252 Y-185.7780 F15000.0
G1 Z11.9000 F8000.0
G1 X93.6659 Y-185.7780 F12000.0
G1 Z0.0000 F8000.0
G0 X95.1487 Y-185.7780 F15000.0
G1 Z11.9000 F8000.0
G1 X96.6316 Y-185.7780 F12000.0
G1 Z0.0000 F8000.0
G0 X98.0320 Y-185.7780 F15000.0
G1 Z11.9000 F8000.0
G1 X114.6728 Y-185.7780 F12000.0
G1 Z0.0000 F8000.0
G0 X116.1556 Y-185.7780 F15000.0
G1 Z11.9000 F8000.0
G1 X117.6384 Y-185.7780 F12000.0
G1 Z0.0000 F8000.0
G0 X119.0389 Y-185.7780 F15000.0
G1 Z11.9000 F8000.0
G1 X135.6796 Y-185.7780 F12000.0
G1 Z0.0000 F8000.0
G0 X137.1625 Y-185.7780 F15000.0
G1 Z11.9000 F8000.0
G1 X138.5629 Y-185.7780 F12000.0
G1 Z0.0000 F8000.0
G0 X140.0458 Y-185.7780 F15000.0
G1 Z11.9000 F8000.0
G1 X156.6865 Y-185.7780 F12000.0
G1 Z0.0000 F8000.0
G0 X153.8032 Y-183.8833 F15000.0
G1 Z11.9000 F8000.0
G1 X152.8146 Y-183.8833 F12000.0
G1 X146.9657 Y-183.8833 F12000.0
G1 Z0.0000 F8000.0
G0 X146.9657 Y-182.8947 F15000.0
G1 Z11.9000 F8000.0
G1 X153.8032 Y-182.8947 F12000.0
G1 X167.4782 Y-182.8947 F12000.0
G1 Z0.0000 F8000.0
G0 X165.5835 Y-182.8947 F15000.0
G1 Z11.9000 F8000.0
G1 X164.9245 Y-178.0343 F12000.0
G1 X165.5835 Y-178.5286 F12000.0
G1 X166.1602 Y-178.0343 F12000.0
G1 X165.5835 Y-182.8947 F12000.0
G1 X165.5835 Y-176.0572 F12000.0
G1 Z0.0000 F8000.0
G0 X165.2952 Y-179.7795 F15000.0
G1 Z11.9000 F8000.0
G1 X165.2952 Y-180.6552 F12000.0
G1 Z0.0000 F8000.0
G0 X165.8718 Y-180.9436 F15000.0
G1 Z11.9000 F8000.0
G1 X165.8718 Y-180.0679 F12000.0
G1 Z0.0000 F8000.0
G0 X165.5835 Y-182.8947 F15000.0
G1 Z11.9000 F8000.0
G1 X165.5835 Y-188.7437 F12000.0
G1 Z0.0000 F8000.0
G0 X167.4782 Y-188.7437 F15000.0
G1 Z11.9000 F8000.0
G1 X153.8032 Y-188.7437 F12000.0
G1 X153.8032 Y-195.4988 F12000.0
G1 Z0.0000 F8000.0
G0 X156.1251 Y-193.9336 F15000.0
G1 Z11.9000 F8000.0
G1 X157.0008 Y-193.9336 F12000.0
G1 Z0.0000 F8000.0
G0 X156.6712 Y-193.3158 F15000.0
G1 Z11.9000 F8000.0
G1 X155.7956 Y-193.3158 F12000.0
G1 Z0.0000 F8000.0
G0 X151.0192 Y-195.9923 F15000.0
G1 Z11.9000 F8000.0
G1 X151.1961 Y-196.2577 F12000.0
G1 X151.4173 Y-196.8769
G1 X151.3288 Y-197.3191
G1 X150.5327 Y-197.4960
G1 X151.9480 Y-198.8229
G1 X152.2134 Y-198.8229
G1 Z0.0000 F8000.0
G0 X150.1789 Y-198.4248 F15000.0
G1 Z11.9000 F8000.0
G1 X149.3386 Y-196.0808 F12000.0
G1 X149.1617 Y-195.7712
G1 Z0.0000 F8000.0
G0 X149.7809 Y-195.7712 F15000.0
G1 Z11.9000 F8000.0
G1 X150.7539 Y-195.8154 F12000.0
G1 Z0.0000 F8000.0
G0 X149.5155 Y-198.2921 F15000.0
G1 Z11.9000 F8000.0
G1 X149.7367 Y-198.4248 F12000.0
G1 Z0.0000 F8000.0
G0 X146.9657 Y-195.4988 F15000.0
G1 Z11.9000 F8000.0
G1 X146.9657 Y-188.7437 F12000.0
G1 Z0.0000 F8000.0
G0 X146.9657 Y-187.7551 F15000.0
G1 Z11.9000 F8000.0
G1 X152.8146 Y-187.7551 F12000.0
G1 X153.8032 Y-187.7551 F12000.0
G1 Z0.0000 F8000.0
G0 X146.9657 Y-181.9062 F15000.0
G1 Z11.9000 F8000.0
G1 X139.6339 Y-189.7323 F12000.0
G1 Z0.0000 F8000.0
G0 X144.1388 Y-193.3158 F15000.0
G1 Z11.9000 F8000.0
G1 X145.0145 Y-193.3158 F12000.0
G1 Z0.0000 F8000.0
G0 X144.7262 Y-193.9336 F15000.0
G1 Z11.9000 F8000.0
G1 X143.8505 Y-193.9336 F12000.0
G1 Z0.0000 F8000.0
G0 X139.6339 Y-180.4233 F15000.0
G1 Z11.9000 F8000.0
G1 X139.6339 Y-171.3616 F12000.0
G1 Z0.0000 F8000.0
G0 X139.6339 Y-173.3387 F15000.0
G1 Z11.9000 F8000.0
G1 X144.4943 Y-173.9153 F12000.0
G1 X144.0000 Y-173.3387 F12000.0
G1 X144.4943 Y-172.6796 F12000.0
G1 X139.6339 Y-173.3387 F12000.0
G1 X153.8032 Y-173.3387 F12000.0
G1 X148.8604 Y-172.6796 F12000.0
G1 X149.3547 Y-173.3387 F12000.0
G1 X148.8604 Y-173.9153 F12000.0
G1 X153.8032 Y-173.3387 F12000.0
G1 Z0.0000 F8000.0
G0 X151.8108 Y-173.0503 F15000.0
G1 Z11.9000 F8000.0
G1 X150.9351 Y-173.0503 F12000.0
G1 Z0.0000 F8000.0
G0 X150.6056 Y-173.6270 F15000.0
G1 Z11.9000 F8000.0
G1 X151.4813 Y-173.6270 F12000.0
G1 Z0.0000 F8000.0
G0 X147.8180 Y-175.8229 F15000.0
G1 Z11.9000 F8000.0
G1 X148.5256 Y-177.6804 F12000.0
G1 Z0.0000 F8000.0
G0 X148.6583 Y-178.0342 F15000.0
G1 Z11.9000 F8000.0
G1 X148.7025 Y-178.2554 F12000.0
G1 Z0.0000 F8000.0
G0 X148.5698 Y-178.4765 F15000.0
G1 Z11.9000 F8000.0
G1 X148.3044 Y-178.6092 F12000.0
G1 X147.3315 Y-178.2111
G1 Z0.0000 F8000.0
G0 X147.1545 Y-177.9016 F15000.0
G1 Z11.9000 F8000.0
G1 X146.5354 Y-176.1767 F12000.0
G1 Z0.0000 F8000.0
G0 X146.4469 Y-175.9556 F15000.0
G1 Z11.9000 F8000.0
G1 X147.2872 Y-175.4691 F12000.0
G1 X147.4199 Y-175.5133
G1 Z0.0000 F8000.0
G0 X146.2700 Y-177.5920 F15000.0
G1 Z11.9000 F8000.0
G1 X146.4911 Y-178.1227 F12000.0
G1 X146.3142 Y-178.5207
G1 X145.5624 Y-178.6092
G1 Z0.0000 F8000.0
G0 X145.4739 Y-177.1497 F15000.0
G1 Z11.9000 F8000.0
G1 X145.9604 Y-177.1055 F12000.0
G1 X146.0931 Y-176.8401
G1 X145.6951 Y-175.7787
G1 X145.3855 Y-175.5575
G1 X144.4125 Y-175.4691
G1 Z0.0000 F8000.0
G0 X142.8726 Y-173.6270 F15000.0
G1 Z11.9000 F8000.0
G1 X141.9969 Y-173.6270 F12000.0
G1 Z0.0000 F8000.0
G0 X141.6262 Y-173.0503 F15000.0
G1 Z11.9000 F8000.0
G1 X142.5019 Y-173.0503 F12000.0
G1 Z0.0000 F8000.0
G0 X148.8604 Y-155.9565 F15000.0
G1 Z11.9000 F8000.0
G1 X149.3547 Y-155.2975 F12000.0
G1 X148.8604 Y-154.6384 F12000.0
G1 X153.8032 Y-155.2975 F12000.0
G1 X148.8604 Y-155.9565 F12000.0
G1 Z0.0000 F8000.0
G0 X150.6468 Y-155.6270 F15000.0
G1 Z11.9000 F8000.0
G1 X151.5225 Y-155.6270 F12000.0
G1 Z0.0000 F8000.0
G0 X151.8108 Y-155.0092 F15000.0
G1 Z11.9000 F8000.0
G1 X150.9351 Y-155.0092 F12000.0
G1 Z0.0000 F8000.0
G0 X153.8032 Y-155.2975 F15000.0
G1 Z11.9000 F8000.0
G1 X88.0641 Y-155.2975 F12000.0
G1 X92.9245 Y-155.9565 F12000.0
G1 X92.4302 Y-155.2975 F12000.0
G1 X92.9245 Y-154.6384 F12000.0
G1 X88.0641 Y-155.2975 F12000.0
G1 Z0.0000 F8000.0
G0 X88.0641 Y-153.4027 F15000.0
G1 Z11.9000 F8000.0
G1 X88.0641 Y-178.0343 F12000.0
G1 Z0.0000 F8000.0
G0 X82.5446 Y-178.0343 F15000.0
G1 Z11.9000 F8000.0
G1 X82.5446 Y-173.1739 F12000.0
G1 X82.5446 Y-161.3936 F12000.0
G1 Z0.0000 F8000.0
G0 X79.4276 Y-164.1124 F15000.0
G1 Z11.9000 F8000.0
G1 X78.9853 Y-164.2893 F12000.0
G1 Z0.0000 F8000.0
G0 X78.5873 Y-164.4662 F15000.0
G1 Z11.9000 F8000.0
G1 X77.7912 Y-164.8200 F12000.0
G1 X77.6585 Y-164.9969
G1 X77.1720 Y-164.9969
G1 Z0.0000 F8000.0
G0 X77.7469 Y-164.9969 F15000.0
G1 Z11.9000 F8000.0
G1 X78.6757 Y-165.2623 F12000.0
G1 Z0.0000 F8000.0
G0 X78.9411 Y-165.1738 F15000.0
G1 Z11.9000 F8000.0
G1 X78.6757 Y-165.2623 F12000.0
G1 X78.4988 Y-165.6161
G1 X77.9681 Y-166.1910
G1 X77.7469 Y-166.5449
G1 X80.3121 Y-165.7045
G1 Z0.0000 F8000.0
G0 X80.4006 Y-166.1910 F15000.0
G1 Z11.9000 F8000.0
G1 X79.9583 Y-167.6063 F12000.0
G1 X79.2507 Y-167.9159
G1 X78.7199 Y-167.6947
G1 X78.1008 Y-168.1812
G1 X77.6585 Y-168.3139
G1 X77.3489 Y-168.0928
G1 X77.2605 Y-167.3409
G1 Z0.0000 F8000.0
G0 X77.3931 Y-166.8544 F15000.0
G1 Z11.9000 F8000.0
G1 X77.4816 Y-166.7660 F12000.0
G1 Z0.0000 F8000.0
G0 X78.7199 Y-167.2525 F15000.0
G1 Z11.9000 F8000.0
G1 X78.7199 Y-167.6947 F12000.0
G1 Z0.0000 F8000.0
G0 X79.1180 Y-168.5793 F15000.0
G1 Z11.9000 F8000.0
G1 X79.3833 Y-168.4908 F12000.0
G1 Z0.0000 F8000.0
G0 X79.8698 Y-168.3139 F15000.0
G1 Z11.9000 F8000.0
G1 X80.1352 Y-168.2697 F12000.0
G1 Z0.0000 F8000.0
G0 X80.3563 Y-168.4466 F15000.0
G1 Z11.9000 F8000.0
G1 X80.3563 Y-169.1985 F12000.0
G1 Z0.0000 F8000.0
G0 X80.0910 Y-169.5965 F15000.0
G1 Z11.9000 F8000.0
G1 X78.6757 Y-170.1715 F12000.0
G1 Z0.0000 F8000.0
G0 X77.7912 Y-170.4810 F15000.0
G1 Z11.9000 F8000.0
G1 X77.6143 Y-170.4810 F12000.0
G1 Z0.0000 F8000.0
G0 X77.3931 Y-170.3484 F15000.0
G1 Z11.9000 F8000.0
G1 X77.2605 Y-169.9503 F12000.0
G1 X77.4816 Y-169.3311
G1 X77.8796 Y-169.0216
G1 X78.2334 Y-168.8889
G1 Z0.0000 F8000.0
G0 X82.5446 Y-178.0343 F15000.0
G1 Z11.9000 F8000.0
G1 X81.9680 Y-182.8947 F12000.0
G1 X82.5446 Y-182.4005 F12000.0
G1 X83.2037 Y-182.8947 F12000.0
G1 X82.5446 Y-178.0343 F12000.0
G1 X82.5446 Y-193.6041 F12000.0
G1 X83.2037 Y-188.7437 F12000.0
G1 X82.5446 Y-189.2380 F12000.0
G1 X81.9680 Y-188.7437 F12000.0
G1 X82.5446 Y-193.6041 F12000.0
G1 Z0.0000 F8000.0
G0 X82.8741 Y-191.6529 F15000.0
G1 Z11.9000 F8000.0
G1 X82.8741 Y-190.7772 F12000.0
G1 Z0.0000 F8000.0
G0 X82.2975 Y-190.4477 F15000.0
G1 Z11.9000 F8000.0
G1 X82.2975 Y-191.3234 F12000.0
G1 Z0.0000 F8000.0
G0 X82.2975 Y-181.2731 F15000.0
G1 Z11.9000 F8000.0
G1 X82.2975 Y-180.3974 F12000.0
G1 Z0.0000 F8000.0
G0 X82.8741 Y-180.0679 F15000.0
G1 Z11.9000 F8000.0
G1 X82.8741 Y-180.9436 F12000.0
G1 Z0.0000 F8000.0
G0 X68.6224 Y-178.0343 F15000.0
G1 Z11.9000 F8000.0
G1 X68.6224 Y-144.6705 F12000.0
G1 Z0.0000 F8000.0
G0 X68.6224 Y-146.6476 F15000.0
G1 Z11.9000 F8000.0
G1 X73.4828 Y-147.3066 F12000.0
G1 X72.9886 Y-146.6476 F12000.0
G1 X73.4828 Y-145.9886 F12000.0
G1 X68.6224 Y-146.6476 F12000.0
G1 X153.8032 Y-146.6476 F12000.0
G1 X148.8604 Y-145.9886 F12000.0
G1 X149.3547 Y-146.6476 F12000.0
G1 X148.8604 Y-147.3066 F12000.0
G1 X153.8032 Y-146.6476 F12000.0
G1 Z0.0000 F8000.0
G0 X151.8108 Y-146.3593 F15000.0
G1 Z11.9000 F8000.0
G1 X150.9351 Y-146.3593 F12000.0
G1 Z0.0000 F8000.0
G0 X150.6468 Y-146.9771 F15000.0
G1 Z11.9000 F8000.0
G1 X151.5225 Y-146.9771 F12000.0
G1 Z0.0000 F8000.0
G0 X151.5225 Y-135.6911 F15000.0
G1 Z11.9000 F8000.0
G1 X150.6468 Y-135.6911 F12000.0
G1 Z0.0000 F8000.0
G0 X150.9351 Y-135.0732 F15000.0
G1 Z11.9000 F8000.0
G1 X151.8108 Y-135.0732 F12000.0
G1 Z0.0000 F8000.0
G0 X122.6722 Y-157.8379 F15000.0
G1 Z11.9000 F8000.0
G1 X123.5125 Y-160.3588 F12000.0
G1 Z0.0000 F8000.0
G0 X123.4240 Y-160.4915 F15000.0
G1 Z11.9000 F8000.0
G1 X123.1586 Y-160.6242 F12000.0
G1 X122.1857 Y-160.2262
G1 Z0.0000 F8000.0
G0 X122.0087 Y-159.9166 F15000.0
G1 Z11.9000 F8000.0
G1 X121.3896 Y-158.1917 F12000.0
G1 Z0.0000 F8000.0
G0 X121.3011 Y-157.9706 F15000.0
G1 Z11.9000 F8000.0
G1 X122.1414 Y-157.4841 F12000.0
G1 X122.3183 Y-157.5726
G1 Z0.0000 F8000.0
G0 X120.7704 Y-158.2360 F15000.0
G1 Z11.9000 F8000.0
G1 X120.9031 Y-158.8551 F12000.0
G1 Z0.0000 F8000.0
G0 X120.7704 Y-159.1647 F15000.0
G1 Z11.9000 F8000.0
G1 X120.3281 Y-159.1647 F12000.0
G1 Z0.0000 F8000.0
G0 X121.1242 Y-159.6070 F15000.0
G1 Z11.9000 F8000.0
G1 X121.3453 Y-160.3146 F12000.0
G1 X121.1684 Y-160.5358
G1 X120.4166 Y-160.6242
G1 Z0.0000 F8000.0
G0 X119.6647 Y-160.1819 F15000.0
G1 Z11.9000 F8000.0
G1 X118.6475 Y-157.4841 F12000.0
G1 Z0.0000 F8000.0
G0 X119.2667 Y-157.4841 F15000.0
G1 Z11.9000 F8000.0
G1 X120.2397 Y-157.5726 F12000.0
G1 Z0.0000 F8000.0
G0 X120.5050 Y-157.7495 F15000.0
G1 Z11.9000 F8000.0
G1 X120.6377 Y-157.9264 F12000.0
G1 Z0.0000 F8000.0
G0 X119.3994 Y-160.2704 F15000.0
G1 Z11.9000 F8000.0
G1 X119.0898 Y-160.0935 F12000.0
G1 Z0.0000 F8000.0
G0 X123.5698 Y-163.7826 F15000.0
G1 Z11.9000 F8000.0
G1 X123.5698 Y-175.6453 F12000.0
G1 X123.5698 Y-180.4233 F12000.0
G1 X122.9108 Y-185.2837 F12000.0
G1 X123.5698 Y-184.7895 F12000.0
G1 X124.2288 Y-185.2837 F12000.0
G1 X123.5698 Y-180.4233 F12000.0
G1 X123.5698 Y-191.1327 F12000.0
G1 X124.2288 Y-186.2723 F12000.0
G1 X123.5698 Y-186.7666 F12000.0
G1 X122.9108 Y-186.2723 F12000.0
G1 X123.5698 Y-191.1327 F12000.0
G1 Z0.0000 F8000.0
G0 X123.8993 Y-189.1815 F15000.0
G1 Z11.9000 F8000.0
G1 X123.8993 Y-188.3059 F12000.0
G1 Z0.0000 F8000.0
G0 X123.2815 Y-188.0175 F15000.0
G1 Z11.9000 F8000.0
G1 X123.2815 Y-188.8932 F12000.0
G1 Z0.0000 F8000.0
G0 X123.2815 Y-183.6209 F15000.0
G1 Z11.9000 F8000.0
G1 X123.2815 Y-182.7452 F12000.0
G1 Z0.0000 F8000.0
G0 X123.8993 Y-182.4569 F15000.0
G1 Z11.9000 F8000.0
G1 X123.8993 Y-183.3326 F12000.0
G1 Z0.0000 F8000.0
G0 X119.6495 Y-172.4335 F15000.0
G1 Z11.9000 F8000.0
G1 X121.0648 Y-171.8585 F12000.0
G1 Z0.0000 F8000.0
G0 X121.3301 Y-171.4605 F15000.0
G1 Z11.9000 F8000.0
G1 X121.3301 Y-170.7086 F12000.0
G1 Z0.0000 F8000.0
G0 X121.1090 Y-170.5317 F15000.0
G1 Z11.9000 F8000.0
G1 X120.8436 Y-170.5759 F12000.0
G1 Z0.0000 F8000.0
G0 X120.3571 Y-170.7528 F15000.0
G1 Z11.9000 F8000.0
G1 X120.0918 Y-170.8413 F12000.0
G1 Z0.0000 F8000.0
G0 X119.5168 Y-170.1779 F15000.0
G1 Z11.9000 F8000.0
G1 X121.1090 Y-168.5857 F12000.0
G1 X121.3301 Y-168.4973
G1 X121.4628 Y-169.8241
G1 Z0.0000 F8000.0
G0 X121.3301 Y-168.4973 F15000.0
G1 Z11.9000 F8000.0
G1 X121.4628 Y-168.1877 F12000.0
G1 Z0.0000 F8000.0
G0 X120.3571 Y-167.8781 F15000.0
G1 Z11.9000 F8000.0
G1 X120.4898 Y-167.7454 F12000.0
G1 X120.7552 Y-166.9936
G1 X120.4898 Y-167.0378
G1 Z0.0000 F8000.0
G0 X120.8879 Y-166.7282 F15000.0
G1 Z11.9000 F8000.0
G1 X120.6667 Y-166.7282 F12000.0
G1 X120.4456 Y-166.5955
G1 X119.9149 Y-166.5955
G1 Z0.0000 F8000.0
G0 X120.0033 Y-167.3474 F15000.0
G1 Z11.9000 F8000.0
G1 X119.2515 Y-167.8339 F12000.0
G1 Z0.0000 F8000.0
G0 X119.5610 Y-168.1877 F15000.0
G1 Z11.9000 F8000.0
G1 X120.0918 Y-168.0992 F12000.0
G1 Z0.0000 F8000.0
G0 X119.3399 Y-167.1262 F15000.0
G1 Z11.9000 F8000.0
G1 X119.2072 Y-167.8781 F12000.0
G1 X118.7207 Y-168.2319
G1 Z0.0000 F8000.0
G0 X118.7207 Y-169.2049 F15000.0
G1 Z11.9000 F8000.0
G1 X118.2785 Y-170.0452 F12000.0
G1 X118.3669 Y-170.3990
G1 Z0.0000 F8000.0
G0 X118.6323 Y-170.6202 F15000.0
G1 Z11.9000 F8000.0
G1 X118.8976 Y-170.6202 F12000.0
G1 Z0.0000 F8000.0
G0 X119.1188 Y-170.5317 F15000.0
G1 Z11.9000 F8000.0
G1 X119.2072 Y-170.4432 F12000.0
G1 Z0.0000 F8000.0
G0 X119.2072 Y-171.1509 F15000.0
G1 Z11.9000 F8000.0
G1 X118.8534 Y-171.2836 F12000.0
G1 X118.4554 Y-171.5931
G1 X118.2342 Y-172.2123
G1 X118.3669 Y-172.6104
G1 Z0.0000 F8000.0
G0 X118.5881 Y-172.7430 F15000.0
G1 Z11.9000 F8000.0
G1 X118.7650 Y-172.7430 F12000.0
G1 Z0.0000 F8000.0
G0 X121.0205 Y-166.6397 F15000.0
G1 Z11.9000 F8000.0
G1 X121.1090 Y-166.5513 F12000.0
G1 Z0.0000 F8000.0
G0 X114.0479 Y-151.8803 F15000.0
G1 Z11.9000 F8000.0
G1 X113.7826 Y-151.8803 F12000.0
G1 X112.3673 Y-150.5535
G1 X113.0749 Y-150.4208
G1 Z0.0000 F8000.0
G0 X113.1634 Y-150.3324 F15000.0
G1 Z11.9000 F8000.0
G1 X113.1634 Y-149.7132 F12000.0
G1 X113.0307 Y-149.3151
G1 Z0.0000 F8000.0
G0 X112.8980 Y-149.0940 F15000.0
G1 Z11.9000 F8000.0
G1 X111.6154 Y-148.8286 F12000.0
G1 Z0.0000 F8000.0
G0 X110.3329 Y-148.8286 F15000.0
G1 Z11.9000 F8000.0
G1 X110.9963 Y-149.9785 F12000.0
G1 Z0.0000 F8000.0
G0 X110.5540 Y-151.6149 F15000.0
G1 Z11.9000 F8000.0
G1 X110.6867 Y-151.7918 F12000.0
G1 Z0.0000 F8000.0
G0 X110.7751 Y-151.8803 F15000.0
G1 Z11.9000 F8000.0
G1 X112.0135 Y-151.7918 F12000.0
G1 X111.9693 Y-151.6149
G1 Z0.0000 F8000.0
G0 X109.9348 Y-151.4823 F15000.0
G1 Z11.9000 F8000.0
G1 X109.0945 Y-149.1382 F12000.0
G1 X108.9176 Y-148.8286
G1 Z0.0000 F8000.0
G0 X109.2714 Y-151.3496 F15000.0
G1 Z11.9000 F8000.0
G1 X109.4926 Y-151.4823 F12000.0
G1 Z0.0000 F8000.0
G0 X97.2469 Y-140.5352 F15000.0
G1 Z11.9000 F8000.0
G1 X96.9815 Y-140.6679 F12000.0
G1 X96.0970 Y-140.3583
G1 X95.8316 Y-139.9161
G1 Z0.0000 F8000.0
G0 X95.6989 Y-139.5622 F15000.0
G1 Z11.9000 F8000.0
G1 X95.1240 Y-137.8374 F12000.0
G1 X95.9643 Y-137.5278
G1 X96.0970 Y-137.5720
G1 Z0.0000 F8000.0
G0 X96.4950 Y-137.8816 F15000.0
G1 Z11.9000 F8000.0
G1 X97.2026 Y-139.7391 F12000.0
G1 Z0.0000 F8000.0
G0 X97.3353 Y-140.0930 F15000.0
G1 Z11.9000 F8000.0
G1 X97.3795 Y-140.3141 F12000.0
G1 Z0.0000 F8000.0
G0 X95.6105 Y-140.5795 F15000.0
G1 Z11.9000 F8000.0
G1 X94.2837 Y-140.5795 F12000.0
G1 Z0.0000 F8000.0
G0 X94.1952 Y-140.3583 F15000.0
G1 Z11.9000 F8000.0
G1 X94.1510 Y-140.2256 F12000.0
G1 Z0.0000 F8000.0
G0 X93.9741 Y-139.7391 F15000.0
G1 Z11.9000 F8000.0
G1 X93.8856 Y-139.2084 F12000.0
G1 X94.6375 Y-139.0757
G1 X94.6817 Y-138.4123
G1 X94.4163 Y-137.8374
G1 X93.0453 Y-137.5278
G1 Z0.0000 F8000.0
G0 X92.6473 Y-137.4393 F15000.0
G1 Z11.9000 F8000.0
G1 X91.3205 Y-137.5720 F12000.0
G1 Z0.0000 F8000.0
G0 X91.0109 Y-137.4393 F15000.0
G1 Z11.9000 F8000.0
G1 X91.3205 Y-137.5720 F12000.0
G1 X93.0011 Y-139.3853
G1 Z0.0000 F8000.0
G0 X93.3991 Y-139.9603 F15000.0
G1 Z11.9000 F8000.0
G1 X93.3991 Y-140.3141 F12000.0
G1 Z0.0000 F8000.0
G0 X93.2222 Y-140.5352 F15000.0
G1 Z11.9000 F8000.0
G1 X93.0453 Y-140.6237 F12000.0
G1 X92.4261 Y-140.4468
G1 X92.0281 Y-140.1814
G1 Z0.0000 F8000.0
G0 X90.9321 Y-155.0092 F15000.0
G1 Z11.9000 F8000.0
G1 X90.0564 Y-155.0092 F12000.0
G1 Z0.0000 F8000.0
G0 X90.3860 Y-155.6270 F15000.0
G1 Z11.9000 F8000.0
G1 X91.2616 Y-155.6270 F12000.0
G1 Z0.0000 F8000.0
G0 X71.8200 Y-146.9771 F15000.0
G1 Z11.9000 F8000.0
G1 X70.9443 Y-146.9771 F12000.0
G1 Z0.0000 F8000.0
G0 X70.6148 Y-146.3593 F15000.0
G1 Z11.9000 F8000.0
G1 X71.4905 Y-146.3593 F12000.0
G1 Z0.0000 F8000.0
G0 X65.0801 Y-163.7826 F15000.0
G1 Z11.9000 F8000.0
G1 X65.0801 Y-175.6453 F12000.0
G1 X65.0801 Y-180.4233 F12000.0
G1 X64.4211 Y-185.2837 F12000.0
G1 X65.0801 Y-184.7895 F12000.0
G1 X65.7391 Y-185.2837 F12000.0
G1 X65.0801 Y-180.4233 F12000.0
G1 X65.0801 Y-191.1327 F12000.0
G1 X65.7391 Y-186.2723 F12000.0
G1 X65.0801 Y-186.7666 F12000.0
G1 X64.4211 Y-186.2723 F12000.0
G1 X65.0801 Y-191.1327 F12000.0
G1 Z0.0000 F8000.0
G0 X65.4096 Y-189.1815 F15000.0
G1 Z11.9000 F8000.0
G1 X65.4096 Y-188.3059 F12000.0
G1 Z0.0000 F8000.0
G0 X64.7918 Y-188.0175 F15000.0
G1 Z11.9000 F8000.0
G1 X64.7918 Y-188.8932 F12000.0
G1 Z0.0000 F8000.0
G0 X64.7918 Y-183.6209 F15000.0
G1 Z11.9000 F8000.0
G1 X64.7918 Y-182.7452 F12000.0
G1 Z0.0000 F8000.0
G0 X65.4096 Y-182.4569 F15000.0
G1 Z11.9000 F8000.0
G1 X65.4096 Y-183.3326 F12000.0
G1 Z0.0000 F8000.0
G0 X56.8421 Y-183.3890 F15000.0
G1 Z11.9000 F8000.0
G1 X56.1831 Y-182.8947 F12000.0
G1 X55.6064 Y-183.3890 F12000.0
G1 X56.1831 Y-178.5286 F12000.0
G1 X56.1831 Y-173.6682 F12000.0
G1 X56.1831 Y-162.0526 F12000.0
G1 Z0.0000 F8000.0
G0 X53.8454 Y-164.7822 F15000.0
G1 Z11.9000 F8000.0
G1 X53.3589 Y-165.0918 F12000.0
G1 Z0.0000 F8000.0
G0 X53.0936 Y-164.9591 F15000.0
G1 Z11.9000 F8000.0
G1 X52.4744 Y-164.9591 F12000.0
G1 Z0.0000 F8000.0
G0 X51.9879 Y-165.4014 F15000.0
G1 Z11.9000 F8000.0
G1 X51.8552 Y-165.6225 F12000.0
G1 X51.8110 Y-166.1975
G1 X51.3245 Y-166.5513
G1 Z0.0000 F8000.0
G0 X51.8552 Y-166.1533 F15000.0
G1 Z11.9000 F8000.0
G1 X52.6071 Y-165.6668 F12000.0
G1 Z0.0000 F8000.0
G0 X53.0936 Y-165.3572 F15000.0
G1 Z11.9000 F8000.0
G1 X53.3589 Y-165.3129 F12000.0
G1 X53.0936 Y-166.0648
G1 X52.9609 Y-166.1975
G1 Z0.0000 F8000.0
G0 X52.6955 Y-166.4186 F15000.0
G1 Z11.9000 F8000.0
G1 X52.1648 Y-166.5071 F12000.0
G1 Z0.0000 F8000.0
G0 X52.2975 Y-167.5685 F15000.0
G1 Z11.9000 F8000.0
G1 X52.2975 Y-168.0108 F12000.0
G1 Z0.0000 F8000.0
G0 X52.6955 Y-168.8953 F15000.0
G1 Z11.9000 F8000.0
G1 X52.9609 Y-168.8069 F12000.0
G1 Z0.0000 F8000.0
G0 X53.4474 Y-168.6300 F15000.0
G1 Z11.9000 F8000.0
G1 X53.7128 Y-168.5857 F12000.0
G1 Z0.0000 F8000.0
G0 X53.9339 Y-168.7626 F15000.0
G1 Z11.9000 F8000.0
G1 X53.9339 Y-169.5145 F12000.0
G1 Z0.0000 F8000.0
G0 X53.6685 Y-169.9125 F15000.0
G1 Z11.9000 F8000.0
G1 X52.2533 Y-170.4875 F12000.0
G1 Z0.0000 F8000.0
G0 X51.3687 Y-170.7971 F15000.0
G1 Z11.9000 F8000.0
G1 X51.1918 Y-170.7971 F12000.0
G1 Z0.0000 F8000.0
G0 X50.9707 Y-170.6644 F15000.0
G1 Z11.9000 F8000.0
G1 X50.8380 Y-170.2663 F12000.0
G1 X51.0591 Y-169.6472
G1 X51.4572 Y-169.3376
G1 X51.8110 Y-169.2049
G1 Z0.0000 F8000.0
G0 X50.8380 Y-167.6570 F15000.0
G1 Z11.9000 F8000.0
G1 X50.9265 Y-168.4088 F12000.0
G1 X51.2361 Y-168.6300
G1 X51.6783 Y-168.4973
G1 X52.2975 Y-168.0108
G1 X52.8282 Y-168.2319
G1 X53.5359 Y-167.9223
G1 X53.9781 Y-166.5071
G1 Z0.0000 F8000.0
G0 X60.2075 Y-168.2319 F15000.0
G1 Z11.9000 F8000.0
G1 X60.6940 Y-167.8781 F12000.0
G1 X60.8267 Y-167.1262
G1 Z0.0000 F8000.0
G0 X61.4901 Y-167.3474 F15000.0
G1 Z11.9000 F8000.0
G1 X60.7382 Y-167.8339 F12000.0
G1 Z0.0000 F8000.0
G0 X61.0478 Y-168.1877 F15000.0
G1 Z11.9000 F8000.0
G1 X61.5785 Y-168.0992 F12000.0
G1 Z0.0000 F8000.0
G0 X61.8439 Y-167.8781 F15000.0
G1 Z11.9000 F8000.0
G1 X61.9766 Y-167.7454 F12000.0
G1 X62.2419 Y-166.9936
G1 X61.9766 Y-167.0378
G1 Z0.0000 F8000.0
G0 X62.3746 Y-166.7282 F15000.0
G1 Z11.9000 F8000.0
G1 X62.1535 Y-166.7282 F12000.0
G1 X61.9323 Y-166.5955
G1 X61.4016 Y-166.5955
G1 Z0.0000 F8000.0
G0 X62.5073 Y-166.6397 F15000.0
G1 Z11.9000 F8000.0
G1 X62.5957 Y-166.5513 F12000.0
G1 Z0.0000 F8000.0
G0 X62.9496 Y-168.1877 F15000.0
G1 Z11.9000 F8000.0
G1 X62.8169 Y-168.4973 F12000.0
G1 Z0.0000 F8000.0
G0 X62.9496 Y-169.8241 F15000.0
G1 Z11.9000 F8000.0
G1 X62.8169 Y-168.4973 F12000.0
G1 X62.5957 Y-168.5857
G1 X61.0036 Y-170.1779
G1 Z0.0000 F8000.0
G0 X60.6940 Y-170.4432 F15000.0
G1 Z11.9000 F8000.0
G1 X60.6055 Y-170.5317 F12000.0
G1 Z0.0000 F8000.0
G0 X60.3844 Y-170.6202 F15000.0
G1 Z11.9000 F8000.0
G1 X60.1190 Y-170.6202 F12000.0
G1 Z0.0000 F8000.0
G0 X59.8537 Y-170.3990 F15000.0
G1 Z11.9000 F8000.0
G1 X59.7652 Y-170.0452 F12000.0
G1 X60.2075 Y-169.2049
G1 Z0.0000 F8000.0
G0 X60.6940 Y-171.1509 F15000.0
G1 Z11.9000 F8000.0
G1 X60.3402 Y-171.2836 F12000.0
G1 X59.9421 Y-171.5931
G1 X59.7210 Y-172.2123
G1 X59.8537 Y-172.6104
G1 Z0.0000 F8000.0
G0 X60.0748 Y-172.7430 F15000.0
G1 Z11.9000 F8000.0
G1 X60.2517 Y-172.7430 F12000.0
G1 Z0.0000 F8000.0
G0 X61.1363 Y-172.4335 F15000.0
G1 Z11.9000 F8000.0
G1 X62.5515 Y-171.8585 F12000.0
G1 Z0.0000 F8000.0
G0 X62.8169 Y-171.4605 F15000.0
G1 Z11.9000 F8000.0
G1 X62.8169 Y-170.7086 F12000.0
G1 Z0.0000 F8000.0
G0 X62.5957 Y-170.5317 F15000.0
G1 Z11.9000 F8000.0
G1 X62.3304 Y-170.5759 F12000.0
G1 Z0.0000 F8000.0
G0 X61.8439 Y-170.7528 F15000.0
G1 Z11.9000 F8000.0
G1 X61.5785 Y-170.8413 F12000.0
G1 Z0.0000 F8000.0
G0 X58.1602 Y-178.5286 F15000.0
G1 Z11.9000 F8000.0
G1 X39.9542 Y-178.5286 F12000.0
G1 X37.9771 Y-178.5286 F12000.0
G1 X37.9771 Y-185.7780 F12000.0
G1 X37.9771 Y-193.1098 F12000.0
G1 X39.9542 Y-193.1098 F12000.0
G1 X39.9542 Y-191.1327 F12000.0
G1 Z0.0000 F8000.0
G0 X39.9542 Y-193.1098 F15000.0
G1 Z11.9000 F8000.0
G1 X58.1602 Y-193.1098 F12000.0
G1 Z0.0000 F8000.0
G0 X56.1831 Y-193.1098 F15000.0
G1 Z11.9000 F8000.0
G1 X56.8421 Y-188.2494 F12000.0
G1 X56.1831 Y-188.7437 F12000.0
G1 X55.6064 Y-188.2494 F12000.0
G1 X56.1831 Y-193.1098 F12000.0
G1 X56.1831 Y-178.5286 F12000.0
G1 X56.8421 Y-183.3890 F12000.0
G1 Z0.0000 F8000.0
G0 X55.9359 Y-181.7674 F15000.0
G1 Z11.9000 F8000.0
G1 X55.9359 Y-180.8917 F12000.0
G1 Z0.0000 F8000.0
G0 X56.5126 Y-180.5621 F15000.0
G1 Z11.9000 F8000.0
G1 X56.5126 Y-181.4378 F12000.0
G1 Z0.0000 F8000.0
G0 X55.9359 Y-189.9534 F15000.0
G1 Z11.9000 F8000.0
G1 X55.9359 Y-190.8291 F12000.0
G1 Z0.0000 F8000.0
G0 X56.5126 Y-191.1587 F15000.0
G1 Z11.9000 F8000.0
G1 X56.5126 Y-190.2830 F12000.0
G1 Z0.0000 F8000.0
G0 X52.0641 Y-198.3821 F15000.0
G1 Z11.9000 F8000.0
G1 X44.8147 Y-198.3821 F12000.0
G1 Z0.0000 F8000.0
G0 X44.3204 Y-198.3821 F15000.0
G1 Z11.9000 F8000.0
G1 X44.8147 Y-197.7231 F12000.0
G1 X39.9542 Y-198.3821 F12000.0
G1 X44.8147 Y-198.9588 F12000.0
G1 X44.3204 Y-198.3821 F12000.0
G1 Z0.0000 F8000.0
G0 X43.1930 Y-198.6705 F15000.0
G1 Z11.9000 F8000.0
G1 X42.3173 Y-198.6705 F12000.0
G1 Z0.0000 F8000.0
G0 X41.9466 Y-198.0938 F15000.0
G1 Z11.9000 F8000.0
G1 X42.8223 Y-198.0938 F12000.0
G1 Z0.0000 F8000.0
G0 X39.9542 Y-198.3821 F15000.0
G1 Z11.9000 F8000.0
G1 X46.7094 Y-198.3821 F12000.0
G1 Z0.0000 F8000.0
G0 X48.0485 Y-200.4140 F15000.0
G1 Z11.9000 F8000.0
G1 X48.3139 Y-201.1658 F12000.0
G1 X48.7119 Y-201.9619
G1 Z0.0000 F8000.0
G0 X48.8888 Y-201.1658 F15000.0
G1 Z11.9000 F8000.0
G1 X47.5178 Y-201.3427 F12000.0
G1 Z0.0000 F8000.0
G0 X47.3409 Y-201.2985 F15000.0
G1 Z11.9000 F8000.0
G1 X47.5178 Y-201.3427 F12000.0
G1 X48.7119 Y-203.5541
G1 Z0.0000 F8000.0
G0 X39.9542 Y-200.2769 F15000.0
G1 Z11.9000 F8000.0
G1 X39.9542 Y-193.1098 F12000.0
G1 Z0.0000 F8000.0
G0 X37.9771 Y-193.1098 F15000.0
G1 Z11.9000 F8000.0
G1 X36.8238 Y-191.6270 F12000.0
G1 X35.9176 Y-189.9794 F12000.0
G1 X35.3410 Y-188.2494 F12000.0
G1 X35.0938 Y-186.3547 F12000.0
G1 X35.1762 Y-184.5423 F12000.0
G1 X35.5057 Y-182.7300 F12000.0
G1 X36.2472 Y-181.0000 F12000.0
G1 X37.2357 Y-179.3524 F12000.0
G1 X37.9771 Y-178.5286 F12000.0
G1 Z0.0000 F8000.0
G0 X39.9542 Y-178.5286 F15000.0
G1 Z11.9000 F8000.0
G1 X39.9542 Y-180.4233 F12000.0
G1 Z0.0000 F8000.0
G0 X39.2800 Y-181.7826 F15000.0
G1 Z11.9000 F8000.0
G1 X38.4043 Y-181.7826 F12000.0
G1 Z0.0000 F8000.0
G0 X38.9355 Y-181.8540 F15000.0
G1 Z11.9000 F8000.0
G1 X38.2544 Y-182.5350 F12000.0
G1 Z0.0000 F8000.0
G0 X40.2014 Y-182.8123 F15000.0
G1 Z11.9000 F8000.0
G1 X40.3661 Y-183.5538 F12000.0
G1 X36.4119 Y-180.6705 F12000.0
G1 X31.7163 Y-178.0343 F12000.0
G1 X16.3936 Y-178.0343 F12000.0
G1 Z0.0000 F8000.0
G0 X18.6574 Y-180.1451 F15000.0
G1 Z11.9000 F8000.0
G1 X18.8343 Y-180.5873 F12000.0
G1 Z0.0000 F8000.0
G0 X18.9670 Y-180.8969 F15000.0
G1 Z11.9000 F8000.0
G1 X19.2766 Y-181.5603 F12000.0
G1 X20.4707 Y-183.3294
G1 X20.9130 Y-183.2852
G1 X21.0457 Y-183.1525
G1 Z0.0000 F8000.0
G0 X21.1341 Y-182.9756 F15000.0
G1 Z11.9000 F8000.0
G1 X20.8688 Y-182.1353 F12000.0
G1 Z0.0000 F8000.0
G0 X20.4707 Y-181.7372 F15000.0
G1 Z11.9000 F8000.0
G1 X20.0727 Y-181.6488 F12000.0
G1 Z0.0000 F8000.0
G0 X19.3208 Y-181.6045 F15000.0
G1 Z11.9000 F8000.0
G1 X19.8958 Y-181.5603 F12000.0
G1 X20.1169 Y-180.3662
G1 Z0.0000 F8000.0
G0 X20.7361 Y-180.1008 F15000.0
G1 Z11.9000 F8000.0
G1 X21.0457 Y-180.2335 F12000.0
G1 X22.7263 Y-182.0468
G1 Z0.0000 F8000.0
G0 X23.1243 Y-182.6218 F15000.0
G1 Z11.9000 F8000.0
G1 X23.1243 Y-182.9756 F12000.0
G1 Z0.0000 F8000.0
G0 X22.9474 Y-183.1967 F15000.0
G1 Z11.9000 F8000.0
G1 X22.1956 Y-183.1525 F12000.0
G1 X21.7533 Y-182.8429
G1 Z0.0000 F8000.0
G0 X23.6108 Y-182.2237 F15000.0
G1 Z11.9000 F8000.0
G1 X23.0359 Y-180.4989 F12000.0
G1 X23.8762 Y-180.1893
G1 X24.0089 Y-180.2335
G1 Z0.0000 F8000.0
G0 X24.4069 Y-180.5431 F15000.0
G1 Z11.9000 F8000.0
G1 X25.1145 Y-182.4006 F12000.0
G1 Z0.0000 F8000.0
G0 X25.2472 Y-182.7544 F15000.0
G1 Z11.9000 F8000.0
G1 X25.2915 Y-182.9756 F12000.0
G1 Z0.0000 F8000.0
G0 X25.1588 Y-183.1967 F15000.0
G1 Z11.9000 F8000.0
G1 X24.8934 Y-183.3294 F12000.0
G1 X24.0089 Y-183.0198
G1 X23.7435 Y-182.5775
G1 Z0.0000 F8000.0
G0 X22.3283 Y-180.1008 F15000.0
G1 Z11.9000 F8000.0
G1 X21.0457 Y-180.2335 F12000.0
G1 Z0.0000 F8000.0
G0 X21.1296 Y-176.4689 F15000.0
G1 Z11.9000 F8000.0
G1 X20.2008 Y-176.4247 F12000.0
G1 Z0.0000 F8000.0
G0 X19.8470 Y-176.1151 F15000.0
G1 Z11.9000 F8000.0
G1 X19.4048 Y-175.0979 F12000.0
G1 Z0.0000 F8000.0
G0 X19.2721 Y-174.7441 F15000.0
G1 Z11.9000 F8000.0
G1 X19.2278 Y-174.6114 F12000.0
G1 Z0.0000 F8000.0
G0 X19.0509 Y-174.1249 F15000.0
G1 Z11.9000 F8000.0
G1 X18.9183 Y-173.6826 F12000.0
G1 X19.0952 Y-173.4615
G1 X19.9797 Y-173.3288
G1 Z0.0000 F8000.0
G0 X21.0854 Y-172.4001 F15000.0
G1 Z11.9000 F8000.0
G1 X21.6603 Y-173.7711 F12000.0
G1 Z0.0000 F8000.0
G0 X21.7930 Y-174.1249 F15000.0
G1 Z11.9000 F8000.0
G1 X21.8372 Y-174.2576 F12000.0
G1 Z0.0000 F8000.0
G0 X21.9699 Y-174.6114 F15000.0
G1 Z11.9000 F8000.0
G1 X22.0141 Y-174.7441 F12000.0
G1 Z0.0000 F8000.0
G0 X22.1468 Y-175.0979 F15000.0
G1 Z11.9000 F8000.0
G1 X22.2353 Y-175.3190 F12000.0
G1 X22.1910 Y-175.5402
G1 X21.5276 Y-175.4075
G1 X21.0854 Y-174.8325
G1 X20.7316 Y-173.8595
G1 X20.7758 Y-173.5500
G1 X21.3950 Y-173.3288
G1 X22.1910 Y-173.4173
G1 X22.5449 Y-173.7269
G1 Z0.0000 F8000.0
G0 X22.6775 Y-173.9922 F15000.0
G1 Z11.9000 F8000.0
G1 X23.0756 Y-175.0979 F12000.0
G1 X22.8987 Y-175.4517
G1 X22.4122 Y-175.5844
G1 X22.5449 Y-176.0267
G1 Z0.0000 F8000.0
G0 X23.7832 Y-175.2748 F15000.0
G1 Z11.9000 F8000.0
G1 X23.6505 Y-175.0094 F12000.0
G1 X23.2525 Y-173.4615
G1 X24.3139 Y-173.3288
G1 Z0.0000 F8000.0
G0 X24.9331 Y-173.3288 F15000.0
G1 Z11.9000 F8000.0
G1 X26.0388 Y-173.5057 F12000.0
G1 X26.5253 Y-174.6999
G1 Z0.0000 F8000.0
G0 X26.7022 Y-175.1863 F15000.0
G1 Z11.9000 F8000.0
G1 X26.7022 Y-175.4075 F12000.0
G1 Z0.0000 F8000.0
G0 X26.5695 Y-175.5402 F15000.0
G1 Z11.9000 F8000.0
G1 X25.6407 Y-175.4959 F12000.0
G1 X24.4466 Y-172.4001
G1 Z0.0000 F8000.0
G0 X23.5179 Y-174.4345 F15000.0
G1 Z11.9000 F8000.0
G1 X24.6235 Y-174.4787 F12000.0
G1 X24.9331 Y-175.3633
G1 X24.8889 Y-175.4075
G1 Z0.0000 F8000.0
G0 X24.7562 Y-175.5402 F15000.0
G1 Z11.9000 F8000.0
G1 X23.9159 Y-175.4075 F12000.0
G1 Z0.0000 F8000.0
G0 X27.0118 Y-174.3018 F15000.0
G1 Z11.9000 F8000.0
G1 X26.7906 Y-173.4615 F12000.0
G1 X27.3656 Y-173.3288
G1 X27.9848 Y-173.5500
G1 X28.6039 Y-175.4959
G1 X27.7636 Y-175.4959
G1 X27.3656 Y-175.2748
G1 Z0.0000 F8000.0
G0 X36.4119 Y-180.6705 F15000.0
G1 Z11.9000 F8000.0
G1 X40.9428 Y-182.4828 F12000.0
G1 X40.2014 Y-182.8123 F12000.0
G1 Z0.0000 F8000.0
G0 X36.4119 Y-180.6705 F15000.0
G1 Z11.9000 F8000.0
G1 X45.6385 Y-185.7780 F12000.0
G1 Z0.0000 F8000.0
G0 X37.9771 Y-193.1098 F15000.0
G1 Z11.9000 F8000.0
G1 X37.9771 Y-200.2769 F12000.0
G1 Z0.0000 F8000.0
G0 X37.9771 Y-198.3821 F15000.0
G1 Z11.9000 F8000.0
G1 X33.1167 Y-198.9588 F12000.0
G1 X33.6110 Y-198.3821 F12000.0
G1 X33.1167 Y-197.7231 F12000.0
G1 X37.9771 Y-198.3821 F12000.0
G1 X31.1396 Y-198.3821 F12000.0
G1 Z0.0000 F8000.0
G0 X34.8207 Y-198.6705 F15000.0
G1 Z11.9000 F8000.0
G1 X35.6964 Y-198.6705 F12000.0
G1 Z0.0000 F8000.0
G0 X36.0260 Y-198.0938 F15000.0
G1 Z11.9000 F8000.0
G1 X35.1503 Y-198.0938 F12000.0
G1 Z0.0000 F8000.0
G0 X37.9771 Y-198.3821 F15000.0
G1 Z11.9000 F8000.0
G1 X39.9542 Y-198.3821 F12000.0
G1 Z0.0000 F8000.0
G0 X38.2914 Y-135.6911 F15000.0
G1 Z11.9000 F8000.0
G1 X37.4157 Y-135.6911 F12000.0
G1 Z0.0000 F8000.0
G0 X37.0862 Y-135.0732 F15000.0
G1 Z11.9000 F8000.0
G1 X37.9619 Y-135.0732 F12000.0
G1 Z0.0000 F8000.0
G0 X38.9657 Y-58.9131 F15000.0
G1 Z11.9000 F8000.0
G1 X38.9657 Y-5.3662 F12000.0
G1 Z0.0000 F8000.0
G0 X53.5469 Y-5.3662 F15000.0
G1 Z11.9000 F8000.0
G1 X53.5469 Y-58.9131 F12000.0
G1 Z0.0000 F8000.0
G0 X63.2677 Y-58.9131 F15000.0
G1 Z11.9000 F8000.0
G1 X63.2677 Y-5.3662 F12000.0
G1 Z0.0000 F8000.0
G0 X63.2677 Y-10.2266 F15000.0
G1 Z11.9000 F8000.0
G1 X0.0000 Y-10.2266 F12000.0
G1 Z0.0000 F8000.0
G0 X1.6976 Y-11.5119 F15000.0
G1 Z11.9000 F8000.0
G1 X2.3541 Y-10.4452 F12000.0
G1 X2.6934 Y-10.5286
G1 X2.5338 Y-10.3534
G1 X2.7057 Y-10.5165
G1 X2.6180 Y-10.3647
G1 Z0.0000 F8000.0
G0 X3.1495 Y-11.3979 F15000.0
G1 Z11.9000 F8000.0
G1 X2.2465 Y-9.6252 F12000.0
G1 X1.9708 Y-9.5745
G1 X2.7968 Y-10.5750
G1 X3.4736 Y-10.8999
G1 X4.5593 Y-10.9767
G1 X4.1650 Y-10.9163
G1 X4.2436 Y-9.6863
G1 X5.2698 Y-10.3262
G1 X5.8956 Y-10.3001
G1 X6.2002 Y-10.1560
G1 X6.1367 Y-10.7353
G1 X6.2159 Y-9.7344
G1 X5.8958 Y-9.6287
G1 X5.3379 Y-10.1214
G1 X5.2411 Y-10.3096
G1 X5.9788 Y-10.9767
G1 Z0.0000 F8000.0
G0 X3.9940 Y-12.3971 F15000.0
G1 Z11.9000 F8000.0
G1 X4.0185 Y-13.0138 F12000.0
G1 X4.5122 Y-13.3358
G1 X4.8697 Y-13.8080
G1 Z0.0000 F8000.0
G0 X3.9940 Y-13.7593 F15000.0
G1 Z11.9000 F8000.0
G1 X4.0688 Y-13.1917 F12000.0
G1 X4.5320 Y-12.9236
G1 X4.4475 Y-13.1616
G1 X4.4462 Y-13.0537
G1 X4.8419 Y-12.4773
G1 X5.3742 Y-12.8527
G1 X5.4642 Y-13.4566
G1 X5.7231 Y-13.7626
G1 X5.6613 Y-13.7138
G1 X6.0546 Y-13.8066
G1 X6.3885 Y-13.6940
G1 X6.4976 Y-13.5011
G1 X6.5914 Y-12.7606
G1 X6.4655 Y-12.5662
G1 X6.0061 Y-12.3867
G1 X5.7840 Y-12.4346
G1 X5.4501 Y-12.7348
G1 X5.6066 Y-12.5057
G1 X5.7943 Y-12.4117
G1 X7.1476 Y-12.4311
G1 X7.2049 Y-13.6758
G1 X7.2495 Y-13.1636
G1 X8.1852 Y-13.0414
G1 X8.2694 Y-12.5023
G1 X8.3082 Y-13.7027
G1 X8.7533 Y-13.7983
G1 X9.9293 Y-13.8080
G1 Z0.0000 F8000.0
G0 X9.3455 Y-13.8080 F15000.0
G1 Z11.9000 F8000.0
G1 X9.4267 Y-12.4567 F12000.0
G1 X10.5015 Y-12.5258
G1 X11.2125 Y-12.4151
G1 X11.5085 Y-12.6368
G1 X11.6087 Y-12.8475
G1 X11.5147 Y-13.5858
G1 X11.2233 Y-13.7401
G1 X10.6242 Y-13.6397
G1 X10.4828 Y-12.8160
G1 X10.5400 Y-11.8412
G1 X11.5347 Y-12.6404
G1 Z0.0000 F8000.0
G0 X16.5584 Y-5.3662 F15000.0
G1 Z11.9000 F8000.0
G1 X16.5584 Y-58.9131 F12000.0
G1 Z0.0000 F8000.0
G0 X6.8375 Y-58.9131 F15000.0
G1 Z11.9000 F8000.0
G1 X6.8375 Y-34.6110 F12000.0
G1 Z0.0000 F8000.0
G0 X7.0322 Y-33.7740 F15000.0
G1 Z11.9000 F8000.0
G1 X6.9835 Y-33.6767 F12000.0
G1 Z0.0000 F8000.0
G0 X6.0105 Y-33.6281 F15000.0
G1 Z11.9000 F8000.0
G1 X6.6090 Y-33.4656 F12000.0
G1 X6.9537 Y-33.6738
G1 X7.0534 Y-33.8835
G1 X6.9541 Y-34.6183
G1 X6.7913 Y-34.7864
G1 X6.3112 Y-34.7830
G1 X6.0347 Y-34.5866
G1 X5.9619 Y-32.8497
G1 Z0.0000 F8000.0
G0 X4.5997 Y-33.4821 F15000.0
G1 Z11.9000 F8000.0
G1 X4.9537 Y-33.5084 F12000.0
G1 X5.2593 Y-33.6790
G1 X5.1374 Y-34.0914
G1 X4.9895 Y-34.1613
G1 X5.1659 Y-34.2345
G1 X5.2064 Y-34.6867
G1 X4.9093 Y-34.8190
G1 X4.6829 Y-34.7871
G1 X4.5024 Y-34.6011
G1 Z0.0000 F8000.0
G0 X3.7240 Y-34.7957 F15000.0
G1 Z11.9000 F8000.0
G1 X3.8463 Y-34.3069 F12000.0
G1 X3.8469 Y-33.5404
G1 X3.5339 Y-33.6381
G1 X3.1633 Y-34.0785
G1 X3.7874 Y-34.1648
G1 X3.9082 Y-33.5007
G1 X3.0396 Y-33.4782
G1 X2.9063 Y-33.9705
G1 X3.0307 Y-34.0547
G1 X2.8451 Y-33.6594
G1 X2.9294 Y-34.5656
G1 X3.6267 Y-34.8443
G1 Z0.0000 F8000.0
G0 X2.3132 Y-34.7470 F15000.0
G1 Z11.9000 F8000.0
G1 X2.2216 Y-35.1175 F12000.0
G1 X1.0302 Y-35.3861
G1 X0.9447 Y-35.2305
G1 X0.9053 Y-33.5713
G1 X1.0077 Y-34.3380
G1 X2.2645 Y-34.6497
G1 Z0.0000 F8000.0
G0 X0.0000 Y-34.6110 F15000.0
G1 Z11.9000 F8000.0
G1 X63.2677 Y-34.6110 F12000.0
G1 Z0.0000 F8000.0
G0 X61.3329 Y-36.7023 F15000.0
G1 Z11.9000 F8000.0
G1 X61.2824 Y-36.6252 F12000.0
G1 X60.9984 Y-36.5812
G1 X61.0648 Y-36.6541
G1 Z0.0000 F8000.0
G0 X61.2816 Y-37.3549 F15000.0
G1 Z11.9000 F8000.0
G1 X61.3474 Y-36.6094 F12000.0
G1 X60.3198 Y-36.5687
G1 X60.1327 Y-36.8465
G1 X60.3872 Y-37.2479
G1 X61.2813 Y-37.5499
G1 X61.2491 Y-37.8853
G1 X60.9553 Y-38.0884
G1 X60.4653 Y-38.0569
G1 X60.2930 Y-37.9560
G1 X60.3350 Y-38.0163
G1 Z0.0000 F8000.0
G0 X59.6540 Y-38.0650 F15000.0
G1 Z11.9000 F8000.0
G1 X58.6492 Y-38.0623 F12000.0
G1 X58.4294 Y-37.9866
G1 X57.9675 Y-37.4165
G1 X57.9578 Y-36.6936
G1 X57.1985 Y-36.5360
G1 X56.9629 Y-36.5688
G1 X56.7759 Y-36.8465
G1 X57.1354 Y-37.3017
G1 X57.8557 Y-37.4793
G1 X57.9366 Y-37.7767
G1 X57.8111 Y-37.9723
G1 X57.5985 Y-38.0884
G1 X57.1085 Y-38.0569
G1 X56.9361 Y-37.9560
G1 X56.9782 Y-38.0163
G1 Z0.0000 F8000.0
G0 X59.0215 Y-38.0650 F15000.0
G1 Z11.9000 F8000.0
G1 X59.0702 Y-36.6055 F12000.0
G1 Z0.0000 F8000.0
G0 X54.8377 Y-38.7461 F15000.0
G1 Z11.9000 F8000.0
G1 X55.8761 Y-38.6868 F12000.0
G1 X55.9716 Y-36.6351
G1 X56.1225 Y-36.5474
G1 X56.1820 Y-36.1239
G1 X55.8424 Y-36.5848
G1 X54.6102 Y-36.6260
G1 X54.3136 Y-36.1157
G1 X54.3171 Y-36.4289
G1 X54.5878 Y-36.7915
G1 X54.6894 Y-37.1528
G1 X54.7890 Y-38.6488
G1 Z0.0000 F8000.0
G0 X49.2865 Y-36.9298 F15000.0
G1 Z11.9000 F8000.0
G1 X49.2072 Y-38.2124 F12000.0
G1 X48.2633 Y-36.9441
G1 X47.7139 Y-36.5114
G1 X47.5586 Y-36.8775
G1 X46.5107 Y-36.9283
G1 X47.3807 Y-36.9077
G1 X47.4543 Y-36.9689
G1 X47.3954 Y-38.2060
G1 X46.5014 Y-37.0417
G1 X46.2428 Y-36.5750
G1 X46.2703 Y-36.8811
G1 Z0.0000 F8000.0
G0 X45.7838 Y-38.0974 F15000.0
G1 Z11.9000 F8000.0
G1 X45.5674 Y-38.2400 F12000.0
G1 X45.7428 Y-37.9999
G1 X45.8491 Y-37.2640
G1 X45.6728 Y-36.9892
G1 X45.7160 Y-37.0621
G1 X45.3069 Y-36.9132
G1 X44.9611 Y-36.9921
G1 X44.8081 Y-37.1641
G1 X44.6905 Y-37.5151
G1 X44.9079 Y-38.1448
G1 X45.4919 Y-38.2920
G1 Z0.0000 F8000.0
G0 X44.0324 Y-36.9298 F15000.0
G1 Z11.9000 F8000.0
G1 X43.9278 Y-38.7791 F12000.0
G1 X42.5729 Y-36.9298
G1 Z0.0000 F8000.0
G0 X34.5082 Y-36.5338 F15000.0
G1 Z11.9000 F8000.0
G1 X34.3498 Y-37.4550 F12000.0
G1 X34.3794 Y-37.8143
G1 X34.1258 Y-37.5532
G1 X33.8991 Y-36.9142
G1 X34.0281 Y-37.3307
G1 X33.6914 Y-36.6984
G1 X33.8481 Y-36.8372
G1 X33.9963 Y-37.2386
G1 X33.6660 Y-36.7443
G1 X33.0367 Y-37.7423
G1 X33.1669 Y-37.6071
G1 X32.9255 Y-37.6175
G1 X32.8259 Y-36.5536
G1 X32.6352 Y-36.5128
G1 X31.6516 Y-36.6630
G1 X31.0541 Y-37.8960
G1 Z0.0000 F8000.0
G0 X30.6163 Y-38.1392 F15000.0
G1 Z11.9000 F8000.0
G1 X31.0174 Y-37.9527 F12000.0
G1 X30.9953 Y-37.8981
G1 X30.4582 Y-37.9739
G1 Z0.0000 F8000.0
G0 X30.4217 Y-38.0419 F15000.0
G1 Z11.9000 F8000.0
G1 X29.9079 Y-37.3857 F12000.0
G1 X29.5460 Y-37.9933
G1 Z0.0000 F8000.0
G0 X30.0008 Y-37.4039 F15000.0
G1 Z11.9000 F8000.0
G1 X29.5802 Y-37.2167 F12000.0
G1 X29.5668 Y-36.5604
G1 X30.0119 Y-37.1416
G1 X30.9841 Y-35.9171
G1 X31.1605 Y-35.8070
G1 X31.4522 Y-35.9718
G1 X31.5847 Y-36.5690
G1 X31.8436 Y-36.9362
G1 X32.2703 Y-38.0419
G1 Z0.0000 F8000.0
G0 X27.6000 Y-37.7014 F15000.0
G1 Z11.9000 F8000.0
G1 X27.9870 Y-38.0419 F12000.0
G1 X28.3563 Y-38.0691
G1 X28.5549 Y-37.9578
G1 X28.8290 Y-37.0028
G1 X28.7664 Y-36.7797
G1 X28.5353 Y-36.4941
G1 X28.3092 Y-36.4197
G1 X27.6537 Y-36.7215
G1 X27.5625 Y-36.9445
G1 X27.5513 Y-37.6041
G1 Z0.0000 F8000.0
G0 X26.7729 Y-36.5338 F15000.0
G1 Z11.9000 F8000.0
G1 X26.9468 Y-36.3845 F12000.0
G1 X27.0162 Y-35.9500
G1 Z0.0000 F8000.0
G0 X25.3135 Y-35.9500 F15000.0
G1 Z11.9000 F8000.0
G1 X25.3621 Y-36.4365 F12000.0
G1 Z0.0000 F8000.0
G0 X25.8486 Y-38.0419 F15000.0
G1 Z11.9000 F8000.0
G1 X26.7729 Y-36.5338 F12000.0
G1 X25.3621 Y-36.4365
G1 X25.5567 Y-36.7284
G1 X25.8486 Y-38.0419
G1 Z0.0000 F8000.0
G0 X23.8905 Y-37.2635 F15000.0
G1 Z11.9000 F8000.0
G1 X23.9627 Y-37.4967 F12000.0
G1 X23.8667 Y-37.9891
G1 X23.3762 Y-38.1340
G1 X23.7258 Y-38.1115
G1 X23.8531 Y-38.0128
G1 X23.1657 Y-37.9823
G1 X23.1522 Y-37.3051
G1 X23.8548 Y-36.6452
G1 X23.8385 Y-37.2178
G1 X23.4743 Y-37.1102
G1 X23.3067 Y-37.1662
G1 Z0.0000 F8000.0
G0 X22.5283 Y-38.6257 F15000.0
G1 Z11.9000 F8000.0
G1 X22.4906 Y-36.9600 F12000.0
G1 X22.4003 Y-36.7401
G1 X22.1252 Y-36.9200
G1 X21.5721 Y-37.8089
G1 X21.0741 Y-38.2770
G1 X20.9735 Y-38.0344
G1 X20.9715 Y-36.4851
G1 Z0.0000 F8000.0
G0 X21.1107 Y-33.0887 F15000.0
G1 Z11.9000 F8000.0
G1 X20.7335 Y-32.0970 F12000.0
G1 X20.8036 Y-32.2262
G1 X20.6249 Y-32.0133
G1 X20.4934 Y-31.4411
G1 X20.3553 Y-31.2467
G1 X20.2027 Y-31.1878
G1 X20.5189 Y-32.0103
G1 X20.4321 Y-32.1380
G1 Z0.0000 F8000.0
G0 X20.8171 Y-32.3197 F15000.0
G1 Z11.9000 F8000.0
G1 X20.4535 Y-32.1925 F12000.0
G1 X20.0271 Y-33.1581
G1 X19.5877 Y-33.3443
G1 X19.2628 Y-33.6451
G1 X18.5532 Y-33.7383
G1 X18.1860 Y-33.5339
G1 X18.3780 Y-33.7017
G1 X18.1133 Y-33.3952
G1 X17.9470 Y-32.8080
G1 X17.9795 Y-32.5730
G1 X18.2497 Y-31.9957
G1 Z0.0000 F8000.0
G0 X18.3920 Y-31.9008 F15000.0
G1 Z11.9000 F8000.0
G1 X18.9595 Y-31.7996 F12000.0
G1 X19.3817 Y-32.0162
G1 X19.3087 Y-31.9434
G1 X19.5307 Y-32.2804
G1 Z0.0000 F8000.0
G0 X19.5930 Y-30.7423 F15000.0
G1 Z11.9000 F8000.0
G1 X20.1114 Y-29.6187 F12000.0
G1 X20.1860 Y-29.5994
G1 X20.3382 Y-29.7468
G1 X20.7088 Y-30.6599
G1 X21.2570 Y-30.5877
G1 X21.8491 Y-30.7027
G1 X22.0807 Y-30.3485
G1 X21.9260 Y-30.6753
G1 X22.0339 Y-30.1406
G1 X21.9904 Y-30.0534
G1 X21.7820 Y-30.0125
G1 X22.0155 Y-29.8905
G1 X22.1027 Y-29.4425
G1 X21.7937 Y-29.3049
G1 X21.3782 Y-29.3912
G1 X21.4904 Y-29.3314
G1 Z0.0000 F8000.0
G0 X20.2255 Y-29.5747 F15000.0
G1 Z11.9000 F8000.0
G1 X20.0410 Y-28.9597 F12000.0
G1 X19.7650 Y-28.7037
G1 X19.9716 Y-28.8326
G1 X19.9336 Y-28.6990
G1 Z0.0000 F8000.0
G0 X18.9119 Y-29.3314 F15000.0
G1 Z11.9000 F8000.0
G1 X18.8440 Y-31.2917 F12000.0
G1 X17.4038 Y-29.3801
G1 Z0.0000 F8000.0
G0 X21.6657 Y-32.5650 F15000.0
G1 Z11.9000 F8000.0
G1 X22.4854 Y-32.4528 F12000.0
G1 X22.5819 Y-32.1177
G1 X22.5671 Y-31.8534
G1 Z0.0000 F8000.0
G0 X22.5671 Y-33.0395 F15000.0
G1 Z11.9000 F8000.0
G1 X22.4925 Y-33.1201 F12000.0
G1 X22.6576 Y-32.0816
G1 X22.6578 Y-32.1922
G1 X22.6269 Y-31.9493
G1 X22.3977 Y-31.8437
G1 X21.7045 Y-32.4779
G1 X21.7864 Y-32.6594
G1 X22.4672 Y-33.1505
G1 X23.2796 Y-33.0145
G1 X23.8963 Y-33.1651
G1 X23.3901 Y-32.9920
G1 X23.2198 Y-32.5433
G1 X23.2325 Y-32.3097
G1 X23.3846 Y-31.9861
G1 X23.6904 Y-31.8319
G1 X24.1410 Y-31.9680
G1 X24.3390 Y-32.2438
G1 X24.2128 Y-32.9542
G1 X24.0715 Y-33.1323
G1 X24.3129 Y-33.0291
G1 X24.8824 Y-33.1365
G1 X24.9857 Y-32.8543
G1 X24.9446 Y-31.3223
G1 X25.0105 Y-31.9210
G1 X25.5365 Y-31.8362
G1 X25.8473 Y-31.9464
G1 X26.0103 Y-32.3224
G1 X25.9236 Y-32.9270
G1 X25.6772 Y-33.1550
G1 X25.4391 Y-33.1519
G1 X24.9867 Y-32.9920
G1 Z0.0000 F8000.0
G0 X24.2751 Y-32.0431 F15000.0
G1 Z11.9000 F8000.0
G1 X24.0853 Y-31.8534 F12000.0
G1 Z0.0000 F8000.0
G0 X24.6039 Y-30.6936 F15000.0
G1 Z11.9000 F8000.0
G1 X24.6039 Y-29.3314 F12000.0
G1 Z0.0000 F8000.0
G0 X22.9012 Y-29.3314 F15000.0
G1 Z11.9000 F8000.0
G1 X23.8457 Y-29.4547 F12000.0
G1 X23.9376 Y-30.1187
G1 X25.6336 Y-29.9753
G1 X25.7172 Y-29.4362
G1 X25.7562 Y-30.6360
G1 X25.9514 Y-30.7002
G1 X27.2060 Y-30.7115
G1 X27.4720 Y-30.5053
G1 X27.5943 Y-30.1692
G1 X27.4667 Y-29.5630
G1 X27.2775 Y-29.3521
G1 X26.9148 Y-29.3021
G1 X26.7025 Y-29.4008
G1 X26.4015 Y-29.7930
G1 X26.3863 Y-30.2599
G1 X26.5871 Y-30.5939
G1 X26.4194 Y-30.3032
G1 X26.4514 Y-29.6789
G1 X26.5416 Y-29.4743
G1 X26.7445 Y-29.3314
G1 Z0.0000 F8000.0
G0 X28.2040 Y-30.0612 F15000.0
G1 Z11.9000 F8000.0
G1 X29.2536 Y-29.7713 F12000.0
G1 X28.9677 Y-29.3452
G1 X28.2489 Y-29.9647
G1 X28.3245 Y-30.1438
G1 X29.0378 Y-30.6347
G1 X29.1249 Y-30.6229
G1 X29.2014 Y-30.4265
G1 X29.1697 Y-29.9644
G1 X29.3050 Y-29.8837
G1 X30.1007 Y-30.6333
G1 X30.7103 Y-30.7124
G1 X30.9806 Y-30.4917
G1 X30.9641 Y-30.1795
G1 X30.1391 Y-29.9677
G1 X29.8944 Y-29.6591
G1 X29.9456 Y-29.4434
G1 X30.2534 Y-29.3098
G1 X30.9686 Y-29.4719
G1 X31.0257 Y-30.1585
G1 Z0.0000 F8000.0
G0 X30.7778 Y-31.8534 F15000.0
G1 Z11.9000 F8000.0
G1 X31.9840 Y-31.8412 F12000.0
G1 X32.0383 Y-31.9196
G1 X31.9879 Y-33.6762
G1 X30.8652 Y-31.9864
G1 X30.6048 Y-31.4195
G1 X30.7026 Y-31.7808
G1 X32.0320 Y-31.8428
G1 X32.2232 Y-31.7554
G1 X32.2960 Y-31.3315
G1 Z0.0000 F8000.0
G0 X33.9565 Y-31.9957 F15000.0
G1 Z11.9000 F8000.0
G1 X33.8480 Y-32.1132 F12000.0
G1 X33.6585 Y-32.6901
G1 X33.8627 Y-33.5117
G1 X34.2290 Y-33.7343
G1 X34.9413 Y-33.6590
G1 X35.1854 Y-33.2978
G1 X35.1890 Y-32.2026
G1 X35.0261 Y-31.9572
G1 X34.5633 Y-31.7881
G1 X34.0989 Y-31.9008
G1 Z0.0000 F8000.0
G0 X29.2092 Y-31.8534 F15000.0
G1 Z11.9000 F8000.0
G1 X29.2991 Y-32.1262 F12000.0
G1 X29.2474 Y-32.3533
G1 X28.9593 Y-32.5242
G1 X28.2441 Y-32.5000
G1 X27.4538 Y-31.8534
G1 Z0.0000 F8000.0
G0 X27.6436 Y-32.9920 F15000.0
G1 Z11.9000 F8000.0
G1 X27.4254 Y-33.1380 F12000.0
G1 X27.6269 Y-32.8084
G1 X27.7103 Y-32.3246
G1 X27.6546 Y-32.1127
G1 X27.2617 Y-31.8550
G1 X27.0260 Y-31.8394
G1 X26.8149 Y-31.9375
G1 X26.5941 Y-32.3430
G1 X26.6868 Y-32.9151
G1 X26.8046 Y-33.0505
G1 X27.3589 Y-33.1818
G1 Z0.0000 F8000.0
G0 X29.0669 Y-33.1818 F15000.0
G1 Z11.9000 F8000.0
G1 X28.3473 Y-32.5218 F12000.0
G1 X28.4500 Y-32.3396
G1 X28.9960 Y-31.8600
G1 X29.1004 Y-31.8454
G1 X29.3236 Y-32.0690
G1 X29.2092 Y-33.0395
G1 Z0.0000 F8000.0
G0 X22.9012 Y-30.6450 F15000.0
G1 Z11.9000 F8000.0
G1 X23.5261 Y-30.7150 F12000.0
G1 X23.7356 Y-30.6119
G1 X23.8589 Y-30.4115
G1 X23.8355 Y-30.1953
G1 X23.1348 Y-30.0196
G1 X22.7632 Y-29.7205
G1 X22.7524 Y-29.5594
G1 X22.9985 Y-30.0125
G1 Z0.0000 F8000.0
G0 X14.3694 Y-36.6704 F15000.0
G1 Z11.9000 F8000.0
G1 X14.3208 Y-38.0326 F12000.0
G1 Z0.0000 F8000.0
G0 X14.8559 Y-38.0326 F15000.0
G1 Z11.9000 F8000.0
G1 X13.0674 Y-37.9914 F12000.0
G1 X12.4959 Y-37.7658
G1 X12.3917 Y-37.2966
G1 X12.4578 Y-36.9420
G1 X12.9832 Y-36.6595
G1 X13.3836 Y-36.8306
G1 X13.3478 Y-36.7677
G1 Z0.0000 F8000.0
G0 X11.7424 Y-36.6704 F15000.0
G1 Z11.9000 F8000.0
G1 X11.5659 Y-37.6688 F12000.0
G1 X11.3268 Y-37.4909
G1 X10.9797 Y-36.9938
G1 X10.8329 Y-36.9311
G1 X10.9307 Y-36.9836
G1 X10.7395 Y-37.0044
G1 X10.6721 Y-37.9839
G1 Z0.0000 F8000.0
G0 X11.5478 Y-37.7407 F15000.0
G1 Z11.9000 F8000.0
G1 X11.6994 Y-37.8903 F12000.0
G1 X11.1046 Y-37.1771
G1 X10.5732 Y-36.8567
G1 X9.9979 Y-36.7203
G1 X9.8765 Y-38.5222
G1 X9.8166 Y-38.5904
G1 X8.8720 Y-38.6164
G1 Z0.0000 F8000.0
G0 X8.8234 Y-38.5191 F15000.0
G1 Z11.9000 F8000.0
G1 X8.7731 Y-36.8402 F12000.0
G1 X8.6933 Y-36.6474
G1 X8.5315 Y-36.5731
G1 Z0.0000 F8000.0
G0 X10.5836 Y-35.4768 F15000.0
G1 Z11.9000 F8000.0
G1 X9.6173 Y-35.2891 F12000.0
G1 X9.4924 Y-35.1482
G1 X9.3992 Y-34.8069
G1 X9.4899 Y-33.7655
G1 X9.6343 Y-33.5729
G1 X9.9705 Y-33.4726
G1 X10.3237 Y-33.5917
G1 X10.5022 Y-33.7469
G1 X10.5565 Y-33.9754
G1 X10.3751 Y-34.6918
G1 X10.1723 Y-34.8043
G1 X9.8054 Y-34.8052
G1 X9.5413 Y-34.6749
G1 X10.2082 Y-34.7658
G1 X10.4049 Y-34.6748
G1 X10.4834 Y-34.4761
G1 X10.4376 Y-33.6281
G1 Z0.0000 F8000.0
G0 X8.7349 Y-33.4821 F15000.0
G1 Z11.9000 F8000.0
G1 X8.6209 Y-33.6613 F12000.0
G1 X8.6682 Y-34.2704
G1 X8.5311 Y-34.7407
G1 X8.3403 Y-34.8017
G1 X7.7749 Y-34.5888
G1 X7.6683 Y-33.7499
G1 X7.7411 Y-33.5371
G1 X7.9521 Y-33.4574
G1 X8.7254 Y-33.4945
G1 X8.6082 Y-34.1567
G1 X7.9771 Y-34.0853
G1 X8.4327 Y-33.5833
G1 X8.5890 Y-33.5794
G1 Z0.0000 F8000.0
G0 X6.2009 Y-36.6704 F15000.0
G1 Z11.9000 F8000.0
G1 X6.0898 Y-37.6477 F12000.0
G1 X5.8790 Y-37.5132
G1 X5.5110 Y-36.7663
G1 X4.8497 Y-37.7274
G1 X4.7488 Y-36.7520
G1 X4.7498 Y-37.6480
G1 X3.4042 Y-37.8453
G1 X3.6421 Y-38.0124
G1 X3.9859 Y-37.9376
G1 X4.0303 Y-37.4951
G1 X3.8251 Y-37.3522
G1 X3.9809 Y-37.2610
G1 X4.1049 Y-36.9371
G1 X4.0720 Y-36.8517
G1 X3.6407 Y-36.6576
G1 X2.6675 Y-36.6995
G1 X2.5824 Y-36.8839
G1 X2.4756 Y-38.1372
G1 X2.5614 Y-38.4000
G1 X2.0595 Y-37.8634
G1 X2.2524 Y-38.1163
G1 X1.5503 Y-37.1432
G1 X1.2391 Y-36.8376
G1 X1.1413 Y-38.5677
G1 Z0.0000 F8000.0
G0 X0.0000 Y-39.4714 F15000.0
G1 Z11.9000 F8000.0
G1 X63.2677 Y-39.4714 F12000.0
G1 Z0.0000 F8000.0
G0 X63.2677 Y-44.3318 F15000.0
G1 Z11.9000 F8000.0
G1 X0.0000 Y-44.3318 F12000.0
G1 Z0.0000 F8000.0
G0 X0.0000 Y-49.1922 F15000.0
G1 Z11.9000 F8000.0
G1 X63.2677 Y-49.1922 F12000.0
G1 Z0.0000 F8000.0
G0 X63.2677 Y-44.3318 F15000.0
G1 Z11.9000 F8000.0
G1 X180.0000 Y-44.3318 F12000.0
G1 Z0.0000 F8000.0
G0 X178.0591 Y-43.6779 F15000.0
G1 Z11.9000 F8000.0
G1 X176.9660 Y-43.3808 F12000.0
G1 X176.7468 Y-43.0607
G1 X176.7453 Y-42.7254
G1 X177.7972 Y-42.7511
G1 X178.0533 Y-42.3572
G1 X178.0890 Y-42.1113
G1 X178.0186 Y-41.8944
G1 X177.2979 Y-41.2470
G1 X177.0255 Y-41.4300
G1 X176.7385 Y-42.5029
G1 X177.0472 Y-42.7633
G1 X176.7456 Y-42.5589
G1 Z0.0000 F8000.0
G0 X175.9186 Y-42.2670 F15000.0
G1 Z11.9000 F8000.0
G1 X175.9507 Y-41.6397 F12000.0
G1 X175.8626 Y-41.4231
G1 X175.2391 Y-41.2300
G1 X174.7806 Y-41.5036
G1 X175.7846 Y-42.1852
G1 X175.9075 Y-42.3709
G1 X175.8661 Y-42.7165
G1 X175.1660 Y-42.8767
G1 X174.8989 Y-42.8121
G1 X174.9942 Y-42.8995
G1 Z0.0000 F8000.0
G0 X174.1672 Y-42.8995 F15000.0
G1 Z11.9000 F8000.0
G1 X172.9509 Y-42.8995 F12000.0
G1 Z0.0000 F8000.0
G0 X172.4158 Y-42.8508 F15000.0
G1 Z11.9000 F8000.0
G1 X171.3941 Y-41.2940 F12000.0
G1 Z0.0000 F8000.0
G0 X171.3455 Y-42.8508 F15000.0
G1 Z11.9000 F8000.0
G1 X171.3216 Y-41.3499 F12000.0
G1 X171.1500 Y-41.2638
G1 X170.5251 Y-41.3247
G1 X170.3494 Y-41.4187
G1 X170.3239 Y-42.8508
G1 Z0.0000 F8000.0
G0 X169.6428 Y-42.6076 F15000.0
G1 Z11.9000 F8000.0
G1 X169.4021 Y-42.8716 F12000.0
G1 X168.8039 Y-42.8487
G1 X168.5683 Y-42.5704
G1 X168.4480 Y-41.9606
G1 X168.6910 Y-41.4003
G1 X169.1316 Y-41.2344
G1 X169.4757 Y-41.3608
G1 X169.6481 Y-41.5575
G1 X169.5941 Y-41.4400
G1 Z0.0000 F8000.0
G0 X167.7454 Y-41.4886 F15000.0
G1 Z11.9000 F8000.0
G1 X167.7469 Y-42.1683 F12000.0
G1 X167.6793 Y-41.4261
G1 X167.0521 Y-41.2339
G1 X166.6130 Y-41.5116
G1 X167.6239 Y-42.1938
G1 X167.7380 Y-42.3843
G1 X167.6839 Y-42.7261
G1 X166.9777 Y-42.8780
G1 X166.7289 Y-42.8173
G1 X166.8211 Y-42.8995
G1 Z0.0000 F8000.0
G0 X165.6048 Y-43.2887 F15000.0
G1 Z11.9000 F8000.0
G1 X165.2099 Y-42.6448 F12000.0
G1 X165.5914 Y-43.1900
G1 X165.7021 Y-41.2940
G1 Z0.0000 F8000.0
G0 X164.7292 Y-41.4886 F15000.0
G1 Z11.9000 F8000.0
G1 X164.9769 Y-41.9893 F12000.0
G1 X164.8955 Y-41.7140
G1 X165.0802 Y-42.2796
G1 X164.6877 Y-41.5621
G1 X163.8576 Y-43.0450
G1 X163.6737 Y-43.2327
G1 X163.6952 Y-43.3461
G1 X163.6102 Y-41.3427
G1 Z0.0000 F8000.0
G0 X162.5355 Y-44.3318 F15000.0
G1 Z11.9000 F8000.0
G1 X162.5355 Y-24.8078 F12000.0
G1 Z0.0000 F8000.0
G0 X162.1612 Y-23.4200 F15000.0
G1 Z11.9000 F8000.0
G1 X162.6130 Y-23.4835 F12000.0
G1 X163.1348 Y-23.1734
G1 X163.2609 Y-22.5704
G1 X163.1758 Y-22.2080
G1 X163.0306 Y-22.0385
G1 X162.3170 Y-21.8495
G1 X162.2137 Y-21.8951
G1 X161.8674 Y-22.4043
G1 X161.9184 Y-23.0138
G1 X162.1011 Y-23.3509
G1 X161.9145 Y-23.1484
G1 X161.3014 Y-23.4577
G1 X160.1666 Y-23.4687
G1 Z0.0000 F8000.0
G0 X160.7017 Y-23.4687 F15000.0
G1 Z11.9000 F8000.0
G1 X160.7504 Y-21.8632 F12000.0
G1 Z0.0000 F8000.0
G0 X159.7287 Y-22.2524 F15000.0
G1 Z11.9000 F8000.0
G1 X159.5250 Y-21.9935 F12000.0
G1 X158.9307 Y-21.8460
G1 X158.6205 Y-21.9900
G1 X158.4495 Y-22.3132
G1 X158.4643 Y-22.9340
G1 X158.7160 Y-23.3495
G1 X159.0511 Y-23.4895
G1 X159.5341 Y-23.3714
G1 Z0.0000 F8000.0
G0 X157.6854 Y-21.9119 F15000.0
G1 Z11.9000 F8000.0
G1 X157.2445 Y-22.8060 F12000.0
G1 X157.2684 Y-22.9071
G1 X157.5614 Y-23.1283
G1 X157.3008 Y-22.9627
G1 X156.8882 Y-22.3737
G1 X156.5475 Y-22.2240
G1 X156.5131 Y-23.3567
G1 X157.1846 Y-22.9317
G1 X156.9194 Y-22.4237
G1 X156.5207 Y-22.0279
G1 X156.5179 Y-22.1065
G1 Z0.0000 F8000.0
G0 X155.5935 Y-21.9119 F15000.0
G1 Z11.9000 F8000.0
G1 X155.5264 Y-24.1184 F12000.0
G1 X154.1724 Y-21.9013
G1 X153.9881 Y-21.8146
G1 Z0.0000 F8000.0
G0 X151.4142 Y-19.9474 F15000.0
G1 Z11.9000 F8000.0
G1 X151.4142 Y-24.8078 F12000.0
G1 Z0.0000 F8000.0
G0 X145.9771 Y-24.8078 F15000.0
G1 Z11.9000 F8000.0
G1 X145.9771 Y-44.3318 F12000.0
G1 Z0.0000 F8000.0
G0 X149.1025 Y-41.8025 F15000.0
G1 Z11.9000 F8000.0
G1 X149.1742 Y-43.4877 F12000.0
G1 X149.2512 Y-43.5929
G1 X150.0412 Y-42.0961
G1 X150.2055 Y-42.0810
G1 X150.4701 Y-42.6473
G1 X150.1206 Y-42.0041
G1 X150.1728 Y-42.0458
G1 Z0.0000 F8000.0
G0 X151.0971 Y-41.8512 F15000.0
G1 Z11.9000 F8000.0
G1 X150.9527 Y-43.3852 F12000.0
G1 X151.0153 Y-43.6464
G1 X150.6757 Y-43.1939
G1 X150.5340 Y-42.8048
G1 X150.6106 Y-43.0674
G1 Z0.0000 F8000.0
G0 X151.9728 Y-43.1647 F15000.0
G1 Z11.9000 F8000.0
G1 X152.1740 Y-43.2581 F12000.0
G1 X152.8658 Y-42.6887
G1 X151.9688 Y-42.3983
G1 X151.8150 Y-42.0845
G1 X151.9854 Y-41.7893
G1 X152.2098 Y-41.7400
G1 X152.8986 Y-41.9402
G1 X152.9788 Y-41.8908
G1 X152.9261 Y-42.5430
G1 X153.6850 Y-42.8988
G1 X153.6515 Y-42.3258
G1 X153.8419 Y-41.8821
G1 X154.1513 Y-41.7352
G1 X154.6972 Y-41.8998
G1 Z0.0000 F8000.0
G0 X154.7458 Y-43.0674 F15000.0
G1 Z11.9000 F8000.0
G1 X154.5447 Y-43.2517 F12000.0
G1 X154.0692 Y-43.2820
G1 X153.8369 Y-43.1208
G1 X154.1929 Y-43.2734
G1 X155.3393 Y-42.9095
G1 X155.3093 Y-42.3099
G1 X155.5078 Y-41.8735
G1 X155.8210 Y-41.7341
G1 X156.2826 Y-41.8934
G1 X156.3913 Y-42.0855
G1 X156.3694 Y-43.0956
G1 X156.1100 Y-43.2889
G1 X155.6380 Y-43.2349
G1 X155.4269 Y-43.0674
G1 Z0.0000 F8000.0
G0 X157.1296 Y-43.1647 F15000.0
G1 Z11.9000 F8000.0
G1 X157.3309 Y-43.2581 F12000.0
G1 X158.0226 Y-42.6887
G1 X157.1257 Y-42.3983
G1 X156.9718 Y-42.0845
G1 X157.1423 Y-41.7893
G1 X157.3666 Y-41.7400
G1 X158.0554 Y-41.9402
G1 X158.1356 Y-41.8908
G1 X158.1026 Y-42.5809
G1 Z0.0000 F8000.0
G0 X145.9771 Y-39.4714 F15000.0
G1 Z11.9000 F8000.0
G1 X180.0000 Y-39.4714 F12000.0
G1 Z0.0000 F8000.0
G0 X177.0375 Y-41.3427 F15000.0
G1 Z11.9000 F8000.0
G1 X176.8915 Y-41.4886 F12000.0
G1 Z0.0000 F8000.0
G0 X173.5834 Y-41.2940 F15000.0
G1 Z11.9000 F8000.0
G1 X173.5347 Y-42.8995 F12000.0
G1 Z0.0000 F8000.0
G0 X174.1343 Y-34.6217 F15000.0
G1 Z11.9000 F8000.0
G1 X173.8689 Y-34.2679 F12000.0
G1 X172.4094 Y-30.1990
G1 Z0.0000 F8000.0
G0 X170.9487 Y-31.3931 F15000.0
G1 Z11.9000 F8000.0
G1 X170.8160 Y-31.2605 F12000.0
G1 Z0.0000 F8000.0
G0 X169.5776 Y-30.1990 F15000.0
G1 Z11.9000 F8000.0
G1 X171.0371 Y-34.2679 F12000.0
G1 X171.3025 Y-34.6217
G1 Z0.0000 F8000.0
G0 X170.9929 Y-34.3121 F15000.0
G1 Z11.9000 F8000.0
G1 X170.6833 Y-34.2237 F12000.0
G1 Z0.0000 F8000.0
G0 X169.9314 Y-33.7372 F15000.0
G1 Z11.9000 F8000.0
G1 X169.7545 Y-33.5603 F12000.0
G1 Z0.0000 F8000.0
G0 X171.4352 Y-33.0295 F15000.0
G1 Z11.9000 F8000.0
G1 X171.6563 Y-33.1622 F12000.0
G1 Z0.0000 F8000.0
G0 X172.5863 Y-33.5603 F15000.0
G1 Z11.9000 F8000.0
G1 X172.7632 Y-33.7372 F12000.0
G1 Z0.0000 F8000.0
G0 X173.5151 Y-34.2237 F15000.0
G1 Z11.9000 F8000.0
G1 X173.8247 Y-34.3121 F12000.0
G1 Z0.0000 F8000.0
G0 X174.8195 Y-23.7306 F15000.0
G1 Z11.9000 F8000.0
G1 X174.5984 Y-23.5979 F12000.0
G1 Z0.0000 F8000.0
G0 X175.2618 Y-23.7306 F15000.0
G1 Z11.9000 F8000.0
G1 X174.4215 Y-21.3866 F12000.0
G1 X174.2446 Y-21.0770
G1 Z0.0000 F8000.0
G0 X180.0000 Y-19.9474 F15000.0
G1 Z11.9000 F8000.0
G1 X131.3959 Y-19.9474 F12000.0
G1 X63.2677 Y-19.9474 F12000.0
G1 X0.0000 Y-19.9474 F12000.0
G1 Z0.0000 F8000.0
G0 X2.2817 Y-21.9791 F15000.0
G1 Z11.9000 F8000.0
G1 X2.2330 Y-24.0224 F12000.0
G1 Z0.0000 F8000.0
G0 X1.6006 Y-24.0224 F15000.0
G1 Z11.9000 F8000.0
G1 X3.0601 Y-24.0224 F12000.0
G1 Z0.0000 F8000.0
G0 X4.1304 Y-23.3413 F15000.0
G1 Z11.9000 F8000.0
G1 X4.1667 Y-22.8025 F12000.0
G1 X4.6840 Y-22.4992
G1 X4.6119 Y-22.7582
G1 X5.0061 Y-21.9791
G1 Z0.0000 F8000.0
G0 X4.1304 Y-21.9791 F15000.0
G1 Z11.9000 F8000.0
G1 X4.1548 Y-22.5958 F12000.0
G1 X4.6486 Y-22.9177
G1 X5.0449 Y-23.3318
G1 X5.5440 Y-23.0372
G1 X5.5606 Y-22.4524
G1 X5.7825 Y-22.0812
G1 X5.5872 Y-22.3432
G1 X5.9849 Y-21.9780
G1 X6.4567 Y-22.0709
G1 X6.7158 Y-22.3048
G1 X6.6419 Y-23.0414
G1 X6.5458 Y-23.2447
G1 X5.9608 Y-23.3593
G1 X5.6385 Y-23.1467
G1 Z0.0000 F8000.0
G0 X7.3899 Y-23.3413 F15000.0
G1 Z11.9000 F8000.0
G1 X7.3899 Y-22.0729 F12000.0
G1 X7.4113 Y-22.6183
G1 X7.5773 Y-22.6972
G1 X8.3897 Y-22.5870
G1 X8.4571 Y-22.0612
G1 X8.5193 Y-23.3136
G1 X10.0656 Y-23.3899
G1 Z0.0000 F8000.0
G0 X9.4818 Y-23.3899 F15000.0
G1 Z11.9000 F8000.0
G1 X9.5631 Y-22.0387 F12000.0
G1 X10.6378 Y-22.1078
G1 X11.3489 Y-21.9970
G1 X11.6449 Y-22.2187
G1 X11.7451 Y-22.4295
G1 X11.6510 Y-23.1678
G1 X11.3597 Y-23.3221
G1 X10.7605 Y-23.2217
G1 X10.6191 Y-22.3980
G1 X10.6763 Y-21.4231
G1 X11.6710 Y-22.2223
G1 Z0.0000 F8000.0
G0 X7.4225 Y-28.9491 F15000.0
G1 Z11.9000 F8000.0
G1 X7.4412 Y-30.0302 F12000.0
G1 X7.3492 Y-30.2350
G1 X7.2588 Y-30.2572
G1 X6.5388 Y-29.6405
G1 X6.6388 Y-29.4528
G1 X7.1970 Y-28.9615
G1 X7.4823 Y-29.0570
G1 X7.5125 Y-29.2953
G1 X7.5169 Y-29.2020
G1 X7.4835 Y-29.4302
G1 X7.3906 Y-29.5275
G1 X6.4325 Y-29.7304
G1 X5.6009 Y-30.2591
G1 X5.7242 Y-30.1254
G1 X5.8883 Y-29.4023
G1 X5.7075 Y-29.0083
G1 X5.7517 Y-29.0801
G1 X5.3401 Y-28.9325
G1 X4.9944 Y-29.0114
G1 X4.8414 Y-29.1833
G1 X4.7238 Y-29.5344
G1 X4.9412 Y-30.1641
G1 X5.5252 Y-30.3112
G1 Z0.0000 F8000.0
G0 X3.0927 Y-29.0950 F15000.0
G1 Z11.9000 F8000.0
G1 X3.6911 Y-28.9325 F12000.0
G1 X4.0455 Y-29.1321
G1 X4.1392 Y-29.3440
G1 X4.0382 Y-30.0816
G1 X3.8772 Y-30.2516
G1 X3.3975 Y-30.2509
G1 X3.1179 Y-30.0572
G1 X3.0440 Y-28.3166
G1 Z0.0000 F8000.0
G0 X2.3143 Y-28.9491 F15000.0
G1 Z11.9000 F8000.0
G1 X2.2097 Y-30.7984 F12000.0
G1 X0.8548 Y-28.9491
G1 Z0.0000 F8000.0
G0 X0.0000 Y-29.7506 F15000.0
G1 Z11.9000 F8000.0
G1 X63.2677 Y-29.7506 F12000.0
G1 Z0.0000 F8000.0
G0 X63.2677 Y-24.8078 F15000.0
G1 Z11.9000 F8000.0
G1 X0.0000 Y-24.8078 F12000.0
G1 Z0.0000 F8000.0
G0 X0.0000 Y-15.0870 F15000.0
G1 Z11.9000 F8000.0
G1 X63.2677 Y-15.0870 F12000.0
G1 Z0.0000 F8000.0
G0 X81.2107 Y-8.7473 F15000.0
G1 Z11.9000 F8000.0
G1 X82.9621 Y-11.7149 F12000.0
G1 Z0.0000 F8000.0
G0 X83.6830 Y-11.2776 F15000.0
G1 Z11.9000 F8000.0
G1 X83.3936 Y-10.6307 F12000.0
G1 X83.4700 Y-9.5108
G1 X83.7122 Y-9.0754
G1 X83.9842 Y-8.8408
G1 X84.4436 Y-8.6715
G1 X85.4135 Y-8.8681
G1 X85.9366 Y-9.3985
G1 X86.1043 Y-10.0010
G1 X85.9636 Y-10.9505
G1 X85.3341 Y-11.6045
G1 X85.7642 Y-11.2749
G1 X85.9783 Y-10.8392
G1 Z0.0000 F8000.0
G0 X85.2486 Y-11.6663 F15000.0
G1 Z11.9000 F8000.0
G1 X84.6678 Y-11.7462 F12000.0
G1 X84.0678 Y-11.5724
G1 X83.7769 Y-11.3756
G1 X83.4233 Y-10.7229
G1 Z0.0000 F8000.0
G0 X85.4432 Y-8.8446 F15000.0
G1 Z11.9000 F8000.0
G1 X85.5885 Y-8.9108 F12000.0
G1 X85.8672 Y-9.2490
G1 X85.7269 Y-9.0540
G1 X85.9783 Y-9.4284
G1 Z0.0000 F8000.0
G0 X87.0973 Y-10.6446 F15000.0
G1 Z11.9000 F8000.0
G1 X87.3031 Y-11.1394 F12000.0
G1 X87.1049 Y-10.6068
G1 X87.1044 Y-9.7361
G1 X87.4833 Y-8.9727
G1 X87.7899 Y-8.8174
G1 X88.6577 Y-8.6755
G1 X89.1024 Y-8.8754
G1 X89.3828 Y-9.1642
G1 X89.3413 Y-9.1114
G1 X89.4236 Y-9.2448
G1 X89.1406 Y-8.8446
G1 Z0.0000 F8000.0
G0 X91.2325 Y-8.7473 F15000.0
G1 Z11.9000 F8000.0
G1 X91.1948 Y-11.6204 F12000.0
G1 X90.1136 Y-11.7149
G1 Z0.0000 F8000.0
G0 X89.4325 Y-11.0825 F15000.0
G1 Z11.9000 F8000.0
G1 X89.0614 Y-11.5605 F12000.0
G1 X88.4740 Y-11.7446
G1 X87.8553 Y-11.6544
G1 X87.5722 Y-11.4883
G1 X87.7503 Y-11.6171
G1 X87.3892 Y-11.3257
G1 Z0.0000 F8000.0
G0 X91.2325 Y-11.6663 F15000.0
G1 Z11.9000 F8000.0
G1 X92.3514 Y-11.7149 F12000.0
G1 Z0.0000 F8000.0
G0 X94.9694 Y-11.0825 F15000.0
G1 Z11.9000 F8000.0
G1 X94.9308 Y-11.0292 F12000.0
G1 X95.4216 Y-11.2148
G1 X95.1264 Y-11.1109
G1 X95.0927 Y-10.9321
G1 X95.4559 Y-8.6500
G1 Z0.0000 F8000.0
G0 X98.1803 Y-8.6500 F15000.0
G1 Z11.9000 F8000.0
G1 X98.4159 Y-8.8012 F12000.0
G1 X98.5202 Y-8.9783
G1 X98.1686 Y-8.6772
G1 X97.3674 Y-8.7584
G1 X97.2364 Y-8.8879
G1 X96.9356 Y-9.6643
G1 X97.0023 Y-10.4979
G1 X97.2340 Y-11.2923
G1 X97.7465 Y-11.6300
G1 X98.3240 Y-11.5050
G1 X98.5035 Y-11.3235
G1 X98.6541 Y-9.3317
G1 X98.5695 Y-9.0392
G1 Z0.0000 F8000.0
G0 X100.1208 Y-8.6561 F15000.0
G1 Z11.9000 F8000.0
G1 X99.6719 Y-8.9820 F12000.0
G1 X100.0110 Y-8.6621
G1 X100.7246 Y-8.6627
G1 X100.8073 Y-8.7473
G1 Z0.0000 F8000.0
G0 X100.7437 Y-8.6622 F15000.0
G1 Z11.9000 F8000.0
G1 X100.9139 Y-8.7589 F12000.0
G1 X101.1655 Y-9.0861
G1 X101.2648 Y-9.4906
G1 X101.0619 Y-10.2684
G1 X100.8618 Y-10.4667
G1 X100.5701 Y-10.5645
G1 X99.6915 Y-10.4638
G1 X99.9663 Y-11.6368
G1 X101.0992 Y-11.6663
G1 Z0.0000 F8000.0
G0 X102.3641 Y-11.2771 F15000.0
G1 Z11.9000 F8000.0
G1 X102.4614 Y-11.4717 F12000.0
G1 Z0.0000 F8000.0
G0 X103.5317 Y-11.3744 F15000.0
G1 Z11.9000 F8000.0
G1 X103.6699 Y-11.3296 F12000.0
G1 X103.3271 Y-11.5645
G1 X102.9257 Y-11.6362
G1 X102.5602 Y-11.4512
G1 X102.2646 Y-11.0288
G1 X102.0898 Y-9.6820
G1 X102.3848 Y-8.9035
G1 X102.5118 Y-8.7637
G1 X103.3089 Y-8.6751
G1 X103.6701 Y-8.9736
G1 X103.5852 Y-8.8137
G1 X103.3942 Y-8.6936
G1 X103.7640 Y-9.1237
G1 X103.8142 Y-9.4238
G1 X103.7177 Y-11.1939
G1 X103.6290 Y-11.2771
G1 Z0.0000 F8000.0
G0 X104.7966 Y-9.7203 F15000.0
G1 Z11.9000 F8000.0
G1 X105.5750 Y-9.7203 F12000.0
G1 Z0.0000 F8000.0
G0 X106.8399 Y-8.6500 F15000.0
G1 Z11.9000 F8000.0
G1 X106.9893 Y-9.3678 F12000.0
G1 X107.8699 Y-11.5204
G1 X107.6564 Y-11.6643
G1 X106.3534 Y-11.6663
G1 Z0.0000 F8000.0
G0 X107.6183 Y-10.9852 F15000.0
G1 Z11.9000 F8000.0
G1 X107.5210 Y-10.6933 F12000.0
G1 Z0.0000 F8000.0
G0 X108.8832 Y-9.5257 F15000.0
G1 Z11.9000 F8000.0
G1 X109.0071 Y-9.9210 F12000.0
G1 X109.7413 Y-10.9351
G1 X110.1321 Y-11.1066
G1 X110.2458 Y-9.3789
G1 X110.2677 Y-9.4692
G1 X108.9208 Y-9.4788
G1 X108.9805 Y-9.4284
G1 Z0.0000 F8000.0
G0 X106.6250 Y-15.2990 F15000.0
G1 Z11.9000 F8000.0
G1 X106.7004 Y-15.3811 F12000.0
G1 Z0.0000 F8000.0
G0 X106.0160 Y-15.3012 F15000.0
G1 Z11.9000 F8000.0
G1 X105.8247 Y-15.3811 F12000.0
G1 Z0.0000 F8000.0
G0 X104.0733 Y-16.1595 F15000.0
G1 Z11.9000 F8000.0
G1 X103.8788 Y-16.1595 F12000.0
G1 Z0.0000 F8000.0
G0 X102.6968 Y-16.7969 F15000.0
G1 Z11.9000 F8000.0
G1 X103.5070 Y-17.8902 F12000.0
G1 X103.8688 Y-18.0216
G1 X103.9670 Y-16.3756
G1 X103.9074 Y-16.0872
G1 X102.4571 Y-16.2114
G1 X102.5166 Y-16.1595
G1 Z0.0000 F8000.0
G0 X102.4537 Y-16.3257 F15000.0
G1 Z11.9000 F8000.0
G1 X102.7112 Y-16.8406 F12000.0
G1 Z0.0000 F8000.0
G0 X105.5328 Y-18.0082 F15000.0
G1 Z11.9000 F8000.0
G1 X105.8894 Y-18.4330 F12000.0
G1 X105.5847 Y-18.1456
G1 X105.4500 Y-17.7580
G1 X105.3486 Y-16.2922
G1 X105.3940 Y-16.1005
G1 X106.0495 Y-15.3061
G1 X106.6616 Y-15.3016
G1 X107.1110 Y-15.8530
G1 X107.2623 Y-16.3478
G1 X107.1873 Y-17.3914
G1 X106.9578 Y-18.2920
G1 X106.5230 Y-18.5321
G1 X105.9220 Y-18.4946
G1 Z0.0000 F8000.0
G0 X98.3145 Y-17.5703 F15000.0
G1 Z11.9000 F8000.0
G1 X98.3159 Y-15.6001 F12000.0
G1 X98.3801 Y-15.4195
G1 X99.7294 Y-15.5549
G1 X99.9241 Y-15.6542
G1 X99.9975 Y-15.8770
G1 X99.8583 Y-16.3373
G1 X99.6819 Y-16.4726
G1 X98.3145 Y-16.6460
G1 Z0.0000 F8000.0
G0 X97.1955 Y-15.3811 F15000.0
G1 Z11.9000 F8000.0
G1 X97.1084 Y-17.5374 F12000.0
G1 X95.4006 Y-15.4194
G1 X94.5731 Y-15.1748
G1 X94.3645 Y-15.2686
G1 X94.1576 Y-15.5500
G1 X94.2157 Y-16.7366
G1 X94.1389 Y-17.2341
G1 X94.0147 Y-17.4140
G1 X93.0335 Y-17.5931
G1 X92.6159 Y-17.4218
G1 X91.6542 Y-17.6075
G1 X90.0841 Y-17.6139
G1 X90.7929 Y-17.5035
G1 X90.8224 Y-15.3811
G1 Z0.0000 F8000.0
G0 X88.8347 Y-15.5976 F15000.0
G1 Z11.9000 F8000.0
G1 X89.0201 Y-15.8341 F12000.0
G1 X88.9102 Y-15.6864
G1 X88.4005 Y-15.3601
G1 X88.0348 Y-15.2957
G1 X87.2896 Y-15.4080
G1 X86.9933 Y-15.5939
G1 X86.5760 Y-16.2918
G1 X86.5069 Y-16.6601
G1 X86.6792 Y-17.7816
G1 X86.7768 Y-18.0062
G1 X87.7283 Y-18.5591
G1 X88.8107 Y-18.2739
G1 X89.0710 Y-17.8622
G1 Z0.0000 F8000.0
G0 X94.2279 Y-16.5973 F15000.0
G1 Z11.9000 F8000.0
G1 X94.1569 Y-16.6551 F12000.0
G1 X92.8306 Y-16.3728
G1 X92.6546 Y-16.2286
G1 X92.4771 Y-15.6567
G1 X93.0840 Y-15.2886
G1 X94.0333 Y-15.5270
G1 Z0.0000 F8000.0
G0 X95.3955 Y-15.3324 F15000.0
G1 Z11.9000 F8000.0
G1 X95.4928 Y-15.4784 F12000.0
G1 Z0.0000 F8000.0
G0 X96.9319 Y-30.3104 F15000.0
G1 Z11.9000 F8000.0
G1 X97.0024 Y-31.4535 F12000.0
G1 X97.3913 Y-31.6575
G1 X97.7031 Y-32.5585
G1 X98.1694 Y-35.3397
G1 X100.5410 Y-31.5984
G1 X101.0481 Y-31.4421
G1 X101.0975 Y-30.3940
G1 X100.5556 Y-31.4233
G1 X100.4005 Y-31.5280
G1 X95.6564 Y-31.6706
G1 X95.6168 Y-33.2763
G1 X95.5497 Y-33.4790
G1 X92.8251 Y-33.5002
G1 X92.7501 Y-33.6768
G1 X92.7082 Y-35.2782
G1 X90.8704 Y-35.2502
G1 X90.6016 Y-34.8895
G1 X89.9929 Y-34.4758
G1 X88.8857 Y-32.6773
G1 X88.4669 Y-32.2077
G1 Z0.0000 F8000.0
G0 X90.8021 Y-31.6239 F15000.0
G1 Z11.9000 F8000.0
G1 X90.5582 Y-34.8239 F12000.0
G1 X90.3325 Y-34.7584
G1 X89.6446 Y-33.9187
G1 X88.7556 Y-32.4758
G1 X88.1408 Y-32.0877
G1 X87.9645 Y-31.7598
G1 X88.0338 Y-32.0290
G1 X87.8831 Y-35.3213
G1 Z0.0000 F8000.0
G0 X85.9371 Y-31.6239 F15000.0
G1 Z11.9000 F8000.0
G1 X83.2835 Y-35.3444 F12000.0
G1 X83.1641 Y-31.6239
G1 Z0.0000 F8000.0
G0 X78.2505 Y-31.6239 F15000.0
G1 Z11.9000 F8000.0
G1 X81.1208 Y-37.0240 F12000.0
G1 Z0.0000 F8000.0
G0 X78.2505 Y-37.0240 F15000.0
G1 Z11.9000 F8000.0
G1 X78.1758 Y-31.6673 F12000.0
G1 X75.3315 Y-37.0240
G1 Z0.0000 F8000.0
G0 X92.7481 Y-33.5212 F15000.0
G1 Z11.9000 F8000.0
G1 X92.7481 Y-31.6239 F12000.0
G1 Z0.0000 F8000.0
G0 X95.6184 Y-33.5699 F15000.0
G1 Z11.9000 F8000.0
G1 X95.6184 Y-35.3213 F12000.0
G1 Z0.0000 F8000.0
G0 X102.4293 Y-33.5699 F15000.0
G1 Z11.9000 F8000.0
G1 X102.5416 Y-34.3737 F12000.0
G1 X103.1305 Y-35.2108
G1 X102.8009 Y-34.8949
G1 X102.6198 Y-34.5833
G1 X103.1501 Y-35.2057
G1 X103.7174 Y-35.4661
G1 X103.9604 Y-35.4946
G1 X104.8267 Y-35.3435
G1 X105.3106 Y-34.9811
G1 X105.6386 Y-33.7164
G1 X102.4539 Y-33.5186
G1 X102.4065 Y-33.3174
G1 X102.6177 Y-32.3378
G1 X102.9287 Y-31.9572
G1 X103.7947 Y-31.4633
G1 X104.6657 Y-31.5318
G1 X105.4943 Y-32.1364
G1 X105.4325 Y-31.9235
G1 X106.7144 Y-31.6223
G1 X107.6366 Y-35.3275
G1 X110.3592 Y-31.6239
G1 Z0.0000 F8000.0
G0 X112.2565 Y-33.6185 F15000.0
G1 Z11.9000 F8000.0
G1 X113.9169 Y-31.5744 F12000.0
G1 X114.7331 Y-31.7683
G1 X114.9651 Y-32.0187
G1 X115.0967 Y-32.3631
G1 X114.9550 Y-33.2164
G1 X114.7777 Y-33.3818
G1 X114.1935 Y-33.6054
G1 X112.3272 Y-33.6473
G1 X112.2582 Y-33.8313
G1 X112.2565 Y-35.3699
G1 Z0.0000 F8000.0
G0 X108.1091 Y-50.9798 F15000.0
G1 Z11.9000 F8000.0
G1 X107.6829 Y-51.2976 F12000.0
G1 X107.3307 Y-52.0987
G1 Z0.0000 F8000.0
G0 X105.9685 Y-52.3906 F15000.0
G1 Z11.9000 F8000.0
G1 X105.9685 Y-53.8015 F12000.0
G1 Z0.0000 F8000.0
G0 X107.3307 Y-53.9474 F15000.0
G1 Z11.9000 F8000.0
G1 X107.3793 Y-54.0447 F12000.0
G1 Z0.0000 F8000.0
G0 X108.1091 Y-55.1150 F15000.0
G1 Z11.9000 F8000.0
G1 X108.8388 Y-55.1150 F12000.0
G1 X109.4226 Y-54.6772
G1 X109.6172 Y-54.1907
G1 X109.7145 Y-52.3420
G1 X109.3253 Y-51.2717
G1 X108.2550 Y-50.9311
G1 X108.1091 Y-50.9798
G1 X107.5739 Y-51.4663
G1 X107.6226 Y-51.3690
G1 X107.4766 Y-51.7095
G1 X107.5739 Y-51.4663
G1 X107.4280 Y-51.8068
G1 X107.4766 Y-51.7095
G1 X107.3793 Y-52.0014
G1 X107.3307 Y-53.9474
G1 X107.6712 Y-54.7258
G1 X108.1091 Y-55.1150
G1 Z0.0000 F8000.0
G0 X110.9307 Y-53.9474 F15000.0
G1 Z11.9000 F8000.0
G1 X110.9277 Y-52.1807 F12000.0
G1 X111.3071 Y-51.2712
G1 X111.6908 Y-51.0012
G1 X111.9248 Y-50.9697
G1 X112.7560 Y-51.2605
G1 X113.0131 Y-51.4344
G1 X112.9684 Y-51.3417
G1 X113.3049 Y-52.4373
G1 X113.2202 Y-54.0782
G1 X113.0121 Y-54.6592
G1 X112.4276 Y-55.0925
G1 X111.6887 Y-55.0763
G1 X111.3002 Y-54.7711
G1 X110.9794 Y-54.0447
G1 Z0.0000 F8000.0
G0 X116.4281 Y-53.1690 F15000.0
G1 Z11.9000 F8000.0
G1 X116.5741 Y-53.4123 F12000.0
G1 Z0.0000 F8000.0
G0 X118.3741 Y-53.3636 F15000.0
G1 Z11.9000 F8000.0
G1 X117.7314 Y-53.5818 F12000.0
G1 X116.6462 Y-53.4532
G1 X116.6132 Y-53.6255
G1 X116.8330 Y-54.8673
G1 X116.9402 Y-55.0411
G1 X118.6174 Y-55.0664
G1 Z0.0000 F8000.0
G0 X120.1255 Y-54.4826 F15000.0
G1 Z11.9000 F8000.0
G1 X120.3119 Y-54.8128 F12000.0
G1 X120.6962 Y-55.0660
G1 X121.6841 Y-55.0778
G1 X122.0083 Y-54.9064
G1 X122.1548 Y-54.7371
G1 X122.3339 Y-53.8929
G1 X122.0089 Y-53.2183
G1 X121.5018 Y-52.6567
G1 X121.9001 Y-53.0522
G1 X120.3047 Y-51.5780
G1 X120.1037 Y-51.0226
G1 X122.3634 Y-50.9798
G1 Z0.0000 F8000.0
G0 X120.0282 Y-51.0284 F15000.0
G1 Z11.9000 F8000.0
G1 X119.9309 Y-50.9311 F12000.0
G1 Z0.0000 F8000.0
G0 X118.4714 Y-51.3203 F15000.0
G1 Z11.9000 F8000.0
G1 X118.2768 Y-51.1257 F12000.0
G1 Z0.0000 F8000.0
G0 X117.1092 Y-50.9798 F15000.0
G1 Z11.9000 F8000.0
G1 X116.7859 Y-51.1417 F12000.0
G1 X116.5290 Y-51.4696
G1 X116.6233 Y-51.3017
G1 X117.0891 Y-51.0075
G1 X117.4499 Y-50.9442
G1 X118.0686 Y-51.0195
G1 X118.4421 Y-51.2785
G1 X118.6276 Y-51.5611
G1 X118.7866 Y-52.0289
G1 X118.6850 Y-52.8948
G1 X118.4228 Y-53.2663
G1 Z0.0000 F8000.0
G0 X125.4770 Y-53.9474 F15000.0
G1 Z11.9000 F8000.0
G1 X126.2653 Y-55.0742 F12000.0
G1 X126.9928 Y-55.0847
G1 X127.5670 Y-54.6398
G1 X127.7690 Y-54.0571
G1 X127.8499 Y-52.4162
G1 X127.6147 Y-51.5687
G1 X127.4635 Y-51.2983
G1 X126.5387 Y-50.9776
G1 X126.3040 Y-50.9817
G1 X125.7426 Y-51.4338
G1 X125.6006 Y-51.7541
G1 X125.4360 Y-52.6065
G1 X125.5015 Y-53.9922
G1 X125.7524 Y-54.6324
G1 X126.2553 Y-55.1150
G1 Z0.0000 F8000.0
G0 X129.0770 Y-53.9474 F15000.0
G1 Z11.9000 F8000.0
G1 X129.8654 Y-55.0742 F12000.0
G1 X130.5929 Y-55.0847
G1 X131.1671 Y-54.6398
G1 X131.3690 Y-54.0571
G1 X131.4499 Y-52.4162
G1 X131.2148 Y-51.5687
G1 X131.0635 Y-51.2983
G1 X130.1388 Y-50.9776
G1 X129.9040 Y-50.9817
G1 X129.3427 Y-51.4338
G1 X129.2007 Y-51.7541
G1 X129.0360 Y-52.6065
G1 X129.1016 Y-53.9922
G1 X129.3524 Y-54.6324
G1 X129.8554 Y-55.1150
G1 Z0.0000 F8000.0
G0 X129.0770 Y-52.0987 F15000.0
G1 Z11.9000 F8000.0
G1 X129.4292 Y-51.2976 F12000.0
G1 X129.8554 Y-50.9798
G1 Z0.0000 F8000.0
G0 X125.8025 Y-51.3459 F15000.0
G1 Z11.9000 F8000.0
G1 X125.4770 Y-52.0987 F12000.0
G1 Z0.0000 F8000.0
G0 X134.5258 Y-52.0987 F15000.0
G1 Z11.9000 F8000.0
G1 X134.8780 Y-51.2976 F12000.0
G1 X135.3042 Y-50.9798
G1 Z0.0000 F8000.0
G0 X134.5258 Y-53.9474 F15000.0
G1 Z11.9000 F8000.0
G1 X135.3141 Y-55.0742 F12000.0
G1 X136.0416 Y-55.0847
G1 X136.6158 Y-54.6398
G1 X136.8178 Y-54.0571
G1 X136.8987 Y-52.4162
G1 X136.6635 Y-51.5687
G1 X136.5123 Y-51.2983
G1 X135.5876 Y-50.9776
G1 X135.3528 Y-50.9817
G1 X134.7914 Y-51.4338
G1 X134.6494 Y-51.7541
G1 X134.5688 Y-52.2346
G1 X134.5539 Y-54.0001
G1 X134.7571 Y-54.5688
G1 X135.3042 Y-55.1150
G1 Z0.0000 F8000.0
G0 X138.3691 Y-54.5312 F15000.0
G1 Z11.9000 F8000.0
G1 X138.0666 Y-53.0664 F12000.0
G1 X138.1793 Y-52.7867
G1 X138.2347 Y-51.7811
G1 X138.5181 Y-51.2768
G1 X138.9321 Y-51.0052
G1 X139.6682 Y-51.0093
G1 X139.8896 Y-51.1021
G1 X140.4050 Y-51.6453
G1 X140.4976 Y-52.0045
G1 X140.4604 Y-52.6325
G1 X140.0808 Y-53.2621
G1 X139.1139 Y-53.4363
G1 X138.1745 Y-52.9744
G1 Z0.0000 F8000.0
G0 X138.4177 Y-54.6285 F15000.0
G1 Z11.9000 F8000.0
G1 X139.0101 Y-55.0886 F12000.0
G1 X139.7558 Y-55.0995
G1 X140.0714 Y-54.9375
G1 X140.7043 Y-54.2393
G1 Z0.0000 F8000.0
G0 X139.8772 Y-53.4123 F15000.0
G1 Z11.9000 F8000.0
G1 X140.2173 Y-53.1390 F12000.0
G1 Z0.0000 F8000.0
G0 X140.4124 Y-51.6122 F15000.0
G1 Z11.9000 F8000.0
G1 X140.2178 Y-51.3203 F12000.0
G1 Z0.0000 F8000.0
G0 X140.0596 Y-42.9817 F15000.0
G1 Z11.9000 F8000.0
G1 X140.1082 Y-41.4736 F12000.0
G1 Z0.0000 F8000.0
G0 X138.8920 Y-41.4249 F15000.0
G1 Z11.9000 F8000.0
G1 X138.8274 Y-42.6435 F12000.0
G1 X138.4344 Y-42.3235
G1 X138.0462 Y-41.8260
G1 X137.8788 Y-41.7230
G1 X137.8062 Y-41.8878
G1 X137.7514 Y-42.8450
G1 X138.4241 Y-42.3791
G1 X138.7765 Y-42.6946
G1 X138.8920 Y-42.9330
G1 Z0.0000 F8000.0
G0 X139.4758 Y-42.9817 F15000.0
G1 Z11.9000 F8000.0
G1 X140.6920 Y-42.9817 F12000.0
G1 Z0.0000 F8000.0
G0 X138.3082 Y-42.1547 F15000.0
G1 Z11.9000 F8000.0
G1 X137.9677 Y-41.7168 F12000.0
G1 Z0.0000 F8000.0
G0 X136.9460 Y-41.4736 F15000.0
G1 Z11.9000 F8000.0
G1 X136.8838 Y-43.5687 F12000.0
G1 X135.5838 Y-41.4736
G1 Z0.0000 F8000.0
G0 X136.1739 Y-39.4714 F15000.0
G1 Z11.9000 F8000.0
G1 X136.1739 Y-24.8078 F12000.0
G1 Z0.0000 F8000.0
G0 X136.0870 Y-23.4369 F15000.0
G1 Z11.9000 F8000.0
G1 X136.1595 Y-22.0592 F12000.0
G1 X136.5888 Y-22.2956
G1 Z0.0000 F8000.0
G0 X136.8638 Y-22.7631 F15000.0
G1 Z11.9000 F8000.0
G1 X136.5321 Y-22.2086 F12000.0
G1 X136.7025 Y-22.5003
G1 X137.2654 Y-23.0686
G1 X137.4006 Y-21.7828
G1 Z0.0000 F8000.0
G0 X136.1357 Y-21.9774 F15000.0
G1 Z11.9000 F8000.0
G1 X136.4423 Y-22.1587 F12000.0
G1 X137.3648 Y-23.3140
G1 X137.5604 Y-23.3552
G1 X138.2664 Y-23.2146
G1 X138.1704 Y-22.2738
G1 X138.3273 Y-21.9380
G1 X138.4955 Y-21.7756
G1 X138.7120 Y-21.7359
G1 X139.4981 Y-22.0247
G1 X140.5645 Y-21.8209
G1 X140.6570 Y-21.9602
G1 X140.5928 Y-23.4117
G1 X139.9790 Y-23.4855
G1 Z0.0000 F8000.0
G0 X139.3952 Y-23.2423 F15000.0
G1 Z11.9000 F8000.0
G1 X138.9701 Y-23.4926 F12000.0
G1 X138.3735 Y-23.3396
G1 Z0.0000 F8000.0
G0 X140.6601 Y-23.4369 F15000.0
G1 Z11.9000 F8000.0
G1 X141.2925 Y-23.4855 F12000.0
G1 Z0.0000 F8000.0
G0 X141.1167 Y-24.8078 F15000.0
G1 Z11.9000 F8000.0
G1 X141.1167 Y-39.4714 F12000.0
G1 Z0.0000 F8000.0
G0 X145.9771 Y-39.4714 F15000.0
G1 Z11.9000 F8000.0
G1 X131.3959 Y-39.4714 F12000.0
G1 Z0.0000 F8000.0
G0 X131.3959 Y-44.3318 F15000.0
G1 Z11.9000 F8000.0
G1 X131.3959 Y-5.3662 F12000.0
G1 Z0.0000 F8000.0
G0 X143.7874 Y-12.0142 F15000.0
G1 Z11.9000 F8000.0
G1 X144.1097 Y-12.0845 F12000.0
G1 X144.2947 Y-12.2141
G1 X144.4028 Y-12.4702
G1 X144.5988 Y-16.0952
G1 X144.8003 Y-16.1486
G1 X146.6596 Y-16.1116
G1 X146.7550 Y-12.1115
G1 Z0.0000 F8000.0
G0 X149.5767 Y-12.1601 F15000.0
G1 Z11.9000 F8000.0
G1 X149.5280 Y-16.1494 F12000.0
G1 Z0.0000 F8000.0
G0 X148.0199 Y-16.1494 F15000.0
G1 Z11.9000 F8000.0
G1 X151.0848 Y-16.1494 F12000.0
G1 Z0.0000 F8000.0
G0 X152.0092 Y-13.4737 F15000.0
G1 Z11.9000 F8000.0
G1 X153.1281 Y-13.4737 F12000.0
G1 Z0.0000 F8000.0
G0 X155.0723 Y-12.0344 F15000.0
G1 Z11.9000 F8000.0
G1 X154.8602 Y-12.1436 F12000.0
G1 X154.2986 Y-12.7258
G1 X154.5852 Y-12.2827
G1 X154.8688 Y-12.1041
G1 X156.1873 Y-12.2905
G1 X156.2903 Y-12.4034
G1 Z0.0000 F8000.0
G0 X155.9366 Y-12.1499 F15000.0
G1 Z11.9000 F8000.0
G1 X156.3617 Y-12.4952 F12000.0
G1 X156.5601 Y-13.7133
G1 X156.2924 Y-14.2616
G1 X156.0153 Y-14.4592
G1 X155.5398 Y-14.6132
G1 X154.4651 Y-14.4134
G1 X154.6062 Y-15.7926
G1 X154.7212 Y-16.0769
G1 X156.4363 Y-16.1007
G1 Z0.0000 F8000.0
G0 X159.4039 Y-16.1980 F15000.0
G1 Z11.9000 F8000.0
G1 X159.3335 Y-15.8266 F12000.0
G1 X159.2162 Y-15.6317
G1 X158.2303 Y-15.1248
G1 X159.2729 Y-15.5999
G1 X159.3553 Y-12.1115
G1 Z0.0000 F8000.0
G0 X162.0310 Y-12.0628 F15000.0
G1 Z11.9000 F8000.0
G1 X161.6040 Y-12.4178 F12000.0
G1 X162.0878 Y-12.0596
G1 X162.9427 Y-12.1114
G1 X163.4113 Y-12.4912
G1 X163.6620 Y-13.0033
G1 X163.7625 Y-13.6223
G1 X163.6720 Y-14.1493
G1 X163.2959 Y-13.9602
G1 Z0.0000 F8000.0
G0 X161.9823 Y-13.7656 F15000.0
G1 Z11.9000 F8000.0
G1 X161.6438 Y-14.0357 F12000.0
G1 X161.3928 Y-14.4933
G1 X161.4958 Y-14.2521
G1 Z0.0000 F8000.0
G0 X161.4472 Y-15.4197 F15000.0
G1 Z11.9000 F8000.0
G1 X161.9585 Y-16.0468 F12000.0
G1 X161.4917 Y-15.4518
G1 X161.5488 Y-14.2244
G1 X162.0931 Y-13.7208
G1 X162.9565 Y-13.7716
G1 X163.6913 Y-14.2168
G1 X163.6748 Y-15.2022
G1 X163.4219 Y-15.7522
G1 X163.1602 Y-15.9692
G1 X162.4510 Y-16.1738
G1 X162.0310 Y-16.1007
G1 Z0.0000 F8000.0
G0 X164.8527 Y-13.4737 F15000.0
G1 Z11.9000 F8000.0
G1 X165.9840 Y-13.4469 F12000.0
G1 X167.0710 Y-12.8247
G1 X167.3138 Y-12.4070
G1 X167.5740 Y-12.1673
G1 X168.5527 Y-12.0510
G1 X168.9549 Y-12.2169
G1 X168.7786 Y-12.1132
G1 X169.1524 Y-12.4021
G1 X169.3964 Y-12.9076
G1 X169.1277 Y-13.8632
G1 X168.7446 Y-14.3007
G1 Z0.0000 F8000.0
G0 X168.0149 Y-14.1061 F15000.0
G1 Z11.9000 F8000.0
G1 X168.7235 Y-14.3221 F12000.0
G1 X169.0168 Y-14.6820
G1 X169.2034 Y-15.1290
G1 X169.0456 Y-15.7250
G1 X168.1878 Y-16.1657
G1 X167.4296 Y-15.8847
G1 X167.2822 Y-15.7107
G1 X167.1878 Y-15.4197
G1 Z0.0000 F8000.0
G0 X164.9342 Y-22.6903 F15000.0
G1 Z11.9000 F8000.0
G1 X164.0875 Y-22.7850 F12000.0
G1 X164.7519 Y-23.4060
G1 X165.0749 Y-23.0911
G1 X165.0162 Y-22.6294
G1 X165.1348 Y-22.0476
G1 X165.0252 Y-21.9254
G1 X164.0896 Y-21.9203
G1 X164.0099 Y-22.6416
G1 Z0.0000 F8000.0
G0 X162.1612 Y-21.9119 F15000.0
G1 Z11.9000 F8000.0
G1 X161.9180 Y-22.2038 F12000.0
G1 Z0.0000 F8000.0
G0 X180.0000 Y-24.8078 F15000.0
G1 Z11.9000 F8000.0
G1 X131.3959 Y-24.8078 F12000.0
G1 Z0.0000 F8000.0
G0 X133.4113 Y-21.6855 F15000.0
G1 Z11.9000 F8000.0
G1 X135.0973 Y-24.1267 F12000.0
G1 X135.1627 Y-21.7828
G1 Z0.0000 F8000.0
G0 X105.9685 Y-51.0284 F15000.0
G1 Z11.9000 F8000.0
G1 X105.9673 Y-52.1655 F12000.0
G1 X105.9075 Y-52.3502
G1 X104.5623 Y-52.2165
G1 X104.2217 Y-52.3301
G1 X103.9227 Y-52.7875
G1 X103.8279 Y-53.8501
G1 Z0.0000 F8000.0
G0 X102.5630 Y-51.0284 F15000.0
G1 Z11.9000 F8000.0
G1 X102.2703 Y-54.5316 F12000.0
G1 X102.4379 Y-54.8897
G1 X101.9688 Y-54.2714
G1 X100.8367 Y-51.3400
G1 X100.7644 Y-51.2953
G1 X100.6429 Y-51.4112
G1 X98.8893 Y-54.7310
G1 X98.8303 Y-54.7266
G1 X98.7647 Y-54.4019
G1 X98.7197 Y-51.0284
G1 Z0.0000 F8000.0
G0 X100.6657 Y-51.2230 F15000.0
G1 Z11.9000 F8000.0
G1 X100.7143 Y-51.2717 F12000.0
G1 Z0.0000 F8000.0
G0 X63.2677 Y-54.0526 F15000.0
G1 Z11.9000 F8000.0
G1 X0.0000 Y-54.0526 F12000.0
G1 Z0.0000 F8000.0
G0 X0.0000 Y-58.9131 F15000.0
G1 Z11.9000 F8000.0
G1 X180.0000 Y-58.9131 F12000.0
G1 Z0.0000 F8000.0
G0 X2.3399 Y-12.3971 F15000.0
G1 Z11.9000 F8000.0
G1 X2.3362 Y-14.2929 F12000.0
G1 X2.2523 Y-13.5090
G1 X0.9349 Y-13.4792
G1 X0.8804 Y-12.5481
G1 X0.8804 Y-14.3918
G1 Z0.0000 F8000.0
G0 X0.0000 Y-271.0412 F15000.0
G1 Z11.9000 F8000.0
G1 X68.1282 Y-271.0412 F12000.0
G1 X68.1282 Y-284.6338 F12000.0
G1 Z0.0000 F8000.0
G0 X54.1786 Y-279.6127 F15000.0
G1 Z11.9000 F8000.0
G1 X53.5457 Y-280.3109 F12000.0
G1 X53.2301 Y-280.4728
G1 X52.4844 Y-280.4620
G1 X51.8921 Y-280.0019
G1 Z0.0000 F8000.0
G0 X51.8434 Y-279.9046 F15000.0
G1 Z11.9000 F8000.0
G1 X51.5409 Y-278.4398 F12000.0
G1 X51.6536 Y-278.1601
G1 X51.7090 Y-277.1545
G1 X51.9924 Y-276.6502
G1 X52.4064 Y-276.3785
G1 X53.1425 Y-276.3827
G1 X53.3639 Y-276.4754
G1 X53.8793 Y-277.0186
G1 X53.9720 Y-277.3778
G1 X53.9348 Y-278.0059
G1 X53.5552 Y-278.6355
G1 X52.5882 Y-278.8097
G1 X51.6488 Y-278.3478
G1 Z0.0000 F8000.0
G0 X53.3516 Y-278.7856 F15000.0
G1 Z11.9000 F8000.0
G1 X53.6916 Y-278.5124 F12000.0
G1 Z0.0000 F8000.0
G0 X53.8867 Y-276.9856 F15000.0
G1 Z11.9000 F8000.0
G1 X53.6921 Y-276.6937 F12000.0
G1 Z0.0000 F8000.0
G0 X48.7785 Y-276.3532 F15000.0
G1 Z11.9000 F8000.0
G1 X48.3523 Y-276.6709 F12000.0
G1 X48.0001 Y-277.4721
G1 Z0.0000 F8000.0
G0 X48.0001 Y-279.3208 F15000.0
G1 Z11.9000 F8000.0
G1 X48.7884 Y-280.4476 F12000.0
G1 X49.5160 Y-280.4580
G1 X50.0902 Y-280.0131
G1 X50.2921 Y-279.4304
G1 X50.3730 Y-277.7896
G1 X50.1379 Y-276.9420
G1 X49.9866 Y-276.6717
G1 X49.0619 Y-276.3509
G1 X48.8271 Y-276.3550
G1 X48.2658 Y-276.8071
G1 X48.1238 Y-277.1275
G1 X48.0432 Y-277.6080
G1 X48.0282 Y-279.3735
G1 X48.2314 Y-279.9421
G1 X48.7785 Y-280.4884
G1 Z0.0000 F8000.0
G0 X43.3297 Y-280.4884 F15000.0
G1 Z11.9000 F8000.0
G1 X42.8268 Y-280.0057 F12000.0
G1 X42.5759 Y-279.3655
G1 X42.5104 Y-277.9799
G1 X42.6750 Y-277.1275
G1 X42.8170 Y-276.8071
G1 X43.3784 Y-276.3550
G1 X43.6131 Y-276.3509
G1 X44.5379 Y-276.6717
G1 X44.6891 Y-276.9420
G1 X44.9243 Y-277.7896
G1 X44.8434 Y-279.4304
G1 X44.6414 Y-280.0131
G1 X44.0672 Y-280.4580
G1 X43.3397 Y-280.4476
G1 X42.5514 Y-279.3208
G1 Z0.0000 F8000.0
G0 X42.5514 Y-277.4721 F15000.0
G1 Z11.9000 F8000.0
G1 X42.9036 Y-276.6709 F12000.0
G1 X43.3297 Y-276.3532
G1 Z0.0000 F8000.0
G0 X39.2769 Y-276.7193 F15000.0
G1 Z11.9000 F8000.0
G1 X38.9513 Y-277.4721 F12000.0
G1 Z0.0000 F8000.0
G0 X38.9513 Y-279.3208 F15000.0
G1 Z11.9000 F8000.0
G1 X39.7396 Y-280.4476 F12000.0
G1 X40.4672 Y-280.4580
G1 X41.0414 Y-280.0131
G1 X41.2433 Y-279.4304
G1 X41.3242 Y-277.7896
G1 X41.0891 Y-276.9420
G1 X40.9378 Y-276.6717
G1 X40.0131 Y-276.3509
G1 X39.7783 Y-276.3550
G1 X39.2169 Y-276.8071
G1 X39.0750 Y-277.1275
G1 X38.9103 Y-277.9799
G1 X38.9759 Y-279.3655
G1 X39.2267 Y-280.0057
G1 X39.7297 Y-280.4884
G1 Z0.0000 F8000.0
G0 X35.8377 Y-276.3532 F15000.0
G1 Z11.9000 F8000.0
G1 X33.5780 Y-276.3960 F12000.0
G1 X33.7790 Y-276.9514
G1 X35.3744 Y-278.4256
G1 X34.9762 Y-278.0301
G1 X35.4832 Y-278.5916
G1 X35.8082 Y-279.2662
G1 X35.6291 Y-280.1104
G1 X35.4826 Y-280.2798
G1 X35.1585 Y-280.4512
G1 X34.1705 Y-280.4394
G1 X33.7863 Y-280.1862
G1 X33.5998 Y-279.8559
G1 Z0.0000 F8000.0
G0 X32.0917 Y-280.4397 F15000.0
G1 Z11.9000 F8000.0
G1 X30.4145 Y-280.4145 F12000.0
G1 X30.3073 Y-280.2407
G1 X30.0875 Y-278.9989
G1 X30.1206 Y-278.8266
G1 X31.2057 Y-278.9552
G1 X31.8485 Y-278.7370
G1 Z0.0000 F8000.0
G0 X31.8971 Y-278.6397 F15000.0
G1 Z11.9000 F8000.0
G1 X32.1594 Y-278.2682 F12000.0
G1 X32.2609 Y-277.4023
G1 X32.1019 Y-276.9344
G1 X31.9164 Y-276.6518
G1 X31.5430 Y-276.3929
G1 X30.9243 Y-276.3176
G1 X30.5634 Y-276.3809
G1 X30.0976 Y-276.6751
G1 X30.0033 Y-276.8430
G1 X30.2603 Y-276.5150
G1 X30.5836 Y-276.3532
G1 Z0.0000 F8000.0
G0 X31.7512 Y-276.4991 F15000.0
G1 Z11.9000 F8000.0
G1 X31.9458 Y-276.6937 F12000.0
G1 Z0.0000 F8000.0
G0 X33.4052 Y-276.3045 F15000.0
G1 Z11.9000 F8000.0
G1 X33.5025 Y-276.4018 F12000.0
G1 Z0.0000 F8000.0
G0 X29.9025 Y-278.5424 F15000.0
G1 Z11.9000 F8000.0
G1 X30.0484 Y-278.7856 F12000.0
G1 Z0.0000 F8000.0
G0 X25.1835 Y-280.4884 F15000.0
G1 Z11.9000 F8000.0
G1 X24.6734 Y-279.9936 F12000.0
G1 X24.4261 Y-279.3520
G1 X24.3644 Y-277.9658
G1 X24.5288 Y-277.1257
G1 X24.6755 Y-276.7998
G1 X25.2445 Y-276.3520
G1 X25.4789 Y-276.3590
G1 X26.4494 Y-276.7217
G1 X26.7784 Y-277.7895
G1 X26.6971 Y-279.4304
G1 X26.4952 Y-280.0131
G1 X25.9209 Y-280.4580
G1 X25.1934 Y-280.4476
G1 X24.4051 Y-279.3208
G1 Z0.0000 F8000.0
G0 X24.4051 Y-277.4721 F15000.0
G1 Z11.9000 F8000.0
G1 X24.7573 Y-276.6709 F12000.0
G1 X25.1835 Y-276.3532
G1 Z0.0000 F8000.0
G0 X21.5834 Y-276.3532 F15000.0
G1 Z11.9000 F8000.0
G1 X21.1572 Y-276.6709 F12000.0
G1 X20.8050 Y-277.4721
G1 Z0.0000 F8000.0
G0 X19.4428 Y-277.7640 F15000.0
G1 Z11.9000 F8000.0
G1 X19.4428 Y-279.1748 F12000.0
G1 Z0.0000 F8000.0
G0 X20.8050 Y-279.3208 F15000.0
G1 Z11.9000 F8000.0
G1 X20.8537 Y-279.4181 F12000.0
G1 Z0.0000 F8000.0
G0 X21.5834 Y-280.4884 F15000.0
G1 Z11.9000 F8000.0
G1 X22.3131 Y-280.4884 F12000.0
G1 X22.8969 Y-280.0505
G1 X23.0915 Y-279.5640
G1 X23.1888 Y-277.7153
G1 X22.7996 Y-276.6451
G1 X21.7294 Y-276.3045
G1 X21.5834 Y-276.3532
G1 X21.0483 Y-276.8397
G1 X21.0969 Y-276.7424
G1 X20.9510 Y-277.0829
G1 X21.0483 Y-276.8397
G1 X20.9023 Y-277.1802
G1 X20.9510 Y-277.0829
G1 X20.8537 Y-277.3748
G1 X20.8050 Y-279.3208
G1 X21.1456 Y-280.0992
G1 X21.5834 Y-280.4884
G1 Z0.0000 F8000.0
G0 X17.3022 Y-279.2235 F15000.0
G1 Z11.9000 F8000.0
G1 X17.3970 Y-278.1609 F12000.0
G1 X17.6961 Y-277.7034
G1 X18.0366 Y-277.5899
G1 X19.3819 Y-277.7236
G1 X19.4417 Y-277.5389
G1 X19.4428 Y-276.4018
G1 Z0.0000 F8000.0
G0 X16.0374 Y-276.4018 F15000.0
G1 Z11.9000 F8000.0
G1 X15.7446 Y-279.9050 F12000.0
G1 X15.9123 Y-280.2631
G1 X15.4431 Y-279.6448
G1 X14.3110 Y-276.7134
G1 X14.2388 Y-276.6686
G1 X14.1172 Y-276.7846
G1 X12.3636 Y-280.1043
G1 X12.3047 Y-280.1000
G1 X12.2390 Y-279.7752
G1 X12.1940 Y-276.4018
G1 Z0.0000 F8000.0
G0 X14.1400 Y-276.5964 F15000.0
G1 Z11.9000 F8000.0
G1 X14.1887 Y-276.6451 F12000.0
G1 Z0.0000 F8000.0

G0 Z0.0000 F800.0
G4 P0.06
G0 X0.0000 Y0.0000 F15000.0
M5
G4 P0.10
$1=0
