$X
$1=255
G21
G90
G92 Z4.0000
G0 Z0.0000 F800.0
G4 P0.06
G92 Z0.0000
G0 Z0.0000 F800.0
G0 X0.0000 Y0.0000 F15000.0
G21
G90
G17
G91.1
G0 Z0.0000
G0 X0.0000 Y-5.0000 F15000.0
G1 Z11.9000 F8000.0
G1 X180.0000 Y-5.0000 F12000.0
G1 X180.0000 Y-285.0000
G1 X0.0000 Y-285.0000
G1 X0.0000 Y-5.0000
G1 Z0.0000 F8000.0
G0 X93.0077 Y-162.9856 F15000.0
G1 Z11.9000 F8000.0
G1 X94.4672 Y-167.0545 F12000.0
G1 X94.7326 Y-167.4083
G1 Z0.0000 F8000.0
G0 X94.4230 Y-167.0987 F15000.0
G1 Z11.9000 F8000.0
G1 X94.1134 Y-167.0102 F12000.0
G1 Z0.0000 F8000.0
G0 X93.3615 Y-166.5237 F15000.0
G1 Z11.9000 F8000.0
G1 X93.1846 Y-166.3468 F12000.0
G1 Z0.0000 F8000.0
G0 X95.7940 Y-166.6122 F15000.0
G1 Z11.9000 F8000.0
G1 X94.5114 Y-164.3566 F12000.0
G1 X94.4672 Y-164.0913
G1 X95.5729 Y-164.0028
G1 X95.3518 Y-163.1183
G1 Z0.0000 F8000.0
G0 X96.3247 Y-164.0028 F15000.0
G1 Z11.9000 F8000.0
G1 X95.7940 Y-164.0470 F12000.0
G1 X95.8382 Y-164.4009
G1 X96.0594 Y-164.8874
G1 Z0.0000 F8000.0
G0 X97.3254 Y-163.1283 F15000.0
G1 Z11.9000 F8000.0
G1 X97.1485 Y-163.7474 F12000.0
G1 X98.2984 Y-166.7549
G1 X98.7407 Y-167.2414
G1 Z0.0000 F8000.0
G0 X98.9176 Y-167.3298 F15000.0
G1 Z11.9000 F8000.0
G1 X100.2886 Y-167.2414 F12000.0
G1 X100.3329 Y-166.6664
G1 Z0.0000 F8000.0
G0 X99.9791 Y-165.6934 F15000.0
G1 Z11.9000 F8000.0
G1 X99.9348 Y-165.5607 F12000.0
G1 Z0.0000 F8000.0
G0 X99.7137 Y-164.9416 F15000.0
G1 Z11.9000 F8000.0
G1 X99.6695 Y-164.8089 F12000.0
G1 Z0.0000 F8000.0
G0 X99.4926 Y-164.3224 F15000.0
G1 Z11.9000 F8000.0
G1 X99.1387 Y-163.4821 F12000.0
G1 X98.7407 Y-163.1283
G1 X98.4753 Y-163.0398
G1 X97.4581 Y-163.0398
G1 Z0.0000 F8000.0
G0 X99.3157 Y-162.1995 F15000.0
G1 Z11.9000 F8000.0
G1 X99.4483 Y-162.2880 F12000.0
G1 X99.7137 Y-162.7302
G1 Z0.0000 F8000.0
G0 X100.9963 Y-162.9514 F15000.0
G1 Z11.9000 F8000.0
G1 X102.3673 Y-163.1725 F12000.0
G1 X102.6327 Y-163.3936
G1 X102.9423 Y-163.9244
G1 X103.2076 Y-164.9858
G1 X103.0307 Y-165.2512
G1 X101.9250 Y-165.4281
G1 X102.5000 Y-167.3298
G1 Z0.0000 F8000.0
G0 X102.5884 Y-167.4183 F15000.0
G1 Z11.9000 F8000.0
G1 X104.1364 Y-167.4625 F12000.0
G1 Z0.0000 F8000.0
G0 X105.0833 Y-166.7106 F15000.0
G1 Z11.9000 F8000.0
G1 X105.7909 Y-166.6664 F12000.0
G1 X105.9678 Y-166.1799
G1 Z0.0000 F8000.0
G0 X105.6140 Y-166.4453 F15000.0
G1 Z11.9000 F8000.0
G1 X105.3929 Y-166.1799 F12000.0
G1 Z0.0000 F8000.0
G0 X105.8351 Y-167.3740 F15000.0
G1 Z11.9000 F8000.0
G1 X105.9678 Y-166.9318 F12000.0
G1 X106.1890 Y-166.7549
G1 X106.5428 Y-166.7991
G1 Z0.0000 F8000.0
G0 X106.3216 Y-167.2414 F15000.0
G1 Z11.9000 F8000.0
G1 X106.5870 Y-167.5952 F12000.0
G1 Z0.0000 F8000.0
G0 X108.8238 Y-175.4805 F15000.0
G1 Z11.9000 F8000.0
G1 X108.8238 Y-185.2014 F12000.0
G1 X104.9519 Y-185.2014 F12000.0
G1 X104.9519 Y-182.2357 F12000.0
G1 X66.9748 Y-182.2357 F12000.0
G1 X41.1899 Y-182.2357 F12000.0
G1 Z0.0000 F8000.0
G0 X41.1899 Y-180.9176 F15000.0
G1 Z11.9000 F8000.0
G1 X44.4851 Y-184.2128 F12000.0
G1 Z0.0000 F8000.0
G0 X41.1899 Y-184.2128 F15000.0
G1 Z11.9000 F8000.0
G1 X65.0801 Y-184.2128 F12000.0
G1 X65.0801 Y-199.7826 F12000.0
G1 Z0.0000 F8000.0
G0 X63.1030 Y-199.7826 F15000.0
G1 Z11.9000 F8000.0
G1 X78.2609 Y-199.7826 F12000.0
G1 Z0.0000 F8000.0
G0 X75.9542 Y-199.7826 F15000.0
G1 Z11.9000 F8000.0
G1 X86.9108 Y-199.7826 F12000.0
G1 Z0.0000 F8000.0
G0 X85.0160 Y-199.7826 F15000.0
G1 Z11.9000 F8000.0
G1 X85.0160 Y-220.2128 F12000.0
G1 X55.7712 Y-220.2128 F12000.0
G1 X55.7712 Y-223.0961 F12000.0
G1 X31.4691 Y-223.0961 F12000.0
G1 X31.4691 Y-176.3867 F12000.0
G1 X55.7712 Y-176.3867 F12000.0
G1 X55.7712 Y-179.3524 F12000.0
G1 X85.0160 Y-179.3524 F12000.0
G1 X85.0160 Y-182.2357 F12000.0
G1 Z0.0000 F8000.0
G0 X83.8627 Y-182.2357 F15000.0
G1 Z11.9000 F8000.0
G1 X80.9794 Y-179.3524 F12000.0
G1 Z0.0000 F8000.0
G0 X79.7437 Y-182.2357 F15000.0
G1 Z11.9000 F8000.0
G1 X76.7780 Y-179.3524 F12000.0
G1 Z0.0000 F8000.0
G0 X75.6247 Y-182.2357 F15000.0
G1 Z11.9000 F8000.0
G1 X72.6590 Y-179.3524 F12000.0
G1 Z0.0000 F8000.0
G0 X71.5057 Y-182.2357 F15000.0
G1 Z11.9000 F8000.0
G1 X68.5401 Y-179.3524 F12000.0
G1 Z0.0000 F8000.0
G0 X67.3867 Y-182.2357 F15000.0
G1 Z11.9000 F8000.0
G1 X64.4211 Y-179.3524 F12000.0
G1 Z0.0000 F8000.0
G0 X67.1396 Y-182.2357 F15000.0
G1 Z11.9000 F8000.0
G1 X65.0801 Y-184.3776 F12000.0
G1 Z0.0000 F8000.0
G0 X65.0801 Y-184.2128 F15000.0
G1 Z11.9000 F8000.0
G1 X104.9519 Y-184.2128 F12000.0
G1 Z0.0000 F8000.0
G0 X105.5286 Y-185.2014 F15000.0
G1 Z11.9000 F8000.0
G1 X94.8192 Y-195.9107 F12000.0
G1 Z0.0000 F8000.0
G0 X90.7002 Y-195.9107 F15000.0
G1 Z11.9000 F8000.0
G1 X104.2929 Y-182.2357 F12000.0
G1 Z0.0000 F8000.0
G0 X100.1739 Y-182.2357 F15000.0
G1 Z11.9000 F8000.0
G1 X86.4989 Y-195.9107 F12000.0
G1 Z0.0000 F8000.0
G0 X82.3799 Y-195.9107 F15000.0
G1 Z11.9000 F8000.0
G1 X96.0549 Y-182.2357 F12000.0
G1 Z0.0000 F8000.0
G0 X91.9359 Y-182.2357 F15000.0
G1 Z11.9000 F8000.0
G1 X78.2609 Y-195.9107 F12000.0
G1 Z0.0000 F8000.0
G0 X74.1419 Y-195.9107 F15000.0
G1 Z11.9000 F8000.0
G1 X87.7346 Y-182.2357 F12000.0
G1 Z0.0000 F8000.0
G0 X83.6156 Y-182.2357 F15000.0
G1 Z11.9000 F8000.0
G1 X70.0229 Y-195.9107 F12000.0
G1 Z0.0000 F8000.0
G0 X65.9039 Y-195.9107 F15000.0
G1 Z11.9000 F8000.0
G1 X79.4966 Y-182.2357 F12000.0
G1 Z0.0000 F8000.0
G0 X75.3776 Y-182.2357 F15000.0
G1 Z11.9000 F8000.0
G1 X65.0801 Y-192.6156 F12000.0
G1 Z0.0000 F8000.0
G0 X65.0801 Y-195.9107 F15000.0
G1 Z11.9000 F8000.0
G1 X132.2197 Y-195.9107 F12000.0
G1 X132.2197 Y-182.2357 F12000.0
G1 X134.1144 Y-182.2357 F12000.0
G1 X134.1144 Y-195.9107 F12000.0
G1 X157.5103 Y-195.9107 F12000.0
G1 X160.3936 Y-199.7826 F12000.0
G1 Z0.0000 F8000.0
G0 X160.5583 Y-199.7826 F15000.0
G1 Z11.9000 F8000.0
G1 X170.1144 Y-199.7826 F12000.0
G1 Z0.0000 F8000.0
G0 X167.3959 Y-199.7826 F15000.0
G1 Z11.9000 F8000.0
G1 X149.9313 Y-182.2357 F12000.0
G1 Z0.0000 F8000.0
G0 X149.6842 Y-182.2357 F15000.0
G1 Z11.9000 F8000.0
G1 X154.5446 Y-177.3753 F12000.0
G1 X130.2426 Y-177.3753 F12000.0
G1 X130.2426 Y-175.4805 F12000.0
G1 X108.8238 Y-175.4805 F12000.0
G1 Z0.0000 F8000.0
G0 X108.8238 Y-177.7048 F15000.0
G1 Z11.9000 F8000.0
G1 X111.1304 Y-175.4805 F12000.0
G1 Z0.0000 F8000.0
G0 X115.2494 Y-175.4805 F15000.0
G1 Z11.9000 F8000.0
G1 X108.8238 Y-181.8238 F12000.0
G1 Z0.0000 F8000.0
G0 X119.3684 Y-175.4805 F15000.0
G1 Z11.9000 F8000.0
G1 X98.9382 Y-195.9107 F12000.0
G1 Z0.0000 F8000.0
G0 X99.2677 Y-199.7826 F15000.0
G1 Z11.9000 F8000.0
G1 X100.7506 Y-199.7826 F12000.0
G1 Z0.0000 F8000.0
G0 X102.2334 Y-199.7826 F15000.0
G1 Z11.9000 F8000.0
G1 X117.3913 Y-199.7826 F12000.0
G1 Z0.0000 F8000.0
G0 X118.7918 Y-199.7826 F15000.0
G1 Z11.9000 F8000.0
G1 X120.3570 Y-199.7826 F12000.0
G1 Z0.0000 F8000.0
G0 X119.8627 Y-199.7826 F15000.0
G1 Z11.9000 F8000.0
G1 X130.2426 Y-209.3387 F12000.0
G1 X108.8238 Y-209.3387 F12000.0
G1 X119.8627 Y-199.7826 F12000.0
G1 Z0.0000 F8000.0
G0 X121.8398 Y-199.7826 F15000.0
G1 Z11.9000 F8000.0
G1 X136.9153 Y-199.7826 F12000.0
G1 Z0.0000 F8000.0
G0 X134.1144 Y-199.7826 F15000.0
G1 Z11.9000 F8000.0
G1 X134.1144 Y-183.7185 F12000.0
G1 X135.5972 Y-182.2357 F12000.0
G1 X157.5103 Y-182.2357 F12000.0
G1 X157.5103 Y-173.9153 F12000.0
G1 X168.2197 Y-173.9153 F12000.0
G1 X168.2197 Y-225.6499 F12000.0
G1 X157.5103 Y-225.6499 F12000.0
G1 X157.5103 Y-217.3295 F12000.0
G1 X154.5446 Y-217.3295 F12000.0
G1 Z0.0000 F8000.0
G0 X157.5103 Y-217.3295 F15000.0
G1 Z11.9000 F8000.0
G1 X157.5103 Y-199.7826 F12000.0
G1 Z0.0000 F8000.0
G0 X157.4279 Y-199.7826 F15000.0
G1 Z11.9000 F8000.0
G1 X159.0755 Y-199.7826 F12000.0
G1 Z0.0000 F8000.0
G0 X156.5217 Y-199.7826 F15000.0
G1 Z11.9000 F8000.0
G1 X141.3638 Y-199.7826 F12000.0
G1 Z0.0000 F8000.0
G0 X141.7757 Y-199.7826 F15000.0
G1 Z11.9000 F8000.0
G1 X132.2197 Y-199.7826 F12000.0
G1 X132.2197 Y-198.7940 F12000.0
G1 X132.2197 Y-195.9107 F12000.0
G1 Z0.0000 F8000.0
G0 X131.9725 Y-195.9107 F15000.0
G1 Z11.9000 F8000.0
G1 X132.2197 Y-195.6636 F12000.0
G1 Z0.0000 F8000.0
G0 X134.1144 Y-195.4165 F15000.0
G1 Z11.9000 F8000.0
G1 X134.6087 Y-195.9107 F12000.0
G1 Z0.0000 F8000.0
G0 X138.7277 Y-195.9107 F15000.0
G1 Z11.9000 F8000.0
G1 X134.1144 Y-191.2975 F12000.0
G1 Z0.0000 F8000.0
G0 X132.2197 Y-191.5446 F15000.0
G1 Z11.9000 F8000.0
G1 X127.8535 Y-195.9107 F12000.0
G1 Z0.0000 F8000.0
G0 X123.6522 Y-195.9107 F15000.0
G1 Z11.9000 F8000.0
G1 X132.2197 Y-187.4256 F12000.0
G1 Z0.0000 F8000.0
G0 X134.1144 Y-187.0961 F15000.0
G1 Z11.9000 F8000.0
G1 X142.9291 Y-195.9107 F12000.0
G1 Z0.0000 F8000.0
G0 X147.0480 Y-195.9107 F15000.0
G1 Z11.9000 F8000.0
G1 X134.5263 Y-183.3890 F12000.0
G1 Z0.0000 F8000.0
G0 X134.1144 Y-184.2128 F15000.0
G1 Z11.9000 F8000.0
G1 X154.5446 Y-184.2128 F12000.0
G1 X154.5446 Y-182.2357 F12000.0
G1 X154.5446 Y-177.3753 F12000.0
G1 Z0.0000 F8000.0
G0 X157.5103 Y-177.4577 F15000.0
G1 Z11.9000 F8000.0
G1 X168.2197 Y-188.1670 F12000.0
G1 Z0.0000 F8000.0
G0 X168.2197 Y-184.0480 F15000.0
G1 Z11.9000 F8000.0
G1 X158.0869 Y-173.9153 F12000.0
G1 Z0.0000 F8000.0
G0 X162.2059 Y-173.9153 F15000.0
G1 Z11.9000 F8000.0
G1 X168.2197 Y-179.9291 F12000.0
G1 Z0.0000 F8000.0
G0 X168.2197 Y-175.8101 F15000.0
G1 Z11.9000 F8000.0
G1 X166.3249 Y-173.9153 F12000.0
G1 Z0.0000 F8000.0
G0 X157.5103 Y-181.5767 F15000.0
G1 Z11.9000 F8000.0
G1 X168.2197 Y-192.2860 F12000.0
G1 Z0.0000 F8000.0
G0 X168.2197 Y-196.4050 F15000.0
G1 Z11.9000 F8000.0
G1 X154.0503 Y-182.2357 F12000.0
G1 Z0.0000 F8000.0
G0 X153.8032 Y-182.2357 F15000.0
G1 Z11.9000 F8000.0
G1 X154.5446 Y-181.4943 F12000.0
G1 Z0.0000 F8000.0
G0 X150.4256 Y-177.3753 F15000.0
G1 Z11.9000 F8000.0
G1 X145.5652 Y-182.2357 F12000.0
G1 Z0.0000 F8000.0
G0 X145.8123 Y-182.2357 F15000.0
G1 Z11.9000 F8000.0
G1 X163.2769 Y-199.7826 F12000.0
G1 Z0.0000 F8000.0
G0 X168.2197 Y-203.8192 F15000.0
G1 Z11.9000 F8000.0
G1 X168.2197 Y-158.3455 F12000.0
G1 Z0.0000 F8000.0
G0 X168.2197 Y-160.3227 F15000.0
G1 Z11.9000 F8000.0
G1 X163.3593 Y-159.6636 F12000.0
G1 X163.7712 Y-160.3227 F12000.0
G1 X163.3593 Y-160.9817 F12000.0
G1 X168.2197 Y-160.3227 F12000.0
G1 X31.4691 Y-160.3227 F12000.0
G1 X36.3295 Y-160.9817 F12000.0
G1 X35.8353 Y-160.3227 F12000.0
G1 X36.3295 Y-159.6636 F12000.0
G1 X31.4691 Y-160.3227 F12000.0
G1 Z0.0000 F8000.0
G0 X31.4691 Y-158.3455 F15000.0
G1 Z11.9000 F8000.0
G1 X31.4691 Y-176.3867 F12000.0
G1 Z0.0000 F8000.0
G0 X32.6224 Y-176.3867 F15000.0
G1 Z11.9000 F8000.0
G1 X36.4943 Y-180.3410 F12000.0
G1 Z0.0000 F8000.0
G0 X36.7414 Y-176.3867 F15000.0
G1 Z11.9000 F8000.0
G1 X40.6133 Y-180.3410 F12000.0
G1 Z0.0000 F8000.0
G0 X41.1899 Y-180.3410 F15000.0
G1 Z11.9000 F8000.0
G1 X31.4691 Y-180.3410 F12000.0
G1 Z0.0000 F8000.0
G0 X32.3753 Y-180.3410 F15000.0
G1 Z11.9000 F8000.0
G1 X31.4691 Y-179.4348 F12000.0
G1 Z0.0000 F8000.0
G0 X41.1899 Y-180.3410 F15000.0
G1 Z11.9000 F8000.0
G1 X41.1899 Y-199.7826 F12000.0
G1 Z0.0000 F8000.0
G0 X40.5309 Y-199.7826 F15000.0
G1 Z11.9000 F8000.0
G1 X29.5744 Y-199.7826 F12000.0
G1 Z0.0000 F8000.0
G0 X26.5263 Y-199.7826 F15000.0
G1 Z11.9000 F8000.0
G1 X11.8627 Y-199.7826 F12000.0
G1 Z0.0000 F8000.0
G0 X13.1134 Y-202.7884 F15000.0
G1 Z11.9000 F8000.0
G1 X13.1576 Y-203.0095 F12000.0
G1 Z0.0000 F8000.0
G0 X13.2460 Y-203.2749 F15000.0
G1 Z11.9000 F8000.0
G1 X13.2903 Y-203.4960 F12000.0
G1 Z0.0000 F8000.0
G0 X13.3787 Y-203.7614 F15000.0
G1 Z11.9000 F8000.0
G1 X13.4672 Y-204.1594 F12000.0
G1 Z0.0000 F8000.0
G0 X13.5556 Y-204.4248 F15000.0
G1 Z11.9000 F8000.0
G1 X13.5999 Y-204.6459 F12000.0
G1 Z0.0000 F8000.0
G0 X13.6883 Y-204.9113 F15000.0
G1 Z11.9000 F8000.0
G1 X13.7325 Y-205.1324 F12000.0
G1 Z0.0000 F8000.0
G0 X14.5286 Y-208.0956 F15000.0
G1 Z11.9000 F8000.0
G1 X13.9095 Y-205.5305 F12000.0
G1 X17.0496 Y-205.4862
G1 X15.8997 Y-210.3954
G1 Z0.0000 F8000.0
G0 X15.8112 Y-210.6608 F15000.0
G1 Z11.9000 F8000.0
G1 X15.5016 Y-210.8819 F12000.0
G1 X15.5016 Y-211.5895
G1 Z0.0000 F8000.0
G0 X15.2363 Y-210.6608 F15000.0
G1 Z11.9000 F8000.0
G1 X15.1920 Y-210.4839 F12000.0
G1 Z0.0000 F8000.0
G0 X15.1036 Y-210.2185 F15000.0
G1 Z11.9000 F8000.0
G1 X14.6171 Y-208.3610 F12000.0
G1 Z0.0000 F8000.0
G0 X17.0938 Y-205.4862 F15000.0
G1 Z11.9000 F8000.0
G1 X17.3591 Y-204.8671 F12000.0
G1 Z0.0000 F8000.0
G0 X17.4476 Y-204.6017 F15000.0
G1 Z11.9000 F8000.0
G1 X17.5361 Y-204.2037 F12000.0
G1 Z0.0000 F8000.0
G0 X17.6687 Y-203.7614 F15000.0
G1 Z11.9000 F8000.0
G1 X17.7130 Y-203.5403 F12000.0
G1 Z0.0000 F8000.0
G0 X17.8456 Y-203.0980 F15000.0
G1 Z11.9000 F8000.0
G1 X17.9783 Y-202.7442 F12000.0
G1 Z0.0000 F8000.0
G0 X19.1945 Y-200.7712 F15000.0
G1 Z11.9000 F8000.0
G1 X19.9359 Y-199.7826 F12000.0
G1 X19.1945 Y-198.7940 F12000.0
G1 X26.5263 Y-199.7826 F12000.0
G1 X19.1945 Y-200.7712 F12000.0
G1 Z0.0000 F8000.0
G0 X19.2769 Y-200.6888 F15000.0
G1 Z11.9000 F8000.0
G1 X19.8536 Y-200.6888 F12000.0
G1 Z0.0000 F8000.0
G0 X19.4417 Y-200.4416 F15000.0
G1 Z11.9000 F8000.0
G1 X21.6659 Y-200.4416 F12000.0
G1 Z0.0000 F8000.0
G0 X20.4302 Y-200.6064 F15000.0
G1 Z11.9000 F8000.0
G1 X19.3593 Y-200.6064 F12000.0
G1 Z0.0000 F8000.0
G0 X19.6064 Y-200.2769 F15000.0
G1 Z11.9000 F8000.0
G1 X22.9016 Y-200.2769 F12000.0
G1 Z0.0000 F8000.0
G0 X22.9016 Y-199.2883 F15000.0
G1 Z11.9000 F8000.0
G1 X19.6064 Y-199.2883 F12000.0
G1 Z0.0000 F8000.0
G0 X19.6888 Y-199.4531 F15000.0
G1 Z11.9000 F8000.0
G1 X24.1373 Y-199.4531 F12000.0
G1 Z0.0000 F8000.0
G0 X24.1373 Y-200.1121 F15000.0
G1 Z11.9000 F8000.0
G1 X19.6888 Y-200.1121 F12000.0
G1 Z0.0000 F8000.0
G0 X19.8536 Y-199.9474 F15000.0
G1 Z11.9000 F8000.0
G1 X25.3730 Y-199.9474 F12000.0
G1 Z0.0000 F8000.0
G0 X25.3730 Y-199.6178 F15000.0
G1 Z11.9000 F8000.0
G1 X19.8536 Y-199.6178 F12000.0
G1 Z0.0000 F8000.0
G0 X19.4417 Y-199.1236 F15000.0
G1 Z11.9000 F8000.0
G1 X21.6659 Y-199.1236 F12000.0
G1 Z0.0000 F8000.0
G0 X20.4302 Y-198.9588 F15000.0
G1 Z11.9000 F8000.0
G1 X19.3593 Y-198.9588 F12000.0
G1 Z0.0000 F8000.0
G0 X19.2769 Y-198.8764 F15000.0
G1 Z11.9000 F8000.0
G1 X19.8536 Y-198.8764 F12000.0
G1 Z0.0000 F8000.0
G0 X31.4691 Y-211.8924 F15000.0
G1 Z11.9000 F8000.0
G1 X55.7712 Y-211.8924 F12000.0
G1 X43.7437 Y-199.7826 F12000.0
G1 X31.4691 Y-211.8924 F12000.0
G1 Z0.0000 F8000.0
G0 X41.9314 Y-199.7826 F15000.0
G1 Z11.9000 F8000.0
G1 X43.5790 Y-199.7826 F12000.0
G1 Z0.0000 F8000.0
G0 X44.9794 Y-199.7826 F15000.0
G1 Z11.9000 F8000.0
G1 X56.0183 Y-199.7826 F12000.0
G1 Z0.0000 F8000.0
G0 X55.7712 Y-199.7826 F15000.0
G1 Z11.9000 F8000.0
G1 X55.7712 Y-220.2128 F12000.0
G1 Z0.0000 F8000.0
G0 X72.0033 Y-215.7198 F15000.0
G1 Z11.9000 F8000.0
G1 X72.6558 Y-215.0674 F12000.0
G1 Z0.0000 F8000.0
G0 X72.3295 Y-215.3524 F15000.0
G1 Z11.9000 F8000.0
G1 X62.6087 Y-238.0892 F12000.0
G1 X51.8993 Y-238.0892 F12000.0
G1 Z0.0000 F8000.0
G0 X54.7362 Y-239.2667 F15000.0
G1 Z11.9000 F8000.0
G1 X55.0016 Y-239.3552 F12000.0
G1 X57.0802 Y-241.6992
G1 Z0.0000 F8000.0
G0 X57.5667 Y-239.3994 F15000.0
G1 Z11.9000 F8000.0
G1 X55.0458 Y-239.3552 F12000.0
G1 Z0.0000 F8000.0
G0 X56.6822 Y-244.6624 F15000.0
G1 Z11.9000 F8000.0
G1 X57.5225 Y-245.4142 F12000.0
G1 X57.8321 Y-245.5027
G1 X59.2916 Y-245.2816
G1 X59.4685 Y-244.4412
G1 X59.1147 Y-243.7336
G1 Z0.0000 F8000.0
G0 X68.1282 Y-271.0412 F15000.0
G1 Z11.9000 F8000.0
G1 X0.0000 Y-271.0412 F12000.0
G1 Z0.0000 F8000.0
G0 X11.9807 Y-276.2353 F15000.0
G1 Z11.9000 F8000.0
G1 X11.9807 Y-280.3218 F12000.0
G1 Z0.0000 F8000.0
G0 X14.6078 Y-280.3705 F15000.0
G1 Z11.9000 F8000.0
G1 X14.3173 Y-280.2902 F12000.0
G1 X13.8797 Y-279.8441
G1 X13.3969 Y-278.9629
G1 X12.9604 Y-278.3864
G1 X13.3964 Y-278.9396
G1 X13.1893 Y-278.7671
G1 X12.0623 Y-278.3876
G1 X12.9710 Y-278.3265
G1 X13.0413 Y-278.1392
G1 X13.4465 Y-277.7140
G1 X14.3834 Y-276.2667
G1 X14.8997 Y-275.9434
G1 Z0.0000 F8000.0
G0 X15.7267 Y-276.2353 F15000.0
G1 Z11.9000 F8000.0
G1 X15.7267 Y-279.0569 F12000.0
G1 Z0.0000 F8000.0
G0 X15.7267 Y-277.7434 F15000.0
G1 Z11.9000 F8000.0
G1 X17.8673 Y-277.6947 F12000.0
G1 Z0.0000 F8000.0
G0 X17.9159 Y-279.0569 F15000.0
G1 Z11.9000 F8000.0
G1 X17.9159 Y-276.2353 F12000.0
G1 Z0.0000 F8000.0
G0 X19.3268 Y-276.2353 F15000.0
G1 Z11.9000 F8000.0
G1 X20.7376 Y-279.1542 F12000.0
G1 Z0.0000 F8000.0
G0 X22.8782 Y-276.6731 F15000.0
G1 Z11.9000 F8000.0
G1 X22.6048 Y-277.8208 F12000.0
G1 X22.8895 Y-279.8171
G1 X23.3809 Y-280.3038
G1 X22.9591 Y-279.9514
G1 X23.5361 Y-280.3684
G1 X24.1525 Y-280.3538
G1 X24.6354 Y-280.0411
G1 X24.9016 Y-279.5064
G1 X25.0589 Y-278.2621
G1 X24.8625 Y-276.9007
G1 X24.5777 Y-276.4093
G1 X24.3462 Y-276.2432
G1 X23.5098 Y-276.1839
G1 X22.9521 Y-276.6034
G1 X23.1433 Y-276.3617
G1 X23.4620 Y-276.1866
G1 Z0.0000 F8000.0
G0 X27.8405 Y-276.2353 F15000.0
G1 Z11.9000 F8000.0
G1 X27.7282 Y-279.7690 F12000.0
G1 X26.6001 Y-279.1412
G1 X27.7449 Y-279.8357
G1 X27.9378 Y-280.4191
G1 Z0.0000 F8000.0
G0 X32.1463 Y-279.9833 F15000.0
G1 Z11.9000 F8000.0
G1 X32.0246 Y-279.7755 F12000.0
G1 X31.7503 Y-277.9019
G1 X32.0243 Y-276.6731
G1 Z0.0000 F8000.0
G0 X33.8243 Y-276.5272 F15000.0
G1 Z11.9000 F8000.0
G1 X33.5020 Y-276.2482 F12000.0
G1 X32.6578 Y-276.2006
G1 X32.3199 Y-276.3309
G1 X32.0795 Y-276.6147
G1 X32.6132 Y-276.2020
G1 X32.8435 Y-276.1805
G1 X33.6858 Y-276.4346
G1 X33.8559 Y-276.6040
G1 X34.0597 Y-277.0592
G1 X34.2044 Y-278.3059
G1 X34.0339 Y-279.5473
G1 X33.7633 Y-280.0716
G1 X33.3744 Y-280.3231
G1 X33.0102 Y-280.4063
G1 X32.6414 Y-280.3566
G1 X32.0956 Y-279.9434
G1 X32.5363 Y-280.3110
G1 Z0.0000 F8000.0
G0 X35.7950 Y-279.9833 F15000.0
G1 Z11.9000 F8000.0
G1 X35.6733 Y-279.7755 F12000.0
G1 X35.3990 Y-277.9019
G1 X35.6730 Y-276.6731
G1 Z0.0000 F8000.0
G0 X37.4731 Y-276.5272 F15000.0
G1 Z11.9000 F8000.0
G1 X37.2773 Y-276.4009 F12000.0
G1 X36.2927 Y-276.2114
G1 X35.9612 Y-276.3398
G1 X35.7334 Y-276.6117
G1 X36.3873 Y-276.1605
G1 X37.1082 Y-276.2343
G1 X37.4353 Y-276.4970
G1 X37.7076 Y-277.0596
G1 X37.8532 Y-278.3059
G1 X37.6826 Y-279.5473
G1 X37.4120 Y-280.0716
G1 X37.0231 Y-280.3231
G1 X36.6589 Y-280.4063
G1 X36.2901 Y-280.3566
G1 X35.7444 Y-279.9434
G1 X36.1850 Y-280.3110
G1 Z0.0000 F8000.0
G0 X39.3217 Y-276.6731 F15000.0
G1 Z11.9000 F8000.0
G1 X39.0475 Y-277.9019 F12000.0
G1 X39.3137 Y-279.7759
G1 X39.4378 Y-279.9770
G1 X39.9334 Y-280.3550
G1 X40.5488 Y-280.3677
G1 X41.0559 Y-280.0732
G1 X41.3294 Y-279.5528
G1 X41.5016 Y-278.3117
G1 X41.3227 Y-276.9466
G1 X41.0437 Y-276.4344
G1 X40.8013 Y-276.2531
G1 X39.9975 Y-276.1668
G1 X39.3824 Y-276.6031
G1 X39.5461 Y-276.3805
G1 X39.9055 Y-276.1866
G1 Z0.0000 F8000.0
G0 X44.7181 Y-279.6352 F15000.0
G1 Z11.9000 F8000.0
G1 X45.2488 Y-280.1628 F12000.0
G1 X46.5921 Y-280.3817
G1 X47.4579 Y-279.8828
G1 X47.6849 Y-279.4948
G1 Z0.0000 F8000.0
G0 X49.6795 Y-278.8623 F15000.0
G1 Z11.9000 F8000.0
G1 X49.7360 Y-278.9126 F12000.0
G1 X49.2578 Y-278.6602
G1 X49.1201 Y-278.4907
G1 X49.1857 Y-277.2395
G1 X49.2737 Y-276.8697
G1 Z0.0000 F8000.0
G0 X49.2903 Y-276.8190 F15000.0
G1 Z11.9000 F8000.0
G1 X49.6309 Y-276.3812 F12000.0
G1 Z0.0000 F8000.0
G0 X49.5968 Y-276.4434 F15000.0
G1 Z11.9000 F8000.0
G1 X50.0155 Y-276.1859 F12000.0
G1 X50.3732 Y-276.2232
G1 X51.2999 Y-276.5265
G1 X51.5269 Y-276.9047
G1 X51.6553 Y-277.3845
G1 X51.5204 Y-278.3822
G1 X51.2849 Y-278.7833
G1 X51.0213 Y-278.9718
G1 X50.4243 Y-279.1184
G1 X49.1829 Y-278.5857
G1 X49.1210 Y-278.6231
G1 X49.0977 Y-279.2257
G1 X49.2403 Y-279.6812
G1 X49.6691 Y-280.1338
G1 X51.4951 Y-280.4340
G1 X51.6255 Y-280.5651
G1 Z0.0000 F8000.0
G0 X47.4903 Y-276.6731 F15000.0
G1 Z11.9000 F8000.0
G1 X47.7453 Y-277.1329 F12000.0
G1 X47.4542 Y-276.6670
G1 X46.8185 Y-276.2738
G1 X45.9500 Y-276.1686
G1 X45.5792 Y-276.2399
G1 X45.1303 Y-276.4639
G1 X44.7977 Y-276.7936
G1 X44.3871 Y-277.9773
G1 X44.5155 Y-279.2189
G1 X44.7191 Y-279.6443
G1 Z0.0000 F8000.0
G0 X47.1011 Y-276.3812 F15000.0
G1 Z11.9000 F8000.0
G1 X46.9065 Y-276.2353 F12000.0
G1 Z0.0000 F8000.0
G0 X68.1282 Y-271.0412 F15000.0
G1 Z11.9000 F8000.0
G1 X68.1282 Y-284.6338 F12000.0
G1 Z0.0000 F8000.0
G0 X100.2128 Y-244.2226 F15000.0
G1 Z11.9000 F8000.0
G1 X101.3627 Y-245.0186 F12000.0
G1 X101.8934 Y-245.1955
G1 X102.2915 Y-245.6820
G1 Z0.0000 F8000.0
G0 X102.0261 Y-245.2840 F15000.0
G1 Z11.9000 F8000.0
G1 X101.9377 Y-245.1513 F12000.0
G1 X101.8492 Y-244.6206
G1 Z0.0000 F8000.0
G0 X101.7165 Y-244.2668 F15000.0
G1 Z11.9000 F8000.0
G1 X101.6723 Y-244.1341 F12000.0
G1 Z0.0000 F8000.0
G0 X101.5396 Y-243.7803 F15000.0
G1 Z11.9000 F8000.0
G1 X101.0974 Y-242.5419 F12000.0
G1 Z0.0000 F8000.0
G0 X100.9647 Y-242.1881 F15000.0
G1 Z11.9000 F8000.0
G1 X100.9204 Y-242.0554 F12000.0
G1 Z0.0000 F8000.0
G0 X100.7878 Y-241.7016 F15000.0
G1 Z11.9000 F8000.0
G1 X99.9475 Y-239.4461 F12000.0
G1 Z0.0000 F8000.0
G0 X95.7254 Y-238.0892 F15000.0
G1 Z11.9000 F8000.0
G1 X104.9519 Y-238.0892 F12000.0
G1 X114.3432 Y-219.2242 F12000.0
G1 Z0.0000 F8000.0
G0 X114.6695 Y-218.9392 F15000.0
G1 Z11.9000 F8000.0
G1 X114.0170 Y-219.5917 F12000.0
G1 Z0.0000 F8000.0
G0 X108.8238 Y-224.0847 F15000.0
G1 Z11.9000 F8000.0
G1 X108.8238 Y-214.3638 F12000.0
G1 X104.9519 Y-214.3638 F12000.0
G1 X104.9519 Y-217.3295 F12000.0
G1 X85.0160 Y-217.3295 F12000.0
G1 Z0.0000 F8000.0
G0 X85.0160 Y-215.3524 F15000.0
G1 Z11.9000 F8000.0
G1 X104.9519 Y-215.3524 F12000.0
G1 Z0.0000 F8000.0
G0 X104.9519 Y-214.3638 F15000.0
G1 Z11.9000 F8000.0
G1 X104.9519 Y-199.7826 F12000.0
G1 Z0.0000 F8000.0
G0 X108.8238 Y-199.7826 F15000.0
G1 Z11.9000 F8000.0
G1 X108.8238 Y-214.3638 F12000.0
G1 Z0.0000 F8000.0
G0 X108.8238 Y-224.0847 F15000.0
G1 Z11.9000 F8000.0
G1 X130.2426 Y-224.0847 F12000.0
G1 X130.2426 Y-222.1899 F12000.0
G1 X154.5446 Y-222.1899 F12000.0
G1 X154.5446 Y-199.7826 F12000.0
G1 Z0.0000 F8000.0
G0 X155.2860 Y-195.9107 F15000.0
G1 Z11.9000 F8000.0
G1 X141.6110 Y-182.2357 F12000.0
G1 Z0.0000 F8000.0
G0 X141.4462 Y-182.2357 F15000.0
G1 Z11.9000 F8000.0
G1 X146.3066 Y-177.3753 F12000.0
G1 Z0.0000 F8000.0
G0 X142.1876 Y-177.3753 F15000.0
G1 Z11.9000 F8000.0
G1 X137.3272 Y-182.2357 F12000.0
G1 Z0.0000 F8000.0
G0 X137.4920 Y-182.2357 F15000.0
G1 Z11.9000 F8000.0
G1 X151.1670 Y-195.9107 F12000.0
G1 Z0.0000 F8000.0
G0 X130.2426 Y-199.7826 F15000.0
G1 Z11.9000 F8000.0
G1 X130.2426 Y-222.1899 F12000.0
G1 Z0.0000 F8000.0
G0 X141.4462 Y-238.0892 F15000.0
G1 Z11.9000 F8000.0
G1 X151.5789 Y-238.0892 F12000.0
G1 X162.8650 Y-217.3295 F12000.0
G1 Z0.0000 F8000.0
G0 X162.4832 Y-217.6289 F15000.0
G1 Z11.9000 F8000.0
G1 X163.1643 Y-216.9478 F12000.0
G1 Z0.0000 F8000.0
G0 X146.3872 Y-239.6647 F15000.0
G1 Z11.9000 F8000.0
G1 X145.9449 Y-239.4436 F12000.0
G1 X144.2643 Y-239.3109
G1 Z0.0000 F8000.0
G0 X146.6083 Y-239.8416 F15000.0
G1 Z11.9000 F8000.0
G1 X146.7852 Y-240.0186 F12000.0
G1 Z0.0000 F8000.0
G0 X146.9179 Y-240.2839 F15000.0
G1 Z11.9000 F8000.0
G1 X147.4486 Y-241.6550 F12000.0
G1 X147.4486 Y-242.2299
G1 X147.0948 Y-242.7164
G1 X146.5199 Y-242.7164
G1 Z0.0000 F8000.0
G0 X147.3159 Y-243.0260 F15000.0
G1 Z11.9000 F8000.0
G1 X147.7582 Y-243.4240 F12000.0
G1 Z0.0000 F8000.0
G0 X147.9794 Y-243.8663 F15000.0
G1 Z11.9000 F8000.0
G1 X148.2889 Y-244.9277 F12000.0
G1 X148.1563 Y-245.3258
G1 Z0.0000 F8000.0
G0 X147.9351 Y-245.5469 F15000.0
G1 Z11.9000 F8000.0
G1 X147.7140 Y-245.6354 F12000.0
G1 X146.5641 Y-245.6354
G1 Z0.0000 F8000.0
G0 X119.5332 Y-195.9107 F15000.0
G1 Z11.9000 F8000.0
G1 X132.2197 Y-183.2242 F12000.0
G1 Z0.0000 F8000.0
G0 X133.2082 Y-182.2357 F15000.0
G1 Z11.9000 F8000.0
G1 X138.0686 Y-177.3753 F12000.0
G1 Z0.0000 F8000.0
G0 X133.9497 Y-177.3753 F15000.0
G1 Z11.9000 F8000.0
G1 X115.4142 Y-195.9107 F12000.0
G1 Z0.0000 F8000.0
G0 X111.2952 Y-195.9107 F15000.0
G1 Z11.9000 F8000.0
G1 X130.2426 Y-176.9634 F12000.0
G1 Z0.0000 F8000.0
G0 X127.6064 Y-175.4805 F15000.0
G1 Z11.9000 F8000.0
G1 X107.1762 Y-195.9107 F12000.0
G1 Z0.0000 F8000.0
G0 X103.0572 Y-195.9107 F15000.0
G1 Z11.9000 F8000.0
G1 X123.4874 Y-175.4805 F12000.0
G1 Z0.0000 F8000.0
G0 X97.7849 Y-199.7826 F15000.0
G1 Z11.9000 F8000.0
G1 X82.7094 Y-199.7826 F12000.0
G1 Z0.0000 F8000.0
G0 X71.5057 Y-199.7826 F15000.0
G1 Z11.9000 F8000.0
G1 X60.4668 Y-199.7826 F12000.0
G1 Z0.0000 F8000.0
G0 X59.0664 Y-199.7826 F15000.0
G1 Z11.9000 F8000.0
G1 X57.4188 Y-199.7826 F12000.0
G1 Z0.0000 F8000.0
G0 X65.0801 Y-188.4966 F15000.0
G1 Z11.9000 F8000.0
G1 X71.2586 Y-182.2357 F12000.0
G1 Z0.0000 F8000.0
G0 X65.0801 Y-184.1304 F15000.0
G1 Z11.9000 F8000.0
G1 X60.3021 Y-179.3524 F12000.0
G1 Z0.0000 F8000.0
G0 X56.1831 Y-179.3524 F15000.0
G1 Z11.9000 F8000.0
G1 X61.0435 Y-184.2128 F12000.0
G1 Z0.0000 F8000.0
G0 X56.9245 Y-184.2128 F15000.0
G1 Z11.9000 F8000.0
G1 X49.0984 Y-176.3867 F12000.0
G1 Z0.0000 F8000.0
G0 X44.9794 Y-176.3867 F15000.0
G1 Z11.9000 F8000.0
G1 X52.8055 Y-184.2128 F12000.0
G1 Z0.0000 F8000.0
G0 X48.6865 Y-184.2128 F15000.0
G1 Z11.9000 F8000.0
G1 X40.8604 Y-176.3867 F12000.0
G1 Z0.0000 F8000.0
G0 X53.2174 Y-176.3867 F15000.0
G1 Z11.9000 F8000.0
G1 X55.7712 Y-179.0229 F12000.0
G1 Z0.0000 F8000.0
G0 X34.6667 Y-160.6522 F15000.0
G1 Z11.9000 F8000.0
G1 X33.7910 Y-160.6522 F12000.0
G1 Z0.0000 F8000.0
G0 X33.4615 Y-160.0343 F15000.0
G1 Z11.9000 F8000.0
G1 X34.3372 Y-160.0343 F12000.0
G1 Z0.0000 F8000.0
G0 X76.1190 Y-118.3089 F15000.0
G1 Z11.9000 F8000.0
G1 X81.4737 Y-121.4394 F12000.0
G1 Z0.0000 F8000.0
G0 X82.3799 Y-122.3455 F15000.0
G1 Z11.9000 F8000.0
G1 X84.5217 Y-124.1579 F12000.0
G1 X86.8284 Y-125.6407 F12000.0
G1 X89.2998 Y-126.8764 F12000.0
G1 X91.9359 Y-127.7826 F12000.0
G1 X94.6545 Y-128.4417 F12000.0
G1 X97.3730 Y-128.6888 F12000.0
G1 X100.1739 Y-128.6888 F12000.0
G1 X102.8924 Y-128.3593 F12000.0
G1 X105.6110 Y-127.6179 F12000.0
G1 X108.1648 Y-126.6293 F12000.0
G1 X110.6362 Y-125.3112 F12000.0
G1 X112.9428 Y-123.7460 F12000.0
G1 X115.0023 Y-121.9336 F12000.0
G1 X116.8146 Y-119.7918 F12000.0
G1 X118.3799 Y-117.5675 F12000.0
G1 X118.3799 Y-93.2655 F12000.0
G1 X118.0503 Y-92.6888 F12000.0
G1 X116.4027 Y-90.4645 F12000.0
G1 X114.5080 Y-88.4050 F12000.0
G1 X112.3661 Y-86.6751 F12000.0
G1 X110.0595 Y-85.1099 F12000.0
G1 X107.5881 Y-83.8742 F12000.0
G1 X104.9519 Y-82.9680 F12000.0
G1 X102.3158 Y-82.3913 F12000.0
G1 X99.5149 Y-82.0618 F12000.0
G1 X96.7140 Y-82.1442 F12000.0
G1 X93.9954 Y-82.4737 F12000.0
G1 X91.2769 Y-83.1327 F12000.0
G1 X88.7231 Y-84.2037 F12000.0
G1 X86.2517 Y-85.4394 F12000.0
G1 X84.0275 Y-87.0870 F12000.0
G1 X81.9680 Y-88.8993 F12000.0
G1 X80.0732 Y-90.9588 F12000.0
G1 X78.5080 Y-93.2655 F12000.0
G1 X78.5080 Y-117.5675 F12000.0
G1 X78.8375 Y-118.0618 F12000.0
G1 X80.4851 Y-120.3684 F12000.0
G1 X82.3799 Y-122.3455 F12000.0
G1 Z0.0000 F8000.0
G0 X84.8513 Y-119.3799 F15000.0
G1 Z11.9000 F8000.0
G1 X86.8284 Y-121.0275 F12000.0
G1 X88.9703 Y-122.3455 F12000.0
G1 X91.1945 Y-123.4989 F12000.0
G1 X93.5835 Y-124.2403 F12000.0
G1 X96.1373 Y-124.7346 F12000.0
G1 X98.6087 Y-124.8993 F12000.0
G1 X101.1625 Y-124.6522 F12000.0
G1 X103.6339 Y-124.1579 F12000.0
G1 X106.0229 Y-123.3341 F12000.0
G1 X108.3295 Y-122.1808 F12000.0
G1 X110.3890 Y-120.7803 F12000.0
G1 X112.2838 Y-119.1327 F12000.0
G1 X113.9313 Y-117.1556 F12000.0
G1 X115.3318 Y-115.0961 F12000.0
G1 X116.4851 Y-112.7895 F12000.0
G1 X117.2265 Y-110.4005 F12000.0
G1 X117.7208 Y-107.9291 F12000.0
G1 X117.8856 Y-105.3753 F12000.0
G1 X117.8856 Y-104.7163 F12000.0
G1 X117.6384 Y-102.1625 F12000.0
G1 X117.0618 Y-99.6911 F12000.0
G1 X116.1556 Y-97.3844 F12000.0
G1 X115.0023 Y-95.1602 F12000.0
G1 X113.5194 Y-93.1007 F12000.0
G1 X111.7895 Y-91.2060 F12000.0
G1 X109.8124 Y-89.6407 F12000.0
G1 X107.6705 Y-88.2403 F12000.0
G1 X105.3638 Y-87.2517 F12000.0
G1 X102.9748 Y-86.4279 F12000.0
G1 X100.5034 Y-86.0160 F12000.0
G1 X97.9497 Y-85.9337 F12000.0
G1 X95.3959 Y-86.1808 F12000.0
G1 X92.9245 Y-86.7574 F12000.0
G1 X90.5355 Y-87.5812 F12000.0
G1 X88.3112 Y-88.8169 F12000.0
G1 X86.2517 Y-90.2174 F12000.0
G1 X84.3570 Y-91.9474 F12000.0
G1 X82.7918 Y-93.9245 F12000.0
G1 X81.3913 Y-95.9840 F12000.0
G1 X80.3204 Y-98.2906 F12000.0
G1 X79.5790 Y-100.7620 F12000.0
G1 X79.0847 Y-103.2334 F12000.0
G1 X79.0023 Y-105.7872 F12000.0
G1 X79.2494 Y-108.2586 F12000.0
G1 X79.7437 Y-110.7300 F12000.0
G1 X80.5675 Y-113.1190 F12000.0
G1 X81.7208 Y-115.3433 F12000.0
G1 X83.2037 Y-117.4851 F12000.0
G1 X84.8513 Y-119.3799 F12000.0
G1 Z0.0000 F8000.0
G0 X86.7460 Y-118.3089 F15000.0
G1 Z11.9000 F8000.0
G1 X88.5584 Y-119.8741 F12000.0
G1 X90.7002 Y-121.0275 F12000.0
G1 X92.9245 Y-121.9336 F12000.0
G1 X95.2311 Y-122.5927 F12000.0
G1 X97.6201 Y-122.8398 F12000.0
G1 X100.0092 Y-122.8398 F12000.0
G1 X102.3158 Y-122.4279 F12000.0
G1 Z0.0000 F8000.0
G0 X102.4806 Y-120.4508 F15000.0
G1 Z11.9000 F8000.0
G1 X104.6224 Y-119.7094 F12000.0
G1 X106.5995 Y-118.6384 F12000.0
G1 X108.4943 Y-117.3204 F12000.0
G1 X110.0595 Y-115.7552 F12000.0
G1 X111.4600 Y-113.9428 F12000.0
G1 X112.5309 Y-111.9657 F12000.0
G1 X113.3547 Y-109.9062 F12000.0
G1 X113.8490 Y-107.6819 F12000.0
G1 X114.0137 Y-105.3753 F12000.0
G1 X114.0137 Y-104.9634 F12000.0
G1 X113.7666 Y-102.7391 F12000.0
G1 X113.2723 Y-100.5149 F12000.0
G1 X112.3661 Y-98.4554 F12000.0
G1 X111.2128 Y-96.4783 F12000.0
G1 X109.8124 Y-94.7483 F12000.0
G1 X108.1648 Y-93.1831 F12000.0
G1 X106.2700 Y-91.9474 F12000.0
G1 X104.2105 Y-90.9588 F12000.0
G1 X102.0687 Y-90.2998 F12000.0
G1 X99.8444 Y-89.8879 F12000.0
G1 X97.6201 Y-89.8879 F12000.0
G1 X95.3135 Y-90.1350 F12000.0
G1 X93.1716 Y-90.7941 F12000.0
G1 X91.1121 Y-91.7002 F12000.0
G1 X89.2174 Y-92.8536 F12000.0
G1 X87.4874 Y-94.3364 F12000.0
G1 X86.0046 Y-96.0664 F12000.0
G1 X84.7689 Y-97.9611 F12000.0
G1 X83.8627 Y-100.0206 F12000.0
G1 X83.2037 Y-102.2449 F12000.0
G1 X82.9565 Y-104.4691 F12000.0
G1 X82.9565 Y-106.6934 F12000.0
G1 X83.2860 Y-109.0000 F12000.0
G1 X84.0275 Y-111.1419 F12000.0
G1 X84.9336 Y-113.2014 F12000.0
G1 X86.2517 Y-115.0137 F12000.0
G1 X87.7346 Y-116.7437 F12000.0
G1 X89.5469 Y-118.1442 F12000.0
G1 X91.4417 Y-119.2975 F12000.0
G1 X93.5835 Y-120.2037 F12000.0
G1 X95.7254 Y-120.6979 F12000.0
G1 X98.0320 Y-120.9451 F12000.0
G1 X100.2563 Y-120.8627 F12000.0
G1 X102.4806 Y-120.4508 F12000.0
G1 Z0.0000 F8000.0
G0 X98.4439 Y-121.1922 F15000.0
G1 Z11.9000 F8000.0
G1 X98.4439 Y-119.6270 F12000.0
G1 Z0.0000 F8000.0
G0 X98.4439 Y-118.1442 F15000.0
G1 Z11.9000 F8000.0
G1 X98.4439 Y-107.6819 F12000.0
G1 Z0.0000 F8000.0
G0 X98.4439 Y-106.1991 F15000.0
G1 Z11.9000 F8000.0
G1 X98.4439 Y-104.6339 F12000.0
G1 Z0.0000 F8000.0
G0 X99.2677 Y-105.3753 F15000.0
G1 Z11.9000 F8000.0
G1 X97.6201 Y-105.3753 F12000.0
G1 Z0.0000 F8000.0
G0 X96.2197 Y-105.3753 F15000.0
G1 Z11.9000 F8000.0
G1 X87.4050 Y-105.3753 F12000.0
G1 Z0.0000 F8000.0
G0 X86.0046 Y-105.3753 F15000.0
G1 Z11.9000 F8000.0
G1 X84.3570 Y-105.3753 F12000.0
G1 Z0.0000 F8000.0
G0 X82.8741 Y-105.3753 F15000.0
G1 Z11.9000 F8000.0
G1 X74.1419 Y-105.3753 F12000.0
G1 Z0.0000 F8000.0
G0 X80.9794 Y-105.5401 F15000.0
G1 Z11.9000 F8000.0
G1 X81.1442 Y-107.9291 F12000.0
G1 X81.7208 Y-110.3181 F12000.0
G1 X82.5446 Y-112.5423 F12000.0
G1 X83.6156 Y-114.6842 F12000.0
G1 X85.0160 Y-116.6613 F12000.0
G1 X86.7460 Y-118.3089 F12000.0
G1 Z0.0000 F8000.0
G0 X76.1190 Y-118.3089 F15000.0
G1 Z11.9000 F8000.0
G1 X76.1190 Y-112.0481 F12000.0
G1 X76.1190 Y-98.7025 F12000.0
G1 X76.1190 Y-92.4417 F12000.0
G1 X81.4737 Y-89.3936 F12000.0
G1 Z0.0000 F8000.0
G0 X86.4165 Y-92.6888 F15000.0
G1 Z11.9000 F8000.0
G1 X84.8513 Y-94.4188 F12000.0
G1 X83.4508 Y-96.3959 F12000.0
G1 X82.3799 Y-98.5378 F12000.0
G1 X81.5561 Y-100.8444 F12000.0
G1 X81.1442 Y-103.1510 F12000.0
G1 X80.9794 Y-105.5401 F12000.0
G1 Z0.0000 F8000.0
G0 X94.5721 Y-105.1282 F15000.0
G1 Z11.9000 F8000.0
G1 X94.6545 Y-106.2815 F12000.0
G1 X95.0664 Y-107.3524 F12000.0
G1 X95.8078 Y-108.2586 F12000.0
G1 X96.7140 Y-108.8352 F12000.0
G1 X97.7849 Y-109.2471 F12000.0
G1 X98.9382 Y-109.2471 F12000.0
G1 X100.0092 Y-109.0000 F12000.0
G1 X100.9977 Y-108.4233 F12000.0
G1 X101.7391 Y-107.5172 F12000.0
G1 X102.1510 Y-106.5286 F12000.0
G1 X102.3158 Y-105.3753 F12000.0
G1 X102.3158 Y-104.7163 F12000.0
G1 X101.9863 Y-103.6453 F12000.0
G1 X101.3272 Y-102.7391 F12000.0
G1 X100.4211 Y-102.0801 F12000.0
G1 X99.3501 Y-101.5858 F12000.0
G1 X98.2792 Y-101.5034 F12000.0
G1 X97.1259 Y-101.7506 F12000.0
G1 X96.1373 Y-102.2449 F12000.0
G1 X95.3135 Y-103.0687 F12000.0
G1 X94.8192 Y-104.0572 F12000.0
G1 X94.5721 Y-105.1282 F12000.0
G1 Z0.0000 F8000.0
G0 X98.4439 Y-103.1510 F15000.0
G1 Z11.9000 F8000.0
G1 X98.4439 Y-92.6064 F12000.0
G1 Z0.0000 F8000.0
G0 X98.4439 Y-91.2060 F15000.0
G1 Z11.9000 F8000.0
G1 X98.4439 Y-89.5584 F12000.0
G1 Z0.0000 F8000.0
G0 X98.4439 Y-88.1579 F15000.0
G1 Z11.9000 F8000.0
G1 X98.4439 Y-77.6133 F12000.0
G1 Z0.0000 F8000.0
G0 X98.4439 Y-79.5904 F15000.0
G1 Z11.9000 F8000.0
G1 X93.0892 Y-82.7208 F12000.0
G1 Z0.0000 F8000.0
G0 X94.8192 Y-88.3227 F15000.0
G1 Z11.9000 F8000.0
G1 X92.5126 Y-88.9817 F12000.0
G1 X90.3707 Y-89.8879 F12000.0
G1 X88.3112 Y-91.2060 F12000.0
G1 X86.4165 Y-92.6888 F12000.0
G1 Z0.0000 F8000.0
G0 X94.8192 Y-88.3227 F15000.0
G1 Z11.9000 F8000.0
G1 X97.2082 Y-87.9931 F12000.0
G1 X99.5973 Y-87.9931 F12000.0
G1 X101.9863 Y-88.2403 F12000.0
G1 X104.2929 Y-88.8993 F12000.0
G1 X106.5172 Y-89.8879 F12000.0
G1 X108.5767 Y-91.1236 F12000.0
G1 X110.3890 Y-92.6064 F12000.0
G1 X112.0366 Y-94.4188 F12000.0
G1 X113.4371 Y-96.3959 F12000.0
G1 X114.5080 Y-98.5378 F12000.0
G1 X115.3318 Y-100.7620 F12000.0
G1 X115.8261 Y-103.1510 F12000.0
G1 X115.9085 Y-105.5401 F12000.0
G1 X115.7437 Y-107.9291 F12000.0
G1 X115.4142 Y-109.6590 F12000.0
G1 Z0.0000 F8000.0
G0 X114.0137 Y-105.3753 F15000.0
G1 Z11.9000 F8000.0
G1 X122.8284 Y-105.3753 F12000.0
G1 Z0.0000 F8000.0
G0 X127.3111 Y-106.5763 F15000.0
G1 Z11.9000 F8000.0
G1 X127.5322 Y-106.4436 F12000.0
G1 X127.6207 Y-106.0456
G1 Z0.0000 F8000.0
G0 X127.5764 Y-106.4436 F15000.0
G1 Z11.9000 F8000.0
G1 X131.5569 Y-105.0284 F12000.0
G1 Z0.0000 F8000.0
G0 X131.3800 Y-106.2225 F15000.0
G1 Z11.9000 F8000.0
G1 X131.6011 Y-106.1341 F12000.0
G1 X131.6895 Y-107.8147
G1 Z0.0000 F8000.0
G0 X130.0532 Y-107.5051 F15000.0
G1 Z11.9000 F8000.0
G1 X129.8762 Y-107.6820 F12000.0
G1 Z0.0000 F8000.0
G0 X128.0187 Y-107.1955 F15000.0
G1 Z11.9000 F8000.0
G1 X127.4438 Y-107.7704 F12000.0
G1 Z0.0000 F8000.0
G0 X127.2669 Y-108.1243 F15000.0
G1 Z11.9000 F8000.0
G1 X127.2226 Y-108.7877 F12000.0
G1 X127.3995 Y-109.0973
G1 X127.7976 Y-109.3184
G1 X128.4168 Y-109.1415
G1 Z0.0000 F8000.0
G0 X127.9745 Y-110.4542 F15000.0
G1 Z11.9000 F8000.0
G1 X127.8860 Y-111.0292 F12000.0
G1 Z0.0000 F8000.0
G0 X128.0187 Y-111.1176 F15000.0
G1 Z11.9000 F8000.0
G1 X128.3283 Y-110.8523 F12000.0
G1 Z0.0000 F8000.0
G0 X128.4610 Y-111.3830 F15000.0
G1 Z11.9000 F8000.0
G1 X127.9745 Y-111.2503 F12000.0
G1 X127.7091 Y-111.3830
G1 X127.2669 Y-111.8252
G1 Z0.0000 F8000.0
G0 X127.2669 Y-111.2061 F15000.0
G1 Z11.9000 F8000.0
G1 X127.5764 Y-111.2503 F12000.0
G1 Z0.0000 F8000.0
G0 X127.8418 Y-111.4714 F15000.0
G1 Z11.9000 F8000.0
G1 X127.8860 Y-111.8695 F12000.0
G1 Z0.0000 F8000.0
G0 X128.0187 Y-105.4264 F15000.0
G1 Z11.9000 F8000.0
G1 X128.3283 Y-105.0726 F12000.0
G1 Z0.0000 F8000.0
G0 X128.2399 Y-103.1188 F15000.0
G1 Z11.9000 F8000.0
G1 X127.5322 Y-103.2515 F12000.0
G1 X127.3995 Y-103.1630
G1 Z0.0000 F8000.0
G0 X127.2669 Y-102.9861 F15000.0
G1 Z11.9000 F8000.0
G1 X127.3111 Y-101.8362 F12000.0
G1 Z0.0000 F8000.0
G0 X127.1784 Y-100.9959 F15000.0
G1 Z11.9000 F8000.0
G1 X127.3111 Y-99.4037 F12000.0
G1 X129.1686 Y-98.7403
G1 X129.3898 Y-99.8902
G1 Z0.0000 F8000.0
G0 X129.5224 Y-100.0229 F15000.0
G1 Z11.9000 F8000.0
G1 X129.8762 Y-100.1113 F12000.0
G1 X130.2743 Y-99.9787
G1 Z0.0000 F8000.0
G0 X130.7166 Y-99.8018 F15000.0
G1 Z11.9000 F8000.0
G1 X131.1588 Y-99.5806 F12000.0
G1 X131.3357 Y-99.4037
G1 Z0.0000 F8000.0
G0 X131.5126 Y-99.1384 F15000.0
G1 Z11.9000 F8000.0
G1 X131.8222 Y-97.6346 F12000.0
G1 Z0.0000 F8000.0
G0 X131.8222 Y-100.1998 F15000.0
G1 Z11.9000 F8000.0
G1 X131.3800 Y-101.9246 F12000.0
G1 Z0.0000 F8000.0
G0 X131.2031 Y-102.1458 F15000.0
G1 Z11.9000 F8000.0
G1 X130.0089 Y-102.6765 F12000.0
G1 X129.4340 Y-102.4996
G1 Z0.0000 F8000.0
G0 X129.3898 Y-101.7920 F15000.0
G1 Z11.9000 F8000.0
G1 X129.2128 Y-102.4111 F12000.0
G1 X128.7706 Y-102.8976
G1 Z0.0000 F8000.0
G0 X131.8665 Y-102.8092 F15000.0
G1 Z11.9000 F8000.0
G1 X132.5299 Y-102.3227 F12000.0
G1 Z0.0000 F8000.0
G0 X120.8513 Y-98.7025 F15000.0
G1 Z11.9000 F8000.0
G1 X120.8513 Y-92.4417 F12000.0
G1 X115.4142 Y-89.3936 F12000.0
G1 Z0.0000 F8000.0
G0 X120.8513 Y-98.7025 F15000.0
G1 Z11.9000 F8000.0
G1 X120.8513 Y-112.0481 F12000.0
G1 X120.8513 Y-118.3089 F12000.0
G1 X115.4142 Y-121.4394 F12000.0
G1 Z0.0000 F8000.0
G0 X103.8810 Y-128.1121 F15000.0
G1 Z11.9000 F8000.0
G1 X98.4439 Y-131.2426 F12000.0
G1 X93.0892 Y-128.1121 F12000.0
G1 Z0.0000 F8000.0
G0 X98.4439 Y-131.2426 F15000.0
G1 Z11.9000 F8000.0
G1 X136.2563 Y-131.2426 F12000.0
G1 Z0.0000 F8000.0
G0 X134.3616 Y-131.2426 F15000.0
G1 Z11.9000 F8000.0
G1 X134.9382 Y-126.3822 F12000.0
G1 X134.3616 Y-126.8764 F12000.0
G1 X133.7025 Y-126.3822 F12000.0
G1 X134.3616 Y-131.2426 F12000.0
G1 X134.3616 Y-79.5904 F12000.0
G1 X133.7025 Y-84.4508 F12000.0
G1 X134.3616 Y-83.9565 F12000.0
G1 X134.9382 Y-84.4508 F12000.0
G1 X134.3616 Y-79.5904 F12000.0
G1 Z0.0000 F8000.0
G0 X136.2563 Y-79.5904 F15000.0
G1 Z11.9000 F8000.0
G1 X98.4439 Y-79.5904 F12000.0
G1 X103.8810 Y-82.7208 F12000.0
G1 Z0.0000 F8000.0
G0 X100.7506 Y-105.3753 F15000.0
G1 Z11.9000 F8000.0
G1 X109.4828 Y-105.3753 F12000.0
G1 Z0.0000 F8000.0
G0 X110.9657 Y-105.3753 F15000.0
G1 Z11.9000 F8000.0
G1 X112.5309 Y-105.3753 F12000.0
G1 Z0.0000 F8000.0
G0 X98.4439 Y-122.6751 F15000.0
G1 Z11.9000 F8000.0
G1 X98.4439 Y-133.2197 F12000.0
G1 Z0.0000 F8000.0
G0 X99.9281 Y-141.5529 F15000.0
G1 Z11.9000 F8000.0
G1 X99.7954 Y-141.9067 F12000.0
G1 Z0.0000 F8000.0
G0 X99.6627 Y-142.3490 F15000.0
G1 Z11.9000 F8000.0
G1 X99.6185 Y-142.5701 F12000.0
G1 Z0.0000 F8000.0
G0 X99.4858 Y-143.0124 F15000.0
G1 Z11.9000 F8000.0
G1 X99.3974 Y-143.4104 F12000.0
G1 Z0.0000 F8000.0
G0 X99.3089 Y-143.6758 F15000.0
G1 Z11.9000 F8000.0
G1 X99.0436 Y-144.2950 F12000.0
G1 Z0.0000 F8000.0
G0 X95.6823 Y-143.9412 F15000.0
G1 Z11.9000 F8000.0
G1 X95.6381 Y-143.7200 F12000.0
G1 Z0.0000 F8000.0
G0 X95.5496 Y-143.4547 F15000.0
G1 Z11.9000 F8000.0
G1 X95.5054 Y-143.2335 F12000.0
G1 Z0.0000 F8000.0
G0 X95.4170 Y-142.9682 F15000.0
G1 Z11.9000 F8000.0
G1 X95.3285 Y-142.5701 F12000.0
G1 Z0.0000 F8000.0
G0 X95.2400 Y-142.3048 F15000.0
G1 Z11.9000 F8000.0
G1 X95.1958 Y-142.0836 F12000.0
G1 Z0.0000 F8000.0
G0 X95.1074 Y-141.8183 F15000.0
G1 Z11.9000 F8000.0
G1 X95.0631 Y-141.5971 F12000.0
G1 Z0.0000 F8000.0
G0 X96.4784 Y-146.9044 F15000.0
G1 Z11.9000 F8000.0
G1 X95.8592 Y-144.3392 F12000.0
G1 X98.9993 Y-144.2950
G1 X97.8494 Y-149.2041
G1 Z0.0000 F8000.0
G0 X97.7610 Y-149.4695 F15000.0
G1 Z11.9000 F8000.0
G1 X97.4514 Y-149.6906 F12000.0
G1 X97.4514 Y-150.3983
G1 Z0.0000 F8000.0
G0 X97.1860 Y-149.4695 F15000.0
G1 Z11.9000 F8000.0
G1 X97.1418 Y-149.2926 F12000.0
G1 Z0.0000 F8000.0
G0 X97.0533 Y-149.0272 F15000.0
G1 Z11.9000 F8000.0
G1 X96.5668 Y-147.1697 F12000.0
G1 Z0.0000 F8000.0
G0 X134.0732 Y-129.0031 F15000.0
G1 Z11.9000 F8000.0
G1 X134.0732 Y-128.1274 F12000.0
G1 Z0.0000 F8000.0
G0 X134.6499 Y-128.4157 F15000.0
G1 Z11.9000 F8000.0
G1 X134.6499 Y-129.2914 F12000.0
G1 Z0.0000 F8000.0
G0 X165.3928 Y-160.0343 F15000.0
G1 Z11.9000 F8000.0
G1 X166.2685 Y-160.0343 F12000.0
G1 Z0.0000 F8000.0
G0 X165.9802 Y-160.6522 F15000.0
G1 Z11.9000 F8000.0
G1 X165.1045 Y-160.6522 F12000.0
G1 Z0.0000 F8000.0
G0 X134.0732 Y-82.7880 F15000.0
G1 Z11.9000 F8000.0
G1 X134.0732 Y-81.9123 F12000.0
G1 Z0.0000 F8000.0
G0 X134.6499 Y-81.6240 F15000.0
G1 Z11.9000 F8000.0
G1 X134.6499 Y-82.4996 F12000.0
G1 Z0.0000 F8000.0
G0 X139.5160 Y-55.0954 F15000.0
G1 Z11.9000 F8000.0
G1 X139.3855 Y-54.9643 F12000.0
G1 X137.5595 Y-54.6641
G1 X137.1308 Y-54.2115
G1 X136.9881 Y-53.7561
G1 X136.9903 Y-53.2550
G1 X137.0840 Y-53.0896
G1 Z0.0000 F8000.0
G0 X137.6640 Y-53.4251 F15000.0
G1 Z11.9000 F8000.0
G1 X138.3746 Y-53.6554 F12000.0
G1 X138.9679 Y-53.4755
G1 X139.2108 Y-53.2762
G1 X139.4269 Y-52.8511
G1 X139.5456 Y-51.8515
G1 X139.3911 Y-51.3764
G1 X139.1414 Y-51.0177
G1 X137.9614 Y-50.6993
G1 X137.5285 Y-50.9293
G1 X137.1771 Y-51.3792
G1 X137.0712 Y-51.8343
G1 X137.0231 Y-53.0766
G1 X137.6673 Y-53.4413
G1 Z0.0000 F8000.0
G0 X135.5753 Y-54.0251 F15000.0
G1 Z11.9000 F8000.0
G1 X135.3753 Y-54.3966 F12000.0
G1 X134.5132 Y-54.9012
G1 X134.1492 Y-54.9022
G1 X133.1668 Y-54.7111
G1 X132.6997 Y-54.2945
G1 X132.4069 Y-53.7407
G1 X132.3177 Y-53.3745
G1 X132.2785 Y-52.4921
G1 X132.6965 Y-51.3107
G1 X133.0345 Y-50.9865
G1 X133.4847 Y-50.7663
G1 X133.9808 Y-50.6849
G1 X134.8360 Y-50.8585
G1 X135.3766 Y-51.2381
G1 X134.9663 Y-50.8782
G1 X135.4703 Y-51.3581
G1 X135.6240 Y-51.6899
G1 Z0.0000 F8000.0
G0 X128.5318 Y-51.0575 F15000.0
G1 Z11.9000 F8000.0
G1 X128.2095 Y-50.7785 F12000.0
G1 X127.3653 Y-50.7309
G1 X127.0273 Y-50.8612
G1 X126.7870 Y-51.1450
G1 X127.3206 Y-50.7323
G1 X127.5510 Y-50.7108
G1 X128.3933 Y-50.9649
G1 X128.5634 Y-51.1343
G1 X128.7671 Y-51.5895
G1 X128.9119 Y-52.8362
G1 X128.7413 Y-54.0776
G1 X128.4708 Y-54.6019
G1 X128.0818 Y-54.8535
G1 X127.7176 Y-54.9366
G1 X127.3488 Y-54.8869
G1 X126.8031 Y-54.4737
G1 X127.2437 Y-54.8413
G1 Z0.0000 F8000.0
G0 X126.8537 Y-54.5136 F15000.0
G1 Z11.9000 F8000.0
G1 X126.7320 Y-54.3058 F12000.0
G1 X126.4578 Y-52.4322
G1 X126.7318 Y-51.2034
G1 Z0.0000 F8000.0
G0 X125.1263 Y-51.5440 F15000.0
G1 Z11.9000 F8000.0
G1 X125.0777 Y-51.4467 F12000.0
G1 Z0.0000 F8000.0
G0 X123.6668 Y-50.7169 F15000.0
G1 Z11.9000 F8000.0
G1 X123.3107 Y-50.9085 F12000.0
G1 X123.1447 Y-51.1315
G1 X123.7545 Y-50.6988
G1 X124.5623 Y-50.7825
G1 X124.7644 Y-50.9104
G1 X124.7048 Y-50.8789
G1 X125.0820 Y-51.4716
G1 X125.2632 Y-52.8362
G1 X125.0926 Y-54.0776
G1 X124.8220 Y-54.6019
G1 X124.3157 Y-54.8966
G1 X123.7001 Y-54.8869
G1 X123.1544 Y-54.4737
G1 X123.5950 Y-54.8413
G1 Z0.0000 F8000.0
G0 X123.2050 Y-54.5136 F15000.0
G1 Z11.9000 F8000.0
G1 X123.0833 Y-54.3058 F12000.0
G1 X122.8091 Y-52.4322
G1 X123.0831 Y-51.2034
G1 Z0.0000 F8000.0
G0 X121.2344 Y-51.0575 F15000.0
G1 Z11.9000 F8000.0
G1 X120.9290 Y-50.8507 F12000.0
G1 X120.0557 Y-50.7376
G1 X119.7231 Y-50.8693
G1 X119.4943 Y-51.1423
G1 X120.1472 Y-50.6937
G1 Z0.0000 F8000.0
G0 X120.9686 Y-50.8074 F15000.0
G1 Z11.9000 F8000.0
G1 X121.2654 Y-51.1347 F12000.0
G1 X121.4697 Y-51.5895
G1 X121.6145 Y-52.8362
G1 X121.4439 Y-54.0776
G1 X121.1733 Y-54.6019
G1 X120.7844 Y-54.8535
G1 X120.4202 Y-54.9366
G1 X120.0514 Y-54.8869
G1 X119.5057 Y-54.4737
G1 X119.9463 Y-54.8413
G1 Z0.0000 F8000.0
G0 X119.5563 Y-54.5136 F15000.0
G1 Z11.9000 F8000.0
G1 X119.4346 Y-54.3058 F12000.0
G1 X119.1603 Y-52.4322
G1 X119.4343 Y-51.2034
G1 Z0.0000 F8000.0
G0 X115.2505 Y-50.7656 F15000.0
G1 Z11.9000 F8000.0
G1 X115.1383 Y-54.2993 F12000.0
G1 X114.0101 Y-53.6715
G1 X115.1550 Y-54.3660
G1 X115.3478 Y-54.9494
G1 Z0.0000 F8000.0
G0 X112.0883 Y-51.0575 F15000.0
G1 Z11.9000 F8000.0
G1 X111.7964 Y-50.7656 F12000.0
G1 Z0.0000 F8000.0
G0 X110.8720 Y-50.7169 F15000.0
G1 Z11.9000 F8000.0
G1 X110.5534 Y-50.8920 F12000.0
G1 X110.3621 Y-51.1337
G1 X110.8134 Y-50.7732
G1 X111.0334 Y-50.7028
G1 X111.9901 Y-50.9870
G1 X112.3034 Y-51.5156
G1 X112.4662 Y-52.8839
G1 X112.3189 Y-54.0036
G1 X112.0605 Y-54.5481
G1 X111.5944 Y-54.8713
G1 X111.2267 Y-54.9363
G1 X110.8629 Y-54.8691
G1 X110.3575 Y-54.4720
G1 X110.8028 Y-54.8437
G1 X110.3135 Y-54.3773
G1 X110.0125 Y-52.3851
G1 X110.2882 Y-51.2034
G1 Z0.0000 F8000.0
G0 X108.1476 Y-53.6845 F15000.0
G1 Z11.9000 F8000.0
G1 X106.7368 Y-50.7656 F12000.0
G1 Z0.0000 F8000.0
G0 X105.3260 Y-50.7656 F15000.0
G1 Z11.9000 F8000.0
G1 X105.3260 Y-53.5872 F12000.0
G1 Z0.0000 F8000.0
G0 X105.2773 Y-52.2251 F15000.0
G1 Z11.9000 F8000.0
G1 X103.1367 Y-52.2737 F12000.0
G1 Z0.0000 F8000.0
G0 X103.1367 Y-53.5872 F15000.0
G1 Z11.9000 F8000.0
G1 X103.1367 Y-50.7656 F12000.0
G1 Z0.0000 F8000.0
G0 X102.3097 Y-50.4737 F15000.0
G1 Z11.9000 F8000.0
G1 X101.7934 Y-50.7970 F12000.0
G1 X100.8566 Y-52.2443
G1 X100.4535 Y-52.6704
G1 X100.3685 Y-52.8590
G1 X100.8079 Y-53.4670
G1 X100.5078 Y-53.0756
G1 X101.2328 Y-54.3027
G1 X101.7560 Y-54.8353
G1 X102.0178 Y-54.9008
G1 Z0.0000 F8000.0
G0 X99.3907 Y-54.8521 F15000.0
G1 Z11.9000 F8000.0
G1 X99.3907 Y-50.7656 F12000.0
G1 Z0.0000 F8000.0
G0 X99.3907 Y-52.9061 F15000.0
G1 Z11.9000 F8000.0
G1 X100.3151 Y-52.8575 F12000.0
G1 Z0.0000 F8000.0
G0 X97.8600 Y-38.9263 F15000.0
G1 Z11.9000 F8000.0
G1 X97.3565 Y-39.2678 F12000.0
G1 X96.3966 Y-39.0788
G1 X96.1453 Y-38.8325
G1 X95.9053 Y-38.1290
G1 X96.0372 Y-37.1434
G1 X96.3079 Y-36.7442
G1 X96.6235 Y-36.5991
G1 X97.2275 Y-36.5110
G1 X97.6739 Y-36.7058
G1 X98.0044 Y-37.1587
G1 X97.7156 Y-36.6632
G1 Z0.0000 F8000.0
G0 X100.8936 Y-36.7113 F15000.0
G1 Z11.9000 F8000.0
G1 X100.0844 Y-36.5026 F12000.0
G1 X99.5008 Y-36.7049
G1 X99.2410 Y-36.9589
G1 X99.0365 Y-37.5326
G1 X99.1913 Y-38.6459
G1 X99.4278 Y-39.0465
G1 X99.2605 Y-38.8563
G1 X99.5371 Y-39.1070
G1 X100.3844 Y-39.2845
G1 X100.7284 Y-39.1772
G1 X101.0334 Y-38.9703
G1 X101.3186 Y-38.4543
G1 X101.3664 Y-37.5820
G1 X101.2784 Y-37.2244
G1 X101.0103 Y-36.7902
G1 X101.2788 Y-37.1928
G1 Z0.0000 F8000.0
G0 X102.4344 Y-37.9151 F15000.0
G1 Z11.9000 F8000.0
G1 X102.6101 Y-38.6953 F12000.0
G1 X103.0266 Y-39.1444
G1 X103.7545 Y-39.2878
G1 X103.9900 Y-39.2526
G1 X104.4842 Y-38.9195
G1 X104.6077 Y-38.7090
G1 X104.7143 Y-38.2275
G1 X104.6430 Y-38.0718
G1 X102.6621 Y-37.9689
G1 X102.4771 Y-37.8878
G1 X102.6875 Y-36.9533
G1 X103.5307 Y-36.4902
G1 X104.0168 Y-36.5778
G1 X104.4497 Y-36.8203
G1 X104.6765 Y-37.0640
G1 X104.4568 Y-36.7595
G1 Z0.0000 F8000.0
G0 X105.7087 Y-36.5669 F15000.0
G1 Z11.9000 F8000.0
G1 X106.0948 Y-37.8755 F12000.0
G1 X107.8367 Y-39.1971
G1 X107.8917 Y-36.6773
G1 X107.7050 Y-36.6066
G1 X105.4997 Y-36.5082
G1 X105.4114 Y-36.3255
G1 X105.3716 Y-35.6520
G1 Z0.0000 F8000.0
G0 X107.9237 Y-36.6150 F15000.0
G1 Z11.9000 F8000.0
G1 X108.2322 Y-36.4698 F12000.0
G1 X108.3089 Y-35.6520
G1 Z0.0000 F8000.0
G0 X109.8497 Y-37.0484 F15000.0
G1 Z11.9000 F8000.0
G1 X109.9460 Y-37.1447 F12000.0
G1 Z0.0000 F8000.0
G0 X111.4387 Y-36.6150 F15000.0
G1 Z11.9000 F8000.0
G1 X111.4106 Y-39.0700 F12000.0
G1 X109.7664 Y-37.0553
G1 X109.5311 Y-36.9448
G1 X109.4613 Y-37.0630
G1 X109.3682 Y-39.1670
G1 Z0.0000 F8000.0
G0 X111.1498 Y-38.7337 F15000.0
G1 Z11.9000 F8000.0
G1 X111.2461 Y-38.8300 F12000.0
G1 Z0.0000 F8000.0
G0 X112.7869 Y-39.1670 F15000.0
G1 Z11.9000 F8000.0
G1 X112.7869 Y-36.6150 F12000.0
G1 Z0.0000 F8000.0
G0 X112.7869 Y-38.0114 F15000.0
G1 Z11.9000 F8000.0
G1 X114.8093 Y-37.9632 F12000.0
G1 Z0.0000 F8000.0
G0 X114.8575 Y-39.2152 F15000.0
G1 Z11.9000 F8000.0
G1 X114.8575 Y-36.6150 F12000.0
G1 Z0.0000 F8000.0
G0 X116.0612 Y-38.0114 F15000.0
G1 Z11.9000 F8000.0
G1 X116.2026 Y-38.6182 F12000.0
G1 X116.5711 Y-39.0969
G1 X116.2568 Y-38.7538
G1 X116.7566 Y-39.1820
G1 X117.3713 Y-39.2863
G1 X117.6074 Y-39.2554
G1 X117.9312 Y-39.0835
G1 X118.1745 Y-38.8282
G1 X118.3343 Y-38.1350
G1 X118.2767 Y-38.0749
G1 X116.1079 Y-37.8944
G1 X116.3824 Y-36.8717
G1 X117.1476 Y-36.4916
G1 X117.7476 Y-36.6240
G1 X118.0684 Y-36.8142
G1 X118.3063 Y-37.0674
G1 X118.1153 Y-36.8122
G1 X118.2546 Y-36.8689
G1 X119.5419 Y-36.6749
G1 X119.5763 Y-39.1670
G1 Z0.0000 F8000.0
G0 X119.5763 Y-38.0114 F15000.0
G1 Z11.9000 F8000.0
G1 X121.5986 Y-37.9632 F12000.0
G1 Z0.0000 F8000.0
G0 X121.6468 Y-39.2152 F15000.0
G1 Z11.9000 F8000.0
G1 X121.6468 Y-36.6150 F12000.0
G1 Z0.0000 F8000.0
G0 X123.4284 Y-37.0484 F15000.0
G1 Z11.9000 F8000.0
G1 X123.5247 Y-37.1447 F12000.0
G1 Z0.0000 F8000.0
G0 X125.0174 Y-36.6150 F15000.0
G1 Z11.9000 F8000.0
G1 X124.7668 Y-38.7060 F12000.0
G1 X124.8883 Y-38.8290
G1 X124.6122 Y-38.6290
G1 X123.4588 Y-37.1494
G1 X123.0832 Y-36.9183
G1 X122.9469 Y-39.1670
G1 Z0.0000 F8000.0
G0 X126.3656 Y-38.6855 F15000.0
G1 Z11.9000 F8000.0
G1 X126.2464 Y-38.1156 F12000.0
G1 X126.4145 Y-38.7582
G1 X126.6139 Y-39.0069
G1 X126.9199 Y-39.1835
G1 X127.6556 Y-39.2870
G1 X128.0946 Y-39.0816
G1 X128.3366 Y-38.8250
G1 X128.4936 Y-38.1321
G1 X128.4339 Y-38.0737
G1 X126.4549 Y-37.9694
G1 X126.2657 Y-37.8920
G1 X126.4709 Y-36.9576
G1 X127.1920 Y-36.5136
G1 X127.9246 Y-36.5840
G1 X128.2367 Y-36.7764
G1 X128.4747 Y-37.0740
G1 X128.2328 Y-36.7892
G1 X127.8583 Y-36.5669
G1 Z0.0000 F8000.0
G0 X131.3959 Y-39.4714 F15000.0
G1 Z11.9000 F8000.0
G1 X145.9771 Y-39.4714 F12000.0
G1 X180.0000 Y-39.4714 F12000.0
G1 Z0.0000 F8000.0
G0 X177.0375 Y-41.3188 F15000.0
G1 Z11.9000 F8000.0
G1 X176.8915 Y-41.4648 F12000.0
G1 Z0.0000 F8000.0
G0 X176.7456 Y-42.5350 F15000.0
G1 Z11.9000 F8000.0
G1 X177.0472 Y-42.7394 F12000.0
G1 X176.7385 Y-42.4790
G1 X177.0255 Y-41.4061
G1 X177.2979 Y-41.2231
G1 X178.0186 Y-41.8705
G1 X178.0890 Y-42.0874
G1 X178.0533 Y-42.3333
G1 X177.7972 Y-42.7272
G1 X176.7453 Y-42.7015
G1 X176.7468 Y-43.0369
G1 X176.9660 Y-43.3569
G1 X178.0591 Y-43.6540
G1 Z0.0000 F8000.0
G0 X180.0000 Y-44.3318 F15000.0
G1 Z11.9000 F8000.0
G1 X63.2677 Y-44.3318 F12000.0
G1 X0.0000 Y-44.3318 F12000.0
G1 Z0.0000 F8000.0
G0 X0.0000 Y-49.1922 F15000.0
G1 Z11.9000 F8000.0
G1 X63.2677 Y-49.1922 F12000.0
G1 Z0.0000 F8000.0
G0 X63.2677 Y-54.0526 F15000.0
G1 Z11.9000 F8000.0
G1 X0.0000 Y-54.0526 F12000.0
G1 Z0.0000 F8000.0
G0 X0.0000 Y-58.9131 F15000.0
G1 Z11.9000 F8000.0
G1 X180.0000 Y-58.9131 F12000.0
G1 Z0.0000 F8000.0
G0 X174.9942 Y-42.8756 F15000.0
G1 Z11.9000 F8000.0
G1 X174.8989 Y-42.7882 F12000.0
G1 X175.1660 Y-42.8528
G1 X175.8661 Y-42.6926
G1 X175.9075 Y-42.3470
G1 X175.7846 Y-42.1613
G1 X174.7806 Y-41.4797
G1 X175.2391 Y-41.2061
G1 X175.8626 Y-41.3993
G1 X175.9507 Y-41.6158
G1 X175.9186 Y-42.2431
G1 Z0.0000 F8000.0
G0 X174.1672 Y-42.8756 F15000.0
G1 Z11.9000 F8000.0
G1 X172.9509 Y-42.8756 F12000.0
G1 Z0.0000 F8000.0
G0 X172.4158 Y-42.8269 F15000.0
G1 Z11.9000 F8000.0
G1 X171.3941 Y-41.2702 F12000.0
G1 Z0.0000 F8000.0
G0 X171.3455 Y-42.8269 F15000.0
G1 Z11.9000 F8000.0
G1 X171.3216 Y-41.3261 F12000.0
G1 X171.1500 Y-41.2399
G1 X170.5251 Y-41.3008
G1 X170.3494 Y-41.3948
G1 X170.3239 Y-42.8269
G1 Z0.0000 F8000.0
G0 X169.6428 Y-42.5837 F15000.0
G1 Z11.9000 F8000.0
G1 X169.4021 Y-42.8477 F12000.0
G1 X168.8039 Y-42.8248
G1 X168.5683 Y-42.5466
G1 X168.4480 Y-41.9367
G1 X168.6910 Y-41.3764
G1 X169.1316 Y-41.2105
G1 X169.4757 Y-41.3369
G1 X169.6481 Y-41.5336
G1 X169.5941 Y-41.4161
G1 Z0.0000 F8000.0
G0 X167.7454 Y-41.4648 F15000.0
G1 Z11.9000 F8000.0
G1 X167.7469 Y-42.1444 F12000.0
G1 X167.6793 Y-41.4022
G1 X167.0521 Y-41.2100
G1 X166.6130 Y-41.4878
G1 X167.6239 Y-42.1699
G1 X167.7380 Y-42.3604
G1 X167.6839 Y-42.7022
G1 X166.9777 Y-42.8541
G1 X166.7289 Y-42.7934
G1 X166.8211 Y-42.8756
G1 Z0.0000 F8000.0
G0 X165.6048 Y-43.2648 F15000.0
G1 Z11.9000 F8000.0
G1 X165.2099 Y-42.6209 F12000.0
G1 X165.5914 Y-43.1661
G1 X165.7021 Y-41.2702
G1 Z0.0000 F8000.0
G0 X164.7292 Y-41.4648 F15000.0
G1 Z11.9000 F8000.0
G1 X164.9769 Y-41.9654 F12000.0
G1 X164.8955 Y-41.6902
G1 X165.0802 Y-42.2557
G1 X164.6877 Y-41.5382
G1 X163.8576 Y-43.0211
G1 X163.6737 Y-43.2089
G1 X163.6952 Y-43.3222
G1 X163.6102 Y-41.3188
G1 Z0.0000 F8000.0
G0 X162.5355 Y-44.3318 F15000.0
G1 Z11.9000 F8000.0
G1 X162.5355 Y-24.8078 F12000.0
G1 Z0.0000 F8000.0
G0 X162.1612 Y-23.3961 F15000.0
G1 Z11.9000 F8000.0
G1 X162.6130 Y-23.4596 F12000.0
G1 X163.1348 Y-23.1495
G1 X163.2609 Y-22.5465
G1 X163.1758 Y-22.1841
G1 X163.0306 Y-22.0146
G1 X162.3170 Y-21.8256
G1 X162.2137 Y-21.8712
G1 X161.8674 Y-22.3804
G1 X161.9184 Y-22.9899
G1 X162.1011 Y-23.3270
G1 X161.9145 Y-23.1245
G1 X161.3014 Y-23.4338
G1 X160.1666 Y-23.4448
G1 Z0.0000 F8000.0
G0 X160.7017 Y-23.4448 F15000.0
G1 Z11.9000 F8000.0
G1 X160.7504 Y-21.8393 F12000.0
G1 Z0.0000 F8000.0
G0 X159.7287 Y-22.2285 F15000.0
G1 Z11.9000 F8000.0
G1 X159.5250 Y-21.9696 F12000.0
G1 X158.9307 Y-21.8221
G1 X158.6205 Y-21.9661
G1 X158.4495 Y-22.2893
G1 X158.4643 Y-22.9101
G1 X158.7160 Y-23.3256
G1 X159.0511 Y-23.4657
G1 X159.5341 Y-23.3475
G1 Z0.0000 F8000.0
G0 X157.6854 Y-21.8880 F15000.0
G1 Z11.9000 F8000.0
G1 X157.2445 Y-22.7821 F12000.0
G1 X157.2684 Y-22.8832
G1 X157.5614 Y-23.1045
G1 X157.3008 Y-22.9388
G1 X156.8882 Y-22.3498
G1 X156.5475 Y-22.2001
G1 X156.5131 Y-23.3329
G1 X157.1846 Y-22.9079
G1 X156.9194 Y-22.3998
G1 X156.5207 Y-22.0040
G1 X156.5179 Y-22.0826
G1 Z0.0000 F8000.0
G0 X155.5935 Y-21.8880 F15000.0
G1 Z11.9000 F8000.0
G1 X155.5264 Y-24.0945 F12000.0
G1 X154.1724 Y-21.8774
G1 X153.9881 Y-21.7907
G1 Z0.0000 F8000.0
G0 X151.4142 Y-19.9474 F15000.0
G1 Z11.9000 F8000.0
G1 X151.4142 Y-24.8078 F12000.0
G1 Z0.0000 F8000.0
G0 X145.9771 Y-24.8078 F15000.0
G1 Z11.9000 F8000.0
G1 X145.9771 Y-44.3318 F12000.0
G1 Z0.0000 F8000.0
G0 X149.1025 Y-41.7786 F15000.0
G1 Z11.9000 F8000.0
G1 X149.1742 Y-43.4638 F12000.0
G1 X149.2512 Y-43.5690
G1 X150.0412 Y-42.0722
G1 X150.2055 Y-42.0571
G1 X150.4701 Y-42.6235
G1 X150.1206 Y-41.9802
G1 X150.1728 Y-42.0219
G1 Z0.0000 F8000.0
G0 X151.0971 Y-41.8273 F15000.0
G1 Z11.9000 F8000.0
G1 X150.9527 Y-43.3613 F12000.0
G1 X151.0153 Y-43.6225
G1 X150.6757 Y-43.1700
G1 X150.5340 Y-42.7809
G1 X150.6106 Y-43.0435
G1 Z0.0000 F8000.0
G0 X151.9728 Y-43.1408 F15000.0
G1 Z11.9000 F8000.0
G1 X152.1740 Y-43.2342 F12000.0
G1 X152.8658 Y-42.6649
G1 X151.9688 Y-42.3744
G1 X151.8150 Y-42.0606
G1 X151.9854 Y-41.7654
G1 X152.2098 Y-41.7161
G1 X152.8986 Y-41.9163
G1 X152.9788 Y-41.8669
G1 X152.9261 Y-42.5191
G1 X153.6850 Y-42.8749
G1 X153.6515 Y-42.3019
G1 X153.8419 Y-41.8582
G1 X154.1513 Y-41.7113
G1 X154.6972 Y-41.8759
G1 Z0.0000 F8000.0
G0 X154.7458 Y-43.0435 F15000.0
G1 Z11.9000 F8000.0
G1 X154.5447 Y-43.2278 F12000.0
G1 X154.0692 Y-43.2581
G1 X153.8369 Y-43.0969
G1 X154.1929 Y-43.2495
G1 X155.3393 Y-42.8856
G1 X155.3093 Y-42.2860
G1 X155.5078 Y-41.8497
G1 X155.8210 Y-41.7102
G1 X156.2826 Y-41.8695
G1 X156.3913 Y-42.0616
G1 X156.3694 Y-43.0717
G1 X156.1100 Y-43.2650
G1 X155.6380 Y-43.2110
G1 X155.4269 Y-43.0435
G1 Z0.0000 F8000.0
G0 X157.1296 Y-43.1408 F15000.0
G1 Z11.9000 F8000.0
G1 X157.3309 Y-43.2342 F12000.0
G1 X158.0226 Y-42.6649
G1 X157.1257 Y-42.3744
G1 X156.9718 Y-42.0606
G1 X157.1423 Y-41.7654
G1 X157.3666 Y-41.7161
G1 X158.0554 Y-41.9163
G1 X158.1356 Y-41.8669
G1 X158.1026 Y-42.5570
G1 Z0.0000 F8000.0
G0 X169.7545 Y-33.5262 F15000.0
G1 Z11.9000 F8000.0
G1 X169.9314 Y-33.7031 F12000.0
G1 Z0.0000 F8000.0
G0 X170.6833 Y-34.1896 F15000.0
G1 Z11.9000 F8000.0
G1 X170.9929 Y-34.2780 F12000.0
G1 Z0.0000 F8000.0
G0 X171.3025 Y-34.5876 F15000.0
G1 Z11.9000 F8000.0
G1 X171.0371 Y-34.2338 F12000.0
G1 X169.5776 Y-30.1649
G1 Z0.0000 F8000.0
G0 X170.8160 Y-31.2264 F15000.0
G1 Z11.9000 F8000.0
G1 X170.9487 Y-31.3590 F12000.0
G1 Z0.0000 F8000.0
G0 X171.4352 Y-32.9954 F15000.0
G1 Z11.9000 F8000.0
G1 X171.6563 Y-33.1281 F12000.0
G1 Z0.0000 F8000.0
G0 X172.5863 Y-33.5262 F15000.0
G1 Z11.9000 F8000.0
G1 X172.7632 Y-33.7031 F12000.0
G1 Z0.0000 F8000.0
G0 X173.5151 Y-34.1896 F15000.0
G1 Z11.9000 F8000.0
G1 X173.8247 Y-34.2780 F12000.0
G1 Z0.0000 F8000.0
G0 X174.1343 Y-34.5876 F15000.0
G1 Z11.9000 F8000.0
G1 X173.8689 Y-34.2338 F12000.0
G1 X172.4094 Y-30.1649
G1 Z0.0000 F8000.0
G0 X174.8195 Y-23.7067 F15000.0
G1 Z11.9000 F8000.0
G1 X174.5984 Y-23.5740 F12000.0
G1 Z0.0000 F8000.0
G0 X175.2618 Y-23.7067 F15000.0
G1 Z11.9000 F8000.0
G1 X174.4215 Y-21.3627 F12000.0
G1 X174.2446 Y-21.0531
G1 Z0.0000 F8000.0
G0 X180.0000 Y-19.9474 F15000.0
G1 Z11.9000 F8000.0
G1 X131.3959 Y-19.9474 F12000.0
G1 X63.2677 Y-19.9474 F12000.0
G1 X0.0000 Y-19.9474 F12000.0
G1 Z0.0000 F8000.0
G0 X2.2817 Y-21.9552 F15000.0
G1 Z11.9000 F8000.0
G1 X2.2330 Y-23.9985 F12000.0
G1 Z0.0000 F8000.0
G0 X1.6006 Y-23.9985 F15000.0
G1 Z11.9000 F8000.0
G1 X3.0601 Y-23.9985 F12000.0
G1 Z0.0000 F8000.0
G0 X4.1304 Y-23.3174 F15000.0
G1 Z11.9000 F8000.0
G1 X4.1667 Y-22.7787 F12000.0
G1 X4.6840 Y-22.4753
G1 X4.6119 Y-22.7343
G1 X5.0061 Y-21.9552
G1 Z0.0000 F8000.0
G0 X4.1304 Y-21.9552 F15000.0
G1 Z11.9000 F8000.0
G1 X4.1548 Y-22.5719 F12000.0
G1 X4.6486 Y-22.8938
G1 X5.0449 Y-23.3079
G1 X5.5440 Y-23.0133
G1 X5.5606 Y-22.4285
G1 X5.7825 Y-22.0573
G1 X5.5872 Y-22.3193
G1 X5.9849 Y-21.9541
G1 X6.4567 Y-22.0470
G1 X6.7158 Y-22.2809
G1 X6.6419 Y-23.0175
G1 X6.5458 Y-23.2208
G1 X5.9608 Y-23.3354
G1 X5.6385 Y-23.1228
G1 Z0.0000 F8000.0
G0 X7.3899 Y-23.3174 F15000.0
G1 Z11.9000 F8000.0
G1 X7.3899 Y-22.0490 F12000.0
G1 X7.4113 Y-22.5944
G1 X7.5773 Y-22.6733
G1 X8.3897 Y-22.5631
G1 X8.4571 Y-22.0373
G1 X8.5193 Y-23.2897
G1 X10.0656 Y-23.3660
G1 Z0.0000 F8000.0
G0 X9.4818 Y-23.3660 F15000.0
G1 Z11.9000 F8000.0
G1 X9.5631 Y-22.0148 F12000.0
G1 X10.6378 Y-22.0839
G1 X11.3489 Y-21.9731
G1 X11.6449 Y-22.1948
G1 X11.7451 Y-22.4056
G1 X11.6510 Y-23.1439
G1 X11.3597 Y-23.2982
G1 X10.7605 Y-23.1978
G1 X10.6191 Y-22.3741
G1 X10.6763 Y-21.3992
G1 X11.6710 Y-22.1985
G1 Z0.0000 F8000.0
G0 X17.3970 Y-26.9645 F15000.0
G1 Z11.9000 F8000.0
G1 X18.8857 Y-28.9249 F12000.0
G1 X18.9538 Y-26.9645
G1 Z0.0000 F8000.0
G0 X19.6349 Y-28.3754 F15000.0
G1 Z11.9000 F8000.0
G1 X20.1814 Y-27.0162 F12000.0
G1 X19.9809 Y-26.2931
G1 X20.0096 Y-26.3666
G1 X19.8036 Y-26.2372
G1 X20.0864 Y-26.5031
G1 X20.1670 Y-26.9874
G1 X20.4154 Y-27.3538
G1 X20.8024 Y-28.4240
G1 Z0.0000 F8000.0
G0 X21.3862 Y-28.2781 F15000.0
G1 Z11.9000 F8000.0
G1 X21.7203 Y-28.3966 F12000.0
G1 X22.0475 Y-28.3139
G1 X22.0932 Y-27.8520
G1 X21.8248 Y-27.6535
G1 X22.0069 Y-27.6146
G1 X22.2191 Y-27.1991
G1 X22.1556 Y-26.9871
G1 X21.9602 Y-26.8619
G1 X21.5980 Y-26.8629
G1 X21.3512 Y-27.0417
G1 X21.5322 Y-26.8672
G1 Z0.0000 F8000.0
G0 X22.9917 Y-28.2781 F15000.0
G1 Z11.9000 F8000.0
G1 X23.1929 Y-28.3714 F12000.0
G1 X23.8847 Y-27.8021
G1 X23.0904 Y-27.5777
G1 X22.9064 Y-27.4226
G1 X22.8565 Y-27.0855
G1 X23.0043 Y-26.9025
G1 X23.2292 Y-26.8511
G1 X23.6900 Y-26.9929
G1 X23.9497 Y-27.6417
G1 X24.0482 Y-26.9654
G1 X24.5082 Y-26.9496
G1 X24.7078 Y-27.0159
G1 X24.7431 Y-28.2248
G1 X24.8177 Y-27.7179
G1 X25.5473 Y-27.6574
G1 X25.7393 Y-27.7138
G1 X25.8098 Y-28.2399
G1 X25.8329 Y-27.0129
G1 X25.9926 Y-26.9524
G1 X26.5387 Y-27.1070
G1 X26.4347 Y-27.6759
G1 X26.6445 Y-28.2356
G1 X27.0206 Y-28.4207
G1 X27.3753 Y-28.3598
G1 X27.5796 Y-28.1054
G1 X27.6511 Y-27.2529
G1 X27.4312 Y-26.9343
G1 X27.6143 Y-27.1357
G1 X27.1863 Y-26.8557
G1 X26.6890 Y-26.9645
G1 Z0.0000 F8000.0
G0 X28.3918 Y-27.5970 F15000.0
G1 Z11.9000 F8000.0
G1 X28.4556 Y-28.2813 F12000.0
G1 X28.5184 Y-28.3173
G1 X29.3609 Y-27.9093
G1 X29.3136 Y-27.6820
G1 X28.4752 Y-27.6121
G1 X29.0755 Y-26.9398
G1 X29.2854 Y-26.9441
G1 X29.4254 Y-27.1052
G1 X29.3524 Y-27.7608
G1 X29.4091 Y-27.5555
G1 X30.4271 Y-28.3719
G1 X31.1425 Y-27.8083
G1 X30.3556 Y-27.5852
G1 X30.1640 Y-27.4380
G1 X30.0998 Y-27.1017
G1 X30.2383 Y-26.9125
G1 X30.4598 Y-26.8521
G1 X31.1532 Y-27.0511
G1 X31.2462 Y-26.9949
G1 X31.2134 Y-27.6943
G1 Z0.0000 F8000.0
G0 X25.7447 Y-31.6079 F15000.0
G1 Z11.9000 F8000.0
G1 X25.8143 Y-31.7403 F12000.0
G1 X25.7064 Y-32.2287
G1 X25.8022 Y-32.1211
G1 X25.7529 Y-31.7159
G1 X25.6000 Y-31.5989
G1 X25.4008 Y-31.7009
G1 X24.8718 Y-32.2249
G1 X24.8614 Y-32.3227
G1 X25.6013 Y-32.9207
G1 X25.7918 Y-32.6700
G1 X25.6766 Y-32.3725
G1 X25.0639 Y-32.3379
G1 X24.7061 Y-32.4128
G1 X23.8379 Y-32.9159
G1 X23.3591 Y-32.9091
G1 X23.1722 Y-32.7543
G1 X23.0086 Y-32.1757
G1 X23.1292 Y-31.8232
G1 X23.2969 Y-31.6737
G1 X23.6589 Y-31.5886
G1 X23.8892 Y-31.6484
G1 X24.1526 Y-31.9067
G1 X24.2141 Y-32.1288
G1 X24.1625 Y-32.5025
G1 X23.9635 Y-32.8676
G1 X24.1371 Y-32.5772
G1 X24.1309 Y-31.9514
G1 X23.9933 Y-31.6566
G1 Z0.0000 F8000.0
G0 X22.3879 Y-31.6079 F15000.0
G1 Z11.9000 F8000.0
G1 X22.3243 Y-32.8764 F12000.0
G1 X21.3471 Y-31.7254
G1 X20.1347 Y-31.5938
G1 X19.7924 Y-31.6697
G1 X19.6493 Y-31.8355
G1 X19.6068 Y-32.2857
G1 X20.6380 Y-32.4244
G1 X20.5772 Y-32.7306
G1 X20.0072 Y-32.9304
G1 X19.7112 Y-32.7728
G1 X19.5109 Y-32.3550
G1 X18.9822 Y-32.2599
G1 X18.9338 Y-31.9903
G1 X18.9306 Y-32.1944
G1 X18.8544 Y-31.8462
G1 X17.6675 Y-31.5941
G1 X17.5806 Y-31.6440
G1 X17.5229 Y-33.5052
G1 Z0.0000 F8000.0
G0 X17.5716 Y-33.6025 F15000.0
G1 Z11.9000 F8000.0
G1 X18.7392 Y-33.6025 F12000.0
G1 Z0.0000 F8000.0
G0 X18.8851 Y-32.3863 F15000.0
G1 Z11.9000 F8000.0
G1 X17.5229 Y-32.6782 F12000.0
G1 Z0.0000 F8000.0
G0 X14.3694 Y-36.6465 F15000.0
G1 Z11.9000 F8000.0
G1 X14.3208 Y-38.0087 F12000.0
G1 Z0.0000 F8000.0
G0 X14.8559 Y-38.0087 F15000.0
G1 Z11.9000 F8000.0
G1 X13.0674 Y-37.9676 F12000.0
G1 X12.4959 Y-37.7420
G1 X12.3917 Y-37.2728
G1 X12.4578 Y-36.9181
G1 X12.9832 Y-36.6356
G1 X13.3836 Y-36.8067
G1 X13.3478 Y-36.7438
G1 Z0.0000 F8000.0
G0 X11.7424 Y-36.6465 F15000.0
G1 Z11.9000 F8000.0
G1 X11.5659 Y-37.6450 F12000.0
G1 X11.3268 Y-37.4670
G1 X10.9797 Y-36.9699
G1 X10.8329 Y-36.9072
G1 X10.9307 Y-36.9598
G1 X10.7395 Y-36.9805
G1 X10.6721 Y-37.9601
G1 Z0.0000 F8000.0
G0 X11.5478 Y-37.7168 F15000.0
G1 Z11.9000 F8000.0
G1 X11.6994 Y-37.8664 F12000.0
G1 X11.1046 Y-37.1532
G1 X10.5732 Y-36.8328
G1 X9.9979 Y-36.6965
G1 X9.8765 Y-38.4983
G1 X9.8166 Y-38.5666
G1 X8.8720 Y-38.5925
G1 Z0.0000 F8000.0
G0 X8.8234 Y-38.4952 F15000.0
G1 Z11.9000 F8000.0
G1 X8.7731 Y-36.8163 F12000.0
G1 X8.6933 Y-36.6236
G1 X8.5315 Y-36.5492
G1 Z0.0000 F8000.0
G0 X10.5836 Y-35.4529 F15000.0
G1 Z11.9000 F8000.0
G1 X9.6173 Y-35.2652 F12000.0
G1 X9.4924 Y-35.1243
G1 X9.3992 Y-34.7830
G1 X9.4899 Y-33.7416
G1 X9.6343 Y-33.5490
G1 X9.9705 Y-33.4487
G1 X10.3237 Y-33.5678
G1 X10.5022 Y-33.7230
G1 X10.5565 Y-33.9515
G1 X10.3751 Y-34.6679
G1 X10.1723 Y-34.7804
G1 X9.8054 Y-34.7813
G1 X9.5413 Y-34.6510
G1 X10.2082 Y-34.7420
G1 X10.4049 Y-34.6509
G1 X10.4834 Y-34.4523
G1 X10.4376 Y-33.6042
G1 Z0.0000 F8000.0
G0 X8.7349 Y-33.4583 F15000.0
G1 Z11.9000 F8000.0
G1 X8.6209 Y-33.6374 F12000.0
G1 X8.6682 Y-34.2465
G1 X8.5311 Y-34.7168
G1 X8.3403 Y-34.7779
G1 X7.7749 Y-34.5650
G1 X7.6683 Y-33.7260
G1 X7.7411 Y-33.5133
G1 X7.9521 Y-33.4335
G1 X8.7254 Y-33.4706
G1 X8.6082 Y-34.1329
G1 X7.9771 Y-34.0614
G1 X8.4327 Y-33.5595
G1 X8.5890 Y-33.5556
G1 Z0.0000 F8000.0
G0 X7.0322 Y-33.7502 F15000.0
G1 Z11.9000 F8000.0
G1 X6.9835 Y-33.6529 F12000.0
G1 Z0.0000 F8000.0
G0 X6.8375 Y-34.6110 F15000.0
G1 Z11.9000 F8000.0
G1 X6.8375 Y-58.9131 F12000.0
G1 Z0.0000 F8000.0
G0 X0.0000 Y-10.2266 F15000.0
G1 Z11.9000 F8000.0
G1 X63.2677 Y-10.2266 F12000.0
G1 Z0.0000 F8000.0
G0 X63.2677 Y-15.0870 F15000.0
G1 Z11.9000 F8000.0
G1 X0.0000 Y-15.0870 F12000.0
G1 Z0.0000 F8000.0
G0 X0.8804 Y-14.3679 F15000.0
G1 Z11.9000 F8000.0
G1 X0.8804 Y-12.5243 F12000.0
G1 X0.9349 Y-13.4553
G1 X2.2523 Y-13.4852
G1 X2.3362 Y-14.2690
G1 X2.3399 Y-12.3733
G1 Z0.0000 F8000.0
G0 X1.6976 Y-11.4880 F15000.0
G1 Z11.9000 F8000.0
G1 X2.3541 Y-10.4213 F12000.0
G1 X2.6934 Y-10.5047
G1 X2.5338 Y-10.3295
G1 X2.7057 Y-10.4926
G1 X2.6180 Y-10.3408
G1 Z0.0000 F8000.0
G0 X3.1495 Y-11.3740 F15000.0
G1 Z11.9000 F8000.0
G1 X2.2465 Y-9.6013 F12000.0
G1 X1.9708 Y-9.5506
G1 X2.7968 Y-10.5511
G1 X3.4736 Y-10.8761
G1 X4.5593 Y-10.9528
G1 X4.1650 Y-10.8924
G1 X4.2436 Y-9.6624
G1 X5.2698 Y-10.3024
G1 X5.8956 Y-10.2762
G1 X6.2002 Y-10.1321
G1 X6.1367 Y-10.7114
G1 X6.2159 Y-9.7106
G1 X5.8958 Y-9.6049
G1 X5.3379 Y-10.0975
G1 X5.2411 Y-10.2857
G1 X5.9788 Y-10.9528
G1 Z0.0000 F8000.0
G0 X3.9940 Y-12.3733 F15000.0
G1 Z11.9000 F8000.0
G1 X4.0185 Y-12.9900 F12000.0
G1 X4.5122 Y-13.3119
G1 X4.8697 Y-13.7841
G1 Z0.0000 F8000.0
G0 X3.9940 Y-13.7354 F15000.0
G1 Z11.9000 F8000.0
G1 X4.0688 Y-13.1678 F12000.0
G1 X4.5320 Y-12.8997
G1 X4.4475 Y-13.1377
G1 X4.4462 Y-13.0299
G1 X4.8419 Y-12.4534
G1 X5.3742 Y-12.8288
G1 X5.4642 Y-13.4328
G1 X5.7231 Y-13.7387
G1 X5.6613 Y-13.6899
G1 X6.0546 Y-13.7827
G1 X6.3885 Y-13.6701
G1 X6.4976 Y-13.4772
G1 X6.5914 Y-12.7367
G1 X6.4655 Y-12.5424
G1 X6.0061 Y-12.3628
G1 X5.7840 Y-12.4107
G1 X5.4501 Y-12.7109
G1 X5.6066 Y-12.4818
G1 X5.7943 Y-12.3878
G1 X7.1476 Y-12.4072
G1 X7.2049 Y-13.6519
G1 X7.2495 Y-13.1397
G1 X8.1852 Y-13.0175
G1 X8.2694 Y-12.4784
G1 X8.3082 Y-13.6788
G1 X8.7533 Y-13.7744
G1 X9.9293 Y-13.7841
G1 Z0.0000 F8000.0
G0 X9.3455 Y-13.7841 F15000.0
G1 Z11.9000 F8000.0
G1 X9.4267 Y-12.4328 F12000.0
G1 X10.5015 Y-12.5020
G1 X11.2125 Y-12.3912
G1 X11.5085 Y-12.6129
G1 X11.6087 Y-12.8236
G1 X11.5147 Y-13.5620
G1 X11.2233 Y-13.7162
G1 X10.6242 Y-13.6159
G1 X10.4828 Y-12.7922
G1 X10.5400 Y-11.8173
G1 X11.5347 Y-12.6165
G1 Z0.0000 F8000.0
G0 X16.5584 Y-5.3662 F15000.0
G1 Z11.9000 F8000.0
G1 X16.5584 Y-58.9131 F12000.0
G1 Z0.0000 F8000.0
G0 X21.0614 Y-38.3024 F15000.0
G1 Z11.9000 F8000.0
G1 X21.3204 Y-38.1217 F12000.0
G1 X21.7425 Y-37.5240
G1 Z0.0000 F8000.0
G0 X20.9641 Y-36.7456 F15000.0
G1 Z11.9000 F8000.0
G1 X20.9926 Y-38.2501 F12000.0
G1 X21.1507 Y-38.2375
G1 X21.7154 Y-37.6394
G1 X21.8119 Y-37.4009
G1 X21.7843 Y-37.4587
G1 X22.2913 Y-36.9970
G1 X22.0034 Y-37.1237
G1 X22.2419 Y-37.0675
G1 X22.3930 Y-37.1387
G1 X22.4236 Y-38.5943
G1 Z0.0000 F8000.0
G0 X23.1047 Y-38.1078 F15000.0
G1 Z11.9000 F8000.0
G1 X23.3340 Y-38.1746 F12000.0
G1 X23.5004 Y-38.0957
G1 X23.6029 Y-37.9243
G1 X23.6538 Y-37.5259
G1 X23.3721 Y-37.2615
G1 X22.9918 Y-37.3123
G1 X23.4150 Y-37.1794
G1 X23.6467 Y-36.9069
G1 X23.4609 Y-37.2375
G1 X23.5277 Y-37.4053
G1 X22.9717 Y-37.4495
G1 X22.9101 Y-37.9132
G1 Z0.0000 F8000.0
G0 X25.0719 Y-36.7456 F15000.0
G1 Z11.9000 F8000.0
G1 X26.0583 Y-36.7311 F12000.0
G1 X26.1179 Y-36.8065
G1 X26.0375 Y-38.0127
G1 X24.9182 Y-36.5766
G1 X24.9165 Y-36.3758
G1 X26.1656 Y-36.7118
G1 X26.2550 Y-36.6654
G1 X26.4184 Y-36.3105
G1 X27.5907 Y-36.7092
G1 X27.9343 Y-36.9032
G1 X28.5934 Y-36.8185
G1 X28.6804 Y-37.3782
G1 X29.0918 Y-37.6431
G1 X29.5219 Y-38.0777
G1 X29.7581 Y-38.1050
G1 X29.9503 Y-38.0182
G1 X30.3238 Y-37.1206
G1 X30.4063 Y-37.0942
G1 X30.7386 Y-37.2538
G1 X31.0278 Y-38.0310
G1 X31.0134 Y-37.9037
G1 X31.5361 Y-37.7402
G1 X31.5775 Y-36.8072
G1 X32.2345 Y-36.7848
G1 X32.7058 Y-37.6270
G1 X32.8599 Y-37.7467
G1 X33.0018 Y-36.7456
G1 Z0.0000 F8000.0
G0 X32.2721 Y-36.9402 F15000.0
G1 Z11.9000 F8000.0
G1 X31.6396 Y-37.8646 F12000.0
G1 Z0.0000 F8000.0
G0 X30.6666 Y-37.0375 F15000.0
G1 Z11.9000 F8000.0
G1 X30.4082 Y-37.0332 F12000.0
G1 X30.7383 Y-37.2607
G1 X30.8317 Y-37.4846
G1 X30.3555 Y-36.2606
G1 X30.0342 Y-36.0159
G1 Z0.0000 F8000.0
G0 X29.4018 Y-36.7456 F15000.0
G1 Z11.9000 F8000.0
G1 X29.1307 Y-37.2690 F12000.0
G1 X29.1044 Y-37.4721
G1 X29.0959 Y-37.3276
G1 X28.6633 Y-37.5104
G1 X28.6234 Y-38.0592
G1 Z0.0000 F8000.0
G0 X27.8936 Y-37.9132 F15000.0
G1 Z11.9000 F8000.0
G1 X27.6699 Y-38.0629 F12000.0
G1 X27.8765 Y-37.7250
G1 X27.9621 Y-37.2288
G1 X27.9049 Y-37.0116
G1 X27.5021 Y-36.7473
G1 X27.2603 Y-36.7313
G1 X27.0439 Y-36.8319
G1 X26.9032 Y-37.0144
G1 X26.8036 Y-37.3670
G1 X26.9348 Y-37.8437
G1 X27.1103 Y-38.0007
G1 X27.6017 Y-38.1078
G1 Z0.0000 F8000.0
G0 X27.0179 Y-38.0105 F15000.0
G1 Z11.9000 F8000.0
G1 X26.9693 Y-37.9132 F12000.0
G1 Z0.0000 F8000.0
G0 X42.5729 Y-36.9059 F15000.0
G1 Z11.9000 F8000.0
G1 X43.9278 Y-38.7553 F12000.0
G1 X44.0324 Y-36.9059
G1 Z0.0000 F8000.0
G0 X45.4919 Y-38.2681 F15000.0
G1 Z11.9000 F8000.0
G1 X44.9079 Y-38.1210 F12000.0
G1 X44.6905 Y-37.4913
G1 X44.8081 Y-37.1402
G1 X44.9611 Y-36.9683
G1 X45.3069 Y-36.8894
G1 X45.7160 Y-37.0382
G1 X45.6728 Y-36.9653
G1 X45.8491 Y-37.2402
G1 X45.7428 Y-37.9761
G1 X45.5674 Y-38.2162
G1 X45.7838 Y-38.0735
G1 Z0.0000 F8000.0
G0 X46.2703 Y-36.8573 F15000.0
G1 Z11.9000 F8000.0
G1 X46.2428 Y-36.5511 F12000.0
G1 X46.5014 Y-37.0179
G1 X47.3954 Y-38.1822
G1 X47.4543 Y-36.9451
G1 X47.3807 Y-36.8838
G1 X46.5107 Y-36.9044
G1 X47.5586 Y-36.8536
G1 X47.7139 Y-36.4875
G1 X48.2633 Y-36.9202
G1 X49.2072 Y-38.1886
G1 X49.2865 Y-36.9059
G1 Z0.0000 F8000.0
G0 X54.7890 Y-38.6249 F15000.0
G1 Z11.9000 F8000.0
G1 X54.6894 Y-37.1289 F12000.0
G1 X54.5878 Y-36.7676
G1 X54.3171 Y-36.4051
G1 X54.3136 Y-36.0918
G1 X54.6102 Y-36.6021
G1 X55.8424 Y-36.5610
G1 X56.1820 Y-36.1001
G1 X56.1225 Y-36.5235
G1 X55.9716 Y-36.6112
G1 X55.8761 Y-38.6630
G1 X54.8377 Y-38.7222
G1 Z0.0000 F8000.0
G0 X56.9782 Y-37.9925 F15000.0
G1 Z11.9000 F8000.0
G1 X56.9361 Y-37.9322 F12000.0
G1 X57.1085 Y-38.0331
G1 X57.5985 Y-38.0645
G1 X57.8111 Y-37.9485
G1 X57.9366 Y-37.7529
G1 X57.8557 Y-37.4554
G1 X57.1354 Y-37.2779
G1 X56.7759 Y-36.8226
G1 X56.9629 Y-36.5449
G1 X57.1985 Y-36.5121
G1 X57.9578 Y-36.6697
G1 X57.9675 Y-37.3926
G1 X58.4294 Y-37.9628
G1 X58.6492 Y-38.0384
G1 X59.6540 Y-38.0411
G1 Z0.0000 F8000.0
G0 X59.0215 Y-38.0411 F15000.0
G1 Z11.9000 F8000.0
G1 X59.0702 Y-36.5816 F12000.0
G1 Z0.0000 F8000.0
G0 X60.3350 Y-37.9925 F15000.0
G1 Z11.9000 F8000.0
G1 X60.2930 Y-37.9322 F12000.0
G1 X60.4653 Y-38.0331
G1 X60.9553 Y-38.0645
G1 X61.2491 Y-37.8615
G1 X61.2813 Y-37.5261
G1 X60.3872 Y-37.2241
G1 X60.1327 Y-36.8226
G1 X60.3198 Y-36.5448
G1 X61.3474 Y-36.5855
G1 X61.2816 Y-37.3310
G1 Z0.0000 F8000.0
G0 X61.3329 Y-36.6785 F15000.0
G1 Z11.9000 F8000.0
G1 X61.2824 Y-36.6013 F12000.0
G1 X60.9984 Y-36.5573
G1 X61.0648 Y-36.6303
G1 Z0.0000 F8000.0
G0 X63.2677 Y-34.6110 F15000.0
G1 Z11.9000 F8000.0
G1 X0.0000 Y-34.6110 F12000.0
G1 Z0.0000 F8000.0
G0 X2.2645 Y-34.6259 F15000.0
G1 Z11.9000 F8000.0
G1 X1.0077 Y-34.3142 F12000.0
G1 X0.9053 Y-33.5474
G1 X0.9447 Y-35.2067
G1 X1.0302 Y-35.3622
G1 X2.2216 Y-35.0937
G1 X2.3132 Y-34.7232
G1 Z0.0000 F8000.0
G0 X3.6267 Y-34.8205 F15000.0
G1 Z11.9000 F8000.0
G1 X2.9294 Y-34.5417 F12000.0
G1 X2.8451 Y-33.6356
G1 X3.0307 Y-34.0309
G1 X2.9063 Y-33.9466
G1 X3.0396 Y-33.4543
G1 X3.9082 Y-33.4769
G1 X3.7874 Y-34.1410
G1 X3.1633 Y-34.0547
G1 X3.5339 Y-33.6143
G1 X3.8469 Y-33.5166
G1 X3.8463 Y-34.2830
G1 X3.7240 Y-34.7718
G1 Z0.0000 F8000.0
G0 X4.5024 Y-34.5772 F15000.0
G1 Z11.9000 F8000.0
G1 X4.6829 Y-34.7632 F12000.0
G1 X4.9093 Y-34.7952
G1 X5.2064 Y-34.6629
G1 X5.1659 Y-34.2107
G1 X4.9895 Y-34.1375
G1 X5.1374 Y-34.0676
G1 X5.2593 Y-33.6552
G1 X4.9537 Y-33.4846
G1 X4.5997 Y-33.4583
G1 Z0.0000 F8000.0
G0 X6.0105 Y-33.6042 F15000.0
G1 Z11.9000 F8000.0
G1 X6.6090 Y-33.4417 F12000.0
G1 X6.9537 Y-33.6499
G1 X7.0534 Y-33.8596
G1 X6.9541 Y-34.5945
G1 X6.7913 Y-34.7626
G1 X6.3112 Y-34.7592
G1 X6.0347 Y-34.5627
G1 X5.9619 Y-32.8258
G1 Z0.0000 F8000.0
G0 X5.5252 Y-30.2874 F15000.0
G1 Z11.9000 F8000.0
G1 X4.9412 Y-30.1402 F12000.0
G1 X4.7238 Y-29.5105
G1 X4.8414 Y-29.1594
G1 X4.9944 Y-28.9875
G1 X5.3401 Y-28.9086
G1 X5.7517 Y-29.0562
G1 X5.7075 Y-28.9844
G1 X5.8883 Y-29.3784
G1 X5.7242 Y-30.1016
G1 X5.6009 Y-30.2352
G1 X6.4325 Y-29.7065
G1 X7.3906 Y-29.5036
G1 X7.4835 Y-29.4063
G1 X7.5169 Y-29.1781
G1 X7.5125 Y-29.2714
G1 X7.4823 Y-29.0331
G1 X7.1970 Y-28.9376
G1 X6.6388 Y-29.4289
G1 X6.5388 Y-29.6166
G1 X7.2588 Y-30.2333
G1 X7.3492 Y-30.2111
G1 X7.4412 Y-30.0063
G1 X7.4225 Y-28.9252
G1 Z0.0000 F8000.0
G0 X3.0927 Y-29.0711 F15000.0
G1 Z11.9000 F8000.0
G1 X3.6911 Y-28.9086 F12000.0
G1 X4.0455 Y-29.1082
G1 X4.1392 Y-29.3202
G1 X4.0382 Y-30.0577
G1 X3.8772 Y-30.2277
G1 X3.3975 Y-30.2270
G1 X3.1179 Y-30.0333
G1 X3.0440 Y-28.2927
G1 Z0.0000 F8000.0
G0 X2.3143 Y-28.9252 F15000.0
G1 Z11.9000 F8000.0
G1 X2.2097 Y-30.7745 F12000.0
G1 X0.8548 Y-28.9252
G1 Z0.0000 F8000.0
G0 X0.0000 Y-29.7506 F15000.0
G1 Z11.9000 F8000.0
G1 X63.2677 Y-29.7506 F12000.0
G1 Z0.0000 F8000.0
G0 X63.2677 Y-24.8078 F15000.0
G1 Z11.9000 F8000.0
G1 X0.0000 Y-24.8078 F12000.0
G1 Z0.0000 F8000.0
G0 X6.2009 Y-36.6465 F15000.0
G1 Z11.9000 F8000.0
G1 X6.0898 Y-37.6239 F12000.0
G1 X5.8790 Y-37.4894
G1 X5.5110 Y-36.7424
G1 X4.8497 Y-37.7035
G1 X4.7488 Y-36.7281
G1 X4.7498 Y-37.6241
G1 X3.4042 Y-37.8214
G1 X3.6421 Y-37.9886
G1 X3.9859 Y-37.9138
G1 X4.0303 Y-37.4712
G1 X3.8251 Y-37.3284
G1 X3.9809 Y-37.2372
G1 X4.1049 Y-36.9133
G1 X4.0720 Y-36.8279
G1 X3.6407 Y-36.6337
G1 X2.6675 Y-36.6756
G1 X2.5824 Y-36.8600
G1 X2.4756 Y-38.1133
G1 X2.5614 Y-38.3761
G1 X2.0595 Y-37.8396
G1 X2.2524 Y-38.0924
G1 X1.5503 Y-37.1194
G1 X1.2391 Y-36.8138
G1 X1.1413 Y-38.5439
G1 Z0.0000 F8000.0
G0 X0.0000 Y-39.4714 F15000.0
G1 Z11.9000 F8000.0
G1 X63.2677 Y-39.4714 F12000.0
G1 Z0.0000 F8000.0
G0 X64.7756 Y-38.3484 F15000.0
G1 Z11.9000 F8000.0
G1 X66.6171 Y-38.4027 F12000.0
G1 X67.2795 Y-38.7337
G1 Z0.0000 F8000.0
G0 X67.3276 Y-38.8300 F15000.0
G1 Z11.9000 F8000.0
G1 X67.4451 Y-39.1850 F12000.0
G1 X67.3489 Y-39.9167
G1 X67.1979 Y-40.0761
G1 X64.9774 Y-40.3898
G1 X64.8001 Y-40.3403
G1 X64.7274 Y-36.6150
G1 Z0.0000 F8000.0
G0 X68.2906 Y-38.0114 F15000.0
G1 Z11.9000 F8000.0
G1 X68.4490 Y-38.6760 F12000.0
G1 X68.8449 Y-39.1221
G1 X69.6872 Y-39.2873
G1 X70.2219 Y-39.0296
G1 X70.4933 Y-38.6360
G1 X70.5299 Y-38.0858
G1 X68.3561 Y-37.9155
G1 X68.5881 Y-36.8929
G1 X69.2249 Y-36.5270
G1 X69.4662 Y-36.4880
G1 X69.9742 Y-36.5763
G1 X70.2757 Y-36.7531
G1 X70.5484 Y-37.0772
G1 X70.3299 Y-36.8101
G1 X69.9278 Y-36.5669
G1 Z0.0000 F8000.0
G0 X72.1427 Y-36.5187 F15000.0
G1 Z11.9000 F8000.0
G1 X71.6466 Y-36.8572 F12000.0
G1 X71.5713 Y-37.0345
G1 X71.7317 Y-36.7843
G1 X72.2755 Y-36.4986
G1 X72.5153 Y-36.5195
G1 X73.1957 Y-36.7989
G1 X73.3121 Y-37.1223
G1 X73.1863 Y-37.6016
G1 X72.9132 Y-38.0114
G1 Z0.0000 F8000.0
G0 X72.3835 Y-37.9632 F15000.0
G1 Z11.9000 F8000.0
G1 X72.8739 Y-38.0187 F12000.0
G1 X73.0468 Y-38.1613
G1 X73.2213 Y-38.6143
G1 X73.0554 Y-39.0647
G1 X72.7695 Y-39.2663
G1 X71.9279 Y-39.1487
G1 X71.6251 Y-38.8505
G1 X71.8392 Y-39.0941
G1 X71.6612 Y-38.8781
G1 Z0.0000 F8000.0
G0 X74.5021 Y-39.2152 F15000.0
G1 Z11.9000 F8000.0
G1 X74.5057 Y-36.7424 F12000.0
G1 X74.6044 Y-36.5579
G1 X76.1547 Y-36.6563
G1 X76.3265 Y-36.7522
G1 X76.5300 Y-37.1758
G1 X76.4895 Y-37.4027
G1 X76.2362 Y-37.8163
G1 X75.8839 Y-37.9787
G1 X76.2837 Y-37.8188
G1 Z0.0000 F8000.0
G0 X75.8022 Y-38.0114 F15000.0
G1 Z11.9000 F8000.0
G1 X74.5021 Y-38.0595 F12000.0
G1 Z0.0000 F8000.0
G0 X77.6801 Y-38.7337 F15000.0
G1 Z11.9000 F8000.0
G1 X78.2911 Y-39.0955 F12000.0
G1 X79.1371 Y-39.2192
G1 Z0.0000 F8000.0
G0 X79.0765 Y-39.2633 F15000.0
G1 Z11.9000 F8000.0
G1 X79.6152 Y-38.9552 F12000.0
G1 X79.9466 Y-38.4602
G1 X81.1134 Y-38.7468
G1 X81.4657 Y-39.0445
G1 X81.2349 Y-38.6786
G1 X81.0729 Y-37.5666
G1 X81.1221 Y-37.3386
G1 X81.5506 Y-36.7292
G1 X81.7554 Y-36.6065
G1 X82.2315 Y-36.4994
G1 X82.9432 Y-36.7003
G1 X83.2146 Y-37.0159
G1 X83.3517 Y-37.3522
G1 X83.3153 Y-38.5921
G1 X82.9622 Y-39.0642
G1 X82.5190 Y-39.2778
G1 X81.5322 Y-39.1189
G1 Z0.0000 F8000.0
G0 X79.5634 Y-38.9826 F15000.0
G1 Z11.9000 F8000.0
G1 X79.9340 Y-38.3445 F12000.0
G1 X79.9330 Y-37.4846
G1 X79.5378 Y-36.7189
G1 X79.0890 Y-36.5249
G1 X78.8504 Y-36.5043
G1 X78.0393 Y-36.7765
G1 X77.6574 Y-37.5412
G1 X77.5855 Y-38.8707
G1 X78.3205 Y-40.2850
G1 X78.7758 Y-40.4168
G1 X79.8951 Y-40.5153
G1 Z0.0000 F8000.0
G0 X79.7025 Y-36.9039 F15000.0
G1 Z11.9000 F8000.0
G1 X79.5580 Y-36.7595 F12000.0
G1 Z0.0000 F8000.0
G0 X81.2433 Y-37.0002 F15000.0
G1 Z11.9000 F8000.0
G1 X81.5804 Y-36.6632 F12000.0
G1 Z0.0000 F8000.0
G0 X84.6139 Y-37.8669 F15000.0
G1 Z11.9000 F8000.0
G1 X85.9285 Y-36.5603 F12000.0
G1 X86.4584 Y-36.7245
G1 X86.6471 Y-37.1250
G1 X86.6048 Y-37.4827
G1 X86.2927 Y-37.9616
G1 X86.5021 Y-38.5257
G1 X86.3807 Y-38.9728
G1 X84.9331 Y-39.2304
G1 X84.7383 Y-39.1999
G1 X84.6511 Y-38.0204
G1 X85.8395 Y-37.9219
G1 X86.2029 Y-37.9632
G1 Z0.0000 F8000.0
G0 X87.8401 Y-38.7818 F15000.0
G1 Z11.9000 F8000.0
G1 X88.0603 Y-39.0418 F12000.0
G1 X87.8294 Y-38.6713
G1 X87.6758 Y-37.4407
G1 X88.1526 Y-36.7238
G1 X88.4774 Y-36.5631
G1 X88.8358 Y-36.5001
G1 X89.4385 Y-36.6500
G1 X89.6380 Y-36.7802
G1 X89.9265 Y-37.2407
G1 X89.9984 Y-37.6044
G1 X89.9471 Y-38.4763
G1 X89.8057 Y-38.8118
G1 X89.5567 Y-39.0655
G1 X89.1133 Y-39.2785
G1 X88.1290 Y-39.1189
G1 Z0.0000 F8000.0
G0 X87.8401 Y-37.0002 F15000.0
G1 Z11.9000 F8000.0
G1 X88.1771 Y-36.6632 F12000.0
G1 Z0.0000 F8000.0
G0 X91.0180 Y-37.9151 F15000.0
G1 Z11.9000 F8000.0
G1 X91.2016 Y-38.7226 F12000.0
G1 X91.5977 Y-39.1386
G1 X92.4452 Y-39.2871
G1 X92.8849 Y-39.0852
G1 X93.1294 Y-38.8310
G1 X93.2917 Y-38.1375
G1 X93.2359 Y-38.0760
G1 X91.2592 Y-37.9699
G1 X91.0666 Y-37.8965
G1 X91.2638 Y-36.9627
G1 X91.9825 Y-36.5185
G1 X92.7175 Y-36.5823
G1 X93.0285 Y-36.7714
G1 X93.2737 Y-37.0763
G1 X93.0356 Y-36.7932
G1 X92.6552 Y-36.5669
G1 Z0.0000 F8000.0
G0 X92.6379 Y-29.1801 F15000.0
G1 Z11.9000 F8000.0
G1 X92.6379 Y-26.3585 F12000.0
G1 Z0.0000 F8000.0
G0 X92.5893 Y-27.8179 F15000.0
G1 Z11.9000 F8000.0
G1 X90.4487 Y-27.8666 F12000.0
G1 Z0.0000 F8000.0
G0 X88.9892 Y-27.7206 F15000.0
G1 Z11.9000 F8000.0
G1 X88.9916 Y-28.9832 F12000.0
G1 X89.0717 Y-29.1560
G1 X90.4012 Y-29.1424
G1 X90.4487 Y-26.3585
G1 Z0.0000 F8000.0
G0 X88.9892 Y-26.3585 F15000.0
G1 Z11.9000 F8000.0
G1 X88.9210 Y-27.6824 F12000.0
G1 X87.5722 Y-27.5471
G1 X87.2331 Y-27.6734
G1 X86.9241 Y-28.0554
G1 X86.8000 Y-29.1801
G1 Z0.0000 F8000.0
G0 X85.4378 Y-26.6017 F15000.0
G1 Z11.9000 F8000.0
G1 X85.3405 Y-26.4557 F12000.0
G1 Z0.0000 F8000.0
G0 X83.3945 Y-28.5477 F15000.0
G1 Z11.9000 F8000.0
G1 X83.2682 Y-27.6723 F12000.0
G1 X83.4472 Y-26.9557
G1 X83.9389 Y-26.4066
G1 X83.4877 Y-26.8173
G1 X84.0379 Y-26.3667
G1 X84.3927 Y-26.2776
G1 X85.1392 Y-26.3778
G1 X85.4279 Y-26.5743
G1 X85.6914 Y-26.9271
G1 X85.8146 Y-27.4000
G1 X85.7122 Y-28.5278
G1 X85.4533 Y-28.9394
G1 X85.0725 Y-29.2081
G1 X84.4586 Y-29.2992
G1 X83.8857 Y-29.1296
G1 X83.4918 Y-28.7423
G1 Z0.0000 F8000.0
G0 X80.4756 Y-29.1801 F15000.0
G1 Z11.9000 F8000.0
G1 X79.9885 Y-28.9770 F12000.0
G1 X79.8354 Y-29.1436
G1 X79.8431 Y-28.8882
G1 Z0.0000 F8000.0
G0 X79.8431 Y-26.6503 F15000.0
G1 Z11.9000 F8000.0
G1 X81.3005 Y-26.3039 F12000.0
G1 X81.7224 Y-26.5625
G1 X82.0266 Y-26.9625
G1 X81.7192 Y-26.5149
G1 X81.4908 Y-26.3674
G1 X81.8081 Y-26.6151
G1 X82.0593 Y-27.0195
G1 X82.1654 Y-27.5068
G1 X82.0727 Y-28.5113
G1 X81.7594 Y-29.0386
G1 X81.3199 Y-29.2763
G1 X80.4690 Y-29.1459
G1 X80.0167 Y-28.9239
G1 X79.8639 Y-28.7653
G1 X79.7945 Y-25.0449
G1 Z0.0000 F8000.0
G0 X78.1404 Y-26.6503 F15000.0
G1 Z11.9000 F8000.0
G1 X77.8956 Y-26.5279 F12000.0
G1 X76.6491 Y-26.3883
G1 X76.4486 Y-26.4854
G1 X76.1395 Y-26.8224
G1 X76.6814 Y-26.3730
G1 X77.0346 Y-26.2779
G1 X77.8935 Y-26.4199
G1 X78.3595 Y-26.9473
G1 X78.4680 Y-27.4247
G1 X78.3580 Y-28.5504
G1 X77.9200 Y-29.1054
G1 X77.3365 Y-29.3025
G1 X76.6110 Y-29.1691
G1 X76.1315 Y-28.7092
G1 X75.9195 Y-27.6056
G1 X76.0485 Y-26.9909
G1 Z0.0000 F8000.0
G0 X72.9835 Y-26.3585 F15000.0
G1 Z11.9000 F8000.0
G1 X72.4970 Y-26.7476 F12000.0
G1 Z0.0000 F8000.0
G0 X70.8916 Y-27.2828 F15000.0
G1 Z11.9000 F8000.0
G1 X70.1329 Y-26.4615 F12000.0
G1 X70.5260 Y-26.6943
G1 X70.8504 Y-27.2054
G1 X70.3577 Y-26.5654
G1 X69.9982 Y-26.3827
G1 X69.5077 Y-26.2781
G1 X68.6352 Y-26.4004
G1 X68.3057 Y-26.5681
G1 X67.8726 Y-27.0037
G1 X67.5031 Y-28.0618
G1 X67.7043 Y-29.5524
G1 X68.2330 Y-30.2440
G1 X68.9230 Y-30.5300
G1 X70.0467 Y-30.4553
G1 X70.6415 Y-30.0210
G1 X70.7943 Y-29.5693
G1 Z0.0000 F8000.0
G0 X72.9835 Y-29.1315 F15000.0
G1 Z11.9000 F8000.0
G1 X72.2418 Y-28.6076 F12000.0
G1 X72.3701 Y-27.2431
G1 X72.5029 Y-26.7972
G1 X72.8856 Y-26.4497
G1 X73.2143 Y-26.2843
G1 X74.1916 Y-26.4017
G1 X74.5765 Y-26.8492
G1 X74.7612 Y-27.3146
G1 X74.7185 Y-28.3171
G1 X74.5216 Y-28.7619
G1 X74.1717 Y-29.0946
G1 X73.7005 Y-29.2557
G1 X72.9764 Y-29.0780
G1 X72.3366 Y-28.6523
G1 X72.1984 Y-28.6864
G1 X72.1335 Y-28.8809
G1 X72.3264 Y-29.8618
G1 X72.6593 Y-30.2255
G1 X74.7349 Y-30.7369
G1 Z0.0000 F8000.0
G0 X94.0974 Y-29.1801 F15000.0
G1 Z11.9000 F8000.0
G1 X94.1086 Y-27.9596 F12000.0
G1 X94.2163 Y-27.7512
G1 X95.6495 Y-26.3656
G1 X96.2407 Y-26.7505
G1 X96.3013 Y-27.2276
G1 X96.0600 Y-27.6520
G1 X96.2307 Y-27.4610
G1 X95.8524 Y-27.7359
G1 X94.0974 Y-27.9639
G1 Z0.0000 F8000.0
G0 X96.2867 Y-26.7963 F15000.0
G1 Z11.9000 F8000.0
G1 X96.3821 Y-26.6596 F12000.0
G1 X97.3089 Y-26.4098
G1 X97.3570 Y-29.1801
G1 Z0.0000 F8000.0
G0 X98.8651 Y-29.1801 F15000.0
G1 Z11.9000 F8000.0
G1 X98.9427 Y-26.4830 F12000.0
G1 X99.1195 Y-26.7213
G1 X99.5134 Y-26.9745
G1 X100.5593 Y-28.6169
G1 X100.4824 Y-28.5484
G1 X100.9860 Y-28.7980
G1 X101.1030 Y-26.3585
G1 Z0.0000 F8000.0
G0 X100.6165 Y-30.2504 F15000.0
G1 Z11.9000 F8000.0
G1 X100.6792 Y-30.4871 F12000.0
G1 X99.7961 Y-30.1462
G1 X99.4274 Y-30.3768
G1 X99.6435 Y-30.2018
G1 Z0.0000 F8000.0
G0 X104.1892 Y-29.1801 F15000.0
G1 Z11.9000 F8000.0
G1 X104.3177 Y-28.0466 F12000.0
G1 X104.6302 Y-27.6675
G1 X104.9711 Y-27.5466
G1 X106.3174 Y-27.6805
G1 X106.3772 Y-27.4955
G1 X106.3784 Y-26.3585
G1 Z0.0000 F8000.0
G0 X106.3784 Y-27.7206 F15000.0
G1 Z11.9000 F8000.0
G1 X106.3784 Y-29.1801 F12000.0
G1 Z0.0000 F8000.0
G0 X108.5676 Y-29.2774 F15000.0
G1 Z11.9000 F8000.0
G1 X108.1083 Y-28.9738 F12000.0
G1 X107.9075 Y-28.7337
G1 X107.7287 Y-28.0026
G1 X108.2986 Y-29.0592
G1 X108.4815 Y-29.2171
G1 X109.3426 Y-29.2544
G1 X109.8693 Y-28.9270
G1 X110.1055 Y-28.5152
G1 X110.1110 Y-27.9483
G1 X107.7646 Y-27.8898
G1 X107.6745 Y-27.5959
G1 X107.9469 Y-26.7609
G1 X108.2838 Y-26.4305
G1 X108.7397 Y-26.2881
G1 X109.7198 Y-26.5055
G1 X110.0758 Y-26.8449
G1 Z0.0000 F8000.0
G0 X111.5839 Y-26.6503 F15000.0
G1 Z11.9000 F8000.0
G1 X112.9228 Y-26.2918 F12000.0
G1 X113.3956 Y-26.4930
G1 X113.6816 Y-26.7954
G1 X113.9053 Y-27.5067
G1 X113.8389 Y-28.3866
G1 X113.9072 Y-28.5997
G1 X114.6931 Y-29.2188
G1 X115.7716 Y-29.1920
G1 X115.8164 Y-26.3585
G1 Z0.0000 F8000.0
G0 X113.5299 Y-26.6017 F15000.0
G1 Z11.9000 F8000.0
G1 X113.1893 Y-26.3585 F12000.0
G1 Z0.0000 F8000.0
G0 X111.5353 Y-25.0449 F15000.0
G1 Z11.9000 F8000.0
G1 X111.6513 Y-28.8470 F12000.0
G1 X112.3133 Y-29.1825
G1 X112.9288 Y-29.2983
G1 X113.4873 Y-29.0472
G1 X113.7731 Y-28.6450
G1 Z0.0000 F8000.0
G0 X115.8651 Y-29.2288 F15000.0
G1 Z11.9000 F8000.0
G1 X116.9840 Y-29.2774 F12000.0
G1 Z0.0000 F8000.0
G0 X118.5894 Y-29.1801 F15000.0
G1 Z11.9000 F8000.0
G1 X118.7354 Y-29.2774 F12000.0
G1 Z0.0000 F8000.0
G0 X117.8597 Y-27.9152 F15000.0
G1 Z11.9000 F8000.0
G1 X118.1057 Y-28.7604 F12000.0
G1 X118.5096 Y-29.1703
G1 X118.2640 Y-28.9862
G1 X118.8603 Y-29.2743
G1 X119.6003 Y-29.2153
G1 X120.1655 Y-28.7606
G1 X120.2933 Y-28.4172
G1 X120.2964 Y-27.9553
G1 X117.9584 Y-27.8965
G1 X117.8893 Y-27.7381
G1 X118.0539 Y-26.8791
G1 X118.2613 Y-26.5735
G1 X118.7795 Y-26.2951
G1 X119.8812 Y-26.5029
G1 X120.2442 Y-26.7867
G1 X121.1389 Y-26.2161
G1 X121.4481 Y-26.4702
G1 X121.3773 Y-26.3423
G1 X121.0899 Y-26.1604
G1 X121.4896 Y-26.5505
G1 X122.1473 Y-27.5021
G1 X123.0442 Y-27.8724
G1 X123.1121 Y-28.0756
G1 X123.1138 Y-29.1801
G1 Z0.0000 F8000.0
G0 X123.8436 Y-27.8179 F15000.0
G1 Z11.9000 F8000.0
G1 X124.5323 Y-29.0123 F12000.0
G1 X124.9625 Y-29.2288
G1 Z0.0000 F8000.0
G0 X124.0382 Y-27.5747 F15000.0
G1 Z11.9000 F8000.0
G1 X124.8361 Y-26.3627 F12000.0
G1 X125.2544 Y-26.0666
G1 Z0.0000 F8000.0
G0 X123.1138 Y-26.4071 F15000.0
G1 Z11.9000 F8000.0
G1 X123.7797 Y-27.7700 F12000.0
G1 X124.0718 Y-28.1241
G1 X124.0205 Y-27.6061
G1 X123.7046 Y-27.8043
G1 X122.8750 Y-27.7559
G1 X122.2187 Y-27.5598
G1 X122.3514 Y-27.7886
G1 X121.6774 Y-29.0529
G1 X121.2652 Y-29.2288
G1 Z0.0000 F8000.0
G0 X111.5839 Y-28.8882 F15000.0
G1 Z11.9000 F8000.0
G1 X111.5353 Y-29.2288 F12000.0
G1 Z0.0000 F8000.0
G0 X131.3959 Y-24.8078 F15000.0
G1 Z11.9000 F8000.0
G1 X180.0000 Y-24.8078 F12000.0
G1 Z0.0000 F8000.0
G0 X164.9342 Y-22.6664 F15000.0
G1 Z11.9000 F8000.0
G1 X164.0875 Y-22.7611 F12000.0
G1 X164.7519 Y-23.3821
G1 X165.0749 Y-23.0672
G1 X165.0162 Y-22.6055
G1 X165.1348 Y-22.0237
G1 X165.0252 Y-21.9015
G1 X164.0896 Y-21.8965
G1 X164.0099 Y-22.6177
G1 Z0.0000 F8000.0
G0 X162.1612 Y-21.8880 F15000.0
G1 Z11.9000 F8000.0
G1 X161.9180 Y-22.1799 F12000.0
G1 Z0.0000 F8000.0
G0 X160.4453 Y-14.7874 F15000.0
G1 Z11.9000 F8000.0
G1 X159.8963 Y-15.1447 F12000.0
G1 X159.0414 Y-14.9677
G1 X158.7425 Y-14.7874
G1 Z0.0000 F8000.0
G0 X158.6939 Y-14.6901 F15000.0
G1 Z11.9000 F8000.0
G1 X158.4698 Y-13.9722 F12000.0
G1 X158.5768 Y-13.0970
G1 X158.7259 Y-12.7604
G1 X158.9760 Y-12.5106
G1 X159.6959 Y-12.3306
G1 X160.2841 Y-12.5186
G1 X160.5507 Y-12.8637
G1 X160.2993 Y-12.5009
G1 Z0.0000 F8000.0
G0 X157.2344 Y-12.4523 F15000.0
G1 Z11.9000 F8000.0
G1 X155.3550 Y-15.0441 F12000.0
G1 X155.2398 Y-12.4523
G1 Z0.0000 F8000.0
G0 X153.4458 Y-13.1410 F15000.0
G1 Z11.9000 F8000.0
G1 X153.1051 Y-12.6221 F12000.0
G1 X152.7653 Y-11.4375
G1 X152.6258 Y-11.3194
G1 X152.1748 Y-11.1874
G1 Z0.0000 F8000.0
G0 X149.8883 Y-12.4523 F15000.0
G1 Z11.9000 F8000.0
G1 X150.0181 Y-15.0723 F12000.0
G1 X151.9581 Y-15.0847
G1 X152.7694 Y-12.9899
G1 X152.9077 Y-12.7938
G1 X153.1026 Y-12.6868
G1 X153.2839 Y-12.7937
G1 X154.0841 Y-14.8373
G1 Z0.0000 F8000.0
G0 X153.5857 Y-13.5712 F15000.0
G1 Z11.9000 F8000.0
G1 X153.5857 Y-13.5225 F12000.0
G1 Z0.0000 F8000.0
G0 X148.4288 Y-12.4523 F15000.0
G1 Z11.9000 F8000.0
G1 X148.3234 Y-16.1992 F12000.0
G1 X145.5585 Y-12.4523
G1 Z0.0000 F8000.0
G0 X141.2925 Y-23.4616 F15000.0
G1 Z11.9000 F8000.0
G1 X140.6601 Y-23.4130 F12000.0
G1 Z0.0000 F8000.0
G0 X139.9790 Y-23.4616 F15000.0
G1 Z11.9000 F8000.0
G1 X140.5928 Y-23.3878 F12000.0
G1 X140.6570 Y-21.9364
G1 X140.5645 Y-21.7971
G1 X139.4981 Y-22.0008
G1 X138.7120 Y-21.7120
G1 X138.4955 Y-21.7517
G1 X138.3273 Y-21.9141
G1 X138.1704 Y-22.2499
G1 X138.2664 Y-23.1907
G1 X137.5604 Y-23.3313
G1 X137.3648 Y-23.2902
G1 X136.4423 Y-22.1348
G1 X136.1357 Y-21.9535
G1 Z0.0000 F8000.0
G0 X136.5888 Y-22.2717 F15000.0
G1 Z11.9000 F8000.0
G1 X136.1595 Y-22.0353 F12000.0
G1 X136.0870 Y-23.4130
G1 Z0.0000 F8000.0
G0 X136.8638 Y-22.7392 F15000.0
G1 Z11.9000 F8000.0
G1 X136.5321 Y-22.1847 F12000.0
G1 X136.7025 Y-22.4764
G1 X137.2654 Y-23.0448
G1 X137.4006 Y-21.7589
G1 Z0.0000 F8000.0
G0 X138.3735 Y-23.3157 F15000.0
G1 Z11.9000 F8000.0
G1 X138.9701 Y-23.4687 F12000.0
G1 X139.3952 Y-23.2184
G1 Z0.0000 F8000.0
G0 X141.1167 Y-24.8078 F15000.0
G1 Z11.9000 F8000.0
G1 X141.1167 Y-39.4714 F12000.0
G1 Z0.0000 F8000.0
G0 X140.1082 Y-41.4497 F15000.0
G1 Z11.9000 F8000.0
G1 X140.0596 Y-42.9578 F12000.0
G1 Z0.0000 F8000.0
G0 X139.4758 Y-42.9578 F15000.0
G1 Z11.9000 F8000.0
G1 X140.6920 Y-42.9578 F12000.0
G1 Z0.0000 F8000.0
G0 X138.8920 Y-42.9092 F15000.0
G1 Z11.9000 F8000.0
G1 X138.7765 Y-42.6707 F12000.0
G1 X138.4241 Y-42.3552
G1 X137.7514 Y-42.8211
G1 X137.8062 Y-41.8639
G1 X137.8788 Y-41.6991
G1 X138.0462 Y-41.8021
G1 X138.4344 Y-42.2996
G1 X138.8274 Y-42.6196
G1 X138.8920 Y-41.4010
G1 Z0.0000 F8000.0
G0 X138.3082 Y-42.1308 F15000.0
G1 Z11.9000 F8000.0
G1 X137.9677 Y-41.6929 F12000.0
G1 Z0.0000 F8000.0
G0 X136.9460 Y-41.4497 F15000.0
G1 Z11.9000 F8000.0
G1 X136.8838 Y-43.5448 F12000.0
G1 X135.5838 Y-41.4497
G1 Z0.0000 F8000.0
G0 X136.1739 Y-39.4714 F15000.0
G1 Z11.9000 F8000.0
G1 X136.1739 Y-24.8078 F12000.0
G1 Z0.0000 F8000.0
G0 X135.1627 Y-21.7589 F15000.0
G1 Z11.9000 F8000.0
G1 X135.0973 Y-24.1028 F12000.0
G1 X133.4113 Y-21.6616
G1 Z0.0000 F8000.0
G0 X131.3959 Y-5.3662 F15000.0
G1 Z11.9000 F8000.0
G1 X131.3959 Y-44.3318 F12000.0
G1 Z0.0000 F8000.0
G0 X173.5347 Y-42.8756 F15000.0
G1 Z11.9000 F8000.0
G1 X173.5834 Y-41.2702 F12000.0
G1 Z0.0000 F8000.0
G0 X63.2677 Y-58.9131 F15000.0
G1 Z11.9000 F8000.0
G1 X63.2677 Y-5.3662 F12000.0
G1 Z0.0000 F8000.0
G0 X53.5469 Y-5.3662 F15000.0
G1 Z11.9000 F8000.0
G1 X53.5469 Y-58.9131 F12000.0
G1 Z0.0000 F8000.0
G0 X38.9657 Y-58.9131 F15000.0
G1 Z11.9000 F8000.0
G1 X38.9657 Y-5.3662 F12000.0
G1 Z0.0000 F8000.0

G0 Z0.0000 F800.0
G4 P0.06
G0 X0.0000 Y0.0000 F15000.0
M5
G4 P0.10
$1=0
