$X
$1=255
G21
G90
G92 Z4.0000
G0 Z0.0000 F800.0
G4 P0.06
G92 Z0.0000
G0 Z0.0000 F800.0
G0 X0.0000 Y0.0000 F15000.0
G21
G90
G17
G91.1
G0 Z0.0000
G0 X98.7559 Y-184.8329 F15000.0
G1 Z11.9000 F2500.0
G4 P0.02
G1 X99.1948 Y-185.2301 F2200.0
G1 Z0.0000 F2500.0
G4 P0.02
G0 X99.5293 Y-185.5436 F15000.0
G1 Z11.9000 F2500.0
G4 P0.02
G1 X101.6612 Y-188.6369 F2200.0
G1 Z0.0000 F2500.0
G4 P0.02
G0 X99.9055 Y-185.9615 F15000.0
G1 Z11.9000 F2500.0
G4 P0.02
G1 X99.9472 Y-186.0451 F2200.0
G1 Z0.0000 F2500.0
G4 P0.02
G0 X100.5952 Y-187.5292 F15000.0
G1 Z11.9000 F2500.0
G4 P0.02
G1 X100.8669 Y-187.8217 F2200.0
G1 Z0.0000 F2500.0
G4 P0.02
G0 X102.5575 Y-184.8094 F15000.0
G1 Z11.9000 F2500.0
G4 P0.02
G1 X104.0206 Y-188.9478 F2200.0
G1 Z0.0000 F2500.0
G4 P0.02
G0 X102.6620 Y-188.2581 F15000.0
G1 Z11.9000 F2500.0
G4 P0.02
G1 X103.5816 Y-188.6970 F2200.0
G1 Z0.0000 F2500.0
G4 P0.02
G0 X103.3936 Y-185.2902 F15000.0
G1 Z11.9000 F2500.0
G4 P0.02
G1 X105.4209 Y-186.5233 F2200.0
G1 Z0.0000 F2500.0
G4 P0.02
G0 X105.9434 Y-187.4011 F15000.0
G1 Z11.9000 F2500.0
G4 P0.02
G1 X106.4451 Y-188.2163 F2200.0
G1 Z0.0000 F2500.0
G4 P0.02
G0 X54.5340 Y-126.0774 F15000.0
G1 Z11.9000 F2500.0
G4 P0.02
G1 X55.4118 Y-125.5340 F2200.0
G1 Z0.0000 F2500.0
G4 P0.02
G0 X56.2270 Y-125.0533 F15000.0
G1 Z11.9000 F2500.0
G4 P0.02
G1 X57.4810 Y-123.0050 F2200.0
G1 Z0.0000 F2500.0
G4 P0.02
G0 X45.3376 Y-126.2599 F15000.0
G1 Z11.9000 F2500.0
G4 P0.02
G1 X46.2154 Y-125.7164 F2200.0
G1 Z0.0000 F2500.0
G4 P0.02
G0 X47.0306 Y-125.2357 F15000.0
G1 Z11.9000 F2500.0
G4 P0.02
G1 X48.2846 Y-123.1874 F2200.0
G1 Z0.0000 F2500.0
G4 P0.02
G0 X131.1551 Y-100.0182 F15000.0
G1 Z11.9000 F2500.0
G4 P0.02
G1 X131.6567 Y-101.7529 F2200.0
G1 Z0.0000 F2500.0
G4 P0.02
G0 X131.6985 Y-101.2303 F15000.0
G1 Z11.9000 F2500.0
G4 P0.02
G1 X133.4959 Y-97.8027 F2200.0
G1 Z0.0000 F2500.0
G4 P0.02
G0 X132.8898 Y-102.0664 F15000.0
G1 Z11.9000 F2500.0
G4 P0.02
G1 X134.9381 Y-100.1854 F2200.0
G1 Z0.0000 F2500.0
G4 P0.02
G0 X133.0571 Y-100.4570 F15000.0
G1 Z11.9000 F2500.0
G4 P0.02
G1 X133.7468 Y-99.7883 F2200.0
G1 X133.7886 Y-98.5133
G1 Z0.0000 F2500.0
G4 P0.02
G0 X133.5169 Y-100.6869 F15000.0
G1 Z11.9000 F2500.0
G4 P0.02
G1 X133.6423 Y-100.7288 F2200.0
G1 Z0.0000 F2500.0
G4 P0.02
G0 X133.7886 Y-99.8091 F15000.0
G1 Z11.9000 F2500.0
G4 P0.02
G1 X134.1648 Y-100.0182 F2200.0
G1 Z0.0000 F2500.0
G4 P0.02
G0 X134.6873 Y-100.8751 F15000.0
G1 Z11.9000 F2500.0
G4 P0.02
G1 X134.7291 Y-100.9168 F2200.0
G1 Z0.0000 F2500.0
G4 P0.02
G0 X103.3825 Y-235.2810 F15000.0
G1 Z11.9000 F2500.0
G4 P0.02
G1 X105.1173 Y-235.8872 F2200.0
G1 Z0.0000 F2500.0
G4 P0.02
G0 X104.7411 Y-237.2876 F15000.0
G1 Z11.9000 F2500.0
G4 P0.02
G1 X104.8874 Y-239.2313 F2200.0
G1 Z0.0000 F2500.0
G4 P0.02
G0 X104.9501 Y-237.1413 F15000.0
G1 Z11.9000 F2500.0
G4 P0.02
G1 X105.2427 Y-236.0753 F2200.0
G1 Z0.0000 F2500.0
G4 P0.02
G0 X105.0546 Y-239.3568 F15000.0
G1 Z11.9000 F2500.0
G4 P0.02
G1 X106.4549 Y-239.2104 F2200.0
G1 Z0.0000 F2500.0
G4 P0.02
G0 X105.9115 Y-235.5946 F15000.0
G1 Z11.9000 F2500.0
G4 P0.02
G1 X107.9389 Y-236.8278 F2200.0
G1 Z0.0000 F2500.0
G4 P0.02
G0 X108.4614 Y-237.7055 F15000.0
G1 Z11.9000 F2500.0
G4 P0.02
G1 X108.9631 Y-238.5207 F2200.0
G1 Z0.0000 F2500.0
G4 P0.02
G0 X103.2119 Y-175.7770 F15000.0
G1 Z11.9000 F2500.0
G4 P0.02
G1 X105.3856 Y-176.3832 F2200.0
G1 Z0.0000 F2500.0
G4 P0.02
G0 X106.0962 Y-175.8189 F15000.0
G1 Z11.9000 F2500.0
G4 P0.02
G1 X108.1236 Y-177.0520 F2200.0
G1 Z0.0000 F2500.0
G4 P0.02
G0 X107.4339 Y-176.4459 F15000.0
G1 Z11.9000 F2500.0
G4 P0.02
G1 X107.4965 Y-176.4668 F2200.0
G1 Z0.0000 F2500.0
G4 P0.02
G0 X108.6461 Y-177.9298 F15000.0
G1 Z11.9000 F2500.0
G4 P0.02
G1 X109.1477 Y-178.7450 F2200.0
G1 Z0.0000 F2500.0
G4 P0.02
G0 X149.7587 Y-216.2168 F15000.0
G1 Z11.9000 F2500.0
G4 P0.02
G1 X149.1317 Y-217.9724 F2200.0
G1 X145.6831 Y-217.8888
G1 X145.8294 Y-219.2892
G1 Z0.0000 F2500.0
G4 P0.02
G0 X145.7667 Y-216.9483 F15000.0
G1 Z11.9000 F2500.0
G4 P0.02
G1 X149.9259 Y-215.4853 F2200.0
G1 Z0.0000 F2500.0
G4 P0.02
G0 X146.0593 Y-216.6557 F15000.0
G1 Z11.9000 F2500.0
G4 P0.02
G1 X146.4773 Y-215.5270 F2200.0
G1 Z0.0000 F2500.0
G4 P0.02
G0 X147.6477 Y-217.3246 F15000.0
G1 Z11.9000 F2500.0
G4 P0.02
G1 X147.6687 Y-217.3872 F2200.0
G1 Z0.0000 F2500.0
G4 P0.02
G0 X69.4171 Y-191.4840 F15000.0
G1 Z11.9000 F2500.0
G4 P0.02
G1 X69.4171 Y-200.6717 F2200.0
G1 Z0.0000 F2500.0
G4 P0.02
G0 X69.4171 Y-191.4840 F15000.0
G1 Z11.9000 F2500.0
G4 P0.02
G1 X142.9973 Y-191.4840 F12000.0
G1 Z0.0000 F2500.0
G4 P0.02
G0 X69.4171 Y-200.6717 F15000.0
G1 Z11.9000 F2500.0
G4 P0.02
G1 X106.2461 Y-200.6717 F12000.0
G1 Z0.0000 F2500.0
G4 P0.02
G0 X142.9973 Y-191.4840 F15000.0
G1 Z11.9000 F2500.0
G4 P0.02
G1 X142.9973 Y-200.6717 F2200.0
G1 Z0.0000 F2500.0
G4 P0.02
G0 X83.1988 Y-223.6412 F15000.0
G1 Z11.9000 F2500.0
G4 P0.02
G1 X129.2156 Y-223.6412 F12000.0
G1 Z0.0000 F2500.0
G4 P0.02
G0 X106.2461 Y-225.5099 F15000.0
G1 Z11.9000 F2500.0
G4 P0.02
G1 X106.2461 Y-216.2442 F2200.0
G1 Z0.0000 F2500.0
G4 P0.02
G0 X106.2461 Y-212.1175 F15000.0
G1 Z11.9000 F2500.0
G4 P0.02
G1 X106.2461 Y-202.9297 F2200.0
G1 Z0.0000 F2500.0
G4 P0.02
G0 X106.2461 Y-201.6060 F15000.0
G1 Z11.9000 F2500.0
G4 P0.02
G1 X106.2461 Y-200.2045 F2200.0
G1 Z0.0000 F2500.0
G4 P0.02
G0 X106.2461 Y-198.8030 F15000.0
G1 Z11.9000 F2500.0
G4 P0.02
G1 X106.2461 Y-189.6153 F2200.0
G1 Z0.0000 F2500.0
G4 P0.02
G0 X116.6019 Y-209.8595 F15000.0
G1 Z11.9000 F2500.0
G4 P0.02
G1 X116.6019 Y-223.6412 F2200.0
G1 Z0.0000 F2500.0
G4 P0.02
G0 X110.8400 Y-209.8595 F15000.0
G1 Z11.9000 F2500.0
G4 P0.02
G1 X110.8400 Y-191.4840 F12000.0
G1 Z0.0000 F2500.0
G4 P0.02
G0 X129.2156 Y-200.6717 F15000.0
G1 Z11.9000 F2500.0
G4 P0.02
G1 X142.9973 Y-200.6717 F2200.0
G1 Z0.0000 F2500.0
G4 P0.02
G0 X116.6019 Y-209.8595 F15000.0
G1 Z11.9000 F2500.0
G4 P0.02
G1 X106.2461 Y-223.6412 F2200.0
G1 Z0.0000 F2500.0
G4 P0.02
G0 X106.2461 Y-209.8595 F15000.0
G1 Z11.9000 F2500.0
G4 P0.02
G1 X116.6019 Y-223.6412 F2200.0
G1 Z0.0000 F2500.0
G4 P0.02
G0 X106.2461 Y-209.8595 F15000.0
G1 Z11.9000 F2500.0
G4 P0.02
G1 X106.2461 Y-223.6412 F2200.0
G1 Z0.0000 F2500.0
G4 P0.02
G0 X106.2461 Y-209.8595 F15000.0
G1 Z11.9000 F2500.0
G4 P0.02
G1 X103.5209 Y-209.8595 F2200.0
G1 Z0.0000 F2500.0
G4 P0.02
G0 X106.2461 Y-209.8595 F15000.0
G1 Z11.9000 F2500.0
G4 P0.02
G1 X102.9759 Y-214.1419 F2200.0
G1 Z0.0000 F2500.0
G4 P0.02
G0 X99.7835 Y-223.6412 F15000.0
G1 Z11.9000 F2500.0
G4 P0.02
G1 X101.0294 Y-221.8503 F2200.0
G1 Z0.0000 F2500.0
G4 P0.02
G0 X101.1851 Y-221.5389 F15000.0
G1 Z11.9000 F2500.0
G4 P0.02
G1 X102.1973 Y-219.5923 F2200.0
G1 Z0.0000 F2500.0
G4 P0.02
G0 X102.2751 Y-219.2808 F15000.0
G1 Z11.9000 F2500.0
G4 P0.02
G1 X102.6645 Y-217.8015 F2200.0
G1 X102.8202 Y-216.8671 F2200.0
G1 X102.9759 Y-215.3098 F2200.0
G1 X102.9759 Y-214.2977 F2200.0
G1 X103.1317 Y-211.8060 F2200.0
G1 X103.4430 Y-210.2488 F2200.0
G1 X103.6766 Y-209.3923 F2200.0
G1 X104.2996 Y-207.9129 F2200.0
G1 X104.7668 Y-207.1342 F2200.0
G1 X106.0125 Y-205.2655 F2200.0
G1 Z0.0000 F2500.0
G4 P0.02
G0 X102.5087 Y-218.6579 F15000.0
G1 Z11.9000 F2500.0
G4 P0.02
G1 X106.2461 Y-223.6412 F2200.0
G1 Z0.0000 F2500.0
G4 P0.02
G0 X69.4171 Y-141.7298 F15000.0
G1 Z11.9000 F2500.0
G4 P0.02
G1 X69.4171 Y-104.9008 F12000.0
G1 Z0.0000 F2500.0
G4 P0.02
G0 X106.2461 Y-141.7298 F15000.0
G1 Z11.9000 F2500.0
G4 P0.02
G1 X69.4171 Y-141.7298 F12000.0
G1 Z0.0000 F2500.0
G4 P0.02
G0 X69.4171 Y-104.9008 F15000.0
G1 Z11.9000 F2500.0
G4 P0.02
G1 X142.9973 Y-104.9008 F12000.0
G1 X142.9973 Y-123.3542 F12000.0
G1 Z0.0000 F2500.0
G4 P0.02
G0 X129.2156 Y-109.4947 F15000.0
G1 Z11.9000 F2500.0
G4 P0.02
G1 X129.2156 Y-123.3542 F2200.0
G1 Z0.0000 F2500.0
G4 P0.02
G0 X106.2461 Y-137.1359 F15000.0
G1 Z11.9000 F2500.0
G4 P0.02
G1 X83.1988 Y-137.1359 F12000.0
G1 Z0.0000 F2500.0
G4 P0.02
G0 X83.1988 Y-109.4947 F15000.0
G1 Z11.9000 F2500.0
G4 P0.02
G1 X129.2156 Y-109.4947 F12000.0
G1 Z0.0000 F2500.0
G4 P0.02
G0 X83.1988 Y-137.1359 F15000.0
G1 Z11.9000 F2500.0
G4 P0.02
G1 X83.1988 Y-109.4947 F12000.0
G1 Z0.0000 F2500.0
G4 P0.02
G0 X95.8125 Y-123.3542 F15000.0
G1 Z11.9000 F2500.0
G4 P0.02
G1 X106.2461 Y-112.9207 F2200.0
G1 Z0.0000 F2500.0
G4 P0.02
G0 X106.2461 Y-133.7100 F15000.0
G1 Z11.9000 F2500.0
G4 P0.02
G1 X95.8125 Y-123.3542 F2200.0
G1 Z0.0000 F2500.0
G4 P0.02
G0 X106.2461 Y-112.9207 F15000.0
G1 Z11.9000 F2500.0
G4 P0.02
G1 X116.6019 Y-123.3542 F2200.0
G1 Z0.0000 F2500.0
G4 P0.02
G0 X110.8400 Y-123.3542 F15000.0
G1 Z11.9000 F2500.0
G4 P0.02
G1 X110.6843 Y-124.5222 F2200.0
G1 X110.2171 Y-125.6122 F2200.0
G1 X109.5163 Y-126.5466 F2200.0
G1 X108.5820 Y-127.2473 F2200.0
G1 X107.4140 Y-127.7145 F2200.0
G1 X106.2461 Y-127.9481 F2200.0
G1 X105.0782 Y-127.7924 F2200.0
G1 X103.9881 Y-127.3252 F2200.0
G1 X102.9759 Y-126.6245 F2200.0
G1 X102.2751 Y-125.6901 F2200.0
G1 X101.8079 Y-124.6001 F2200.0
G1 X101.6522 Y-123.3542 F2200.0
G1 X101.7301 Y-122.1863 F2200.0
G1 X102.1973 Y-121.0962 F2200.0
G1 X102.8981 Y-120.1619 F2200.0
G1 X103.8324 Y-119.3832 F2200.0
G1 X104.9225 Y-118.9161 F2200.0
G1 X106.0904 Y-118.6825 F2200.0
G1 X107.3362 Y-118.8382 F2200.0
G1 X108.4263 Y-119.3053 F2200.0
G1 X109.3606 Y-120.0061 F2200.0
G1 X110.1393 Y-120.8627 F2200.0
G1 X110.6065 Y-121.9527 F2200.0
G1 X110.8400 Y-123.1985 F2200.0
G1 Z0.0000 F2500.0
G4 P0.02
G0 X106.2461 Y-133.7100 F15000.0
G1 Z11.9000 F2500.0
G4 P0.02
G1 X116.6019 Y-123.3542 F2200.0
G1 Z0.0000 F2500.0
G4 P0.02
G0 X106.2461 Y-141.7298 F15000.0
G1 Z11.9000 F2500.0
G4 P0.02
G1 X142.9973 Y-141.7298 F12000.0
G1 Z0.0000 F2500.0
G4 P0.02
G0 X106.2461 Y-137.1359 F15000.0
G1 Z11.9000 F2500.0
G4 P0.02
G1 X129.2156 Y-137.1359 F12000.0
G1 Z0.0000 F2500.0
G4 P0.02
G0 X142.9973 Y-141.7298 F15000.0
G1 Z11.9000 F2500.0
G4 P0.02
G1 X142.9973 Y-123.3542 F12000.0
G1 Z0.0000 F2500.0
G4 P0.02
G0 X129.2156 Y-137.1359 F15000.0
G1 Z11.9000 F2500.0
G4 P0.02
G1 X129.2156 Y-123.3542 F2200.0
G1 Z0.0000 F2500.0
G4 P0.02
G0 X141.9071 Y-191.4840 F15000.0
G1 Z11.9000 F2500.0
G4 P0.02
G1 X142.9973 Y-192.5740 F2200.0
G1 Z0.0000 F2500.0
G4 P0.02
G0 X138.0140 Y-191.4840 F15000.0
G1 Z11.9000 F2500.0
G4 P0.02
G1 X142.9973 Y-196.4671 F2200.0
G1 Z0.0000 F2500.0
G4 P0.02
G0 X134.0430 Y-191.4840 F15000.0
G1 Z11.9000 F2500.0
G4 P0.02
G1 X142.9973 Y-200.3603 F2200.0
G1 Z0.0000 F2500.0
G4 P0.02
G0 X130.1499 Y-191.4840 F15000.0
G1 Z11.9000 F2500.0
G4 P0.02
G1 X139.3377 Y-200.6717 F2200.0
G1 Z0.0000 F2500.0
G4 P0.02
G0 X126.2567 Y-191.4840 F15000.0
G1 Z11.9000 F2500.0
G4 P0.02
G1 X135.4446 Y-200.6717 F2200.0
G1 Z0.0000 F2500.0
G4 P0.02
G0 X122.3637 Y-191.4840 F15000.0
G1 Z11.9000 F2500.0
G4 P0.02
G1 X131.5515 Y-200.6717 F2200.0
G1 Z0.0000 F2500.0
G4 P0.02
G0 X118.4706 Y-191.4840 F15000.0
G1 Z11.9000 F2500.0
G4 P0.02
G1 X129.2156 Y-202.2289 F2200.0
G1 Z0.0000 F2500.0
G4 P0.02
G0 X114.5775 Y-191.4840 F15000.0
G1 Z11.9000 F2500.0
G4 P0.02
G1 X129.2156 Y-206.1221 F12000.0
G1 Z0.0000 F2500.0
G4 P0.02
G0 X110.8400 Y-191.6397 F15000.0
G1 Z11.9000 F2500.0
G4 P0.02
G1 X129.2156 Y-210.0152 F12000.0
G1 Z0.0000 F2500.0
G4 P0.02
G0 X110.8400 Y-195.5328 F15000.0
G1 Z11.9000 F2500.0
G4 P0.02
G1 X129.2156 Y-213.9083 F12000.0
G1 Z0.0000 F2500.0
G4 P0.02
G0 X110.8400 Y-199.4259 F15000.0
G1 Z11.9000 F2500.0
G4 P0.02
G1 X129.2156 Y-217.8015 F12000.0
G1 Z0.0000 F2500.0
G4 P0.02
G0 X110.8400 Y-203.3190 F15000.0
G1 Z11.9000 F2500.0
G4 P0.02
G1 X129.2156 Y-221.6946 F12000.0
G1 Z0.0000 F2500.0
G4 P0.02
G0 X110.8400 Y-207.2121 F15000.0
G1 Z11.9000 F2500.0
G4 P0.02
G1 X113.4873 Y-209.8595 F2200.0
G1 Z0.0000 F2500.0
G4 P0.02
G0 X116.6019 Y-213.0518 F15000.0
G1 Z11.9000 F2500.0
G4 P0.02
G1 X127.2690 Y-223.6412 F2200.0
G1 Z0.0000 F2500.0
G4 P0.02
G0 X116.6019 Y-216.9449 F15000.0
G1 Z11.9000 F2500.0
G4 P0.02
G1 X123.3759 Y-223.6412 F2200.0
G1 Z0.0000 F2500.0
G4 P0.02
G0 X116.6019 Y-220.8381 F15000.0
G1 Z11.9000 F2500.0
G4 P0.02
G1 X119.4828 Y-223.6412 F2200.0
G1 Z0.0000 F2500.0
G4 P0.02
G0 X110.8400 Y-182.2183 F15000.0
G1 Z11.9000 F2500.0
G4 P0.02
G1 X106.2461 Y-181.6733 F2200.0
G1 X106.7133 Y-182.2183 F2200.0
G1 X106.2461 Y-182.8412 F2200.0
G1 X110.8400 Y-182.2183 F2200.0
G1 Z0.0000 F2500.0
G4 P0.02
G0 X108.1681 Y-181.9847 F15000.0
G1 Z11.9000 F2500.0
G4 P0.02
G1 X108.9958 Y-181.9847 F2200.0
G1 Z0.0000 F2500.0
G4 P0.02
G0 X107.8956 Y-182.5297 F15000.0
G1 Z11.9000 F2500.0
G4 P0.02
G1 X108.7233 Y-182.5297 F2200.0
G1 Z0.0000 F2500.0
G4 P0.02
G0 X110.8400 Y-182.2183 F15000.0
G1 Z11.9000 F2500.0
G4 P0.02
G1 X94.6446 Y-182.2183 F12000.0
G1 Z0.0000 F2500.0
G4 P0.02
G0 X110.8400 Y-191.4840 F15000.0
G1 Z11.9000 F2500.0
G4 P0.02
G1 X110.8400 Y-180.4274 F2200.0
G1 Z0.0000 F2500.0
G4 P0.02
G0 X106.2461 Y-93.9222 F15000.0
G1 Z11.9000 F2500.0
G4 P0.02
G1 X106.2461 Y-102.3313 F2200.0
G1 Z0.0000 F2500.0
G4 P0.02
G0 X106.2461 Y-103.7329 F15000.0
G1 Z11.9000 F2500.0
G4 P0.02
G1 X106.2461 Y-105.1344 F2200.0
G1 Z0.0000 F2500.0
G4 P0.02
G0 X106.2461 Y-106.4580 F15000.0
G1 Z11.9000 F2500.0
G4 P0.02
G1 X106.2461 Y-114.9451 F2200.0
G1 Z0.0000 F2500.0
G4 P0.02
G0 X106.2461 Y-116.3466 F15000.0
G1 Z11.9000 F2500.0
G4 P0.02
G1 X106.2461 Y-117.6702 F2200.0
G1 Z0.0000 F2500.0
G4 P0.02
G0 X106.2461 Y-119.0718 F15000.0
G1 Z11.9000 F2500.0
G4 P0.02
G1 X106.2461 Y-123.3542 F2200.0
G1 Z0.0000 F2500.0
G4 P0.02
G0 X106.2461 Y-152.7084 F15000.0
G1 Z11.9000 F2500.0
G4 P0.02
G1 X106.2461 Y-144.2992 F2200.0
G1 Z0.0000 F2500.0
G4 P0.02
G0 X106.2461 Y-142.8977 F15000.0
G1 Z11.9000 F2500.0
G4 P0.02
G1 X106.2461 Y-141.4962 F2200.0
G1 Z0.0000 F2500.0
G4 P0.02
G0 X106.2461 Y-140.1726 F15000.0
G1 Z11.9000 F2500.0
G4 P0.02
G1 X106.2461 Y-131.6855 F2200.0
G1 Z0.0000 F2500.0
G4 P0.02
G0 X106.2461 Y-130.2840 F15000.0
G1 Z11.9000 F2500.0
G4 P0.02
G1 X106.2461 Y-128.9603 F2200.0
G1 Z0.0000 F2500.0
G4 P0.02
G0 X106.2461 Y-127.5588 F15000.0
G1 Z11.9000 F2500.0
G4 P0.02
G1 X106.2461 Y-123.3542 F2200.0
G1 Z0.0000 F2500.0
G4 P0.02
G0 X154.0537 Y-123.3542 F15000.0
G1 Z11.9000 F2500.0
G4 P0.02
G1 X143.9316 Y-123.3542 F2200.0
G1 Z0.0000 F2500.0
G4 P0.02
G0 X142.5301 Y-123.3542 F15000.0
G1 Z11.9000 F2500.0
G4 P0.02
G1 X141.2064 Y-123.3542 F2200.0
G1 Z0.0000 F2500.0
G4 P0.02
G0 X139.8048 Y-123.3542 F15000.0
G1 Z11.9000 F2500.0
G4 P0.02
G1 X129.6828 Y-123.3542 F2200.0
G1 Z0.0000 F2500.0
G4 P0.02
G0 X128.2812 Y-123.3542 F15000.0
G1 Z11.9000 F2500.0
G4 P0.02
G1 X126.8797 Y-123.3542 F2200.0
G1 Z0.0000 F2500.0
G4 P0.02
G0 X125.5560 Y-123.3542 F15000.0
G1 Z11.9000 F2500.0
G4 P0.02
G1 X115.4339 Y-123.3542 F2200.0
G1 Z0.0000 F2500.0
G4 P0.02
G0 X114.0324 Y-123.3542 F15000.0
G1 Z11.9000 F2500.0
G4 P0.02
G1 X112.6309 Y-123.3542 F2200.0
G1 Z0.0000 F2500.0
G4 P0.02
G0 X111.3072 Y-123.3542 F15000.0
G1 Z11.9000 F2500.0
G4 P0.02
G1 X106.2461 Y-123.3542 F2200.0
G1 Z0.0000 F2500.0
G4 P0.02
G0 X58.4385 Y-123.3542 F15000.0
G1 Z11.9000 F2500.0
G4 P0.02
G1 X68.4828 Y-123.3542 F2200.0
G1 Z0.0000 F2500.0
G4 P0.02
G0 X69.8843 Y-123.3542 F15000.0
G1 Z11.9000 F2500.0
G4 P0.02
G1 X71.2858 Y-123.3542 F2200.0
G1 Z0.0000 F2500.0
G4 P0.02
G0 X72.6874 Y-123.3542 F15000.0
G1 Z11.9000 F2500.0
G4 P0.02
G1 X82.8095 Y-123.3542 F2200.0
G1 Z0.0000 F2500.0
G4 P0.02
G0 X84.1332 Y-123.3542 F15000.0
G1 Z11.9000 F2500.0
G4 P0.02
G1 X85.5347 Y-123.3542 F2200.0
G1 Z0.0000 F2500.0
G4 P0.02
G0 X86.9362 Y-123.3542 F15000.0
G1 Z11.9000 F2500.0
G4 P0.02
G1 X97.0584 Y-123.3542 F2200.0
G1 Z0.0000 F2500.0
G4 P0.02
G0 X98.3820 Y-123.3542 F15000.0
G1 Z11.9000 F2500.0
G4 P0.02
G1 X99.7835 Y-123.3542 F2200.0
G1 Z0.0000 F2500.0
G4 P0.02
G0 X101.1851 Y-123.3542 F15000.0
G1 Z11.9000 F2500.0
G4 P0.02
G1 X106.2461 Y-123.3542 F2200.0
G1 Z0.0000 F2500.0
G4 P0.02
G0 X53.7195 Y-122.1489 F15000.0
G1 Z11.9000 F2500.0
G4 P0.02
G1 X57.6906 Y-121.2292 F2200.0
G1 X57.7951 Y-120.4768
G1 Z0.0000 F2500.0
G4 P0.02
G0 X60.2294 Y-137.1359 F15000.0
G1 Z11.9000 F2500.0
G4 P0.02
G1 X60.8523 Y-132.5420 F2200.0
G1 X60.2294 Y-133.0092 F2200.0
G1 X59.6064 Y-132.5420 F2200.0
G1 X60.2294 Y-137.1359 F2200.0
G1 Z0.0000 F2500.0
G4 P0.02
G0 X60.5408 Y-135.2918 F15000.0
G1 Z11.9000 F2500.0
G4 P0.02
G1 X60.5408 Y-134.4641 F2200.0
G1 Z0.0000 F2500.0
G4 P0.02
G0 X59.9568 Y-135.0192 F15000.0
G1 Z11.9000 F2500.0
G4 P0.02
G1 X59.9568 Y-134.1915 F2200.0
G1 Z0.0000 F2500.0
G4 P0.02
G0 X60.2294 Y-109.4947 F15000.0
G1 Z11.9000 F2500.0
G4 P0.02
G1 X59.6064 Y-114.0886 F2200.0
G1 X60.2294 Y-113.6214 F2200.0
G1 X60.8523 Y-114.0886 F2200.0
G1 X60.2294 Y-109.4947 F2200.0
G1 Z0.0000 F2500.0
G4 P0.02
G0 X59.9568 Y-112.5170 F15000.0
G1 Z11.9000 F2500.0
G4 P0.02
G1 X59.9568 Y-111.6893 F2200.0
G1 Z0.0000 F2500.0
G4 P0.02
G0 X60.5408 Y-112.2444 F15000.0
G1 Z11.9000 F2500.0
G4 P0.02
G1 X60.5408 Y-111.4167 F2200.0
G1 Z0.0000 F2500.0
G4 P0.02
G0 X60.2294 Y-137.1359 F15000.0
G1 Z11.9000 F2500.0
G4 P0.02
G1 X60.2294 Y-109.4947 F12000.0
G1 Z0.0000 F2500.0
G4 P0.02
G0 X83.1988 Y-137.1359 F15000.0
G1 Z11.9000 F2500.0
G4 P0.02
G1 X58.4385 Y-137.1359 F12000.0
G1 Z0.0000 F2500.0
G4 P0.02
G0 X83.1988 Y-109.4947 F15000.0
G1 Z11.9000 F2500.0
G4 P0.02
G1 X58.4385 Y-109.4947 F12000.0
G1 Z0.0000 F2500.0
G4 P0.02
G0 X44.5320 Y-122.5931 F15000.0
G1 Z11.9000 F2500.0
G4 P0.02
G1 X47.7508 Y-120.4612 F2200.0
G1 Z0.0000 F2500.0
G4 P0.02
G0 X46.8102 Y-122.4050 F15000.0
G1 Z11.9000 F2500.0
G4 P0.02
G1 X47.8552 Y-121.9034 F2200.0
G1 X47.9388 Y-122.3841
G1 Z0.0000 F2500.0
G4 P0.02
G0 X47.6880 Y-120.7956 F15000.0
G1 Z11.9000 F2500.0
G4 P0.02
G1 X47.7925 Y-121.8198 F2200.0
G1 Z0.0000 F2500.0
G4 P0.02
G0 X47.9388 Y-121.9034 F15000.0
G1 Z11.9000 F2500.0
G4 P0.02
G1 X48.7540 Y-121.3809 F2200.0
G1 Z0.0000 F2500.0
G4 P0.02
G0 X51.0416 Y-141.7298 F15000.0
G1 Z11.9000 F2500.0
G4 P0.02
G1 X51.6646 Y-137.1359 F2200.0
G1 X51.0416 Y-137.6031 F2200.0
G1 X50.4187 Y-137.1359 F2200.0
G1 X51.0416 Y-141.7298 F2200.0
G1 Z0.0000 F2500.0
G4 P0.02
G0 X51.3531 Y-139.8856 F15000.0
G1 Z11.9000 F2500.0
G4 P0.02
G1 X51.3531 Y-139.0580 F2200.0
G1 Z0.0000 F2500.0
G4 P0.02
G0 X50.7691 Y-139.6130 F15000.0
G1 Z11.9000 F2500.0
G4 P0.02
G1 X50.7691 Y-138.7854 F2200.0
G1 Z0.0000 F2500.0
G4 P0.02
G0 X51.0416 Y-104.9008 F15000.0
G1 Z11.9000 F2500.0
G4 P0.02
G1 X50.4187 Y-109.4947 F2200.0
G1 X51.0416 Y-109.0275 F2200.0
G1 X51.6646 Y-109.4947 F2200.0
G1 X51.0416 Y-104.9008 F2200.0
G1 Z0.0000 F2500.0
G4 P0.02
G0 X50.7691 Y-107.9230 F15000.0
G1 Z11.9000 F2500.0
G4 P0.02
G1 X50.7691 Y-107.0953 F2200.0
G1 Z0.0000 F2500.0
G4 P0.02
G0 X51.3531 Y-107.6505 F15000.0
G1 Z11.9000 F2500.0
G4 P0.02
G1 X51.3531 Y-106.8228 F2200.0
G1 Z0.0000 F2500.0
G4 P0.02
G0 X51.0416 Y-141.7298 F15000.0
G1 Z11.9000 F2500.0
G4 P0.02
G1 X51.0416 Y-104.9008 F12000.0
G1 Z0.0000 F2500.0
G4 P0.02
G0 X69.4171 Y-141.7298 F15000.0
G1 Z11.9000 F2500.0
G4 P0.02
G1 X49.1729 Y-141.7298 F12000.0
G1 Z0.0000 F2500.0
G4 P0.02
G0 X69.4171 Y-104.9008 F15000.0
G1 Z11.9000 F2500.0
G4 P0.02
G1 X49.1729 Y-104.9008 F12000.0
G1 Z0.0000 F2500.0
G4 P0.02
G0 X128.7484 Y-92.5985 F15000.0
G1 Z11.9000 F2500.0
G4 P0.02
G1 X125.5560 Y-95.8688 F2200.0
G1 X128.7484 Y-99.1390 F2200.0
G1 X132.0186 Y-95.8688 F2200.0
G1 X128.7484 Y-92.5985 F2200.0
G1 Z0.0000 F2500.0
G4 P0.02
G0 X129.1377 Y-89.9512 F15000.0
G1 Z11.9000 F2500.0
G4 P0.02
G1 X131.9407 Y-93.6886 F2200.0
G1 X132.0964 Y-92.9100 F2200.0
G1 X132.7972 Y-92.8321 F2200.0
G1 X129.1377 Y-89.9512 F2200.0
G1 Z0.0000 F2500.0
G4 P0.02
G0 X130.4509 Y-92.2975 F15000.0
G1 Z11.9000 F2500.0
G4 P0.02
G1 X131.0947 Y-91.6538 F2200.0
G1 Z0.0000 F2500.0
G4 P0.02
G0 X130.7234 Y-91.7914 F15000.0
G1 Z11.9000 F2500.0
G4 P0.02
G1 X131.3672 Y-91.1476 F2200.0
G1 Z0.0000 F2500.0
G4 P0.02
G0 X139.5713 Y-100.3848 F15000.0
G1 Z11.9000 F2500.0
G4 P0.02
G1 X136.6904 Y-96.7252 F2200.0
G1 X136.6125 Y-97.4260 F2200.0
G1 X135.9117 Y-97.5818 F2200.0
G1 X139.5713 Y-100.3848 F2200.0
G1 Z0.0000 F2500.0
G4 P0.02
G0 X137.7700 Y-98.9158 F15000.0
G1 Z11.9000 F2500.0
G4 P0.02
G1 X138.4138 Y-98.2721 F2200.0
G1 Z0.0000 F2500.0
G4 P0.02
G0 X137.2639 Y-99.1105 F15000.0
G1 Z11.9000 F2500.0
G4 P0.02
G1 X137.9076 Y-98.4667 F2200.0
G1 Z0.0000 F2500.0
G4 P0.02
G0 X129.1377 Y-89.9512 F15000.0
G1 Z11.9000 F2500.0
G4 P0.02
G1 X139.5713 Y-100.3848 F2200.0
G1 Z0.0000 F2500.0
G4 P0.02
G0 X106.2461 Y-112.9207 F15000.0
G1 Z11.9000 F2500.0
G4 P0.02
G1 X130.4613 Y-88.7054 F12000.0
G1 Z0.0000 F2500.0
G4 P0.02
G0 X116.6019 Y-123.3542 F15000.0
G1 Z11.9000 F2500.0
G4 P0.02
G1 X140.8171 Y-99.0611 F12000.0
G1 Z0.0000 F2500.0
G4 P0.02
G0 X83.1988 Y-232.8289 F15000.0
G1 Z11.9000 F2500.0
G4 P0.02
G1 X87.7928 Y-233.4519 F2200.0
G1 X87.4034 Y-232.8289 F2200.0
G1 X87.7928 Y-232.2060 F2200.0
G1 X83.1988 Y-232.8289 F2200.0
G1 Z0.0000 F2500.0
G4 P0.02
G0 X85.3934 Y-233.1404 F15000.0
G1 Z11.9000 F2500.0
G4 P0.02
G1 X86.2211 Y-233.1404 F2200.0
G1 Z0.0000 F2500.0
G4 P0.02
G0 X85.0819 Y-232.5564 F15000.0
G1 Z11.9000 F2500.0
G4 P0.02
G1 X85.9096 Y-232.5564 F2200.0
G1 Z0.0000 F2500.0
G4 P0.02
G0 X129.2156 Y-232.8289 F15000.0
G1 Z11.9000 F2500.0
G4 P0.02
G1 X124.6216 Y-232.2060 F2200.0
G1 X125.0888 Y-232.8289 F2200.0
G1 X124.6216 Y-233.4519 F2200.0
G1 X129.2156 Y-232.8289 F2200.0
G1 Z0.0000 F2500.0
G4 P0.02
G0 X126.5437 Y-232.5564 F15000.0
G1 Z11.9000 F2500.0
G4 P0.02
G1 X127.3713 Y-232.5564 F2200.0
G1 Z0.0000 F2500.0
G4 P0.02
G0 X126.2712 Y-233.1404 F15000.0
G1 Z11.9000 F2500.0
G4 P0.02
G1 X127.0989 Y-233.1404 F2200.0
G1 Z0.0000 F2500.0
G4 P0.02
G0 X83.1988 Y-232.8289 F15000.0
G1 Z11.9000 F2500.0
G4 P0.02
G1 X129.2156 Y-232.8289 F12000.0
G1 Z0.0000 F2500.0
G4 P0.02
G0 X83.1988 Y-200.6717 F15000.0
G1 Z11.9000 F2500.0
G4 P0.02
G1 X83.1988 Y-234.6976 F12000.0
G1 Z0.0000 F2500.0
G4 P0.02
G0 X129.2156 Y-200.6717 F15000.0
G1 Z11.9000 F2500.0
G4 P0.02
G1 X129.2156 Y-234.6976 F12000.0
G1 Z0.0000 F2500.0
G4 P0.02
G0 X69.4171 Y-173.0305 F15000.0
G1 Z11.9000 F2500.0
G4 P0.02
G1 X74.0111 Y-173.6534 F2200.0
G1 X73.5439 Y-173.0305 F2200.0
G1 X74.0111 Y-172.4855 F2200.0
G1 X69.4171 Y-173.0305 F2200.0
G1 Z0.0000 F2500.0
G4 P0.02
G0 X71.6117 Y-173.3419 F15000.0
G1 Z11.9000 F2500.0
G4 P0.02
G1 X72.4394 Y-173.3419 F2200.0
G1 Z0.0000 F2500.0
G4 P0.02
G0 X71.3003 Y-172.7969 F15000.0
G1 Z11.9000 F2500.0
G4 P0.02
G1 X72.1279 Y-172.7969 F2200.0
G1 Z0.0000 F2500.0
G4 P0.02
G0 X142.9973 Y-173.0305 F15000.0
G1 Z11.9000 F2500.0
G4 P0.02
G1 X138.4033 Y-172.4855 F2200.0
G1 X138.8705 Y-173.0305 F2200.0
G1 X138.4033 Y-173.6534 F2200.0
G1 X142.9973 Y-173.0305 F2200.0
G1 Z0.0000 F2500.0
G4 P0.02
G0 X140.3254 Y-172.7969 F15000.0
G1 Z11.9000 F2500.0
G4 P0.02
G1 X141.1530 Y-172.7969 F2200.0
G1 Z0.0000 F2500.0
G4 P0.02
G0 X140.0529 Y-173.3419 F15000.0
G1 Z11.9000 F2500.0
G4 P0.02
G1 X140.8805 Y-173.3419 F2200.0
G1 Z0.0000 F2500.0
G4 P0.02
G0 X69.4171 Y-173.0305 F15000.0
G1 Z11.9000 F2500.0
G4 P0.02
G1 X142.9973 Y-173.0305 F12000.0
G1 Z0.0000 F2500.0
G4 P0.02
G0 X69.4171 Y-191.4840 F15000.0
G1 Z11.9000 F2500.0
G4 P0.02
G1 X69.4171 Y-171.2396 F12000.0
G1 Z0.0000 F2500.0
G4 P0.02
G0 X142.9973 Y-191.4840 F15000.0
G1 Z11.9000 F2500.0
G4 P0.02
G1 X142.9973 Y-171.2396 F12000.0
G1 Z0.0000 F2500.0
G4 P0.02
G0 X152.1850 Y-209.8595 F15000.0
G1 Z11.9000 F2500.0
G4 P0.02
G1 X151.5621 Y-214.4534 F2200.0
G1 X152.1850 Y-213.9862 F2200.0
G1 X152.8079 Y-214.4534 F2200.0
G1 X152.1850 Y-209.8595 F2200.0
G1 Z0.0000 F2500.0
G4 P0.02
G0 X151.9125 Y-212.8817 F15000.0
G1 Z11.9000 F2500.0
G4 P0.02
G1 X151.9125 Y-212.0540 F2200.0
G1 Z0.0000 F2500.0
G4 P0.02
G0 X152.4965 Y-212.6092 F15000.0
G1 Z11.9000 F2500.0
G4 P0.02
G1 X152.4965 Y-211.7815 F2200.0
G1 Z0.0000 F2500.0
G4 P0.02
G0 X152.1850 Y-223.6412 F15000.0
G1 Z11.9000 F2500.0
G4 P0.02
G1 X152.8079 Y-219.0472 F2200.0
G1 X152.1850 Y-219.5144 F2200.0
G1 X151.5621 Y-219.0472 F2200.0
G1 X152.1850 Y-223.6412 F2200.0
G1 Z0.0000 F2500.0
G4 P0.02
G0 X152.4965 Y-221.7969 F15000.0
G1 Z11.9000 F2500.0
G4 P0.02
G1 X152.4965 Y-220.9693 F2200.0
G1 Z0.0000 F2500.0
G4 P0.02
G0 X151.9125 Y-221.5244 F15000.0
G1 Z11.9000 F2500.0
G4 P0.02
G1 X151.9125 Y-220.6968 F2200.0
G1 Z0.0000 F2500.0
G4 P0.02
G0 X152.1850 Y-209.8595 F15000.0
G1 Z11.9000 F2500.0
G4 P0.02
G1 X152.1850 Y-223.6412 F2200.0
G1 Z0.0000 F2500.0
G4 P0.02
G0 X106.2461 Y-209.8595 F15000.0
G1 Z11.9000 F2500.0
G4 P0.02
G1 X154.0537 Y-209.8595 F12000.0
G1 Z0.0000 F2500.0
G4 P0.02
G0 X106.2461 Y-223.6412 F15000.0
G1 Z11.9000 F2500.0
G4 P0.02
G1 X154.0537 Y-223.6412 F12000.0
G1 Z0.0000 F2500.0
G4 P0.02
G0 X61.1638 Y-264.1297 F15000.0
G1 Z11.9000 F2500.0
G4 P0.02
G1 X0.0000 Y-264.1297 F12000.0
G1 Z0.0000 F2500.0
G4 P0.02
G0 X61.1638 Y-276.9770 F15000.0
G1 Z11.9000 F2500.0
G4 P0.02
G1 X61.1638 Y-264.1297 F2200.0
G1 Z0.0000 F2500.0
G4 P0.02
G0 X23.6638 Y-269.3865 F15000.0
G1 Z11.9000 F2500.0
G4 P0.02
G1 X23.9773 Y-267.4845 F2200.0
G1 Z0.0000 F2500.0
G4 P0.02
G0 X24.1028 Y-270.3897 F15000.0
G1 Z11.9000 F2500.0
G4 P0.02
G1 X24.8761 Y-267.6308 F2200.0
G1 X24.7925 Y-267.5472
G1 Z0.0000 F2500.0
G4 P0.02
G0 X25.7895 Y-272.5227 F15000.0
G1 Z11.9000 F2500.0
G4 P0.02
G1 X23.5948 Y-269.3876 F2200.0
G1 Z0.0000 F2500.0
G4 P0.02
G0 X23.9083 Y-267.4856 F15000.0
G1 Z11.9000 F2500.0
G4 P0.02
G1 X24.9952 Y-267.8201 F2200.0
G1 X26.3120 Y-270.2028
G1 X24.0338 Y-270.3908
G1 Z0.0000 F2500.0
G4 P0.02
G0 X24.8071 Y-267.6319 F15000.0
G1 Z11.9000 F2500.0
G4 P0.02
G1 X24.7235 Y-267.5483 F2200.0
G1 X25.3714 Y-268.1963
G1 X25.7476 Y-269.9728
G1 Z0.0000 F2500.0
G4 P0.02
G0 X17.0601 Y-268.0264 F15000.0
G1 Z11.9000 F2500.0
G4 P0.02
G1 X15.3253 Y-268.2146 F2200.0
G1 X14.8028 Y-267.3367
G1 X16.9138 Y-270.6390
G1 X16.2032 Y-273.3771
G1 X18.8366 Y-273.0008
G1 X18.1052 Y-272.2484
G1 Z0.0000 F2500.0
G4 P0.02
G0 X17.6453 Y-271.6214 F15000.0
G1 Z11.9000 F2500.0
G4 P0.02
G1 X18.4814 Y-272.8336 F2200.0
G1 Z0.0000 F2500.0
G4 P0.02
G0 X16.5167 Y-270.1166 F15000.0
G1 Z11.9000 F2500.0
G4 P0.02
G1 X16.5584 Y-270.1583 F2200.0
G1 Z0.0000 F2500.0
G4 P0.02
G0 X18.5485 Y-272.8495 F15000.0
G1 Z11.9000 F2500.0
G4 P0.02
G1 X16.5838 Y-270.1323 F2200.0
G1 X16.6257 Y-270.1742
G1 Z0.0000 F2500.0
G4 P0.02
G0 X20.0280 Y-272.2694 F15000.0
G1 Z11.9000 F2500.0
G4 P0.02
G1 X18.7322 Y-268.4236 F2200.0
G1 Z0.0000 F2500.0
G4 P0.02
G0 X19.6727 Y-267.3785 F15000.0
G1 Z11.9000 F2500.0
G4 P0.02
G1 X20.7386 Y-268.6117 F2200.0
G1 X19.9026 Y-267.6085
G1 Z0.0000 F2500.0
G4 P0.02
G0 X22.0554 Y-273.1680 F15000.0
G1 Z11.9000 F2500.0
G4 P0.02
G1 X21.9300 Y-272.8545 F2200.0
G1 X21.2612 Y-272.8755
G1 Z0.0000 F2500.0
G4 P0.02
G0 X21.1248 Y-272.7302 F15000.0
G1 Z11.9000 F2500.0
G4 P0.02
G1 X20.0588 Y-272.2077 F2200.0
G1 Z0.0000 F2500.0
G4 P0.02
G0 X18.7630 Y-268.3619 F15000.0
G1 Z11.9000 F2500.0
G4 P0.02
G1 X19.7036 Y-267.3168 F2200.0
G1 Z0.0000 F2500.0
G4 P0.02
G0 X19.9335 Y-267.5468 F15000.0
G1 Z11.9000 F2500.0
G4 P0.02
G1 X20.8740 Y-268.8217 F2200.0
G1 X22.0863 Y-273.1064
G1 X21.9608 Y-272.7928
G1 Z0.0000 F2500.0
G4 P0.02
G0 X37.7264 Y-267.7073 F15000.0
G1 Z11.9000 F2500.0
G4 P0.02
G1 X38.7439 Y-267.3003 F2200.0
G1 Z0.0000 F2500.0
G4 P0.02
G0 X42.5269 Y-270.3101 F15000.0
G1 Z11.9000 F2500.0
G4 P0.02
G1 X41.4192 Y-267.1540 F2200.0
G1 Z0.0000 F2500.0
G4 P0.02
G0 X40.6041 Y-268.8261 F15000.0
G1 Z11.9000 F2500.0
G4 P0.02
G1 X41.4192 Y-269.7457 F2200.0
G1 X41.3147 Y-273.2571
G1 Z0.0000 F2500.0
G4 P0.02
G0 X43.9900 Y-272.9854 F15000.0
G1 Z11.9000 F2500.0
G4 P0.02
G1 X42.7360 Y-270.6026 F2200.0
G1 X41.5655 Y-267.5302
G1 X41.5864 Y-267.5929
G1 Z0.0000 F2500.0
G4 P0.02
G0 X38.7418 Y-267.2314 F15000.0
G1 Z11.9000 F2500.0
G4 P0.02
G1 X42.5249 Y-270.2411 F2200.0
G1 Z0.0000 F2500.0
G4 P0.02
G0 X41.4171 Y-267.0851 F15000.0
G1 Z11.9000 F2500.0
G4 P0.02
G1 X40.6021 Y-268.7572 F2200.0
G1 Z0.0000 F2500.0
G4 P0.02
G0 X41.3127 Y-273.1881 F15000.0
G1 Z11.9000 F2500.0
G4 P0.02
G1 X43.9880 Y-272.9164 F2200.0
G1 Z0.0000 F2500.0
G4 P0.02
G0 X41.5634 Y-267.4613 F15000.0
G1 Z11.9000 F2500.0
G4 P0.02
G1 X41.5843 Y-267.5240 F2200.0
G1 Z0.0000 F2500.0
G4 P0.02
G0 X34.8118 Y-267.3289 F15000.0
G1 Z11.9000 F2500.0
G4 P0.02
G1 X37.5080 Y-267.1616 F2200.0
G1 X38.4695 Y-269.5653
G1 Z0.0000 F2500.0
G4 P0.02
G0 X36.4630 Y-270.9029 F15000.0
G1 Z11.9000 F2500.0
G4 P0.02
G1 X36.6930 Y-271.4673 F2200.0
G1 X38.4277 Y-269.9624
G1 Z0.0000 F2500.0
G4 P0.02
G0 X40.0580 Y-272.9929 F15000.0
G1 Z11.9000 F2500.0
G4 P0.02
G1 X41.3214 Y-273.0305 F2200.0
G1 Z0.0000 F2500.0
G4 P0.02
G0 X36.2317 Y-273.0913 F15000.0
G1 Z11.9000 F2500.0
G4 P0.02
G1 X37.3809 Y-273.0912 F2200.0
G1 X34.8101 Y-267.2599
G1 Z0.0000 F2500.0
G4 P0.02
G0 X38.4678 Y-269.4963 F15000.0
G1 Z11.9000 F2500.0
G4 P0.02
G1 X36.2940 Y-269.8725 F2200.0
G1 X36.4613 Y-270.8339
G1 X36.6912 Y-271.3983
G1 Z0.0000 F2500.0
G4 P0.02
G0 X38.4259 Y-269.8934 F15000.0
G1 Z11.9000 F2500.0
G4 P0.02
G1 X38.7813 Y-270.2487 F2200.0
G1 X40.0563 Y-272.9241
G1 Z0.0000 F2500.0
G4 P0.02
G0 X37.1957 Y-272.7361 F15000.0
G1 Z11.9000 F2500.0
G4 P0.02
G1 X36.2334 Y-273.1603 F2200.0
G1 Z0.0000 F2500.0
G4 P0.02
G0 X33.8299 Y-267.4962 F15000.0
G1 Z11.9000 F2500.0
G4 P0.02
G1 X31.5934 Y-267.3917 F2200.0
G1 X34.0598 Y-268.0396
G1 Z0.0000 F2500.0
G4 P0.02
G0 X35.8153 Y-272.1989 F15000.0
G1 Z11.9000 F2500.0
G4 P0.02
G1 X36.7728 Y-271.7768 F2200.0
G1 Z0.0000 F2500.0
G4 P0.02
G0 X36.1703 Y-273.1882 F15000.0
G1 Z11.9000 F2500.0
G4 P0.02
G1 X33.7667 Y-267.5240 F2200.0
G1 Z0.0000 F2500.0
G4 P0.02
G0 X30.9123 Y-273.1721 F15000.0
G1 Z11.9000 F2500.0
G4 P0.02
G1 X28.7804 Y-272.2107 F2200.0
G1 X27.7563 Y-267.2989
G1 Z0.0000 F2500.0
G4 P0.02
G0 X29.3447 Y-268.1768 F15000.0
G1 Z11.9000 F2500.0
G4 P0.02
G1 X29.5328 Y-268.3649 F2200.0
G1 X30.7241 Y-272.6705
G1 Z0.0000 F2500.0
G4 P0.02
G0 X27.6916 Y-267.3232 F15000.0
G1 Z11.9000 F2500.0
G4 P0.02
G1 X29.2801 Y-268.2010 F2200.0
G1 X29.4682 Y-268.3891
G1 Z0.0000 F2500.0
G4 P0.02

G0 Z0.0000 F800.0
G4 P0.06
G0 X0.0000 Y0.0000 F15000.0
M5
G4 P0.10
$1=0
