$X
$1=255
G21
G90
G92 Z4.0000
G0 Z0.0000 F800.0
G4 P0.06
G92 Z0.0000
G0 Z0.0000 F800.0
G0 X0.0000 Y0.0000 F15000.0
G21
G90
G17
G91.1
G0 Z0.0000
G0 X16.3718 Y-179.3432 F15000.0
G1 Z11.9000 F2500.0
G4 P0.02
G1 X16.4346 Y-178.2355 F2200.0
G1 X16.7481 Y-177.8383
G1 X18.7336 Y-177.0232
G1 Z0.0000 F2500.0
G4 P0.02
G0 X17.5631 Y-174.8495 F15000.0
G1 Z11.9000 F2500.0
G4 P0.02
G1 X18.0021 Y-174.8704 F2200.0
G1 X18.2320 Y-174.9749
G1 X18.1065 Y-175.9154
G1 X17.7722 Y-176.3125
G1 X16.6226 Y-176.6052
G1 X16.3300 Y-176.3335
G1 X16.4136 Y-175.6646
G1 Z0.0000 F2500.0
G4 P0.02
G0 X16.5390 Y-179.5313 F15000.0
G1 Z11.9000 F2500.0
G4 P0.02
G1 X17.5631 Y-179.4059 F2200.0
G1 Z0.0000 F2500.0
G4 P0.02
G0 X16.5599 Y-175.4139 F15000.0
G1 Z11.9000 F2500.0
G4 P0.02
G1 X16.8317 Y-175.1421 F2200.0
G1 X17.2705 Y-174.9331
G1 Z0.0000 F2500.0
G4 P0.02
G0 X16.6435 Y-173.6791 F15000.0
G1 Z11.9000 F2500.0
G4 P0.02
G1 X16.7689 Y-173.5955 F2200.0
G1 Z0.0000 F2500.0
G4 P0.02
G0 X17.3959 Y-173.1775 F15000.0
G1 Z11.9000 F2500.0
G4 P0.02
G1 X17.6050 Y-173.0729 F2200.0
G1 X17.5841 Y-172.5714
G1 X17.7722 Y-172.0488
G1 X18.0229 Y-171.7143
G1 Z0.0000 F2500.0
G4 P0.02
G0 X17.6467 Y-172.9476 F15000.0
G1 Z11.9000 F2500.0
G4 P0.02
G1 X18.0857 Y-172.6967 F2200.0
G1 Z0.0000 F2500.0
G4 P0.02
G0 X17.6677 Y-173.1148 F15000.0
G1 Z11.9000 F2500.0
G4 P0.02
G1 X17.9185 Y-173.3864 F2200.0
G1 Z0.0000 F2500.0
G4 P0.02
G0 X17.9602 Y-179.2596 F15000.0
G1 Z11.9000 F2500.0
G4 P0.02
G1 X20.0713 Y-178.4444 F2200.0
G1 Z0.0000 F2500.0
G4 P0.02
G0 X18.0229 Y-173.4491 F15000.0
G1 Z11.9000 F2500.0
G4 P0.02
G1 X18.7545 Y-173.3447 F2200.0
G1 X19.4024 Y-172.8221
G1 X19.5487 Y-172.5504
G1 X19.6533 Y-171.7353
G1 X18.3783 Y-172.5086
G1 Z0.0000 F2500.0
G4 P0.02
G0 X18.1275 Y-175.8946 F15000.0
G1 Z11.9000 F2500.0
G4 P0.02
G1 X18.2529 Y-175.8110 F2200.0
G1 Z0.0000 F2500.0
G4 P0.02
G0 X18.2111 Y-171.5263 F15000.0
G1 Z11.9000 F2500.0
G4 P0.02
G1 X18.2529 Y-171.4844 F2200.0
G1 Z0.0000 F2500.0
G4 P0.02
G0 X18.2320 Y-174.9540 F15000.0
G1 Z11.9000 F2500.0
G4 P0.02
G1 X18.7963 Y-174.2643 F2200.0
G1 X19.7995 Y-173.8462
G1 X20.2593 Y-173.8462
G1 Z0.0000 F2500.0
G4 P0.02
G0 X18.4828 Y-175.9781 F15000.0
G1 Z11.9000 F2500.0
G4 P0.02
G1 X19.1935 Y-176.0200 F2200.0
G1 X20.0713 Y-175.6438
G1 X20.3639 Y-175.3093
G1 X20.5102 Y-174.9958
G1 X20.5102 Y-174.0762
G1 Z0.0000 F2500.0
G4 P0.02
G0 X18.5037 Y-171.3591 F15000.0
G1 Z11.9000 F2500.0
G4 P0.02
G1 X19.2352 Y-171.2545 F2200.0
G1 X19.5278 Y-171.4844
G1 Z0.0000 F2500.0
G4 P0.02
G0 X19.0680 Y-176.8978 F15000.0
G1 Z11.9000 F2500.0
G4 P0.02
G1 X19.5278 Y-176.7306 F2200.0
G1 X20.2593 Y-176.6470
G1 Z0.0000 F2500.0
G4 P0.02
G0 X19.6323 Y-171.6099 F15000.0
G1 Z11.9000 F2500.0
G4 P0.02
G1 X20.0921 Y-171.3382 F2200.0
G1 Z0.0000 F2500.0
G4 P0.02
G0 X20.3220 Y-178.1728 F15000.0
G1 Z11.9000 F2500.0
G4 P0.02
G1 X20.5311 Y-177.7338 F2200.0
G1 X20.5102 Y-176.8769
G1 Z0.0000 F2500.0
G4 P0.02
G0 X20.5311 Y-171.0456 F15000.0
G1 Z11.9000 F2500.0
G4 P0.02
G1 X20.5938 Y-171.0037 F2200.0
G1 Z0.0000 F2500.0
G4 P0.02
G0 X63.3601 Y-229.8686 F15000.0
G1 Z11.9000 F2500.0
G4 P0.02
G1 X64.6141 Y-230.0358 F2200.0
G1 X65.0531 Y-230.4329
G1 X65.4293 Y-231.3944
G1 X65.4293 Y-231.8333
G1 X65.2412 Y-232.1468
G1 X65.3248 Y-232.3557
G1 X65.7011 Y-232.6902
G1 Z0.0000 F2500.0
G4 P0.02
G0 X64.6769 Y-232.0841 F15000.0
G1 Z11.9000 F2500.0
G4 P0.02
G1 X65.2203 Y-232.1677 F2200.0
G1 Z0.0000 F2500.0
G4 P0.02
G0 X64.8650 Y-234.1114 F15000.0
G1 Z11.9000 F2500.0
G4 P0.02
G1 X65.7847 Y-234.0697 F2200.0
G1 X65.9518 Y-233.9234
G1 Z0.0000 F2500.0
G4 P0.02
G0 X65.7847 Y-229.8686 F15000.0
G1 Z11.9000 F2500.0
G4 P0.02
G1 X67.0387 Y-230.0358 F2200.0
G1 X67.2895 Y-230.2239
G1 Z0.0000 F2500.0
G4 P0.02
G0 X65.8682 Y-233.1082 F15000.0
G1 Z11.9000 F2500.0
G4 P0.02
G1 X65.8264 Y-233.0037 F2200.0
G1 X66.0354 Y-233.7352
G1 Z0.0000 F2500.0
G4 P0.02
G0 X67.7493 Y-232.0214 F15000.0
G1 Z11.9000 F2500.0
G4 P0.02
G1 X66.6416 Y-232.2094 F2200.0
G1 X66.8296 Y-232.8992
G1 Z0.0000 F2500.0
G4 P0.02
G0 X66.9551 Y-233.2336 F15000.0
G1 Z11.9000 F2500.0
G4 P0.02
G1 X66.9760 Y-233.2963 F2200.0
G1 Z0.0000 F2500.0
G4 P0.02
G0 X67.1641 Y-233.7979 F15000.0
G1 Z11.9000 F2500.0
G4 P0.02
G1 X67.2477 Y-234.0278 F2200.0
G1 Z0.0000 F2500.0
G4 P0.02
G0 X67.3313 Y-234.1114 F15000.0
G1 Z11.9000 F2500.0
G4 P0.02
G1 X68.8152 Y-234.1324 F2200.0
G1 Z0.0000 F2500.0
G4 P0.02
G0 X67.4985 Y-230.4329 F15000.0
G1 Z11.9000 F2500.0
G4 P0.02
G1 X67.7702 Y-231.1226 F2200.0
G1 X67.9165 Y-231.7706
G1 Z0.0000 F2500.0
G4 P0.02
G0 X71.6369 Y-241.7051 F15000.0
G1 Z11.9000 F2500.0
G4 P0.02
G1 X72.8909 Y-241.8724 F2200.0
G1 X73.4553 Y-242.5412
G1 X73.6852 Y-243.1892
G1 X73.7478 Y-243.6071
G1 Z0.0000 F2500.0
G4 P0.02
G0 X73.6642 Y-243.7953 F15000.0
G1 Z11.9000 F2500.0
G4 P0.02
G1 X73.3925 Y-243.9625 F2200.0
G1 X72.4938 Y-244.0461
G1 X72.6819 Y-244.7567
G1 Z0.0000 F2500.0
G4 P0.02
G0 X72.8491 Y-245.2165 F15000.0
G1 Z11.9000 F2500.0
G4 P0.02
G1 X73.0790 Y-245.8645 F2200.0
G1 Z0.0000 F2500.0
G4 P0.02
G0 X73.1626 Y-245.9481 F15000.0
G1 Z11.9000 F2500.0
G4 P0.02
G1 X74.6674 Y-245.9689 F2200.0
G1 Z0.0000 F2500.0
G4 P0.02
G0 X74.0614 Y-241.7051 F15000.0
G1 Z11.9000 F2500.0
G4 P0.02
G1 X75.3154 Y-241.8724 F2200.0
G1 X75.5662 Y-242.0605
G1 Z0.0000 F2500.0
G4 P0.02
G0 X75.3990 Y-243.9206 F15000.0
G1 Z11.9000 F2500.0
G4 P0.02
G1 X75.9215 Y-244.0042 F2200.0
G1 X76.2142 Y-244.3387
G1 X76.5694 Y-244.9448
G1 Z0.0000 F2500.0
G4 P0.02
G0 X75.5871 Y-245.9481 F15000.0
G1 Z11.9000 F2500.0
G4 P0.02
G1 X76.6530 Y-245.7599 F2200.0
G1 Z0.0000 F2500.0
G4 P0.02
G0 X75.7752 Y-242.2695 F15000.0
G1 Z11.9000 F2500.0
G4 P0.02
G1 X76.0678 Y-243.0220 F2200.0
G1 X76.1723 Y-243.6071
G1 X75.9424 Y-243.9834
G1 Z0.0000 F2500.0
G4 P0.02
G0 X76.1096 Y-243.1264 F15000.0
G1 Z11.9000 F2500.0
G4 P0.02
G1 X76.1306 Y-243.1892 F2200.0
G1 Z0.0000 F2500.0
G4 P0.02
G0 X76.6740 Y-245.2165 F15000.0
G1 Z11.9000 F2500.0
G4 P0.02
G1 X76.7366 Y-245.5718 F2200.0
G1 Z0.0000 F2500.0
G4 P0.02
G0 X93.7543 Y-99.4847 F15000.0
G1 Z11.9000 F2500.0
G4 P0.02
G1 X95.0919 Y-103.3304 F2200.0
G1 X95.3845 Y-103.8111
G1 Z0.0000 F2500.0
G4 P0.02
G0 X93.8379 Y-102.5780 F15000.0
G1 Z11.9000 F2500.0
G4 P0.02
G1 X94.2350 Y-102.9124 F2200.0
G1 Z0.0000 F2500.0
G4 P0.02
G0 X94.5276 Y-103.1005 F15000.0
G1 Z11.9000 F2500.0
G4 P0.02
G1 X94.7993 Y-103.2886 F2200.0
G1 X95.0710 Y-103.3513
G1 Z0.0000 F2500.0
G4 P0.02
G0 X94.9666 Y-100.5506 F15000.0
G1 Z11.9000 F2500.0
G4 P0.02
G1 X94.8411 Y-100.1535 F2200.0
G1 X94.8411 Y-99.7772
G1 X94.9247 Y-99.6310
G1 Z0.0000 F2500.0
G4 P0.02
G0 X95.0919 Y-99.4637 F15000.0
G1 Z11.9000 F2500.0
G4 P0.02
G1 X95.9280 Y-99.4220 F2200.0
G1 X96.3669 Y-99.6310
G1 X96.6595 Y-99.8818
G1 X96.9521 Y-100.5088
G1 Z0.0000 F2500.0
G4 P0.02
G0 X95.1128 Y-100.9268 F15000.0
G1 Z11.9000 F2500.0
G4 P0.02
G1 X95.5936 Y-102.2018 F2200.0
G1 X95.5517 Y-102.0973
G1 Z0.0000 F2500.0
G4 P0.02
G0 X95.6980 Y-102.4735 F15000.0
G1 Z11.9000 F2500.0
G4 P0.02
G1 X96.0743 Y-103.2468 F2200.0
G1 X96.4296 Y-103.5185
G1 X97.4537 Y-103.6439
G1 X97.5792 Y-103.6021
G1 Z0.0000 F2500.0
G4 P0.02
G0 X95.8235 Y-102.7870 F15000.0
G1 Z11.9000 F2500.0
G4 P0.02
G1 X95.8652 Y-102.8915 F2200.0
G1 Z0.0000 F2500.0
G4 P0.02
G0 X95.9698 Y-99.4428 F15000.0
G1 Z11.9000 F2500.0
G4 P0.02
G1 X96.0951 Y-99.5056 F2200.0
G1 Z0.0000 F2500.0
G4 P0.02
G0 X97.1611 Y-101.0941 F15000.0
G1 Z11.9000 F2500.0
G4 P0.02
G1 X97.7464 Y-103.4349 F2200.0
G1 Z0.0000 F2500.0
G4 P0.02
G0 X97.3074 Y-99.3593 F15000.0
G1 Z11.9000 F2500.0
G4 P0.02
G1 X97.5792 Y-99.4637 F2200.0
G1 X100.5053 Y-102.7243
G1 X100.5261 Y-103.2677
G1 Z0.0000 F2500.0
G4 P0.02
G0 X97.6000 Y-99.4637 F15000.0
G1 Z11.9000 F2500.0
G4 P0.02
G1 X99.3766 Y-99.4637 F2200.0
G1 Z0.0000 F2500.0
G4 P0.02
G0 X98.6451 Y-102.8915 F15000.0
G1 Z11.9000 F2500.0
G4 P0.02
G1 X99.1676 Y-103.4140 F2200.0
G1 Z0.0000 F2500.0
G4 P0.02
G0 X99.4393 Y-103.5395 F15000.0
G1 Z11.9000 F2500.0
G4 P0.02
G1 X100.1918 Y-103.5812 F2200.0
G1 X100.4634 Y-103.3931
G1 Z0.0000 F2500.0
G4 P0.02
G0 X122.2917 Y-116.1187 F15000.0
G1 Z11.9000 F2500.0
G4 P0.02
G1 X122.5635 Y-116.7457 F2200.0
G1 X122.6261 Y-117.1011
G1 X121.4975 Y-117.1429
G1 X121.8738 Y-117.9580
G1 Z0.0000 F2500.0
G4 P0.02
G0 X122.1873 Y-118.5224 F15000.0
G1 Z11.9000 F2500.0
G4 P0.02
G1 X122.8770 Y-119.7137 F2200.0
G1 X122.8143 Y-119.6092
G1 Z0.0000 F2500.0
G4 P0.02
G0 X122.6680 Y-117.1011 F15000.0
G1 Z11.9000 F2500.0
G4 P0.02
G1 X122.7516 Y-117.1011 F2200.0
G1 X123.0859 Y-118.0626
G1 Z0.0000 F2500.0
G4 P0.02
G0 X122.7934 Y-117.1011 F15000.0
G1 Z11.9000 F2500.0
G4 P0.02
G1 X123.3577 Y-117.1429 F2200.0
G1 Z0.0000 F2500.0
G4 P0.02
G0 X123.1905 Y-120.2780 F15000.0
G1 Z11.9000 F2500.0
G4 P0.02
G1 X123.2322 Y-120.3616 F2200.0
G1 Z0.0000 F2500.0
G4 P0.02
G0 X123.9220 Y-116.1187 F15000.0
G1 Z11.9000 F2500.0
G4 P0.02
G1 X125.2388 Y-116.3277 F2200.0
G1 X125.3850 Y-116.4532
G1 Z0.0000 F2500.0
G4 P0.02
G0 X125.2388 Y-118.3342 F15000.0
G1 Z11.9000 F2500.0
G4 P0.02
G1 X125.7822 Y-118.4178 F2200.0
G1 X125.9912 Y-118.0626
G1 X126.0121 Y-117.6863
G1 X125.6149 Y-116.6831
G1 Z0.0000 F2500.0
G4 P0.02
G0 X125.4269 Y-120.3616 F15000.0
G1 Z11.9000 F2500.0
G4 P0.02
G1 X126.4092 Y-120.2571 F2200.0
G1 Z0.0000 F2500.0
G4 P0.02
G0 X125.8240 Y-118.4805 F15000.0
G1 Z11.9000 F2500.0
G4 P0.02
G1 X126.1375 Y-118.8149 F2200.0
G1 X126.4092 Y-119.3583
G1 Z0.0000 F2500.0
G4 P0.02
G0 X126.4928 Y-120.1735 F15000.0
G1 Z11.9000 F2500.0
G4 P0.02
G1 X126.5137 Y-119.6301 F2200.0
G1 Z0.0000 F2500.0
G4 P0.02
G0 X62.7178 Y-116.1187 F15000.0
G1 Z11.9000 F2500.0
G4 P0.02
G1 X63.9719 Y-116.2859 F2200.0
G1 X64.4108 Y-116.6831
G1 X64.7870 Y-117.6445
G1 X64.7870 Y-118.0834
G1 X64.5989 Y-118.3969
G1 X64.6825 Y-118.6060
G1 X65.0587 Y-118.9403
G1 Z0.0000 F2500.0
G4 P0.02
G0 X64.0346 Y-118.3342 F15000.0
G1 Z11.9000 F2500.0
G4 P0.02
G1 X64.5780 Y-118.4178 F2200.0
G1 Z0.0000 F2500.0
G4 P0.02
G0 X64.2227 Y-120.3616 F15000.0
G1 Z11.9000 F2500.0
G4 P0.02
G1 X65.1423 Y-120.3198 F2200.0
G1 X65.3095 Y-120.1735
G1 Z0.0000 F2500.0
G4 P0.02
G0 X65.1841 Y-119.2538 F15000.0
G1 Z11.9000 F2500.0
G4 P0.02
G1 X65.3931 Y-119.9854 F2200.0
G1 Z0.0000 F2500.0
G4 P0.02
G0 X66.3337 Y-116.1187 F15000.0
G1 Z11.9000 F2500.0
G4 P0.02
G1 X66.6263 Y-116.8084 F2200.0
G1 X66.6472 Y-117.1011
G1 X65.5394 Y-117.1638
G1 X65.6021 Y-117.4146
G1 Z0.0000 F2500.0
G4 P0.02
G0 X65.8320 Y-117.8326 F15000.0
G1 Z11.9000 F2500.0
G4 P0.02
G1 X66.6053 Y-119.1911 F2200.0
G1 Z0.0000 F2500.0
G4 P0.02
G0 X66.6889 Y-117.1011 F15000.0
G1 Z11.9000 F2500.0
G4 P0.02
G1 X66.7935 Y-117.1011 F2200.0
G1 X67.0861 Y-117.9789
G1 Z0.0000 F2500.0
G4 P0.02
G0 X66.8352 Y-117.1011 F15000.0
G1 Z11.9000 F2500.0
G4 P0.02
G1 X67.3996 Y-117.1429 F2200.0
G1 Z0.0000 F2500.0
G4 P0.02
G0 X66.8980 Y-119.7137 F15000.0
G1 Z11.9000 F2500.0
G4 P0.02
G1 X67.2742 Y-120.3616 F2200.0
G1 Z0.0000 F2500.0
G4 P0.02
G0 X32.0986 Y-126.3611 F15000.0
G1 Z11.9000 F2500.0
G4 P0.02
G1 X33.3527 Y-126.5284 F2200.0
G1 X33.7916 Y-126.9255
G1 X34.1678 Y-127.8868
G1 X34.1678 Y-128.3258
G1 X33.9798 Y-128.6393
G1 X34.0633 Y-128.8483
G1 X34.4396 Y-129.1827
G1 X34.7739 Y-130.2278
G1 X34.5232 Y-130.5622
G1 X33.6035 Y-130.6040
G1 Z0.0000 F2500.0
G4 P0.02
G0 X33.9588 Y-128.6602 F15000.0
G1 Z11.9000 F2500.0
G4 P0.02
G1 X33.4154 Y-128.5766 F2200.0
G1 Z0.0000 F2500.0
G4 P0.02
G0 X35.1919 Y-128.5557 F15000.0
G1 Z11.9000 F2500.0
G4 P0.02
G1 X36.0907 Y-127.0508 F2200.0
G1 X35.5264 Y-127.6779
G1 X34.5649 Y-127.0508
G1 X34.4396 Y-126.8627
G1 Z0.0000 F2500.0
G4 P0.02
G0 X35.9444 Y-128.0123 F15000.0
G1 Z11.9000 F2500.0
G4 P0.02
G1 X36.8013 Y-128.6184 F2200.0
G1 X36.8640 Y-128.7647
G1 X37.6234 Y-128.2302
G1 X37.2262 Y-127.3942
G1 X38.3757 Y-127.3315
G1 X38.0832 Y-126.4746
G1 Z0.0000 F2500.0
G4 P0.02
G0 X38.3757 Y-127.3315 F15000.0
G1 Z11.9000 F2500.0
G4 P0.02
G1 X38.4803 Y-127.3524 F2200.0
G1 X38.8146 Y-128.2930
G1 X38.9401 Y-127.3315
G1 X38.5220 Y-127.3524
G1 Z0.0000 F2500.0
G4 P0.02
G0 X39.6416 Y-126.3619 F15000.0
G1 Z11.9000 F2500.0
G4 P0.02
G1 X40.8956 Y-126.5291 F2200.0
G1 X41.4181 Y-127.0935
G1 X41.6898 Y-127.8458
G1 X41.7525 Y-128.2639
G1 X41.6689 Y-128.4520
G1 X41.3973 Y-128.6192
G1 X40.4985 Y-128.7028
G1 X41.0838 Y-130.5211
G1 X41.1674 Y-130.6047
G1 X42.6722 Y-130.6257
G1 X43.5495 Y-130.3648
G1 X43.6122 Y-130.4066
G1 X43.3196 Y-129.7587
G1 X43.4659 Y-130.3230
G1 X44.0720 Y-130.4902
G1 X44.1139 Y-129.9467
G1 X43.8212 Y-129.7168
G1 X43.3823 Y-129.6960
G1 Z0.0000 F2500.0
G4 P0.02
G0 X41.4599 Y-127.1979 F15000.0
G1 Z11.9000 F2500.0
G4 P0.02
G1 X41.4390 Y-127.1352 F2200.0
G1 Z0.0000 F2500.0
G4 P0.02
G0 X37.9577 Y-128.8364 F15000.0
G1 Z11.9000 F2500.0
G4 P0.02
G1 X38.9610 Y-130.6129 F2200.0
G1 Z0.0000 F2500.0
G4 P0.02
G0 X34.6531 Y-172.9235 F15000.0
G1 Z11.9000 F2500.0
G4 P0.02
G1 X35.1129 Y-172.9235 F2200.0
G1 X36.6596 Y-172.1920
G1 Z0.0000 F2500.0
G4 P0.02
G0 X37.1403 Y-177.8353 F15000.0
G1 Z11.9000 F2500.0
G4 P0.02
G1 X35.1547 Y-178.6503 F2200.0
G1 X34.7158 Y-179.3192
G1 X34.8412 Y-180.2388
G1 X34.9457 Y-180.3643
G1 X35.9698 Y-180.2180
G1 Z0.0000 F2500.0
G4 P0.02
G0 X34.7785 Y-177.2291 F15000.0
G1 Z11.9000 F2500.0
G4 P0.02
G1 X34.8203 Y-176.1422 F2200.0
G1 Z0.0000 F2500.0
G4 P0.02
G0 X34.9457 Y-177.4172 F15000.0
G1 Z11.9000 F2500.0
G4 P0.02
G1 X35.4683 Y-177.4172 F2200.0
G1 Z0.0000 F2500.0
G4 P0.02
G0 X35.0085 Y-175.3271 F15000.0
G1 Z11.9000 F2500.0
G4 P0.02
G1 X35.1547 Y-175.2226 F2200.0
G1 X35.2592 Y-174.9718
G1 Z0.0000 F2500.0
G4 P0.02
G0 X35.1756 Y-172.9862 F15000.0
G1 Z11.9000 F2500.0
G4 P0.02
G1 X36.7640 Y-173.3416 F2200.0
G1 Z0.0000 F2500.0
G4 P0.02
G0 X35.1965 Y-175.2435 F15000.0
G1 Z11.9000 F2500.0
G4 P0.02
G1 X37.4747 Y-174.4911 F2200.0
G1 Z0.0000 F2500.0
G4 P0.02
G0 X35.7399 Y-177.3127 F15000.0
G1 Z11.9000 F2500.0
G4 P0.02
G1 X36.1580 Y-177.1664 F2200.0
G1 X36.4924 Y-176.7693
G1 X36.6596 Y-176.6857
G1 X37.4538 Y-176.8947
G1 X38.4361 Y-176.4976
G1 X38.7706 Y-176.1422
G1 X38.8959 Y-175.8287
G1 X39.1050 Y-174.5747
G1 Z0.0000 F2500.0
G4 P0.02
G0 X36.0743 Y-174.1357 F15000.0
G1 Z11.9000 F2500.0
G4 P0.02
G1 X36.6596 Y-173.4043 F2200.0
G1 Z0.0000 F2500.0
G4 P0.02
G0 X36.3669 Y-180.0716 F15000.0
G1 Z11.9000 F2500.0
G4 P0.02
G1 X38.4780 Y-179.2565 F2200.0
G1 Z0.0000 F2500.0
G4 P0.02
G0 X36.6804 Y-176.6647 F15000.0
G1 Z11.9000 F2500.0
G4 P0.02
G1 X36.8059 Y-176.0796 F2200.0
G1 Z0.0000 F2500.0
G4 P0.02
G0 X37.4747 Y-177.7098 F15000.0
G1 Z11.9000 F2500.0
G4 P0.02
G1 X38.1853 Y-177.4590 F2200.0
G1 X38.7496 Y-177.5008
G1 X38.8332 Y-177.5844
G1 X38.9169 Y-178.5667
G1 X38.7288 Y-178.9848
G1 Z0.0000 F2500.0
G4 P0.02
G0 X37.7255 Y-171.7949 F15000.0
G1 Z11.9000 F2500.0
G4 P0.02
G1 X39.0005 Y-171.3141 F2200.0
G1 Z0.0000 F2500.0
G4 P0.02
G0 X37.7674 Y-174.3866 F15000.0
G1 Z11.9000 F2500.0
G4 P0.02
G1 X38.8959 Y-173.9686 F2200.0
G1 Z0.0000 F2500.0
G4 P0.02
G0 X163.4551 Y-186.6224 F15000.0
G1 Z11.9000 F2500.0
G4 P0.02
G1 X163.4970 Y-185.0966 F2200.0
G1 X164.1240 Y-184.8667
G1 Z0.0000 F2500.0
G4 P0.02
G0 X163.7686 Y-183.6963 F15000.0
G1 Z11.9000 F2500.0
G4 P0.02
G1 X163.9986 Y-183.5291 F2200.0
G1 Z0.0000 F2500.0
G4 P0.02
G0 X163.8522 Y-187.9601 F15000.0
G1 Z11.9000 F2500.0
G4 P0.02
G1 X164.8137 Y-187.4167 F2200.0
G1 Z0.0000 F2500.0
G4 P0.02
G0 X164.2285 Y-184.8250 F15000.0
G1 Z11.9000 F2500.0
G4 P0.02
G1 X165.6498 Y-185.6819 F2200.0
G1 X166.3604 Y-185.6400
G1 X167.1337 Y-185.3265
G1 X167.4890 Y-184.9713
G1 X167.8234 Y-183.4037
G1 Z0.0000 F2500.0
G4 P0.02
G0 X164.5211 Y-183.1738 F15000.0
G1 Z11.9000 F2500.0
G4 P0.02
G1 X164.7301 Y-183.0693 F2200.0
G1 X164.7510 Y-182.3587
G1 X164.8973 Y-182.0452
G1 X165.3571 Y-181.5017
G1 X166.3604 Y-181.2509
G1 X166.6739 Y-181.4808
G1 Z0.0000 F2500.0
G4 P0.02
G0 X164.7719 Y-182.9648 F15000.0
G1 Z11.9000 F2500.0
G4 P0.02
G1 X164.9600 Y-182.8811 F2200.0
G1 Z0.0000 F2500.0
G4 P0.02
G0 X164.7928 Y-183.1110 F15000.0
G1 Z11.9000 F2500.0
G4 P0.02
G1 X165.0436 Y-183.3828 F2200.0
G1 X165.7334 Y-183.4037
G1 X166.0050 Y-183.2783
G1 Z0.0000 F2500.0
G4 P0.02
G0 X165.2317 Y-187.1868 F15000.0
G1 Z11.9000 F2500.0
G4 P0.02
G1 X166.1096 Y-186.6851 F2200.0
G1 Z0.0000 F2500.0
G4 P0.02
G0 X165.8587 Y-188.0018 F15000.0
G1 Z11.9000 F2500.0
G4 P0.02
G1 X166.6947 Y-187.7302 F2200.0
G1 X166.7366 Y-188.1690
G1 Z0.0000 F2500.0
G4 P0.02
G0 X166.3395 Y-183.0066 F15000.0
G1 Z11.9000 F2500.0
G4 P0.02
G1 X166.6739 Y-182.5467 F2200.0
G1 X166.7575 Y-181.6062
G1 X166.9874 Y-181.5017
G1 Z0.0000 F2500.0
G4 P0.02
G0 X166.3812 Y-186.5388 F15000.0
G1 Z11.9000 F2500.0
G4 P0.02
G1 X166.6530 Y-186.4761 F2200.0
G1 X166.7366 Y-187.5630
G1 X167.6980 Y-187.2494
G1 Z0.0000 F2500.0
G4 P0.02
G0 X166.5276 Y-181.8153 F15000.0
G1 Z11.9000 F2500.0
G4 P0.02
G1 X166.7366 Y-181.7107 F2200.0
G1 Z0.0000 F2500.0
G4 P0.02
G0 X166.7157 Y-187.7092 F15000.0
G1 Z11.9000 F2500.0
G4 P0.02
G1 X166.7366 Y-187.5839 F2200.0
G1 Z0.0000 F2500.0
G4 P0.02
G0 X167.6144 Y-181.0837 F15000.0
G1 Z11.9000 F2500.0
G4 P0.02
G1 X167.7398 Y-181.0001 F2200.0
G1 Z0.0000 F2500.0
G4 P0.02
G0 X148.4523 Y-185.5268 F15000.0
G1 Z11.9000 F2500.0
G4 P0.02
G1 X149.4138 Y-184.9834 F2200.0
G1 Z0.0000 F2500.0
G4 P0.02
G0 X148.4523 Y-183.6458 F15000.0
G1 Z11.9000 F2500.0
G4 P0.02
G1 X149.3302 Y-183.0815 F2200.0
G1 X149.3510 Y-182.3708
G1 X149.4973 Y-182.0573
G1 X149.9572 Y-181.5139
G1 X151.0440 Y-181.3049
G1 X151.1694 Y-181.3885
G1 Z0.0000 F2500.0
G4 P0.02
G0 X149.3719 Y-182.9561 F15000.0
G1 Z11.9000 F2500.0
G4 P0.02
G1 X149.5601 Y-182.8725 F2200.0
G1 Z0.0000 F2500.0
G4 P0.02
G0 X149.3928 Y-183.1233 F15000.0
G1 Z11.9000 F2500.0
G4 P0.02
G1 X149.5601 Y-183.3323 F2200.0
G1 X150.0616 Y-183.4786
G1 X150.7305 Y-183.2069
G1 X151.1276 Y-182.8098
G1 Z0.0000 F2500.0
G4 P0.02
G0 X149.8317 Y-184.7535 F15000.0
G1 Z11.9000 F2500.0
G4 P0.02
G1 X150.7096 Y-184.2519 F2200.0
G1 Z0.0000 F2500.0
G4 P0.02
G0 X150.4587 Y-185.5687 F15000.0
G1 Z11.9000 F2500.0
G4 P0.02
G1 X151.2948 Y-185.2969 F2200.0
G1 X151.3366 Y-185.7359
G1 Z0.0000 F2500.0
G4 P0.02
G0 X150.9813 Y-184.1056 F15000.0
G1 Z11.9000 F2500.0
G4 P0.02
G1 X151.2530 Y-184.0429 F2200.0
G1 X151.3366 Y-185.1297
G1 X152.2980 Y-184.8162
G1 Z0.0000 F2500.0
G4 P0.02
G0 X151.1276 Y-181.8274 F15000.0
G1 Z11.9000 F2500.0
G4 P0.02
G1 X151.3366 Y-181.7229 F2200.0
G1 X151.3575 Y-181.5975
G1 X151.9009 Y-181.2840
G1 Z0.0000 F2500.0
G4 P0.02
G0 X151.3157 Y-185.2760 F15000.0
G1 Z11.9000 F2500.0
G4 P0.02
G1 X151.3366 Y-185.1507 F2200.0
G1 Z0.0000 F2500.0
G4 P0.02
G0 X151.3157 Y-182.4544 F15000.0
G1 Z11.9000 F2500.0
G4 P0.02
G1 X151.3784 Y-181.7438 F2200.0
G1 Z0.0000 F2500.0
G4 P0.02
G0 X152.2771 Y-181.0332 F15000.0
G1 Z11.9000 F2500.0
G4 P0.02
G1 X152.3399 Y-180.9914 F2200.0
G1 Z0.0000 F2500.0
G4 P0.02
G0 X177.9402 Y-199.4565 F15000.0
G1 Z11.9000 F2500.0
G4 P0.02
G1 X178.0029 Y-198.3488 F2200.0
G1 X178.3164 Y-197.9516
G1 X180.0000 Y-197.2605
G1 Z0.0000 F2500.0
G4 P0.02
G0 X179.1315 Y-194.9628 F15000.0
G1 Z11.9000 F2500.0
G4 P0.02
G1 X179.5705 Y-194.9837 F2200.0
G1 X179.8004 Y-195.0882
G1 X179.6750 Y-196.0287
G1 X179.3406 Y-196.4259
G1 X178.1910 Y-196.7184
G1 X177.8984 Y-196.4468
G1 X177.9820 Y-195.7779
G1 Z0.0000 F2500.0
G4 P0.02
G0 X178.1074 Y-199.6446 F15000.0
G1 Z11.9000 F2500.0
G4 P0.02
G1 X179.1315 Y-199.5192 F2200.0
G1 Z0.0000 F2500.0
G4 P0.02
G0 X178.1283 Y-195.5271 F15000.0
G1 Z11.9000 F2500.0
G4 P0.02
G1 X178.4000 Y-195.2554 F2200.0
G1 X178.8389 Y-195.0464
G1 Z0.0000 F2500.0
G4 P0.02
G0 X178.2119 Y-193.7923 F15000.0
G1 Z11.9000 F2500.0
G4 P0.02
G1 X178.3373 Y-193.7087 F2200.0
G1 Z0.0000 F2500.0
G4 P0.02
G0 X178.9644 Y-193.2908 F15000.0
G1 Z11.9000 F2500.0
G4 P0.02
G1 X179.1733 Y-193.1862 F2200.0
G1 X179.4869 Y-193.4997
G1 Z0.0000 F2500.0
G4 P0.02
G0 X179.6541 Y-192.8100 F15000.0
G1 Z11.9000 F2500.0
G4 P0.02
G1 X179.1943 Y-193.1653 F2200.0
G1 X179.1524 Y-192.6846
G1 X179.3406 Y-192.1621
G1 X179.5914 Y-191.8277
G1 Z0.0000 F2500.0
G4 P0.02
G0 X179.5286 Y-199.3729 F15000.0
G1 Z11.9000 F2500.0
G4 P0.02
G1 X180.0000 Y-199.1909 F2200.0
G1 Z0.0000 F2500.0
G4 P0.02
G0 X179.5914 Y-193.5624 F15000.0
G1 Z11.9000 F2500.0
G4 P0.02
G1 X180.0000 Y-193.5041 F2200.0
G1 Z0.0000 F2500.0
G4 P0.02
G0 X180.0000 Y-192.5896 F15000.0
G1 Z11.9000 F2500.0
G4 P0.02
G1 X179.9467 Y-192.6219 F2200.0
G1 Z0.0000 F2500.0
G4 P0.02
G0 X179.6958 Y-196.0078 F15000.0
G1 Z11.9000 F2500.0
G4 P0.02
G1 X179.8213 Y-195.9242 F2200.0
G1 Z0.0000 F2500.0
G4 P0.02
G0 X179.7794 Y-191.6396 F15000.0
G1 Z11.9000 F2500.0
G4 P0.02
G1 X179.8213 Y-191.5978 F2200.0
G1 Z0.0000 F2500.0
G4 P0.02
G0 X179.8004 Y-195.0673 F15000.0
G1 Z11.9000 F2500.0
G4 P0.02
G1 X180.0000 Y-194.8233 F2200.0
G1 Z0.0000 F2500.0
G4 P0.02
G0 X103.4412 Y-188.9305 F15000.0
G1 Z11.9000 F2500.0
G4 P0.02
G1 X103.4412 Y-188.6379 F2200.0
G1 X103.6711 Y-187.9899
G1 X104.1728 Y-187.5510
G1 X104.5908 Y-187.4674
G1 X105.7613 Y-187.4674
G1 Z0.0000 F2500.0
G4 P0.02
G0 X103.5249 Y-189.0977 F15000.0
G1 Z11.9000 F2500.0
G4 P0.02
G1 X103.5666 Y-189.1394 F2200.0
G1 Z0.0000 F2500.0
G4 P0.02
G0 X103.7757 Y-189.2858 F15000.0
G1 Z11.9000 F2500.0
G4 P0.02
G1 X105.0297 Y-189.2649 F2200.0
G1 X105.6985 Y-189.1604
G1 X105.8657 Y-188.4288
G1 X105.8657 Y-187.5301
G1 Z0.0000 F2500.0
G4 P0.02
G0 X105.7613 Y-189.1394 F15000.0
G1 Z11.9000 F2500.0
G4 P0.02
G1 X106.3047 Y-189.0767 F2200.0
G1 X106.8062 Y-188.8468
G1 Z0.0000 F2500.0
G4 P0.02
G0 X107.0571 Y-188.7215 F15000.0
G1 Z11.9000 F2500.0
G4 P0.02
G1 X108.0812 Y-187.7810 F2200.0
G1 X108.2693 Y-187.6973
G1 Z0.0000 F2500.0
G4 P0.02
G0 X104.1994 Y-186.2369 F15000.0
G1 Z11.9000 F2500.0
G4 P0.02
G1 X104.1994 Y-185.9443 F2200.0
G1 X104.6593 Y-185.0455
G1 X105.1609 Y-184.7738
G1 X108.5050 Y-184.5439
G1 Z0.0000 F2500.0
G4 P0.02
G0 X104.2830 Y-186.4041 F15000.0
G1 Z11.9000 F2500.0
G4 P0.02
G1 X104.3249 Y-186.4459 F2200.0
G1 Z0.0000 F2500.0
G4 P0.02
G0 X104.5339 Y-186.5922 F15000.0
G1 Z11.9000 F2500.0
G4 P0.02
G1 X107.7317 Y-186.3832 F2200.0
G1 X108.6096 Y-185.8398
G1 X108.7976 Y-185.2545
G1 X108.6096 Y-184.6066
G1 Z0.0000 F2500.0
G4 P0.02
G0 X108.3096 Y-183.5028 F15000.0
G1 Z11.9000 F2500.0
G4 P0.02
G1 X108.5185 Y-183.0640 F2200.0
G1 X109.1038 Y-182.8967
G1 X109.2501 Y-183.0430
G1 X109.2292 Y-183.3775
G1 X109.0202 Y-183.5864
G1 X108.3305 Y-183.5446
G1 Z0.0000 F2500.0
G4 P0.02
G0 X109.1038 Y-183.5028 F15000.0
G1 Z11.9000 F2500.0
G4 P0.02
G1 X109.1665 Y-183.4402 F2200.0
G1 Z0.0000 F2500.0
G4 P0.02
G0 X48.1607 Y-175.4442 F15000.0
G1 Z11.9000 F2500.0
G4 P0.02
G1 X64.2782 Y-175.4442 F12000.0
G1 Z0.0000 F2500.0
G4 P0.02
G0 X65.6797 Y-175.4442 F15000.0
G1 Z11.9000 F2500.0
G4 P0.02
G1 X67.1591 Y-175.4442 F2200.0
G1 Z0.0000 F2500.0
G4 P0.02
G0 X68.4828 Y-175.4442 F15000.0
G1 Z11.9000 F2500.0
G4 P0.02
G1 X84.6782 Y-175.4442 F12000.0
G1 Z0.0000 F2500.0
G4 P0.02
G0 X86.0019 Y-175.4442 F15000.0
G1 Z11.9000 F2500.0
G4 P0.02
G1 X87.4813 Y-175.4442 F2200.0
G1 Z0.0000 F2500.0
G4 P0.02
G0 X88.8828 Y-175.4442 F15000.0
G1 Z11.9000 F2500.0
G4 P0.02
G1 X105.0004 Y-175.4442 F12000.0
G1 Z0.0000 F2500.0
G4 P0.02
G0 X106.4019 Y-175.4442 F15000.0
G1 Z11.9000 F2500.0
G4 P0.02
G1 X107.8034 Y-175.4442 F2200.0
G1 Z0.0000 F2500.0
G4 P0.02
G0 X109.2049 Y-175.4442 F15000.0
G1 Z11.9000 F2500.0
G4 P0.02
G1 X125.3224 Y-175.4442 F12000.0
G1 Z0.0000 F2500.0
G4 P0.02
G0 X126.7239 Y-175.4442 F15000.0
G1 Z11.9000 F2500.0
G4 P0.02
G1 X128.1255 Y-175.4442 F2200.0
G1 Z0.0000 F2500.0
G4 P0.02
G0 X129.5270 Y-175.4442 F15000.0
G1 Z11.9000 F2500.0
G4 P0.02
G1 X145.6445 Y-175.4442 F12000.0
G1 Z0.0000 F2500.0
G4 P0.02
G0 X149.9839 Y-228.1939 F15000.0
G1 Z11.9000 F2500.0
G4 P0.02
G1 X151.4051 Y-232.1233 F2200.0
G1 X151.5933 Y-232.3950
G1 Z0.0000 F2500.0
G4 P0.02
G0 X150.0675 Y-231.2455 F15000.0
G1 Z11.9000 F2500.0
G4 P0.02
G1 X150.2974 Y-231.4754 F2200.0
G1 Z0.0000 F2500.0
G4 P0.02
G0 X150.7990 Y-231.8098 F15000.0
G1 Z11.9000 F2500.0
G4 P0.02
G1 X151.3007 Y-232.0397 F2200.0
G1 Z0.0000 F2500.0
G4 P0.02
G0 X150.3865 Y-227.4013 F15000.0
G1 Z11.9000 F2500.0
G4 P0.02
G1 X150.2402 Y-227.2759 F2200.0
G1 X150.8672 Y-228.1746
G1 Z0.0000 F2500.0
G4 P0.02
G0 X152.7623 Y-230.6984 F15000.0
G1 Z11.9000 F2500.0
G4 P0.02
G1 X152.6996 Y-230.4057 F2200.0
G1 X154.2044 Y-230.1967
G1 X154.2671 Y-230.1131
G1 X154.2044 Y-229.4444
G1 X153.9328 Y-228.7128
G1 X153.4311 Y-228.2321
G1 X153.1386 Y-228.1067
G1 X152.2607 Y-228.1694
G1 X152.0726 Y-228.3574
G1 X152.1980 Y-229.2353
G1 Z0.0000 F2500.0
G4 P0.02
G0 X152.3025 Y-229.5280 F15000.0
G1 Z11.9000 F2500.0
G4 P0.02
G1 X152.5951 Y-230.3430 F2200.0
G1 Z0.0000 F2500.0
G4 P0.02
G0 X153.0758 Y-231.1582 F15000.0
G1 Z11.9000 F2500.0
G4 P0.02
G1 X153.8909 Y-231.9524 F2200.0
G1 X154.6016 Y-232.3077
G1 Z0.0000 F2500.0
G4 P0.02
G0 X153.3266 Y-231.4717 F15000.0
G1 Z11.9000 F2500.0
G4 P0.02
G1 X153.4102 Y-231.5553 F2200.0
G1 Z0.0000 F2500.0
G4 P0.02
G0 X153.7446 Y-228.4620 F15000.0
G1 Z11.9000 F2500.0
G4 P0.02
G1 X153.8073 Y-228.5247 F2200.0
G1 Z0.0000 F2500.0
G4 P0.02
G0 X154.5615 Y-228.5913 F15000.0
G1 Z11.9000 F2500.0
G4 P0.02
G1 X155.6483 Y-229.3855 F2200.0
G1 Z0.0000 F2500.0
G4 P0.02
G0 X155.3976 Y-230.1171 F15000.0
G1 Z11.9000 F2500.0
G4 P0.02
G1 X156.2336 Y-228.7585 F2200.0
G1 Z0.0000 F2500.0
G4 P0.02
G0 X155.9201 Y-229.6364 F15000.0
G1 Z11.9000 F2500.0
G4 P0.02
G1 X155.9827 Y-229.6781 F2200.0
G1 Z0.0000 F2500.0
G4 P0.02
G0 X156.2336 Y-229.8453 F15000.0
G1 Z11.9000 F2500.0
G4 P0.02
G1 X156.4008 Y-229.9708 F2200.0
G1 Z0.0000 F2500.0
G4 P0.02
G0 X156.7143 Y-230.1798 F15000.0
G1 Z11.9000 F2500.0
G4 P0.02
G1 X156.9860 Y-230.4723 F2200.0
G1 Z0.0000 F2500.0
G4 P0.02
G0 X158.2070 Y-228.1914 F15000.0
G1 Z11.9000 F2500.0
G4 P0.02
G1 X158.4996 Y-229.0484 F2200.0
G1 X157.3500 Y-229.1111
G1 X157.7471 Y-229.9471
G1 Z0.0000 F2500.0
G4 P0.02
G0 X158.0815 Y-230.5533 F15000.0
G1 Z11.9000 F2500.0
G4 P0.02
G1 X158.8131 Y-231.8281 F2200.0
G1 Z0.0000 F2500.0
G4 P0.02
G0 X158.4996 Y-229.0484 F15000.0
G1 Z11.9000 F2500.0
G4 P0.02
G1 X158.6041 Y-229.0692 F2200.0
G1 X158.9384 Y-230.0098
G1 Z0.0000 F2500.0
G4 P0.02
G0 X158.6459 Y-229.0692 F15000.0
G1 Z11.9000 F2500.0
G4 P0.02
G1 X159.0639 Y-229.0484 F2200.0
G1 Z0.0000 F2500.0
G4 P0.02
G0 X159.0430 Y-232.2462 F15000.0
G1 Z11.9000 F2500.0
G4 P0.02
G1 X159.0847 Y-232.3298 F2200.0
G1 Z0.0000 F2500.0
G4 P0.02
G0 X159.7654 Y-228.0788 F15000.0
G1 Z11.9000 F2500.0
G4 P0.02
G1 X161.0194 Y-228.2460 F2200.0
G1 X161.5419 Y-228.8103
G1 X161.8137 Y-229.5627
G1 X161.8764 Y-229.9808
G1 Z0.0000 F2500.0
G4 P0.02
G0 X161.7927 Y-230.1688 F15000.0
G1 Z11.9000 F2500.0
G4 P0.02
G1 X161.5210 Y-230.3360 F2200.0
G1 X160.6223 Y-230.4196
G1 X160.8104 Y-231.1303
G1 Z0.0000 F2500.0
G4 P0.02
G0 X160.9776 Y-231.5901 F15000.0
G1 Z11.9000 F2500.0
G4 P0.02
G1 X161.2075 Y-232.2380 F2200.0
G1 Z0.0000 F2500.0
G4 P0.02
G0 X161.2911 Y-232.3216 F15000.0
G1 Z11.9000 F2500.0
G4 P0.02
G1 X162.7960 Y-232.3425 F2200.0
G1 Z0.0000 F2500.0
G4 P0.02
G0 X161.5628 Y-228.8521 F15000.0
G1 Z11.9000 F2500.0
G4 P0.02
G1 X161.5838 Y-228.9148 F2200.0
G1 Z0.0000 F2500.0
G4 P0.02
G0 X163.4435 Y-231.4756 F15000.0
G1 Z11.9000 F2500.0
G4 P0.02
G1 X163.5898 Y-232.0399 F2200.0
G1 X164.1958 Y-232.2070
G1 X164.2377 Y-231.6636
G1 X163.9450 Y-231.4337
G1 X163.5061 Y-231.4128
G1 Z0.0000 F2500.0
G4 P0.02
G0 X163.6734 Y-232.0817 F15000.0
G1 Z11.9000 F2500.0
G4 P0.02
G1 X163.7360 Y-232.1234 F2200.0
G1 Z0.0000 F2500.0
G4 P0.02
G0 X142.3743 Y-225.5099 F15000.0
G1 Z11.9000 F2500.0
G4 P0.02
G1 X137.7804 Y-226.1327 F2200.0
G1 X138.2476 Y-225.5099 F2200.0
G1 X137.7804 Y-224.9648 F2200.0
G1 X142.3743 Y-225.5099 F2200.0
G1 X135.9117 Y-225.5099 F2200.0
G1 Z0.0000 F2500.0
G4 P0.02
G0 X139.4300 Y-225.8213 F15000.0
G1 Z11.9000 F2500.0
G4 P0.02
G1 X140.2577 Y-225.8213 F2200.0
G1 Z0.0000 F2500.0
G4 P0.02
G0 X139.7025 Y-225.2763 F15000.0
G1 Z11.9000 F2500.0
G4 P0.02
G1 X140.5302 Y-225.2763 F2200.0
G1 Z0.0000 F2500.0
G4 P0.02
G0 X143.8537 Y-225.5099 F15000.0
G1 Z11.9000 F2500.0
G4 P0.02
G1 X148.4476 Y-224.9648 F2200.0
G1 X147.9804 Y-225.5099 F2200.0
G1 X148.4476 Y-226.1327 F2200.0
G1 X143.8537 Y-225.5099 F2200.0
G1 Z0.0000 F2500.0
G4 P0.02
G0 X145.7369 Y-225.2763 F15000.0
G1 Z11.9000 F2500.0
G4 P0.02
G1 X146.5645 Y-225.2763 F2200.0
G1 Z0.0000 F2500.0
G4 P0.02
G0 X146.0483 Y-225.8213 F15000.0
G1 Z11.9000 F2500.0
G4 P0.02
G1 X146.8759 Y-225.8213 F2200.0
G1 Z0.0000 F2500.0
G4 P0.02
G0 X142.3743 Y-225.5099 F15000.0
G1 Z11.9000 F2500.0
G4 P0.02
G1 X143.8537 Y-225.5099 F2200.0
G1 Z0.0000 F2500.0
G4 P0.02
G0 X142.3743 Y-219.1251 F15000.0
G1 Z11.9000 F2500.0
G4 P0.02
G1 X142.3743 Y-227.3786 F2200.0
G1 Z0.0000 F2500.0
G4 P0.02
G0 X143.8537 Y-225.5099 F15000.0
G1 Z11.9000 F2500.0
G4 P0.02
G1 X167.5239 Y-225.5099 F12000.0
G1 Z0.0000 F2500.0
G4 P0.02
G0 X143.8537 Y-211.1831 F15000.0
G1 Z11.9000 F2500.0
G4 P0.02
G1 X143.8537 Y-227.3786 F12000.0
G1 Z0.0000 F2500.0
G4 P0.02
G0 X23.0890 Y-212.2732 F15000.0
G1 Z11.9000 F2500.0
G4 P0.02
G1 X23.7119 Y-207.6793 F2200.0
G1 X23.0890 Y-208.1465 F2200.0
G1 X22.5440 Y-207.6793 F2200.0
G1 X23.0890 Y-212.2732 F2200.0
G1 Z0.0000 F2500.0
G4 P0.02
G0 X23.4004 Y-210.4290 F15000.0
G1 Z11.9000 F2500.0
G4 P0.02
G1 X23.4004 Y-209.6014 F2200.0
G1 Z0.0000 F2500.0
G4 P0.02
G0 X22.8554 Y-210.1175 F15000.0
G1 Z11.9000 F2500.0
G4 P0.02
G1 X22.8554 Y-209.2899 F2200.0
G1 Z0.0000 F2500.0
G4 P0.02
G0 X23.0890 Y-138.6931 F15000.0
G1 Z11.9000 F2500.0
G4 P0.02
G1 X22.5440 Y-143.2870 F2200.0
G1 X23.0890 Y-142.8198 F2200.0
G1 X23.7119 Y-143.2870 F2200.0
G1 X23.0890 Y-138.6931 F2200.0
G1 Z0.0000 F2500.0
G4 P0.02
G0 X22.8554 Y-141.7543 F15000.0
G1 Z11.9000 F2500.0
G4 P0.02
G1 X22.8554 Y-140.9267 F2200.0
G1 Z0.0000 F2500.0
G4 P0.02
G0 X23.4004 Y-141.4428 F15000.0
G1 Z11.9000 F2500.0
G4 P0.02
G1 X23.4004 Y-140.6152 F2200.0
G1 Z0.0000 F2500.0
G4 P0.02
G0 X23.0890 Y-212.2732 F15000.0
G1 Z11.9000 F2500.0
G4 P0.02
G1 X23.0890 Y-138.6931 F12000.0
G1 Z0.0000 F2500.0
G4 P0.02
G0 X82.1867 Y-212.2732 F15000.0
G1 Z11.9000 F2500.0
G4 P0.02
G1 X21.2981 Y-212.2732 F12000.0
G1 Z0.0000 F2500.0
G4 P0.02
G0 X90.5179 Y-138.6931 F15000.0
G1 Z11.9000 F2500.0
G4 P0.02
G1 X21.2981 Y-138.6931 F12000.0
G1 Z0.0000 F2500.0
G4 P0.02
G0 X50.0294 Y-227.3786 F15000.0
G1 Z11.9000 F2500.0
G4 P0.02
G1 X54.6233 Y-228.0014 F2200.0
G1 X54.1561 Y-227.3786 F2200.0
G1 X54.6233 Y-226.7556 F2200.0
G1 X50.0294 Y-227.3786 F2200.0
G1 Z0.0000 F2500.0
G4 P0.02
G0 X52.2240 Y-227.6900 F15000.0
G1 Z11.9000 F2500.0
G4 P0.02
G1 X53.0516 Y-227.6900 F2200.0
G1 Z0.0000 F2500.0
G4 P0.02
G0 X51.9125 Y-227.1060 F15000.0
G1 Z11.9000 F2500.0
G4 P0.02
G1 X52.7402 Y-227.1060 F2200.0
G1 Z0.0000 F2500.0
G4 P0.02
G0 X82.1867 Y-227.3786 F15000.0
G1 Z11.9000 F2500.0
G4 P0.02
G1 X77.5927 Y-226.7556 F2200.0
G1 X78.0599 Y-227.3786 F2200.0
G1 X77.5927 Y-228.0014 F2200.0
G1 X82.1867 Y-227.3786 F2200.0
G1 Z0.0000 F2500.0
G4 P0.02
G0 X79.5147 Y-227.1060 F15000.0
G1 Z11.9000 F2500.0
G4 P0.02
G1 X80.3424 Y-227.1060 F2200.0
G1 Z0.0000 F2500.0
G4 P0.02
G0 X79.2422 Y-227.6900 F15000.0
G1 Z11.9000 F2500.0
G4 P0.02
G1 X80.0699 Y-227.6900 F2200.0
G1 Z0.0000 F2500.0
G4 P0.02
G0 X50.0294 Y-227.3786 F15000.0
G1 Z11.9000 F2500.0
G4 P0.02
G1 X82.1867 Y-227.3786 F12000.0
G1 Z0.0000 F2500.0
G4 P0.02
G0 X82.1867 Y-209.0029 F15000.0
G1 Z11.9000 F2500.0
G4 P0.02
G1 X82.1867 Y-229.2473 F12000.0
G1 Z0.0000 F2500.0
G4 P0.02
G0 X50.0294 Y-239.2137 F15000.0
G1 Z11.9000 F2500.0
G4 P0.02
G1 X54.6233 Y-239.8365 F2200.0
G1 X54.1561 Y-239.2137 F2200.0
G1 X54.6233 Y-238.5907 F2200.0
G1 X50.0294 Y-239.2137 F2200.0
G1 Z0.0000 F2500.0
G4 P0.02
G0 X52.2240 Y-239.5250 F15000.0
G1 Z11.9000 F2500.0
G4 P0.02
G1 X53.0516 Y-239.5250 F2200.0
G1 Z0.0000 F2500.0
G4 P0.02
G0 X51.9125 Y-238.9411 F15000.0
G1 Z11.9000 F2500.0
G4 P0.02
G1 X52.7402 Y-238.9411 F2200.0
G1 Z0.0000 F2500.0
G4 P0.02
G0 X98.7713 Y-239.2137 F15000.0
G1 Z11.9000 F2500.0
G4 P0.02
G1 X94.1774 Y-238.5907 F2200.0
G1 X94.6446 Y-239.2137 F2200.0
G1 X94.1774 Y-239.8365 F2200.0
G1 X98.7713 Y-239.2137 F2200.0
G1 Z0.0000 F2500.0
G4 P0.02
G0 X96.0995 Y-238.9411 F15000.0
G1 Z11.9000 F2500.0
G4 P0.02
G1 X96.9271 Y-238.9411 F2200.0
G1 Z0.0000 F2500.0
G4 P0.02
G0 X95.8270 Y-239.5250 F15000.0
G1 Z11.9000 F2500.0
G4 P0.02
G1 X96.6547 Y-239.5250 F2200.0
G1 Z0.0000 F2500.0
G4 P0.02
G0 X50.0294 Y-239.2137 F15000.0
G1 Z11.9000 F2500.0
G4 P0.02
G1 X98.7713 Y-239.2137 F12000.0
G1 Z0.0000 F2500.0
G4 P0.02
G0 X50.0294 Y-205.8106 F15000.0
G1 Z11.9000 F2500.0
G4 P0.02
G1 X50.0294 Y-241.0824 F12000.0
G1 Z0.0000 F2500.0
G4 P0.02
G0 X98.7713 Y-205.3434 F15000.0
G1 Z11.9000 F2500.0
G4 P0.02
G1 X98.7713 Y-241.0824 F12000.0
G1 Z0.0000 F2500.0
G4 P0.02
G0 X50.0294 Y-96.8810 F15000.0
G1 Z11.9000 F2500.0
G4 P0.02
G1 X54.6233 Y-97.5039 F2200.0
G1 X54.1561 Y-96.8810 F2200.0
G1 X54.6233 Y-96.3359 F2200.0
G1 X50.0294 Y-96.8810 F2200.0
G1 Z0.0000 F2500.0
G4 P0.02
G0 X52.2240 Y-97.1924 F15000.0
G1 Z11.9000 F2500.0
G4 P0.02
G1 X53.0516 Y-97.1924 F2200.0
G1 Z0.0000 F2500.0
G4 P0.02
G0 X51.9125 Y-96.6474 F15000.0
G1 Z11.9000 F2500.0
G4 P0.02
G1 X52.7402 Y-96.6474 F2200.0
G1 Z0.0000 F2500.0
G4 P0.02
G0 X143.8537 Y-96.8810 F15000.0
G1 Z11.9000 F2500.0
G4 P0.02
G1 X139.2599 Y-96.3359 F2200.0
G1 X139.6491 Y-96.8810 F2200.0
G1 X139.2599 Y-97.5039 F2200.0
G1 X143.8537 Y-96.8810 F2200.0
G1 Z0.0000 F2500.0
G4 P0.02
G0 X141.1819 Y-96.6474 F15000.0
G1 Z11.9000 F2500.0
G4 P0.02
G1 X142.0096 Y-96.6474 F2200.0
G1 Z0.0000 F2500.0
G4 P0.02
G0 X140.9093 Y-97.1924 F15000.0
G1 Z11.9000 F2500.0
G4 P0.02
G1 X141.7370 Y-97.1924 F2200.0
G1 Z0.0000 F2500.0
G4 P0.02
G0 X50.0294 Y-96.8810 F15000.0
G1 Z11.9000 F2500.0
G4 P0.02
G1 X143.8537 Y-96.8810 F12000.0
G1 Z0.0000 F2500.0
G4 P0.02
G0 X50.0294 Y-145.1557 F15000.0
G1 Z11.9000 F2500.0
G4 P0.02
G1 X50.0294 Y-95.0901 F12000.0
G1 Z0.0000 F2500.0
G4 P0.02
G0 X143.8537 Y-183.7756 F15000.0
G1 Z11.9000 F2500.0
G4 P0.02
G1 X143.8537 Y-95.0901 F12000.0
G1 Z0.0000 F2500.0
G4 P0.02
G0 X149.7979 Y-126.2505 F15000.0
G1 Z11.9000 F2500.0
G4 P0.02
G1 X149.9024 Y-126.2714 F2200.0
G1 X150.5922 Y-127.3791
G1 X150.5295 Y-127.2746
G1 Z0.0000 F2500.0
G4 P0.02
G0 X150.3204 Y-130.0753 F15000.0
G1 Z11.9000 F2500.0
G4 P0.02
G1 X150.5086 Y-130.4934 F2200.0
G1 X152.4523 Y-130.5770
G1 X152.3060 Y-130.2635
G1 Z0.0000 F2500.0
G4 P0.02
G0 X151.1147 Y-128.2570 F15000.0
G1 Z11.9000 F2500.0
G4 P0.02
G1 X151.0520 Y-128.1524 F2200.0
G1 X151.8880 Y-129.5529
G1 Z0.0000 F2500.0
G4 P0.02
G0 X151.7208 Y-129.2811 F15000.0
G1 Z11.9000 F2500.0
G4 P0.02
G1 X151.7626 Y-129.3438 F2200.0
G1 Z0.0000 F2500.0
G4 P0.02
G0 X143.8537 Y-123.8214 F15000.0
G1 Z11.9000 F2500.0
G4 P0.02
G1 X148.4476 Y-123.1985 F2200.0
G1 X147.9804 Y-123.8214 F2200.0
G1 X148.4476 Y-124.4443 F2200.0
G1 X143.8537 Y-123.8214 F2200.0
G1 Z0.0000 F2500.0
G4 P0.02
G0 X145.7369 Y-123.5489 F15000.0
G1 Z11.9000 F2500.0
G4 P0.02
G1 X146.5645 Y-123.5489 F2200.0
G1 Z0.0000 F2500.0
G4 P0.02
G0 X146.0483 Y-124.1329 F15000.0
G1 Z11.9000 F2500.0
G4 P0.02
G1 X146.8759 Y-124.1329 F2200.0
G1 Z0.0000 F2500.0
G4 P0.02
G0 X137.3912 Y-123.8214 F15000.0
G1 Z11.9000 F2500.0
G4 P0.02
G1 X132.7972 Y-124.4443 F2200.0
G1 X133.2644 Y-123.8214 F2200.0
G1 X132.7972 Y-123.1985 F2200.0
G1 X137.3912 Y-123.8214 F2200.0
G1 X130.9285 Y-123.8214 F2200.0
G1 Z0.0000 F2500.0
G4 P0.02
G0 X134.4468 Y-124.1329 F15000.0
G1 Z11.9000 F2500.0
G4 P0.02
G1 X135.2744 Y-124.1329 F2200.0
G1 Z0.0000 F2500.0
G4 P0.02
G0 X134.7192 Y-123.5489 F15000.0
G1 Z11.9000 F2500.0
G4 P0.02
G1 X135.5469 Y-123.5489 F2200.0
G1 Z0.0000 F2500.0
G4 P0.02
G0 X143.8537 Y-123.8214 F15000.0
G1 Z11.9000 F2500.0
G4 P0.02
G1 X137.3912 Y-123.8214 F2200.0
G1 Z0.0000 F2500.0
G4 P0.02
G0 X143.8537 Y-123.8214 F15000.0
G1 Z11.9000 F2500.0
G4 P0.02
G1 X154.8323 Y-123.8214 F2200.0
G1 Z0.0000 F2500.0
G4 P0.02
G0 X137.3912 Y-144.6885 F15000.0
G1 Z11.9000 F2500.0
G4 P0.02
G1 X137.3912 Y-121.9527 F12000.0
G1 Z0.0000 F2500.0
G4 P0.02
G0 X143.8537 Y-113.6214 F15000.0
G1 Z11.9000 F2500.0
G4 P0.02
G1 X139.2599 Y-112.9985 F2200.0
G1 X139.6491 Y-113.6214 F2200.0
G1 X139.2599 Y-114.2443 F2200.0
G1 X143.8537 Y-113.6214 F2200.0
G1 Z0.0000 F2500.0
G4 P0.02
G0 X141.1819 Y-113.3489 F15000.0
G1 Z11.9000 F2500.0
G4 P0.02
G1 X142.0096 Y-113.3489 F2200.0
G1 Z0.0000 F2500.0
G4 P0.02
G0 X140.9093 Y-113.9328 F15000.0
G1 Z11.9000 F2500.0
G4 P0.02
G1 X141.7370 Y-113.9328 F2200.0
G1 Z0.0000 F2500.0
G4 P0.02
G0 X104.2996 Y-113.6214 F15000.0
G1 Z11.9000 F2500.0
G4 P0.02
G1 X108.8935 Y-114.2443 F2200.0
G1 X108.4263 Y-113.6214 F2200.0
G1 X108.8935 Y-112.9985 F2200.0
G1 X104.2996 Y-113.6214 F2200.0
G1 Z0.0000 F2500.0
G4 P0.02
G0 X106.4941 Y-113.9328 F15000.0
G1 Z11.9000 F2500.0
G4 P0.02
G1 X107.3218 Y-113.9328 F2200.0
G1 Z0.0000 F2500.0
G4 P0.02
G0 X106.1826 Y-113.3489 F15000.0
G1 Z11.9000 F2500.0
G4 P0.02
G1 X107.0103 Y-113.3489 F2200.0
G1 Z0.0000 F2500.0
G4 P0.02
G0 X143.8537 Y-113.6214 F15000.0
G1 Z11.9000 F2500.0
G4 P0.02
G1 X104.2996 Y-113.6214 F12000.0
G1 Z0.0000 F2500.0
G4 P0.02
G0 X104.2996 Y-160.4947 F15000.0
G1 Z11.9000 F2500.0
G4 P0.02
G1 X104.2996 Y-111.7527 F12000.0
G1 Z0.0000 F2500.0
G4 P0.02
G0 X50.0294 Y-113.6214 F15000.0
G1 Z11.9000 F2500.0
G4 P0.02
G1 X54.6233 Y-114.2443 F2200.0
G1 X54.1561 Y-113.6214 F2200.0
G1 X54.6233 Y-112.9985 F2200.0
G1 X50.0294 Y-113.6214 F2200.0
G1 Z0.0000 F2500.0
G4 P0.02
G0 X52.2240 Y-113.9328 F15000.0
G1 Z11.9000 F2500.0
G4 P0.02
G1 X53.0516 Y-113.9328 F2200.0
G1 Z0.0000 F2500.0
G4 P0.02
G0 X51.9125 Y-113.3489 F15000.0
G1 Z11.9000 F2500.0
G4 P0.02
G1 X52.7402 Y-113.3489 F2200.0
G1 Z0.0000 F2500.0
G4 P0.02
G0 X81.2523 Y-113.6214 F15000.0
G1 Z11.9000 F2500.0
G4 P0.02
G1 X76.6583 Y-112.9985 F2200.0
G1 X77.1255 Y-113.6214 F2200.0
G1 X76.6583 Y-114.2443 F2200.0
G1 X81.2523 Y-113.6214 F2200.0
G1 Z0.0000 F2500.0
G4 P0.02
G0 X78.5804 Y-113.3489 F15000.0
G1 Z11.9000 F2500.0
G4 P0.02
G1 X79.4081 Y-113.3489 F2200.0
G1 Z0.0000 F2500.0
G4 P0.02
G0 X78.3079 Y-113.9328 F15000.0
G1 Z11.9000 F2500.0
G4 P0.02
G1 X79.1356 Y-113.9328 F2200.0
G1 Z0.0000 F2500.0
G4 P0.02
G0 X50.0294 Y-113.6214 F15000.0
G1 Z11.9000 F2500.0
G4 P0.02
G1 X81.2523 Y-113.6214 F12000.0
G1 Z0.0000 F2500.0
G4 P0.02
G0 X81.2523 Y-169.4488 F15000.0
G1 Z11.9000 F2500.0
G4 P0.02
G1 X81.2523 Y-111.7527 F12000.0
G1 Z0.0000 F2500.0
G4 P0.02
G0 X50.0294 Y-123.8214 F15000.0
G1 Z11.9000 F2500.0
G4 P0.02
G1 X45.4355 Y-124.4443 F2200.0
G1 X45.9027 Y-123.8214 F2200.0
G1 X45.4355 Y-123.1985 F2200.0
G1 X50.0294 Y-123.8214 F2200.0
G1 Z0.0000 F2500.0
G4 P0.02
G0 X47.0850 Y-124.1329 F15000.0
G1 Z11.9000 F2500.0
G4 P0.02
G1 X47.9127 Y-124.1329 F2200.0
G1 Z0.0000 F2500.0
G4 P0.02
G0 X47.3575 Y-123.5489 F15000.0
G1 Z11.9000 F2500.0
G4 P0.02
G1 X48.1852 Y-123.5489 F2200.0
G1 Z0.0000 F2500.0
G4 P0.02
G0 X52.7546 Y-123.8214 F15000.0
G1 Z11.9000 F2500.0
G4 P0.02
G1 X57.3485 Y-123.1985 F2200.0
G1 X56.8813 Y-123.8214 F2200.0
G1 X57.3485 Y-124.4443 F2200.0
G1 X52.7546 Y-123.8214 F2200.0
G1 X59.2172 Y-123.8214 F2200.0
G1 Z0.0000 F2500.0
G4 P0.02
G0 X54.6377 Y-123.5489 F15000.0
G1 Z11.9000 F2500.0
G4 P0.02
G1 X55.4654 Y-123.5489 F2200.0
G1 Z0.0000 F2500.0
G4 P0.02
G0 X54.9491 Y-124.1329 F15000.0
G1 Z11.9000 F2500.0
G4 P0.02
G1 X55.7768 Y-124.1329 F2200.0
G1 Z0.0000 F2500.0
G4 P0.02
G0 X50.0294 Y-123.8214 F15000.0
G1 Z11.9000 F2500.0
G4 P0.02
G1 X52.7546 Y-123.8214 F2200.0
G1 Z0.0000 F2500.0
G4 P0.02
G0 X50.0294 Y-123.8214 F15000.0
G1 Z11.9000 F2500.0
G4 P0.02
G1 X29.6294 Y-123.8214 F12000.0
G1 Z0.0000 F2500.0
G4 P0.02
G0 X52.7546 Y-169.4488 F15000.0
G1 Z11.9000 F2500.0
G4 P0.02
G1 X52.7546 Y-121.9527 F12000.0
G1 Z0.0000 F2500.0
G4 P0.02
G0 X41.4645 Y-161.6626 F15000.0
G1 Z11.9000 F2500.0
G4 P0.02
G1 X40.8416 Y-166.2565 F2200.0
G1 X41.4645 Y-165.7893 F2200.0
G1 X42.0875 Y-166.2565 F2200.0
G1 X41.4645 Y-161.6626 F2200.0
G1 Z0.0000 F2500.0
G4 P0.02
G0 X41.1920 Y-164.6848 F15000.0
G1 Z11.9000 F2500.0
G4 P0.02
G1 X41.1920 Y-163.8572 F2200.0
G1 Z0.0000 F2500.0
G4 P0.02
G0 X41.7760 Y-164.4123 F15000.0
G1 Z11.9000 F2500.0
G4 P0.02
G1 X41.7760 Y-163.5847 F2200.0
G1 Z0.0000 F2500.0
G4 P0.02
G0 X41.4645 Y-190.5496 F15000.0
G1 Z11.9000 F2500.0
G4 P0.02
G1 X41.4645 Y-161.6626 F12000.0
G1 Z0.0000 F2500.0
G4 P0.02
G0 X56.4920 Y-161.6626 F15000.0
G1 Z11.9000 F2500.0
G4 P0.02
G1 X39.5958 Y-161.6626 F12000.0
G1 Z0.0000 F2500.0
G4 P0.02
G0 X170.2491 Y-150.6061 F15000.0
G1 Z11.9000 F2500.0
G4 P0.02
G1 X169.6262 Y-155.2779 F2200.0
G1 X170.2491 Y-154.8107 F2200.0
G1 X170.8720 Y-155.2779 F2200.0
G1 X170.2491 Y-150.6061 F2200.0
G1 Z0.0000 F2500.0
G4 P0.02
G0 X169.9766 Y-153.6673 F15000.0
G1 Z11.9000 F2500.0
G4 P0.02
G1 X169.9766 Y-152.8396 F2200.0
G1 Z0.0000 F2500.0
G4 P0.02
G0 X170.5605 Y-153.3947 F15000.0
G1 Z11.9000 F2500.0
G4 P0.02
G1 X170.5605 Y-152.5670 F2200.0
G1 Z0.0000 F2500.0
G4 P0.02
G0 X170.2491 Y-175.4442 F15000.0
G1 Z11.9000 F2500.0
G4 P0.02
G1 X170.2491 Y-150.6061 F12000.0
G1 Z0.0000 F2500.0
G4 P0.02
G0 X170.2491 Y-175.4442 F15000.0
G1 Z11.9000 F2500.0
G4 P0.02
G1 X170.2491 Y-192.3404 F12000.0
G1 Z0.0000 F2500.0
G4 P0.02
G0 X123.7652 Y-150.6061 F15000.0
G1 Z11.9000 F2500.0
G4 P0.02
G1 X172.1178 Y-150.6061 F12000.0
G1 Z0.0000 F2500.0
G4 P0.02
G0 X148.4523 Y-188.3250 F15000.0
G1 Z11.9000 F2500.0
G4 P0.02
G1 X149.4138 Y-187.7816 F2200.0
G1 Z0.0000 F2500.0
G4 P0.02
G0 X149.8317 Y-187.5517 F15000.0
G1 Z11.9000 F2500.0
G4 P0.02
G1 X150.7096 Y-187.0501 F2200.0
G1 Z0.0000 F2500.0
G4 P0.02
G0 X150.4587 Y-188.3669 F15000.0
G1 Z11.9000 F2500.0
G4 P0.02
G1 X151.2948 Y-188.0951 F2200.0
G1 X151.3366 Y-188.5340
G1 Z0.0000 F2500.0
G4 P0.02
G0 X150.9813 Y-186.9038 F15000.0
G1 Z11.9000 F2500.0
G4 P0.02
G1 X151.2530 Y-186.8411 F2200.0
G1 X151.3366 Y-187.9279
G1 X152.2980 Y-187.6144
G1 Z0.0000 F2500.0
G4 P0.02
G0 X151.3157 Y-188.0742 F15000.0
G1 Z11.9000 F2500.0
G4 P0.02
G1 X151.3366 Y-187.9489 F2200.0
G1 Z0.0000 F2500.0
G4 P0.02
G0 X154.8323 Y-155.2779 F15000.0
G1 Z11.9000 F2500.0
G4 P0.02
G1 X154.2095 Y-159.8717 F2200.0
G1 X154.8323 Y-159.4045 F2200.0
G1 X155.4552 Y-159.8717 F2200.0
G1 X154.8323 Y-155.2779 F2200.0
G1 Z0.0000 F2500.0
G4 P0.02
G0 X154.5598 Y-158.3001 F15000.0
G1 Z11.9000 F2500.0
G4 P0.02
G1 X154.5598 Y-157.4724 F2200.0
G1 Z0.0000 F2500.0
G4 P0.02
G0 X155.1437 Y-158.0276 F15000.0
G1 Z11.9000 F2500.0
G4 P0.02
G1 X155.1437 Y-157.1999 F2200.0
G1 Z0.0000 F2500.0
G4 P0.02
G0 X154.8323 Y-175.4442 F15000.0
G1 Z11.9000 F2500.0
G4 P0.02
G1 X154.8323 Y-155.2779 F12000.0
G1 Z0.0000 F2500.0
G4 P0.02
G0 X154.8323 Y-175.4442 F15000.0
G1 Z11.9000 F2500.0
G4 P0.02
G1 X154.8323 Y-192.7297 F12000.0
G1 Z0.0000 F2500.0
G4 P0.02
G0 X104.2996 Y-155.2779 F15000.0
G1 Z11.9000 F2500.0
G4 P0.02
G1 X156.7010 Y-155.2779 F12000.0
G1 Z0.0000 F2500.0
G4 P0.02
G0 X140.1163 Y-138.6931 F15000.0
G1 Z11.9000 F2500.0
G4 P0.02
G1 X180.0000 Y-138.6931 F12000.0
G1 Z0.0000 F2500.0
G4 P0.02
G0 X98.6156 Y-158.4702 F15000.0
G1 Z11.9000 F2500.0
G4 P0.02
G1 X100.1728 Y-162.9084 F2200.0
G1 X100.4843 Y-162.2076 F2200.0
G1 X101.2630 Y-162.3634 F2200.0
G1 X98.6156 Y-158.4702 F2200.0
G1 Z0.0000 F2500.0
G4 P0.02
G0 X99.6667 Y-161.3367 F15000.0
G1 Z11.9000 F2500.0
G4 P0.02
G1 X99.6667 Y-160.5090 F2200.0
G1 Z0.0000 F2500.0
G4 P0.02
G0 X99.6952 Y-160.8166 F15000.0
G1 Z11.9000 F2500.0
G4 P0.02
G1 X100.3390 Y-160.1728 F2200.0
G1 Z0.0000 F2500.0
G4 P0.02
G0 X103.2095 Y-175.4442 F15000.0
G1 Z11.9000 F2500.0
G4 P0.02
G1 X103.0538 Y-172.2519 F2200.0
G1 X102.5866 Y-168.9816 F2200.0
G1 X101.8079 Y-165.8672 F2200.0
G1 X100.7179 Y-162.7527 F2200.0
G1 X99.3943 Y-159.7939 F2200.0
G1 X98.6156 Y-158.4702 F2200.0
G1 Z0.0000 F2500.0
G4 P0.02
G0 X103.2095 Y-175.4442 F15000.0
G1 Z11.9000 F2500.0
G4 P0.02
G1 X103.0538 Y-178.7144 F2200.0
G1 X102.5866 Y-181.9069 F2200.0
G1 X101.8079 Y-185.0992 F2200.0
G1 X100.7179 Y-188.1358 F2200.0
G1 X99.5499 Y-190.7832 F2200.0
G1 Z0.0000 F2500.0
G4 P0.02
G0 X98.7713 Y-219.1251 F15000.0
G1 Z11.9000 F2500.0
G4 P0.02
G1 X98.7713 Y-175.4442 F12000.0
G1 Z0.0000 F2500.0
G4 P0.02
G0 X142.3743 Y-219.1251 F15000.0
G1 Z11.9000 F2500.0
G4 P0.02
G1 X142.3743 Y-175.4442 F12000.0
G1 Z0.0000 F2500.0
G4 P0.02
G0 X98.7713 Y-131.7634 F15000.0
G1 Z11.9000 F2500.0
G4 P0.02
G1 X142.3743 Y-131.7634 F12000.0
G1 Z0.0000 F2500.0
G4 P0.02
G0 X50.0294 Y-205.8106 F15000.0
G1 Z11.9000 F2500.0
G4 P0.02
G1 X50.0294 Y-145.1557 F12000.0
G1 Z0.0000 F2500.0
G4 P0.02
G0 X143.8537 Y-217.6457 F15000.0
G1 Z11.9000 F2500.0
G4 P0.02
G1 X143.8537 Y-133.2428 F12000.0
G1 Z0.0000 F2500.0
G4 P0.02
G0 X98.7713 Y-219.1251 F15000.0
G1 Z11.9000 F2500.0
G4 P0.02
G1 X142.3743 Y-219.1251 F12000.0
G1 X143.8537 Y-217.6457 F2200.0
G1 Z0.0000 F2500.0
G4 P0.02
G0 X82.1867 Y-212.2732 F15000.0
G1 Z11.9000 F2500.0
G4 P0.02
G1 X98.7713 Y-212.2732 F12000.0
G1 Z0.0000 F2500.0
G4 P0.02
G0 X82.1867 Y-212.2732 F15000.0
G1 Z11.9000 F2500.0
G4 P0.02
G1 X82.1867 Y-205.8106 F2200.0
G1 Z0.0000 F2500.0
G4 P0.02
G0 X50.0294 Y-205.8106 F15000.0
G1 Z11.9000 F2500.0
G4 P0.02
G1 X82.1867 Y-205.8106 F12000.0
G1 Z0.0000 F2500.0
G4 P0.02
G0 X143.8537 Y-217.6457 F15000.0
G1 Z11.9000 F2500.0
G4 P0.02
G1 X142.3743 Y-217.6457 F2200.0
G1 Z0.0000 F2500.0
G4 P0.02
G0 X98.7713 Y-217.6457 F15000.0
G1 Z11.9000 F2500.0
G4 P0.02
G1 X142.3743 Y-217.6457 F12000.0
G1 Z0.0000 F2500.0
G4 P0.02
G0 X139.5713 Y-131.7634 F15000.0
G1 Z11.9000 F2500.0
G4 P0.02
G1 X143.8537 Y-136.0459 F2200.0
G1 Z0.0000 F2500.0
G4 P0.02
G0 X135.6782 Y-131.7634 F15000.0
G1 Z11.9000 F2500.0
G4 P0.02
G1 X142.6079 Y-138.6931 F2200.0
G1 Z0.0000 F2500.0
G4 P0.02
G0 X131.7851 Y-131.7634 F15000.0
G1 Z11.9000 F2500.0
G4 P0.02
G1 X138.7148 Y-138.6931 F2200.0
G1 Z0.0000 F2500.0
G4 P0.02
G0 X127.8919 Y-131.7634 F15000.0
G1 Z11.9000 F2500.0
G4 P0.02
G1 X137.3912 Y-141.2626 F2200.0
G1 Z0.0000 F2500.0
G4 P0.02
G0 X123.9988 Y-131.7634 F15000.0
G1 Z11.9000 F2500.0
G4 P0.02
G1 X137.3912 Y-145.1557 F2200.0
G1 Z0.0000 F2500.0
G4 P0.02
G0 X120.1057 Y-131.7634 F15000.0
G1 Z11.9000 F2500.0
G4 P0.02
G1 X137.3912 Y-149.0489 F12000.0
G1 Z0.0000 F2500.0
G4 P0.02
G0 X116.2126 Y-131.7634 F15000.0
G1 Z11.9000 F2500.0
G4 P0.02
G1 X135.0553 Y-150.6061 F12000.0
G1 Z0.0000 F2500.0
G4 P0.02
G0 X112.3194 Y-131.7634 F15000.0
G1 Z11.9000 F2500.0
G4 P0.02
G1 X131.1621 Y-150.6061 F12000.0
G1 Z0.0000 F2500.0
G4 P0.02
G0 X108.3484 Y-131.7634 F15000.0
G1 Z11.9000 F2500.0
G4 P0.02
G1 X127.2690 Y-150.6061 F12000.0
G1 Z0.0000 F2500.0
G4 P0.02
G0 X104.4553 Y-131.7634 F15000.0
G1 Z11.9000 F2500.0
G4 P0.02
G1 X123.2980 Y-150.6061 F12000.0
G1 Z0.0000 F2500.0
G4 P0.02
G0 X100.5622 Y-131.7634 F15000.0
G1 Z11.9000 F2500.0
G4 P0.02
G1 X119.4049 Y-150.6061 F12000.0
G1 Z0.0000 F2500.0
G4 P0.02
G0 X98.7713 Y-133.8657 F15000.0
G1 Z11.9000 F2500.0
G4 P0.02
G1 X115.5118 Y-150.6061 F12000.0
G1 Z0.0000 F2500.0
G4 P0.02
G0 X98.7713 Y-137.7588 F15000.0
G1 Z11.9000 F2500.0
G4 P0.02
G1 X111.6186 Y-150.6061 F2200.0
G1 Z0.0000 F2500.0
G4 P0.02
G0 X95.7346 Y-138.6931 F15000.0
G1 Z11.9000 F2500.0
G4 P0.02
G1 X107.7255 Y-150.6061 F2200.0
G1 Z0.0000 F2500.0
G4 P0.02
G0 X91.8415 Y-138.6931 F15000.0
G1 Z11.9000 F2500.0
G4 P0.02
G1 X104.2996 Y-151.0733 F2200.0
G1 Z0.0000 F2500.0
G4 P0.02
G0 X87.9485 Y-138.6931 F15000.0
G1 Z11.9000 F2500.0
G4 P0.02
G1 X104.2996 Y-154.9664 F12000.0
G1 Z0.0000 F2500.0
G4 P0.02
G0 X84.0554 Y-138.6931 F15000.0
G1 Z11.9000 F2500.0
G4 P0.02
G1 X101.9637 Y-156.6015 F12000.0
G1 Z0.0000 F2500.0
G4 P0.02
G0 X82.1867 Y-140.7175 F15000.0
G1 Z11.9000 F2500.0
G4 P0.02
G1 X99.4721 Y-158.0030 F12000.0
G1 Z0.0000 F2500.0
G4 P0.02
G0 X82.1867 Y-144.6107 F15000.0
G1 Z11.9000 F2500.0
G4 P0.02
G1 X96.9805 Y-159.4045 F12000.0
G1 Z0.0000 F2500.0
G4 P0.02
G0 X78.7606 Y-145.1557 F15000.0
G1 Z11.9000 F2500.0
G4 P0.02
G1 X94.5667 Y-160.8840 F12000.0
G1 Z0.0000 F2500.0
G4 P0.02
G0 X74.8675 Y-145.1557 F15000.0
G1 Z11.9000 F2500.0
G4 P0.02
G1 X92.0751 Y-162.2855 F12000.0
G1 Z0.0000 F2500.0
G4 P0.02
G0 X70.9744 Y-145.1557 F15000.0
G1 Z11.9000 F2500.0
G4 P0.02
G1 X89.2721 Y-163.4534 F12000.0
G1 Z0.0000 F2500.0
G4 P0.02
G0 X67.0812 Y-145.1557 F15000.0
G1 Z11.9000 F2500.0
G4 P0.02
G1 X85.3790 Y-163.4534 F12000.0
G1 Z0.0000 F2500.0
G4 P0.02
G0 X63.1882 Y-145.1557 F15000.0
G1 Z11.9000 F2500.0
G4 P0.02
G1 X81.4859 Y-163.4534 F12000.0
G1 Z0.0000 F2500.0
G4 P0.02
G0 X59.2951 Y-145.1557 F15000.0
G1 Z11.9000 F2500.0
G4 P0.02
G1 X77.5927 Y-163.4534 F12000.0
G1 Z0.0000 F2500.0
G4 P0.02
G0 X55.4020 Y-145.1557 F15000.0
G1 Z11.9000 F2500.0
G4 P0.02
G1 X73.6996 Y-163.4534 F12000.0
G1 Z0.0000 F2500.0
G4 P0.02
G0 X51.5088 Y-145.1557 F15000.0
G1 Z11.9000 F2500.0
G4 P0.02
G1 X69.8065 Y-163.4534 F12000.0
G1 Z0.0000 F2500.0
G4 P0.02
G0 X50.0294 Y-147.5695 F15000.0
G1 Z11.9000 F2500.0
G4 P0.02
G1 X65.9133 Y-163.4534 F12000.0
G1 Z0.0000 F2500.0
G4 P0.02
G0 X50.0294 Y-151.4626 F15000.0
G1 Z11.9000 F2500.0
G4 P0.02
G1 X61.9423 Y-163.4534 F2200.0
G1 Z0.0000 F2500.0
G4 P0.02
G0 X50.0294 Y-155.3558 F15000.0
G1 Z11.9000 F2500.0
G4 P0.02
G1 X58.0492 Y-163.4534 F2200.0
G1 Z0.0000 F2500.0
G4 P0.02
G0 X50.0294 Y-159.2489 F15000.0
G1 Z11.9000 F2500.0
G4 P0.02
G1 X54.1561 Y-163.4534 F2200.0
G1 Z0.0000 F2500.0
G4 P0.02
G0 X137.3912 Y-150.6061 F15000.0
G1 Z11.9000 F2500.0
G4 P0.02
G1 X137.3912 Y-175.4442 F12000.0
G1 Z0.0000 F2500.0
G4 P0.02
G0 X90.1286 Y-163.4534 F15000.0
G1 Z11.9000 F2500.0
G4 P0.02
G1 X90.1286 Y-175.4442 F2200.0
G1 Z0.0000 F2500.0
G4 P0.02
G0 X104.2996 Y-155.2779 F15000.0
G1 Z11.9000 F2500.0
G4 P0.02
G1 X104.2996 Y-175.4442 F12000.0
G1 Z0.0000 F2500.0
G4 P0.02
G0 X52.7546 Y-163.4534 F15000.0
G1 Z11.9000 F2500.0
G4 P0.02
G1 X52.7546 Y-175.4442 F2200.0
G1 Z0.0000 F2500.0
G4 P0.02
G0 X51.0416 Y-161.6626 F15000.0
G1 Z11.9000 F2500.0
G4 P0.02
G1 X81.2523 Y-161.6626 F12000.0
G1 Z0.0000 F2500.0
G4 P0.02
G0 X81.2523 Y-163.4534 F15000.0
G1 Z11.9000 F2500.0
G4 P0.02
G1 X81.2523 Y-175.4442 F2200.0
G1 Z0.0000 F2500.0
G4 P0.02
G0 X98.7713 Y-131.7634 F15000.0
G1 Z11.9000 F2500.0
G4 P0.02
G1 X98.7713 Y-138.6931 F2200.0
G1 Z0.0000 F2500.0
G4 P0.02
G0 X137.3912 Y-150.6061 F15000.0
G1 Z11.9000 F2500.0
G4 P0.02
G1 X137.3912 Y-138.6931 F2200.0
G1 Z0.0000 F2500.0
G4 P0.02
G0 X82.1867 Y-138.6931 F15000.0
G1 Z11.9000 F2500.0
G4 P0.02
G1 X98.7713 Y-138.6931 F12000.0
G1 Z0.0000 F2500.0
G4 P0.02
G0 X90.1286 Y-163.4534 F15000.0
G1 Z11.9000 F2500.0
G4 P0.02
G1 X52.7546 Y-163.4534 F12000.0
G1 Z0.0000 F2500.0
G4 P0.02
G0 X137.3912 Y-150.6061 F15000.0
G1 Z11.9000 F2500.0
G4 P0.02
G1 X104.2996 Y-150.6061 F12000.0
G1 Z0.0000 F2500.0
G4 P0.02
G0 X50.0294 Y-145.1557 F15000.0
G1 Z11.9000 F2500.0
G4 P0.02
G1 X82.1867 Y-145.1557 F12000.0
G1 Z0.0000 F2500.0
G4 P0.02
G0 X104.2996 Y-155.2779 F15000.0
G1 Z11.9000 F2500.0
G4 P0.02
G1 X90.1286 Y-163.4534 F12000.0
G1 Z0.0000 F2500.0
G4 P0.02
G0 X142.3743 Y-131.7634 F15000.0
G1 Z11.9000 F2500.0
G4 P0.02
G1 X143.8537 Y-133.2428 F2200.0
G1 Z0.0000 F2500.0
G4 P0.02
G0 X82.1867 Y-145.1557 F15000.0
G1 Z11.9000 F2500.0
G4 P0.02
G1 X82.1867 Y-138.6931 F2200.0
G1 Z0.0000 F2500.0
G4 P0.02
G0 X143.8537 Y-138.6931 F15000.0
G1 Z11.9000 F2500.0
G4 P0.02
G1 X137.3912 Y-138.6931 F2200.0
G1 Z0.0000 F2500.0
G4 P0.02
G0 X52.7546 Y-163.4534 F15000.0
G1 Z11.9000 F2500.0
G4 P0.02
G1 X50.0294 Y-160.6504 F2200.0
G1 Z0.0000 F2500.0
G4 P0.02
G0 X61.1638 Y-264.1297 F15000.0
G1 Z11.9000 F2500.0
G4 P0.02
G1 X0.0000 Y-264.1297 F12000.0
G1 Z0.0000 F2500.0
G4 P0.02
G0 X61.1638 Y-276.9770 F15000.0
G1 Z11.9000 F2500.0
G4 P0.02
G1 X61.1638 Y-264.1297 F2200.0
G1 Z0.0000 F2500.0
G4 P0.02
G0 X43.6043 Y-267.6013 F15000.0
G1 Z11.9000 F2500.0
G4 P0.02
G1 X43.7248 Y-267.3159 F2200.0
G1 X43.9965 Y-267.7549
G1 Z0.0000 F2500.0
G4 P0.02
G0 X45.7312 Y-272.8337 F15000.0
G1 Z11.9000 F2500.0
G4 P0.02
G1 X45.9194 Y-273.2100 F2200.0
G1 X45.7521 Y-272.8756
G1 X46.6927 Y-270.2211
G1 X46.6091 Y-269.9285
G1 X46.2956 Y-269.8240
G1 X46.6300 Y-269.9285
G1 Z0.0000 F2500.0
G4 P0.02
G0 X47.1943 Y-267.8176 F15000.0
G1 Z11.9000 F2500.0
G4 P0.02
G1 X47.3197 Y-267.7130 F2200.0
G1 Z0.0000 F2500.0
G4 P0.02
G0 X43.6514 Y-267.5509 F15000.0
G1 Z11.9000 F2500.0
G4 P0.02
G1 X43.7719 Y-267.2656 F2200.0
G1 Z0.0000 F2500.0
G4 P0.02
G0 X44.0436 Y-267.7045 F15000.0
G1 Z11.9000 F2500.0
G4 P0.02
G1 X45.7784 Y-272.7834 F2200.0
G1 X45.9665 Y-273.1597
G1 X45.7993 Y-272.8252
G1 Z0.0000 F2500.0
G4 P0.02
G0 X46.7398 Y-270.1708 F15000.0
G1 Z11.9000 F2500.0
G4 P0.02
G1 X46.6562 Y-269.8782 F2200.0
G1 X46.3427 Y-269.7737
G1 X46.6771 Y-269.8782
G1 X47.2415 Y-267.7672
G1 X47.3668 Y-267.6627
G1 X47.3459 Y-267.1193
G1 X48.1193 Y-269.1049
G1 Z0.0000 F2500.0
G4 P0.02
G0 X47.8893 Y-268.4778 F15000.0
G1 Z11.9000 F2500.0
G4 P0.02
G1 X49.3734 Y-272.4699 F2200.0
G1 Z0.0000 F2500.0
G4 P0.02
G0 X49.1435 Y-271.8428 F15000.0
G1 Z11.9000 F2500.0
G4 P0.02
G1 X49.6450 Y-273.1597 F2200.0
G1 Z0.0000 F2500.0
G4 P0.02
G0 X46.2956 Y-269.8240 F15000.0
G1 Z11.9000 F2500.0
G4 P0.02
G1 X44.1427 Y-267.8176 F2200.0
G1 X42.4705 Y-267.1072
G1 Z0.0000 F2500.0
G4 P0.02
G0 X42.7213 Y-267.5251 F15000.0
G1 Z11.9000 F2500.0
G4 P0.02
G1 X43.3483 Y-269.3227 F2200.0
G1 X43.3274 Y-269.9915
G1 X43.0348 Y-270.2840
G1 X41.1328 Y-270.3886
G1 Z0.0000 F2500.0
G4 P0.02
G0 X39.6906 Y-267.0863 F15000.0
G1 Z11.9000 F2500.0
G4 P0.02
G1 X38.8372 Y-267.8592 F2200.0
G1 Z0.0000 F2500.0
G4 P0.02
G0 X42.4529 Y-267.1738 F15000.0
G1 Z11.9000 F2500.0
G4 P0.02
G1 X42.7037 Y-267.5919 F2200.0
G1 Z0.0000 F2500.0
G4 P0.02
G0 X43.3307 Y-269.3893 F15000.0
G1 Z11.9000 F2500.0
G4 P0.02
G1 X43.3098 Y-270.0582 F2200.0
G1 X43.0172 Y-270.3508
G1 Z0.0000 F2500.0
G4 P0.02
G0 X41.1152 Y-270.4553 F15000.0
G1 Z11.9000 F2500.0
G4 P0.02
G1 X41.8468 Y-272.7962 F2200.0
G1 X39.6730 Y-267.1530
G1 Z0.0000 F2500.0
G4 P0.02
G0 X41.8643 Y-272.7295 F15000.0
G1 Z11.9000 F2500.0
G4 P0.02
G1 X42.0524 Y-273.2102 F2200.0
G1 X40.2376 Y-272.9800
G1 X40.4675 Y-272.5829
G1 X40.4048 Y-271.9140
G1 X38.8372 Y-267.8592
G1 Z0.0000 F2500.0
G4 P0.02
G0 X36.3709 Y-267.4830 F15000.0
G1 Z11.9000 F2500.0
G4 P0.02
G1 X36.2873 Y-267.6712 F2200.0
G1 Z0.0000 F2500.0
G4 P0.02
G0 X37.9385 Y-272.4783 F15000.0
G1 Z11.9000 F2500.0
G4 P0.02
G1 X38.6910 Y-273.0427 F2200.0
G1 X38.8999 Y-273.1054
G1 Z0.0000 F2500.0
G4 P0.02
G0 X41.8774 Y-272.7972 F15000.0
G1 Z11.9000 F2500.0
G4 P0.02
G1 X42.0655 Y-273.2779 F2200.0
G1 Z0.0000 F2500.0
G4 P0.02
G0 X40.2507 Y-273.0476 F15000.0
G1 Z11.9000 F2500.0
G4 P0.02
G1 X40.4806 Y-272.6506 F2200.0
G1 X40.4179 Y-271.9817
G1 Z0.0000 F2500.0
G4 P0.02
G0 X38.8503 Y-267.9270 F15000.0
G1 Z11.9000 F2500.0
G4 P0.02
G1 X38.0769 Y-267.3626 F2200.0
G1 X36.3840 Y-267.5508
G1 X36.3004 Y-267.7389
G1 X37.9516 Y-272.5461
G1 Z0.0000 F2500.0
G4 P0.02
G0 X38.7040 Y-273.1104 F15000.0
G1 Z11.9000 F2500.0
G4 P0.02
G1 X38.9130 Y-273.1731 F2200.0
G1 X40.1461 Y-273.1312
G1 Z0.0000 F2500.0
G4 P0.02
G0 X36.2156 Y-273.0636 F15000.0
G1 Z11.9000 F2500.0
G4 P0.02
G1 X34.9824 Y-273.1054 F2200.0
G1 X34.7735 Y-273.0427
G1 X34.0210 Y-272.4783
G1 Z0.0000 F2500.0
G4 P0.02
G0 X32.3698 Y-267.6712 F15000.0
G1 Z11.9000 F2500.0
G4 P0.02
G1 X32.4534 Y-267.4830 F2200.0
G1 Z0.0000 F2500.0
G4 P0.02
G0 X34.1464 Y-267.2950 F15000.0
G1 Z11.9000 F2500.0
G4 P0.02
G1 X34.9198 Y-267.8592 F2200.0
G1 X36.4873 Y-271.9140
G1 X36.5500 Y-272.5829
G1 Z0.0000 F2500.0
G4 P0.02
G0 X34.9394 Y-273.0515 F15000.0
G1 Z11.9000 F2500.0
G4 P0.02
G1 X34.7304 Y-272.9888 F2200.0
G1 Z0.0000 F2500.0
G4 P0.02
G0 X33.9779 Y-272.4245 F15000.0
G1 Z11.9000 F2500.0
G4 P0.02
G1 X32.3268 Y-267.6173 F2200.0
G1 X32.4104 Y-267.4292
G1 X34.1034 Y-267.2411
G1 Z0.0000 F2500.0
G4 P0.02
G0 X36.5069 Y-272.5290 F15000.0
G1 Z11.9000 F2500.0
G4 P0.02
G1 X36.2770 Y-272.9261 F2200.0
G1 Z0.0000 F2500.0
G4 P0.02
G0 X34.0210 Y-272.4783 F15000.0
G1 Z11.9000 F2500.0
G4 P0.02
G1 X33.1699 Y-273.1229 F2200.0
G1 X33.0027 Y-272.9557
G1 Z0.0000 F2500.0
G4 P0.02
G0 X30.6271 Y-273.1264 F15000.0
G1 Z11.9000 F2500.0
G4 P0.02
G1 X28.5997 Y-267.4622 F2200.0
G1 X28.3698 Y-267.1279
G1 Z0.0000 F2500.0
G4 P0.02
G0 X27.7834 Y-268.6153 F15000.0
G1 Z11.9000 F2500.0
G4 P0.02
G1 X27.7625 Y-268.5526 F2200.0
G1 X25.6515 Y-270.3501
G1 Z0.0000 F2500.0
G4 P0.02
G0 X24.8782 Y-268.1973 F15000.0
G1 Z11.9000 F2500.0
G4 P0.02
G1 X24.8782 Y-267.6748 F2200.0
G1 X25.0664 Y-267.3821
G1 Z0.0000 F2500.0
G4 P0.02
G0 X27.0101 Y-267.4657 F15000.0
G1 Z11.9000 F2500.0
G4 P0.02
G1 X27.4072 Y-267.8420 F2200.0
G1 Z0.0000 F2500.0
G4 P0.02
G0 X27.9297 Y-269.0124 F15000.0
G1 Z11.9000 F2500.0
G4 P0.02
G1 X27.9506 Y-270.0783 F2200.0
G1 X27.8253 Y-270.2038
G1 X25.7978 Y-270.4128
G1 X26.0069 Y-271.1025
G1 X26.2133 Y-271.3762
G1 Z0.0000 F2500.0
G4 P0.02
G0 X33.1604 Y-273.1912 F15000.0
G1 Z11.9000 F2500.0
G4 P0.02
G1 X32.9931 Y-273.0240 F2200.0
G1 X30.6175 Y-273.1947
G1 Z0.0000 F2500.0
G4 P0.02
G0 X28.5900 Y-267.5306 F15000.0
G1 Z11.9000 F2500.0
G4 P0.02
G1 X28.3601 Y-267.1961 F2200.0
G1 X28.6736 Y-267.5933
G1 X30.2204 Y-268.5338
G1 X27.7738 Y-268.6836
G1 X27.7529 Y-268.6209
G1 Z0.0000 F2500.0
G4 P0.02
G0 X25.6419 Y-270.4183 F15000.0
G1 Z11.9000 F2500.0
G4 P0.02
G1 X24.8685 Y-268.2655 F2200.0
G1 X24.8685 Y-267.7431
G1 X25.0567 Y-267.4505
G1 X26.3943 Y-267.2623
G1 X27.0004 Y-267.5341
G1 Z0.0000 F2500.0
G4 P0.02
G0 X27.3975 Y-267.9103 F15000.0
G1 Z11.9000 F2500.0
G4 P0.02
G1 X27.9201 Y-269.0807 F2200.0
G1 Z0.0000 F2500.0
G4 P0.02
G0 X27.9410 Y-270.1467 F15000.0
G1 Z11.9000 F2500.0
G4 P0.02
G1 X27.8156 Y-270.2721 F2200.0
G1 Z0.0000 F2500.0
G4 P0.02
G0 X25.9972 Y-271.1708 F15000.0
G1 Z11.9000 F2500.0
G4 P0.02
G1 X26.2037 Y-271.4445 F2200.0
G1 Z0.0000 F2500.0
G4 P0.02
G0 X24.9586 Y-268.4209 F15000.0
G1 Z11.9000 F2500.0
G4 P0.02
G1 X24.9295 Y-268.3401 F2200.0
G1 Z0.0000 F2500.0
G4 P0.02
G0 X24.8936 Y-268.4442 F15000.0
G1 Z11.9000 F2500.0
G4 P0.02
G1 X24.8646 Y-268.3635 F2200.0
G1 Z0.0000 F2500.0
G4 P0.02
G0 X26.0348 Y-271.1389 F15000.0
G1 Z11.9000 F2500.0
G4 P0.02
G1 X26.6966 Y-271.9803 F2200.0
G1 X27.5118 Y-272.6700
G1 Z0.0000 F2500.0
G4 P0.02
G0 X27.2624 Y-272.3656 F15000.0
G1 Z11.9000 F2500.0
G4 P0.02
G1 X27.1579 Y-272.2820 F2200.0
G1 Z0.0000 F2500.0
G4 P0.02
G0 X27.5550 Y-272.6163 F15000.0
G1 Z11.9000 F2500.0
G4 P0.02
G1 X28.6001 Y-273.1180 F2200.0
G1 Z0.0000 F2500.0
G4 P0.02
G0 X26.6966 Y-271.9803 F15000.0
G1 Z11.9000 F2500.0
G4 P0.02
G1 X25.5085 Y-272.9557 F2200.0
G1 X25.6757 Y-273.1229
G1 X22.5488 Y-273.1054
G1 X22.3398 Y-273.0427
G1 X21.5874 Y-272.4783
G1 Z0.0000 F2500.0
G4 P0.02
G0 X19.9362 Y-267.6712 F15000.0
G1 Z11.9000 F2500.0
G4 P0.02
G1 X20.0198 Y-267.4830 F2200.0
G1 X21.7128 Y-267.2950
G1 Z0.0000 F2500.0
G4 P0.02
G0 X24.0537 Y-271.9140 F15000.0
G1 Z11.9000 F2500.0
G4 P0.02
G1 X24.1164 Y-272.5829 F2200.0
G1 Z0.0000 F2500.0
G4 P0.02
G0 X25.5316 Y-273.0207 F15000.0
G1 Z11.9000 F2500.0
G4 P0.02
G1 X25.6988 Y-273.1879 F2200.0
G1 Z0.0000 F2500.0
G4 P0.02
G0 X22.5719 Y-273.1703 F15000.0
G1 Z11.9000 F2500.0
G4 P0.02
G1 X22.3629 Y-273.1076 F2200.0
G1 Z0.0000 F2500.0
G4 P0.02
G0 X21.6105 Y-272.5433 F15000.0
G1 Z11.9000 F2500.0
G4 P0.02
G1 X19.9593 Y-267.7361 F2200.0
G1 X20.0429 Y-267.5480
G1 Z0.0000 F2500.0
G4 P0.02
G0 X21.7359 Y-267.3599 F15000.0
G1 Z11.9000 F2500.0
G4 P0.02
G1 X22.5092 Y-267.9243 F2200.0
G1 X24.0767 Y-271.9790
G1 Z0.0000 F2500.0
G4 P0.02
G0 X24.1395 Y-272.6478 F15000.0
G1 Z11.9000 F2500.0
G4 P0.02
G1 X23.9095 Y-273.0450 F2200.0
G1 Z0.0000 F2500.0
G4 P0.02
G0 X19.8645 Y-273.0636 F15000.0
G1 Z11.9000 F2500.0
G4 P0.02
G1 X18.6314 Y-273.1054 F2200.0
G1 X18.4223 Y-273.0427
G1 X17.6699 Y-272.4783
G1 Z0.0000 F2500.0
G4 P0.02
G0 X16.0188 Y-267.6712 F15000.0
G1 Z11.9000 F2500.0
G4 P0.02
G1 X16.1024 Y-267.4830 F2200.0
G1 Z0.0000 F2500.0
G4 P0.02
G0 X17.7953 Y-267.2950 F15000.0
G1 Z11.9000 F2500.0
G4 P0.02
G1 X18.5687 Y-267.8592 F2200.0
G1 Z0.0000 F2500.0
G4 P0.02
G0 X18.5883 Y-273.0515 F15000.0
G1 Z11.9000 F2500.0
G4 P0.02
G1 X18.3792 Y-272.9888 F2200.0
G1 Z0.0000 F2500.0
G4 P0.02
G0 X17.6269 Y-272.4245 F15000.0
G1 Z11.9000 F2500.0
G4 P0.02
G1 X15.9757 Y-267.6173 F2200.0
G1 X16.0592 Y-267.4292
G1 X17.7522 Y-267.2411
G1 Z0.0000 F2500.0
G4 P0.02
G0 X18.5255 Y-267.8054 F15000.0
G1 Z11.9000 F2500.0
G4 P0.02
G1 X20.0931 Y-271.8601 F2200.0
G1 X20.1559 Y-272.5290
G1 X19.9260 Y-272.9261
G1 Z0.0000 F2500.0
G4 P0.02
G0 X16.8189 Y-273.1229 F15000.0
G1 Z11.9000 F2500.0
G4 P0.02
G1 X16.6516 Y-272.9557 F2200.0
G1 X13.6919 Y-273.1054
G1 X13.4829 Y-273.0427
G1 X12.7305 Y-272.4783
G1 X11.0793 Y-267.6712
G1 X11.1629 Y-267.4830
G1 X12.8559 Y-267.2950
G1 Z0.0000 F2500.0
G4 P0.02
G0 X13.6292 Y-267.8592 F15000.0
G1 Z11.9000 F2500.0
G4 P0.02
G1 X15.1968 Y-271.9140 F2200.0
G1 X15.2595 Y-272.5829
G1 X15.0296 Y-272.9800
G1 Z0.0000 F2500.0
G4 P0.02
G0 X17.6828 Y-272.5461 F15000.0
G1 Z11.9000 F2500.0
G4 P0.02
G1 X16.8317 Y-273.1907 F2200.0
G1 X16.6645 Y-273.0235
G1 Z0.0000 F2500.0
G4 P0.02
G0 X13.7048 Y-273.1731 F15000.0
G1 Z11.9000 F2500.0
G4 P0.02
G1 X13.4958 Y-273.1105 F2200.0
G1 Z0.0000 F2500.0
G4 P0.02
G0 X11.0922 Y-267.7390 F15000.0
G1 Z11.9000 F2500.0
G4 P0.02
G1 X11.1758 Y-267.5508 F2200.0
G1 Z0.0000 F2500.0
G4 P0.02
G0 X12.8688 Y-267.3627 F15000.0
G1 Z11.9000 F2500.0
G4 P0.02
G1 X13.6421 Y-267.9270 F2200.0
G1 Z0.0000 F2500.0
G4 P0.02
G0 X15.2097 Y-271.9818 F15000.0
G1 Z11.9000 F2500.0
G4 P0.02
G1 X15.2724 Y-272.6506 F2200.0
G1 X15.0425 Y-273.0477
G1 Z0.0000 F2500.0
G4 P0.02
G0 X10.3585 Y-273.1264 F15000.0
G1 Z11.9000 F2500.0
G4 P0.02
G1 X8.3311 Y-267.4622 F2200.0
G1 X8.1012 Y-267.1279
G1 X8.4148 Y-267.5250
G1 Z0.0000 F2500.0
G4 P0.02
G0 X9.9614 Y-268.4655 F15000.0
G1 Z11.9000 F2500.0
G4 P0.02
G1 X11.2054 Y-268.0382 F2200.0
G1 Z0.0000 F2500.0
G4 P0.02
G0 X8.2631 Y-267.4509 F15000.0
G1 Z11.9000 F2500.0
G4 P0.02
G1 X8.0332 Y-267.1165 F2200.0
G1 X8.3467 Y-267.5136
G1 X9.8934 Y-268.4542
G1 Z0.0000 F2500.0
G4 P0.02

G0 Z0.0000 F800.0
G4 P0.06
G0 X0.0000 Y0.0000 F15000.0
M5
G4 P0.10
$1=0
