$X
$1=255
G21
G90
G92 Z4.0000
G0 Z0.0000 F800.0
G4 P0.06
G92 Z0.0000
G0 Z0.0000 F800.0
G0 X0.0000 Y0.0000 F15000.0
G21
G90
G17
G91.1
G0 Z0.0000
G0 X0.0000 Y-5.0000 F15000.0
G1 Z11.9000 F8000.0
G1 X180.0000 Y-5.0000 F12000.0
G1 X180.0000 Y-285.0000
G1 X0.0000 Y-285.0000
G1 X0.0000 Y-5.0000
G1 Z0.0000 F8000.0
G0 X48.2698 Y-219.0991 F15000.0
G1 Z11.9000 F8000.0
G1 X48.5794 Y-219.2317 F12000.0
G1 X51.5426 Y-222.4161
G1 X51.6752 Y-223.1237
G1 Z0.0000 F8000.0
G0 X51.2330 Y-223.6102 F15000.0
G1 Z11.9000 F8000.0
G1 X50.4811 Y-223.5217 F12000.0
G1 X49.9946 Y-223.2564
G1 X49.7293 Y-222.9910
G1 Z0.0000 F8000.0
G0 X52.5156 Y-221.7084 F15000.0
G1 Z11.9000 F8000.0
G1 X51.7637 Y-220.2490 F12000.0
G1 X53.0905 Y-220.2047
G1 X53.4001 Y-221.0893
G1 Z0.0000 F8000.0
G0 X53.1790 Y-220.2047 F15000.0
G1 Z11.9000 F8000.0
G1 X53.6655 Y-220.2047 F12000.0
G1 Z0.0000 F8000.0
G0 X52.9578 Y-220.1605 F15000.0
G1 Z11.9000 F8000.0
G1 X52.6040 Y-219.1433 F12000.0
G1 Z0.0000 F8000.0
G0 X50.2158 Y-219.1433 F15000.0
G1 Z11.9000 F8000.0
G1 X48.5794 Y-219.2317 F12000.0
G1 Z0.0000 F8000.0
G0 X44.8970 Y-217.1647 F15000.0
G1 Z11.9000 F8000.0
G1 X40.0366 Y-216.5057 F12000.0
G1 X44.8970 Y-215.8467 F12000.0
G1 X44.4028 Y-216.5057 F12000.0
G1 X44.8970 Y-217.1647 F12000.0
G1 Z0.0000 F8000.0
G0 X43.2342 Y-216.8352 F15000.0
G1 Z11.9000 F8000.0
G1 X42.3585 Y-216.8352 F12000.0
G1 Z0.0000 F8000.0
G0 X42.0290 Y-216.2174 F15000.0
G1 Z11.9000 F8000.0
G1 X42.9047 Y-216.2174 F12000.0
G1 Z0.0000 F8000.0
G0 X40.0366 Y-216.5057 F15000.0
G1 Z11.9000 F8000.0
G1 X63.3501 Y-216.5057 F12000.0
G1 X58.4897 Y-215.8467 F12000.0
G1 X58.9840 Y-216.5057 F12000.0
G1 X58.4897 Y-217.1647 F12000.0
G1 X63.3501 Y-216.5057 F12000.0
G1 Z0.0000 F8000.0
G0 X61.3990 Y-216.2174 F15000.0
G1 Z11.9000 F8000.0
G1 X60.5233 Y-216.2174 F12000.0
G1 Z0.0000 F8000.0
G0 X60.2349 Y-216.8352 F15000.0
G1 Z11.9000 F8000.0
G1 X61.1106 Y-216.8352 F12000.0
G1 Z0.0000 F8000.0
G0 X63.3501 Y-218.4828 F15000.0
G1 Z11.9000 F8000.0
G1 X63.3501 Y-194.9222 F12000.0
G1 X41.4371 Y-194.9222 F12000.0
G1 X40.0366 Y-193.5217 F12000.0
G1 X40.0366 Y-161.3936 F12000.0
G1 X41.4371 Y-159.9108 F12000.0
G1 X63.3501 Y-159.9108 F12000.0
G1 X63.3501 Y-137.5034 F12000.0
G1 Z0.0000 F8000.0
G0 X63.3501 Y-139.4806 F15000.0
G1 Z11.9000 F8000.0
G1 X58.4897 Y-138.8215 F12000.0
G1 X58.9840 Y-139.4806 F12000.0
G1 X58.4897 Y-140.1396 F12000.0
G1 X63.3501 Y-139.4806 F12000.0
G1 X40.0366 Y-139.4806 F12000.0
G1 X44.8970 Y-140.1396 F12000.0
G1 X44.4028 Y-139.4806 F12000.0
G1 X44.8970 Y-138.8215 F12000.0
G1 X40.0366 Y-139.4806 F12000.0
G1 Z0.0000 F8000.0
G0 X42.0290 Y-139.1922 F15000.0
G1 Z11.9000 F8000.0
G1 X42.9047 Y-139.1922 F12000.0
G1 Z0.0000 F8000.0
G0 X43.2342 Y-139.8101 F15000.0
G1 Z11.9000 F8000.0
G1 X42.3585 Y-139.8101 F12000.0
G1 Z0.0000 F8000.0
G0 X48.2698 Y-142.0722 F15000.0
G1 Z11.9000 F8000.0
G1 X48.5794 Y-142.2049 F12000.0
G1 X51.5426 Y-145.3892
G1 X51.6752 Y-146.0969
G1 Z0.0000 F8000.0
G0 X51.2330 Y-146.5834 F15000.0
G1 Z11.9000 F8000.0
G1 X50.4811 Y-146.4949 F12000.0
G1 X49.9946 Y-146.2295
G1 X49.7293 Y-145.9642
G1 Z0.0000 F8000.0
G0 X52.5156 Y-144.6816 F15000.0
G1 Z11.9000 F8000.0
G1 X51.7637 Y-143.2221 F12000.0
G1 X52.9578 Y-143.1337
G1 X53.6655 Y-143.1779
G1 Z0.0000 F8000.0
G0 X53.0905 Y-143.1779 F15000.0
G1 Z11.9000 F8000.0
G1 X52.9578 Y-143.1337 F12000.0
G1 Z0.0000 F8000.0
G0 X53.4001 Y-144.0624 F15000.0
G1 Z11.9000 F8000.0
G1 X52.9578 Y-143.1337 F12000.0
G1 X52.6040 Y-142.1164
G1 Z0.0000 F8000.0
G0 X50.2158 Y-142.1164 F15000.0
G1 Z11.9000 F8000.0
G1 X48.5794 Y-142.2049 F12000.0
G1 Z0.0000 F8000.0
G0 X46.3799 Y-150.9313 F15000.0
G1 Z11.9000 F8000.0
G1 X41.4371 Y-151.5904 F12000.0
G1 X46.3799 Y-152.2494 F12000.0
G1 X45.8856 Y-151.5904 F12000.0
G1 X46.3799 Y-150.9313 F12000.0
G1 Z0.0000 F8000.0
G0 X44.6758 Y-151.9199 F15000.0
G1 Z11.9000 F8000.0
G1 X43.8002 Y-151.9199 F12000.0
G1 Z0.0000 F8000.0
G0 X43.4706 Y-151.3021 F15000.0
G1 Z11.9000 F8000.0
G1 X44.3463 Y-151.3021 F12000.0
G1 Z0.0000 F8000.0
G0 X41.4371 Y-151.5904 F15000.0
G1 Z11.9000 F8000.0
G1 X48.2746 Y-151.5904 F12000.0
G1 Z0.0000 F8000.0
G0 X41.4371 Y-151.5904 F15000.0
G1 Z11.9000 F8000.0
G1 X40.0366 Y-151.5904 F12000.0
G1 X35.1762 Y-152.2494 F12000.0
G1 X35.6705 Y-151.5904 F12000.0
G1 X35.1762 Y-150.9313 F12000.0
G1 X40.0366 Y-151.5904 F12000.0
G1 X33.1991 Y-151.5904 F12000.0
G1 Z0.0000 F8000.0
G0 X35.1762 Y-151.5904 F15000.0
G1 Z11.9000 F8000.0
G1 X13.4279 Y-151.5904 F12000.0
G1 Z0.0000 F8000.0
G0 X17.2966 Y-153.4457 F15000.0
G1 Z11.9000 F8000.0
G1 X17.9158 Y-154.3744 F12000.0
G1 Z0.0000 F8000.0
G0 X18.7644 Y-154.2067 F15000.0
G1 Z11.9000 F8000.0
G1 X19.9586 Y-154.3393 F12000.0
G1 X20.4893 Y-154.6047
G1 Z0.0000 F8000.0
G0 X20.7989 Y-154.9585 F15000.0
G1 Z11.9000 F8000.0
G1 X20.9758 Y-155.3566 F12000.0
G1 Z0.0000 F8000.0
G0 X21.1084 Y-155.7104 F15000.0
G1 Z11.9000 F8000.0
G1 X21.1527 Y-156.4622 F12000.0
G1 Z0.0000 F8000.0
G0 X21.0200 Y-156.5949 F15000.0
G1 Z11.9000 F8000.0
G1 X19.8701 Y-156.8160 F12000.0
G1 X20.4450 Y-158.5409
G1 X22.1257 Y-158.8063
G1 Z0.0000 F8000.0
G0 X22.3377 Y-156.4516 F15000.0
G1 Z11.9000 F8000.0
G1 X23.1781 Y-155.0364 F12000.0
G1 Z0.0000 F8000.0
G0 X22.6031 Y-155.6556 F15000.0
G1 Z11.9000 F8000.0
G1 X22.4704 Y-155.6113 F12000.0
G1 Z0.0000 F8000.0
G0 X22.2051 Y-155.4344 F15000.0
G1 Z11.9000 F8000.0
G1 X21.8955 Y-155.2133 F12000.0
G1 Z0.0000 F8000.0
G0 X21.5417 Y-154.9922 F15000.0
G1 Z11.9000 F8000.0
G1 X21.4532 Y-154.8595 F12000.0
G1 Z0.0000 F8000.0
G0 X23.2223 Y-156.1421 F15000.0
G1 Z11.9000 F8000.0
G1 X23.6203 Y-156.4516 F12000.0
G1 Z0.0000 F8000.0
G0 X23.9741 Y-156.6728 F15000.0
G1 Z11.9000 F8000.0
G1 X24.0184 Y-156.8055 F12000.0
G1 Z0.0000 F8000.0
G0 X25.3655 Y-157.4439 F15000.0
G1 Z11.9000 F8000.0
G1 X24.3482 Y-155.6748 F12000.0
G1 X24.3040 Y-155.4094
G1 X25.4539 Y-155.3210
G1 X25.4097 Y-154.9672
G1 X25.1885 Y-154.4364
G1 Z0.0000 F8000.0
G0 X26.6163 Y-154.2067 F15000.0
G1 Z11.9000 F8000.0
G1 X27.8104 Y-154.3393 F12000.0
G1 X28.3411 Y-154.6047
G1 Z0.0000 F8000.0
G0 X28.6507 Y-154.9585 F15000.0
G1 Z11.9000 F8000.0
G1 X28.8276 Y-155.3566 F12000.0
G1 Z0.0000 F8000.0
G0 X28.9603 Y-155.7104 F15000.0
G1 Z11.9000 F8000.0
G1 X29.0045 Y-156.4622 F12000.0
G1 Z0.0000 F8000.0
G0 X28.8718 Y-156.5949 F15000.0
G1 Z11.9000 F8000.0
G1 X27.7219 Y-156.8160 F12000.0
G1 X28.2969 Y-158.5409
G1 X29.9775 Y-158.8063
G1 Z0.0000 F8000.0
G0 X30.7807 Y-158.2739 F15000.0
G1 Z11.9000 F8000.0
G1 X30.8249 Y-157.8758 F12000.0
G1 X31.2671 Y-157.8316
G1 X31.7979 Y-158.6277
G1 X31.6210 Y-158.8046
G1 X31.0902 Y-158.6277
G1 Z0.0000 F8000.0
G0 X26.1173 Y-158.8149 F15000.0
G1 Z11.9000 F8000.0
G1 X25.6750 Y-158.0188 F12000.0
G1 Z0.0000 F8000.0
G0 X25.9846 Y-156.3824 F15000.0
G1 Z11.9000 F8000.0
G1 X25.6750 Y-155.3652 F12000.0
G1 X26.3384 Y-155.4094
G1 Z0.0000 F8000.0
G0 X18.6618 Y-158.7512 F15000.0
G1 Z11.9000 F8000.0
G1 X18.3964 Y-158.3974 F12000.0
G1 X16.9370 Y-154.3285
G1 Z0.0000 F8000.0
G0 X17.1139 Y-157.6897 F15000.0
G1 Z11.9000 F8000.0
G1 X17.2908 Y-157.8667 F12000.0
G1 Z0.0000 F8000.0
G0 X18.0426 Y-158.3531 F15000.0
G1 Z11.9000 F8000.0
G1 X18.3522 Y-158.4416 F12000.0
G1 Z0.0000 F8000.0
G0 X36.9214 Y-151.9199 F15000.0
G1 Z11.9000 F8000.0
G1 X37.7971 Y-151.9199 F12000.0
G1 Z0.0000 F8000.0
G0 X38.0855 Y-151.3021 F15000.0
G1 Z11.9000 F8000.0
G1 X37.2098 Y-151.3021 F12000.0
G1 Z0.0000 F8000.0
G0 X41.4371 Y-149.6133 F15000.0
G1 Z11.9000 F8000.0
G1 X41.4371 Y-159.9108 F12000.0
G1 Z0.0000 F8000.0
G0 X41.1899 Y-160.2403 F15000.0
G1 Z11.9000 F8000.0
G1 X54.5355 Y-173.5858 F12000.0
G1 Z0.0000 F8000.0
G0 X58.6545 Y-173.5858 F15000.0
G1 Z11.9000 F8000.0
G1 X44.9794 Y-159.9108 F12000.0
G1 Z0.0000 F8000.0
G0 X49.0984 Y-159.9108 F15000.0
G1 Z11.9000 F8000.0
G1 X62.7735 Y-173.5858 F12000.0
G1 Z0.0000 F8000.0
G0 X63.3501 Y-173.5858 F15000.0
G1 Z11.9000 F8000.0
G1 X63.3501 Y-194.9222 F12000.0
G1 Z0.0000 F8000.0
G0 X60.4668 Y-194.9222 F15000.0
G1 Z11.9000 F8000.0
G1 X60.4668 Y-177.4577 F12000.0
G1 Z0.0000 F8000.0
G0 X62.1144 Y-177.4577 F15000.0
G1 Z11.9000 F8000.0
G1 X52.2288 Y-177.4577 F12000.0
G1 Z0.0000 F8000.0
G0 X50.7460 Y-177.4577 F15000.0
G1 Z11.9000 F8000.0
G1 X49.3455 Y-177.4577 F12000.0
G1 Z0.0000 F8000.0
G0 X47.8627 Y-177.4577 F15000.0
G1 Z11.9000 F8000.0
G1 X37.9771 Y-177.4577 F12000.0
G1 Z0.0000 F8000.0
G0 X35.8353 Y-178.4462 F15000.0
G1 Z11.9000 F8000.0
G1 X35.1762 Y-177.9519 F12000.0
G1 X34.5172 Y-178.4462 F12000.0
G1 X35.1762 Y-173.5858 F12000.0
G1 X35.8353 Y-178.4462 F12000.0
G1 Z0.0000 F8000.0
G0 X34.8879 Y-176.7834 F15000.0
G1 Z11.9000 F8000.0
G1 X34.8879 Y-175.9077 F12000.0
G1 Z0.0000 F8000.0
G0 X35.5057 Y-175.6194 F15000.0
G1 Z11.9000 F8000.0
G1 X35.5057 Y-176.4950 F12000.0
G1 Z0.0000 F8000.0
G0 X35.1762 Y-173.5858 F15000.0
G1 Z11.9000 F8000.0
G1 X35.1762 Y-186.1899 F12000.0
G1 Z0.0000 F8000.0
G0 X32.1522 Y-181.5663 F15000.0
G1 Z11.9000 F8000.0
G1 X31.8868 Y-181.8316 F12000.0
G1 X31.3119 Y-182.0970
G1 X30.2062 Y-182.1412
G1 X29.9850 Y-182.0085
G1 X29.8966 Y-182.0970
G1 Z0.0000 F8000.0
G0 X29.8524 Y-180.9913 F15000.0
G1 Z11.9000 F8000.0
G1 X28.9236 Y-181.0355 F12000.0
G1 Z0.0000 F8000.0
G0 X28.3929 Y-181.3893 F15000.0
G1 Z11.9000 F8000.0
G1 X28.3044 Y-181.4778 F12000.0
G1 Z0.0000 F8000.0
G0 X28.0833 Y-181.7874 F15000.0
G1 Z11.9000 F8000.0
G1 X27.9948 Y-182.5392 F12000.0
G1 X28.7025 Y-182.8488
G1 X29.7197 Y-182.3181
G1 X29.8524 Y-182.1412
G1 X29.9850 Y-181.0798
G1 X30.2946 Y-180.6375
G1 Z0.0000 F8000.0
G0 X30.5600 Y-180.3721 F15000.0
G1 Z11.9000 F8000.0
G1 X30.6485 Y-180.2837 F12000.0
G1 X32.0637 Y-179.8414
G1 X32.1964 Y-179.9299
G1 Z0.0000 F8000.0
G0 X32.2848 Y-180.0183 F15000.0
G1 Z11.9000 F8000.0
G1 X32.4618 Y-180.8144 F12000.0
G1 X32.3733 Y-181.2124
G1 Z0.0000 F8000.0
G0 X30.6485 Y-179.3991 F15000.0
G1 Z11.9000 F8000.0
G1 X30.8696 Y-179.1780 F12000.0
G1 Z0.0000 F8000.0
G0 X31.0465 Y-178.9569 F15000.0
G1 Z11.9000 F8000.0
G1 X31.2676 Y-178.6031 F12000.0
G1 X31.4003 Y-177.6743
G1 X31.1349 Y-177.7627
G1 Z0.0000 F8000.0
G0 X31.7541 Y-177.3205 F15000.0
G1 Z11.9000 F8000.0
G1 X31.3119 Y-177.4532 F12000.0
G1 X31.1792 Y-177.3205
G1 X30.2946 Y-177.1878
G1 X29.5870 Y-177.5416
G1 X29.3659 Y-177.8070
G1 Z0.0000 F8000.0
G0 X29.1890 Y-178.1166 F15000.0
G1 Z11.9000 F8000.0
G1 X29.0121 Y-179.0895 F12000.0
G1 Z0.0000 F8000.0
G0 X29.1005 Y-179.3107 F15000.0
G1 Z11.9000 F8000.0
G1 X29.1890 Y-179.4434 F12000.0
G1 X29.8524 Y-179.7087
G1 X30.3831 Y-179.5318
G1 Z0.0000 F8000.0
G0 X30.2062 Y-178.3819 F15000.0
G1 Z11.9000 F8000.0
G1 X29.0121 Y-179.2665 F12000.0
G1 X28.5256 Y-179.5318
G1 Z0.0000 F8000.0
G0 X32.1079 Y-177.0993 F15000.0
G1 Z11.9000 F8000.0
G1 X32.1964 Y-177.0109 F12000.0
G1 Z0.0000 F8000.0
G0 X33.1991 Y-173.5858 F15000.0
G1 Z11.9000 F8000.0
G1 X40.0366 Y-173.5858 F12000.0
G1 X63.3501 Y-173.5858 F12000.0
G1 X66.3158 Y-177.4577 F12000.0
G1 Z0.0000 F8000.0
G0 X66.4806 Y-177.4577 F15000.0
G1 Z11.9000 F8000.0
G1 X76.4485 Y-177.4577 F12000.0
G1 Z0.0000 F8000.0
G0 X74.0595 Y-176.6339 F15000.0
G1 Z11.9000 F8000.0
G1 X57.4188 Y-159.9108 F12000.0
G1 Z0.0000 F8000.0
G0 X60.4668 Y-159.9108 F15000.0
G1 Z11.9000 F8000.0
G1 X60.4668 Y-161.3936 F12000.0
G1 X40.0366 Y-161.3936 F12000.0
G1 X40.0366 Y-126.8764 F12000.0
G1 Z0.0000 F8000.0
G0 X40.0366 Y-128.8536 F15000.0
G1 Z11.9000 F8000.0
G1 X44.8970 Y-129.4302 F12000.0
G1 X44.4028 Y-128.8536 F12000.0
G1 X44.8970 Y-128.1945 F12000.0
G1 X40.0366 Y-128.8536 F12000.0
G1 X74.0595 Y-128.8536 F12000.0
G1 X69.1991 Y-128.1945 F12000.0
G1 X69.6934 Y-128.8536 F12000.0
G1 X69.1991 Y-129.4302 F12000.0
G1 X74.0595 Y-128.8536 F12000.0
G1 Z0.0000 F8000.0
G0 X72.1083 Y-128.5652 F15000.0
G1 Z11.9000 F8000.0
G1 X71.2326 Y-128.5652 F12000.0
G1 Z0.0000 F8000.0
G0 X70.9031 Y-129.1419 F15000.0
G1 Z11.9000 F8000.0
G1 X71.7788 Y-129.1419 F12000.0
G1 Z0.0000 F8000.0
G0 X74.0595 Y-126.8764 F15000.0
G1 Z11.9000 F8000.0
G1 X74.0595 Y-151.5904 F12000.0
G1 X63.3501 Y-151.5904 F12000.0
G1 Z0.0000 F8000.0
G0 X63.3501 Y-153.4851 F15000.0
G1 Z11.9000 F8000.0
G1 X74.0595 Y-164.1945 F12000.0
G1 Z0.0000 F8000.0
G0 X74.0595 Y-160.0755 F15000.0
G1 Z11.9000 F8000.0
G1 X65.5744 Y-151.5904 F12000.0
G1 Z0.0000 F8000.0
G0 X69.6934 Y-151.5904 F15000.0
G1 Z11.9000 F8000.0
G1 X74.0595 Y-155.9565 F12000.0
G1 Z0.0000 F8000.0
G0 X74.0595 Y-151.8375 F15000.0
G1 Z11.9000 F8000.0
G1 X73.8124 Y-151.5904 F12000.0
G1 Z0.0000 F8000.0
G0 X74.0595 Y-151.5904 F15000.0
G1 Z11.9000 F8000.0
G1 X74.0595 Y-203.2426 F12000.0
G1 X63.3501 Y-203.2426 F12000.0
G1 Z0.0000 F8000.0
G0 X63.3501 Y-207.6911 F15000.0
G1 Z11.9000 F8000.0
G1 X68.2105 Y-207.0320 F12000.0
G1 X67.7163 Y-207.6911 F12000.0
G1 X68.2105 Y-208.3501 F12000.0
G1 X63.3501 Y-207.6911 F12000.0
G1 X70.1877 Y-207.6911 F12000.0
G1 Z0.0000 F8000.0
G0 X66.5477 Y-208.0206 F15000.0
G1 Z11.9000 F8000.0
G1 X65.6720 Y-208.0206 F12000.0
G1 Z0.0000 F8000.0
G0 X65.3425 Y-207.4027 F15000.0
G1 Z11.9000 F8000.0
G1 X66.2182 Y-207.4027 F12000.0
G1 Z0.0000 F8000.0
G0 X63.3501 Y-207.6911 F15000.0
G1 Z11.9000 F8000.0
G1 X60.4668 Y-207.6911 F12000.0
G1 X55.6064 Y-208.3501 F12000.0
G1 X56.1007 Y-207.6911 F12000.0
G1 X55.6064 Y-207.0320 F12000.0
G1 X60.4668 Y-207.6911 F12000.0
G1 X53.6293 Y-207.6911 F12000.0
G1 Z0.0000 F8000.0
G0 X55.6064 Y-207.6911 F15000.0
G1 Z11.9000 F8000.0
G1 X47.2037 Y-207.6911 F12000.0
G1 Z0.0000 F8000.0
G0 X49.6088 Y-210.2672 F15000.0
G1 Z11.9000 F8000.0
G1 X50.8030 Y-210.3999 F12000.0
G1 X51.3337 Y-210.6653
G1 X51.5990 Y-210.9306
G1 X51.8644 Y-211.5498
G1 Z0.0000 F8000.0
G0 X51.9971 Y-211.8594 F15000.0
G1 Z11.9000 F8000.0
G1 X52.0413 Y-211.9479 F12000.0
G1 X51.7759 Y-212.7882
G1 X51.4664 Y-212.7882
G1 Z0.0000 F8000.0
G0 X51.8644 Y-212.8766 F15000.0
G1 Z11.9000 F8000.0
G1 X52.3951 Y-213.6285 F12000.0
G1 X52.6605 Y-214.4688
G1 X52.5720 Y-214.6457
G1 Z0.0000 F8000.0
G0 X52.3951 Y-214.7784 F15000.0
G1 Z11.9000 F8000.0
G1 X51.4664 Y-214.8668 F12000.0
G1 Z0.0000 F8000.0
G0 X57.3516 Y-208.0206 F15000.0
G1 Z11.9000 F8000.0
G1 X58.2273 Y-208.0206 F12000.0
G1 Z0.0000 F8000.0
G0 X58.5157 Y-207.4027 F15000.0
G1 Z11.9000 F8000.0
G1 X57.6400 Y-207.4027 F12000.0
G1 Z0.0000 F8000.0
G0 X60.4668 Y-209.6682 F15000.0
G1 Z11.9000 F8000.0
G1 X60.4668 Y-194.9222 F12000.0
G1 Z0.0000 F8000.0
G0 X60.4668 Y-193.5217 F15000.0
G1 Z11.9000 F8000.0
G1 X40.0366 Y-193.5217 F12000.0
G1 X40.0366 Y-218.4828 F12000.0
G1 Z0.0000 F8000.0
G0 X41.4371 Y-194.9222 F15000.0
G1 Z11.9000 F8000.0
G1 X41.4371 Y-177.4577 F12000.0
G1 Z0.0000 F8000.0
G0 X42.0961 Y-173.5858 F15000.0
G1 Z11.9000 F8000.0
G1 X40.0366 Y-171.4439 F12000.0
G1 Z0.0000 F8000.0
G0 X40.0366 Y-167.3249 F15000.0
G1 Z11.9000 F8000.0
G1 X46.2151 Y-173.5858 F12000.0
G1 Z0.0000 F8000.0
G0 X50.3341 Y-173.5858 F15000.0
G1 Z11.9000 F8000.0
G1 X40.0366 Y-163.2059 F12000.0
G1 Z0.0000 F8000.0
G0 X53.2998 Y-159.9108 F15000.0
G1 Z11.9000 F8000.0
G1 X70.7643 Y-177.4577 F12000.0
G1 Z0.0000 F8000.0
G0 X66.6453 Y-177.4577 F15000.0
G1 Z11.9000 F8000.0
G1 X65.1625 Y-175.9748 F12000.0
G1 Z0.0000 F8000.0
G0 X65.0801 Y-177.4577 F15000.0
G1 Z11.9000 F8000.0
G1 X63.5973 Y-177.4577 F12000.0
G1 Z0.0000 F8000.0
G0 X74.0595 Y-172.5149 F15000.0
G1 Z11.9000 F8000.0
G1 X61.5378 Y-159.9108 F12000.0
G1 Z0.0000 F8000.0
G0 X63.3501 Y-157.6865 F15000.0
G1 Z11.9000 F8000.0
G1 X74.0595 Y-168.3135 F12000.0
G1 Z0.0000 F8000.0
G0 X74.0595 Y-190.3913 F15000.0
G1 Z11.9000 F8000.0
G1 X63.3501 Y-190.3913 F12000.0
G1 Z0.0000 F8000.0
G0 X93.6659 Y-200.2769 F15000.0
G1 Z11.9000 F8000.0
G1 X114.3432 Y-200.2769 F12000.0
G1 X120.0275 Y-191.9565 F12000.0
G1 X123.3227 Y-188.2494 F12000.0
G1 X122.4989 Y-188.3318 F12000.0
G1 X122.2517 Y-187.5904 F12000.0
G1 X120.0275 Y-191.9565 F12000.0
G1 X139.7162 Y-162.9588 F12000.0
G1 X136.4210 Y-166.5835 F12000.0
G1 X137.2448 Y-166.5835 F12000.0
G1 X137.4920 Y-167.3249 F12000.0
G1 X139.7162 Y-162.9588 F12000.0
G1 Z0.0000 F8000.0
G0 X140.2929 Y-163.3707 F15000.0
G1 Z11.9000 F8000.0
G1 X138.2334 Y-162.0526 F12000.0
G1 X136.0915 Y-161.0641 F12000.0
G1 X133.7849 Y-160.4050 F12000.0
G1 X131.3959 Y-159.9931 F12000.0
G1 X129.0069 Y-159.9108 F12000.0
G1 X126.6178 Y-160.2403 F12000.0
G1 X124.3112 Y-160.8169 F12000.0
G1 X122.0870 Y-161.7231 F12000.0
G1 X120.0275 Y-162.9588 F12000.0
G1 X118.1327 Y-164.4416 F12000.0
G1 X116.4851 Y-166.1716 F12000.0
G1 X115.0847 Y-168.0664 F12000.0
G1 X113.9313 Y-170.2082 F12000.0
G1 X113.1076 Y-172.4325 F12000.0
G1 X112.5309 Y-174.8215 F12000.0
G1 X112.3661 Y-177.2105 F12000.0
G1 X112.4485 Y-179.5995 F12000.0
G1 X112.9428 Y-181.9886 F12000.0
G1 X113.6842 Y-184.2128 F12000.0
G1 X114.7551 Y-186.3547 F12000.0
G1 X116.1556 Y-188.3318 F12000.0
G1 X117.8032 Y-190.1442 F12000.0
G1 X119.6156 Y-191.6270 F12000.0
G1 X121.6751 Y-192.9451 F12000.0
G1 X123.8169 Y-193.9336 F12000.0
G1 X126.1236 Y-194.5927 F12000.0
G1 X128.5126 Y-194.9222 F12000.0
G1 X130.9016 Y-194.9222 F12000.0
G1 X133.2906 Y-194.5927 F12000.0
G1 X135.5972 Y-194.0160 F12000.0
G1 X137.8215 Y-193.0275 F12000.0
G1 X139.8810 Y-191.7918 F12000.0
G1 X141.7757 Y-190.3089 F12000.0
G1 X143.4233 Y-188.4966 F12000.0
G1 X144.8238 Y-186.6018 F12000.0
G1 X145.8947 Y-184.4599 F12000.0
G1 X146.7185 Y-182.1533 F12000.0
G1 X147.2128 Y-179.8467 F12000.0
G1 X147.3776 Y-177.4577 F12000.0
G1 X147.2952 Y-175.5629 F12000.0
G1 X146.8833 Y-173.1739 F12000.0
G1 X146.0595 Y-170.8673 F12000.0
G1 X145.0709 Y-168.7254 F12000.0
G1 X143.7529 Y-166.7483 F12000.0
G1 X142.1053 Y-164.9359 F12000.0
G1 X140.2929 Y-163.3707 F12000.0
G1 Z0.0000 F8000.0
G0 X138.5629 Y-164.5240 F15000.0
G1 Z11.9000 F8000.0
G1 X136.5858 Y-163.4531 F12000.0
G1 X134.5263 Y-162.5469 F12000.0
G1 X132.3021 Y-162.0526 F12000.0
G1 X130.0778 Y-161.8879 F12000.0
G1 X127.7712 Y-162.0526 F12000.0
G1 X125.5469 Y-162.4645 F12000.0
G1 X123.4874 Y-163.2883 F12000.0
G1 X121.4279 Y-164.3593 F12000.0
G1 X119.6156 Y-165.6773 F12000.0
G1 X118.0503 Y-167.3249 F12000.0
G1 X116.7323 Y-169.1373 F12000.0
G1 X115.6613 Y-171.1144 F12000.0
G1 X114.8375 Y-173.2563 F12000.0
G1 X114.4256 Y-175.4805 F12000.0
G1 X114.2609 Y-177.7048 F12000.0
G1 X114.5080 Y-180.0114 F12000.0
G1 X115.0023 Y-182.1533 F12000.0
G1 X115.9085 Y-184.2952 F12000.0
G1 X116.9794 Y-186.1899 F12000.0
G1 X118.4622 Y-188.0023 F12000.0
G1 X120.1098 Y-189.5675 F12000.0
G1 X121.9222 Y-190.8032 F12000.0
G1 X123.9817 Y-191.8741 F12000.0
G1 X126.1236 Y-192.5332 F12000.0
G1 X128.3478 Y-192.9451 F12000.0
G1 X130.5721 Y-193.0275 F12000.0
G1 X132.8787 Y-192.6979 F12000.0
G1 Z0.0000 F8000.0
G0 X129.8307 Y-193.2746 F15000.0
G1 Z11.9000 F8000.0
G1 X129.8307 Y-185.6133 F12000.0
G1 Z0.0000 F8000.0
G0 X129.8307 Y-184.1304 F15000.0
G1 Z11.9000 F8000.0
G1 X129.8307 Y-182.7300 F12000.0
G1 Z0.0000 F8000.0
G0 X129.8307 Y-181.2471 F15000.0
G1 Z11.9000 F8000.0
G1 X129.8307 Y-177.4577 F12000.0
G1 X129.8307 Y-173.6682 F12000.0
G1 Z0.0000 F8000.0
G0 X129.6659 Y-173.5858 F15000.0
G1 Z11.9000 F8000.0
G1 X128.5126 Y-173.7506 F12000.0
G1 X127.5240 Y-174.3272 F12000.0
G1 X126.7826 Y-175.0686 F12000.0
G1 X126.2059 Y-176.0572 F12000.0
G1 X125.9588 Y-177.2105 F12000.0
G1 X126.0412 Y-178.3638 F12000.0
G1 X126.4531 Y-179.3524 F12000.0
G1 X127.1945 Y-180.2586 F12000.0
G1 X128.1007 Y-180.9176 F12000.0
G1 X129.1716 Y-181.2471 F12000.0
G1 X130.3249 Y-181.3295 F12000.0
G1 X131.3959 Y-181.0000 F12000.0
G1 X132.3844 Y-180.4233 F12000.0
G1 X133.1259 Y-179.5995 F12000.0
G1 X133.6201 Y-178.5286 F12000.0
G1 X133.7849 Y-177.4577 F12000.0
G1 X133.7025 Y-176.7986 F12000.0
G1 X133.3730 Y-175.7277 F12000.0
G1 X132.7140 Y-174.8215 F12000.0
G1 X131.8078 Y-174.0801 F12000.0
G1 X130.8192 Y-173.6682 F12000.0
G1 X129.6659 Y-173.5858 F12000.0
G1 Z0.0000 F8000.0
G0 X129.8307 Y-172.1853 F15000.0
G1 Z11.9000 F8000.0
G1 X129.8307 Y-170.7025 F12000.0
G1 Z0.0000 F8000.0
G0 X129.8307 Y-169.2197 F15000.0
G1 Z11.9000 F8000.0
G1 X129.8307 Y-161.6407 F12000.0
G1 Z0.0000 F8000.0
G0 X129.8307 Y-160.1579 F15000.0
G1 Z11.9000 F8000.0
G1 X129.8307 Y-158.7574 F12000.0
G1 Z0.0000 F8000.0
G0 X129.8307 Y-157.2746 F15000.0
G1 Z11.9000 F8000.0
G1 X129.8307 Y-149.6133 F12000.0
G1 Z0.0000 F8000.0
G0 X129.8307 Y-151.5904 F15000.0
G1 Z11.9000 F8000.0
G1 X112.8604 Y-161.3936 F12000.0
G1 X107.5057 Y-164.5240 F12000.0
G1 X107.5057 Y-170.7849 F12000.0
G1 X107.5057 Y-184.1304 F12000.0
G1 X107.5057 Y-190.3913 F12000.0
G1 X112.8604 Y-193.5217 F12000.0
G1 X129.8307 Y-203.2426 F12000.0
G1 X146.8009 Y-193.5217 F12000.0
G1 X152.2380 Y-190.3913 F12000.0
G1 X152.2380 Y-184.1304 F12000.0
G1 X152.2380 Y-170.7849 F12000.0
G1 X152.2380 Y-164.5240 F12000.0
G1 X135.2677 Y-154.7208 F12000.0
G1 X129.8307 Y-151.5904 F12000.0
G1 X165.9130 Y-151.5904 F12000.0
G1 Z0.0000 F8000.0
G0 X164.0183 Y-151.5904 F15000.0
G1 Z11.9000 F8000.0
G1 X163.3593 Y-156.4508 F12000.0
G1 X164.0183 Y-155.9565 F12000.0
G1 X164.5950 Y-156.4508 F12000.0
G1 X164.0183 Y-151.5904 F12000.0
G1 X164.0183 Y-203.2426 F12000.0
G1 X164.5950 Y-198.3821 F12000.0
G1 X164.0183 Y-198.8764 F12000.0
G1 X163.3593 Y-198.3821 F12000.0
G1 X164.0183 Y-203.2426 F12000.0
G1 Z0.0000 F8000.0
G0 X165.9130 Y-203.2426 F15000.0
G1 Z11.9000 F8000.0
G1 X129.8307 Y-203.2426 F12000.0
G1 Z0.0000 F8000.0
G0 X129.8307 Y-205.2197 F15000.0
G1 Z11.9000 F8000.0
G1 X129.8307 Y-197.6407 F12000.0
G1 Z0.0000 F8000.0
G0 X129.8307 Y-196.1579 F15000.0
G1 Z11.9000 F8000.0
G1 X129.8307 Y-194.6750 F12000.0
G1 Z0.0000 F8000.0
G0 X122.1392 Y-189.6388 F15000.0
G1 Z11.9000 F8000.0
G1 X121.4581 Y-190.3199 F12000.0
G1 Z0.0000 F8000.0
G0 X121.3455 Y-190.1701 F15000.0
G1 Z11.9000 F8000.0
G1 X121.3455 Y-189.2944 F12000.0
G1 Z0.0000 F8000.0
G0 X121.5103 Y-177.4577 F15000.0
G1 Z11.9000 F8000.0
G1 X120.0275 Y-177.4577 F12000.0
G1 Z0.0000 F8000.0
G0 X118.5446 Y-177.4577 F15000.0
G1 Z11.9000 F8000.0
G1 X105.5286 Y-177.4577 F12000.0
G1 Z0.0000 F8000.0
G0 X107.5057 Y-164.5240 F15000.0
G1 Z11.9000 F8000.0
G1 X107.5057 Y-137.5034 F12000.0
G1 Z0.0000 F8000.0
G0 X107.5057 Y-139.4806 F15000.0
G1 Z11.9000 F8000.0
G1 X112.3661 Y-140.1396 F12000.0
G1 X111.8719 Y-139.4806 F12000.0
G1 X112.3661 Y-138.8215 F12000.0
G1 X107.5057 Y-139.4806 F12000.0
G1 X152.2380 Y-139.4806 F12000.0
G1 X147.3776 Y-138.8215 F12000.0
G1 X147.8718 Y-139.4806 F12000.0
G1 X147.3776 Y-140.1396 F12000.0
G1 X152.2380 Y-139.4806 F12000.0
G1 Z0.0000 F8000.0
G0 X150.2868 Y-139.1922 F15000.0
G1 Z11.9000 F8000.0
G1 X149.4111 Y-139.1922 F12000.0
G1 Z0.0000 F8000.0
G0 X149.1228 Y-139.8101 F15000.0
G1 Z11.9000 F8000.0
G1 X149.9985 Y-139.8101 F12000.0
G1 Z0.0000 F8000.0
G0 X152.2380 Y-137.5034 F15000.0
G1 Z11.9000 F8000.0
G1 X152.2380 Y-164.5240 F12000.0
G1 Z0.0000 F8000.0
G0 X143.1762 Y-169.4668 F15000.0
G1 Z11.9000 F8000.0
G1 X141.9405 Y-167.5721 F12000.0
G1 X140.3753 Y-165.9245 F12000.0
G1 X138.5629 Y-164.5240 F12000.0
G1 Z0.0000 F8000.0
G0 X138.2856 Y-164.6366 F15000.0
G1 Z11.9000 F8000.0
G1 X137.6045 Y-165.3177 F12000.0
G1 Z0.0000 F8000.0
G0 X138.3982 Y-165.7445 F15000.0
G1 Z11.9000 F8000.0
G1 X138.3982 Y-164.8688 F12000.0
G1 Z0.0000 F8000.0
G0 X143.1762 Y-169.4668 F15000.0
G1 Z11.9000 F8000.0
G1 X144.1648 Y-171.2792 F12000.0
G1 Z0.0000 F8000.0
G0 X140.3753 Y-177.4577 F15000.0
G1 Z11.9000 F8000.0
G1 X153.3913 Y-177.4577 F12000.0
G1 Z0.0000 F8000.0
G0 X156.9242 Y-176.5723 F15000.0
G1 Z11.9000 F8000.0
G1 X156.9684 Y-175.4224 F12000.0
G1 Z0.0000 F8000.0
G0 X156.8357 Y-174.5821 F15000.0
G1 Z11.9000 F8000.0
G1 X156.9684 Y-172.9899 F12000.0
G1 X158.8260 Y-172.3265
G1 X159.0471 Y-173.4764
G1 Z0.0000 F8000.0
G0 X159.1798 Y-173.6091 F15000.0
G1 Z11.9000 F8000.0
G1 X159.5336 Y-173.6976 F12000.0
G1 X159.9316 Y-173.5649
G1 Z0.0000 F8000.0
G0 X160.3739 Y-173.3880 F15000.0
G1 Z11.9000 F8000.0
G1 X160.8162 Y-173.1668 F12000.0
G1 X160.9931 Y-172.9899
G1 Z0.0000 F8000.0
G0 X161.1700 Y-172.7246 F15000.0
G1 Z11.9000 F8000.0
G1 X161.4796 Y-171.2209 F12000.0
G1 Z0.0000 F8000.0
G0 X161.4796 Y-173.7860 F15000.0
G1 Z11.9000 F8000.0
G1 X161.0373 Y-175.5109 F12000.0
G1 Z0.0000 F8000.0
G0 X160.8604 Y-175.7320 F15000.0
G1 Z11.9000 F8000.0
G1 X159.6663 Y-176.2627 F12000.0
G1 X159.0913 Y-176.0858
G1 Z0.0000 F8000.0
G0 X159.0471 Y-175.3782 F15000.0
G1 Z11.9000 F8000.0
G1 X158.8702 Y-175.9974 F12000.0
G1 X158.4279 Y-176.4838
G1 Z0.0000 F8000.0
G0 X157.8972 Y-176.7050 F15000.0
G1 Z11.9000 F8000.0
G1 X157.1896 Y-176.8377 F12000.0
G1 X157.0569 Y-176.7492
G1 Z0.0000 F8000.0
G0 X157.9856 Y-178.6588 F15000.0
G1 Z11.9000 F8000.0
G1 X157.6761 Y-179.0126 F12000.0
G1 Z0.0000 F8000.0
G0 X157.2780 Y-179.6318 F15000.0
G1 Z11.9000 F8000.0
G1 X157.1896 Y-180.0299 F12000.0
G1 X156.9684 Y-180.1625
G1 Z0.0000 F8000.0
G0 X157.2338 Y-180.0299 F15000.0
G1 Z11.9000 F8000.0
G1 X161.2142 Y-178.6146 F12000.0
G1 Z0.0000 F8000.0
G0 X161.0373 Y-179.8087 F15000.0
G1 Z11.9000 F8000.0
G1 X161.2584 Y-179.7203 F12000.0
G1 X161.3469 Y-181.4009
G1 Z0.0000 F8000.0
G0 X159.7105 Y-181.0913 F15000.0
G1 Z11.9000 F8000.0
G1 X159.5336 Y-181.2682 F12000.0
G1 Z0.0000 F8000.0
G0 X157.6761 Y-180.7817 F15000.0
G1 Z11.9000 F8000.0
G1 X157.1011 Y-181.3567 F12000.0
G1 Z0.0000 F8000.0
G0 X156.9242 Y-181.7105 F15000.0
G1 Z11.9000 F8000.0
G1 X156.8800 Y-182.3739 F12000.0
G1 X157.0569 Y-182.6835
G1 X157.4549 Y-182.9046
G1 X158.0741 Y-182.7277
G1 Z0.0000 F8000.0
G0 X161.5238 Y-176.3954 F15000.0
G1 Z11.9000 F8000.0
G1 X162.1872 Y-175.9089 F12000.0
G1 Z0.0000 F8000.0
G0 X163.7300 Y-154.7880 F15000.0
G1 Z11.9000 F8000.0
G1 X163.7300 Y-153.9123 F12000.0
G1 Z0.0000 F8000.0
G0 X164.3066 Y-153.6239 F15000.0
G1 Z11.9000 F8000.0
G1 X164.3066 Y-154.4996 F12000.0
G1 Z0.0000 F8000.0
G0 X132.3818 Y-146.5695 F15000.0
G1 Z11.9000 F8000.0
G1 X131.5857 Y-146.1272 F12000.0
G1 Z0.0000 F8000.0
G0 X130.8338 Y-145.3754 F15000.0
G1 Z11.9000 F8000.0
G1 X130.4358 Y-144.6235 F12000.0
G1 X131.8953 Y-144.4466
G1 Z0.0000 F8000.0
G0 X132.0280 Y-144.3139 F15000.0
G1 Z11.9000 F8000.0
G1 X131.9395 Y-143.3409 F12000.0
G1 X131.6299 Y-142.6333
G1 X131.0992 Y-142.1910
G1 X129.9935 Y-142.1910
G1 Z0.0000 F8000.0
G0 X129.8608 Y-142.2795 F15000.0
G1 Z11.9000 F8000.0
G1 X129.6839 Y-142.8544 F12000.0
G1 Z0.0000 F8000.0
G0 X129.8166 Y-143.2082 F15000.0
G1 Z11.9000 F8000.0
G1 X129.9493 Y-143.6063 F12000.0
G1 Z0.0000 F8000.0
G0 X130.1262 Y-144.0928 F15000.0
G1 Z11.9000 F8000.0
G1 X130.2147 Y-144.3581 F12000.0
G1 Z0.0000 F8000.0
G0 X128.6699 Y-144.2046 F15000.0
G1 Z11.9000 F8000.0
G1 X128.3603 Y-143.1874 F12000.0
G1 X129.0237 Y-143.2316
G1 Z0.0000 F8000.0
G0 X127.8738 Y-142.2586 F15000.0
G1 Z11.9000 F8000.0
G1 X128.0950 Y-142.7893 F12000.0
G1 X128.1392 Y-143.1431
G1 X126.9893 Y-143.2316
G1 X127.0335 Y-143.4970
G1 X128.0507 Y-145.2660
G1 Z0.0000 F8000.0
G0 X128.3603 Y-145.8410 F15000.0
G1 Z11.9000 F8000.0
G1 X128.8026 Y-146.6371 F12000.0
G1 Z0.0000 F8000.0
G0 X110.7033 Y-139.8101 F15000.0
G1 Z11.9000 F8000.0
G1 X109.8276 Y-139.8101 F12000.0
G1 Z0.0000 F8000.0
G0 X109.4981 Y-139.1922 F15000.0
G1 Z11.9000 F8000.0
G1 X110.3738 Y-139.1922 F12000.0
G1 Z0.0000 F8000.0
G0 X122.9108 Y-177.4577 F15000.0
G1 Z11.9000 F8000.0
G1 X129.4188 Y-177.4577 F12000.0
G1 X136.0091 Y-177.4577 F12000.0
G1 Z0.0000 F8000.0
G0 X137.4096 Y-177.4577 F15000.0
G1 Z11.9000 F8000.0
G1 X138.8924 Y-177.4577 F12000.0
G1 Z0.0000 F8000.0
G0 X163.7300 Y-200.1274 F15000.0
G1 Z11.9000 F8000.0
G1 X163.7300 Y-201.0031 F12000.0
G1 Z0.0000 F8000.0
G0 X164.3066 Y-201.2914 F15000.0
G1 Z11.9000 F8000.0
G1 X164.3066 Y-200.4157 F12000.0
G1 Z0.0000 F8000.0
G0 X111.3176 Y-207.3099 F15000.0
G1 Z11.9000 F8000.0
G1 X110.6985 Y-205.6293 F12000.0
G1 Z0.0000 F8000.0
G0 X108.6640 Y-205.3639 F15000.0
G1 Z11.9000 F8000.0
G1 X110.4773 Y-205.3639 F12000.0
G1 X109.6812 Y-202.8872
G1 Z0.0000 F8000.0
G0 X107.7353 Y-203.1526 F15000.0
G1 Z11.9000 F8000.0
G1 X109.2390 Y-207.3099 F12000.0
G1 Z0.0000 F8000.0
G0 X106.9822 Y-207.4136 F15000.0
G1 Z11.9000 F8000.0
G1 X105.9650 Y-204.6716 F12000.0
G1 Z0.0000 F8000.0
G0 X105.6996 Y-203.9639 F15000.0
G1 Z11.9000 F8000.0
G1 X105.4343 Y-203.0352 F12000.0
G1 X106.8053 Y-202.9909
G1 Z0.0000 F8000.0
G0 X104.6382 Y-203.5659 F15000.0
G1 Z11.9000 F8000.0
G1 X105.0805 Y-204.9369 F12000.0
G1 Z0.0000 F8000.0
G0 X104.7709 Y-205.2907 F15000.0
G1 Z11.9000 F8000.0
G1 X103.3556 Y-205.4677 F12000.0
G1 X103.6210 Y-206.0426
G1 X103.8863 Y-206.3522
G1 Z0.0000 F8000.0
G0 X104.1075 Y-206.6175 F15000.0
G1 Z11.9000 F8000.0
G1 X104.1959 Y-206.7060 F12000.0
G1 Z0.0000 F8000.0
G0 X104.4171 Y-206.8829 F15000.0
G1 Z11.9000 F8000.0
G1 X105.3458 Y-207.3694 F12000.0
G1 Z0.0000 F8000.0
G0 X103.0460 Y-204.9369 F15000.0
G1 Z11.9000 F8000.0
G1 X102.6480 Y-203.3005 F12000.0
G1 X103.7979 Y-202.9467
G1 X103.8863 Y-202.9909
G1 Z0.0000 F8000.0
G0 X104.1959 Y-203.1236 F15000.0
G1 Z11.9000 F8000.0
G1 X104.2844 Y-203.2121 F12000.0
G1 Z0.0000 F8000.0
G0 X101.8077 Y-205.3792 F15000.0
G1 Z11.9000 F8000.0
G1 X101.2327 Y-205.2907 F12000.0
G1 Z0.0000 F8000.0
G0 X99.9944 Y-205.8215 F15000.0
G1 Z11.9000 F8000.0
G1 X100.0386 Y-205.9541 F12000.0
G1 Z0.0000 F8000.0
G0 X100.2155 Y-206.4406 F15000.0
G1 Z11.9000 F8000.0
G1 X100.2597 Y-206.8829 F12000.0
G1 X99.9944 Y-206.7945
G1 Z0.0000 F8000.0
G0 X100.5251 Y-207.3252 F15000.0
G1 Z11.9000 F8000.0
G1 X100.6578 Y-207.5021 F12000.0
G1 Z0.0000 F8000.0
G0 X101.5423 Y-207.4579 F15000.0
G1 Z11.9000 F8000.0
G1 X102.5153 Y-207.3252 F12000.0
G1 X102.6922 Y-207.0598
G1 X102.1615 Y-205.7330
G1 X101.8519 Y-205.3350
G1 X102.1173 Y-204.9369
G1 X101.4981 Y-203.3448
G1 X101.2769 Y-203.1679
G1 X99.6406 Y-202.8583
G1 Z0.0000 F8000.0
G0 X98.9329 Y-202.9467 F15000.0
G1 Z11.9000 F8000.0
G1 X99.8617 Y-205.4677 F12000.0
G1 Z0.0000 F8000.0
G0 X99.1541 Y-205.9984 F15000.0
G1 Z11.9000 F8000.0
G1 X98.3580 Y-205.3792 F12000.0
G1 X97.8715 Y-207.0156
G1 X97.8715 Y-207.4136
G1 Z0.0000 F8000.0
G0 X98.3580 Y-205.3792 F15000.0
G1 Z11.9000 F8000.0
G1 X98.3137 Y-205.2465 F12000.0
G1 Z0.0000 F8000.0
G0 X68.1282 Y-271.0412 F15000.0
G1 Z11.9000 F8000.0
G1 X0.0000 Y-271.0412 F12000.0
G1 Z0.0000 F8000.0
G0 X17.7494 Y-276.5461 F15000.0
G1 Z11.9000 F8000.0
G1 X17.7494 Y-280.4868 F12000.0
G1 Z0.0000 F8000.0
G0 X17.7494 Y-278.5894 F15000.0
G1 Z11.9000 F8000.0
G1 X18.6251 Y-278.5408 F12000.0
G1 Z0.0000 F8000.0
G0 X20.3278 Y-280.5354 F15000.0
G1 Z11.9000 F8000.0
G1 X19.7676 Y-280.3225 F12000.0
G1 X19.2714 Y-279.3800
G1 X18.7775 Y-278.7335
G1 X19.1512 Y-279.1827
G1 X18.7134 Y-278.5053
G1 X20.4933 Y-276.3633
G1 X20.6765 Y-276.2530
G1 X21.3467 Y-276.5131
G1 X21.3981 Y-279.2219
G1 Z0.0000 F8000.0
G0 X21.3981 Y-277.9570 F15000.0
G1 Z11.9000 F8000.0
G1 X23.4900 Y-277.9083 F12000.0
G1 Z0.0000 F8000.0
G0 X23.5387 Y-279.2219 F15000.0
G1 Z11.9000 F8000.0
G1 X23.5601 Y-276.5870 F12000.0
G1 X23.6212 Y-276.5216
G1 X24.9676 Y-276.5313
G1 X26.4090 Y-279.3192
G1 Z0.0000 F8000.0
G0 X29.0361 Y-280.5354 F15000.0
G1 Z11.9000 F8000.0
G1 X29.7658 Y-280.5354 F12000.0
G1 X30.3010 Y-280.1462
G1 X30.4956 Y-279.7084
G1 X30.6415 Y-277.9570
G1 X30.4956 Y-277.2272
G1 X30.2523 Y-276.7407
G1 X29.8631 Y-276.4488
G1 X29.0361 Y-276.4488
G1 X28.5009 Y-276.8867
G1 X28.5982 Y-276.7894
G1 X28.4036 Y-277.1299
G1 X28.2090 Y-278.0543
G1 X28.4523 Y-279.9516
G1 X29.0361 Y-280.5354
G1 Z0.0000 F8000.0
G0 X32.1496 Y-279.4651 F15000.0
G1 Z11.9000 F8000.0
G1 X33.2633 Y-280.0457 F12000.0
G1 X33.4345 Y-280.4400
G1 X33.3206 Y-279.8403
G1 X33.3659 Y-276.4975
G1 Z0.0000 F8000.0
G0 X30.2523 Y-276.7894 F15000.0
G1 Z11.9000 F8000.0
G1 X29.9118 Y-276.4975 F12000.0
G1 Z0.0000 F8000.0
G0 X37.5011 Y-276.8867 F15000.0
G1 Z11.9000 F8000.0
G1 X37.7831 Y-276.5959 F12000.0
G1 X38.0847 Y-276.4667
G1 X38.8355 Y-276.5034
G1 X39.2525 Y-276.7894
G1 Z0.0000 F8000.0
G0 X41.1012 Y-276.8867 F15000.0
G1 Z11.9000 F8000.0
G1 X41.6363 Y-276.4488 F12000.0
G1 X42.4633 Y-276.4488 F12000.0
G1 X42.9012 Y-276.8380
G1 X43.0471 Y-277.1299
G1 Z0.0000 F8000.0
G0 X42.8039 Y-276.6921 F15000.0
G1 Z11.9000 F8000.0
G1 X43.0958 Y-277.2272 F12000.0
G1 X43.2417 Y-277.9570
G1 X43.0958 Y-279.7084
G1 X42.9012 Y-280.1462
G1 X42.3660 Y-280.5354
G1 X41.6363 Y-280.5354
G1 X41.0525 Y-279.9516 F12000.0
G1 X40.8093 Y-278.0543
G1 X41.0039 Y-277.1299
G1 X41.1985 Y-276.7894
G1 X41.1012 Y-276.8867
G1 Z0.0000 F8000.0
G0 X44.6039 Y-276.8867 F15000.0
G1 Z11.9000 F8000.0
G1 X44.5530 Y-276.9967 F12000.0
G1 X44.6583 Y-276.8120
G1 X45.3132 Y-276.4260
G1 X46.1829 Y-276.5093
G1 X46.5058 Y-276.7247
G1 X46.8090 Y-277.3402
G1 X46.7693 Y-277.8343
G1 X46.6237 Y-278.1689
G1 X46.1121 Y-278.6867
G1 Z0.0000 F8000.0
G0 X45.5769 Y-278.6381 F15000.0
G1 Z11.9000 F8000.0
G1 X46.0668 Y-278.7074 F12000.0
G1 X46.4444 Y-279.1607
G1 X46.5719 Y-279.5041
G1 X46.3951 Y-280.2154
G1 X45.7196 Y-280.5188
G1 X45.4819 Y-280.5453
G1 X44.8052 Y-280.2532
G1 X44.5269 Y-279.8101
G1 X44.5553 Y-279.8543
G1 Z0.0000 F8000.0
G0 X44.6526 Y-276.7894 F15000.0
G1 Z11.9000 F8000.0
G1 X45.1877 Y-276.4488 F12000.0
G1 Z0.0000 F8000.0
G0 X38.0362 Y-280.5354 F15000.0
G1 Z11.9000 F8000.0
G1 X38.7660 Y-280.5354 F12000.0
G1 X39.3011 Y-280.1462
G1 X39.4957 Y-279.7084
G1 X39.6417 Y-277.9570
G1 X39.4957 Y-277.2272
G1 X39.2525 Y-276.7407
G1 X38.8633 Y-276.4488
G1 X38.0362 Y-276.4488
G1 X37.5011 Y-276.8867
G1 X37.5984 Y-276.7894
G1 X37.4038 Y-277.1299
G1 X37.2092 Y-278.0543
G1 X37.4524 Y-279.9516
G1 X38.0362 Y-280.5354
G1 Z0.0000 F8000.0
G0 X68.1282 Y-284.6338 F15000.0
G1 Z11.9000 F8000.0
G1 X68.1282 Y-271.0412 F12000.0
G1 Z0.0000 F8000.0
G0 X61.1106 Y-139.8101 F15000.0
G1 Z11.9000 F8000.0
G1 X60.2349 Y-139.8101 F12000.0
G1 Z0.0000 F8000.0
G0 X60.5233 Y-139.1922 F15000.0
G1 Z11.9000 F8000.0
G1 X61.3990 Y-139.1922 F12000.0
G1 Z0.0000 F8000.0
G0 X59.8358 Y-135.9705 F15000.0
G1 Z11.9000 F8000.0
G1 X57.6245 Y-133.9803 F12000.0
G1 X58.6859 Y-133.8034
G1 Z0.0000 F8000.0
G0 X58.8629 Y-133.6265 F15000.0
G1 Z11.9000 F8000.0
G1 X58.9513 Y-133.3611 F12000.0
G1 X58.5975 Y-132.2555
G1 Z0.0000 F8000.0
G0 X58.0225 Y-131.6363 F15000.0
G1 Z11.9000 F8000.0
G1 X56.4746 Y-131.3709 F12000.0
G1 Z0.0000 F8000.0
G0 X56.1650 Y-132.6535 F15000.0
G1 Z11.9000 F8000.0
G1 X55.8997 Y-132.0343 F12000.0
G1 X55.6343 Y-131.7690
G1 X55.1036 Y-131.5036
G1 X53.9094 Y-131.3709
G1 Z0.0000 F8000.0
G0 X56.2977 Y-132.9631 F15000.0
G1 Z11.9000 F8000.0
G1 X56.3419 Y-133.0515 F12000.0
G1 X56.0766 Y-133.8918
G1 X55.7670 Y-133.8918
G1 Z0.0000 F8000.0
G0 X56.1650 Y-133.9803 F15000.0
G1 Z11.9000 F8000.0
G1 X56.6957 Y-134.7322 F12000.0
G1 X56.9611 Y-135.5725
G1 X56.8726 Y-135.7494
G1 Z0.0000 F8000.0
G0 X56.6957 Y-135.8821 F15000.0
G1 Z11.9000 F8000.0
G1 X55.7670 Y-135.9705 F12000.0
G1 Z0.0000 F8000.0
G0 X43.2754 Y-129.1419 F15000.0
G1 Z11.9000 F8000.0
G1 X42.3997 Y-129.1419 F12000.0
G1 Z0.0000 F8000.0
G0 X42.0290 Y-128.5652 F15000.0
G1 Z11.9000 F8000.0
G1 X42.9047 Y-128.5652 F12000.0
G1 Z0.0000 F8000.0
G0 X38.9657 Y-58.9131 F15000.0
G1 Z11.9000 F8000.0
G1 X38.9657 Y-5.3662 F12000.0
G1 Z0.0000 F8000.0
G0 X53.5469 Y-5.3662 F15000.0
G1 Z11.9000 F8000.0
G1 X53.5469 Y-58.9131 F12000.0
G1 Z0.0000 F8000.0
G0 X63.2677 Y-58.9131 F15000.0
G1 Z11.9000 F8000.0
G1 X63.2677 Y-5.3662 F12000.0
G1 Z0.0000 F8000.0
G0 X63.2677 Y-10.2266 F15000.0
G1 Z11.9000 F8000.0
G1 X0.0000 Y-10.2266 F12000.0
G1 Z0.0000 F8000.0
G0 X1.6976 Y-11.4880 F15000.0
G1 Z11.9000 F8000.0
G1 X2.3541 Y-10.4213 F12000.0
G1 X2.6934 Y-10.5047
G1 X2.5338 Y-10.3295
G1 X2.7057 Y-10.4926
G1 X2.6180 Y-10.3408
G1 Z0.0000 F8000.0
G0 X3.1495 Y-11.3740 F15000.0
G1 Z11.9000 F8000.0
G1 X2.2465 Y-9.6013 F12000.0
G1 X1.9708 Y-9.5506
G1 X2.7968 Y-10.5511
G1 X3.4736 Y-10.8761
G1 X4.5593 Y-10.9528
G1 X4.1650 Y-10.8924
G1 X4.2436 Y-9.6624
G1 X5.2698 Y-10.3024
G1 X5.8956 Y-10.2762
G1 X6.2002 Y-10.1321
G1 X6.1367 Y-10.7114
G1 X6.2159 Y-9.7106
G1 X5.8958 Y-9.6049
G1 X5.3379 Y-10.0975
G1 X5.2411 Y-10.2857
G1 X5.9788 Y-10.9528
G1 Z0.0000 F8000.0
G0 X3.9940 Y-12.3733 F15000.0
G1 Z11.9000 F8000.0
G1 X4.0185 Y-12.9900 F12000.0
G1 X4.5122 Y-13.3119
G1 X4.8697 Y-13.7841
G1 Z0.0000 F8000.0
G0 X3.9940 Y-13.7354 F15000.0
G1 Z11.9000 F8000.0
G1 X4.0688 Y-13.1678 F12000.0
G1 X4.5320 Y-12.8997
G1 X4.4475 Y-13.1377
G1 X4.4462 Y-13.0299
G1 X4.8419 Y-12.4534
G1 X5.3742 Y-12.8288
G1 X5.4642 Y-13.4328
G1 X5.7231 Y-13.7387
G1 X5.6613 Y-13.6899
G1 X6.0546 Y-13.7827
G1 X6.3885 Y-13.6701
G1 X6.4976 Y-13.4772
G1 X6.5914 Y-12.7367
G1 X6.4655 Y-12.5424
G1 X6.0061 Y-12.3628
G1 X5.7840 Y-12.4107
G1 X5.4501 Y-12.7109
G1 X5.6066 Y-12.4818
G1 X5.7943 Y-12.3878
G1 X7.1476 Y-12.4072
G1 X7.2049 Y-13.6519
G1 X7.2495 Y-13.1397
G1 X8.1852 Y-13.0175
G1 X8.2694 Y-12.4784
G1 X8.3082 Y-13.6788
G1 X8.7533 Y-13.7744
G1 X9.9293 Y-13.7841
G1 Z0.0000 F8000.0
G0 X9.3455 Y-13.7841 F15000.0
G1 Z11.9000 F8000.0
G1 X9.4267 Y-12.4328 F12000.0
G1 X10.5015 Y-12.5020
G1 X11.2125 Y-12.3912
G1 X11.5085 Y-12.6129
G1 X11.6087 Y-12.8236
G1 X11.5147 Y-13.5620
G1 X11.2233 Y-13.7162
G1 X10.6242 Y-13.6159
G1 X10.4828 Y-12.7922
G1 X10.5400 Y-11.8173
G1 X11.5347 Y-12.6165
G1 Z0.0000 F8000.0
G0 X16.5584 Y-5.3662 F15000.0
G1 Z11.9000 F8000.0
G1 X16.5584 Y-58.9131 F12000.0
G1 Z0.0000 F8000.0
G0 X6.8375 Y-58.9131 F15000.0
G1 Z11.9000 F8000.0
G1 X6.8375 Y-34.6110 F12000.0
G1 Z0.0000 F8000.0
G0 X7.0322 Y-33.7502 F15000.0
G1 Z11.9000 F8000.0
G1 X6.9835 Y-33.6529 F12000.0
G1 Z0.0000 F8000.0
G0 X6.0105 Y-33.6042 F15000.0
G1 Z11.9000 F8000.0
G1 X6.6090 Y-33.4417 F12000.0
G1 X6.9537 Y-33.6499
G1 X7.0534 Y-33.8596
G1 X6.9541 Y-34.5945
G1 X6.7913 Y-34.7626
G1 X6.3112 Y-34.7592
G1 X6.0347 Y-34.5627
G1 X5.9619 Y-32.8258
G1 Z0.0000 F8000.0
G0 X4.5997 Y-33.4583 F15000.0
G1 Z11.9000 F8000.0
G1 X4.9537 Y-33.4846 F12000.0
G1 X5.2593 Y-33.6552
G1 X5.1374 Y-34.0676
G1 X4.9895 Y-34.1375
G1 X5.1659 Y-34.2107
G1 X5.2064 Y-34.6629
G1 X4.9093 Y-34.7952
G1 X4.6829 Y-34.7632
G1 X4.5024 Y-34.5772
G1 Z0.0000 F8000.0
G0 X3.7240 Y-34.7718 F15000.0
G1 Z11.9000 F8000.0
G1 X3.8463 Y-34.2830 F12000.0
G1 X3.8469 Y-33.5166
G1 X3.5339 Y-33.6143
G1 X3.1633 Y-34.0547
G1 X3.7874 Y-34.1410
G1 X3.9082 Y-33.4769
G1 X3.0396 Y-33.4543
G1 X2.9063 Y-33.9466
G1 X3.0307 Y-34.0309
G1 X2.8451 Y-33.6356
G1 X2.9294 Y-34.5417
G1 X3.6267 Y-34.8205
G1 Z0.0000 F8000.0
G0 X2.3132 Y-34.7232 F15000.0
G1 Z11.9000 F8000.0
G1 X2.2216 Y-35.0937 F12000.0
G1 X1.0302 Y-35.3622
G1 X0.9447 Y-35.2067
G1 X0.9053 Y-33.5474
G1 X1.0077 Y-34.3142
G1 X2.2645 Y-34.6259
G1 Z0.0000 F8000.0
G0 X0.0000 Y-34.6110 F15000.0
G1 Z11.9000 F8000.0
G1 X63.2677 Y-34.6110 F12000.0
G1 Z0.0000 F8000.0
G0 X61.3329 Y-36.6785 F15000.0
G1 Z11.9000 F8000.0
G1 X61.2824 Y-36.6013 F12000.0
G1 X60.9984 Y-36.5573
G1 X61.0648 Y-36.6303
G1 Z0.0000 F8000.0
G0 X61.2816 Y-37.3310 F15000.0
G1 Z11.9000 F8000.0
G1 X61.3474 Y-36.5855 F12000.0
G1 X60.3198 Y-36.5448
G1 X60.1327 Y-36.8226
G1 X60.3872 Y-37.2241
G1 X61.2813 Y-37.5261
G1 X61.2491 Y-37.8615
G1 X60.9553 Y-38.0645
G1 X60.4653 Y-38.0331
G1 X60.2930 Y-37.9322
G1 X60.3350 Y-37.9925
G1 Z0.0000 F8000.0
G0 X59.6540 Y-38.0411 F15000.0
G1 Z11.9000 F8000.0
G1 X58.6492 Y-38.0384 F12000.0
G1 X58.4294 Y-37.9628
G1 X57.9675 Y-37.3926
G1 X57.9578 Y-36.6697
G1 X57.1985 Y-36.5121
G1 X56.9629 Y-36.5449
G1 X56.7759 Y-36.8226
G1 X57.1354 Y-37.2779
G1 X57.8557 Y-37.4554
G1 X57.9366 Y-37.7529
G1 X57.8111 Y-37.9485
G1 X57.5985 Y-38.0645
G1 X57.1085 Y-38.0331
G1 X56.9361 Y-37.9322
G1 X56.9782 Y-37.9925
G1 Z0.0000 F8000.0
G0 X59.0215 Y-38.0411 F15000.0
G1 Z11.9000 F8000.0
G1 X59.0702 Y-36.5816 F12000.0
G1 Z0.0000 F8000.0
G0 X54.8377 Y-38.7222 F15000.0
G1 Z11.9000 F8000.0
G1 X55.8761 Y-38.6630 F12000.0
G1 X55.9716 Y-36.6112
G1 X56.1225 Y-36.5235
G1 X56.1820 Y-36.1001
G1 X55.8424 Y-36.5610
G1 X54.6102 Y-36.6021
G1 X54.3136 Y-36.0918
G1 X54.3171 Y-36.4051
G1 X54.5878 Y-36.7676
G1 X54.6894 Y-37.1289
G1 X54.7890 Y-38.6249
G1 Z0.0000 F8000.0
G0 X49.2865 Y-36.9059 F15000.0
G1 Z11.9000 F8000.0
G1 X49.2072 Y-38.1886 F12000.0
G1 X48.2633 Y-36.9202
G1 X47.7139 Y-36.4875
G1 X47.5586 Y-36.8536
G1 X46.5107 Y-36.9044
G1 X47.3807 Y-36.8838
G1 X47.4543 Y-36.9451
G1 X47.3954 Y-38.1822
G1 X46.5014 Y-37.0179
G1 X46.2428 Y-36.5511
G1 X46.2703 Y-36.8573
G1 Z0.0000 F8000.0
G0 X45.7838 Y-38.0735 F15000.0
G1 Z11.9000 F8000.0
G1 X45.5674 Y-38.2162 F12000.0
G1 X45.7428 Y-37.9761
G1 X45.8491 Y-37.2402
G1 X45.6728 Y-36.9653
G1 X45.7160 Y-37.0382
G1 X45.3069 Y-36.8894
G1 X44.9611 Y-36.9683
G1 X44.8081 Y-37.1402
G1 X44.6905 Y-37.4913
G1 X44.9079 Y-38.1210
G1 X45.4919 Y-38.2681
G1 Z0.0000 F8000.0
G0 X44.0324 Y-36.9059 F15000.0
G1 Z11.9000 F8000.0
G1 X43.9278 Y-38.7553 F12000.0
G1 X42.5729 Y-36.9059
G1 Z0.0000 F8000.0
G0 X33.0018 Y-36.7456 F15000.0
G1 Z11.9000 F8000.0
G1 X32.8599 Y-37.7467 F12000.0
G1 X32.7058 Y-37.6270
G1 X32.2345 Y-36.7848
G1 X31.5775 Y-36.8072
G1 X31.5361 Y-37.7402
G1 X31.0134 Y-37.9037
G1 X31.0278 Y-38.0310
G1 X30.7386 Y-37.2538
G1 X30.4063 Y-37.0942
G1 X30.3238 Y-37.1206
G1 X29.9503 Y-38.0182
G1 X29.7581 Y-38.1050
G1 X29.5219 Y-38.0777
G1 X29.0918 Y-37.6431
G1 X28.6804 Y-37.3782
G1 X28.5934 Y-36.8185
G1 X27.9343 Y-36.9032
G1 X27.5907 Y-36.7092
G1 X26.4184 Y-36.3105
G1 X26.2550 Y-36.6654
G1 X26.1656 Y-36.7118
G1 X24.9165 Y-36.3758
G1 X24.9182 Y-36.5766
G1 X26.0375 Y-38.0127
G1 X26.1179 Y-36.8065
G1 X26.0583 Y-36.7311
G1 X25.0719 Y-36.7456
G1 Z0.0000 F8000.0
G0 X26.9693 Y-37.9132 F15000.0
G1 Z11.9000 F8000.0
G1 X27.0179 Y-38.0105 F12000.0
G1 Z0.0000 F8000.0
G0 X27.6017 Y-38.1078 F15000.0
G1 Z11.9000 F8000.0
G1 X27.1103 Y-38.0007 F12000.0
G1 X26.9348 Y-37.8437
G1 X26.8036 Y-37.3670
G1 X26.9032 Y-37.0144
G1 X27.0439 Y-36.8319
G1 X27.2603 Y-36.7313
G1 X27.5021 Y-36.7473
G1 X27.9049 Y-37.0116
G1 X27.9621 Y-37.2288
G1 X27.8765 Y-37.7250
G1 X27.6699 Y-38.0629
G1 X27.8936 Y-37.9132
G1 Z0.0000 F8000.0
G0 X28.6234 Y-38.0592 F15000.0
G1 Z11.9000 F8000.0
G1 X28.6633 Y-37.5104 F12000.0
G1 X29.0959 Y-37.3276
G1 X29.1044 Y-37.4721
G1 X29.1307 Y-37.2690
G1 X29.4018 Y-36.7456
G1 Z0.0000 F8000.0
G0 X30.0342 Y-36.0159 F15000.0
G1 Z11.9000 F8000.0
G1 X30.3555 Y-36.2606 F12000.0
G1 X30.8317 Y-37.4846
G1 X30.7383 Y-37.2607
G1 X30.4082 Y-37.0332
G1 X30.6666 Y-37.0375
G1 Z0.0000 F8000.0
G0 X31.6396 Y-37.8646 F15000.0
G1 Z11.9000 F8000.0
G1 X32.2721 Y-36.9402 F12000.0
G1 Z0.0000 F8000.0
G0 X25.7447 Y-31.6079 F15000.0
G1 Z11.9000 F8000.0
G1 X25.8143 Y-31.7403 F12000.0
G1 X25.7064 Y-32.2287
G1 X25.8022 Y-32.1211
G1 X25.7529 Y-31.7159
G1 X25.6000 Y-31.5989
G1 X25.4008 Y-31.7009
G1 X24.8718 Y-32.2249
G1 X24.8614 Y-32.3227
G1 X25.6013 Y-32.9207
G1 X25.7918 Y-32.6700
G1 X25.6766 Y-32.3725
G1 X25.0639 Y-32.3379
G1 X24.7061 Y-32.4128
G1 X23.8379 Y-32.9159
G1 X23.3591 Y-32.9091
G1 X23.1722 Y-32.7543
G1 X23.0086 Y-32.1757
G1 X23.1292 Y-31.8232
G1 X23.2969 Y-31.6737
G1 X23.6589 Y-31.5886
G1 X23.8892 Y-31.6484
G1 X24.1526 Y-31.9067
G1 X24.2141 Y-32.1288
G1 X24.1625 Y-32.5025
G1 X23.9635 Y-32.8676
G1 X24.1371 Y-32.5772
G1 X24.1309 Y-31.9514
G1 X23.9933 Y-31.6566
G1 Z0.0000 F8000.0
G0 X22.3879 Y-31.6079 F15000.0
G1 Z11.9000 F8000.0
G1 X22.3243 Y-32.8764 F12000.0
G1 X21.3471 Y-31.7254
G1 X20.1347 Y-31.5938
G1 X19.7924 Y-31.6697
G1 X19.6493 Y-31.8355
G1 X19.6068 Y-32.2857
G1 X20.6380 Y-32.4244
G1 X20.5772 Y-32.7306
G1 X20.0072 Y-32.9304
G1 X19.7112 Y-32.7728
G1 X19.5109 Y-32.3550
G1 X18.9822 Y-32.2599
G1 X18.9338 Y-31.9903
G1 X18.9306 Y-32.1944
G1 X18.8544 Y-31.8462
G1 X17.6675 Y-31.5941
G1 X17.5806 Y-31.6440
G1 X17.5229 Y-33.5052
G1 Z0.0000 F8000.0
G0 X17.5716 Y-33.6025 F15000.0
G1 Z11.9000 F8000.0
G1 X18.7392 Y-33.6025 F12000.0
G1 Z0.0000 F8000.0
G0 X18.8851 Y-32.3863 F15000.0
G1 Z11.9000 F8000.0
G1 X17.5229 Y-32.6782 F12000.0
G1 Z0.0000 F8000.0
G0 X19.6349 Y-28.3754 F15000.0
G1 Z11.9000 F8000.0
G1 X20.1814 Y-27.0162 F12000.0
G1 X19.9809 Y-26.2931
G1 X20.0096 Y-26.3666
G1 X19.8036 Y-26.2372
G1 X20.0864 Y-26.5031
G1 X20.1670 Y-26.9874
G1 X20.4154 Y-27.3538
G1 X20.8024 Y-28.4240
G1 Z0.0000 F8000.0
G0 X21.3862 Y-28.2781 F15000.0
G1 Z11.9000 F8000.0
G1 X21.7203 Y-28.3966 F12000.0
G1 X22.0475 Y-28.3139
G1 X22.0932 Y-27.8520
G1 X21.8248 Y-27.6535
G1 X22.0069 Y-27.6146
G1 X22.2191 Y-27.1991
G1 X22.1556 Y-26.9871
G1 X21.9602 Y-26.8619
G1 X21.5980 Y-26.8629
G1 X21.3512 Y-27.0417
G1 X21.5322 Y-26.8672
G1 Z0.0000 F8000.0
G0 X22.9917 Y-28.2781 F15000.0
G1 Z11.9000 F8000.0
G1 X23.1929 Y-28.3714 F12000.0
G1 X23.8847 Y-27.8021
G1 X23.0904 Y-27.5777
G1 X22.9064 Y-27.4226
G1 X22.8565 Y-27.0855
G1 X23.0043 Y-26.9025
G1 X23.2292 Y-26.8511
G1 X23.6900 Y-26.9929
G1 X23.9497 Y-27.6417
G1 X24.0482 Y-26.9654
G1 X24.5082 Y-26.9496
G1 X24.7078 Y-27.0159
G1 X24.7431 Y-28.2248
G1 X24.8177 Y-27.7179
G1 X25.5473 Y-27.6574
G1 X25.7393 Y-27.7138
G1 X25.8098 Y-28.2399
G1 X25.8329 Y-27.0129
G1 X25.9926 Y-26.9524
G1 X26.5387 Y-27.1070
G1 X26.4347 Y-27.6759
G1 X26.6445 Y-28.2356
G1 X27.0206 Y-28.4207
G1 X27.3753 Y-28.3598
G1 X27.5796 Y-28.1054
G1 X27.6511 Y-27.2529
G1 X27.4312 Y-26.9343
G1 X27.6143 Y-27.1357
G1 X27.1863 Y-26.8557
G1 X26.6890 Y-26.9645
G1 Z0.0000 F8000.0
G0 X28.3918 Y-27.5970 F15000.0
G1 Z11.9000 F8000.0
G1 X28.4556 Y-28.2813 F12000.0
G1 X28.5184 Y-28.3173
G1 X29.3609 Y-27.9093
G1 X29.3136 Y-27.6820
G1 X28.4752 Y-27.6121
G1 X29.0755 Y-26.9398
G1 X29.2854 Y-26.9441
G1 X29.4254 Y-27.1052
G1 X29.3524 Y-27.7608
G1 X29.4091 Y-27.5555
G1 X30.4271 Y-28.3719
G1 X31.1425 Y-27.8083
G1 X30.3556 Y-27.5852
G1 X30.1640 Y-27.4380
G1 X30.0998 Y-27.1017
G1 X30.2383 Y-26.9125
G1 X30.4598 Y-26.8521
G1 X31.1532 Y-27.0511
G1 X31.2462 Y-26.9949
G1 X31.2134 Y-27.6943
G1 Z0.0000 F8000.0
G0 X18.9538 Y-26.9645 F15000.0
G1 Z11.9000 F8000.0
G1 X18.8857 Y-28.9249 F12000.0
G1 X17.3970 Y-26.9645
G1 Z0.0000 F8000.0
G0 X11.6710 Y-22.1985 F15000.0
G1 Z11.9000 F8000.0
G1 X10.6763 Y-21.3992 F12000.0
G1 X10.6191 Y-22.3741
G1 X10.7605 Y-23.1978
G1 X11.3597 Y-23.2982
G1 X11.6510 Y-23.1439
G1 X11.7451 Y-22.4056
G1 X11.6449 Y-22.1948
G1 X11.3489 Y-21.9731
G1 X10.6378 Y-22.0839
G1 X9.5631 Y-22.0148
G1 X9.4818 Y-23.3660
G1 Z0.0000 F8000.0
G0 X10.0656 Y-23.3660 F15000.0
G1 Z11.9000 F8000.0
G1 X8.5193 Y-23.2897 F12000.0
G1 X8.4571 Y-22.0373
G1 X8.3897 Y-22.5631
G1 X7.5773 Y-22.6733
G1 X7.4113 Y-22.5944
G1 X7.3899 Y-22.0490
G1 X7.3899 Y-23.3174
G1 Z0.0000 F8000.0
G0 X5.6385 Y-23.1228 F15000.0
G1 Z11.9000 F8000.0
G1 X5.9608 Y-23.3354 F12000.0
G1 X6.5458 Y-23.2208
G1 X6.6419 Y-23.0175
G1 X6.7158 Y-22.2809
G1 X6.4567 Y-22.0470
G1 X5.9849 Y-21.9541
G1 X5.5872 Y-22.3193
G1 X5.7825 Y-22.0573
G1 X5.5606 Y-22.4285
G1 X5.5440 Y-23.0133
G1 X5.0449 Y-23.3079
G1 X4.6486 Y-22.8938
G1 X4.1548 Y-22.5719
G1 X4.1304 Y-21.9552
G1 Z0.0000 F8000.0
G0 X5.0061 Y-21.9552 F15000.0
G1 Z11.9000 F8000.0
G1 X4.6119 Y-22.7343 F12000.0
G1 X4.6840 Y-22.4753
G1 X4.1667 Y-22.7787
G1 X4.1304 Y-23.3174
G1 Z0.0000 F8000.0
G0 X3.0601 Y-23.9985 F15000.0
G1 Z11.9000 F8000.0
G1 X1.6006 Y-23.9985 F12000.0
G1 Z0.0000 F8000.0
G0 X2.2330 Y-23.9985 F15000.0
G1 Z11.9000 F8000.0
G1 X2.2817 Y-21.9552 F12000.0
G1 Z0.0000 F8000.0
G0 X0.0000 Y-19.9474 F15000.0
G1 Z11.9000 F8000.0
G1 X63.2677 Y-19.9474 F12000.0
G1 X131.3959 Y-19.9474 F12000.0
G1 X180.0000 Y-19.9474 F12000.0
G1 Z0.0000 F8000.0
G0 X180.0000 Y-24.8078 F15000.0
G1 Z11.9000 F8000.0
G1 X131.3959 Y-24.8078 F12000.0
G1 Z0.0000 F8000.0
G0 X133.4113 Y-21.6616 F15000.0
G1 Z11.9000 F8000.0
G1 X135.0973 Y-24.1028 F12000.0
G1 X135.1627 Y-21.7589
G1 Z0.0000 F8000.0
G0 X136.1357 Y-21.9535 F15000.0
G1 Z11.9000 F8000.0
G1 X136.4423 Y-22.1348 F12000.0
G1 X137.3648 Y-23.2902
G1 X137.5604 Y-23.3313
G1 X138.2664 Y-23.1907
G1 X138.1704 Y-22.2499
G1 X138.3273 Y-21.9141
G1 X138.4955 Y-21.7517
G1 X138.7120 Y-21.7120
G1 X139.4981 Y-22.0008
G1 X140.5645 Y-21.7971
G1 X140.6570 Y-21.9364
G1 X140.5928 Y-23.3878
G1 X139.9790 Y-23.4616
G1 Z0.0000 F8000.0
G0 X139.3952 Y-23.2184 F15000.0
G1 Z11.9000 F8000.0
G1 X138.9701 Y-23.4687 F12000.0
G1 X138.3735 Y-23.3157
G1 Z0.0000 F8000.0
G0 X136.8638 Y-22.7392 F15000.0
G1 Z11.9000 F8000.0
G1 X136.5321 Y-22.1847 F12000.0
G1 X136.7025 Y-22.4764
G1 X137.2654 Y-23.0448
G1 X137.4006 Y-21.7589
G1 Z0.0000 F8000.0
G0 X136.5888 Y-22.2717 F15000.0
G1 Z11.9000 F8000.0
G1 X136.1595 Y-22.0353 F12000.0
G1 X136.0870 Y-23.4130
G1 Z0.0000 F8000.0
G0 X136.1739 Y-24.8078 F15000.0
G1 Z11.9000 F8000.0
G1 X136.1739 Y-39.4714 F12000.0
G1 Z0.0000 F8000.0
G0 X135.5838 Y-41.4497 F15000.0
G1 Z11.9000 F8000.0
G1 X136.8838 Y-43.5448 F12000.0
G1 X136.9460 Y-41.4497
G1 Z0.0000 F8000.0
G0 X137.9677 Y-41.6929 F15000.0
G1 Z11.9000 F8000.0
G1 X138.3082 Y-42.1308 F12000.0
G1 Z0.0000 F8000.0
G0 X138.8920 Y-41.4010 F15000.0
G1 Z11.9000 F8000.0
G1 X138.8274 Y-42.6196 F12000.0
G1 X138.4344 Y-42.2996
G1 X138.0462 Y-41.8021
G1 X137.8788 Y-41.6991
G1 X137.8062 Y-41.8639
G1 X137.7514 Y-42.8211
G1 X138.4241 Y-42.3552
G1 X138.7765 Y-42.6707
G1 X138.8920 Y-42.9092
G1 Z0.0000 F8000.0
G0 X139.4758 Y-42.9578 F15000.0
G1 Z11.9000 F8000.0
G1 X140.6920 Y-42.9578 F12000.0
G1 Z0.0000 F8000.0
G0 X140.0596 Y-42.9578 F15000.0
G1 Z11.9000 F8000.0
G1 X140.1082 Y-41.4497 F12000.0
G1 Z0.0000 F8000.0
G0 X141.1167 Y-39.4714 F15000.0
G1 Z11.9000 F8000.0
G1 X141.1167 Y-24.8078 F12000.0
G1 Z0.0000 F8000.0
G0 X141.2925 Y-23.4616 F15000.0
G1 Z11.9000 F8000.0
G1 X140.6601 Y-23.4130 F12000.0
G1 Z0.0000 F8000.0
G0 X145.9771 Y-24.8078 F15000.0
G1 Z11.9000 F8000.0
G1 X145.9771 Y-44.3318 F12000.0
G1 Z0.0000 F8000.0
G0 X149.1025 Y-41.7786 F15000.0
G1 Z11.9000 F8000.0
G1 X149.1742 Y-43.4638 F12000.0
G1 X149.2512 Y-43.5690
G1 X150.0412 Y-42.0722
G1 X150.2055 Y-42.0571
G1 X150.4701 Y-42.6235
G1 X150.1206 Y-41.9802
G1 X150.1728 Y-42.0219
G1 Z0.0000 F8000.0
G0 X151.0971 Y-41.8273 F15000.0
G1 Z11.9000 F8000.0
G1 X150.9527 Y-43.3613 F12000.0
G1 X151.0153 Y-43.6225
G1 X150.6757 Y-43.1700
G1 X150.5340 Y-42.7809
G1 X150.6106 Y-43.0435
G1 Z0.0000 F8000.0
G0 X151.9728 Y-43.1408 F15000.0
G1 Z11.9000 F8000.0
G1 X152.1740 Y-43.2342 F12000.0
G1 X152.8658 Y-42.6649
G1 X151.9688 Y-42.3744
G1 X151.8150 Y-42.0606
G1 X151.9854 Y-41.7654
G1 X152.2098 Y-41.7161
G1 X152.8986 Y-41.9163
G1 X152.9788 Y-41.8669
G1 X152.9261 Y-42.5191
G1 X153.6850 Y-42.8749
G1 X153.6515 Y-42.3019
G1 X153.8419 Y-41.8582
G1 X154.1513 Y-41.7113
G1 X154.6972 Y-41.8759
G1 Z0.0000 F8000.0
G0 X154.7458 Y-43.0435 F15000.0
G1 Z11.9000 F8000.0
G1 X154.5447 Y-43.2278 F12000.0
G1 X154.0692 Y-43.2581
G1 X153.8369 Y-43.0969
G1 X154.1929 Y-43.2495
G1 X155.3393 Y-42.8856
G1 X155.3093 Y-42.2860
G1 X155.5078 Y-41.8497
G1 X155.8210 Y-41.7102
G1 X156.2826 Y-41.8695
G1 X156.3913 Y-42.0616
G1 X156.3694 Y-43.0717
G1 X156.1100 Y-43.2650
G1 X155.6380 Y-43.2110
G1 X155.4269 Y-43.0435
G1 Z0.0000 F8000.0
G0 X157.1296 Y-43.1408 F15000.0
G1 Z11.9000 F8000.0
G1 X157.3309 Y-43.2342 F12000.0
G1 X158.0226 Y-42.6649
G1 X157.1257 Y-42.3744
G1 X156.9718 Y-42.0606
G1 X157.1423 Y-41.7654
G1 X157.3666 Y-41.7161
G1 X158.0554 Y-41.9163
G1 X158.1356 Y-41.8669
G1 X158.1026 Y-42.5570
G1 Z0.0000 F8000.0
G0 X162.5355 Y-44.3318 F15000.0
G1 Z11.9000 F8000.0
G1 X162.5355 Y-24.8078 F12000.0
G1 Z0.0000 F8000.0
G0 X162.1612 Y-23.3961 F15000.0
G1 Z11.9000 F8000.0
G1 X162.6130 Y-23.4596 F12000.0
G1 X163.1348 Y-23.1495
G1 X163.2609 Y-22.5465
G1 X163.1758 Y-22.1841
G1 X163.0306 Y-22.0146
G1 X162.3170 Y-21.8256
G1 X162.2137 Y-21.8712
G1 X161.8674 Y-22.3804
G1 X161.9184 Y-22.9899
G1 X162.1011 Y-23.3270
G1 X161.9145 Y-23.1245
G1 X161.3014 Y-23.4338
G1 X160.1666 Y-23.4448
G1 Z0.0000 F8000.0
G0 X160.7017 Y-23.4448 F15000.0
G1 Z11.9000 F8000.0
G1 X160.7504 Y-21.8393 F12000.0
G1 Z0.0000 F8000.0
G0 X159.7287 Y-22.2285 F15000.0
G1 Z11.9000 F8000.0
G1 X159.5250 Y-21.9696 F12000.0
G1 X158.9307 Y-21.8221
G1 X158.6205 Y-21.9661
G1 X158.4495 Y-22.2893
G1 X158.4643 Y-22.9101
G1 X158.7160 Y-23.3256
G1 X159.0511 Y-23.4657
G1 X159.5341 Y-23.3475
G1 Z0.0000 F8000.0
G0 X157.6854 Y-21.8880 F15000.0
G1 Z11.9000 F8000.0
G1 X157.2445 Y-22.7821 F12000.0
G1 X157.2684 Y-22.8832
G1 X157.5614 Y-23.1045
G1 X157.3008 Y-22.9388
G1 X156.8882 Y-22.3498
G1 X156.5475 Y-22.2001
G1 X156.5131 Y-23.3329
G1 X157.1846 Y-22.9079
G1 X156.9194 Y-22.3998
G1 X156.5207 Y-22.0040
G1 X156.5179 Y-22.0826
G1 Z0.0000 F8000.0
G0 X155.5935 Y-21.8880 F15000.0
G1 Z11.9000 F8000.0
G1 X155.5264 Y-24.0945 F12000.0
G1 X154.1724 Y-21.8774
G1 X153.9881 Y-21.7907
G1 Z0.0000 F8000.0
G0 X151.4142 Y-19.9474 F15000.0
G1 Z11.9000 F8000.0
G1 X151.4142 Y-24.8078 F12000.0
G1 Z0.0000 F8000.0
G0 X154.0841 Y-14.8373 F15000.0
G1 Z11.9000 F8000.0
G1 X153.2839 Y-12.7937 F12000.0
G1 X153.1026 Y-12.6868
G1 X152.9077 Y-12.7938
G1 X152.7694 Y-12.9899
G1 X151.9581 Y-15.0847
G1 X150.0181 Y-15.0723
G1 X149.8883 Y-12.4523
G1 Z0.0000 F8000.0
G0 X148.4288 Y-12.4523 F15000.0
G1 Z11.9000 F8000.0
G1 X148.3234 Y-16.1992 F12000.0
G1 X145.5585 Y-12.4523
G1 Z0.0000 F8000.0
G0 X152.1748 Y-11.1874 F15000.0
G1 Z11.9000 F8000.0
G1 X152.6258 Y-11.3194 F12000.0
G1 X152.7653 Y-11.4375
G1 X153.1051 Y-12.6221
G1 X153.4458 Y-13.1410
G1 Z0.0000 F8000.0
G0 X153.5857 Y-13.5225 F15000.0
G1 Z11.9000 F8000.0
G1 X153.5857 Y-13.5712 F12000.0
G1 Z0.0000 F8000.0
G0 X155.2398 Y-12.4523 F15000.0
G1 Z11.9000 F8000.0
G1 X155.3550 Y-15.0441 F12000.0
G1 X157.2344 Y-12.4523
G1 Z0.0000 F8000.0
G0 X158.6939 Y-14.6901 F15000.0
G1 Z11.9000 F8000.0
G1 X158.4698 Y-13.9722 F12000.0
G1 X158.5768 Y-13.0970
G1 X158.7259 Y-12.7604
G1 X158.9760 Y-12.5106
G1 X159.6959 Y-12.3306
G1 X160.2841 Y-12.5186
G1 X160.5507 Y-12.8637
G1 X160.2993 Y-12.5009
G1 Z0.0000 F8000.0
G0 X160.4453 Y-14.7874 F15000.0
G1 Z11.9000 F8000.0
G1 X159.8963 Y-15.1447 F12000.0
G1 X159.0414 Y-14.9677
G1 X158.7425 Y-14.7874
G1 Z0.0000 F8000.0
G0 X162.1612 Y-21.8880 F15000.0
G1 Z11.9000 F8000.0
G1 X161.9180 Y-22.1799 F12000.0
G1 Z0.0000 F8000.0
G0 X164.0099 Y-22.6177 F15000.0
G1 Z11.9000 F8000.0
G1 X164.0896 Y-21.8965 F12000.0
G1 X165.0252 Y-21.9015
G1 X165.1348 Y-22.0237
G1 X165.0162 Y-22.6055
G1 X165.0749 Y-23.0672
G1 X164.7519 Y-23.3821
G1 X164.0875 Y-22.7611
G1 X164.9342 Y-22.6664
G1 Z0.0000 F8000.0
G0 X169.5776 Y-30.1649 F15000.0
G1 Z11.9000 F8000.0
G1 X171.0371 Y-34.2338 F12000.0
G1 X171.3025 Y-34.5876
G1 Z0.0000 F8000.0
G0 X170.9929 Y-34.2780 F15000.0
G1 Z11.9000 F8000.0
G1 X170.6833 Y-34.1896 F12000.0
G1 Z0.0000 F8000.0
G0 X169.9314 Y-33.7031 F15000.0
G1 Z11.9000 F8000.0
G1 X169.7545 Y-33.5262 F12000.0
G1 Z0.0000 F8000.0
G0 X171.4352 Y-32.9954 F15000.0
G1 Z11.9000 F8000.0
G1 X171.6563 Y-33.1281 F12000.0
G1 Z0.0000 F8000.0
G0 X172.5863 Y-33.5262 F15000.0
G1 Z11.9000 F8000.0
G1 X172.7632 Y-33.7031 F12000.0
G1 Z0.0000 F8000.0
G0 X173.5151 Y-34.1896 F15000.0
G1 Z11.9000 F8000.0
G1 X173.8247 Y-34.2780 F12000.0
G1 Z0.0000 F8000.0
G0 X174.1343 Y-34.5876 F15000.0
G1 Z11.9000 F8000.0
G1 X173.8689 Y-34.2338 F12000.0
G1 X172.4094 Y-30.1649
G1 Z0.0000 F8000.0
G0 X170.9487 Y-31.3590 F15000.0
G1 Z11.9000 F8000.0
G1 X170.8160 Y-31.2264 F12000.0
G1 Z0.0000 F8000.0
G0 X174.8195 Y-23.7067 F15000.0
G1 Z11.9000 F8000.0
G1 X174.5984 Y-23.5740 F12000.0
G1 Z0.0000 F8000.0
G0 X175.2618 Y-23.7067 F15000.0
G1 Z11.9000 F8000.0
G1 X174.4215 Y-21.3627 F12000.0
G1 X174.2446 Y-21.0531
G1 Z0.0000 F8000.0
G0 X180.0000 Y-39.4714 F15000.0
G1 Z11.9000 F8000.0
G1 X145.9771 Y-39.4714 F12000.0
G1 X131.3959 Y-39.4714 F12000.0
G1 Z0.0000 F8000.0
G0 X131.3959 Y-44.3318 F15000.0
G1 Z11.9000 F8000.0
G1 X131.3959 Y-5.3662 F12000.0
G1 Z0.0000 F8000.0
G0 X117.3213 Y-30.0637 F15000.0
G1 Z11.9000 F8000.0
G1 X116.6214 Y-31.0796 F12000.0
G1 X115.2781 Y-30.4042
G1 Z0.0000 F8000.0
G0 X113.6726 Y-30.5015 F15000.0
G1 Z11.9000 F8000.0
G1 X113.3446 Y-30.7769 F12000.0
G1 X112.1973 Y-30.1163
G1 X111.9778 Y-30.1658
G1 X111.4691 Y-30.5143
G1 X110.6487 Y-31.8991
G1 X109.9845 Y-32.6068
G1 X109.7686 Y-32.6802
G1 X108.9400 Y-32.6983
G1 X108.9050 Y-34.6854
G1 Z0.0000 F8000.0
G0 X108.9050 Y-32.6908 F15000.0
G1 Z11.9000 F8000.0
G1 X108.9050 Y-30.5015 F12000.0
G1 Z0.0000 F8000.0
G0 X109.9843 Y-32.7168 F15000.0
G1 Z11.9000 F8000.0
G1 X110.5091 Y-33.3961 F12000.0
G1 X110.4618 Y-33.3232
G1 Z0.0000 F8000.0
G0 X110.5000 Y-33.3988 F15000.0
G1 Z11.9000 F8000.0
G1 X110.8508 Y-34.0657 F12000.0
G1 X111.7266 Y-34.7827
G1 Z0.0000 F8000.0
G0 X113.1861 Y-33.8583 F15000.0
G1 Z11.9000 F8000.0
G1 X113.6255 Y-34.3704 F12000.0
G1 X114.1385 Y-34.6930
G1 X115.6486 Y-34.8169
G1 X116.0092 Y-34.7244
G1 X116.4148 Y-34.4385
G1 X116.6245 Y-33.1193
G1 X116.6268 Y-31.2306
G1 X116.4952 Y-31.0535
G1 X115.7287 Y-30.6157
G1 X114.6403 Y-30.3308
G1 X113.7730 Y-30.4907
G1 X113.5644 Y-30.6129
G1 X113.3425 Y-30.9017
G1 X113.2624 Y-31.7668
G1 X113.9767 Y-32.5106
G1 Z0.0000 F8000.0
G0 X113.2348 Y-31.8151 F15000.0
G1 Z11.9000 F8000.0
G1 X113.4288 Y-32.1301 F12000.0
G1 X113.8529 Y-32.4672
G1 X116.5367 Y-32.9676
G1 Z0.0000 F8000.0
G0 X106.6671 Y-34.6854 F15000.0
G1 Z11.9000 F8000.0
G1 X106.5948 Y-30.5068 F12000.0
G1 X106.5284 Y-30.4343
G1 X103.7887 Y-30.4505
G1 X103.6291 Y-30.5936
G1 X101.0357 Y-34.6288
G1 X100.6954 Y-34.7470
G1 X99.4663 Y-34.9343
G1 X99.2335 Y-34.6691
G1 X98.0010 Y-31.3497
G1 X97.7231 Y-30.9123
G1 X97.8745 Y-31.0579
G1 X97.5990 Y-30.7678
G1 X97.3171 Y-29.5511
G1 X97.1272 Y-29.0857
G1 X96.7628 Y-28.6205
G1 X95.9642 Y-28.4582
G1 Z0.0000 F8000.0
G0 X96.8885 Y-28.7015 F15000.0
G1 Z11.9000 F8000.0
G1 X97.0831 Y-28.9934 F12000.0
G1 Z0.0000 F8000.0
G0 X97.5696 Y-30.7934 F15000.0
G1 Z11.9000 F8000.0
G1 X97.4089 Y-30.8949 F12000.0
G1 X96.9778 Y-31.5093
G1 X95.7696 Y-34.6854
G1 Z0.0000 F8000.0
G0 X93.9696 Y-30.5015 F15000.0
G1 Z11.9000 F8000.0
G1 X90.9192 Y-34.6920 F12000.0
G1 X90.6954 Y-30.8369
G1 X90.6088 Y-30.6461
G1 X90.3964 Y-30.5016
G1 X89.7857 Y-30.4529
G1 Z0.0000 F8000.0
G0 X89.1046 Y-34.7827 F15000.0
G1 Z11.9000 F8000.0
G1 X87.0961 Y-34.7305 F12000.0
G1 X86.9677 Y-30.7209
G1 X86.9019 Y-30.5141
G1 X85.4882 Y-30.1085
G1 X84.7753 Y-31.0691
G1 Z0.0000 F8000.0
G0 X83.4126 Y-30.4529 F15000.0
G1 Z11.9000 F8000.0
G1 X83.4126 Y-30.4042 F12000.0
G1 Z0.0000 F8000.0
G0 X81.7099 Y-32.2529 F15000.0
G1 Z11.9000 F8000.0
G1 X82.0018 Y-32.4962 F12000.0
G1 Z0.0000 F8000.0
G0 X81.7585 Y-34.3935 F15000.0
G1 Z11.9000 F8000.0
G1 X81.4047 Y-33.9256 F12000.0
G1 X81.7660 Y-34.3826
G1 X82.1715 Y-34.6684
G1 X83.9241 Y-34.7989
G1 X84.4459 Y-34.5560
G1 X84.5945 Y-34.3446
G1 X84.7250 Y-33.0142
G1 X82.1549 Y-32.5123
G1 X81.6252 Y-32.1842
G1 X81.4354 Y-31.8808
G1 X81.4617 Y-31.0007
G1 X81.5357 Y-30.7722
G1 X81.8072 Y-30.5388
G1 X83.0410 Y-30.3410
G1 X83.5206 Y-30.4862
G1 X84.7249 Y-31.1434
G1 X84.7261 Y-32.9340
G1 Z0.0000 F8000.0
G0 X78.9855 Y-30.8421 F15000.0
G1 Z11.9000 F8000.0
G1 X78.6997 Y-30.6171 F12000.0
G1 X78.1098 Y-30.4042
G1 Z0.0000 F8000.0
G0 X76.2125 Y-30.7448 F15000.0
G1 Z11.9000 F8000.0
G1 X76.0333 Y-30.9208 F12000.0
G1 X76.2292 Y-30.7248
G1 X76.6263 Y-30.5244
G1 X77.2312 Y-30.3793
G1 X78.8287 Y-30.7401
G1 X79.2309 Y-31.0852
G1 X79.5424 Y-32.0320
G1 X79.2399 Y-32.9780
G1 X78.5573 Y-33.4890
G1 X78.4265 Y-33.7612
G1 X78.9913 Y-34.4628
G1 X79.1852 Y-34.9201
G1 X79.1965 Y-35.1629
G1 X78.9586 Y-36.1293
G1 X78.3977 Y-36.5943
G1 X77.0277 Y-36.7559
G1 X76.2219 Y-36.4057
G1 X76.4691 Y-36.5789
G1 X76.1152 Y-36.3173
G1 X76.9078 Y-36.7486
G1 Z0.0000 F8000.0
G0 X76.4257 Y-36.5426 F15000.0
G1 Z11.9000 F8000.0
G1 X75.8759 Y-36.0574 F12000.0
G1 X75.5420 Y-35.3290
G1 X75.2395 Y-35.1232
G1 Z0.0000 F8000.0
G0 X77.3801 Y-33.7124 F15000.0
G1 Z11.9000 F8000.0
G1 X78.3531 Y-33.7124 F12000.0
G1 Z0.0000 F8000.0
G0 X75.4827 Y-31.8151 F15000.0
G1 Z11.9000 F8000.0
G1 X75.5800 Y-31.5232 F12000.0
G1 Z0.0000 F8000.0
G0 X63.2677 Y-29.7506 F15000.0
G1 Z11.9000 F8000.0
G1 X0.0000 Y-29.7506 F12000.0
G1 Z0.0000 F8000.0
G0 X0.8548 Y-28.9252 F15000.0
G1 Z11.9000 F8000.0
G1 X2.2097 Y-30.7745 F12000.0
G1 X2.3143 Y-28.9252
G1 Z0.0000 F8000.0
G0 X3.0927 Y-29.0711 F15000.0
G1 Z11.9000 F8000.0
G1 X3.6911 Y-28.9086 F12000.0
G1 X4.0455 Y-29.1082
G1 X4.1392 Y-29.3202
G1 X4.0382 Y-30.0577
G1 X3.8772 Y-30.2277
G1 X3.3975 Y-30.2270
G1 X3.1179 Y-30.0333
G1 X3.0440 Y-28.2927
G1 Z0.0000 F8000.0
G0 X5.5252 Y-30.2874 F15000.0
G1 Z11.9000 F8000.0
G1 X4.9412 Y-30.1402 F12000.0
G1 X4.7238 Y-29.5105
G1 X4.8414 Y-29.1594
G1 X4.9944 Y-28.9875
G1 X5.3401 Y-28.9086
G1 X5.7517 Y-29.0562
G1 X5.7075 Y-28.9844
G1 X5.8883 Y-29.3784
G1 X5.7242 Y-30.1016
G1 X5.6009 Y-30.2352
G1 X6.4325 Y-29.7065
G1 X7.3906 Y-29.5036
G1 X7.4835 Y-29.4063
G1 X7.5169 Y-29.1781
G1 X7.5125 Y-29.2714
G1 X7.4823 Y-29.0331
G1 X7.1970 Y-28.9376
G1 X6.6388 Y-29.4289
G1 X6.5388 Y-29.6166
G1 X7.2588 Y-30.2333
G1 X7.3492 Y-30.2111
G1 X7.4412 Y-30.0063
G1 X7.4225 Y-28.9252
G1 Z0.0000 F8000.0
G0 X8.7349 Y-33.4583 F15000.0
G1 Z11.9000 F8000.0
G1 X8.6209 Y-33.6374 F12000.0
G1 X8.6682 Y-34.2465
G1 X8.5311 Y-34.7168
G1 X8.3403 Y-34.7779
G1 X7.7749 Y-34.5650
G1 X7.6683 Y-33.7260
G1 X7.7411 Y-33.5133
G1 X7.9521 Y-33.4335
G1 X8.7254 Y-33.4706
G1 X8.6082 Y-34.1329
G1 X7.9771 Y-34.0614
G1 X8.4327 Y-33.5595
G1 X8.5890 Y-33.5556
G1 Z0.0000 F8000.0
G0 X10.4376 Y-33.6042 F15000.0
G1 Z11.9000 F8000.0
G1 X10.4834 Y-34.4523 F12000.0
G1 X10.4049 Y-34.6509
G1 X10.2082 Y-34.7420
G1 X9.5413 Y-34.6510
G1 X9.8054 Y-34.7813
G1 X10.1723 Y-34.7804
G1 X10.3751 Y-34.6679
G1 X10.5565 Y-33.9515
G1 X10.5022 Y-33.7230
G1 X10.3237 Y-33.5678
G1 X9.9705 Y-33.4487
G1 X9.6343 Y-33.5490
G1 X9.4899 Y-33.7416
G1 X9.3992 Y-34.7830
G1 X9.4924 Y-35.1243
G1 X9.6173 Y-35.2652
G1 X10.5836 Y-35.4529
G1 Z0.0000 F8000.0
G0 X11.7424 Y-36.6465 F15000.0
G1 Z11.9000 F8000.0
G1 X11.5659 Y-37.6450 F12000.0
G1 X11.3268 Y-37.4670
G1 X10.9797 Y-36.9699
G1 X10.8329 Y-36.9072
G1 X10.9307 Y-36.9598
G1 X10.7395 Y-36.9805
G1 X10.6721 Y-37.9601
G1 Z0.0000 F8000.0
G0 X11.5478 Y-37.7168 F15000.0
G1 Z11.9000 F8000.0
G1 X11.6994 Y-37.8664 F12000.0
G1 X11.1046 Y-37.1532
G1 X10.5732 Y-36.8328
G1 X9.9979 Y-36.6965
G1 X9.8765 Y-38.4983
G1 X9.8166 Y-38.5666
G1 X8.8720 Y-38.5925
G1 Z0.0000 F8000.0
G0 X8.8234 Y-38.4952 F15000.0
G1 Z11.9000 F8000.0
G1 X8.7731 Y-36.8163 F12000.0
G1 X8.6933 Y-36.6236
G1 X8.5315 Y-36.5492
G1 Z0.0000 F8000.0
G0 X6.2009 Y-36.6465 F15000.0
G1 Z11.9000 F8000.0
G1 X6.0898 Y-37.6239 F12000.0
G1 X5.8790 Y-37.4894
G1 X5.5110 Y-36.7424
G1 X4.8497 Y-37.7035
G1 X4.7488 Y-36.7281
G1 X4.7498 Y-37.6241
G1 X3.4042 Y-37.8214
G1 X3.6421 Y-37.9886
G1 X3.9859 Y-37.9138
G1 X4.0303 Y-37.4712
G1 X3.8251 Y-37.3284
G1 X3.9809 Y-37.2372
G1 X4.1049 Y-36.9133
G1 X4.0720 Y-36.8279
G1 X3.6407 Y-36.6337
G1 X2.6675 Y-36.6756
G1 X2.5824 Y-36.8600
G1 X2.4756 Y-38.1133
G1 X2.5614 Y-38.3761
G1 X2.0595 Y-37.8396
G1 X2.2524 Y-38.0924
G1 X1.5503 Y-37.1194
G1 X1.2391 Y-36.8138
G1 X1.1413 Y-38.5439
G1 Z0.0000 F8000.0
G0 X0.0000 Y-39.4714 F15000.0
G1 Z11.9000 F8000.0
G1 X63.2677 Y-39.4714 F12000.0
G1 Z0.0000 F8000.0
G0 X63.2677 Y-44.3318 F15000.0
G1 Z11.9000 F8000.0
G1 X0.0000 Y-44.3318 F12000.0
G1 Z0.0000 F8000.0
G0 X0.0000 Y-49.1922 F15000.0
G1 Z11.9000 F8000.0
G1 X63.2677 Y-49.1922 F12000.0
G1 Z0.0000 F8000.0
G0 X63.2677 Y-44.3318 F15000.0
G1 Z11.9000 F8000.0
G1 X180.0000 Y-44.3318 F12000.0
G1 Z0.0000 F8000.0
G0 X178.0591 Y-43.6540 F15000.0
G1 Z11.9000 F8000.0
G1 X176.9660 Y-43.3569 F12000.0
G1 X176.7468 Y-43.0369
G1 X176.7453 Y-42.7015
G1 X177.7972 Y-42.7272
G1 X178.0533 Y-42.3333
G1 X178.0890 Y-42.0874
G1 X178.0186 Y-41.8705
G1 X177.2979 Y-41.2231
G1 X177.0255 Y-41.4061
G1 X176.7385 Y-42.4790
G1 X177.0472 Y-42.7394
G1 X176.7456 Y-42.5350
G1 Z0.0000 F8000.0
G0 X175.9186 Y-42.2431 F15000.0
G1 Z11.9000 F8000.0
G1 X175.9507 Y-41.6158 F12000.0
G1 X175.8626 Y-41.3993
G1 X175.2391 Y-41.2061
G1 X174.7806 Y-41.4797
G1 X175.7846 Y-42.1613
G1 X175.9075 Y-42.3470
G1 X175.8661 Y-42.6926
G1 X175.1660 Y-42.8528
G1 X174.8989 Y-42.7882
G1 X174.9942 Y-42.8756
G1 Z0.0000 F8000.0
G0 X174.1672 Y-42.8756 F15000.0
G1 Z11.9000 F8000.0
G1 X172.9509 Y-42.8756 F12000.0
G1 Z0.0000 F8000.0
G0 X172.4158 Y-42.8269 F15000.0
G1 Z11.9000 F8000.0
G1 X171.3941 Y-41.2702 F12000.0
G1 Z0.0000 F8000.0
G0 X171.3455 Y-42.8269 F15000.0
G1 Z11.9000 F8000.0
G1 X171.3216 Y-41.3261 F12000.0
G1 X171.1500 Y-41.2399
G1 X170.5251 Y-41.3008
G1 X170.3494 Y-41.3948
G1 X170.3239 Y-42.8269
G1 Z0.0000 F8000.0
G0 X169.6428 Y-42.5837 F15000.0
G1 Z11.9000 F8000.0
G1 X169.4021 Y-42.8477 F12000.0
G1 X168.8039 Y-42.8248
G1 X168.5683 Y-42.5466
G1 X168.4480 Y-41.9367
G1 X168.6910 Y-41.3764
G1 X169.1316 Y-41.2105
G1 X169.4757 Y-41.3369
G1 X169.6481 Y-41.5336
G1 X169.5941 Y-41.4161
G1 Z0.0000 F8000.0
G0 X167.7454 Y-41.4648 F15000.0
G1 Z11.9000 F8000.0
G1 X167.7469 Y-42.1444 F12000.0
G1 X167.6793 Y-41.4022
G1 X167.0521 Y-41.2100
G1 X166.6130 Y-41.4878
G1 X167.6239 Y-42.1699
G1 X167.7380 Y-42.3604
G1 X167.6839 Y-42.7022
G1 X166.9777 Y-42.8541
G1 X166.7289 Y-42.7934
G1 X166.8211 Y-42.8756
G1 Z0.0000 F8000.0
G0 X165.6048 Y-43.2648 F15000.0
G1 Z11.9000 F8000.0
G1 X165.2099 Y-42.6209 F12000.0
G1 X165.5914 Y-43.1661
G1 X165.7021 Y-41.2702
G1 Z0.0000 F8000.0
G0 X164.7292 Y-41.4648 F15000.0
G1 Z11.9000 F8000.0
G1 X164.9769 Y-41.9654 F12000.0
G1 X164.8955 Y-41.6902
G1 X165.0802 Y-42.2557
G1 X164.6877 Y-41.5382
G1 X163.8576 Y-43.0211
G1 X163.6737 Y-43.2089
G1 X163.6952 Y-43.3222
G1 X163.6102 Y-41.3188
G1 Z0.0000 F8000.0
G0 X173.5834 Y-41.2702 F15000.0
G1 Z11.9000 F8000.0
G1 X173.5347 Y-42.8756 F12000.0
G1 Z0.0000 F8000.0
G0 X176.8915 Y-41.4648 F15000.0
G1 Z11.9000 F8000.0
G1 X177.0375 Y-41.3188 F12000.0
G1 Z0.0000 F8000.0
G0 X180.0000 Y-58.9131 F15000.0
G1 Z11.9000 F8000.0
G1 X0.0000 Y-58.9131 F12000.0
G1 Z0.0000 F8000.0
G0 X2.3399 Y-12.3733 F15000.0
G1 Z11.9000 F8000.0
G1 X2.3362 Y-14.2690 F12000.0
G1 X2.2523 Y-13.4852
G1 X0.9349 Y-13.4553
G1 X0.8804 Y-12.5243
G1 X0.8804 Y-14.3679
G1 Z0.0000 F8000.0
G0 X0.0000 Y-15.0870 F15000.0
G1 Z11.9000 F8000.0
G1 X63.2677 Y-15.0870 F12000.0
G1 Z0.0000 F8000.0
G0 X63.2677 Y-24.8078 F15000.0
G1 Z11.9000 F8000.0
G1 X0.0000 Y-24.8078 F12000.0
G1 Z0.0000 F8000.0
G0 X13.3478 Y-36.7438 F15000.0
G1 Z11.9000 F8000.0
G1 X13.3836 Y-36.8067 F12000.0
G1 X12.9832 Y-36.6356
G1 X12.4578 Y-36.9181
G1 X12.3917 Y-37.2728
G1 X12.4959 Y-37.7420
G1 X13.0674 Y-37.9676
G1 X14.8559 Y-38.0087
G1 Z0.0000 F8000.0
G0 X14.3208 Y-38.0087 F15000.0
G1 Z11.9000 F8000.0
G1 X14.3694 Y-36.6465 F12000.0
G1 Z0.0000 F8000.0
G0 X20.9641 Y-36.7456 F15000.0
G1 Z11.9000 F8000.0
G1 X20.9926 Y-38.2501 F12000.0
G1 X21.1507 Y-38.2375
G1 X21.7154 Y-37.6394
G1 X21.8119 Y-37.4009
G1 X21.7843 Y-37.4587
G1 X22.2913 Y-36.9970
G1 X22.0034 Y-37.1237
G1 X22.2419 Y-37.0675
G1 X22.3930 Y-37.1387
G1 X22.4236 Y-38.5943
G1 Z0.0000 F8000.0
G0 X23.1047 Y-38.1078 F15000.0
G1 Z11.9000 F8000.0
G1 X23.3340 Y-38.1746 F12000.0
G1 X23.5004 Y-38.0957
G1 X23.6029 Y-37.9243
G1 X23.6538 Y-37.5259
G1 X23.3721 Y-37.2615
G1 X22.9918 Y-37.3123
G1 X23.4150 Y-37.1794
G1 X23.6467 Y-36.9069
G1 X23.4609 Y-37.2375
G1 X23.5277 Y-37.4053
G1 X22.9717 Y-37.4495
G1 X22.9101 Y-37.9132
G1 Z0.0000 F8000.0
G0 X21.7425 Y-37.5240 F15000.0
G1 Z11.9000 F8000.0
G1 X21.3204 Y-38.1217 F12000.0
G1 X21.0614 Y-38.3024
G1 Z0.0000 F8000.0
G0 X0.0000 Y-54.0526 F15000.0
G1 Z11.9000 F8000.0
G1 X63.2677 Y-54.0526 F12000.0
G1 Z0.0000 F8000.0
G0 X104.8758 Y-54.9835 F15000.0
G1 Z11.9000 F8000.0
G1 X104.8758 Y-50.9456 F12000.0
G1 Z0.0000 F8000.0
G0 X104.8758 Y-53.0861 F15000.0
G1 Z11.9000 F8000.0
G1 X105.5804 Y-53.0446 F12000.0
G1 X105.7983 Y-52.9616
G1 X106.3000 Y-52.4613
G1 X107.1766 Y-51.0875
G1 X107.6488 Y-50.7023
G1 Z0.0000 F8000.0
G0 X108.5732 Y-50.9456 F15000.0
G1 Z11.9000 F8000.0
G1 X108.5732 Y-53.7186 F12000.0
G1 Z0.0000 F8000.0
G0 X108.5732 Y-52.4537 F15000.0
G1 Z11.9000 F8000.0
G1 X110.6651 Y-52.4051 F12000.0
G1 Z0.0000 F8000.0
G0 X110.7138 Y-53.7186 F15000.0
G1 Z11.9000 F8000.0
G1 X110.7138 Y-50.9456 F12000.0
G1 Z0.0000 F8000.0
G0 X112.1732 Y-50.9456 F15000.0
G1 Z11.9000 F8000.0
G1 X113.5841 Y-53.8159 F12000.0
G1 Z0.0000 F8000.0
G0 X115.4814 Y-53.8645 F15000.0
G1 Z11.9000 F8000.0
G1 X115.8135 Y-54.6533 F12000.0
G1 X115.4885 Y-53.7648
G1 X115.5337 Y-51.9962
G1 X115.7538 Y-51.3427
G1 X116.2273 Y-50.9420
G1 X116.4518 Y-50.8803
G1 X117.4907 Y-51.2336
G1 X117.8557 Y-52.3630
G1 X117.7111 Y-54.2464
G1 X117.4817 Y-54.6687
G1 X117.0812 Y-54.9620
G1 X116.2598 Y-55.0321
G1 Z0.0000 F8000.0
G0 X115.4814 Y-52.0159 F15000.0
G1 Z11.9000 F8000.0
G1 X115.8070 Y-51.2630 F12000.0
G1 X116.2598 Y-50.8969
G1 Z0.0000 F8000.0
G0 X120.5896 Y-50.9456 F15000.0
G1 Z11.9000 F8000.0
G1 X120.5065 Y-54.4839 F12000.0
G1 X119.3397 Y-53.8335
G1 X120.4617 Y-54.5166
G1 X120.6869 Y-55.0808
G1 Z0.0000 F8000.0
G0 X124.5302 Y-53.8645 F15000.0
G1 Z11.9000 F8000.0
G1 X125.3186 Y-54.9913 F12000.0
G1 X126.0461 Y-55.0018
G1 X126.6203 Y-54.5569
G1 X126.8222 Y-53.9742
G1 X126.9032 Y-52.3334
G1 X126.6680 Y-51.4858
G1 X126.5167 Y-51.2154
G1 X125.5920 Y-50.8947
G1 X125.3572 Y-50.8988
G1 X124.7959 Y-51.3509
G1 X124.6539 Y-51.6713
G1 X124.4893 Y-52.5236
G1 X124.5548 Y-53.9093
G1 X124.8056 Y-54.5495
G1 X125.3086 Y-55.0321
G1 Z0.0000 F8000.0
G0 X128.1789 Y-53.8645 F15000.0
G1 Z11.9000 F8000.0
G1 X128.9673 Y-54.9913 F12000.0
G1 X129.6948 Y-55.0018
G1 X130.2690 Y-54.5569
G1 X130.4710 Y-53.9742
G1 X130.5519 Y-52.3334
G1 X130.3167 Y-51.4858
G1 X130.1654 Y-51.2154
G1 X129.2407 Y-50.8947
G1 X129.0060 Y-50.8988
G1 X128.4446 Y-51.3509
G1 X128.3026 Y-51.6713
G1 X128.1380 Y-52.5236
G1 X128.2035 Y-53.9093
G1 X128.4544 Y-54.5495
G1 X128.9573 Y-55.0321
G1 Z0.0000 F8000.0
G0 X131.8277 Y-54.2537 F15000.0
G1 Z11.9000 F8000.0
G1 X131.9751 Y-54.5486 F12000.0
G1 X131.8325 Y-54.3215
G1 X132.0561 Y-54.6568
G1 X132.5558 Y-54.9977
G1 X133.5328 Y-54.7844
G1 X133.7269 Y-54.6687
G1 X133.9299 Y-54.0869
G1 X133.8457 Y-53.7374
G1 X133.4743 Y-53.2619
G1 X132.9486 Y-53.1027
G1 X133.4147 Y-53.1456
G1 X133.9241 Y-52.6918
G1 X134.1352 Y-51.8734
G1 X134.0640 Y-51.5143
G1 X133.8080 Y-51.1594
G1 X133.2831 Y-50.8896
G1 X132.6552 Y-50.8652
G1 X132.0479 Y-51.2023
G1 X132.2983 Y-50.9899
G1 X132.6579 Y-50.9062
G1 X133.5331 Y-50.9819
G1 X133.8709 Y-51.2375
G1 Z0.0000 F8000.0
G0 X128.5045 Y-51.2630 F15000.0
G1 Z11.9000 F8000.0
G1 X128.1789 Y-52.0159 F12000.0
G1 Z0.0000 F8000.0
G0 X125.3086 Y-50.8969 F15000.0
G1 Z11.9000 F8000.0
G1 X124.8825 Y-51.2147 F12000.0
G1 X124.5302 Y-52.0159
G1 Z0.0000 F8000.0
G0 X107.5029 Y-55.0321 F15000.0
G1 Z11.9000 F8000.0
G1 X107.1548 Y-54.9429 F12000.0
G1 X106.9731 Y-54.7927
G1 X106.3192 Y-53.7166
G1 X105.8131 Y-53.0647
G1 X106.2267 Y-53.5523
G1 X106.0571 Y-53.3535
G1 X106.3839 Y-53.8159
G1 Z0.0000 F8000.0
G0 X103.8454 Y-34.6854 F15000.0
G1 Z11.9000 F8000.0
G1 X103.8454 Y-30.5015 F12000.0
G1 Z0.0000 F8000.0

G0 Z0.0000 F800.0
G4 P0.06
G0 X0.0000 Y0.0000 F15000.0
M5
G4 P0.10
$1=0
