$X
$1=255
G21
G90
G92 Z4.0000
G0 Z0.0000 F800.0
G4 P0.06
G92 Z0.0000
G0 Z0.0000 F800.0
G0 X0.0000 Y0.0000 F15000.0
G21
G90
G17
G91.1
G0 Z0.0000
G0 X164.9796 Y-197.4464 F15000.0
G1 Z11.9000 F8000.0
G1 X165.6615 Y-197.8101 F12000.0
G1 Z0.0000 F8000.0
G0 X165.7978 Y-201.5373 F15000.0
G1 Z11.9000 F8000.0
G1 X165.6615 Y-201.3555 F12000.0
G1 X165.2978 Y-200.4010
G1 X165.3433 Y-199.8101
G1 Z0.0000 F8000.0
G0 X165.4342 Y-199.7191 F15000.0
G1 Z11.9000 F8000.0
G1 X166.9796 Y-199.5373 F12000.0
G1 X166.7069 Y-198.8101
G1 X166.4342 Y-198.4919
G1 Z0.0000 F8000.0
G0 X166.2069 Y-201.8555 F15000.0
G1 Z11.9000 F8000.0
G1 X167.2978 Y-202.0373 F12000.0
G1 X167.7069 Y-201.7191
G1 X167.3433 Y-200.0828
G1 Z0.0000 F8000.0
G0 X167.6160 Y-197.9010 F15000.0
G1 Z11.9000 F8000.0
G1 X167.6615 Y-198.5373 F12000.0
G1 X169.2524 Y-200.2191
G1 Z0.0000 F8000.0
G0 X168.2069 Y-197.4464 F15000.0
G1 Z11.9000 F8000.0
G1 X168.6160 Y-197.4464 F12000.0
G1 X169.2524 Y-197.7646
G1 X169.5706 Y-198.0373
G1 X169.7069 Y-198.2646
G1 Z0.0000 F8000.0
G0 X169.1160 Y-202.0828 F15000.0
G1 Z11.9000 F8000.0
G1 X170.8433 Y-201.9919 F12000.0
G1 X171.0706 Y-202.0828
G1 Z0.0000 F8000.0
G0 X170.7524 Y-201.7191 F15000.0
G1 Z11.9000 F8000.0
G1 X170.8433 Y-201.9464 F12000.0
G1 Z0.0000 F8000.0
G0 X144.8493 Y-114.5787 F15000.0
G1 Z11.9000 F8000.0
G1 X144.7129 Y-114.3060 F12000.0
G1 X144.7584 Y-113.8060
G1 Z0.0000 F8000.0
G0 X144.8493 Y-113.5333 F15000.0
G1 Z11.9000 F8000.0
G1 X145.5311 Y-112.6242 F12000.0
G1 Z0.0000 F8000.0
G0 X145.2129 Y-114.9424 F15000.0
G1 Z11.9000 F8000.0
G1 X146.3493 Y-114.8060 F12000.0
G1 X147.2129 Y-114.2606
G1 X147.7129 Y-113.7606
G1 X148.5311 Y-114.1697
G1 X149.8038 Y-113.8060
G1 X150.1675 Y-113.6242
G1 Z0.0000 F8000.0
G0 X145.8038 Y-112.4878 F15000.0
G1 Z11.9000 F8000.0
G1 X147.0765 Y-112.1242 F12000.0
G1 X147.6220 Y-112.3515
G1 X147.7584 Y-113.7151
G1 Z0.0000 F8000.0
G0 X147.6675 Y-112.3515 F15000.0
G1 Z11.9000 F8000.0
G1 X148.0765 Y-111.8060 F12000.0
G1 Z0.0000 F8000.0
G0 X148.4856 Y-111.3969 F15000.0
G1 Z11.9000 F8000.0
G1 X149.6220 Y-110.8515 F12000.0
G1 X150.7584 Y-110.6697
G1 Z0.0000 F8000.0
G0 X150.4856 Y-113.4424 F15000.0
G1 Z11.9000 F8000.0
G1 X151.1220 Y-112.5787 F12000.0
G1 X151.2129 Y-111.2151
G1 X151.1220 Y-110.9878
G1 Z0.0000 F8000.0
G0 X154.8493 Y-114.8283 F15000.0
G1 Z11.9000 F8000.0
G1 X155.4856 Y-112.4192 F12000.0
G1 X156.9402 Y-111.7829
G1 X157.8493 Y-111.7829
G1 X158.2583 Y-114.1465
G1 X159.3038 Y-113.7374
G1 X159.9402 Y-113.2374
G1 Z0.0000 F8000.0
G0 X154.9402 Y-114.9647 F15000.0
G1 Z11.9000 F8000.0
G1 X155.1220 Y-115.1465 F12000.0
G1 X156.1674 Y-115.1465
G1 Z0.0000 F8000.0
G0 X157.7583 Y-114.5556 F15000.0
G1 Z11.9000 F8000.0
G1 X157.8947 Y-114.5102 F12000.0
G1 Z0.0000 F8000.0
G0 X158.1674 Y-114.3738 F15000.0
G1 Z11.9000 F8000.0
G1 X158.2583 Y-114.2374 F12000.0
G1 Z0.0000 F8000.0
G0 X160.4856 Y-112.6011 F15000.0
G1 Z11.9000 F8000.0
G1 X160.5765 Y-112.5102 F12000.0
G1 Z0.0000 F8000.0
G0 X160.7583 Y-112.2374 F15000.0
G1 Z11.9000 F8000.0
G1 X160.8947 Y-111.9647 F12000.0
G1 Z0.0000 F8000.0
G0 X161.0311 Y-111.6920 F15000.0
G1 Z11.9000 F8000.0
G1 X161.2129 Y-111.2374 F12000.0
G1 Z0.0000 F8000.0
G0 X171.9325 Y-18.3975 F15000.0
G1 Z11.9000 F8000.0
G1 X174.8957 Y-18.3975 F12000.0
G1 Z0.0000 F8000.0
G0 X171.9325 Y-16.1115 F15000.0
G1 Z11.9000 F8000.0
G1 X174.8957 Y-16.1115 F12000.0
G1 Z0.0000 F8000.0
G0 X141.0292 Y-9.0841 F15000.0
G1 Z11.9000 F8000.0
G1 X150.5119 Y-9.0841 F12000.0
G1 Z0.0000 F8000.0
G0 X170.2392 Y-15.8575 F15000.0
G1 Z11.9000 F8000.0
G1 X170.6625 Y-15.8575 F12000.0
G1 Z0.0000 F8000.0
G0 X170.6625 Y-16.2808 F15000.0
G1 Z11.9000 F8000.0
G1 X169.9852 Y-15.6035 F12000.0
G1 Z0.0000 F8000.0
G0 X171.3398 Y-15.8575 F15000.0
G1 Z11.9000 F8000.0
G1 X170.6625 Y-15.8575 F12000.0
G1 Z0.0000 F8000.0
G0 X171.3398 Y-16.2808 F15000.0
G1 Z11.9000 F8000.0
G1 X170.6625 Y-16.2808 F12000.0
G1 Z0.0000 F8000.0
G0 X171.3398 Y-17.3815 F15000.0
G1 Z11.9000 F8000.0
G1 X171.9325 Y-18.3975 F12000.0
G1 Z0.0000 F8000.0
G0 X171.3398 Y-17.3815 F15000.0
G1 Z11.9000 F8000.0
G1 X171.3398 Y-15.2648 F12000.0
G1 Z0.0000 F8000.0
G0 X169.9852 Y-15.2648 F15000.0
G1 Z11.9000 F8000.0
G1 X169.9852 Y-15.6035 F12000.0
G1 Z0.0000 F8000.0
G0 X170.6625 Y-15.2648 F15000.0
G1 Z11.9000 F8000.0
G1 X170.6625 Y-16.2808 F12000.0
G1 Z0.0000 F8000.0
G0 X163.5505 Y-7.3061 F15000.0
G1 Z11.9000 F8000.0
G1 X163.5505 Y-5.8668 F12000.0
G1 Z0.0000 F8000.0
G0 X175.4884 Y-17.3815 F15000.0
G1 Z11.9000 F8000.0
G1 X174.8957 Y-18.3975 F12000.0
G1 Z0.0000 F8000.0
G0 X171.9325 Y-18.3975 F15000.0
G1 Z11.9000 F8000.0
G1 X171.7632 Y-18.0588 F12000.0
G1 X171.5938 Y-17.8048 F12000.0
G1 X171.5938 Y-17.4661 F12000.0
G1 X171.5938 Y-17.1275 F12000.0
G1 X171.5938 Y-16.7888 F12000.0
G1 Z0.0000 F8000.0
G0 X171.7632 Y-16.4501 F15000.0
G1 Z11.9000 F8000.0
G1 X171.9325 Y-16.1115 F12000.0
G1 X171.6785 Y-15.2648 F12000.0
G1 Z0.0000 F8000.0
G0 X174.8957 Y-16.1115 F15000.0
G1 Z11.9000 F8000.0
G1 X175.0651 Y-16.3655 F12000.0
G1 X175.2344 Y-16.7041 F12000.0
G1 X175.2344 Y-17.0428 F12000.0
G1 Z0.0000 F8000.0
G0 X175.3191 Y-17.2968 F15000.0
G1 Z11.9000 F8000.0
G1 X175.2344 Y-17.7201 F12000.0
G1 Z0.0000 F8000.0
G0 X175.1497 Y-18.0588 F15000.0
G1 Z11.9000 F8000.0
G1 X174.8957 Y-18.3975 F12000.0
G1 Z0.0000 F8000.0
G0 X175.1497 Y-15.2648 F15000.0
G1 Z11.9000 F8000.0
G1 X174.8957 Y-16.1115 F12000.0
G1 Z0.0000 F8000.0
G0 X178.1131 Y-5.4435 F15000.0
G1 Z11.9000 F8000.0
G1 X177.9437 Y-5.1895 F12000.0
G1 X177.8680 Y-5.0000 F12000.0
G1 Z0.0000 F8000.0
G0 X173.1177 Y-5.4435 F15000.0
G1 Z11.9000 F8000.0
G1 X172.9485 Y-5.1895 F12000.0
G1 X172.8727 Y-5.0000 F12000.0
G1 Z0.0000 F8000.0
G0 X168.1225 Y-5.4435 F15000.0
G1 Z11.9000 F8000.0
G1 X167.9532 Y-5.1895 F12000.0
G1 X167.8774 Y-5.0000 F12000.0
G1 Z0.0000 F8000.0
G0 X162.9579 Y-5.2741 F15000.0
G1 Z11.9000 F8000.0
G1 X162.8665 Y-5.0000 F12000.0
G1 Z0.0000 F8000.0
G0 X157.5392 Y-9.5075 F15000.0
G1 Z11.9000 F8000.0
G1 X157.5392 Y-5.0000 F12000.0
G1 Z0.0000 F8000.0
G0 X175.4884 Y-15.2648 F15000.0
G1 Z11.9000 F8000.0
G1 X157.0312 Y-15.2648 F12000.0
G1 X155.7612 Y-15.0955 F12000.0
G1 X154.6605 Y-14.5875 F12000.0
G1 X153.7292 Y-13.8255 F12000.0
G1 X153.0519 Y-12.8095 F12000.0
G1 X152.6285 Y-11.6241 F12000.0
G1 X152.5439 Y-10.7775 F12000.0
G1 Z0.0000 F8000.0
G0 X151.5279 Y-9.7615 F15000.0
G1 Z11.9000 F8000.0
G1 X152.0359 Y-9.9308 F12000.0
G1 X152.4592 Y-10.3541 F12000.0
G1 X152.5439 Y-10.7775 F12000.0
G1 Z0.0000 F8000.0
G0 X151.5279 Y-9.7615 F15000.0
G1 Z11.9000 F8000.0
G1 X150.5119 Y-9.7615 F12000.0
G1 X150.5119 Y-5.0000 F12000.0
G1 Z0.0000 F8000.0
G0 X175.4884 Y-19.7521 F15000.0
G1 Z11.9000 F8000.0
G1 X175.4884 Y-15.2648 F12000.0
G1 Z0.0000 F8000.0
G0 X175.4884 Y-19.7521 F15000.0
G1 Z11.9000 F8000.0
G1 X180.0000 Y-19.7521 F12000.0
G1 Z0.0000 F8000.0
G0 X180.0000 Y-10.5235 F15000.0
G1 Z11.9000 F8000.0
G1 X158.5552 Y-10.5235 F12000.0
G1 X157.9625 Y-10.3541 F12000.0
G1 X157.6239 Y-9.9308 F12000.0
G1 X157.5392 Y-9.5075 F12000.0
G1 Z0.0000 F8000.0
G0 X139.5052 Y-7.3061 F15000.0
G1 Z11.9000 F8000.0
G1 X125.0272 Y-7.3061 F12000.0
G1 Z0.0000 F8000.0
G0 X141.0292 Y-9.0841 F15000.0
G1 Z11.9000 F8000.0
G1 X141.0292 Y-8.7455 F12000.0
G1 Z0.0000 F8000.0
G0 X139.5052 Y-7.3061 F15000.0
G1 Z11.9000 F8000.0
G1 X140.1825 Y-7.4755 F12000.0
G1 X140.7752 Y-7.8988 F12000.0
G1 X141.0292 Y-8.5761 F12000.0
G1 Z0.0000 F8000.0
G0 X125.0272 Y-7.3061 F15000.0
G1 Z11.9000 F8000.0
G1 X123.0799 Y-7.1368 F12000.0
G1 X121.1326 Y-6.6288 F12000.0
G1 X119.3546 Y-5.7821 F12000.0
G1 X118.2115 Y-5.0000 F12000.0
G1 Z0.0000 F8000.0
G0 X159.4865 Y-8.9995 F15000.0
G1 Z11.9000 F8000.0
G1 X159.4865 Y-5.0000 F12000.0
G1 Z0.0000 F8000.0
G0 X162.0265 Y-5.0000 F15000.0
G1 Z11.9000 F8000.0
G1 X162.0265 Y-7.3061 F12000.0
G1 X163.5505 Y-7.3061 F12000.0
G1 X163.5505 Y-8.9995 F12000.0
G1 X159.4865 Y-8.9995 F12000.0
G1 Z0.0000 F8000.0
G0 X171.9325 Y-181.1264 F15000.0
G1 Z11.9000 F8000.0
G1 X174.8957 Y-181.1264 F12000.0
G1 Z0.0000 F8000.0
G0 X171.9325 Y-173.0831 F15000.0
G1 Z11.9000 F8000.0
G1 X174.8957 Y-173.0831 F12000.0
G1 Z0.0000 F8000.0
G0 X171.9325 Y-145.1431 F15000.0
G1 Z11.9000 F8000.0
G1 X174.8957 Y-145.1431 F12000.0
G1 Z0.0000 F8000.0
G0 X171.9325 Y-137.0998 F15000.0
G1 Z11.9000 F8000.0
G1 X174.8957 Y-137.0998 F12000.0
G1 Z0.0000 F8000.0
G0 X175.4884 Y-135.0678 F15000.0
G1 Z11.9000 F8000.0
G1 X180.0000 Y-135.0678 F12000.0
G1 Z0.0000 F8000.0
G0 X175.4884 Y-183.0738 F15000.0
G1 Z11.9000 F8000.0
G1 X180.0000 Y-183.0738 F12000.0
G1 Z0.0000 F8000.0
G0 X175.4884 Y-177.0624 F15000.0
G1 Z11.9000 F8000.0
G1 X175.4884 Y-141.0791 F12000.0
G1 X175.4884 Y-135.0678 F12000.0
G1 Z0.0000 F8000.0
G0 X175.4884 Y-183.0738 F15000.0
G1 Z11.9000 F8000.0
G1 X175.4884 Y-177.0624 F12000.0
G1 Z0.0000 F8000.0
G0 X141.0292 Y-170.6278 F15000.0
G1 Z11.9000 F8000.0
G1 X150.5119 Y-170.6278 F12000.0
G1 Z0.0000 F8000.0
G0 X141.0292 Y-147.5985 F15000.0
G1 Z11.9000 F8000.0
G1 X150.5119 Y-147.5985 F12000.0
G1 Z0.0000 F8000.0
G0 X180.0000 Y-177.0624 F15000.0
G1 Z11.9000 F8000.0
G1 X168.3765 Y-177.0624 F12000.0
G1 Z0.0000 F8000.0
G0 X170.2392 Y-179.1791 F15000.0
G1 Z11.9000 F8000.0
G1 X170.6625 Y-179.1791 F12000.0
G1 Z0.0000 F8000.0
G0 X170.2392 Y-175.0304 F15000.0
G1 Z11.9000 F8000.0
G1 X170.6625 Y-175.0304 F12000.0
G1 Z0.0000 F8000.0
G0 X169.9852 Y-175.2844 F15000.0
G1 Z11.9000 F8000.0
G1 X170.6625 Y-174.6071 F12000.0
G1 Z0.0000 F8000.0
G0 X170.6625 Y-179.6024 F15000.0
G1 Z11.9000 F8000.0
G1 X169.9852 Y-178.9251 F12000.0
G1 Z0.0000 F8000.0
G0 X170.6625 Y-174.6071 F15000.0
G1 Z11.9000 F8000.0
G1 X171.3398 Y-174.6071 F12000.0
G1 Z0.0000 F8000.0
G0 X180.0000 Y-141.0791 F15000.0
G1 Z11.9000 F8000.0
G1 X168.3765 Y-141.0791 F12000.0
G1 Z0.0000 F8000.0
G0 X170.2392 Y-143.1958 F15000.0
G1 Z11.9000 F8000.0
G1 X170.6625 Y-143.1958 F12000.0
G1 Z0.0000 F8000.0
G0 X170.2392 Y-139.0471 F15000.0
G1 Z11.9000 F8000.0
G1 X170.6625 Y-139.0471 F12000.0
G1 Z0.0000 F8000.0
G0 X169.9852 Y-139.2165 F15000.0
G1 Z11.9000 F8000.0
G1 X170.6625 Y-138.6238 F12000.0
G1 Z0.0000 F8000.0
G0 X170.6625 Y-143.6191 F15000.0
G1 Z11.9000 F8000.0
G1 X169.9852 Y-142.9418 F12000.0
G1 Z0.0000 F8000.0
G0 X170.6625 Y-138.6238 F15000.0
G1 Z11.9000 F8000.0
G1 X171.3398 Y-138.6238 F12000.0
G1 Z0.0000 F8000.0
G0 X171.3398 Y-179.1791 F15000.0
G1 Z11.9000 F8000.0
G1 X170.6625 Y-179.1791 F12000.0
G1 Z0.0000 F8000.0
G0 X171.3398 Y-175.0304 F15000.0
G1 Z11.9000 F8000.0
G1 X170.6625 Y-175.0304 F12000.0
G1 Z0.0000 F8000.0
G0 X171.3398 Y-179.6024 F15000.0
G1 Z11.9000 F8000.0
G1 X170.6625 Y-179.6024 F12000.0
G1 Z0.0000 F8000.0
G0 X171.3398 Y-143.1958 F15000.0
G1 Z11.9000 F8000.0
G1 X170.6625 Y-143.1958 F12000.0
G1 Z0.0000 F8000.0
G0 X171.3398 Y-139.0471 F15000.0
G1 Z11.9000 F8000.0
G1 X170.6625 Y-139.0471 F12000.0
G1 Z0.0000 F8000.0
G0 X171.3398 Y-143.6191 F15000.0
G1 Z11.9000 F8000.0
G1 X170.6625 Y-143.6191 F12000.0
G1 Z0.0000 F8000.0
G0 X171.3398 Y-173.5064 F15000.0
G1 Z11.9000 F8000.0
G1 X171.5092 Y-173.0831 F12000.0
G1 Z0.0000 F8000.0
G0 X171.3398 Y-137.5231 F15000.0
G1 Z11.9000 F8000.0
G1 X171.5092 Y-137.0998 F12000.0
G1 Z0.0000 F8000.0
G0 X171.5092 Y-181.1264 F15000.0
G1 Z11.9000 F8000.0
G1 X171.3398 Y-180.7031 F12000.0
G1 Z0.0000 F8000.0
G0 X171.5092 Y-145.1431 F15000.0
G1 Z11.9000 F8000.0
G1 X171.3398 Y-144.7198 F12000.0
G1 Z0.0000 F8000.0
G0 X169.9852 Y-175.2844 F15000.0
G1 Z11.9000 F8000.0
G1 X169.9852 Y-178.9251 F12000.0
G1 Z0.0000 F8000.0
G0 X170.6625 Y-174.6071 F15000.0
G1 Z11.9000 F8000.0
G1 X170.6625 Y-179.6024 F12000.0
G1 Z0.0000 F8000.0
G0 X169.9852 Y-139.2165 F15000.0
G1 Z11.9000 F8000.0
G1 X169.9852 Y-142.9418 F12000.0
G1 Z0.0000 F8000.0
G0 X170.6625 Y-138.6238 F15000.0
G1 Z11.9000 F8000.0
G1 X170.6625 Y-143.6191 F12000.0
G1 Z0.0000 F8000.0
G0 X171.3398 Y-180.7031 F15000.0
G1 Z11.9000 F8000.0
G1 X171.3398 Y-173.5064 F12000.0
G1 Z0.0000 F8000.0
G0 X171.3398 Y-144.7198 F15000.0
G1 Z11.9000 F8000.0
G1 X171.3398 Y-137.5231 F12000.0
G1 Z0.0000 F8000.0
G0 X151.5279 Y-173.0831 F15000.0
G1 Z11.9000 F8000.0
G1 X150.5119 Y-173.0831 F12000.0
G1 Z0.0000 F8000.0
G0 X157.0312 Y-178.5864 F15000.0
G1 Z11.9000 F8000.0
G1 X155.7612 Y-178.4171 F12000.0
G1 X154.6605 Y-177.9091 F12000.0
G1 X153.7292 Y-177.1471 F12000.0
G1 X153.0519 Y-176.1311 F12000.0
G1 X152.6285 Y-174.9458 F12000.0
G1 X152.5439 Y-174.0991 F12000.0
G1 Z0.0000 F8000.0
G0 X151.5279 Y-173.0831 F15000.0
G1 Z11.9000 F8000.0
G1 X152.0359 Y-173.2524 F12000.0
G1 X152.4592 Y-173.6758 F12000.0
G1 X152.5439 Y-174.0991 F12000.0
G1 Z0.0000 F8000.0
G0 X169.9852 Y-178.5864 F15000.0
G1 Z11.9000 F8000.0
G1 X157.0312 Y-178.5864 F12000.0
G1 Z0.0000 F8000.0
G0 X150.5119 Y-145.1431 F15000.0
G1 Z11.9000 F8000.0
G1 X151.5279 Y-145.1431 F12000.0
G1 Z0.0000 F8000.0
G0 X152.5439 Y-144.1271 F15000.0
G1 Z11.9000 F8000.0
G1 X152.7132 Y-142.8571 F12000.0
G1 X153.2212 Y-141.7565 F12000.0
G1 X153.9832 Y-140.8251 F12000.0
G1 X154.9992 Y-140.0631 F12000.0
G1 X156.0999 Y-139.7245 F12000.0
G1 X157.0312 Y-139.6398 F12000.0
G1 Z0.0000 F8000.0
G0 X152.5439 Y-144.1271 F15000.0
G1 Z11.9000 F8000.0
G1 X152.3745 Y-144.6351 F12000.0
G1 X151.9512 Y-145.0585 F12000.0
G1 X151.5279 Y-145.1431 F12000.0
G1 Z0.0000 F8000.0
G0 X157.0312 Y-139.6398 F15000.0
G1 Z11.9000 F8000.0
G1 X169.9852 Y-139.6398 F12000.0
G1 Z0.0000 F8000.0
G0 X150.5119 Y-159.1131 F15000.0
G1 Z11.9000 F8000.0
G1 X150.5119 Y-173.0831 F12000.0
G1 Z0.0000 F8000.0
G0 X152.5439 Y-159.1131 F15000.0
G1 Z11.9000 F8000.0
G1 X152.5439 Y-174.0991 F12000.0
G1 Z0.0000 F8000.0
G0 X150.5119 Y-145.1431 F15000.0
G1 Z11.9000 F8000.0
G1 X150.5119 Y-159.1131 F12000.0
G1 Z0.0000 F8000.0
G0 X152.5439 Y-144.1271 F15000.0
G1 Z11.9000 F8000.0
G1 X152.5439 Y-159.1131 F12000.0
G1 Z0.0000 F8000.0
G0 X139.5052 Y-170.6278 F15000.0
G1 Z11.9000 F8000.0
G1 X125.0272 Y-170.6278 F12000.0
G1 X123.0799 Y-170.4584 F12000.0
G1 X121.1326 Y-169.9504 F12000.0
G1 X119.3546 Y-169.1038 F12000.0
G1 X117.7459 Y-168.0031 F12000.0
G1 X116.3066 Y-166.6484 F12000.0
G1 X115.1212 Y-165.0398 F12000.0
G1 X114.2746 Y-163.2618 F12000.0
G1 X113.7666 Y-161.3991 F12000.0
G1 X113.5126 Y-159.3671 F12000.0
G1 Z0.0000 F8000.0
G0 X125.0272 Y-147.5985 F15000.0
G1 Z11.9000 F8000.0
G1 X139.5052 Y-147.5985 F12000.0
G1 Z0.0000 F8000.0
G0 X113.5126 Y-159.1131 F15000.0
G1 Z11.9000 F8000.0
G1 X113.6819 Y-157.1658 F12000.0
G1 X114.1899 Y-155.2185 F12000.0
G1 X115.0366 Y-153.4405 F12000.0
G1 X116.1372 Y-151.8318 F12000.0
G1 X117.4919 Y-150.3925 F12000.0
G1 X119.1006 Y-149.2071 F12000.0
G1 X120.8786 Y-148.3605 F12000.0
G1 X122.7412 Y-147.8525 F12000.0
G1 X124.6886 Y-147.5985 F12000.0
G1 X125.0272 Y-147.5985 F12000.0
G1 Z0.0000 F8000.0
G0 X180.0000 Y-166.7453 F15000.0
G1 Z11.9000 F8000.0
G1 X179.4677 Y-165.2938 F12000.0
G1 X178.8751 Y-162.7538 F12000.0
G1 X178.5364 Y-160.0445 F12000.0
G1 X178.6211 Y-157.4198 F12000.0
G1 X178.9597 Y-154.7951 F12000.0
G1 X179.7217 Y-152.1705 F12000.0
G1 X180.0000 Y-151.4981 F12000.0
G1 Z0.0000 F8000.0
G0 X175.4884 Y-180.7031 F15000.0
G1 Z11.9000 F8000.0
G1 X175.3191 Y-181.1264 F12000.0
G1 Z0.0000 F8000.0
G0 X175.4884 Y-144.7198 F15000.0
G1 Z11.9000 F8000.0
G1 X175.3191 Y-145.1431 F12000.0
G1 Z0.0000 F8000.0
G0 X175.3191 Y-173.0831 F15000.0
G1 Z11.9000 F8000.0
G1 X175.4884 Y-173.5064 F12000.0
G1 Z0.0000 F8000.0
G0 X175.3191 Y-137.0998 F15000.0
G1 Z11.9000 F8000.0
G1 X175.4884 Y-137.5231 F12000.0
G1 Z0.0000 F8000.0
G0 X171.9325 Y-181.1264 F15000.0
G1 Z11.9000 F8000.0
G1 X171.5938 Y-179.7718 F12000.0
G1 X171.5938 Y-178.3324 F12000.0
G1 X171.9325 Y-177.0624 F12000.0
G1 X171.5938 Y-175.7078 F12000.0
G1 X171.5938 Y-174.3531 F12000.0
G1 X171.9325 Y-173.0831 F12000.0
G1 X171.5092 Y-173.0831 F12000.0
G1 Z0.0000 F8000.0
G0 X171.9325 Y-145.1431 F15000.0
G1 Z11.9000 F8000.0
G1 X171.5938 Y-143.7038 F12000.0
G1 X171.5938 Y-142.3491 F12000.0
G1 X171.9325 Y-141.0791 F12000.0
G1 X171.5938 Y-139.7245 F12000.0
G1 X171.5938 Y-138.3698 F12000.0
G1 X171.9325 Y-137.0998 F12000.0
G1 X171.5092 Y-137.0998 F12000.0
G1 Z0.0000 F8000.0
G0 X171.5938 Y-181.1264 F15000.0
G1 Z11.9000 F8000.0
G1 X171.9325 Y-181.1264 F12000.0
G1 Z0.0000 F8000.0
G0 X171.5938 Y-145.1431 F15000.0
G1 Z11.9000 F8000.0
G1 X171.9325 Y-145.1431 F12000.0
G1 Z0.0000 F8000.0
G0 X141.0292 Y-148.1065 F15000.0
G1 Z11.9000 F8000.0
G1 X141.0292 Y-147.5985 F12000.0
G1 Z0.0000 F8000.0
G0 X139.5052 Y-153.3558 F15000.0
G1 Z11.9000 F8000.0
G1 X140.0132 Y-152.0858 F12000.0
G1 X140.5212 Y-150.9005 F12000.0
G1 X140.7752 Y-149.9691 F12000.0
G1 X140.9445 Y-149.0378 F12000.0
G1 X141.0292 Y-148.1065 F12000.0
G1 Z0.0000 F8000.0
G0 X141.0292 Y-158.6051 F15000.0
G1 Z11.9000 F8000.0
G1 X140.9445 Y-157.6738 F12000.0
G1 X140.7752 Y-156.7425 F12000.0
G1 X140.5212 Y-155.8111 F12000.0
G1 X140.0132 Y-154.6258 F12000.0
G1 X139.5052 Y-153.3558 F12000.0
G1 Z0.0000 F8000.0
G0 X141.0292 Y-147.5985 F15000.0
G1 Z11.9000 F8000.0
G1 X139.5052 Y-147.5985 F12000.0
G1 Z0.0000 F8000.0
G0 X174.8957 Y-173.0831 F15000.0
G1 Z11.9000 F8000.0
G1 X175.2344 Y-174.4378 F12000.0
G1 X175.2344 Y-175.8771 F12000.0
G1 X174.8957 Y-177.0624 F12000.0
G1 Z0.0000 F8000.0
G0 X174.8957 Y-181.1264 F15000.0
G1 Z11.9000 F8000.0
G1 X175.3191 Y-181.1264 F12000.0
G1 Z0.0000 F8000.0
G0 X174.8957 Y-177.0624 F15000.0
G1 Z11.9000 F8000.0
G1 X175.2344 Y-178.5018 F12000.0
G1 X175.2344 Y-179.8564 F12000.0
G1 X174.8957 Y-181.1264 F12000.0
G1 Z0.0000 F8000.0
G0 X174.8957 Y-137.0998 F15000.0
G1 Z11.9000 F8000.0
G1 X175.2344 Y-138.4545 F12000.0
G1 X175.2344 Y-139.8938 F12000.0
G1 X174.8957 Y-141.0791 F12000.0
G1 Z0.0000 F8000.0
G0 X174.8957 Y-145.1431 F15000.0
G1 Z11.9000 F8000.0
G1 X175.3191 Y-145.1431 F12000.0
G1 Z0.0000 F8000.0
G0 X174.8957 Y-141.0791 F15000.0
G1 Z11.9000 F8000.0
G1 X175.2344 Y-142.4338 F12000.0
G1 X175.2344 Y-143.8731 F12000.0
G1 X174.8957 Y-145.1431 F12000.0
G1 Z0.0000 F8000.0
G0 X175.3191 Y-173.0831 F15000.0
G1 Z11.9000 F8000.0
G1 X174.8957 Y-173.0831 F12000.0
G1 Z0.0000 F8000.0
G0 X175.3191 Y-137.0998 F15000.0
G1 Z11.9000 F8000.0
G1 X174.8957 Y-137.0998 F12000.0
G1 Z0.0000 F8000.0
G0 X139.5052 Y-147.5985 F15000.0
G1 Z11.9000 F8000.0
G1 X139.5052 Y-170.6278 F12000.0
G1 Z0.0000 F8000.0
G0 X111.8192 Y-159.1131 F15000.0
G1 Z11.9000 F8000.0
G1 X130.8692 Y-159.1131 F12000.0
G1 Z0.0000 F8000.0
G0 X132.3932 Y-159.1131 F15000.0
G1 Z11.9000 F8000.0
G1 X133.9172 Y-159.1131 F12000.0
G1 Z0.0000 F8000.0
G0 X135.4412 Y-159.1131 F15000.0
G1 Z11.9000 F8000.0
G1 X154.4912 Y-159.1131 F12000.0
G1 Z0.0000 F8000.0
G0 X155.9305 Y-159.1131 F15000.0
G1 Z11.9000 F8000.0
G1 X157.4545 Y-159.1131 F12000.0
G1 Z0.0000 F8000.0
G0 X158.9785 Y-159.1131 F15000.0
G1 Z11.9000 F8000.0
G1 X178.0284 Y-159.1131 F12000.0
G1 Z0.0000 F8000.0
G0 X179.5524 Y-159.1131 F15000.0
G1 Z11.9000 F8000.0
G1 X180.0000 Y-159.1131 F12000.0
G1 Z0.0000 F8000.0
G0 X125.0272 Y-145.9051 F15000.0
G1 Z11.9000 F8000.0
G1 X125.0272 Y-156.8271 F12000.0
G1 Z0.0000 F8000.0
G0 X125.0272 Y-158.3511 F15000.0
G1 Z11.9000 F8000.0
G1 X125.0272 Y-159.8751 F12000.0
G1 Z0.0000 F8000.0
G0 X125.0272 Y-161.3145 F15000.0
G1 Z11.9000 F8000.0
G1 X125.0272 Y-172.2364 F12000.0
G1 Z0.0000 F8000.0
G0 X125.0272 Y-5.0000 F15000.0
G1 Z11.9000 F8000.0
G1 X125.0272 Y-8.9148 F12000.0
G1 Z0.0000 F8000.0
G0 X150.5119 Y-7.0521 F15000.0
G1 Z11.9000 F8000.0
G1 X148.5645 Y-9.0841 F12000.0
G1 Z0.0000 F8000.0
G0 X150.4487 Y-5.0000 F15000.0
G1 Z11.9000 F8000.0
G1 X146.4479 Y-9.0841 F12000.0
G1 Z0.0000 F8000.0
G0 X148.3351 Y-5.0000 F15000.0
G1 Z11.9000 F8000.0
G1 X144.3312 Y-9.0841 F12000.0
G1 Z0.0000 F8000.0
G0 X146.2185 Y-5.0000 F15000.0
G1 Z11.9000 F8000.0
G1 X142.2145 Y-9.0841 F12000.0
G1 Z0.0000 F8000.0
G0 X144.1130 Y-5.0000 F15000.0
G1 Z11.9000 F8000.0
G1 X140.9445 Y-8.2375 F12000.0
G1 Z0.0000 F8000.0
G0 X141.9805 Y-5.0000 F15000.0
G1 Z11.9000 F8000.0
G1 X139.6745 Y-7.3061 F12000.0
G1 Z0.0000 F8000.0
G0 X139.8639 Y-5.0000 F15000.0
G1 Z11.9000 F8000.0
G1 X137.5579 Y-7.3061 F12000.0
G1 Z0.0000 F8000.0
G0 X137.7472 Y-5.0000 F15000.0
G1 Z11.9000 F8000.0
G1 X135.4412 Y-7.3061 F12000.0
G1 Z0.0000 F8000.0
G0 X135.6306 Y-5.0000 F15000.0
G1 Z11.9000 F8000.0
G1 X133.3246 Y-7.3061 F12000.0
G1 Z0.0000 F8000.0
G0 X133.5140 Y-5.0000 F15000.0
G1 Z11.9000 F8000.0
G1 X131.2079 Y-7.3061 F12000.0
G1 Z0.0000 F8000.0
G0 X131.3973 Y-5.0000 F15000.0
G1 Z11.9000 F8000.0
G1 X129.0912 Y-7.3061 F12000.0
G1 Z0.0000 F8000.0
G0 X129.2807 Y-5.0000 F15000.0
G1 Z11.9000 F8000.0
G1 X126.9746 Y-7.3061 F12000.0
G1 Z0.0000 F8000.0
G0 X127.1640 Y-5.0000 F15000.0
G1 Z11.9000 F8000.0
G1 X124.8579 Y-7.3061 F12000.0
G1 Z0.0000 F8000.0
G0 X124.9627 Y-5.0000 F15000.0
G1 Z11.9000 F8000.0
G1 X122.9106 Y-7.0521 F12000.0
G1 Z0.0000 F8000.0
G0 X122.9307 Y-5.0000 F15000.0
G1 Z11.9000 F8000.0
G1 X121.3019 Y-6.6288 F12000.0
G1 Z0.0000 F8000.0
G0 X120.8140 Y-5.0000 F15000.0
G1 Z11.9000 F8000.0
G1 X119.7779 Y-6.0361 F12000.0
G1 Z0.0000 F8000.0
G0 X118.6202 Y-5.0000 F15000.0
G1 Z11.9000 F8000.0
G1 X118.4232 Y-5.1895 F12000.0
G1 Z0.0000 F8000.0
G0 X163.4471 Y-197.7289 F15000.0
G1 Z11.9000 F8000.0
G1 X161.3108 Y-197.5016 F12000.0
G1 X162.1744 Y-199.0925
G1 Z0.0000 F8000.0
G0 X162.7653 Y-200.0925 F15000.0
G1 Z11.9000 F8000.0
G1 X163.9926 Y-202.0925 F12000.0
G1 X163.9471 Y-202.0471
G1 Z0.0000 F8000.0
G0 X113.5126 Y-204.7484 F15000.0
G1 Z11.9000 F8000.0
G1 X118.5079 Y-205.4257 F12000.0
G1 X117.9999 Y-204.7484 F12000.0
G1 X118.5079 Y-204.0711 F12000.0
G1 X113.5126 Y-204.7484 F12000.0
G1 Z0.0000 F8000.0
G0 X115.5179 Y-205.0871 F15000.0
G1 Z11.9000 F8000.0
G1 X116.4179 Y-205.0871 F12000.0
G1 Z0.0000 F8000.0
G0 X115.8142 Y-204.4521 F15000.0
G1 Z11.9000 F8000.0
G1 X116.7142 Y-204.4521 F12000.0
G1 Z0.0000 F8000.0
G0 X180.0000 Y-204.7484 F15000.0
G1 Z11.9000 F8000.0
G1 X113.5126 Y-204.7484 F12000.0
G1 Z0.0000 F8000.0
G0 X113.5126 Y-159.1131 F15000.0
G1 Z11.9000 F8000.0
G1 X113.5126 Y-206.7804 F12000.0
G1 Z0.0000 F8000.0
G0 X158.5552 Y-15.2648 F15000.0
G1 Z11.9000 F8000.0
G1 X150.5119 Y-7.2215 F12000.0
G1 Z0.0000 F8000.0
G0 X162.8732 Y-15.2648 F15000.0
G1 Z11.9000 F8000.0
G1 X152.6084 Y-5.0000 F12000.0
G1 Z0.0000 F8000.0
G0 X167.1065 Y-15.2648 F15000.0
G1 Z11.9000 F8000.0
G1 X162.3652 Y-10.5235 F12000.0
G1 Z0.0000 F8000.0
G0 X157.5392 Y-5.6975 F15000.0
G1 Z11.9000 F8000.0
G1 X156.8417 Y-5.0000 F12000.0
G1 Z0.0000 F8000.0
G0 X171.3398 Y-15.2648 F15000.0
G1 Z11.9000 F8000.0
G1 X166.5985 Y-10.5235 F12000.0
G1 Z0.0000 F8000.0
G0 X175.8271 Y-19.7521 F15000.0
G1 Z11.9000 F8000.0
G1 X175.4884 Y-19.4981 F12000.0
G1 Z0.0000 F8000.0
G0 X180.0000 Y-19.6916 F15000.0
G1 Z11.9000 F8000.0
G1 X170.8318 Y-10.5235 F12000.0
G1 Z0.0000 F8000.0
G0 X180.0000 Y-15.5355 F15000.0
G1 Z11.9000 F8000.0
G1 X175.0651 Y-10.5235 F12000.0
G1 Z0.0000 F8000.0
G0 X180.0000 Y-11.2250 F15000.0
G1 Z11.9000 F8000.0
G1 X179.2984 Y-10.5235 F12000.0
G1 Z0.0000 F8000.0
G0 X163.5505 Y-7.4755 F15000.0
G1 Z11.9000 F8000.0
G1 X162.0265 Y-8.9995 F12000.0
G1 Z0.0000 F8000.0
G0 X162.3652 Y-7.3061 F15000.0
G1 Z11.9000 F8000.0
G1 X160.5872 Y-8.9995 F12000.0
G1 Z0.0000 F8000.0
G0 X162.0265 Y-6.2055 F15000.0
G1 Z11.9000 F8000.0
G1 X159.4865 Y-8.6608 F12000.0
G1 Z0.0000 F8000.0
G0 X161.7925 Y-5.0000 F15000.0
G1 Z11.9000 F8000.0
G1 X159.4865 Y-7.3061 F12000.0
G1 Z0.0000 F8000.0
G0 X160.3532 Y-5.0000 F15000.0
G1 Z11.9000 F8000.0
G1 X159.4865 Y-5.8668 F12000.0
G1 Z0.0000 F8000.0
G0 X162.5345 Y-5.0201 F15000.0
G1 Z11.9000 F8000.0
G1 X162.5104 Y-5.0000 F12000.0
G1 Z0.0000 F8000.0
G0 X164.9899 Y-6.1208 F15000.0
G1 Z11.9000 F8000.0
G1 X163.8690 Y-5.0000 F12000.0
G1 Z0.0000 F8000.0
G0 X165.7519 Y-5.4435 F15000.0
G1 Z11.9000 F8000.0
G1 X165.2891 Y-5.0000 F12000.0
G1 Z0.0000 F8000.0
G0 X169.3925 Y-6.2901 F15000.0
G1 Z11.9000 F8000.0
G1 X168.1024 Y-5.0000 F12000.0
G1 Z0.0000 F8000.0
G0 X170.4085 Y-5.8668 F15000.0
G1 Z11.9000 F8000.0
G1 X169.5417 Y-5.0000 F12000.0
G1 Z0.0000 F8000.0
G0 X174.9804 Y-6.2055 F15000.0
G1 Z11.9000 F8000.0
G1 X173.7750 Y-5.0000 F12000.0
G1 Z0.0000 F8000.0
G0 X175.7424 Y-5.5281 F15000.0
G1 Z11.9000 F8000.0
G1 X175.2144 Y-5.0000 F12000.0
G1 Z0.0000 F8000.0
G0 X179.2984 Y-6.2901 F15000.0
G1 Z11.9000 F8000.0
G1 X178.0083 Y-5.0000 F12000.0
G1 Z0.0000 F8000.0
G0 X180.0000 Y-5.5523 F15000.0
G1 Z11.9000 F8000.0
G1 X179.4477 Y-5.0000 F12000.0
G1 Z0.0000 F8000.0
G0 X144.6699 Y-66.1493 F15000.0
G1 Z11.9000 F8000.0
G1 X180.0000 Y-13.9917 F12000.0
G1 Z0.0000 F8000.0
G0 X144.6699 Y-66.1493 F15000.0
G1 Z11.9000 F8000.0
G1 X144.6699 Y-77.1560 F12000.0
G1 Z0.0000 F8000.0
G0 X136.8133 Y-72.4391 F15000.0
G1 Z11.9000 F8000.0
G1 X141.0405 Y-70.0754 F12000.0
G1 X141.8133 Y-69.8027
G1 X141.9042 Y-71.4845
G1 X143.4042 Y-71.0300
G1 Z0.0000 F8000.0
G0 X140.4951 Y-72.1209 F15000.0
G1 Z11.9000 F8000.0
G1 X141.8133 Y-71.7118 F12000.0
G1 X141.9042 Y-71.4845
G1 Z0.0000 F8000.0
G0 X141.8587 Y-72.4391 F15000.0
G1 Z11.9000 F8000.0
G1 X141.8587 Y-71.7572 F12000.0
G1 Z0.0000 F8000.0
G0 X160.1102 Y-6.3438 F15000.0
G1 Z11.9000 F8000.0
G1 X160.8102 Y-5.6438 F12000.0
G1 Z0.0000 F8000.0
G0 X123.6726 Y-66.1493 F15000.0
G1 Z11.9000 F8000.0
G1 X160.5025 Y-5.9515 F12000.0
G1 Z0.0000 F8000.0
G0 X123.6726 Y-66.1493 F15000.0
G1 Z11.9000 F8000.0
G1 X123.6726 Y-76.6480 F12000.0
G1 Z0.0000 F8000.0
G0 X115.8189 Y-73.8058 F15000.0
G1 Z11.9000 F8000.0
G1 X118.8189 Y-70.4422 F12000.0
G1 X118.9553 Y-71.9422
G1 X119.0917 Y-72.1240
G1 X119.7280 Y-72.4422
G1 X120.3644 Y-72.3058
G1 X121.6826 Y-71.6694
G1 Z0.0000 F8000.0
G0 X122.0462 Y-71.3058 F15000.0
G1 Z11.9000 F8000.0
G1 X122.4098 Y-69.3967 F12000.0
G1 X122.4098 Y-69.0785
G1 Z0.0000 F8000.0
G0 X104.9612 Y-17.5508 F15000.0
G1 Z11.9000 F8000.0
G1 X122.1944 Y-5.0000 F12000.0
G1 Z0.0000 F8000.0
G0 X104.9612 Y-17.5508 F15000.0
G1 Z11.9000 F8000.0
G1 X104.9612 Y-28.5573 F12000.0
G1 Z0.0000 F8000.0
G0 X173.9954 Y-141.4715 F15000.0
G1 Z11.9000 F8000.0
G1 X174.6954 Y-140.7715 F12000.0
G1 Z0.0000 F8000.0
G0 X152.5439 Y-118.3886 F15000.0
G1 Z11.9000 F8000.0
G1 X174.3877 Y-141.0791 F12000.0
G1 Z0.0000 F8000.0
G0 X152.5439 Y-118.3886 F15000.0
G1 Z11.9000 F8000.0
G1 X162.5345 Y-118.3886 F12000.0
G1 Z0.0000 F8000.0
G0 X152.5439 Y-118.3886 F15000.0
G1 Z11.9000 F8000.0
G1 X152.5439 Y-107.3819 F12000.0
G1 Z0.0000 F8000.0
G0 X162.5345 Y-118.3886 F15000.0
G1 Z11.9000 F8000.0
G1 X162.5345 Y-107.3819 F12000.0
G1 Z0.0000 F8000.0
G0 X104.9612 Y-36.7700 F15000.0
G1 Z11.9000 F8000.0
G1 X132.7929 Y-5.0000 F12000.0
G1 Z0.0000 F8000.0
G0 X104.9612 Y-36.7700 F15000.0
G1 Z11.9000 F8000.0
G1 X104.9612 Y-50.7400 F12000.0
G1 Z0.0000 F8000.0
G0 X104.8495 Y-281.0329 F15000.0
G1 Z11.9000 F8000.0
G1 X180.0000 Y-281.0329 F12000.0
G1 Z0.0000 F8000.0
G0 X131.2856 Y-284.9500 F15000.0
G1 Z11.9000 F8000.0
G1 X131.1061 Y-284.6180 F12000.0
G1 X130.7166 Y-284.4325
G1 X131.0790 Y-284.5434
G1 X131.1394 Y-284.3664
G1 X131.2356 Y-279.8500
G1 Z0.0000 F8000.0
G0 X134.7856 Y-280.4500 F15000.0
G1 Z11.9000 F8000.0
G1 X135.3356 Y-279.8500 F12000.0
G1 Z0.0000 F8000.0
G0 X138.8356 Y-280.4500 F15000.0
G1 Z11.9000 F8000.0
G1 X138.8852 Y-284.3321 F12000.0
G1 X139.3938 Y-284.8895
G1 X140.0265 Y-284.9830
G1 X140.5080 Y-284.8469
G1 X140.6074 Y-284.6480
G1 X141.0585 Y-280.6538
G1 X140.5881 Y-279.9042
G1 X139.7013 Y-279.8088
G1 X139.4528 Y-279.8484
G1 X138.8992 Y-280.3752
G1 X139.3856 Y-279.8500
G1 Z0.0000 F8000.0
G0 X144.6356 Y-280.4500 F15000.0
G1 Z11.9000 F8000.0
G1 X144.6852 Y-284.3321 F12000.0
G1 X145.1938 Y-284.8895
G1 X145.8265 Y-284.9830
G1 X146.3080 Y-284.8469
G1 X146.4074 Y-284.6480
G1 X146.8593 Y-280.6533
G1 X146.3900 Y-279.9055
G1 X145.5014 Y-279.8088
G1 X145.2528 Y-279.8484
G1 X144.6991 Y-280.3752
G1 X145.1856 Y-279.8500
G1 Z0.0000 F8000.0
G0 X148.6856 Y-280.4500 F15000.0
G1 Z11.9000 F8000.0
G1 X149.2356 Y-279.8500 F12000.0
G1 Z0.0000 F8000.0
G0 X148.6856 Y-284.3000 F15000.0
G1 Z11.9000 F8000.0
G1 X149.1320 Y-284.8358 F12000.0
G1 X148.7733 Y-284.4003
G1 X148.6875 Y-284.1708
G1 X148.6714 Y-280.5455
G1 X149.2539 Y-279.8700
G1 X149.6249 Y-279.8108
G1 X150.3922 Y-279.8789
G1 X150.8369 Y-280.4890
G1 X150.9135 Y-280.7242
G1 X150.3988 Y-284.8207
G1 X149.9312 Y-284.9760
G1 X149.1856 Y-284.9000
G1 Z0.0000 F8000.0
G0 X135.2856 Y-284.9000 F15000.0
G1 Z11.9000 F8000.0
G1 X136.0554 Y-284.9723 F12000.0
G1 X136.4223 Y-284.8698
G1 X136.5500 Y-284.6952
G1 X137.0120 Y-280.7004
G1 X136.6565 Y-280.0234
G1 X136.4715 Y-279.8688
G1 X135.4468 Y-279.8330
G1 X135.2399 Y-279.9656
G1 X134.7619 Y-280.5668
G1 X134.7922 Y-284.1940
G1 X135.2250 Y-284.8274
G1 X134.7856 Y-284.3000
G1 Z0.0000 F8000.0
G0 X126.5856 Y-284.9000 F15000.0
G1 Z11.9000 F8000.0
G1 X127.3554 Y-284.9723 F12000.0
G1 X127.7223 Y-284.8698
G1 X127.8500 Y-284.6952
G1 X128.3120 Y-280.7004
G1 X127.9565 Y-280.0234
G1 X127.7715 Y-279.8688
G1 X126.7468 Y-279.8330
G1 X126.5399 Y-279.9656
G1 X126.0619 Y-280.5668
G1 X126.0922 Y-284.1940
G1 X126.5250 Y-284.8274
G1 X126.0856 Y-284.3000
G1 Z0.0000 F8000.0
G0 X126.0856 Y-280.4500 F15000.0
G1 Z11.9000 F8000.0
G1 X126.6356 Y-279.8500 F12000.0
G1 Z0.0000 F8000.0
G0 X120.8356 Y-279.8500 F15000.0
G1 Z11.9000 F8000.0
G1 X120.3513 Y-280.3723 F12000.0
G1 X120.8955 Y-279.8515
G1 X122.0314 Y-279.9006
G1 X122.5058 Y-280.6465
G1 X122.0587 Y-284.6401
G1 X121.9639 Y-284.8431
G1 X121.4845 Y-284.9832
G1 X120.8511 Y-284.8921
G1 X120.3390 Y-284.3389
G1 X120.2856 Y-280.4500
G1 Z0.0000 F8000.0
G0 X116.7856 Y-279.8500 F15000.0
G1 Z11.9000 F8000.0
G1 X116.2356 Y-280.4500 F12000.0
G1 Z0.0000 F8000.0
G0 X114.4356 Y-279.8000 F15000.0
G1 Z11.9000 F8000.0
G1 X114.4356 Y-283.2000 F12000.0
G1 Z0.0000 F8000.0
G0 X114.3856 Y-281.5500 F15000.0
G1 Z11.9000 F8000.0
G1 X112.8268 Y-281.5963 F12000.0
G1 X112.4837 Y-281.7297
G1 X112.1983 Y-282.1416
G1 X112.1356 Y-283.1500
G1 Z0.0000 F8000.0
G0 X110.2856 Y-284.1500 F15000.0
G1 Z11.9000 F8000.0
G1 X109.8769 Y-283.8746 F12000.0
G1 X110.3856 Y-279.9500
G1 Z0.0000 F8000.0
G0 X108.6856 Y-282.3500 F15000.0
G1 Z11.9000 F8000.0
G1 X108.7356 Y-282.4500 F12000.0
G1 Z0.0000 F8000.0
G0 X107.0356 Y-284.1000 F15000.0
G1 Z11.9000 F8000.0
G1 X106.9384 Y-283.7786 F12000.0
G1 X106.9356 Y-279.9000
G1 Z0.0000 F8000.0
G0 X106.8856 Y-284.8500 F15000.0
G1 Z11.9000 F8000.0
G1 X107.0618 Y-284.0433 F12000.0
G1 X108.7088 Y-282.2361
G1 X110.4356 Y-284.8000
G1 Z0.0000 F8000.0
G0 X116.2356 Y-284.3000 F15000.0
G1 Z11.9000 F8000.0
G1 X116.6820 Y-284.8358 F12000.0
G1 X116.3233 Y-284.4003
G1 X116.2375 Y-284.1708
G1 X116.2214 Y-280.5455
G1 X116.8039 Y-279.8700
G1 X117.1749 Y-279.8108
G1 X117.9422 Y-279.8789
G1 X118.3869 Y-280.4890
G1 X118.4635 Y-280.7242
G1 X117.9488 Y-284.8207
G1 X117.4812 Y-284.9760
G1 X116.7356 Y-284.9000
G1 Z0.0000 F8000.0
G0 X157.7856 Y-285.0000 F15000.0
G1 Z11.9000 F8000.0
G1 X156.3731 Y-284.8637 F12000.0
G1 X155.7926 Y-284.3667
G1 X155.6654 Y-280.6246
G1 X156.0136 Y-280.0897
G1 X156.2174 Y-279.9374
G1 X156.5861 Y-279.8439
G1 X157.7856 Y-279.8000
G1 Z0.0000 F8000.0
G0 X161.8856 Y-280.2500 F15000.0
G1 Z11.9000 F8000.0
G1 X161.9356 Y-280.3500 F12000.0
G1 Z0.0000 F8000.0
G0 X161.9356 Y-282.6500 F15000.0
G1 Z11.9000 F8000.0
G1 X161.6681 Y-283.0309 F12000.0
G1 X161.9364 Y-282.5027
G1 X161.9425 Y-280.4317
G1 X161.6514 Y-280.0193
G1 X161.4369 Y-279.9012
G1 X160.5348 Y-279.8145
G1 X160.1658 Y-279.8849
G1 X159.8776 Y-280.1366
G1 X159.7046 Y-280.4752
G1 X159.7715 Y-282.6682
G1 X159.9329 Y-282.9300
G1 X159.8497 Y-282.8383
G1 X160.2032 Y-283.1303
G1 X161.0894 Y-283.2536
G1 X161.4961 Y-283.1352
G1 X161.1455 Y-283.2638
G1 X160.8763 Y-283.8159
G1 X160.2792 Y-284.4426
G1 X160.1853 Y-284.8978
G1 X161.8356 Y-285.0000
G1 Z0.0000 F8000.0
G0 X130.0232 Y-260.0475 F15000.0
G1 Z11.9000 F8000.0
G1 X131.9728 Y-260.0455 F12000.0
G1 X132.3232 Y-259.9475
G1 Z0.0000 F8000.0
G0 X133.3232 Y-259.0475 F15000.0
G1 Z11.9000 F8000.0
G1 X133.4995 Y-258.0250 F12000.0
G1 X133.4232 Y-257.6475
G1 Z0.0000 F8000.0
G0 X130.9232 Y-256.3475 F15000.0
G1 Z11.9000 F8000.0
G1 X132.4785 Y-256.4349 F12000.0
G1 X132.6842 Y-256.3422
G1 X133.1856 Y-255.5895
G1 X133.3857 Y-254.9748
G1 X133.5090 Y-253.5530
G1 X133.4265 Y-252.9165
G1 X132.8238 Y-252.0807
G1 X132.6259 Y-251.9359
G1 X131.7409 Y-251.7459
G1 X130.0232 Y-251.6475
G1 Z0.0000 F8000.0
G0 X130.0161 Y-240.2932 F15000.0
G1 Z11.9000 F8000.0
G1 X131.2998 Y-240.3416 F12000.0
G1 X132.4567 Y-239.5181
G1 X132.6130 Y-239.1761
G1 X132.7947 Y-238.2905
G1 X132.6161 Y-237.5932
G1 Z0.0000 F8000.0
G0 X129.6161 Y-232.8932 F15000.0
G1 Z11.9000 F8000.0
G1 X129.4676 Y-232.0446 F12000.0
G1 X132.6161 Y-231.8933
G1 Z0.0000 F8000.0
G0 X132.3577 Y-227.9476 F15000.0
G1 Z11.9000 F8000.0
G1 X130.6238 Y-226.5776 F12000.0
G1 X130.3824 Y-226.2848
G1 X129.6658 Y-224.2000
G1 X129.4676 Y-221.2200
G1 X129.6214 Y-220.3322
G1 X130.2056 Y-219.6636
G1 X131.8718 Y-219.4647
G1 X132.7255 Y-219.7251
G1 X132.9729 Y-220.0152
G1 X133.2395 Y-220.7427
G1 X133.1623 Y-223.0770
G1 X133.0890 Y-223.3121
G1 X132.5848 Y-223.8998
G1 X132.1330 Y-224.1339
G1 X129.6577 Y-224.2476
G1 Z0.0000 F8000.0
G0 X130.9493 Y-210.6487 F15000.0
G1 Z11.9000 F8000.0
G1 X131.8846 Y-211.5395 F12000.0
G1 X132.5787 Y-211.7863
G1 X132.6328 Y-211.7423
G1 X132.7493 Y-204.0487
G1 Z0.0000 F8000.0
G0 X139.8525 Y-170.6278 F15000.0
G1 Z11.9000 F8000.0
G1 X139.5598 Y-170.5248 F12000.0
G1 X139.5151 Y-169.9895
G1 X139.6910 Y-169.8437
G1 X139.8525 Y-169.8433
G1 Z0.0000 F8000.0
G0 X140.1663 Y-169.8825 F15000.0
G1 Z11.9000 F8000.0
G1 X140.4382 Y-170.4738 F12000.0
G1 X140.3114 Y-170.6125
G1 X140.1271 Y-170.5493
G1 Z0.0000 F8000.0
G0 X140.7154 Y-170.6278 F15000.0
G1 Z11.9000 F8000.0
G1 X140.6894 Y-170.2891 F12000.0
G1 X140.9215 Y-170.2562
G1 X141.0202 Y-169.9283
G1 X140.7154 Y-169.8433
G1 Z0.0000 F8000.0
G0 X151.8334 Y-104.2583 F15000.0
G1 Z11.9000 F8000.0
G1 X151.4729 Y-102.9243 F12000.0
G1 X152.1758 Y-102.7343
G1 X152.1334 Y-102.6583
G1 Z0.0000 F8000.0
G0 X158.3334 Y-104.3583 F15000.0
G1 Z11.9000 F8000.0
G1 X158.1014 Y-104.2915 F12000.0
G1 X158.0021 Y-104.0935
G1 X157.9409 Y-103.5800
G1 X157.9831 Y-102.6734
G1 X158.0822 Y-102.4747
G1 X158.7016 Y-102.4868
G1 X158.7373 Y-102.6736
G1 X158.3895 Y-103.7844
G1 X158.3971 Y-104.2695
G1 X158.4500 Y-104.0887
G1 X158.3247 Y-103.7605
G1 X157.9334 Y-103.7583
G1 Z0.0000 F8000.0
G0 X156.5834 Y-103.7583 F15000.0
G1 Z11.9000 F8000.0
G1 X156.6579 Y-102.4865 F12000.0
G1 X157.2052 Y-102.4356
G1 X157.2640 Y-102.5068
G1 X157.2800 Y-103.3948
G1 X157.1137 Y-103.6662
G1 X156.0611 Y-103.7204
G1 X155.9870 Y-103.5248
G1 X155.9834 Y-102.4583
G1 Z0.0000 F8000.0
G0 X155.2334 Y-102.5083 F15000.0
G1 Z11.9000 F8000.0
G1 X155.2198 Y-103.5925 F12000.0
G1 X154.7293 Y-103.6981
G1 X154.9808 Y-103.7321
G1 X155.1175 Y-103.6406
G1 X154.5511 Y-103.5774
G1 X154.4473 Y-102.8725
G1 X154.4817 Y-102.6288
G1 X154.7525 Y-102.4155
G1 X155.0030 Y-102.4230
G1 X155.2229 Y-102.5329
G1 X155.1334 Y-102.4083
G1 Z0.0000 F8000.0
G0 X143.0486 Y-97.7394 F15000.0
G1 Z11.9000 F8000.0
G1 X142.0378 Y-97.6989 F12000.0
G1 X141.4128 Y-97.2546
G1 X141.3408 Y-96.8828
G1 X141.2817 Y-93.8437
G1 X141.8093 Y-93.2588
G1 X143.0486 Y-93.2394
G1 Z0.0000 F8000.0
G0 X142.4486 Y-92.1394 F15000.0
G1 Z11.9000 F8000.0
G1 X142.4486 Y-91.8394 F12000.0
G1 Z0.0000 F8000.0
G0 X145.5486 Y-93.2394 F15000.0
G1 Z11.9000 F8000.0
G1 X145.4326 Y-97.1416 F12000.0
G1 X145.0737 Y-97.0546
G1 X144.6486 Y-96.6394
G1 Z0.0000 F8000.0
G0 X148.0486 Y-97.6394 F15000.0
G1 Z11.9000 F8000.0
G1 X147.8546 Y-97.0503 F12000.0
G1 X147.9486 Y-93.2394
G1 Z0.0000 F8000.0

G0 Z0.0000 F800.0
G4 P0.06
G0 X0.0000 Y0.0000 F15000.0
M5
G4 P0.10
$1=0
