$X
$1=255
G21
G90
G92 Z4.0000
G0 Z0.0000 F800.0
G4 P0.06
G92 Z0.0000
G0 Z0.0000 F800.0
G0 X0.0000 Y0.0000 F15000.0
G21
G90
G17
G91.1
G0 Z0.0000
G0 X140.6838 Y-54.4188 F15000.0
G1 Z11.9000 F8000.0
G1 X140.9111 Y-53.9188 F12000.0
G1 Z0.0000 F8000.0
G0 X141.0929 Y-53.5552 F15000.0
G1 Z11.9000 F8000.0
G1 X141.7747 Y-52.7370 F12000.0
G1 Z0.0000 F8000.0
G0 X142.3202 Y-52.2370 F15000.0
G1 Z11.9000 F8000.0
G1 X142.5020 Y-52.1006 F12000.0
G1 Z0.0000 F8000.0
G0 X142.7747 Y-51.9188 F15000.0
G1 Z11.9000 F8000.0
G1 X143.5475 Y-51.6461 F12000.0
G1 X143.7747 Y-53.7370
G1 X144.0020 Y-54.0097
G1 X145.9111 Y-53.6461
G1 X146.1384 Y-53.5097
G1 Z0.0000 F8000.0
G0 X143.5475 Y-51.6461 F15000.0
G1 Z11.9000 F8000.0
G1 X143.8202 Y-51.3734 F12000.0
G1 Z0.0000 F8000.0
G0 X145.1838 Y-50.8734 F15000.0
G1 Z11.9000 F8000.0
G1 X145.3202 Y-50.8279 F12000.0
G1 Z0.0000 F8000.0
G0 X145.6838 Y-50.6915 F15000.0
G1 Z11.9000 F8000.0
G1 X146.7747 Y-50.6915 F12000.0
G1 Z0.0000 F8000.0
G0 X146.5475 Y-53.1915 F15000.0
G1 Z11.9000 F8000.0
G1 X146.8202 Y-52.9188 F12000.0
G1 Z0.0000 F8000.0
G0 X147.0020 Y-52.5552 F15000.0
G1 Z11.9000 F8000.0
G1 X147.0475 Y-51.0097 F12000.0
G1 Z0.0000 F8000.0
G0 X144.8493 Y-249.8680 F15000.0
G1 Z11.9000 F8000.0
G1 X144.7129 Y-249.5953 F12000.0
G1 X144.7584 Y-249.0953
G1 Z0.0000 F8000.0
G0 X144.8493 Y-248.8226 F15000.0
G1 Z11.9000 F8000.0
G1 X145.5311 Y-247.9135 F12000.0
G1 Z0.0000 F8000.0
G0 X145.2129 Y-250.2317 F15000.0
G1 Z11.9000 F8000.0
G1 X146.3493 Y-250.0953 F12000.0
G1 X147.2129 Y-249.5499
G1 X147.7129 Y-249.0499
G1 X148.5311 Y-249.4590
G1 X149.8038 Y-249.0953
G1 X150.1675 Y-248.9135
G1 Z0.0000 F8000.0
G0 X145.8038 Y-247.7771 F15000.0
G1 Z11.9000 F8000.0
G1 X147.0765 Y-247.4135 F12000.0
G1 X147.6220 Y-247.6408
G1 X147.7584 Y-249.0044
G1 Z0.0000 F8000.0
G0 X147.6675 Y-247.6408 F15000.0
G1 Z11.9000 F8000.0
G1 X148.0765 Y-247.0953 F12000.0
G1 Z0.0000 F8000.0
G0 X148.4856 Y-246.6862 F15000.0
G1 Z11.9000 F8000.0
G1 X149.6220 Y-246.1408 F12000.0
G1 X150.7584 Y-245.9590
G1 Z0.0000 F8000.0
G0 X150.4856 Y-248.7317 F15000.0
G1 Z11.9000 F8000.0
G1 X151.1220 Y-247.8680 F12000.0
G1 X151.2129 Y-246.5044
G1 X151.1220 Y-246.2771
G1 Z0.0000 F8000.0
G0 X154.8493 Y-250.1176 F15000.0
G1 Z11.9000 F8000.0
G1 X155.4856 Y-247.7085 F12000.0
G1 X156.9402 Y-247.0722
G1 X157.8493 Y-247.0722
G1 X158.2583 Y-249.4358
G1 X159.3038 Y-249.0267
G1 X159.9402 Y-248.5267
G1 Z0.0000 F8000.0
G0 X154.9402 Y-250.2540 F15000.0
G1 Z11.9000 F8000.0
G1 X155.1220 Y-250.4358 F12000.0
G1 X156.1674 Y-250.4358
G1 Z0.0000 F8000.0
G0 X157.7583 Y-249.8449 F15000.0
G1 Z11.9000 F8000.0
G1 X157.8947 Y-249.7995 F12000.0
G1 Z0.0000 F8000.0
G0 X158.1674 Y-249.6631 F15000.0
G1 Z11.9000 F8000.0
G1 X158.2583 Y-249.5267 F12000.0
G1 Z0.0000 F8000.0
G0 X160.4856 Y-247.8904 F15000.0
G1 Z11.9000 F8000.0
G1 X160.5765 Y-247.7995 F12000.0
G1 Z0.0000 F8000.0
G0 X160.7583 Y-247.5267 F15000.0
G1 Z11.9000 F8000.0
G1 X160.8947 Y-247.2540 F12000.0
G1 Z0.0000 F8000.0
G0 X161.0311 Y-246.9813 F15000.0
G1 Z11.9000 F8000.0
G1 X161.2129 Y-246.5267 F12000.0
G1 Z0.0000 F8000.0
G0 X174.6854 Y-13.2195 F15000.0
G1 Z11.9000 F8000.0
G1 X174.8217 Y-13.4013 F12000.0
G1 Z0.0000 F8000.0
G0 X174.7308 Y-10.3104 F15000.0
G1 Z11.9000 F8000.0
G1 X175.2308 Y-11.0377 F12000.0
G1 X174.6854 Y-11.1286
G1 X174.5944 Y-11.4013
G1 X175.2308 Y-13.0831
G1 X176.2763 Y-13.3104
G1 X176.4126 Y-13.0377
G1 X175.7763 Y-11.3104
G1 Z0.0000 F8000.0
G0 X174.8217 Y-10.1286 F15000.0
G1 Z11.9000 F8000.0
G1 X175.6399 Y-11.0377 F12000.0
G1 X175.2763 Y-11.0377
G1 Z0.0000 F8000.0
G0 X176.7763 Y-12.4468 F15000.0
G1 Z11.9000 F8000.0
G1 X177.0490 Y-13.1740 F12000.0
G1 X177.5490 Y-13.3104
G1 X178.2763 Y-13.0377
G1 X177.5490 Y-11.2195
G1 X176.3672 Y-11.1286
G1 X176.5944 Y-11.9468
G1 Z0.0000 F8000.0
G0 X178.3217 Y-11.4013 F15000.0
G1 Z11.9000 F8000.0
G1 X178.3672 Y-11.1286 F12000.0
G1 X179.4126 Y-11.1286
G1 X180.0000 Y-12.7868
G1 Z0.0000 F8000.0
G0 X178.5035 Y-11.9013 F15000.0
G1 Z11.9000 F8000.0
G1 X178.7763 Y-12.7650 F12000.0
G1 Z0.0000 F8000.0
G0 X179.0944 Y-13.2195 F15000.0
G1 Z11.9000 F8000.0
G1 X180.0000 Y-13.3376 F12000.0
G1 Z0.0000 F8000.0
G0 X169.3532 Y-11.3877 F15000.0
G1 Z11.9000 F8000.0
G1 X169.8077 Y-11.5696 F12000.0
G1 X169.9895 Y-11.2059
G1 X169.5804 Y-10.2514
G1 X169.2168 Y-10.1150
G1 X168.9441 Y-10.2514
G1 X168.9895 Y-10.5696
G1 Z0.0000 F8000.0
G0 X169.1259 Y-10.9332 F15000.0
G1 Z11.9000 F8000.0
G1 X169.2623 Y-11.2514 F12000.0
G1 Z0.0000 F8000.0
G0 X169.9441 Y-10.0241 F15000.0
G1 Z11.9000 F8000.0
G1 X170.2168 Y-10.7514 F12000.0
G1 Z0.0000 F8000.0
G0 X170.3532 Y-11.0696 F15000.0
G1 Z11.9000 F8000.0
G1 X170.8077 Y-12.2059 F12000.0
G1 Z0.0000 F8000.0
G0 X170.9441 Y-12.5241 F15000.0
G1 Z11.9000 F8000.0
G1 X171.2623 Y-13.2514 F12000.0
G1 Z0.0000 F8000.0
G0 X171.2168 Y-12.7514 F15000.0
G1 Z11.9000 F8000.0
G1 X171.4895 Y-10.7514 F12000.0
G1 X171.4441 Y-10.0241
G1 Z0.0000 F8000.0
G0 X171.7623 Y-10.8877 F15000.0
G1 Z11.9000 F8000.0
G1 X172.8077 Y-13.4332 F12000.0
G1 Z0.0000 F8000.0
G0 X119.1880 Y-13.2195 F15000.0
G1 Z11.9000 F8000.0
G1 X119.3244 Y-13.4013 F12000.0
G1 Z0.0000 F8000.0
G0 X119.2335 Y-10.3104 F15000.0
G1 Z11.9000 F8000.0
G1 X119.7335 Y-11.0377 F12000.0
G1 X119.1880 Y-11.1286
G1 X119.0971 Y-11.4013
G1 X119.7335 Y-13.0831
G1 X120.7790 Y-13.3104
G1 X120.9153 Y-13.0377
G1 X120.2790 Y-11.3104
G1 Z0.0000 F8000.0
G0 X119.3244 Y-10.1286 F15000.0
G1 Z11.9000 F8000.0
G1 X120.1426 Y-11.0377 F12000.0
G1 X119.7790 Y-11.0377
G1 Z0.0000 F8000.0
G0 X122.8244 Y-13.3559 F15000.0
G1 Z11.9000 F8000.0
G1 X121.5971 Y-13.0831 F12000.0
G1 X120.9608 Y-11.2195
G1 X122.0517 Y-11.1286
G1 X123.3244 Y-14.3104
G1 Z0.0000 F8000.0
G0 X124.2790 Y-12.2195 F15000.0
G1 Z11.9000 F8000.0
G1 X123.0971 Y-12.1740 F12000.0
G1 X122.8244 Y-11.4013
G1 X122.8699 Y-11.1286
G1 X123.9153 Y-11.2195
G1 X124.5971 Y-13.0831
G1 X123.4608 Y-13.3559
G1 Z0.0000 F8000.0
G0 X125.6426 Y-10.1286 F15000.0
G1 Z11.9000 F8000.0
G1 X124.2790 Y-10.1740 F12000.0
G1 X124.4153 Y-10.6740
G1 Z0.0000 F8000.0
G0 X124.5517 Y-11.0377 F15000.0
G1 Z11.9000 F8000.0
G1 X125.4153 Y-13.2650 F12000.0
G1 Z0.0000 F8000.0
G0 X125.7335 Y-10.2195 F15000.0
G1 Z11.9000 F8000.0
G1 X126.5517 Y-12.3104 F12000.0
G1 Z0.0000 F8000.0
G0 X126.6880 Y-12.6286 F15000.0
G1 Z11.9000 F8000.0
G1 X126.9608 Y-13.4468 F12000.0
G1 Z0.0000 F8000.0
G0 X105.6062 Y-11.2195 F15000.0
G1 Z11.9000 F8000.0
G1 X106.4244 Y-13.0377 F12000.0
G1 X106.5153 Y-13.4013
G1 Z0.0000 F8000.0
G0 X105.8789 Y-13.2650 F15000.0
G1 Z11.9000 F8000.0
G1 X105.9698 Y-13.4013 F12000.0
G1 Z0.0000 F8000.0
G0 X106.1971 Y-12.2195 F15000.0
G1 Z11.9000 F8000.0
G1 X107.1062 Y-12.2195 F12000.0
G1 X106.7426 Y-11.0377
G1 Z0.0000 F8000.0
G0 X107.2880 Y-12.3559 F15000.0
G1 Z11.9000 F8000.0
G1 X107.7880 Y-13.3559 F12000.0
G1 Z0.0000 F8000.0
G0 X109.0607 Y-12.2195 F15000.0
G1 Z11.9000 F8000.0
G1 X107.8789 Y-12.1740 F12000.0
G1 X107.6517 Y-11.4468
G1 X107.6971 Y-11.1286
G1 X108.6971 Y-11.2195
G1 X109.3789 Y-13.1740
G1 X108.1971 Y-13.3559
G1 Z0.0000 F8000.0
G0 X109.3335 Y-11.1740 F15000.0
G1 Z11.9000 F8000.0
G1 X109.5607 Y-11.4922 F12000.0
G1 X109.9698 Y-12.7195
G1 X110.2426 Y-13.2650
G1 Z0.0000 F8000.0
G0 X109.6062 Y-11.5377 F15000.0
G1 Z11.9000 F8000.0
G1 X109.8335 Y-11.5831 F12000.0
G1 X110.5607 Y-12.0377
G1 X110.7426 Y-11.4922
G1 X110.9244 Y-11.5377
G1 X111.0607 Y-11.8559
G1 Z0.0000 F8000.0
G0 X110.7426 Y-11.4013 F15000.0
G1 Z11.9000 F8000.0
G1 X110.7426 Y-11.0377 F12000.0
G1 Z0.0000 F8000.0
G0 X111.1971 Y-12.1286 F15000.0
G1 Z11.9000 F8000.0
G1 X111.2426 Y-12.2650 F12000.0
G1 Z0.0000 F8000.0
G0 X111.3335 Y-11.0377 F15000.0
G1 Z11.9000 F8000.0
G1 X112.1971 Y-13.0831 F12000.0
G1 Z0.0000 F8000.0
G0 X111.3789 Y-12.5377 F15000.0
G1 Z11.9000 F8000.0
G1 X111.7426 Y-13.4468 F12000.0
G1 Z0.0000 F8000.0
G0 X112.3335 Y-13.2650 F15000.0
G1 Z11.9000 F8000.0
G1 X113.2880 Y-13.2650 F12000.0
G1 X113.3789 Y-13.1740
G1 X112.6062 Y-11.0377
G1 Z0.0000 F8000.0
G0 X113.5153 Y-11.1286 F15000.0
G1 Z11.9000 F8000.0
G1 X113.6517 Y-11.9013 F12000.0
G1 X114.1062 Y-13.0831
G1 X115.2880 Y-13.3559
G1 X115.2880 Y-13.0377
G1 X114.6062 Y-11.1740
G1 X113.6062 Y-11.0831
G1 Z0.0000 F8000.0
G0 X115.4698 Y-13.5377 F15000.0
G1 Z11.9000 F8000.0
G1 X115.8335 Y-14.3104 F12000.0
G1 Z0.0000 F8000.0
G0 X115.8335 Y-12.8104 F15000.0
G1 Z11.9000 F8000.0
G1 X115.3789 Y-11.1740 F12000.0
G1 X116.4698 Y-11.3104
G1 Z0.0000 F8000.0
G0 X115.9698 Y-13.1740 F15000.0
G1 Z11.9000 F8000.0
G1 X116.0607 Y-13.2650 F12000.0
G1 Z0.0000 F8000.0
G0 X116.6062 Y-11.6286 F15000.0
G1 Z11.9000 F8000.0
G1 X117.3335 Y-13.4468 F12000.0
G1 Z0.0000 F8000.0
G0 X171.9325 Y-110.7608 F15000.0
G1 Z11.9000 F8000.0
G1 X174.8957 Y-110.7608 F12000.0
G1 Z0.0000 F8000.0
G0 X171.9325 Y-108.4748 F15000.0
G1 Z11.9000 F8000.0
G1 X174.8957 Y-108.4748 F12000.0
G1 Z0.0000 F8000.0
G0 X171.9325 Y-153.6868 F15000.0
G1 Z11.9000 F8000.0
G1 X174.8957 Y-153.6868 F12000.0
G1 Z0.0000 F8000.0
G0 X171.9325 Y-151.4008 F15000.0
G1 Z11.9000 F8000.0
G1 X174.8957 Y-151.4008 F12000.0
G1 Z0.0000 F8000.0
G0 X138.4892 Y-138.0234 F15000.0
G1 Z11.9000 F8000.0
G1 X144.1619 Y-138.0234 F12000.0
G1 Z0.0000 F8000.0
G0 X138.4892 Y-134.5521 F15000.0
G1 Z11.9000 F8000.0
G1 X144.1619 Y-134.5521 F12000.0
G1 Z0.0000 F8000.0
G0 X141.0292 Y-117.7881 F15000.0
G1 Z11.9000 F8000.0
G1 X150.5119 Y-117.7881 F12000.0
G1 Z0.0000 F8000.0
G0 X141.0292 Y-144.3734 F15000.0
G1 Z11.9000 F8000.0
G1 X150.5119 Y-144.3734 F12000.0
G1 Z0.0000 F8000.0
G0 X170.2392 Y-111.0148 F15000.0
G1 Z11.9000 F8000.0
G1 X170.6625 Y-111.0148 F12000.0
G1 Z0.0000 F8000.0
G0 X169.9852 Y-111.1841 F15000.0
G1 Z11.9000 F8000.0
G1 X170.6625 Y-110.5915 F12000.0
G1 X171.3398 Y-110.5915 F12000.0
G1 Z0.0000 F8000.0
G0 X170.2392 Y-151.1468 F15000.0
G1 Z11.9000 F8000.0
G1 X170.6625 Y-151.1468 F12000.0
G1 Z0.0000 F8000.0
G0 X170.6625 Y-151.5701 F15000.0
G1 Z11.9000 F8000.0
G1 X169.9852 Y-150.8928 F12000.0
G1 Z0.0000 F8000.0
G0 X141.5372 Y-122.1061 F15000.0
G1 Z11.9000 F8000.0
G1 X150.0885 Y-122.1061 F12000.0
G1 Z0.0000 F8000.0
G0 X141.5372 Y-140.0554 F15000.0
G1 Z11.9000 F8000.0
G1 X150.0885 Y-140.0554 F12000.0
G1 Z0.0000 F8000.0
G0 X141.5372 Y-122.5295 F15000.0
G1 Z11.9000 F8000.0
G1 X141.5372 Y-122.1061 F12000.0
G1 Z0.0000 F8000.0
G0 X171.3398 Y-111.0148 F15000.0
G1 Z11.9000 F8000.0
G1 X170.6625 Y-111.0148 F12000.0
G1 Z0.0000 F8000.0
G0 X171.3398 Y-151.1468 F15000.0
G1 Z11.9000 F8000.0
G1 X170.6625 Y-151.1468 F12000.0
G1 Z0.0000 F8000.0
G0 X171.3398 Y-151.5701 F15000.0
G1 Z11.9000 F8000.0
G1 X170.6625 Y-151.5701 F12000.0
G1 Z0.0000 F8000.0
G0 X146.0245 Y-135.0601 F15000.0
G1 Z11.9000 F8000.0
G1 X145.5165 Y-135.0601 F12000.0
G1 Z0.0000 F8000.0
G0 X149.4959 Y-122.1061 F15000.0
G1 Z11.9000 F8000.0
G1 X150.0885 Y-122.1061 F12000.0
G1 Z0.0000 F8000.0
G0 X149.4959 Y-140.0554 F15000.0
G1 Z11.9000 F8000.0
G1 X150.0885 Y-140.0554 F12000.0
G1 Z0.0000 F8000.0
G0 X141.5372 Y-140.0554 F15000.0
G1 Z11.9000 F8000.0
G1 X141.5372 Y-139.5474 F12000.0
G1 X141.5372 Y-138.0234 F12000.0
G1 Z0.0000 F8000.0
G0 X171.3398 Y-109.4908 F15000.0
G1 Z11.9000 F8000.0
G1 X171.9325 Y-108.4748 F12000.0
G1 Z0.0000 F8000.0
G0 X171.3398 Y-152.6708 F15000.0
G1 Z11.9000 F8000.0
G1 X171.9325 Y-153.6868 F12000.0
G1 Z0.0000 F8000.0
G0 X138.4892 Y-138.0234 F15000.0
G1 Z11.9000 F8000.0
G1 X137.6425 Y-136.4994 F12000.0
G1 Z0.0000 F8000.0
G0 X171.3398 Y-152.6708 F15000.0
G1 Z11.9000 F8000.0
G1 X171.3398 Y-150.5541 F12000.0
G1 Z0.0000 F8000.0
G0 X169.9852 Y-111.1841 F15000.0
G1 Z11.9000 F8000.0
G1 X169.9852 Y-111.6075 F12000.0
G1 Z0.0000 F8000.0
G0 X170.6625 Y-110.5915 F15000.0
G1 Z11.9000 F8000.0
G1 X170.6625 Y-111.6075 F12000.0
G1 Z0.0000 F8000.0
G0 X169.9852 Y-150.5541 F15000.0
G1 Z11.9000 F8000.0
G1 X169.9852 Y-150.8928 F12000.0
G1 Z0.0000 F8000.0
G0 X170.6625 Y-150.5541 F15000.0
G1 Z11.9000 F8000.0
G1 X170.6625 Y-151.5701 F12000.0
G1 Z0.0000 F8000.0
G0 X171.3398 Y-111.6075 F15000.0
G1 Z11.9000 F8000.0
G1 X171.3398 Y-109.4908 F12000.0
G1 Z0.0000 F8000.0
G0 X145.0085 Y-135.5681 F15000.0
G1 Z11.9000 F8000.0
G1 X145.5165 Y-135.0601 F12000.0
G1 Z0.0000 F8000.0
G0 X150.5119 Y-139.5474 F15000.0
G1 Z11.9000 F8000.0
G1 X145.5165 Y-139.5474 F12000.0
G1 Z0.0000 F8000.0
G0 X150.5119 Y-122.6141 F15000.0
G1 Z11.9000 F8000.0
G1 X145.5165 Y-122.6141 F12000.0
G1 Z0.0000 F8000.0
G0 X146.0245 Y-139.5474 F15000.0
G1 Z11.9000 F8000.0
G1 X145.5165 Y-139.5474 F12000.0
G1 Z0.0000 F8000.0
G0 X146.0245 Y-122.6141 F15000.0
G1 Z11.9000 F8000.0
G1 X145.5165 Y-122.6141 F12000.0
G1 Z0.0000 F8000.0
G0 X175.4884 Y-111.6075 F15000.0
G1 Z11.9000 F8000.0
G1 X157.0312 Y-111.6075 F12000.0
G1 Z0.0000 F8000.0
G0 X150.5119 Y-117.1108 F15000.0
G1 Z11.9000 F8000.0
G1 X150.5119 Y-122.1061 F12000.0
G1 Z0.0000 F8000.0
G0 X146.0245 Y-122.1061 F15000.0
G1 Z11.9000 F8000.0
G1 X145.0085 Y-123.0375 F12000.0
G1 Z0.0000 F8000.0
G0 X151.5279 Y-117.1108 F15000.0
G1 Z11.9000 F8000.0
G1 X150.5119 Y-117.1108 F12000.0
G1 Z0.0000 F8000.0
G0 X152.5439 Y-116.0948 F15000.0
G1 Z11.9000 F8000.0
G1 X152.7132 Y-114.8248 F12000.0
G1 X153.2212 Y-113.7241 F12000.0
G1 X153.9832 Y-112.7928 F12000.0
G1 X154.9992 Y-112.0308 F12000.0
G1 X156.0999 Y-111.6921 F12000.0
G1 X157.0312 Y-111.6075 F12000.0
G1 Z0.0000 F8000.0
G0 X152.5439 Y-116.0948 F15000.0
G1 Z11.9000 F8000.0
G1 X152.3745 Y-116.6028 F12000.0
G1 X151.9512 Y-117.0261 F12000.0
G1 X151.5279 Y-117.1108 F12000.0
G1 Z0.0000 F8000.0
G0 X180.0000 Y-116.3488 F15000.0
G1 Z11.9000 F8000.0
G1 X158.5552 Y-116.3488 F12000.0
G1 Z0.0000 F8000.0
G0 X157.5392 Y-117.2801 F15000.0
G1 Z11.9000 F8000.0
G1 X157.5392 Y-127.1014 F12000.0
G1 Z0.0000 F8000.0
G0 X157.5392 Y-117.2801 F15000.0
G1 Z11.9000 F8000.0
G1 X157.7085 Y-116.7721 F12000.0
G1 X158.1319 Y-116.4335 F12000.0
G1 X158.5552 Y-116.3488 F12000.0
G1 Z0.0000 F8000.0
G0 X139.5052 Y-119.5661 F15000.0
G1 Z11.9000 F8000.0
G1 X125.0272 Y-119.5661 F12000.0
G1 Z0.0000 F8000.0
G0 X141.0292 Y-118.0421 F15000.0
G1 Z11.9000 F8000.0
G1 X140.8599 Y-118.7195 F12000.0
G1 X140.3519 Y-119.3121 F12000.0
G1 X139.7592 Y-119.5661 F12000.0
G1 Z0.0000 F8000.0
G0 X116.1372 Y-123.7995 F15000.0
G1 Z11.9000 F8000.0
G1 X117.4919 Y-122.3601 F12000.0
G1 X119.1006 Y-121.1748 F12000.0
G1 X120.8786 Y-120.3281 F12000.0
G1 X122.7412 Y-119.8201 F12000.0
G1 X124.6886 Y-119.5661 F12000.0
G1 X125.0272 Y-119.5661 F12000.0
G1 Z0.0000 F8000.0
G0 X125.0272 Y-122.5295 F15000.0
G1 Z11.9000 F8000.0
G1 X141.5372 Y-122.5295 F12000.0
G1 Z0.0000 F8000.0
G0 X120.4552 Y-123.8841 F15000.0
G1 Z11.9000 F8000.0
G1 X121.8946 Y-123.1221 F12000.0
G1 X123.5879 Y-122.6988 F12000.0
G1 X125.0272 Y-122.5295 F12000.0
G1 Z0.0000 F8000.0
G0 X178.5364 Y-86.0382 F15000.0
G1 Z11.9000 F8000.0
G1 X180.0000 Y-86.0382 F12000.0
G1 Z0.0000 F8000.0
G0 X180.0000 Y-80.5348 F15000.0
G1 Z11.9000 F8000.0
G1 X178.5364 Y-80.5348 F12000.0
G1 X178.5364 Y-86.0382 F12000.0
G1 Z0.0000 F8000.0
G0 X163.5505 Y-142.5954 F15000.0
G1 Z11.9000 F8000.0
G1 X163.5505 Y-141.1561 F12000.0
G1 Z0.0000 F8000.0
G0 X163.5505 Y-121.0055 F15000.0
G1 Z11.9000 F8000.0
G1 X163.5505 Y-119.5661 F12000.0
G1 Z0.0000 F8000.0
G0 X159.4865 Y-117.7881 F15000.0
G1 Z11.9000 F8000.0
G1 X159.4865 Y-129.0488 F12000.0
G1 Z0.0000 F8000.0
G0 X166.0059 Y-129.0488 F15000.0
G1 Z11.9000 F8000.0
G1 X166.0059 Y-124.3075 F12000.0
G1 X162.0265 Y-124.3075 F12000.0
G1 Z0.0000 F8000.0
G0 X163.5505 Y-117.7881 F15000.0
G1 Z11.9000 F8000.0
G1 X159.4865 Y-117.7881 F12000.0
G1 Z0.0000 F8000.0
G0 X163.5505 Y-119.5661 F15000.0
G1 Z11.9000 F8000.0
G1 X163.5505 Y-117.7881 F12000.0
G1 Z0.0000 F8000.0
G0 X162.0265 Y-124.3075 F15000.0
G1 Z11.9000 F8000.0
G1 X162.0265 Y-119.5661 F12000.0
G1 X163.5505 Y-119.5661 F12000.0
G1 Z0.0000 F8000.0
G0 X174.8957 Y-108.4748 F15000.0
G1 Z11.9000 F8000.0
G1 X175.4884 Y-109.4908 F12000.0
G1 Z0.0000 F8000.0
G0 X175.4884 Y-152.6708 F15000.0
G1 Z11.9000 F8000.0
G1 X174.8957 Y-153.6868 F12000.0
G1 Z0.0000 F8000.0
G0 X145.0085 Y-136.4994 F15000.0
G1 Z11.9000 F8000.0
G1 X144.1619 Y-138.0234 F12000.0
G1 Z0.0000 F8000.0
G0 X171.9325 Y-110.7608 F15000.0
G1 Z11.9000 F8000.0
G1 X171.7632 Y-110.4221 F12000.0
G1 X171.5938 Y-110.1681 F12000.0
G1 X171.5938 Y-109.8295 F12000.0
G1 X171.5938 Y-109.4908 F12000.0
G1 X171.5938 Y-109.1521 F12000.0
G1 Z0.0000 F8000.0
G0 X171.7632 Y-108.8135 F15000.0
G1 Z11.9000 F8000.0
G1 X171.9325 Y-108.4748 F12000.0
G1 Z0.0000 F8000.0
G0 X171.9325 Y-153.6868 F15000.0
G1 Z11.9000 F8000.0
G1 X171.7632 Y-153.3481 F12000.0
G1 X171.5938 Y-153.0941 F12000.0
G1 X171.5938 Y-152.7554 F12000.0
G1 X171.5938 Y-152.4168 F12000.0
G1 X171.5938 Y-152.0781 F12000.0
G1 Z0.0000 F8000.0
G0 X171.7632 Y-151.7394 F15000.0
G1 Z11.9000 F8000.0
G1 X171.9325 Y-151.4008 F12000.0
G1 X171.6785 Y-150.5541 F12000.0
G1 Z0.0000 F8000.0
G0 X138.4045 Y-137.7694 F15000.0
G1 Z11.9000 F8000.0
G1 X138.2352 Y-137.5154 F12000.0
G1 Z0.0000 F8000.0
G0 X137.9812 Y-136.4994 F15000.0
G1 Z11.9000 F8000.0
G1 X137.9812 Y-136.1608 F12000.0
G1 X137.9812 Y-135.8221 F12000.0
G1 Z0.0000 F8000.0
G0 X138.2352 Y-135.1448 F15000.0
G1 Z11.9000 F8000.0
G1 X138.3199 Y-134.8061 F12000.0
G1 X138.4892 Y-134.5521 F12000.0
G1 X138.0659 Y-132.6048 F12000.0
G1 X137.9812 Y-130.6574 F12000.0
G1 Z0.0000 F8000.0
G0 X171.6785 Y-111.6075 F15000.0
G1 Z11.9000 F8000.0
G1 X171.9325 Y-110.7608 F12000.0
G1 Z0.0000 F8000.0
G0 X174.8957 Y-110.7608 F15000.0
G1 Z11.9000 F8000.0
G1 X175.1497 Y-111.6075 F12000.0
G1 Z0.0000 F8000.0
G0 X174.8957 Y-108.4748 F15000.0
G1 Z11.9000 F8000.0
G1 X175.0651 Y-108.7288 F12000.0
G1 X175.2344 Y-109.0675 F12000.0
G1 Z0.0000 F8000.0
G0 X175.2344 Y-109.3215 F15000.0
G1 Z11.9000 F8000.0
G1 X175.3191 Y-109.6601 F12000.0
G1 X175.2344 Y-110.0835 F12000.0
G1 Z0.0000 F8000.0
G0 X175.1497 Y-110.4221 F15000.0
G1 Z11.9000 F8000.0
G1 X174.8957 Y-110.7608 F12000.0
G1 Z0.0000 F8000.0
G0 X174.8957 Y-151.4008 F15000.0
G1 Z11.9000 F8000.0
G1 X175.0651 Y-151.6548 F12000.0
G1 X175.2344 Y-151.9934 F12000.0
G1 X175.2344 Y-152.3321 F12000.0
G1 Z0.0000 F8000.0
G0 X175.3191 Y-152.5861 F15000.0
G1 Z11.9000 F8000.0
G1 X175.2344 Y-153.0094 F12000.0
G1 Z0.0000 F8000.0
G0 X175.1497 Y-153.3481 F15000.0
G1 Z11.9000 F8000.0
G1 X174.8957 Y-153.6868 F12000.0
G1 Z0.0000 F8000.0
G0 X144.3312 Y-134.9754 F15000.0
G1 Z11.9000 F8000.0
G1 X144.5005 Y-135.2294 F12000.0
G1 Z0.0000 F8000.0
G0 X144.6699 Y-136.0761 F15000.0
G1 Z11.9000 F8000.0
G1 X144.6699 Y-136.4148 F12000.0
G1 Z0.0000 F8000.0
G0 X144.6699 Y-136.6688 F15000.0
G1 Z11.9000 F8000.0
G1 X144.5852 Y-137.0074 F12000.0
G1 Z0.0000 F8000.0
G0 X144.3312 Y-137.6848 F15000.0
G1 Z11.9000 F8000.0
G1 X144.1619 Y-138.0234 F12000.0
G1 Z0.0000 F8000.0
G0 X144.6699 Y-131.5041 F15000.0
G1 Z11.9000 F8000.0
G1 X144.4159 Y-133.4514 F12000.0
G1 X144.1619 Y-134.5521 F12000.0
G1 Z0.0000 F8000.0
G0 X175.1497 Y-150.5541 F15000.0
G1 Z11.9000 F8000.0
G1 X174.8957 Y-151.4008 F12000.0
G1 Z0.0000 F8000.0
G0 X178.2824 Y-121.3441 F15000.0
G1 Z11.9000 F8000.0
G1 X178.4517 Y-121.5981 F12000.0
G1 X178.5364 Y-121.9368 F12000.0
G1 X178.6211 Y-122.2755 F12000.0
G1 X178.7057 Y-122.6141 F12000.0
G1 X178.7904 Y-122.9528 F12000.0
G1 X178.8751 Y-123.5455 F12000.0
G1 X178.9597 Y-124.1381 F12000.0
G1 X179.0444 Y-124.9001 F12000.0
G1 X179.2137 Y-125.6621 F12000.0
G1 X179.2984 Y-126.5088 F12000.0
G1 X179.3831 Y-127.3554 F12000.0
G1 X179.4677 Y-128.3714 F12000.0
G1 X179.5524 Y-129.3028 F12000.0
G1 X179.6371 Y-130.3188 F12000.0
G1 X179.7217 Y-131.4194 F12000.0
G1 X179.8064 Y-132.6048 F12000.0
G1 X179.8911 Y-133.7901 F12000.0
G1 X179.9757 Y-134.7214 F12000.0
G1 X180.0000 Y-134.9396 F12000.0
G1 Z0.0000 F8000.0
G0 X173.2871 Y-121.3441 F15000.0
G1 Z11.9000 F8000.0
G1 X173.4564 Y-121.5981 F12000.0
G1 X173.5411 Y-121.9368 F12000.0
G1 X173.6257 Y-122.2755 F12000.0
G1 X173.7104 Y-122.6141 F12000.0
G1 X173.7951 Y-122.9528 F12000.0
G1 X173.8797 Y-123.5455 F12000.0
G1 X173.9644 Y-124.1381 F12000.0
G1 X174.0491 Y-124.9001 F12000.0
G1 X174.2184 Y-125.6621 F12000.0
G1 X174.3031 Y-126.5088 F12000.0
G1 X174.3877 Y-127.3554 F12000.0
G1 X174.4724 Y-128.3714 F12000.0
G1 X174.5571 Y-129.3028 F12000.0
G1 X174.6417 Y-130.3188 F12000.0
G1 X174.7264 Y-131.0808 F12000.0
G1 X174.7264 Y-132.0121 F12000.0
G1 X174.8111 Y-132.8588 F12000.0
G1 X174.8957 Y-133.7901 F12000.0
G1 X174.9804 Y-134.7214 F12000.0
G1 X175.0651 Y-135.4834 F12000.0
G1 X175.1497 Y-136.3301 F12000.0
G1 X175.2344 Y-137.0074 F12000.0
G1 X175.3191 Y-137.6001 F12000.0
G1 X175.4037 Y-138.1081 F12000.0
G1 X175.4884 Y-138.4468 F12000.0
G1 Z0.0000 F8000.0
G0 X164.0585 Y-121.9368 F15000.0
G1 Z11.9000 F8000.0
G1 X164.2279 Y-122.2755 F12000.0
G1 X164.2279 Y-122.6988 F12000.0
G1 X164.3125 Y-123.0375 F12000.0
G1 X164.3972 Y-123.6301 F12000.0
G1 X164.3972 Y-124.3075 F12000.0
G1 Z0.0000 F8000.0
G0 X162.1959 Y-138.0234 F15000.0
G1 Z11.9000 F8000.0
G1 X162.2805 Y-138.5314 F12000.0
G1 X162.2805 Y-138.8701 F12000.0
G1 Z0.0000 F8000.0
G0 X168.3765 Y-121.5981 F15000.0
G1 Z11.9000 F8000.0
G1 X168.5458 Y-121.9368 F12000.0
G1 X168.6305 Y-122.2755 F12000.0
G1 X168.7152 Y-122.6141 F12000.0
G1 X168.7998 Y-122.9528 F12000.0
G1 X168.8845 Y-123.5455 F12000.0
G1 X168.9692 Y-124.1381 F12000.0
G1 X169.0538 Y-124.9001 F12000.0
G1 X169.1385 Y-125.6621 F12000.0
G1 X169.2232 Y-126.5088 F12000.0
G1 X169.3078 Y-127.3554 F12000.0
G1 X169.4772 Y-128.3714 F12000.0
G1 X169.5618 Y-129.3028 F12000.0
G1 X169.6465 Y-130.3188 F12000.0
G1 X169.7312 Y-131.0808 F12000.0
G1 X169.7312 Y-132.0121 F12000.0
G1 X169.8158 Y-132.8588 F12000.0
G1 X169.9005 Y-133.7901 F12000.0
G1 X169.9852 Y-134.7214 F12000.0
G1 X170.0698 Y-135.4834 F12000.0
G1 X170.1545 Y-136.3301 F12000.0
G1 X170.2392 Y-137.0074 F12000.0
G1 X170.3238 Y-137.6001 F12000.0
G1 X170.4085 Y-138.1081 F12000.0
G1 X170.4932 Y-138.4468 F12000.0
G1 Z0.0000 F8000.0
G0 X165.4132 Y-137.8541 F15000.0
G1 Z11.9000 F8000.0
G1 X165.4132 Y-138.1928 F12000.0
G1 Z0.0000 F8000.0
G0 X178.1131 Y-140.7328 F15000.0
G1 Z11.9000 F8000.0
G1 X177.9437 Y-140.4788 F12000.0
G1 X177.7744 Y-140.0554 F12000.0
G1 X177.6051 Y-139.6321 F12000.0
G1 X177.5204 Y-139.1241 F12000.0
G1 X177.4357 Y-138.6161 F12000.0
G1 X177.3511 Y-138.0234 F12000.0
G1 X177.2664 Y-137.2614 F12000.0
G1 X177.1817 Y-136.4994 F12000.0
G1 X177.0971 Y-135.7374 F12000.0
G1 X177.0124 Y-134.8908 F12000.0
G1 X176.9277 Y-134.0441 F12000.0
G1 X176.8431 Y-133.1128 F12000.0
G1 X176.7584 Y-132.2661 F12000.0
G1 X176.6737 Y-131.3348 F12000.0
G1 X176.5891 Y-130.3188 F12000.0
G1 X176.5044 Y-129.3028 F12000.0
G1 X176.4197 Y-128.2868 F12000.0
G1 X176.3351 Y-127.4401 F12000.0
G1 X176.2504 Y-126.5934 F12000.0
G1 X176.1657 Y-125.8314 F12000.0
G1 X176.0811 Y-125.0695 F12000.0
G1 X175.9964 Y-124.3921 F12000.0
G1 X175.9117 Y-123.7995 F12000.0
G1 X175.8271 Y-123.3761 F12000.0
G1 Z0.0000 F8000.0
G0 X173.1177 Y-140.7328 F15000.0
G1 Z11.9000 F8000.0
G1 X172.9485 Y-140.4788 F12000.0
G1 X172.7792 Y-140.0554 F12000.0
G1 X172.6098 Y-139.6321 F12000.0
G1 X172.5252 Y-139.1241 F12000.0
G1 X172.4405 Y-138.6161 F12000.0
G1 X172.3558 Y-138.0234 F12000.0
G1 X172.2712 Y-137.2614 F12000.0
G1 X172.1865 Y-136.4994 F12000.0
G1 X172.1018 Y-135.7374 F12000.0
G1 X172.0172 Y-134.8908 F12000.0
G1 X171.9325 Y-134.0441 F12000.0
G1 X171.8478 Y-133.1128 F12000.0
G1 X171.7632 Y-132.2661 F12000.0
G1 X171.6785 Y-131.3348 F12000.0
G1 X171.5938 Y-130.3188 F12000.0
G1 X171.5092 Y-129.3028 F12000.0
G1 X171.4245 Y-128.2868 F12000.0
G1 X171.3398 Y-127.4401 F12000.0
G1 X171.2552 Y-126.5934 F12000.0
G1 X171.1705 Y-125.8314 F12000.0
G1 X171.0858 Y-125.0695 F12000.0
G1 X171.0012 Y-124.3921 F12000.0
G1 X170.9165 Y-123.7995 F12000.0
G1 X170.8318 Y-123.3761 F12000.0
G1 Z0.0000 F8000.0
G0 X168.1225 Y-140.7328 F15000.0
G1 Z11.9000 F8000.0
G1 X167.9532 Y-140.4788 F12000.0
G1 X167.7839 Y-140.0554 F12000.0
G1 X167.6145 Y-139.5474 F12000.0
G1 X167.5299 Y-139.1241 F12000.0
G1 X167.4452 Y-138.6161 F12000.0
G1 X167.3605 Y-138.0234 F12000.0
G1 X167.2759 Y-137.3461 F12000.0
G1 X167.1912 Y-136.4994 F12000.0
G1 X167.1065 Y-135.7374 F12000.0
G1 X167.0219 Y-134.8908 F12000.0
G1 X166.9372 Y-134.0441 F12000.0
G1 X166.8525 Y-133.1128 F12000.0
G1 Z0.0000 F8000.0
G0 X162.9579 Y-140.5634 F15000.0
G1 Z11.9000 F8000.0
G1 X162.7885 Y-140.0554 F12000.0
G1 X162.6192 Y-139.6321 F12000.0
G1 X162.5345 Y-139.1241 F12000.0
G1 X162.4499 Y-138.6161 F12000.0
G1 X162.3652 Y-138.0234 F12000.0
G1 Z0.0000 F8000.0
G0 X166.0059 Y-124.3075 F15000.0
G1 Z11.9000 F8000.0
G1 X165.9212 Y-123.7995 F12000.0
G1 X165.8365 Y-123.3761 F12000.0
G1 Z0.0000 F8000.0
G0 X157.5392 Y-144.7968 F15000.0
G1 Z11.9000 F8000.0
G1 X157.5392 Y-135.0601 F12000.0
G1 Z0.0000 F8000.0
G0 X175.4884 Y-150.5541 F15000.0
G1 Z11.9000 F8000.0
G1 X157.0312 Y-150.5541 F12000.0
G1 X155.7612 Y-150.3848 F12000.0
G1 X154.6605 Y-149.8768 F12000.0
G1 X153.7292 Y-149.1148 F12000.0
G1 X153.0519 Y-148.0988 F12000.0
G1 X152.6285 Y-146.9134 F12000.0
G1 X152.5439 Y-146.0668 F12000.0
G1 Z0.0000 F8000.0
G0 X151.5279 Y-145.0508 F15000.0
G1 Z11.9000 F8000.0
G1 X152.0359 Y-145.2201 F12000.0
G1 X152.4592 Y-145.6434 F12000.0
G1 X152.5439 Y-146.0668 F12000.0
G1 Z0.0000 F8000.0
G0 X151.5279 Y-145.0508 F15000.0
G1 Z11.9000 F8000.0
G1 X150.5119 Y-145.0508 F12000.0
G1 X150.5119 Y-140.0554 F12000.0
G1 Z0.0000 F8000.0
G0 X146.0245 Y-140.0554 F15000.0
G1 Z11.9000 F8000.0
G1 X145.0085 Y-139.0394 F12000.0
G1 X145.0085 Y-135.5681 F12000.0
G1 Z0.0000 F8000.0
G0 X175.4884 Y-155.0414 F15000.0
G1 Z11.9000 F8000.0
G1 X175.4884 Y-150.5541 F12000.0
G1 Z0.0000 F8000.0
G0 X175.4884 Y-155.0414 F15000.0
G1 Z11.9000 F8000.0
G1 X180.0000 Y-155.0414 F12000.0
G1 Z0.0000 F8000.0
G0 X180.0000 Y-145.8128 F15000.0
G1 Z11.9000 F8000.0
G1 X158.5552 Y-145.8128 F12000.0
G1 X157.9625 Y-145.6434 F12000.0
G1 X157.6239 Y-145.2201 F12000.0
G1 X157.5392 Y-144.7968 F12000.0
G1 Z0.0000 F8000.0
G0 X175.4884 Y-111.6075 F15000.0
G1 Z11.9000 F8000.0
G1 X175.4884 Y-107.0355 F12000.0
G1 Z0.0000 F8000.0
G0 X180.0000 Y-107.0355 F15000.0
G1 Z11.9000 F8000.0
G1 X175.4884 Y-107.0355 F12000.0
G1 Z0.0000 F8000.0
G0 X139.5052 Y-142.5954 F15000.0
G1 Z11.9000 F8000.0
G1 X125.0272 Y-142.5954 F12000.0
G1 Z0.0000 F8000.0
G0 X125.0272 Y-139.5474 F15000.0
G1 Z11.9000 F8000.0
G1 X123.3339 Y-139.3781 F12000.0
G1 X121.7252 Y-138.8701 F12000.0
G1 X120.2012 Y-138.1081 F12000.0
G1 X118.9312 Y-137.0074 F12000.0
G1 X117.9152 Y-135.6528 F12000.0
G1 X117.0686 Y-134.1288 F12000.0
G1 X116.6452 Y-132.5201 F12000.0
G1 X116.5606 Y-131.0808 F12000.0
G1 Z0.0000 F8000.0
G0 X125.0272 Y-139.5474 F15000.0
G1 Z11.9000 F8000.0
G1 X141.5372 Y-139.5474 F12000.0
G1 Z0.0000 F8000.0
G0 X141.0292 Y-144.3734 F15000.0
G1 Z11.9000 F8000.0
G1 X141.0292 Y-144.0348 F12000.0
G1 Z0.0000 F8000.0
G0 X139.5052 Y-142.5954 F15000.0
G1 Z11.9000 F8000.0
G1 X140.1825 Y-142.7648 F12000.0
G1 X140.7752 Y-143.1881 F12000.0
G1 X141.0292 Y-143.8654 F12000.0
G1 Z0.0000 F8000.0
G0 X125.0272 Y-142.5954 F15000.0
G1 Z11.9000 F8000.0
G1 X123.0799 Y-142.4261 F12000.0
G1 X121.1326 Y-141.9181 F12000.0
G1 X119.3546 Y-141.0714 F12000.0
G1 X117.7459 Y-139.9708 F12000.0
G1 X116.3066 Y-138.6161 F12000.0
G1 X115.1212 Y-137.0074 F12000.0
G1 X114.2746 Y-135.2294 F12000.0
G1 X113.7666 Y-133.3668 F12000.0
G1 X113.5126 Y-131.3348 F12000.0
G1 Z0.0000 F8000.0
G0 X159.4865 Y-144.2888 F15000.0
G1 Z11.9000 F8000.0
G1 X159.4865 Y-133.0281 F12000.0
G1 Z0.0000 F8000.0
G0 X166.0059 Y-133.0281 F15000.0
G1 Z11.9000 F8000.0
G1 X166.0059 Y-137.8541 F12000.0
G1 X162.0265 Y-137.8541 F12000.0
G1 X162.0265 Y-142.5954 F12000.0
G1 X163.5505 Y-142.5954 F12000.0
G1 X163.5505 Y-144.2888 F12000.0
G1 X159.4865 Y-144.2888 F12000.0
G1 Z0.0000 F8000.0
G0 X178.1977 Y-139.2088 F15000.0
G1 Z11.9000 F8000.0
G1 X178.0284 Y-139.4628 F12000.0
G1 Z0.0000 F8000.0
G0 X177.7744 Y-120.8361 F15000.0
G1 Z11.9000 F8000.0
G1 X177.5204 Y-120.6668 F12000.0
G1 Z0.0000 F8000.0
G0 X173.2024 Y-139.2088 F15000.0
G1 Z11.9000 F8000.0
G1 X173.0331 Y-139.4628 F12000.0
G1 Z0.0000 F8000.0
G0 X175.8271 Y-139.4628 F15000.0
G1 Z11.9000 F8000.0
G1 X175.6577 Y-139.2088 F12000.0
G1 Z0.0000 F8000.0
G0 X171.3398 Y-120.6668 F15000.0
G1 Z11.9000 F8000.0
G1 X171.0858 Y-120.8361 F12000.0
G1 Z0.0000 F8000.0
G0 X168.2072 Y-139.2088 F15000.0
G1 Z11.9000 F8000.0
G1 X168.0379 Y-139.4628 F12000.0
G1 Z0.0000 F8000.0
G0 X170.8318 Y-139.4628 F15000.0
G1 Z11.9000 F8000.0
G1 X170.6625 Y-139.2088 F12000.0
G1 Z0.0000 F8000.0
G0 X166.3445 Y-120.6668 F15000.0
G1 Z11.9000 F8000.0
G1 X166.0905 Y-120.8361 F12000.0
G1 Z0.0000 F8000.0
G0 X163.2119 Y-139.2088 F15000.0
G1 Z11.9000 F8000.0
G1 X163.0425 Y-139.4628 F12000.0
G1 Z0.0000 F8000.0
G0 X162.0265 Y-120.6668 F15000.0
G1 Z11.9000 F8000.0
G1 X162.7039 Y-120.5821 F12000.0
G1 X163.3812 Y-120.8361 F12000.0
G1 X163.8892 Y-121.3441 F12000.0
G1 X164.0585 Y-122.0215 F12000.0
G1 X163.9739 Y-122.6988 F12000.0
G1 X163.4659 Y-123.2915 F12000.0
G1 X162.8732 Y-123.5455 F12000.0
G1 X162.1112 Y-123.5455 F12000.0
G1 Z0.0000 F8000.0
G0 X125.0272 Y-133.0281 F15000.0
G1 Z11.9000 F8000.0
G1 X132.0546 Y-133.0281 F12000.0
G1 Z0.0000 F8000.0
G0 X167.5299 Y-129.0488 F15000.0
G1 Z11.9000 F8000.0
G1 X159.4865 Y-129.0488 F12000.0
G1 Z0.0000 F8000.0
G0 X132.9859 Y-135.0601 F15000.0
G1 Z11.9000 F8000.0
G1 X132.0546 Y-134.0441 F12000.0
G1 Z0.0000 F8000.0
G0 X158.5552 Y-127.1014 F15000.0
G1 Z11.9000 F8000.0
G1 X145.0085 Y-127.1014 F12000.0
G1 Z0.0000 F8000.0
G0 X158.5552 Y-135.0601 F15000.0
G1 Z11.9000 F8000.0
G1 X145.0085 Y-135.0601 F12000.0
G1 Z0.0000 F8000.0
G0 X159.4865 Y-128.0328 F15000.0
G1 Z11.9000 F8000.0
G1 X158.5552 Y-127.1014 F12000.0
G1 Z0.0000 F8000.0
G0 X159.4865 Y-134.0441 F15000.0
G1 Z11.9000 F8000.0
G1 X158.5552 Y-135.0601 F12000.0
G1 Z0.0000 F8000.0
G0 X167.5299 Y-133.0281 F15000.0
G1 Z11.9000 F8000.0
G1 X159.4865 Y-133.0281 F12000.0
G1 Z0.0000 F8000.0
G0 X137.6425 Y-135.0601 F15000.0
G1 Z11.9000 F8000.0
G1 X132.9859 Y-135.0601 F12000.0
G1 Z0.0000 F8000.0
G0 X167.5299 Y-129.0488 F15000.0
G1 Z11.9000 F8000.0
G1 X167.5299 Y-133.0281 F12000.0
G1 Z0.0000 F8000.0
G0 X159.4865 Y-128.0328 F15000.0
G1 Z11.9000 F8000.0
G1 X159.4865 Y-134.0441 F12000.0
G1 Z0.0000 F8000.0
G0 X158.5552 Y-127.1014 F15000.0
G1 Z11.9000 F8000.0
G1 X158.5552 Y-135.0601 F12000.0
G1 Z0.0000 F8000.0
G0 X171.9325 Y-280.4324 F15000.0
G1 Z11.9000 F8000.0
G1 X174.8957 Y-280.4324 F12000.0
G1 Z0.0000 F8000.0
G0 X171.9325 Y-272.3891 F15000.0
G1 Z11.9000 F8000.0
G1 X174.8957 Y-272.3891 F12000.0
G1 Z0.0000 F8000.0
G0 X175.4884 Y-270.3571 F15000.0
G1 Z11.9000 F8000.0
G1 X180.0000 Y-270.3571 F12000.0
G1 Z0.0000 F8000.0
G0 X175.4884 Y-285.0000 F15000.0
G1 Z11.9000 F8000.0
G1 X175.4884 Y-276.3684 F12000.0
G1 X175.4884 Y-270.3571 F12000.0
G1 Z0.0000 F8000.0
G0 X141.0292 Y-282.8878 F15000.0
G1 Z11.9000 F8000.0
G1 X150.5119 Y-282.8878 F12000.0
G1 Z0.0000 F8000.0
G0 X180.0000 Y-276.3684 F15000.0
G1 Z11.9000 F8000.0
G1 X168.3765 Y-276.3684 F12000.0
G1 Z0.0000 F8000.0
G0 X170.2392 Y-278.4851 F15000.0
G1 Z11.9000 F8000.0
G1 X170.6625 Y-278.4851 F12000.0
G1 Z0.0000 F8000.0
G0 X170.2392 Y-274.3364 F15000.0
G1 Z11.9000 F8000.0
G1 X170.6625 Y-274.3364 F12000.0
G1 Z0.0000 F8000.0
G0 X169.9852 Y-274.5058 F15000.0
G1 Z11.9000 F8000.0
G1 X170.6625 Y-273.9131 F12000.0
G1 Z0.0000 F8000.0
G0 X170.6625 Y-278.9084 F15000.0
G1 Z11.9000 F8000.0
G1 X169.9852 Y-278.2311 F12000.0
G1 Z0.0000 F8000.0
G0 X170.6625 Y-273.9131 F15000.0
G1 Z11.9000 F8000.0
G1 X171.3398 Y-273.9131 F12000.0
G1 Z0.0000 F8000.0
G0 X171.3398 Y-278.4851 F15000.0
G1 Z11.9000 F8000.0
G1 X170.6625 Y-278.4851 F12000.0
G1 Z0.0000 F8000.0
G0 X171.3398 Y-274.3364 F15000.0
G1 Z11.9000 F8000.0
G1 X170.6625 Y-274.3364 F12000.0
G1 Z0.0000 F8000.0
G0 X171.3398 Y-278.9084 F15000.0
G1 Z11.9000 F8000.0
G1 X170.6625 Y-278.9084 F12000.0
G1 Z0.0000 F8000.0
G0 X171.3398 Y-272.8124 F15000.0
G1 Z11.9000 F8000.0
G1 X171.5092 Y-272.3891 F12000.0
G1 Z0.0000 F8000.0
G0 X171.5092 Y-280.4324 F15000.0
G1 Z11.9000 F8000.0
G1 X171.3398 Y-280.0091 F12000.0
G1 Z0.0000 F8000.0
G0 X169.9852 Y-274.5058 F15000.0
G1 Z11.9000 F8000.0
G1 X169.9852 Y-278.2311 F12000.0
G1 Z0.0000 F8000.0
G0 X170.6625 Y-273.9131 F15000.0
G1 Z11.9000 F8000.0
G1 X170.6625 Y-278.9084 F12000.0
G1 Z0.0000 F8000.0
G0 X171.3398 Y-280.0091 F15000.0
G1 Z11.9000 F8000.0
G1 X171.3398 Y-272.8124 F12000.0
G1 Z0.0000 F8000.0
G0 X150.5119 Y-280.4324 F15000.0
G1 Z11.9000 F8000.0
G1 X151.5279 Y-280.4324 F12000.0
G1 Z0.0000 F8000.0
G0 X152.5439 Y-279.4164 F15000.0
G1 Z11.9000 F8000.0
G1 X152.7132 Y-278.1464 F12000.0
G1 X153.2212 Y-277.0458 F12000.0
G1 X153.9832 Y-276.1144 F12000.0
G1 X154.9992 Y-275.3524 F12000.0
G1 X156.0999 Y-275.0138 F12000.0
G1 X157.0312 Y-274.9291 F12000.0
G1 Z0.0000 F8000.0
G0 X152.5439 Y-279.4164 F15000.0
G1 Z11.9000 F8000.0
G1 X152.3745 Y-279.9244 F12000.0
G1 X151.9512 Y-280.3478 F12000.0
G1 X151.5279 Y-280.4324 F12000.0
G1 Z0.0000 F8000.0
G0 X157.0312 Y-274.9291 F15000.0
G1 Z11.9000 F8000.0
G1 X169.9852 Y-274.9291 F12000.0
G1 Z0.0000 F8000.0
G0 X150.5119 Y-280.4324 F15000.0
G1 Z11.9000 F8000.0
G1 X150.5119 Y-285.0000 F12000.0
G1 Z0.0000 F8000.0
G0 X152.5439 Y-279.4164 F15000.0
G1 Z11.9000 F8000.0
G1 X152.5439 Y-285.0000 F12000.0
G1 Z0.0000 F8000.0
G0 X125.0272 Y-282.8878 F15000.0
G1 Z11.9000 F8000.0
G1 X139.5052 Y-282.8878 F12000.0
G1 Z0.0000 F8000.0
G0 X118.4172 Y-285.0000 F15000.0
G1 Z11.9000 F8000.0
G1 X119.1006 Y-284.4964 F12000.0
G1 X120.8786 Y-283.6498 F12000.0
G1 X122.7412 Y-283.1418 F12000.0
G1 X124.6886 Y-282.8878 F12000.0
G1 X125.0272 Y-282.8878 F12000.0
G1 Z0.0000 F8000.0
G0 X175.4884 Y-280.0091 F15000.0
G1 Z11.9000 F8000.0
G1 X175.3191 Y-280.4324 F12000.0
G1 Z0.0000 F8000.0
G0 X175.3191 Y-272.3891 F15000.0
G1 Z11.9000 F8000.0
G1 X175.4884 Y-272.8124 F12000.0
G1 Z0.0000 F8000.0
G0 X171.9325 Y-280.4324 F15000.0
G1 Z11.9000 F8000.0
G1 X171.5938 Y-278.9931 F12000.0
G1 X171.5938 Y-277.6384 F12000.0
G1 X171.9325 Y-276.3684 F12000.0
G1 X171.5938 Y-275.0138 F12000.0
G1 X171.5938 Y-273.6591 F12000.0
G1 X171.9325 Y-272.3891 F12000.0
G1 X171.5092 Y-272.3891 F12000.0
G1 Z0.0000 F8000.0
G0 X171.5938 Y-280.4324 F15000.0
G1 Z11.9000 F8000.0
G1 X171.9325 Y-280.4324 F12000.0
G1 Z0.0000 F8000.0
G0 X141.0292 Y-283.3958 F15000.0
G1 Z11.9000 F8000.0
G1 X141.0292 Y-282.8878 F12000.0
G1 Z0.0000 F8000.0
G0 X140.8222 Y-285.0000 F15000.0
G1 Z11.9000 F8000.0
G1 X140.9445 Y-284.3271 F12000.0
G1 X141.0292 Y-283.3958 F12000.0
G1 Z0.0000 F8000.0
G0 X141.0292 Y-282.8878 F15000.0
G1 Z11.9000 F8000.0
G1 X139.5052 Y-282.8878 F12000.0
G1 Z0.0000 F8000.0
G0 X174.8957 Y-272.3891 F15000.0
G1 Z11.9000 F8000.0
G1 X175.2344 Y-273.7438 F12000.0
G1 X175.2344 Y-275.1831 F12000.0
G1 X174.8957 Y-276.3684 F12000.0
G1 Z0.0000 F8000.0
G0 X174.8957 Y-280.4324 F15000.0
G1 Z11.9000 F8000.0
G1 X175.3191 Y-280.4324 F12000.0
G1 Z0.0000 F8000.0
G0 X174.8957 Y-276.3684 F15000.0
G1 Z11.9000 F8000.0
G1 X175.2344 Y-277.7231 F12000.0
G1 X175.2344 Y-279.1624 F12000.0
G1 X174.8957 Y-280.4324 F12000.0
G1 Z0.0000 F8000.0
G0 X175.3191 Y-272.3891 F15000.0
G1 Z11.9000 F8000.0
G1 X174.8957 Y-272.3891 F12000.0
G1 Z0.0000 F8000.0
G0 X139.5052 Y-282.8878 F15000.0
G1 Z11.9000 F8000.0
G1 X139.5052 Y-285.0000 F12000.0
G1 Z0.0000 F8000.0
G0 X125.0272 Y-281.1944 F15000.0
G1 Z11.9000 F8000.0
G1 X125.0272 Y-285.0000 F12000.0
G1 Z0.0000 F8000.0
G0 X150.5119 Y-122.1061 F15000.0
G1 Z11.9000 F8000.0
G1 X150.5119 Y-122.6141 F12000.0
G1 Z0.0000 F8000.0
G0 X141.5372 Y-122.6141 F15000.0
G1 Z11.9000 F8000.0
G1 X145.5165 Y-122.6141 F12000.0
G1 Z0.0000 F8000.0
G0 X150.5119 Y-140.0554 F15000.0
G1 Z11.9000 F8000.0
G1 X150.5119 Y-139.5474 F12000.0
G1 Z0.0000 F8000.0
G0 X141.5372 Y-139.5474 F15000.0
G1 Z11.9000 F8000.0
G1 X145.5165 Y-139.5474 F12000.0
G1 Z0.0000 F8000.0
G0 X160.3332 Y-122.1061 F15000.0
G1 Z11.9000 F8000.0
G1 X167.5299 Y-122.1061 F12000.0
G1 Z0.0000 F8000.0
G0 X169.0538 Y-122.1061 F15000.0
G1 Z11.9000 F8000.0
G1 X170.5778 Y-122.1061 F12000.0
G1 Z0.0000 F8000.0
G0 X172.1018 Y-122.1061 F15000.0
G1 Z11.9000 F8000.0
G1 X179.2984 Y-122.1061 F12000.0
G1 Z0.0000 F8000.0
G0 X160.3332 Y-140.0554 F15000.0
G1 Z11.9000 F8000.0
G1 X167.5299 Y-140.0554 F12000.0
G1 Z0.0000 F8000.0
G0 X169.0538 Y-140.0554 F15000.0
G1 Z11.9000 F8000.0
G1 X170.5778 Y-140.0554 F12000.0
G1 Z0.0000 F8000.0
G0 X172.1018 Y-140.0554 F15000.0
G1 Z11.9000 F8000.0
G1 X179.2984 Y-140.0554 F12000.0
G1 Z0.0000 F8000.0
G0 X125.0272 Y-117.8728 F15000.0
G1 Z11.9000 F8000.0
G1 X125.0272 Y-128.7948 F12000.0
G1 Z0.0000 F8000.0
G0 X125.0272 Y-133.2821 F15000.0
G1 Z11.9000 F8000.0
G1 X125.0272 Y-144.2041 F12000.0
G1 Z0.0000 F8000.0
G0 X158.5552 Y-134.5521 F15000.0
G1 Z11.9000 F8000.0
G1 X145.0085 Y-134.5521 F12000.0
G1 Z0.0000 F8000.0
G0 X158.5552 Y-127.6094 F15000.0
G1 Z11.9000 F8000.0
G1 X145.0085 Y-127.6094 F12000.0
G1 Z0.0000 F8000.0
G0 X137.6425 Y-134.5521 F15000.0
G1 Z11.9000 F8000.0
G1 X132.9859 Y-134.5521 F12000.0
G1 Z0.0000 F8000.0
G0 X132.4779 Y-134.5521 F15000.0
G1 Z11.9000 F8000.0
G1 X132.9859 Y-134.5521 F12000.0
G1 Z0.0000 F8000.0
G0 X159.0632 Y-134.5521 F15000.0
G1 Z11.9000 F8000.0
G1 X158.5552 Y-134.5521 F12000.0
G1 Z0.0000 F8000.0
G0 X159.0632 Y-127.6094 F15000.0
G1 Z11.9000 F8000.0
G1 X158.5552 Y-127.6094 F12000.0
G1 Z0.0000 F8000.0
G0 X180.0000 Y-131.0808 F15000.0
G1 Z11.9000 F8000.0
G1 X179.2984 Y-131.0808 F12000.0
G1 Z0.0000 F8000.0
G0 X177.7744 Y-131.0808 F15000.0
G1 Z11.9000 F8000.0
G1 X176.2504 Y-131.0808 F12000.0
G1 Z0.0000 F8000.0
G0 X174.8111 Y-131.0808 F15000.0
G1 Z11.9000 F8000.0
G1 X156.7772 Y-131.0808 F12000.0
G1 Z0.0000 F8000.0
G0 X155.3379 Y-131.0808 F15000.0
G1 Z11.9000 F8000.0
G1 X153.8139 Y-131.0808 F12000.0
G1 Z0.0000 F8000.0
G0 X129.8532 Y-131.0808 F15000.0
G1 Z11.9000 F8000.0
G1 X111.8192 Y-131.0808 F12000.0
G1 Z0.0000 F8000.0
G0 X141.5372 Y-124.1381 F15000.0
G1 Z11.9000 F8000.0
G1 X141.5372 Y-122.6141 F12000.0
G1 Z0.0000 F8000.0
G0 X166.5139 Y-129.0488 F15000.0
G1 Z11.9000 F8000.0
G1 X166.4292 Y-128.2868 F12000.0
G1 X166.3445 Y-127.4401 F12000.0
G1 X166.2599 Y-126.5934 F12000.0
G1 X166.1752 Y-125.8314 F12000.0
G1 X166.0905 Y-125.0695 F12000.0
G1 X166.0059 Y-124.5615 F12000.0
G1 Z0.0000 F8000.0
G0 X180.0000 Y-85.2520 F15000.0
G1 Z11.9000 F8000.0
G1 X179.2137 Y-86.0382 F12000.0
G1 Z0.0000 F8000.0
G0 X180.0000 Y-81.0396 F15000.0
G1 Z11.9000 F8000.0
G1 X178.5364 Y-82.5668 F12000.0
G1 Z0.0000 F8000.0
G0 X150.5119 Y-142.3414 F15000.0
G1 Z11.9000 F8000.0
G1 X148.5645 Y-144.3734 F12000.0
G1 Z0.0000 F8000.0
G0 X150.5119 Y-140.2248 F15000.0
G1 Z11.9000 F8000.0
G1 X146.4479 Y-144.3734 F12000.0
G1 Z0.0000 F8000.0
G0 X148.5645 Y-140.0554 F15000.0
G1 Z11.9000 F8000.0
G1 X144.3312 Y-144.3734 F12000.0
G1 Z0.0000 F8000.0
G0 X146.4479 Y-140.0554 F15000.0
G1 Z11.9000 F8000.0
G1 X142.2145 Y-144.3734 F12000.0
G1 Z0.0000 F8000.0
G0 X144.8392 Y-139.5474 F15000.0
G1 Z11.9000 F8000.0
G1 X140.9445 Y-143.5268 F12000.0
G1 Z0.0000 F8000.0
G0 X142.7225 Y-139.5474 F15000.0
G1 Z11.9000 F8000.0
G1 X139.6745 Y-142.5954 F12000.0
G1 Z0.0000 F8000.0
G0 X140.6059 Y-139.5474 F15000.0
G1 Z11.9000 F8000.0
G1 X137.5579 Y-142.5954 F12000.0
G1 Z0.0000 F8000.0
G0 X138.4892 Y-139.5474 F15000.0
G1 Z11.9000 F8000.0
G1 X135.4412 Y-142.5954 F12000.0
G1 Z0.0000 F8000.0
G0 X136.3725 Y-139.5474 F15000.0
G1 Z11.9000 F8000.0
G1 X133.3246 Y-142.5954 F12000.0
G1 Z0.0000 F8000.0
G0 X134.2559 Y-139.5474 F15000.0
G1 Z11.9000 F8000.0
G1 X131.2079 Y-142.5954 F12000.0
G1 Z0.0000 F8000.0
G0 X150.5119 Y-121.1748 F15000.0
G1 Z11.9000 F8000.0
G1 X149.5805 Y-122.1061 F12000.0
G1 Z0.0000 F8000.0
G0 X132.1392 Y-139.5474 F15000.0
G1 Z11.9000 F8000.0
G1 X129.0912 Y-142.5954 F12000.0
G1 Z0.0000 F8000.0
G0 X130.0226 Y-139.5474 F15000.0
G1 Z11.9000 F8000.0
G1 X126.9746 Y-142.5954 F12000.0
G1 Z0.0000 F8000.0
G0 X150.5119 Y-119.0581 F15000.0
G1 Z11.9000 F8000.0
G1 X147.4639 Y-122.1061 F12000.0
G1 Z0.0000 F8000.0
G0 X149.6652 Y-117.7881 F15000.0
G1 Z11.9000 F8000.0
G1 X144.8392 Y-122.6141 F12000.0
G1 Z0.0000 F8000.0
G0 X127.9059 Y-139.5474 F15000.0
G1 Z11.9000 F8000.0
G1 X124.8579 Y-142.5954 F12000.0
G1 Z0.0000 F8000.0
G0 X125.7046 Y-139.5474 F15000.0
G1 Z11.9000 F8000.0
G1 X122.9106 Y-142.3414 F12000.0
G1 Z0.0000 F8000.0
G0 X147.5485 Y-117.7881 F15000.0
G1 Z11.9000 F8000.0
G1 X142.7225 Y-122.6141 F12000.0
G1 Z0.0000 F8000.0
G0 X145.4319 Y-117.7881 F15000.0
G1 Z11.9000 F8000.0
G1 X140.6059 Y-122.5295 F12000.0
G1 Z0.0000 F8000.0
G0 X123.7572 Y-139.4628 F15000.0
G1 Z11.9000 F8000.0
G1 X121.3019 Y-141.9181 F12000.0
G1 Z0.0000 F8000.0
G0 X122.0639 Y-139.0394 F15000.0
G1 Z11.9000 F8000.0
G1 X119.7779 Y-141.3254 F12000.0
G1 Z0.0000 F8000.0
G0 X143.3152 Y-117.7881 F15000.0
G1 Z11.9000 F8000.0
G1 X138.4892 Y-122.5295 F12000.0
G1 Z0.0000 F8000.0
G0 X139.4205 Y-119.5661 F15000.0
G1 Z11.9000 F8000.0
G1 X136.3725 Y-122.5295 F12000.0
G1 Z0.0000 F8000.0
G0 X120.6246 Y-138.3621 F15000.0
G1 Z11.9000 F8000.0
G1 X118.4232 Y-140.4788 F12000.0
G1 Z0.0000 F8000.0
G0 X119.3546 Y-137.4308 F15000.0
G1 Z11.9000 F8000.0
G1 X117.2379 Y-139.5474 F12000.0
G1 Z0.0000 F8000.0
G0 X137.2192 Y-119.5661 F15000.0
G1 Z11.9000 F8000.0
G1 X134.2559 Y-122.5295 F12000.0
G1 Z0.0000 F8000.0
G0 X135.1025 Y-119.5661 F15000.0
G1 Z11.9000 F8000.0
G1 X132.1392 Y-122.5295 F12000.0
G1 Z0.0000 F8000.0
G0 X118.3386 Y-136.3301 F15000.0
G1 Z11.9000 F8000.0
G1 X116.2219 Y-138.4468 F12000.0
G1 Z0.0000 F8000.0
G0 X117.4919 Y-135.0601 F15000.0
G1 Z11.9000 F8000.0
G1 X115.3752 Y-137.2614 F12000.0
G1 Z0.0000 F8000.0
G0 X132.9859 Y-119.5661 F15000.0
G1 Z11.9000 F8000.0
G1 X130.0226 Y-122.5295 F12000.0
G1 Z0.0000 F8000.0
G0 X130.8692 Y-119.5661 F15000.0
G1 Z11.9000 F8000.0
G1 X127.9059 Y-122.5295 F12000.0
G1 Z0.0000 F8000.0
G0 X116.8992 Y-133.5361 F15000.0
G1 Z11.9000 F8000.0
G1 X114.6132 Y-135.9068 F12000.0
G1 Z0.0000 F8000.0
G0 X116.5606 Y-131.7581 F15000.0
G1 Z11.9000 F8000.0
G1 X114.0206 Y-134.2981 F12000.0
G1 Z0.0000 F8000.0
G0 X128.7526 Y-119.5661 F15000.0
G1 Z11.9000 F8000.0
G1 X125.7892 Y-122.5295 F12000.0
G1 Z0.0000 F8000.0
G0 X126.6359 Y-119.5661 F15000.0
G1 Z11.9000 F8000.0
G1 X123.5032 Y-122.6988 F12000.0
G1 Z0.0000 F8000.0
G0 X124.5192 Y-119.5661 F15000.0
G1 Z11.9000 F8000.0
G1 X119.4392 Y-124.7308 F12000.0
G1 Z0.0000 F8000.0
G0 X117.4072 Y-122.4448 F15000.0
G1 Z11.9000 F8000.0
G1 X116.4759 Y-123.4608 F12000.0
G1 Z0.0000 F8000.0
G0 X158.5552 Y-150.5541 F15000.0
G1 Z11.9000 F8000.0
G1 X150.5119 Y-142.5108 F12000.0
G1 Z0.0000 F8000.0
G0 X148.0565 Y-140.0554 F15000.0
G1 Z11.9000 F8000.0
G1 X145.0085 Y-137.0074 F12000.0
G1 Z0.0000 F8000.0
G0 X162.8732 Y-150.5541 F15000.0
G1 Z11.9000 F8000.0
G1 X147.3792 Y-135.0601 F12000.0
G1 Z0.0000 F8000.0
G0 X167.1065 Y-150.5541 F15000.0
G1 Z11.9000 F8000.0
G1 X162.3652 Y-145.8128 F12000.0
G1 Z0.0000 F8000.0
G0 X157.5392 Y-140.9868 F15000.0
G1 Z11.9000 F8000.0
G1 X151.6125 Y-135.0601 F12000.0
G1 Z0.0000 F8000.0
G0 X147.8025 Y-127.1014 F15000.0
G1 Z11.9000 F8000.0
G1 X145.0085 Y-124.2228 F12000.0
G1 Z0.0000 F8000.0
G0 X157.5392 Y-136.7534 F15000.0
G1 Z11.9000 F8000.0
G1 X155.8459 Y-135.0601 F12000.0
G1 Z0.0000 F8000.0
G0 X171.3398 Y-150.5541 F15000.0
G1 Z11.9000 F8000.0
G1 X166.5985 Y-145.8128 F12000.0
G1 Z0.0000 F8000.0
G0 X175.8271 Y-155.0414 F15000.0
G1 Z11.9000 F8000.0
G1 X175.4884 Y-154.7874 F12000.0
G1 Z0.0000 F8000.0
G0 X180.0000 Y-154.9809 F15000.0
G1 Z11.9000 F8000.0
G1 X170.8318 Y-145.8128 F12000.0
G1 Z0.0000 F8000.0
G0 X152.0359 Y-127.1014 F15000.0
G1 Z11.9000 F8000.0
G1 X147.0405 Y-122.1061 F12000.0
G1 Z0.0000 F8000.0
G0 X156.2692 Y-127.1014 F15000.0
G1 Z11.9000 F8000.0
G1 X150.5119 Y-121.2595 F12000.0
G1 Z0.0000 F8000.0
G0 X180.0000 Y-150.8248 F15000.0
G1 Z11.9000 F8000.0
G1 X175.0651 Y-145.8128 F12000.0
G1 Z0.0000 F8000.0
G0 X180.0000 Y-146.5143 F15000.0
G1 Z11.9000 F8000.0
G1 X179.2984 Y-145.8128 F12000.0
G1 Z0.0000 F8000.0
G0 X157.5392 Y-124.0535 F15000.0
G1 Z11.9000 F8000.0
G1 X150.5119 Y-117.1108 F12000.0
G1 Z0.0000 F8000.0
G0 X157.5392 Y-119.8201 F15000.0
G1 Z11.9000 F8000.0
G1 X152.6285 Y-114.9095 F12000.0
G1 Z0.0000 F8000.0
G0 X158.3012 Y-116.3488 F15000.0
G1 Z11.9000 F8000.0
G1 X154.4065 Y-112.4541 F12000.0
G1 Z0.0000 F8000.0
G0 X162.5345 Y-116.3488 F15000.0
G1 Z11.9000 F8000.0
G1 X157.7932 Y-111.6075 F12000.0
G1 Z0.0000 F8000.0
G0 X166.7679 Y-116.3488 F15000.0
G1 Z11.9000 F8000.0
G1 X162.0265 Y-111.6075 F12000.0
G1 Z0.0000 F8000.0
G0 X171.0012 Y-116.3488 F15000.0
G1 Z11.9000 F8000.0
G1 X166.2599 Y-111.6075 F12000.0
G1 Z0.0000 F8000.0
G0 X175.2344 Y-116.3488 F15000.0
G1 Z11.9000 F8000.0
G1 X170.4932 Y-111.6075 F12000.0
G1 Z0.0000 F8000.0
G0 X179.4677 Y-116.3488 F15000.0
G1 Z11.9000 F8000.0
G1 X174.7264 Y-111.6075 F12000.0
G1 Z0.0000 F8000.0
G0 X180.0000 Y-112.6477 F15000.0
G1 Z11.9000 F8000.0
G1 X175.4884 Y-108.1361 F12000.0
G1 Z0.0000 F8000.0
G0 X180.0000 Y-108.3298 F15000.0
G1 Z11.9000 F8000.0
G1 X178.7057 Y-107.0355 F12000.0
G1 Z0.0000 F8000.0
G0 X163.5505 Y-142.7648 F15000.0
G1 Z11.9000 F8000.0
G1 X162.0265 Y-144.2888 F12000.0
G1 Z0.0000 F8000.0
G0 X162.3652 Y-142.5954 F15000.0
G1 Z11.9000 F8000.0
G1 X160.5872 Y-144.2888 F12000.0
G1 Z0.0000 F8000.0
G0 X162.0265 Y-141.4948 F15000.0
G1 Z11.9000 F8000.0
G1 X159.4865 Y-143.9501 F12000.0
G1 Z0.0000 F8000.0
G0 X166.0059 Y-137.5154 F15000.0
G1 Z11.9000 F8000.0
G1 X165.6672 Y-137.8541 F12000.0
G1 Z0.0000 F8000.0
G0 X166.0059 Y-136.0761 F15000.0
G1 Z11.9000 F8000.0
G1 X164.2279 Y-137.8541 F12000.0
G1 Z0.0000 F8000.0
G0 X162.0265 Y-140.0554 F15000.0
G1 Z11.9000 F8000.0
G1 X159.4865 Y-142.5954 F12000.0
G1 Z0.0000 F8000.0
G0 X162.0265 Y-138.6161 F15000.0
G1 Z11.9000 F8000.0
G1 X159.4865 Y-141.1561 F12000.0
G1 Z0.0000 F8000.0
G0 X166.0059 Y-134.6368 F15000.0
G1 Z11.9000 F8000.0
G1 X162.8732 Y-137.8541 F12000.0
G1 Z0.0000 F8000.0
G0 X166.0059 Y-133.1974 F15000.0
G1 Z11.9000 F8000.0
G1 X159.4865 Y-139.7168 F12000.0
G1 Z0.0000 F8000.0
G0 X164.7359 Y-133.0281 F15000.0
G1 Z11.9000 F8000.0
G1 X159.4865 Y-138.3621 F12000.0
G1 Z0.0000 F8000.0
G0 X163.3812 Y-133.0281 F15000.0
G1 Z11.9000 F8000.0
G1 X159.4865 Y-136.9228 F12000.0
G1 Z0.0000 F8000.0
G0 X161.9419 Y-133.0281 F15000.0
G1 Z11.9000 F8000.0
G1 X159.4865 Y-135.4834 F12000.0
G1 Z0.0000 F8000.0
G0 X166.0059 Y-127.6094 F15000.0
G1 Z11.9000 F8000.0
G1 X164.5665 Y-129.0488 F12000.0
G1 Z0.0000 F8000.0
G0 X160.5025 Y-133.0281 F15000.0
G1 Z11.9000 F8000.0
G1 X159.4865 Y-134.0441 F12000.0
G1 Z0.0000 F8000.0
G0 X166.0059 Y-126.1701 F15000.0
G1 Z11.9000 F8000.0
G1 X163.1272 Y-129.0488 F12000.0
G1 Z0.0000 F8000.0
G0 X166.0059 Y-124.7308 F15000.0
G1 Z11.9000 F8000.0
G1 X161.6879 Y-129.0488 F12000.0
G1 Z0.0000 F8000.0
G0 X165.0745 Y-124.3075 F15000.0
G1 Z11.9000 F8000.0
G1 X160.2485 Y-129.0488 F12000.0
G1 Z0.0000 F8000.0
G0 X163.6352 Y-124.3075 F15000.0
G1 Z11.9000 F8000.0
G1 X159.4865 Y-128.4561 F12000.0
G1 Z0.0000 F8000.0
G0 X162.1959 Y-124.3075 F15000.0
G1 Z11.9000 F8000.0
G1 X159.4865 Y-127.0168 F12000.0
G1 Z0.0000 F8000.0
G0 X162.0265 Y-123.1221 F15000.0
G1 Z11.9000 F8000.0
G1 X159.4865 Y-125.5774 F12000.0
G1 Z0.0000 F8000.0
G0 X162.0265 Y-121.6828 F15000.0
G1 Z11.9000 F8000.0
G1 X159.4865 Y-124.1381 F12000.0
G1 Z0.0000 F8000.0
G0 X163.5505 Y-118.8041 F15000.0
G1 Z11.9000 F8000.0
G1 X162.7039 Y-119.5661 F12000.0
G1 Z0.0000 F8000.0
G0 X162.0265 Y-120.2435 F15000.0
G1 Z11.9000 F8000.0
G1 X159.4865 Y-122.7835 F12000.0
G1 Z0.0000 F8000.0
G0 X163.0425 Y-117.7881 F15000.0
G1 Z11.9000 F8000.0
G1 X159.4865 Y-121.3441 F12000.0
G1 Z0.0000 F8000.0
G0 X161.6032 Y-117.7881 F15000.0
G1 Z11.9000 F8000.0
G1 X159.4865 Y-119.9048 F12000.0
G1 Z0.0000 F8000.0
G0 X160.2485 Y-117.7881 F15000.0
G1 Z11.9000 F8000.0
G1 X159.4865 Y-118.5501 F12000.0
G1 Z0.0000 F8000.0
G0 X162.5345 Y-140.3094 F15000.0
G1 Z11.9000 F8000.0
G1 X162.0265 Y-139.8861 F12000.0
G1 Z0.0000 F8000.0
G0 X164.9899 Y-141.4101 F15000.0
G1 Z11.9000 F8000.0
G1 X163.0425 Y-139.4628 F12000.0
G1 Z0.0000 F8000.0
G0 X165.7519 Y-140.7328 F15000.0
G1 Z11.9000 F8000.0
G1 X163.7199 Y-138.7854 F12000.0
G1 Z0.0000 F8000.0
G0 X165.6672 Y-139.2934 F15000.0
G1 Z11.9000 F8000.0
G1 X165.2439 Y-138.7854 F12000.0
G1 Z0.0000 F8000.0
G0 X169.3925 Y-141.5794 F15000.0
G1 Z11.9000 F8000.0
G1 X167.9532 Y-140.1401 F12000.0
G1 Z0.0000 F8000.0
G0 X170.4085 Y-141.1561 F15000.0
G1 Z11.9000 F8000.0
G1 X168.2918 Y-139.0394 F12000.0
G1 Z0.0000 F8000.0
G0 X170.9165 Y-140.2248 F15000.0
G1 Z11.9000 F8000.0
G1 X169.2232 Y-138.6161 F12000.0
G1 Z0.0000 F8000.0
G0 X174.9804 Y-141.4948 F15000.0
G1 Z11.9000 F8000.0
G1 X173.0331 Y-139.5474 F12000.0
G1 Z0.0000 F8000.0
G0 X175.7424 Y-140.8174 F15000.0
G1 Z11.9000 F8000.0
G1 X173.7104 Y-138.7854 F12000.0
G1 Z0.0000 F8000.0
G0 X175.8271 Y-139.4628 F15000.0
G1 Z11.9000 F8000.0
G1 X174.9804 Y-138.7008 F12000.0
G1 Z0.0000 F8000.0
G0 X179.2984 Y-141.5794 F15000.0
G1 Z11.9000 F8000.0
G1 X177.9437 Y-140.2248 F12000.0
G1 Z0.0000 F8000.0
G0 X180.0000 Y-140.8416 F15000.0
G1 Z11.9000 F8000.0
G1 X178.2824 Y-139.1241 F12000.0
G1 Z0.0000 F8000.0
G0 X162.7039 Y-123.5455 F15000.0
G1 Z11.9000 F8000.0
G1 X162.0265 Y-122.8681 F12000.0
G1 Z0.0000 F8000.0
G0 X163.6352 Y-123.1221 F15000.0
G1 Z11.9000 F8000.0
G1 X162.0265 Y-121.4288 F12000.0
G1 Z0.0000 F8000.0
G0 X180.0000 Y-139.4454 F15000.0
G1 Z11.9000 F8000.0
G1 X179.1291 Y-138.6161 F12000.0
G1 Z0.0000 F8000.0
G0 X164.0585 Y-122.1061 F15000.0
G1 Z11.9000 F8000.0
G1 X162.5345 Y-120.5821 F12000.0
G1 Z0.0000 F8000.0
G0 X166.9372 Y-123.5455 F15000.0
G1 Z11.9000 F8000.0
G1 X165.4132 Y-122.0215 F12000.0
G1 Z0.0000 F8000.0
G0 X167.9532 Y-123.1221 F15000.0
G1 Z11.9000 F8000.0
G1 X165.8365 Y-121.0901 F12000.0
G1 Z0.0000 F8000.0
G0 X168.3765 Y-122.1908 F15000.0
G1 Z11.9000 F8000.0
G1 X166.7679 Y-120.5821 F12000.0
G1 Z0.0000 F8000.0
G0 X172.5252 Y-123.4608 F15000.0
G1 Z11.9000 F8000.0
G1 X170.5778 Y-121.5135 F12000.0
G1 Z0.0000 F8000.0
G0 X173.2024 Y-122.7835 F15000.0
G1 Z11.9000 F8000.0
G1 X171.2552 Y-120.7515 F12000.0
G1 Z0.0000 F8000.0
G0 X173.2024 Y-121.3441 F15000.0
G1 Z11.9000 F8000.0
G1 X172.6098 Y-120.7515 F12000.0
G1 Z0.0000 F8000.0
G0 X176.8431 Y-123.5455 F15000.0
G1 Z11.9000 F8000.0
G1 X175.4037 Y-122.1908 F12000.0
G1 Z0.0000 F8000.0
G0 X177.8591 Y-123.2068 F15000.0
G1 Z11.9000 F8000.0
G1 X175.8271 Y-121.0901 F12000.0
G1 Z0.0000 F8000.0
G0 X178.3671 Y-122.2755 F15000.0
G1 Z11.9000 F8000.0
G1 X176.7584 Y-120.5821 F12000.0
G1 Z0.0000 F8000.0
G0 X164.5665 Y-58.3522 F15000.0
G1 Z11.9000 F8000.0
G1 X180.0000 Y-76.8596 F12000.0
G1 Z0.0000 F8000.0
G0 X164.5665 Y-58.3522 F15000.0
G1 Z11.9000 F8000.0
G1 X164.5665 Y-48.7850 F12000.0
G1 Z0.0000 F8000.0
G0 X156.9335 Y-55.4944 F15000.0
G1 Z11.9000 F8000.0
G1 X157.1153 Y-55.3581 F12000.0
G1 X157.3426 Y-54.8126
G1 X158.2971 Y-53.4490
G1 Z0.0000 F8000.0
G0 X157.2517 Y-55.2671 F15000.0
G1 Z11.9000 F8000.0
G1 X157.7062 Y-55.2217 F12000.0
G1 X163.1153 Y-53.2217
G1 Z0.0000 F8000.0
G0 X160.2519 Y-113.6361 F15000.0
G1 Z11.9000 F8000.0
G1 X160.9225 Y-112.9655 F12000.0
G1 Z0.0000 F8000.0
G0 X135.9492 Y-58.3522 F15000.0
G1 Z11.9000 F8000.0
G1 X160.5872 Y-113.3008 F12000.0
G1 Z0.0000 F8000.0
G0 X135.9492 Y-58.3522 F15000.0
G1 Z11.9000 F8000.0
G1 X135.9492 Y-47.3456 F12000.0
G1 Z0.0000 F8000.0
G0 X130.1175 Y-54.7799 F15000.0
G1 Z11.9000 F8000.0
G1 X129.4811 Y-55.0981 F12000.0
G1 X129.2084 Y-55.1436
G1 X128.5720 Y-54.8708
G1 X128.2538 Y-54.4163
G1 X128.5266 Y-52.9618
G1 X128.8447 Y-52.5527
G1 Z0.0000 F8000.0
G0 X132.2538 Y-52.6436 F15000.0
G1 Z11.9000 F8000.0
G1 X134.6175 Y-50.5072 F12000.0
G1 X134.6175 Y-53.1436
G1 Z0.0000 F8000.0
G0 X145.9856 Y-120.8327 F15000.0
G1 Z11.9000 F8000.0
G1 X146.6562 Y-120.1622 F12000.0
G1 Z0.0000 F8000.0
G0 X116.3066 Y-58.3522 F15000.0
G1 Z11.9000 F8000.0
G1 X146.2785 Y-120.4975 F12000.0
G1 Z0.0000 F8000.0
G0 X116.3066 Y-58.3522 F15000.0
G1 Z11.9000 F8000.0
G1 X116.3066 Y-47.8536 F12000.0
G1 Z0.0000 F8000.0
G0 X108.6293 Y-54.5848 F15000.0
G1 Z11.9000 F8000.0
G1 X108.5384 Y-54.3576 F12000.0
G1 X108.5384 Y-53.2667
G1 Z0.0000 F8000.0
G0 X108.9020 Y-54.8576 F15000.0
G1 Z11.9000 F8000.0
G1 X109.9475 Y-54.8121 F12000.0
G1 X110.7202 Y-54.4485
G1 X110.9475 Y-54.2667
G1 Z0.0000 F8000.0
G0 X111.1293 Y-54.0394 F15000.0
G1 Z11.9000 F8000.0
G1 X111.4929 Y-53.7212 F12000.0
G1 X111.5384 Y-53.1303
G1 Z0.0000 F8000.0
G0 X111.9020 Y-53.9939 F15000.0
G1 Z11.9000 F8000.0
G1 X112.4929 Y-54.1303 F12000.0
G1 X114.1293 Y-53.4939
G1 X114.3111 Y-53.3576
G1 Z0.0000 F8000.0
G0 X114.6748 Y-52.9939 F15000.0
G1 Z11.9000 F8000.0
G1 X114.8566 Y-52.6303 F12000.0
G1 X115.0384 Y-50.7667
G1 Z0.0000 F8000.0
G0 X144.6699 Y-201.4386 F15000.0
G1 Z11.9000 F8000.0
G1 X180.0000 Y-149.2810 F12000.0
G1 Z0.0000 F8000.0
G0 X144.6699 Y-201.4386 F15000.0
G1 Z11.9000 F8000.0
G1 X144.6699 Y-212.4453 F12000.0
G1 Z0.0000 F8000.0
G0 X136.8133 Y-207.7284 F15000.0
G1 Z11.9000 F8000.0
G1 X141.0405 Y-205.3647 F12000.0
G1 X141.8133 Y-205.0920
G1 X141.9042 Y-206.7738
G1 X143.4042 Y-206.3193
G1 Z0.0000 F8000.0
G0 X140.4951 Y-207.4102 F15000.0
G1 Z11.9000 F8000.0
G1 X141.8133 Y-207.0011 F12000.0
G1 X141.9042 Y-206.7738
G1 Z0.0000 F8000.0
G0 X141.8587 Y-207.7284 F15000.0
G1 Z11.9000 F8000.0
G1 X141.8587 Y-207.0465 F12000.0
G1 Z0.0000 F8000.0
G0 X160.1102 Y-141.6331 F15000.0
G1 Z11.9000 F8000.0
G1 X160.8102 Y-140.9331 F12000.0
G1 Z0.0000 F8000.0
G0 X123.6726 Y-201.4386 F15000.0
G1 Z11.9000 F8000.0
G1 X160.5025 Y-141.2408 F12000.0
G1 Z0.0000 F8000.0
G0 X123.6726 Y-201.4386 F15000.0
G1 Z11.9000 F8000.0
G1 X123.6726 Y-211.9373 F12000.0
G1 Z0.0000 F8000.0
G0 X115.8189 Y-209.0951 F15000.0
G1 Z11.9000 F8000.0
G1 X118.8189 Y-205.7315 F12000.0
G1 X118.9553 Y-207.2315
G1 X119.0917 Y-207.4133
G1 X119.7280 Y-207.7315
G1 X120.3644 Y-207.5951
G1 X121.6826 Y-206.9587
G1 Z0.0000 F8000.0
G0 X122.0462 Y-206.5951 F15000.0
G1 Z11.9000 F8000.0
G1 X122.4098 Y-204.6860 F12000.0
G1 X122.4098 Y-204.3678
G1 Z0.0000 F8000.0
G0 X171.5549 Y-122.6107 F15000.0
G1 Z11.9000 F8000.0
G1 X172.2255 Y-121.9402 F12000.0
G1 Z0.0000 F8000.0
G0 X148.3952 Y-58.3522 F15000.0
G1 Z11.9000 F8000.0
G1 X171.9325 Y-122.2755 F12000.0
G1 Z0.0000 F8000.0
G0 X148.3952 Y-58.3522 F15000.0
G1 Z11.9000 F8000.0
G1 X148.3952 Y-47.3456 F12000.0
G1 Z0.0000 F8000.0
G0 X104.9612 Y-152.8401 F15000.0
G1 Z11.9000 F8000.0
G1 X135.1872 Y-130.8268 F12000.0
G1 Z0.0000 F8000.0
G0 X104.9612 Y-152.8401 F15000.0
G1 Z11.9000 F8000.0
G1 X104.9612 Y-163.8466 F12000.0
G1 Z0.0000 F8000.0
G0 X173.9954 Y-276.7608 F15000.0
G1 Z11.9000 F8000.0
G1 X174.6954 Y-276.0608 F12000.0
G1 Z0.0000 F8000.0
G0 X152.5439 Y-253.6779 F15000.0
G1 Z11.9000 F8000.0
G1 X174.3877 Y-276.3684 F12000.0
G1 Z0.0000 F8000.0
G0 X152.5439 Y-253.6779 F15000.0
G1 Z11.9000 F8000.0
G1 X162.5345 Y-253.6779 F12000.0
G1 Z0.0000 F8000.0
G0 X152.5439 Y-253.6779 F15000.0
G1 Z11.9000 F8000.0
G1 X152.5439 Y-242.6712 F12000.0
G1 Z0.0000 F8000.0
G0 X162.5345 Y-253.6779 F15000.0
G1 Z11.9000 F8000.0
G1 X162.5345 Y-242.6712 F12000.0
G1 Z0.0000 F8000.0
G0 X104.9612 Y-172.0593 F15000.0
G1 Z11.9000 F8000.0
G1 X140.8599 Y-131.0808 F12000.0
G1 Z0.0000 F8000.0
G0 X104.9612 Y-172.0593 F15000.0
G1 Z11.9000 F8000.0
G1 X104.9612 Y-186.0293 F12000.0
G1 Z0.0000 F8000.0
G0 X180.0000 Y-21.3530 F15000.0
G1 Z11.9000 F8000.0
G1 X104.8495 Y-21.3530 F12000.0
G1 Z0.0000 F8000.0
G0 X180.0000 Y-9.3303 F15000.0
G1 Z11.9000 F8000.0
G1 X104.8495 Y-9.3303 F12000.0
G1 Z0.0000 F8000.0
G0 X180.0000 Y-14.3257 F15000.0
G1 Z11.9000 F8000.0
G1 X104.8495 Y-14.3257 F12000.0
G1 Z0.0000 F8000.0
G0 X146.5325 Y-21.3530 F15000.0
G1 Z11.9000 F8000.0
G1 X146.5325 Y-9.3303 F12000.0
G1 Z0.0000 F8000.0
G0 X151.8334 Y-239.5476 F15000.0
G1 Z11.9000 F8000.0
G1 X151.4729 Y-238.2136 F12000.0
G1 X152.1758 Y-238.0236
G1 X152.1334 Y-237.9476
G1 Z0.0000 F8000.0
G0 X158.3334 Y-239.6476 F15000.0
G1 Z11.9000 F8000.0
G1 X158.1014 Y-239.5808 F12000.0
G1 X158.0021 Y-239.3828
G1 X157.9409 Y-238.8693
G1 X157.9831 Y-237.9627
G1 X158.0822 Y-237.7640
G1 X158.7016 Y-237.7761
G1 X158.7373 Y-237.9629
G1 X158.3895 Y-239.0737
G1 X158.3971 Y-239.5588
G1 X158.4500 Y-239.3780
G1 X158.3247 Y-239.0498
G1 X157.9334 Y-239.0476
G1 Z0.0000 F8000.0
G0 X156.5834 Y-239.0476 F15000.0
G1 Z11.9000 F8000.0
G1 X156.6579 Y-237.7758 F12000.0
G1 X157.2052 Y-237.7249
G1 X157.2640 Y-237.7961
G1 X157.2800 Y-238.6841
G1 X157.1137 Y-238.9555
G1 X156.0611 Y-239.0097
G1 X155.9870 Y-238.8141
G1 X155.9834 Y-237.7476
G1 Z0.0000 F8000.0
G0 X155.2334 Y-237.7976 F15000.0
G1 Z11.9000 F8000.0
G1 X155.2198 Y-238.8818 F12000.0
G1 X154.7293 Y-238.9874
G1 X154.9808 Y-239.0214
G1 X155.1175 Y-238.9299
G1 X154.5511 Y-238.8667
G1 X154.4473 Y-238.1618
G1 X154.4817 Y-237.9181
G1 X154.7525 Y-237.7048
G1 X155.0030 Y-237.7123
G1 X155.2229 Y-237.8222
G1 X155.1334 Y-237.6976
G1 Z0.0000 F8000.0
G0 X143.0486 Y-233.0287 F15000.0
G1 Z11.9000 F8000.0
G1 X142.0378 Y-232.9882 F12000.0
G1 X141.4128 Y-232.5439
G1 X141.3408 Y-232.1721
G1 X141.2817 Y-229.1330
G1 X141.8093 Y-228.5481
G1 X143.0486 Y-228.5287
G1 Z0.0000 F8000.0
G0 X142.4486 Y-227.4287 F15000.0
G1 Z11.9000 F8000.0
G1 X142.4486 Y-227.1287 F12000.0
G1 Z0.0000 F8000.0
G0 X145.5486 Y-228.5287 F15000.0
G1 Z11.9000 F8000.0
G1 X145.4326 Y-232.4309 F12000.0
G1 X145.0737 Y-232.3439
G1 X144.6486 Y-231.9287
G1 Z0.0000 F8000.0
G0 X148.0486 Y-232.9287 F15000.0
G1 Z11.9000 F8000.0
G1 X147.8546 Y-232.3396 F12000.0
G1 X147.9486 Y-228.5287
G1 Z0.0000 F8000.0

G0 Z0.0000 F800.0
G4 P0.06
G0 X0.0000 Y0.0000 F15000.0
M5
G4 P0.10
$1=0
