$X
$1=255
G21
G90
G92 Z4.0000
G0 Z0.0000 F800.0
G4 P0.06
G92 Z0.0000
G0 Z0.0000 F800.0
G0 X0.0000 Y0.0000 F15000.0
G21
G90
G17
G91.1
G0 Z0.0000
G0 X96.9429 Y-257.0199 F15000.0
G1 Z11.9000 F2500.0
G4 P0.02
G1 X98.1969 Y-257.1870 F2200.0
G1 X98.7194 Y-257.7514
G1 X98.9911 Y-258.5039
G1 X99.0538 Y-258.9218
G1 Z0.0000 F2500.0
G4 P0.02
G0 X98.9702 Y-259.1099 F15000.0
G1 Z11.9000 F2500.0
G4 P0.02
G1 X98.6985 Y-259.2772 F2200.0
G1 X97.7998 Y-259.3608
G1 X97.9879 Y-260.0714
G1 Z0.0000 F2500.0
G4 P0.02
G0 X98.1550 Y-260.5312 F15000.0
G1 Z11.9000 F2500.0
G4 P0.02
G1 X98.3849 Y-261.1791 F2200.0
G1 Z0.0000 F2500.0
G4 P0.02
G0 X98.4686 Y-261.2628 F15000.0
G1 Z11.9000 F2500.0
G4 P0.02
G1 X99.9734 Y-261.2837 F2200.0
G1 Z0.0000 F2500.0
G4 P0.02
G0 X98.7403 Y-257.7932 F15000.0
G1 Z11.9000 F2500.0
G4 P0.02
G1 X98.7612 Y-257.8559 F2200.0
G1 Z0.0000 F2500.0
G4 P0.02
G0 X99.9526 Y-257.0407 F15000.0
G1 Z11.9000 F2500.0
G4 P0.02
G1 X100.8931 Y-257.5633 F2200.0
G1 X101.5411 Y-258.2530
G1 X102.1889 Y-259.5907
G1 Z0.0000 F2500.0
G4 P0.02
G0 X102.2934 Y-259.8833 F15000.0
G1 Z11.9000 F2500.0
G4 P0.02
G1 X102.5233 Y-260.9283 F2200.0
G1 X102.2934 Y-261.2209
G1 X102.1681 Y-261.2628
G1 X101.1439 Y-261.1373
G1 X100.7050 Y-260.7611
G1 X100.3288 Y-259.8415
G1 X100.3497 Y-259.2145
G1 Z0.0000 F2500.0
G4 P0.02
G0 X100.5378 Y-259.0473 F15000.0
G1 Z11.9000 F2500.0
G4 P0.02
G1 X101.8546 Y-258.9846 F2200.0
G1 Z0.0000 F2500.0
G4 P0.02
G0 X102.2796 Y-265.7589 F15000.0
G1 Z11.9000 F2500.0
G4 P0.02
G1 X102.3842 Y-265.7798 F2200.0
G1 X103.0739 Y-266.8876
G1 Z0.0000 F2500.0
G4 P0.02
G0 X102.8021 Y-269.5837 F15000.0
G1 Z11.9000 F2500.0
G4 P0.02
G1 X102.9903 Y-270.0017 F2200.0
G1 X104.9341 Y-270.0854
G1 X104.7877 Y-269.7718
G1 Z0.0000 F2500.0
G4 P0.02
G0 X103.5337 Y-267.6609 F15000.0
G1 Z11.9000 F2500.0
G4 P0.02
G1 X104.3698 Y-269.0612 F2200.0
G1 X104.3070 Y-268.9567
G1 Z0.0000 F2500.0
G4 P0.02
G0 X104.3488 Y-265.8216 F15000.0
G1 Z11.9000 F2500.0
G4 P0.02
G1 X105.6656 Y-266.0306 F2200.0
G1 X105.8119 Y-266.1560
G1 Z0.0000 F2500.0
G4 P0.02
G0 X106.2926 Y-267.9744 F15000.0
G1 Z11.9000 F2500.0
G4 P0.02
G1 X105.1848 Y-268.1624 F2200.0
G1 X105.3730 Y-268.8522
G1 Z0.0000 F2500.0
G4 P0.02
G0 X105.4983 Y-269.1866 F15000.0
G1 Z11.9000 F2500.0
G4 P0.02
G1 X105.5193 Y-269.2494 F2200.0
G1 Z0.0000 F2500.0
G4 P0.02
G0 X105.7074 Y-269.7509 F15000.0
G1 Z11.9000 F2500.0
G4 P0.02
G1 X105.7910 Y-269.9808 F2200.0
G1 Z0.0000 F2500.0
G4 P0.02
G0 X105.8746 Y-270.0644 F15000.0
G1 Z11.9000 F2500.0
G4 P0.02
G1 X107.5049 Y-270.1480 F2200.0
G1 Z0.0000 F2500.0
G4 P0.02
G0 X106.1045 Y-266.5322 F15000.0
G1 Z11.9000 F2500.0
G4 P0.02
G1 X106.0418 Y-266.3859 F2200.0
G1 X106.3135 Y-267.0756
G1 X106.4598 Y-267.7236
G1 Z0.0000 F2500.0
G4 P0.02
G0 X96.5969 Y-248.9454 F15000.0
G1 Z11.9000 F2500.0
G4 P0.02
G1 X96.5342 Y-249.0500 F2200.0
G1 X96.8686 Y-250.3249
G1 Z0.0000 F2500.0
G4 P0.02
G0 X96.7850 Y-248.7783 F15000.0
G1 Z11.9000 F2500.0
G4 P0.02
G1 X97.7464 Y-248.7783 F2200.0
G1 X98.2899 Y-249.1545
G1 X98.4989 Y-249.4889
G1 X98.6661 Y-250.8266
G1 X98.5406 Y-251.0146
G1 X98.6034 Y-251.1609
G1 Z0.0000 F2500.0
G4 P0.02
G0 X97.1194 Y-250.6384 F15000.0
G1 Z11.9000 F2500.0
G4 P0.02
G1 X97.5583 Y-250.9519 F2200.0
G1 X98.5198 Y-251.0356
G1 Z0.0000 F2500.0
G4 P0.02
G0 X97.6419 Y-251.0773 F15000.0
G1 Z11.9000 F2500.0
G4 P0.02
G1 X97.5165 Y-251.3908 F2200.0
G1 X97.6629 Y-252.1433
G1 X98.1854 Y-252.7703
G1 X98.4989 Y-252.9166
G1 X99.0423 Y-252.9585
G1 X99.2931 Y-252.6867
G1 X99.3349 Y-252.2687
G1 X99.1677 Y-251.8507
G1 X99.2304 Y-251.9970
G1 Z0.0000 F2500.0
G4 P0.02
G0 X97.7882 Y-252.3941 F15000.0
G1 Z11.9000 F2500.0
G4 P0.02
G1 X97.8509 Y-252.4568 F2200.0
G1 Z0.0000 F2500.0
G4 P0.02
G0 X98.5198 Y-249.5307 F15000.0
G1 Z11.9000 F2500.0
G4 P0.02
G1 X98.5406 Y-249.6143 F2200.0
G1 Z0.0000 F2500.0
G4 P0.02
G0 X98.8751 Y-251.3700 F15000.0
G1 Z11.9000 F2500.0
G4 P0.02
G1 X99.1468 Y-251.8089 F2200.0
G1 Z0.0000 F2500.0
G4 P0.02
G0 X129.4821 Y-182.6453 F15000.0
G1 Z11.9000 F2500.0
G4 P0.02
G1 X130.9034 Y-186.5747 F2200.0
G1 X131.0915 Y-186.8464
G1 Z0.0000 F2500.0
G4 P0.02
G0 X129.5658 Y-185.6969 F15000.0
G1 Z11.9000 F2500.0
G4 P0.02
G1 X129.7957 Y-185.9268 F2200.0
G1 Z0.0000 F2500.0
G4 P0.02
G0 X130.2973 Y-186.2612 F15000.0
G1 Z11.9000 F2500.0
G4 P0.02
G1 X130.7989 Y-186.4911 F2200.0
G1 Z0.0000 F2500.0
G4 P0.02
G0 X131.2378 Y-184.8400 F15000.0
G1 Z11.9000 F2500.0
G4 P0.02
G1 X132.6800 Y-184.6936 F2200.0
G1 X132.7845 Y-184.5682
G1 X132.7218 Y-183.8993
G1 X132.3247 Y-182.9588
G1 X131.9693 Y-182.6871
G1 X130.7362 Y-182.6662
G1 X130.5480 Y-182.9588
G1 X130.6316 Y-183.4395
G1 X131.3841 Y-185.3415
G1 X131.8230 Y-185.8641
G1 Z0.0000 F2500.0
G4 P0.02
G0 X132.0321 Y-186.0731 F15000.0
G1 Z11.9000 F2500.0
G4 P0.02
G1 X133.1189 Y-186.7628 F2200.0
G1 Z0.0000 F2500.0
G4 P0.02
G0 X128.4184 Y-213.1133 F15000.0
G1 Z11.9000 F2500.0
G4 P0.02
G1 X129.0662 Y-212.0891 F2200.0
G1 Z0.0000 F2500.0
G4 P0.02
G0 X128.5020 Y-210.8978 F15000.0
G1 Z11.9000 F2500.0
G4 P0.02
G1 X128.6064 Y-209.2674 F2200.0
G1 X130.1322 Y-208.7031
G1 X130.4875 Y-208.6404
G1 X130.5920 Y-209.6646
G1 X130.7383 Y-209.8527
G1 Z0.0000 F2500.0
G4 P0.02
G0 X128.8782 Y-207.8671 F15000.0
G1 Z11.9000 F2500.0
G4 P0.02
G1 X129.1081 Y-207.6999 F2200.0
G1 Z0.0000 F2500.0
G4 P0.02
G0 X129.3380 Y-211.7756 F15000.0
G1 Z11.9000 F2500.0
G4 P0.02
G1 X129.7351 Y-211.4412 F2200.0
G1 Z0.0000 F2500.0
G4 P0.02
G0 X129.6306 Y-207.3446 F15000.0
G1 Z11.9000 F2500.0
G4 P0.02
G1 X129.8397 Y-207.2401 F2200.0
G1 X129.8605 Y-207.1356
G1 X131.8461 Y-205.8815
G1 X131.8670 Y-205.7770
G1 X132.8285 Y-205.1709
G1 Z0.0000 F2500.0
G4 P0.02
G0 X131.8879 Y-205.9024 F15000.0
G1 Z11.9000 F2500.0
G4 P0.02
G1 X131.7207 Y-206.8220 F2200.0
G1 X131.2400 Y-207.3655
G1 X130.9892 Y-207.5118
G1 X130.1322 Y-207.5327
G1 X129.9232 Y-207.3446
G1 X129.8187 Y-207.0729
G1 X129.9023 Y-206.4041
G1 Z0.0000 F2500.0
G4 P0.02
G0 X130.0068 Y-211.2321 F15000.0
G1 Z11.9000 F2500.0
G4 P0.02
G1 X130.4875 Y-211.0650 F2200.0
G1 X130.7593 Y-212.6325
G1 X131.3236 Y-212.6325
G1 X132.3268 Y-212.2145
G1 X132.7448 Y-211.6292
G1 X132.7448 Y-210.6679
G1 Z0.0000 F2500.0
G4 P0.02
G0 X130.0904 Y-206.0487 F15000.0
G1 Z11.9000 F2500.0
G4 P0.02
G1 X130.6130 Y-205.5889 F2200.0
G1 X131.1145 Y-205.4217
G1 X131.5535 Y-205.4635
G1 X131.8251 Y-205.7143
G1 Z0.0000 F2500.0
G4 P0.02
G0 X130.4875 Y-211.0650 F15000.0
G1 Z11.9000 F2500.0
G4 P0.02
G1 X131.6789 Y-210.5633 F2200.0
G1 X132.4104 Y-210.4170
G1 X132.5776 Y-210.4797
G1 Z0.0000 F2500.0
G4 P0.02
G0 X130.8429 Y-209.8945 F15000.0
G1 Z11.9000 F2500.0
G4 P0.02
G1 X131.4699 Y-209.8108 F2200.0
G1 X132.2432 Y-209.4973
G1 Z0.0000 F2500.0
G4 P0.02
G0 X132.4731 Y-209.2674 F15000.0
G1 Z11.9000 F2500.0
G4 P0.02
G1 X132.6403 Y-209.0585 F2200.0
G1 X132.9329 Y-207.5745
G1 Z0.0000 F2500.0
G4 P0.02
G0 X141.2548 Y-213.7820 F15000.0
G1 Z11.9000 F2500.0
G4 P0.02
G1 X141.3175 Y-212.6743 F2200.0
G1 X141.6311 Y-212.2771
G1 X143.6166 Y-211.4621
G1 Z0.0000 F2500.0
G4 P0.02
G0 X143.9929 Y-210.4170 F15000.0
G1 Z11.9000 F2500.0
G4 P0.02
G1 X142.1536 Y-211.1486 F2200.0
G1 X141.5057 Y-211.2113
G1 X141.2548 Y-211.0022
G1 X141.2548 Y-210.0199
G1 X141.6311 Y-209.4765
G1 X142.0909 Y-209.2257
G1 X143.2404 Y-209.0375
G1 X143.3450 Y-209.1211
G1 Z0.0000 F2500.0
G4 P0.02
G0 X141.4221 Y-213.9702 F15000.0
G1 Z11.9000 F2500.0
G4 P0.02
G1 X142.4462 Y-213.8447 F2200.0
G1 Z0.0000 F2500.0
G4 P0.02
G0 X141.5266 Y-208.1179 F15000.0
G1 Z11.9000 F2500.0
G4 P0.02
G1 X141.6520 Y-208.0343 F2200.0
G1 Z0.0000 F2500.0
G4 P0.02
G0 X142.2790 Y-207.6163 F15000.0
G1 Z11.9000 F2500.0
G4 P0.02
G1 X142.4881 Y-207.5118 F2200.0
G1 X142.5089 Y-207.4073
G1 X142.9688 Y-207.1355
G1 Z0.0000 F2500.0
G4 P0.02
G0 X142.8016 Y-207.8253 F15000.0
G1 Z11.9000 F2500.0
G4 P0.02
G1 X142.5717 Y-207.6163 F2200.0
G1 X142.4671 Y-207.3446
G1 X142.5507 Y-206.6757
G1 X142.9060 Y-206.1533
G1 Z0.0000 F2500.0
G4 P0.02
G0 X142.8433 Y-213.6984 F15000.0
G1 Z11.9000 F2500.0
G4 P0.02
G1 X144.9543 Y-212.8833 F2200.0
G1 Z0.0000 F2500.0
G4 P0.02
G0 X142.9060 Y-207.8880 F15000.0
G1 Z11.9000 F2500.0
G4 P0.02
G1 X143.6376 Y-207.7835 F2200.0
G1 X144.2855 Y-207.2610
G1 X144.4318 Y-206.9892
G1 X144.5363 Y-206.1741
G1 X143.2614 Y-206.9475
G1 Z0.0000 F2500.0
G4 P0.02
G0 X143.0941 Y-205.9651 F15000.0
G1 Z11.9000 F2500.0
G4 P0.02
G1 X143.1359 Y-205.9234 F2200.0
G1 Z0.0000 F2500.0
G4 P0.02
G0 X143.3867 Y-205.7979 F15000.0
G1 Z11.9000 F2500.0
G4 P0.02
G1 X144.1183 Y-205.6935 F2200.0
G1 X144.4109 Y-205.9234
G1 Z0.0000 F2500.0
G4 P0.02
G0 X143.4286 Y-209.2257 F15000.0
G1 Z11.9000 F2500.0
G4 P0.02
G1 X143.4913 Y-210.5633 F2200.0
G1 Z0.0000 F2500.0
G4 P0.02
G0 X143.9511 Y-211.3366 F15000.0
G1 Z11.9000 F2500.0
G4 P0.02
G1 X144.4109 Y-211.1694 F2200.0
G1 X145.1424 Y-211.0858
G1 Z0.0000 F2500.0
G4 P0.02
G0 X144.2646 Y-210.2079 F15000.0
G1 Z11.9000 F2500.0
G4 P0.02
G1 X144.6617 Y-209.8736 F2200.0
G1 Z0.0000 F2500.0
G4 P0.02
G0 X144.5154 Y-206.0487 F15000.0
G1 Z11.9000 F2500.0
G4 P0.02
G1 X144.9752 Y-205.7770 F2200.0
G1 Z0.0000 F2500.0
G4 P0.02
G0 X144.9125 Y-209.6019 F15000.0
G1 Z11.9000 F2500.0
G4 P0.02
G1 X145.4142 Y-208.6823 F2200.0
G1 X145.5605 Y-208.5777
G1 Z0.0000 F2500.0
G4 P0.02
G0 X145.2051 Y-212.6116 F15000.0
G1 Z11.9000 F2500.0
G4 P0.02
G1 X145.4142 Y-212.1727 F2200.0
G1 X145.3932 Y-211.3157
G1 Z0.0000 F2500.0
G4 P0.02
G0 X145.4142 Y-205.4844 F15000.0
G1 Z11.9000 F2500.0
G4 P0.02
G1 X145.4769 Y-205.4426 F2200.0
G1 Z0.0000 F2500.0
G4 P0.02
G0 X87.1789 Y-161.0107 F15000.0
G1 Z11.9000 F2500.0
G4 P0.02
G1 X88.5165 Y-164.8565 F2200.0
G1 X88.8091 Y-165.3372
G1 Z0.0000 F2500.0
G4 P0.02
G0 X87.2625 Y-164.1041 F15000.0
G1 Z11.9000 F2500.0
G4 P0.02
G1 X87.6596 Y-164.4385 F2200.0
G1 Z0.0000 F2500.0
G4 P0.02
G0 X87.9522 Y-164.6266 F15000.0
G1 Z11.9000 F2500.0
G4 P0.02
G1 X88.2240 Y-164.8147 F2200.0
G1 X88.4956 Y-164.8774
G1 Z0.0000 F2500.0
G4 P0.02
G0 X87.9731 Y-160.9062 F15000.0
G1 Z11.9000 F2500.0
G4 P0.02
G1 X88.2240 Y-160.9898 F2200.0
G1 X88.3076 Y-161.2197
G1 Z0.0000 F2500.0
G4 P0.02
G0 X88.2449 Y-160.9898 F15000.0
G1 Z11.9000 F2500.0
G4 P0.02
G1 X89.8751 Y-160.9271 F2200.0
G1 Z0.0000 F2500.0
G4 P0.02
G0 X89.2690 Y-164.4176 F15000.0
G1 Z11.9000 F2500.0
G4 P0.02
G1 X89.7915 Y-164.9401 F2200.0
G1 Z0.0000 F2500.0
G4 P0.02
G0 X89.4989 Y-162.4320 F15000.0
G1 Z11.9000 F2500.0
G4 P0.02
G1 X91.1291 Y-164.2504 F2200.0
G1 X91.1501 Y-164.7938
G1 Z0.0000 F2500.0
G4 P0.02
G0 X90.0632 Y-165.0655 F15000.0
G1 Z11.9000 F2500.0
G4 P0.02
G1 X90.8156 Y-165.1073 F2200.0
G1 X91.0874 Y-164.9191
G1 Z0.0000 F2500.0
G4 P0.02
G0 X93.9528 Y-151.1246 F15000.0
G1 Z11.9000 F2500.0
G4 P0.02
G1 X95.2905 Y-154.9704 F2200.0
G1 X95.5830 Y-155.4511
G1 Z0.0000 F2500.0
G4 P0.02
G0 X94.0364 Y-154.2180 F15000.0
G1 Z11.9000 F2500.0
G4 P0.02
G1 X94.4335 Y-154.5524 F2200.0
G1 Z0.0000 F2500.0
G4 P0.02
G0 X94.7261 Y-154.7405 F15000.0
G1 Z11.9000 F2500.0
G4 P0.02
G1 X94.9978 Y-154.9286 F2200.0
G1 X95.2695 Y-154.9913
G1 Z0.0000 F2500.0
G4 P0.02
G0 X95.1650 Y-152.1905 F15000.0
G1 Z11.9000 F2500.0
G4 P0.02
G1 X95.0396 Y-151.7934 F2200.0
G1 X95.0396 Y-151.4172
G1 X95.1232 Y-151.2709
G1 Z0.0000 F2500.0
G4 P0.02
G0 X95.0814 Y-151.9398 F15000.0
G1 Z11.9000 F2500.0
G4 P0.02
G1 X95.1023 Y-152.0234 F2200.0
G1 Z0.0000 F2500.0
G4 P0.02
G0 X95.2905 Y-151.1037 F15000.0
G1 Z11.9000 F2500.0
G4 P0.02
G1 X96.1264 Y-151.0620 F2200.0
G1 X96.8580 Y-151.5218
G1 X97.1506 Y-152.1488
G1 Z0.0000 F2500.0
G4 P0.02
G0 X95.3113 Y-152.5668 F15000.0
G1 Z11.9000 F2500.0
G4 P0.02
G1 X95.7920 Y-153.8418 F2200.0
G1 Z0.0000 F2500.0
G4 P0.02
G0 X95.9592 Y-154.2807 F15000.0
G1 Z11.9000 F2500.0
G4 P0.02
G1 X95.8965 Y-154.1134 F2200.0
G1 X96.2727 Y-154.8868
G1 X96.6281 Y-155.1585
G1 X97.6522 Y-155.2839
G1 X97.7776 Y-155.2421
G1 Z0.0000 F2500.0
G4 P0.02
G0 X96.4400 Y-151.2083 F15000.0
G1 Z11.9000 F2500.0
G4 P0.02
G1 X96.5654 Y-151.2709 F2200.0
G1 Z0.0000 F2500.0
G4 P0.02
G0 X97.3596 Y-152.7340 F15000.0
G1 Z11.9000 F2500.0
G4 P0.02
G1 X97.9448 Y-155.0749 F2200.0
G1 Z0.0000 F2500.0
G4 P0.02
G0 X98.0911 Y-152.5250 F15000.0
G1 Z11.9000 F2500.0
G4 P0.02
G1 X97.8403 Y-151.7934 F2200.0
G1 X97.8821 Y-151.3128
G1 X98.1747 Y-151.0828
G1 X99.3870 Y-151.2919
G1 Z0.0000 F2500.0
G4 P0.02
G0 X97.8821 Y-151.9398 F15000.0
G1 Z11.9000 F2500.0
G4 P0.02
G1 X97.9031 Y-152.0234 F2200.0
G1 Z0.0000 F2500.0
G4 P0.02
G0 X98.2166 Y-152.8594 F15000.0
G1 Z11.9000 F2500.0
G4 P0.02
G1 X98.9480 Y-154.7405 F2200.0
G1 X99.4288 Y-155.1585
G1 X100.4529 Y-155.2839
G1 X100.5784 Y-155.2421
G1 Z0.0000 F2500.0
G4 P0.02
G0 X98.9690 Y-154.7823 F15000.0
G1 Z11.9000 F2500.0
G4 P0.02
G1 X99.0108 Y-154.8241 F2200.0
G1 Z0.0000 F2500.0
G4 P0.02
G0 X99.7214 Y-151.6471 F15000.0
G1 Z11.9000 F2500.0
G4 P0.02
G1 X100.3066 Y-153.1729 F2200.0
G1 Z0.0000 F2500.0
G4 P0.02
G0 X100.4738 Y-153.6327 F15000.0
G1 Z11.9000 F2500.0
G4 P0.02
G1 X100.7456 Y-155.0749 F2200.0
G1 Z0.0000 F2500.0
G4 P0.02
G0 X55.7613 Y-164.5972 F15000.0
G1 Z11.9000 F2500.0
G4 P0.02
G1 X55.8658 Y-163.0505 F2200.0
G1 Z0.0000 F2500.0
G4 P0.02
G0 X55.8449 Y-162.2354 F15000.0
G1 Z11.9000 F2500.0
G4 P0.02
G1 X55.9912 Y-162.1100 F2200.0
G1 X56.0957 Y-161.7964
G1 Z0.0000 F2500.0
G4 P0.02
G0 X55.9703 Y-163.0087 F15000.0
G1 Z11.9000 F2500.0
G4 P0.02
G1 X56.7436 Y-162.7370 F2200.0
G1 Z0.0000 F2500.0
G4 P0.02
G0 X56.0748 Y-162.0682 F15000.0
G1 Z11.9000 F2500.0
G4 P0.02
G1 X60.0042 Y-160.6469 F2200.0
G1 Z0.0000 F2500.0
G4 P0.02
G0 X56.2420 Y-161.5665 F15000.0
G1 Z11.9000 F2500.0
G4 P0.02
G1 X56.8691 Y-160.7723 F2200.0
G1 Z0.0000 F2500.0
G4 P0.02
G0 X57.4333 Y-162.4862 F15000.0
G1 Z11.9000 F2500.0
G4 P0.02
G1 X57.6841 Y-162.4653 F2200.0
G1 X57.7260 Y-163.0923
G1 X57.9559 Y-163.6567
G1 Z0.0000 F2500.0
G4 P0.02
G0 X58.1231 Y-163.7194 F15000.0
G1 Z11.9000 F2500.0
G4 P0.02
G1 X59.0218 Y-163.5104 F2200.0
G1 X59.4608 Y-163.3013
G1 X59.8160 Y-162.9460
G1 X59.9415 Y-162.6325
G1 X60.1295 Y-161.3785
G1 Z0.0000 F2500.0
G4 P0.02
G0 X74.6780 Y-182.9963 F15000.0
G1 Z11.9000 F2500.0
G4 P0.02
G1 X76.0156 Y-186.8420 F2200.0
G1 X76.3082 Y-187.3228
G1 Z0.0000 F2500.0
G4 P0.02
G0 X74.7616 Y-186.0896 F15000.0
G1 Z11.9000 F2500.0
G4 P0.02
G1 X75.1587 Y-186.4240 F2200.0
G1 Z0.0000 F2500.0
G4 P0.02
G0 X75.4513 Y-186.6121 F15000.0
G1 Z11.9000 F2500.0
G4 P0.02
G1 X75.7230 Y-186.8003 F2200.0
G1 X75.9947 Y-186.8630
G1 Z0.0000 F2500.0
G4 P0.02
G0 X75.4722 Y-182.8918 F15000.0
G1 Z11.9000 F2500.0
G4 P0.02
G1 X75.7230 Y-182.9754 F2200.0
G1 X75.8066 Y-183.2053
G1 Z0.0000 F2500.0
G4 P0.02
G0 X75.7440 Y-182.9754 F15000.0
G1 Z11.9000 F2500.0
G4 P0.02
G1 X77.3742 Y-182.9127 F2200.0
G1 Z0.0000 F2500.0
G4 P0.02
G0 X76.7681 Y-186.4032 F15000.0
G1 Z11.9000 F2500.0
G4 P0.02
G1 X77.2906 Y-186.9257 F2200.0
G1 Z0.0000 F2500.0
G4 P0.02
G0 X76.9980 Y-184.4176 F15000.0
G1 Z11.9000 F2500.0
G4 P0.02
G1 X78.6282 Y-186.2360 F2200.0
G1 X78.6491 Y-186.7794
G1 Z0.0000 F2500.0
G4 P0.02
G0 X77.5623 Y-187.0510 F15000.0
G1 Z11.9000 F2500.0
G4 P0.02
G1 X78.3147 Y-187.0929 F2200.0
G1 X78.5865 Y-186.9047
G1 Z0.0000 F2500.0
G4 P0.02
G0 X63.5519 Y-131.3786 F15000.0
G1 Z11.9000 F2500.0
G4 P0.02
G1 X63.5936 Y-131.4413 F2200.0
G1 Z0.0000 F2500.0
G4 P0.02
G0 X63.6982 Y-131.7130 F15000.0
G1 Z11.9000 F2500.0
G4 P0.02
G1 X64.3043 Y-133.3224 F2200.0
G1 X66.6660 Y-135.5588
G1 Z0.0000 F2500.0
G4 P0.02
G0 X64.3879 Y-133.3851 F15000.0
G1 Z11.9000 F2500.0
G4 P0.02
G1 X65.1403 Y-133.3851 F2200.0
G1 X65.4956 Y-131.5249
G1 Z0.0000 F2500.0
G4 P0.02
G0 X65.1821 Y-133.3851 F15000.0
G1 Z11.9000 F2500.0
G4 P0.02
G1 X65.7046 Y-133.4478 F2200.0
G1 X66.3317 Y-133.8240
G1 X66.7706 Y-134.8691
G1 X66.7706 Y-135.4543
G1 Z0.0000 F2500.0
G4 P0.02
G0 X66.5197 Y-134.1584 F15000.0
G1 Z11.9000 F2500.0
G4 P0.02
G1 X66.5616 Y-134.2420 F2200.0
G1 Z0.0000 F2500.0
G4 P0.02
G0 X67.3976 Y-131.5041 F15000.0
G1 Z11.9000 F2500.0
G4 P0.02
G1 X68.7562 Y-135.3707 F2200.0
G1 X68.9861 Y-135.7469
G1 Z0.0000 F2500.0
G4 P0.02
G0 X67.4812 Y-134.5973 F15000.0
G1 Z11.9000 F2500.0
G4 P0.02
G1 X67.6484 Y-134.7854 F2200.0
G1 Z0.0000 F2500.0
G4 P0.02
G0 X67.9410 Y-134.9736 F15000.0
G1 Z11.9000 F2500.0
G4 P0.02
G1 X68.2128 Y-135.1616 F2200.0
G1 Z0.0000 F2500.0
G4 P0.02
G0 X68.2964 Y-131.4205 F15000.0
G1 Z11.9000 F2500.0
G4 P0.02
G1 X69.5504 Y-131.5876 F2200.0
G1 X70.1147 Y-132.2564
G1 X70.3446 Y-132.9044
G1 X70.4073 Y-133.3224
G1 Z0.0000 F2500.0
G4 P0.02
G0 X68.4427 Y-135.3079 F15000.0
G1 Z11.9000 F2500.0
G4 P0.02
G1 X68.8607 Y-135.5170 F2200.0
G1 Z0.0000 F2500.0
G4 P0.02
G0 X70.3237 Y-133.5105 F15000.0
G1 Z11.9000 F2500.0
G4 P0.02
G1 X70.0520 Y-133.6777 F2200.0
G1 X69.1533 Y-133.7613
G1 X69.3413 Y-134.4719
G1 Z0.0000 F2500.0
G4 P0.02
G0 X69.5085 Y-134.9317 F15000.0
G1 Z11.9000 F2500.0
G4 P0.02
G1 X69.7384 Y-135.5797 F2200.0
G1 Z0.0000 F2500.0
G4 P0.02
G0 X69.8221 Y-135.6633 F15000.0
G1 Z11.9000 F2500.0
G4 P0.02
G1 X71.4524 Y-135.7469 F2200.0
G1 Z0.0000 F2500.0
G4 P0.02
G0 X59.6955 Y-100.5334 F15000.0
G1 Z11.9000 F2500.0
G4 P0.02
G1 X59.7581 Y-99.4257 F2200.0
G1 X60.0716 Y-99.0286
G1 X62.0572 Y-98.2135
G1 Z0.0000 F2500.0
G4 P0.02
G0 X62.0572 Y-95.4127 F15000.0
G1 Z11.9000 F2500.0
G4 P0.02
G1 X60.0716 Y-96.2279 F2200.0
G1 X59.6955 Y-96.7713
G1 X59.7581 Y-97.8163
G1 Z0.0000 F2500.0
G4 P0.02
G0 X59.6955 Y-95.4754 F15000.0
G1 Z11.9000 F2500.0
G4 P0.02
G1 X59.9044 Y-95.3083 F2200.0
G1 X60.0090 Y-94.9738
G1 Z0.0000 F2500.0
G4 P0.02
G0 X59.8627 Y-100.7215 F15000.0
G1 Z11.9000 F2500.0
G4 P0.02
G1 X60.8868 Y-100.5962 F2200.0
G1 Z0.0000 F2500.0
G4 P0.02
G0 X59.8627 Y-97.9209 F15000.0
G1 Z11.9000 F2500.0
G4 P0.02
G1 X60.6569 Y-97.8790 F2200.0
G1 X63.3949 Y-96.8340
G1 Z0.0000 F2500.0
G4 P0.02
G0 X59.9462 Y-95.2873 F15000.0
G1 Z11.9000 F2500.0
G4 P0.02
G1 X62.0572 Y-94.5767 F2200.0
G1 Z0.0000 F2500.0
G4 P0.02
G0 X60.1553 Y-94.7439 F15000.0
G1 Z11.9000 F2500.0
G4 P0.02
G1 X60.3433 Y-94.4722 F2200.0
G1 Z0.0000 F2500.0
G4 P0.02
G0 X60.5314 Y-94.1796 F15000.0
G1 Z11.9000 F2500.0
G4 P0.02
G1 X60.7404 Y-93.9915 F2200.0
G1 Z0.0000 F2500.0
G4 P0.02
G0 X61.2839 Y-100.4499 F15000.0
G1 Z11.9000 F2500.0
G4 P0.02
G1 X63.3949 Y-99.6347 F2200.0
G1 Z0.0000 F2500.0
G4 P0.02
G0 X62.3917 Y-98.0880 F15000.0
G1 Z11.9000 F2500.0
G4 P0.02
G1 X62.8515 Y-97.9209 F2200.0
G1 X63.5830 Y-97.8373
G1 Z0.0000 F2500.0
G4 P0.02
G0 X62.3917 Y-95.2873 F15000.0
G1 Z11.9000 F2500.0
G4 P0.02
G1 X62.8515 Y-95.1201 F2200.0
G1 X63.5830 Y-95.0365
G1 Z0.0000 F2500.0
G4 P0.02
G0 X62.6216 Y-94.3677 F15000.0
G1 Z11.9000 F2500.0
G4 P0.02
G1 X63.7920 Y-93.9288 F2200.0
G1 Z0.0000 F2500.0
G4 P0.02
G0 X63.6457 Y-99.3630 F15000.0
G1 Z11.9000 F2500.0
G4 P0.02
G1 X63.8547 Y-98.9241 F2200.0
G1 X63.8338 Y-98.0672
G1 Z0.0000 F2500.0
G4 P0.02
G0 X63.6457 Y-96.5623 F15000.0
G1 Z11.9000 F2500.0
G4 P0.02
G1 X63.8756 Y-95.3918 F2200.0
G1 X63.8338 Y-95.2664
G1 Z0.0000 F2500.0
G4 P0.02
G0 X90.0456 Y-55.7932 F15000.0
G1 Z11.9000 F2500.0
G4 P0.02
G1 X91.2996 Y-55.9605 F2200.0
G1 X91.8639 Y-56.6293
G1 X92.0938 Y-57.2772
G1 X92.1565 Y-57.6952
G1 Z0.0000 F2500.0
G4 P0.02
G0 X92.0729 Y-57.8834 F15000.0
G1 Z11.9000 F2500.0
G4 P0.02
G1 X91.8013 Y-58.0506 F2200.0
G1 X90.9025 Y-58.1341
G1 X91.0906 Y-58.8447
G1 Z0.0000 F2500.0
G4 P0.02
G0 X91.2578 Y-59.3046 F15000.0
G1 Z11.9000 F2500.0
G4 P0.02
G1 X91.4877 Y-59.9525 F2200.0
G1 Z0.0000 F2500.0
G4 P0.02
G0 X91.5714 Y-60.0361 F15000.0
G1 Z11.9000 F2500.0
G4 P0.02
G1 X93.0762 Y-60.0570 F2200.0
G1 Z0.0000 F2500.0
G4 P0.02
G0 X95.3961 Y-59.9943 F15000.0
G1 Z11.9000 F2500.0
G4 P0.02
G1 X95.2708 Y-60.0361 F2200.0
G1 X94.2466 Y-59.9107
G1 X93.8077 Y-59.5345
G1 X92.7209 Y-56.7338
G1 X92.7418 Y-56.0231
G1 Z0.0000 F2500.0
G4 P0.02
G0 X92.9298 Y-55.8559 F15000.0
G1 Z11.9000 F2500.0
G4 P0.02
G1 X93.7450 Y-55.8142 F2200.0
G1 X94.2257 Y-56.0441
G1 X94.4765 Y-56.2740
G1 X95.3125 Y-58.4059
G1 Z0.0000 F2500.0
G4 P0.02
G0 X93.5778 Y-59.0329 F15000.0
G1 Z11.9000 F2500.0
G4 P0.02
G1 X93.5987 Y-59.0956 F2200.0
G1 Z0.0000 F2500.0
G4 P0.02
G0 X95.4588 Y-58.8030 F15000.0
G1 Z11.9000 F2500.0
G4 P0.02
G1 X95.5843 Y-59.8271 F2200.0
G1 Z0.0000 F2500.0
G4 P0.02
G0 X81.0187 Y-174.0427 F15000.0
G1 Z11.9000 F2500.0
G4 P0.02
G1 X114.1103 Y-174.0427 F12000.0
G1 Z0.0000 F2500.0
G4 P0.02
G0 X92.5423 Y-185.5664 F15000.0
G1 Z11.9000 F2500.0
G4 P0.02
G1 X114.1103 Y-185.5664 F12000.0
G1 X114.1103 Y-174.0427 F2200.0
G1 Z0.0000 F2500.0
G4 P0.02
G0 X85.1454 Y-210.7938 F15000.0
G1 Z11.9000 F2500.0
G4 P0.02
G1 X95.0339 Y-210.7938 F2200.0
G1 Z0.0000 F2500.0
G4 P0.02
G0 X99.3164 Y-210.7938 F15000.0
G1 Z11.9000 F2500.0
G4 P0.02
G1 X109.1270 Y-210.7938 F2200.0
G1 Z0.0000 F2500.0
G4 P0.02
G0 X110.5286 Y-210.7938 F15000.0
G1 Z11.9000 F2500.0
G4 P0.02
G1 X112.0858 Y-210.7938 F2200.0
G1 Z0.0000 F2500.0
G4 P0.02
G0 X113.4873 Y-210.7938 F15000.0
G1 Z11.9000 F2500.0
G4 P0.02
G1 X123.2980 Y-210.7938 F2200.0
G1 Z0.0000 F2500.0
G4 P0.02
G0 X117.6141 Y-167.1129 F15000.0
G1 Z11.9000 F2500.0
G4 P0.02
G1 X121.5072 Y-171.0060 F2200.0
G1 Z0.0000 F2500.0
G4 P0.02
G0 X113.6431 Y-167.1129 F15000.0
G1 Z11.9000 F2500.0
G4 P0.02
G1 X121.5072 Y-174.9770 F2200.0
G1 Z0.0000 F2500.0
G4 P0.02
G0 X109.7499 Y-167.1129 F15000.0
G1 Z11.9000 F2500.0
G4 P0.02
G1 X121.5072 Y-178.8702 F2200.0
G1 Z0.0000 F2500.0
G4 P0.02
G0 X105.8568 Y-167.1129 F15000.0
G1 Z11.9000 F2500.0
G4 P0.02
G1 X112.7866 Y-174.0427 F2200.0
G1 Z0.0000 F2500.0
G4 P0.02
G0 X114.1103 Y-175.3664 F15000.0
G1 Z11.9000 F2500.0
G4 P0.02
G1 X121.5072 Y-182.7633 F2200.0
G1 Z0.0000 F2500.0
G4 P0.02
G0 X114.1103 Y-179.2595 F15000.0
G1 Z11.9000 F2500.0
G4 P0.02
G1 X121.5072 Y-186.6564 F2200.0
G1 Z0.0000 F2500.0
G4 P0.02
G0 X101.9637 Y-167.1129 F15000.0
G1 Z11.9000 F2500.0
G4 P0.02
G1 X108.8935 Y-174.0427 F2200.0
G1 Z0.0000 F2500.0
G4 P0.02
G0 X98.0705 Y-167.1129 F15000.0
G1 Z11.9000 F2500.0
G4 P0.02
G1 X105.0004 Y-174.0427 F2200.0
G1 Z0.0000 F2500.0
G4 P0.02
G0 X114.1103 Y-183.2305 F15000.0
G1 Z11.9000 F2500.0
G4 P0.02
G1 X121.5072 Y-190.5496 F2200.0
G1 Z0.0000 F2500.0
G4 P0.02
G0 X112.5530 Y-185.5664 F15000.0
G1 Z11.9000 F2500.0
G4 P0.02
G1 X121.5072 Y-194.4427 F2200.0
G1 Z0.0000 F2500.0
G4 P0.02
G0 X94.1774 Y-167.1129 F15000.0
G1 Z11.9000 F2500.0
G4 P0.02
G1 X101.0294 Y-174.0427 F2200.0
G1 Z0.0000 F2500.0
G4 P0.02
G0 X90.2843 Y-167.1129 F15000.0
G1 Z11.9000 F2500.0
G4 P0.02
G1 X97.1362 Y-174.0427 F2200.0
G1 Z0.0000 F2500.0
G4 P0.02
G0 X108.6599 Y-185.5664 F15000.0
G1 Z11.9000 F2500.0
G4 P0.02
G1 X113.2537 Y-190.1602 F2200.0
G1 Z0.0000 F2500.0
G4 P0.02
G0 X114.1103 Y-191.0168 F15000.0
G1 Z11.9000 F2500.0
G4 P0.02
G1 X121.0400 Y-197.9465 F2200.0
G1 Z0.0000 F2500.0
G4 P0.02
G0 X114.1103 Y-194.9099 F15000.0
G1 Z11.9000 F2500.0
G4 P0.02
G1 X117.1469 Y-197.9465 F2200.0
G1 Z0.0000 F2500.0
G4 P0.02
G0 X109.0491 Y-189.8488 F15000.0
G1 Z11.9000 F2500.0
G4 P0.02
G1 X109.3606 Y-190.1602 F2200.0
G1 Z0.0000 F2500.0
G4 P0.02
G0 X104.7668 Y-185.5664 F15000.0
G1 Z11.9000 F2500.0
G4 P0.02
G1 X107.9591 Y-188.6809 F2200.0
G1 Z0.0000 F2500.0
G4 P0.02
G0 X86.3912 Y-167.1129 F15000.0
G1 Z11.9000 F2500.0
G4 P0.02
G1 X93.2431 Y-174.0427 F2200.0
G1 Z0.0000 F2500.0
G4 P0.02
G0 X82.4980 Y-167.1129 F15000.0
G1 Z11.9000 F2500.0
G4 P0.02
G1 X89.3500 Y-174.0427 F2200.0
G1 Z0.0000 F2500.0
G4 P0.02
G0 X100.8736 Y-185.5664 F15000.0
G1 Z11.9000 F2500.0
G4 P0.02
G1 X105.0782 Y-189.6931 F2200.0
G1 Z0.0000 F2500.0
G4 P0.02
G0 X96.9805 Y-185.5664 F15000.0
G1 Z11.9000 F2500.0
G4 P0.02
G1 X101.1851 Y-189.6931 F2200.0
G1 Z0.0000 F2500.0
G4 P0.02
G0 X78.5270 Y-167.1129 F15000.0
G1 Z11.9000 F2500.0
G4 P0.02
G1 X85.4569 Y-174.0427 F2200.0
G1 Z0.0000 F2500.0
G4 P0.02
G0 X75.4904 Y-167.9695 F15000.0
G1 Z11.9000 F2500.0
G4 P0.02
G1 X81.5637 Y-174.0427 F2200.0
G1 Z0.0000 F2500.0
G4 P0.02
G0 X93.0874 Y-185.5664 F15000.0
G1 Z11.9000 F2500.0
G4 P0.02
G1 X97.2141 Y-189.6931 F2200.0
G1 Z0.0000 F2500.0
G4 P0.02
G0 X89.1164 Y-185.5664 F15000.0
G1 Z11.9000 F2500.0
G4 P0.02
G1 X93.3210 Y-189.6931 F2200.0
G1 Z0.0000 F2500.0
G4 P0.02
G0 X75.4904 Y-171.8626 F15000.0
G1 Z11.9000 F2500.0
G4 P0.02
G1 X77.6706 Y-174.0427 F2200.0
G1 Z0.0000 F2500.0
G4 P0.02
G0 X87.0141 Y-187.2794 F15000.0
G1 Z11.9000 F2500.0
G4 P0.02
G1 X89.4279 Y-189.6931 F2200.0
G1 Z0.0000 F2500.0
G4 P0.02
G0 X119.4828 Y-223.7190 F15000.0
G1 Z11.9000 F2500.0
G4 P0.02
G1 X121.5072 Y-225.6656 F2200.0
G1 Z0.0000 F2500.0
G4 P0.02
G0 X115.5896 Y-223.7190 F15000.0
G1 Z11.9000 F2500.0
G4 P0.02
G1 X121.5072 Y-229.5587 F2200.0
G1 Z0.0000 F2500.0
G4 P0.02
G0 X114.1103 Y-226.1327 F15000.0
G1 Z11.9000 F2500.0
G4 P0.02
G1 X121.5072 Y-233.4519 F2200.0
G1 Z0.0000 F2500.0
G4 P0.02
G0 X114.1103 Y-230.0258 F15000.0
G1 Z11.9000 F2500.0
G4 P0.02
G1 X120.2614 Y-236.0991 F2200.0
G1 Z0.0000 F2500.0
G4 P0.02
G0 X111.6965 Y-231.5053 F15000.0
G1 Z11.9000 F2500.0
G4 P0.02
G1 X116.2904 Y-236.0991 F2200.0
G1 Z0.0000 F2500.0
G4 P0.02
G0 X108.9713 Y-232.5953 F15000.0
G1 Z11.9000 F2500.0
G4 P0.02
G1 X112.3973 Y-236.0991 F2200.0
G1 Z0.0000 F2500.0
G4 P0.02
G0 X104.2996 Y-231.8945 F15000.0
G1 Z11.9000 F2500.0
G4 P0.02
G1 X108.5042 Y-236.0991 F2200.0
G1 Z0.0000 F2500.0
G4 P0.02
G0 X100.4064 Y-231.8945 F15000.0
G1 Z11.9000 F2500.0
G4 P0.02
G1 X104.6110 Y-236.0991 F2200.0
G1 Z0.0000 F2500.0
G4 P0.02
G0 X96.5133 Y-231.8945 F15000.0
G1 Z11.9000 F2500.0
G4 P0.02
G1 X100.7179 Y-236.0991 F2200.0
G1 Z0.0000 F2500.0
G4 P0.02
G0 X92.6202 Y-231.8945 F15000.0
G1 Z11.9000 F2500.0
G4 P0.02
G1 X96.8248 Y-236.0991 F2200.0
G1 Z0.0000 F2500.0
G4 P0.02
G0 X88.7271 Y-231.8945 F15000.0
G1 Z11.9000 F2500.0
G4 P0.02
G1 X92.9316 Y-236.0991 F2200.0
G1 Z0.0000 F2500.0
G4 P0.02
G0 X87.0141 Y-234.0747 F15000.0
G1 Z11.9000 F2500.0
G4 P0.02
G1 X89.0385 Y-236.0991 F2200.0
G1 Z0.0000 F2500.0
G4 P0.02
G0 X62.0623 Y-242.1219 F15000.0
G1 Z11.9000 F2500.0
G4 P0.02
G1 X62.3131 Y-242.2055 F2200.0
G1 X62.3967 Y-242.4354
G1 Z0.0000 F2500.0
G4 P0.02
G0 X62.3341 Y-242.2055 F15000.0
G1 Z11.9000 F2500.0
G4 P0.02
G1 X64.1106 Y-242.2055 F2200.0
G1 Z0.0000 F2500.0
G4 P0.02
G0 X63.3582 Y-245.6333 F15000.0
G1 Z11.9000 F2500.0
G4 P0.02
G1 X64.0688 Y-246.2394 F2200.0
G1 X64.9257 Y-246.3230
G1 Z0.0000 F2500.0
G4 P0.02
G0 X63.7762 Y-243.8149 F15000.0
G1 Z11.9000 F2500.0
G4 P0.02
G1 X65.2811 Y-245.9468 F2200.0
G1 X65.0930 Y-246.2394
G1 Z0.0000 F2500.0
G4 P0.02
G0 X64.3330 Y-241.3408 F15000.0
G1 Z11.9000 F2500.0
G4 P0.02
G1 X64.9600 Y-242.2395 F2200.0
G1 Z0.0000 F2500.0
G4 P0.02
G0 X65.9503 Y-242.1436 F15000.0
G1 Z11.9000 F2500.0
G4 P0.02
G1 X67.2043 Y-242.3108 F2200.0
G1 X67.7686 Y-242.9797
G1 X67.9985 Y-243.6276
G1 X68.0612 Y-244.0456
G1 Z0.0000 F2500.0
G4 P0.02
G0 X67.9776 Y-244.2338 F15000.0
G1 Z11.9000 F2500.0
G4 P0.02
G1 X67.7059 Y-244.4010 F2200.0
G1 X66.8072 Y-244.4846
G1 X66.9953 Y-245.1952
G1 Z0.0000 F2500.0
G4 P0.02
G0 X67.1625 Y-245.6550 F15000.0
G1 Z11.9000 F2500.0
G4 P0.02
G1 X67.3924 Y-246.3030 F2200.0
G1 Z0.0000 F2500.0
G4 P0.02
G0 X67.4760 Y-246.3866 F15000.0
G1 Z11.9000 F2500.0
G4 P0.02
G1 X68.9809 Y-246.4074 F2200.0
G1 Z0.0000 F2500.0
G4 P0.02
G0 X68.2851 Y-242.1456 F15000.0
G1 Z11.9000 F2500.0
G4 P0.02
G1 X68.9121 Y-242.8145 F2200.0
G1 Z0.0000 F2500.0
G4 P0.02
G0 X69.1629 Y-243.0862 F15000.0
G1 Z11.9000 F2500.0
G4 P0.02
G1 X69.2257 Y-243.1489 F2200.0
G1 Z0.0000 F2500.0
G4 P0.02
G0 X69.4137 Y-245.0509 F15000.0
G1 Z11.9000 F2500.0
G4 P0.02
G1 X69.8944 Y-242.1874 F2200.0
G1 Z0.0000 F2500.0
G4 P0.02
G0 X69.4137 Y-243.3369 F15000.0
G1 Z11.9000 F2500.0
G4 P0.02
G1 X69.6436 Y-243.4205 F2200.0
G1 Z0.0000 F2500.0
G4 P0.02
G0 X69.6855 Y-243.8177 F15000.0
G1 Z11.9000 F2500.0
G4 P0.02
G1 X70.0199 Y-244.0058 F2200.0
G1 X71.0231 Y-245.0926
G1 Z0.0000 F2500.0
G4 P0.02
G0 X72.0564 Y-242.2563 F15000.0
G1 Z11.9000 F2500.0
G4 P0.02
G1 X72.3490 Y-243.1133 F2200.0
G1 X71.1995 Y-243.1759
G1 X71.5966 Y-244.0120
G1 Z0.0000 F2500.0
G4 P0.02
G0 X71.9310 Y-244.6181 F15000.0
G1 Z11.9000 F2500.0
G4 P0.02
G1 X72.6625 Y-245.8931 F2200.0
G1 Z0.0000 F2500.0
G4 P0.02
G0 X72.3490 Y-243.1133 F15000.0
G1 Z11.9000 F2500.0
G4 P0.02
G1 X72.4535 Y-243.1342 F2200.0
G1 X72.7880 Y-244.0747
G1 Z0.0000 F2500.0
G4 P0.02
G0 X72.4953 Y-243.1342 F15000.0
G1 Z11.9000 F2500.0
G4 P0.02
G1 X72.9133 Y-243.1133 F2200.0
G1 Z0.0000 F2500.0
G4 P0.02
G0 X72.8924 Y-246.3110 F15000.0
G1 Z11.9000 F2500.0
G4 P0.02
G1 X72.9343 Y-246.3946 F2200.0
G1 Z0.0000 F2500.0
G4 P0.02
G0 X73.6148 Y-242.1436 F15000.0
G1 Z11.9000 F2500.0
G4 P0.02
G1 X74.8689 Y-242.3108 F2200.0
G1 X75.4332 Y-242.9797
G1 X75.6631 Y-243.6276
G1 X75.7258 Y-244.0456
G1 Z0.0000 F2500.0
G4 P0.02
G0 X75.6422 Y-244.2338 F15000.0
G1 Z11.9000 F2500.0
G4 P0.02
G1 X75.3705 Y-244.4010 F2200.0
G1 X74.4717 Y-244.4846
G1 X74.6599 Y-245.1952
G1 Z0.0000 F2500.0
G4 P0.02
G0 X74.8271 Y-245.6550 F15000.0
G1 Z11.9000 F2500.0
G4 P0.02
G1 X75.0570 Y-246.3030 F2200.0
G1 Z0.0000 F2500.0
G4 P0.02
G0 X75.1406 Y-246.3866 F15000.0
G1 Z11.9000 F2500.0
G4 P0.02
G1 X76.6455 Y-246.4074 F2200.0
G1 Z0.0000 F2500.0
G4 P0.02
G0 X77.2929 Y-245.5404 F15000.0
G1 Z11.9000 F2500.0
G4 P0.02
G1 X77.4392 Y-246.1047 F2200.0
G1 X78.0453 Y-246.2720
G1 X78.0871 Y-245.7286
G1 X77.7945 Y-245.4986
G1 X77.3556 Y-245.4777
G1 Z0.0000 F2500.0
G4 P0.02
G0 X88.1820 Y-239.6029 F15000.0
G1 Z11.9000 F2500.0
G4 P0.02
G1 X92.7759 Y-238.9801 F2200.0
G1 X92.3087 Y-239.6029 F2200.0
G1 X92.7759 Y-240.2258 F2200.0
G1 X88.1820 Y-239.6029 F2200.0
G1 X94.5667 Y-239.6029 F2200.0
G1 Z0.0000 F2500.0
G4 P0.02
G0 X90.0651 Y-239.3305 F15000.0
G1 Z11.9000 F2500.0
G4 P0.02
G1 X90.8928 Y-239.3305 F2200.0
G1 Z0.0000 F2500.0
G4 P0.02
G0 X90.3766 Y-239.9144 F15000.0
G1 Z11.9000 F2500.0
G4 P0.02
G1 X91.2042 Y-239.9144 F2200.0
G1 Z0.0000 F2500.0
G4 P0.02
G0 X87.0141 Y-239.6029 F15000.0
G1 Z11.9000 F2500.0
G4 P0.02
G1 X82.4202 Y-240.2258 F2200.0
G1 X82.8874 Y-239.6029 F2200.0
G1 X82.4202 Y-238.9801 F2200.0
G1 X87.0141 Y-239.6029 F2200.0
G1 Z0.0000 F2500.0
G4 P0.02
G0 X84.0697 Y-239.9144 F15000.0
G1 Z11.9000 F2500.0
G4 P0.02
G1 X84.8974 Y-239.9144 F2200.0
G1 Z0.0000 F2500.0
G4 P0.02
G0 X84.3423 Y-239.3305 F15000.0
G1 Z11.9000 F2500.0
G4 P0.02
G1 X85.1700 Y-239.3305 F2200.0
G1 Z0.0000 F2500.0
G4 P0.02
G0 X88.1820 Y-239.6029 F15000.0
G1 Z11.9000 F2500.0
G4 P0.02
G1 X87.0141 Y-239.6029 F2200.0
G1 Z0.0000 F2500.0
G4 P0.02
G0 X88.1820 Y-231.8945 F15000.0
G1 Z11.9000 F2500.0
G4 P0.02
G1 X88.1820 Y-241.4716 F2200.0
G1 Z0.0000 F2500.0
G4 P0.02
G0 X87.0141 Y-239.6029 F15000.0
G1 Z11.9000 F2500.0
G4 P0.02
G1 X59.6843 Y-239.6029 F12000.0
G1 Z0.0000 F2500.0
G4 P0.02
G0 X114.1103 Y-254.5526 F15000.0
G1 Z11.9000 F2500.0
G4 P0.02
G1 X109.5163 Y-253.9297 F2200.0
G1 X109.9835 Y-254.5526 F2200.0
G1 X109.5163 Y-255.0976 F2200.0
G1 X114.1103 Y-254.5526 F2200.0
G1 Z0.0000 F2500.0
G4 P0.02
G0 X111.4384 Y-254.2801 F15000.0
G1 Z11.9000 F2500.0
G4 P0.02
G1 X112.2660 Y-254.2801 F2200.0
G1 Z0.0000 F2500.0
G4 P0.02
G0 X111.1270 Y-254.8250 F15000.0
G1 Z11.9000 F2500.0
G4 P0.02
G1 X111.9546 Y-254.8250 F2200.0
G1 Z0.0000 F2500.0
G4 P0.02
G0 X87.0141 Y-254.5526 F15000.0
G1 Z11.9000 F2500.0
G4 P0.02
G1 X91.6080 Y-255.0976 F2200.0
G1 X91.1408 Y-254.5526 F2200.0
G1 X91.6080 Y-253.9297 F2200.0
G1 X87.0141 Y-254.5526 F2200.0
G1 Z0.0000 F2500.0
G4 P0.02
G0 X89.2476 Y-254.8250 F15000.0
G1 Z11.9000 F2500.0
G4 P0.02
G1 X90.0753 Y-254.8250 F2200.0
G1 Z0.0000 F2500.0
G4 P0.02
G0 X88.8972 Y-254.2801 F15000.0
G1 Z11.9000 F2500.0
G4 P0.02
G1 X89.7249 Y-254.2801 F2200.0
G1 Z0.0000 F2500.0
G4 P0.02
G0 X114.1103 Y-254.5526 F15000.0
G1 Z11.9000 F2500.0
G4 P0.02
G1 X87.0141 Y-254.5526 F12000.0
G1 Z0.0000 F2500.0
G4 P0.02
G0 X121.5072 Y-263.3510 F15000.0
G1 Z11.9000 F2500.0
G4 P0.02
G1 X116.9133 Y-262.7281 F2200.0
G1 X117.3805 Y-263.3510 F2200.0
G1 X116.9133 Y-263.8961 F2200.0
G1 X121.5072 Y-263.3510 F2200.0
G1 Z0.0000 F2500.0
G4 P0.02
G0 X118.8354 Y-263.0785 F15000.0
G1 Z11.9000 F2500.0
G4 P0.02
G1 X119.6630 Y-263.0785 F2200.0
G1 Z0.0000 F2500.0
G4 P0.02
G0 X118.5239 Y-263.6236 F15000.0
G1 Z11.9000 F2500.0
G4 P0.02
G1 X119.3516 Y-263.6236 F2200.0
G1 Z0.0000 F2500.0
G4 P0.02
G0 X87.0141 Y-263.3510 F15000.0
G1 Z11.9000 F2500.0
G4 P0.02
G1 X91.6080 Y-263.8961 F2200.0
G1 X91.1408 Y-263.3510 F2200.0
G1 X91.6080 Y-262.7281 F2200.0
G1 X87.0141 Y-263.3510 F2200.0
G1 Z0.0000 F2500.0
G4 P0.02
G0 X89.2476 Y-263.6236 F15000.0
G1 Z11.9000 F2500.0
G4 P0.02
G1 X90.0753 Y-263.6236 F2200.0
G1 Z0.0000 F2500.0
G4 P0.02
G0 X88.8972 Y-263.0785 F15000.0
G1 Z11.9000 F2500.0
G4 P0.02
G1 X89.7249 Y-263.0785 F2200.0
G1 Z0.0000 F2500.0
G4 P0.02
G0 X121.5072 Y-263.3510 F15000.0
G1 Z11.9000 F2500.0
G4 P0.02
G1 X87.0141 Y-263.3510 F12000.0
G1 Z0.0000 F2500.0
G4 P0.02
G0 X121.5072 Y-236.0991 F15000.0
G1 Z11.9000 F2500.0
G4 P0.02
G1 X121.5072 Y-265.1419 F12000.0
G1 Z0.0000 F2500.0
G4 P0.02
G0 X87.0141 Y-233.0625 F15000.0
G1 Z11.9000 F2500.0
G4 P0.02
G1 X87.0141 Y-265.1419 F12000.0
G1 Z0.0000 F2500.0
G4 P0.02
G0 X94.7814 Y-248.8290 F15000.0
G1 Z11.9000 F2500.0
G4 P0.02
G1 X95.0740 Y-249.6859 F2200.0
G1 X93.9244 Y-249.7487
G1 X94.3215 Y-250.5847
G1 Z0.0000 F2500.0
G4 P0.02
G0 X94.6560 Y-251.1908 F15000.0
G1 Z11.9000 F2500.0
G4 P0.02
G1 X95.3875 Y-252.4658 F2200.0
G1 Z0.0000 F2500.0
G4 P0.02
G0 X95.0740 Y-249.6859 F15000.0
G1 Z11.9000 F2500.0
G4 P0.02
G1 X95.1785 Y-249.7069 F2200.0
G1 X95.5129 Y-250.6474
G1 Z0.0000 F2500.0
G4 P0.02
G0 X95.2203 Y-249.7069 F15000.0
G1 Z11.9000 F2500.0
G4 P0.02
G1 X95.6383 Y-249.6859 F2200.0
G1 Z0.0000 F2500.0
G4 P0.02
G0 X95.6174 Y-252.8838 F15000.0
G1 Z11.9000 F2500.0
G4 P0.02
G1 X95.6592 Y-252.9674 F2200.0
G1 Z0.0000 F2500.0
G4 P0.02
G0 X109.0491 Y-246.2213 F15000.0
G1 Z11.9000 F2500.0
G4 P0.02
G1 X104.4553 Y-245.5983 F2200.0
G1 X104.9225 Y-246.2213 F2200.0
G1 X104.4553 Y-246.8442 F2200.0
G1 X109.0491 Y-246.2213 F2200.0
G1 Z0.0000 F2500.0
G4 P0.02
G0 X106.3773 Y-245.9487 F15000.0
G1 Z11.9000 F2500.0
G4 P0.02
G1 X107.2050 Y-245.9487 F2200.0
G1 Z0.0000 F2500.0
G4 P0.02
G0 X106.1048 Y-246.5327 F15000.0
G1 Z11.9000 F2500.0
G4 P0.02
G1 X106.9325 Y-246.5327 F2200.0
G1 Z0.0000 F2500.0
G4 P0.02
G0 X87.0141 Y-246.2213 F15000.0
G1 Z11.9000 F2500.0
G4 P0.02
G1 X91.6080 Y-246.8442 F2200.0
G1 X91.1408 Y-246.2213 F2200.0
G1 X91.6080 Y-245.5983 F2200.0
G1 X87.0141 Y-246.2213 F2200.0
G1 Z0.0000 F2500.0
G4 P0.02
G0 X89.2086 Y-246.5327 F15000.0
G1 Z11.9000 F2500.0
G4 P0.02
G1 X90.0363 Y-246.5327 F2200.0
G1 Z0.0000 F2500.0
G4 P0.02
G0 X88.8972 Y-245.9487 F15000.0
G1 Z11.9000 F2500.0
G4 P0.02
G1 X89.7249 Y-245.9487 F2200.0
G1 Z0.0000 F2500.0
G4 P0.02
G0 X109.0491 Y-246.2213 F15000.0
G1 Z11.9000 F2500.0
G4 P0.02
G1 X87.0141 Y-246.2213 F12000.0
G1 Z0.0000 F2500.0
G4 P0.02
G0 X109.0491 Y-231.5053 F15000.0
G1 Z11.9000 F2500.0
G4 P0.02
G1 X109.0491 Y-248.0900 F12000.0
G1 Z0.0000 F2500.0
G4 P0.02
G0 X115.0446 Y-254.5526 F15000.0
G1 Z11.9000 F2500.0
G4 P0.02
G1 X119.6385 Y-253.9297 F2200.0
G1 X119.1713 Y-254.5526 F2200.0
G1 X119.6385 Y-255.0976 F2200.0
G1 X115.0446 Y-254.5526 F2200.0
G1 Z0.0000 F2500.0
G4 P0.02
G0 X116.9277 Y-254.2801 F15000.0
G1 Z11.9000 F2500.0
G4 P0.02
G1 X117.7554 Y-254.2801 F2200.0
G1 Z0.0000 F2500.0
G4 P0.02
G0 X117.2781 Y-254.8250 F15000.0
G1 Z11.9000 F2500.0
G4 P0.02
G1 X118.1057 Y-254.8250 F2200.0
G1 Z0.0000 F2500.0
G4 P0.02
G0 X115.0446 Y-254.5526 F15000.0
G1 Z11.9000 F2500.0
G4 P0.02
G1 X114.1103 Y-254.5526 F2200.0
G1 Z0.0000 F2500.0
G4 P0.02
G0 X115.0446 Y-223.7190 F15000.0
G1 Z11.9000 F2500.0
G4 P0.02
G1 X115.0446 Y-256.3434 F12000.0
G1 Z0.0000 F2500.0
G4 P0.02
G0 X115.0446 Y-254.5526 F15000.0
G1 Z11.9000 F2500.0
G4 P0.02
G1 X142.4522 Y-254.5526 F12000.0
G1 Z0.0000 F2500.0
G4 P0.02
G0 X114.1103 Y-224.6533 F15000.0
G1 Z11.9000 F2500.0
G4 P0.02
G1 X114.1103 Y-256.3434 F12000.0
G1 Z0.0000 F2500.0
G4 P0.02
G0 X121.5072 Y-180.0382 F15000.0
G1 Z11.9000 F2500.0
G4 P0.02
G1 X126.1011 Y-179.4152 F2200.0
G1 X125.6339 Y-180.0382 F2200.0
G1 X126.1011 Y-180.6610 F2200.0
G1 X121.5072 Y-180.0382 F2200.0
G1 Z0.0000 F2500.0
G4 P0.02
G0 X123.3902 Y-179.7656 F15000.0
G1 Z11.9000 F2500.0
G4 P0.02
G1 X124.2179 Y-179.7656 F2200.0
G1 Z0.0000 F2500.0
G4 P0.02
G0 X123.7017 Y-180.3496 F15000.0
G1 Z11.9000 F2500.0
G4 P0.02
G1 X124.5294 Y-180.3496 F2200.0
G1 Z0.0000 F2500.0
G4 P0.02
G0 X114.1103 Y-180.0382 F15000.0
G1 Z11.9000 F2500.0
G4 P0.02
G1 X109.5163 Y-180.6610 F2200.0
G1 X109.9835 Y-180.0382 F2200.0
G1 X109.5163 Y-179.4152 F2200.0
G1 X114.1103 Y-180.0382 F2200.0
G1 X107.7255 Y-180.0382 F2200.0
G1 Z0.0000 F2500.0
G4 P0.02
G0 X111.1659 Y-180.3496 F15000.0
G1 Z11.9000 F2500.0
G4 P0.02
G1 X111.9936 Y-180.3496 F2200.0
G1 Z0.0000 F2500.0
G4 P0.02
G0 X111.4384 Y-179.7656 F15000.0
G1 Z11.9000 F2500.0
G4 P0.02
G1 X112.2660 Y-179.7656 F2200.0
G1 Z0.0000 F2500.0
G4 P0.02
G0 X121.5072 Y-180.0382 F15000.0
G1 Z11.9000 F2500.0
G4 P0.02
G1 X114.1103 Y-180.0382 F2200.0
G1 Z0.0000 F2500.0
G4 P0.02
G0 X121.5072 Y-180.0382 F15000.0
G1 Z11.9000 F2500.0
G4 P0.02
G1 X137.2354 Y-180.0382 F12000.0
G1 Z0.0000 F2500.0
G4 P0.02
G0 X135.3667 Y-197.9465 F15000.0
G1 Z11.9000 F2500.0
G4 P0.02
G1 X134.7438 Y-202.5404 F2200.0
G1 X135.3667 Y-202.0732 F2200.0
G1 X135.9896 Y-202.5404 F2200.0
G1 X135.3667 Y-197.9465 F2200.0
G1 Z0.0000 F2500.0
G4 P0.02
G0 X135.0942 Y-200.9687 F15000.0
G1 Z11.9000 F2500.0
G4 P0.02
G1 X135.0942 Y-200.1411 F2200.0
G1 Z0.0000 F2500.0
G4 P0.02
G0 X135.6782 Y-200.6962 F15000.0
G1 Z11.9000 F2500.0
G4 P0.02
G1 X135.6782 Y-199.8686 F2200.0
G1 Z0.0000 F2500.0
G4 P0.02
G0 X135.3667 Y-223.7190 F15000.0
G1 Z11.9000 F2500.0
G4 P0.02
G1 X135.9896 Y-219.1251 F2200.0
G1 X135.3667 Y-219.5923 F2200.0
G1 X134.7438 Y-219.1251 F2200.0
G1 X135.3667 Y-223.7190 F2200.0
G1 Z0.0000 F2500.0
G4 P0.02
G0 X135.6782 Y-221.8748 F15000.0
G1 Z11.9000 F2500.0
G4 P0.02
G1 X135.6782 Y-221.0472 F2200.0
G1 Z0.0000 F2500.0
G4 P0.02
G0 X135.0942 Y-221.6023 F15000.0
G1 Z11.9000 F2500.0
G4 P0.02
G1 X135.0942 Y-220.7747 F2200.0
G1 Z0.0000 F2500.0
G4 P0.02
G0 X135.3667 Y-197.9465 F15000.0
G1 Z11.9000 F2500.0
G4 P0.02
G1 X135.3667 Y-223.7190 F12000.0
G1 Z0.0000 F2500.0
G4 P0.02
G0 X121.5072 Y-197.9465 F15000.0
G1 Z11.9000 F2500.0
G4 P0.02
G1 X137.2354 Y-197.9465 F12000.0
G1 Z0.0000 F2500.0
G4 P0.02
G0 X121.5072 Y-223.7190 F15000.0
G1 Z11.9000 F2500.0
G4 P0.02
G1 X137.2354 Y-223.7190 F12000.0
G1 Z0.0000 F2500.0
G4 P0.02
G0 X147.9804 Y-190.1602 F15000.0
G1 Z11.9000 F2500.0
G4 P0.02
G1 X147.4354 Y-194.7542 F2200.0
G1 X147.9804 Y-194.2870 F2200.0
G1 X148.6034 Y-194.7542 F2200.0
G1 X147.9804 Y-190.1602 F2200.0
G1 Z0.0000 F2500.0
G4 P0.02
G0 X147.7468 Y-193.2214 F15000.0
G1 Z11.9000 F2500.0
G4 P0.02
G1 X147.7468 Y-192.3938 F2200.0
G1 Z0.0000 F2500.0
G4 P0.02
G0 X148.2919 Y-192.9099 F15000.0
G1 Z11.9000 F2500.0
G4 P0.02
G1 X148.2919 Y-192.0823 F2200.0
G1 Z0.0000 F2500.0
G4 P0.02
G0 X147.9804 Y-231.5053 F15000.0
G1 Z11.9000 F2500.0
G4 P0.02
G1 X148.6034 Y-226.9114 F2200.0
G1 X147.9804 Y-227.3786 F2200.0
G1 X147.4354 Y-226.9114 F2200.0
G1 X147.9804 Y-231.5053 F2200.0
G1 Z0.0000 F2500.0
G4 P0.02
G0 X148.2919 Y-229.6611 F15000.0
G1 Z11.9000 F2500.0
G4 P0.02
G1 X148.2919 Y-228.8334 F2200.0
G1 Z0.0000 F2500.0
G4 P0.02
G0 X147.7468 Y-229.3496 F15000.0
G1 Z11.9000 F2500.0
G4 P0.02
G1 X147.7468 Y-228.5220 F2200.0
G1 Z0.0000 F2500.0
G4 P0.02
G0 X147.9804 Y-190.1602 F15000.0
G1 Z11.9000 F2500.0
G4 P0.02
G1 X147.9804 Y-231.5053 F12000.0
G1 Z0.0000 F2500.0
G4 P0.02
G0 X114.1103 Y-190.1602 F15000.0
G1 Z11.9000 F2500.0
G4 P0.02
G1 X149.8491 Y-190.1602 F12000.0
G1 Z0.0000 F2500.0
G4 P0.02
G0 X114.1103 Y-231.5053 F15000.0
G1 Z11.9000 F2500.0
G4 P0.02
G1 X149.8491 Y-231.5053 F12000.0
G1 Z0.0000 F2500.0
G4 P0.02
G0 X75.4904 Y-158.3924 F15000.0
G1 Z11.9000 F2500.0
G4 P0.02
G1 X70.8965 Y-159.0153 F2200.0
G1 X71.3637 Y-158.3924 F2200.0
G1 X70.8965 Y-157.8473 F2200.0
G1 X75.4904 Y-158.3924 F2200.0
G1 X69.0278 Y-158.3924 F2200.0
G1 Z0.0000 F2500.0
G4 P0.02
G0 X72.5461 Y-158.7038 F15000.0
G1 Z11.9000 F2500.0
G4 P0.02
G1 X73.3738 Y-158.7038 F2200.0
G1 Z0.0000 F2500.0
G4 P0.02
G0 X72.8186 Y-158.1588 F15000.0
G1 Z11.9000 F2500.0
G4 P0.02
G1 X73.6463 Y-158.1588 F2200.0
G1 Z0.0000 F2500.0
G4 P0.02
G0 X81.0187 Y-158.3924 F15000.0
G1 Z11.9000 F2500.0
G4 P0.02
G1 X85.6126 Y-157.8473 F2200.0
G1 X85.1454 Y-158.3924 F2200.0
G1 X85.6126 Y-159.0153 F2200.0
G1 X81.0187 Y-158.3924 F2200.0
G1 Z0.0000 F2500.0
G4 P0.02
G0 X82.9018 Y-158.1588 F15000.0
G1 Z11.9000 F2500.0
G4 P0.02
G1 X83.7294 Y-158.1588 F2200.0
G1 Z0.0000 F2500.0
G4 P0.02
G0 X83.2132 Y-158.7038 F15000.0
G1 Z11.9000 F2500.0
G4 P0.02
G1 X84.0409 Y-158.7038 F2200.0
G1 Z0.0000 F2500.0
G4 P0.02
G0 X75.4904 Y-158.3924 F15000.0
G1 Z11.9000 F2500.0
G4 P0.02
G1 X81.0187 Y-158.3924 F2200.0
G1 X94.8782 Y-158.3924 F2200.0
G1 Z0.0000 F2500.0
G4 P0.02
G0 X81.0187 Y-174.0427 F15000.0
G1 Z11.9000 F2500.0
G4 P0.02
G1 X81.0187 Y-156.6015 F12000.0
G1 Z0.0000 F2500.0
G4 P0.02
G0 X121.5072 Y-148.5817 F15000.0
G1 Z11.9000 F2500.0
G4 P0.02
G1 X116.9133 Y-147.9587 F2200.0
G1 X117.3805 Y-148.5817 F2200.0
G1 X116.9133 Y-149.1267 F2200.0
G1 X121.5072 Y-148.5817 F2200.0
G1 Z0.0000 F2500.0
G4 P0.02
G0 X118.8354 Y-148.3091 F15000.0
G1 Z11.9000 F2500.0
G4 P0.02
G1 X119.6630 Y-148.3091 F2200.0
G1 Z0.0000 F2500.0
G4 P0.02
G0 X118.5239 Y-148.8542 F15000.0
G1 Z11.9000 F2500.0
G4 P0.02
G1 X119.3516 Y-148.8542 F2200.0
G1 Z0.0000 F2500.0
G4 P0.02
G0 X75.4904 Y-148.5817 F15000.0
G1 Z11.9000 F2500.0
G4 P0.02
G1 X80.0844 Y-149.1267 F2200.0
G1 X79.6172 Y-148.5817 F2200.0
G1 X80.0844 Y-147.9587 F2200.0
G1 X75.4904 Y-148.5817 F2200.0
G1 Z0.0000 F2500.0
G4 P0.02
G0 X77.7239 Y-148.8542 F15000.0
G1 Z11.9000 F2500.0
G4 P0.02
G1 X78.5516 Y-148.8542 F2200.0
G1 Z0.0000 F2500.0
G4 P0.02
G0 X77.3735 Y-148.3091 F15000.0
G1 Z11.9000 F2500.0
G4 P0.02
G1 X78.2012 Y-148.3091 F2200.0
G1 Z0.0000 F2500.0
G4 P0.02
G0 X121.5072 Y-148.5817 F15000.0
G1 Z11.9000 F2500.0
G4 P0.02
G1 X75.4904 Y-148.5817 F12000.0
G1 Z0.0000 F2500.0
G4 P0.02
G0 X121.5072 Y-167.1129 F15000.0
G1 Z11.9000 F2500.0
G4 P0.02
G1 X121.5072 Y-146.7130 F12000.0
G1 Z0.0000 F2500.0
G4 P0.02
G0 X75.4904 Y-167.1129 F15000.0
G1 Z11.9000 F2500.0
G4 P0.02
G1 X75.4904 Y-146.7130 F12000.0
G1 Z0.0000 F2500.0
G4 P0.02
G0 X62.4874 Y-167.1129 F15000.0
G1 Z11.9000 F2500.0
G4 P0.02
G1 X61.9423 Y-162.5191 F2200.0
G1 X62.4874 Y-162.9863 F2200.0
G1 X63.1103 Y-162.5191 F2200.0
G1 X62.4874 Y-167.1129 F2200.0
G1 Z0.0000 F2500.0
G4 P0.02
G0 X62.2538 Y-164.9573 F15000.0
G1 Z11.9000 F2500.0
G4 P0.02
G1 X62.2538 Y-164.1296 F2200.0
G1 Z0.0000 F2500.0
G4 P0.02
G0 X62.7989 Y-165.2688 F15000.0
G1 Z11.9000 F2500.0
G4 P0.02
G1 X62.7989 Y-164.4411 F2200.0
G1 Z0.0000 F2500.0
G4 P0.02
G0 X62.4874 Y-174.0427 F15000.0
G1 Z11.9000 F2500.0
G4 P0.02
G1 X63.1103 Y-178.6366 F2200.0
G1 X62.4874 Y-178.1695 F2200.0
G1 X61.9423 Y-178.6366 F2200.0
G1 X62.4874 Y-174.0427 F2200.0
G1 X62.4874 Y-180.5053 F2200.0
G1 Z0.0000 F2500.0
G4 P0.02
G0 X62.7989 Y-176.7924 F15000.0
G1 Z11.9000 F2500.0
G4 P0.02
G1 X62.7989 Y-175.9647 F2200.0
G1 Z0.0000 F2500.0
G4 P0.02
G0 X62.2538 Y-177.1039 F15000.0
G1 Z11.9000 F2500.0
G4 P0.02
G1 X62.2538 Y-176.2762 F2200.0
G1 Z0.0000 F2500.0
G4 P0.02
G0 X62.4874 Y-167.1129 F15000.0
G1 Z11.9000 F2500.0
G4 P0.02
G1 X62.4874 Y-174.0427 F2200.0
G1 Z0.0000 F2500.0
G4 P0.02
G0 X75.4904 Y-167.1129 F15000.0
G1 Z11.9000 F2500.0
G4 P0.02
G1 X60.6966 Y-167.1129 F12000.0
G1 Z0.0000 F2500.0
G4 P0.02
G0 X62.4874 Y-167.1129 F15000.0
G1 Z11.9000 F2500.0
G4 P0.02
G1 X62.4874 Y-157.3023 F2200.0
G1 Z0.0000 F2500.0
G4 P0.02
G0 X80.0844 Y-174.0427 F15000.0
G1 Z11.9000 F2500.0
G4 P0.02
G1 X60.6966 Y-174.0427 F12000.0
G1 Z0.0000 F2500.0
G4 P0.02
G0 X92.5423 Y-180.4274 F15000.0
G1 Z11.9000 F2500.0
G4 P0.02
G1 X97.1362 Y-179.8046 F2200.0
G1 X96.6690 Y-180.4274 F2200.0
G1 X97.1362 Y-181.0503 F2200.0
G1 X92.5423 Y-180.4274 F2200.0
G1 X98.9271 Y-180.4274 F2200.0
G1 Z0.0000 F2500.0
G4 P0.02
G0 X94.4255 Y-180.1550 F15000.0
G1 Z11.9000 F2500.0
G4 P0.02
G1 X95.2531 Y-180.1550 F2200.0
G1 Z0.0000 F2500.0
G4 P0.02
G0 X94.7368 Y-180.7389 F15000.0
G1 Z11.9000 F2500.0
G4 P0.02
G1 X95.5645 Y-180.7389 F2200.0
G1 Z0.0000 F2500.0
G4 P0.02
G0 X87.0141 Y-180.4274 F15000.0
G1 Z11.9000 F2500.0
G4 P0.02
G1 X82.4202 Y-181.0503 F2200.0
G1 X82.8874 Y-180.4274 F2200.0
G1 X82.4202 Y-179.8046 F2200.0
G1 X87.0141 Y-180.4274 F2200.0
G1 Z0.0000 F2500.0
G4 P0.02
G0 X84.0697 Y-180.7389 F15000.0
G1 Z11.9000 F2500.0
G4 P0.02
G1 X84.8974 Y-180.7389 F2200.0
G1 Z0.0000 F2500.0
G4 P0.02
G0 X84.3423 Y-180.1550 F15000.0
G1 Z11.9000 F2500.0
G4 P0.02
G1 X85.1700 Y-180.1550 F2200.0
G1 Z0.0000 F2500.0
G4 P0.02
G0 X92.5423 Y-180.4274 F15000.0
G1 Z11.9000 F2500.0
G4 P0.02
G1 X87.0141 Y-180.4274 F2200.0
G1 Z0.0000 F2500.0
G4 P0.02
G0 X92.5423 Y-185.5664 F15000.0
G1 Z11.9000 F2500.0
G4 P0.02
G1 X92.5423 Y-178.5587 F2200.0
G1 Z0.0000 F2500.0
G4 P0.02
G0 X87.0141 Y-180.4274 F15000.0
G1 Z11.9000 F2500.0
G4 P0.02
G1 X71.2858 Y-180.4274 F12000.0
G1 Z0.0000 F2500.0
G4 P0.02
G0 X87.0141 Y-185.5664 F15000.0
G1 Z11.9000 F2500.0
G4 P0.02
G1 X87.0141 Y-178.5587 F2200.0
G1 Z0.0000 F2500.0
G4 P0.02
G0 X59.4010 Y-207.0163 F15000.0
G1 Z11.9000 F2500.0
G4 P0.02
G1 X59.6518 Y-206.8491 F2200.0
G1 Z0.0000 F2500.0
G4 P0.02
G0 X59.4010 Y-204.4037 F15000.0
G1 Z11.9000 F2500.0
G4 P0.02
G1 X59.8608 Y-204.4037 F2200.0
G1 X63.7484 Y-202.7943
G1 Z0.0000 F2500.0
G4 P0.02
G0 X63.6230 Y-205.4487 F15000.0
G1 Z11.9000 F2500.0
G4 P0.02
G1 X60.2162 Y-206.6819 F2200.0
G1 X59.9235 Y-206.6819
G1 X61.2611 Y-205.1770
G1 X61.4075 Y-204.8635
G1 X61.5956 Y-204.8008
G1 Z0.0000 F2500.0
G4 P0.02
G0 X59.9235 Y-204.4664 F15000.0
G1 Z11.9000 F2500.0
G4 P0.02
G1 X61.4075 Y-204.8426 F2200.0
G1 Z0.0000 F2500.0
G4 P0.02
G0 X60.9001 Y-209.2085 F15000.0
G1 Z11.9000 F2500.0
G4 P0.02
G1 X59.8342 Y-209.4593 F2200.0
G1 X59.5206 Y-209.2085
G1 X59.5834 Y-208.1008
G1 X59.9178 Y-207.6618
G1 X60.7747 Y-207.2856
G1 X61.3390 Y-207.1811
G1 Z0.0000 F2500.0
G4 P0.02
G0 X61.1927 Y-209.1040 F15000.0
G1 Z11.9000 F2500.0
G4 P0.02
G1 X61.6525 Y-208.9367 F2200.0
G1 X61.7571 Y-208.8114
G1 X62.0706 Y-208.7487
G1 X63.0111 Y-207.9962
G1 X63.6800 Y-206.8885
G1 X63.8263 Y-206.7840
G1 Z0.0000 F2500.0
G4 P0.02
G0 X61.6108 Y-207.3483 F15000.0
G1 Z11.9000 F2500.0
G4 P0.02
G1 X61.7153 Y-207.6827 F2200.0
G1 X61.7571 Y-208.7695
G1 Z0.0000 F2500.0
G4 P0.02
G0 X59.4153 Y-212.1788 F15000.0
G1 Z11.9000 F2500.0
G4 P0.02
G1 X59.5199 Y-210.5486 F2200.0
G1 X60.2096 Y-210.2978
G1 Z0.0000 F2500.0
G4 P0.02
G0 X60.6694 Y-210.1305 F15000.0
G1 Z11.9000 F2500.0
G4 P0.02
G1 X61.3801 Y-209.9424 F2200.0
G1 X61.4636 Y-210.8412
G1 X61.6518 Y-211.1338
G1 Z0.0000 F2500.0
G4 P0.02
G0 X61.4845 Y-210.8830 F15000.0
G1 Z11.9000 F2500.0
G4 P0.02
G1 X61.5055 Y-210.9666 F2200.0
G1 Z0.0000 F2500.0
G4 P0.02
G0 X61.8190 Y-211.1965 F15000.0
G1 Z11.9000 F2500.0
G4 P0.02
G1 X63.2402 Y-210.7366 F2200.0
G1 X63.5120 Y-210.4231
G1 X63.8463 Y-208.8556
G1 Z0.0000 F2500.0
G4 P0.02
G0 X60.7720 Y-214.1610 F15000.0
G1 Z11.9000 F2500.0
G4 P0.02
G1 X61.9424 Y-213.0533 F2200.0
G1 X62.0469 Y-212.8024
G1 X62.4231 Y-212.7816
G1 X63.6562 Y-213.0323
G1 Z0.0000 F2500.0
G4 P0.02
G0 X60.8137 Y-212.5516 F15000.0
G1 Z11.9000 F2500.0
G4 P0.02
G1 X62.0260 Y-212.7607 F2200.0
G1 Z0.0000 F2500.0
G4 P0.02
G0 X62.4440 Y-212.7607 F15000.0
G1 Z11.9000 F2500.0
G4 P0.02
G1 X62.9038 Y-212.1754 F2200.0
G1 Z0.0000 F2500.0
G4 P0.02
G0 X63.1128 Y-211.9874 F15000.0
G1 Z11.9000 F2500.0
G4 P0.02
G1 X63.1547 Y-211.9455 F2200.0
G1 Z0.0000 F2500.0
G4 P0.02
G0 X63.3846 Y-211.7365 F15000.0
G1 Z11.9000 F2500.0
G4 P0.02
G1 X63.7190 Y-211.4230 F2200.0
G1 Z0.0000 F2500.0
G4 P0.02
G0 X59.5834 Y-215.2821 F15000.0
G1 Z11.9000 F2500.0
G4 P0.02
G1 X59.6879 Y-216.5571 F2200.0
G1 Z0.0000 F2500.0
G4 P0.02
G0 X59.8551 Y-216.6198 F15000.0
G1 Z11.9000 F2500.0
G4 P0.02
G1 X60.2104 Y-216.5571 F2200.0
G1 Z0.0000 F2500.0
G4 P0.02
G0 X60.4821 Y-216.4527 F15000.0
G1 Z11.9000 F2500.0
G4 P0.02
G1 X60.9001 Y-216.3063 F2200.0
G1 X61.4018 Y-215.8256
G1 X61.5481 Y-215.2194
G1 Z0.0000 F2500.0
G4 P0.02
G0 X61.4854 Y-215.8465 F15000.0
G1 Z11.9000 F2500.0
G4 P0.02
G1 X61.7989 Y-216.0555 F2200.0
G1 X62.3005 Y-215.9928
G1 X63.1783 Y-215.6375
G1 X63.5128 Y-215.2821
G1 X63.8472 Y-213.7146
G1 Z0.0000 F2500.0
G4 P0.02
G0 X66.2248 Y-188.9923 F15000.0
G1 Z11.9000 F2500.0
G4 P0.02
G1 X65.6019 Y-193.5863 F2200.0
G1 X66.2248 Y-193.1191 F2200.0
G1 X66.8477 Y-193.5863 F2200.0
G1 X66.2248 Y-188.9923 F2200.0
G1 Z0.0000 F2500.0
G4 P0.02
G0 X65.9523 Y-192.0146 F15000.0
G1 Z11.9000 F2500.0
G4 P0.02
G1 X65.9523 Y-191.1869 F2200.0
G1 Z0.0000 F2500.0
G4 P0.02
G0 X66.5363 Y-191.7420 F15000.0
G1 Z11.9000 F2500.0
G4 P0.02
G1 X66.5363 Y-190.9143 F2200.0
G1 Z0.0000 F2500.0
G4 P0.02
G0 X66.2248 Y-232.6732 F15000.0
G1 Z11.9000 F2500.0
G4 P0.02
G1 X66.8477 Y-228.0793 F2200.0
G1 X66.2248 Y-228.5465 F2200.0
G1 X65.6019 Y-228.0793 F2200.0
G1 X66.2248 Y-232.6732 F2200.0
G1 Z0.0000 F2500.0
G4 P0.02
G0 X66.5363 Y-230.8291 F15000.0
G1 Z11.9000 F2500.0
G4 P0.02
G1 X66.5363 Y-230.0014 F2200.0
G1 Z0.0000 F2500.0
G4 P0.02
G0 X65.9523 Y-230.5565 F15000.0
G1 Z11.9000 F2500.0
G4 P0.02
G1 X65.9523 Y-229.7288 F2200.0
G1 Z0.0000 F2500.0
G4 P0.02
G0 X66.2248 Y-188.9923 F15000.0
G1 Z11.9000 F2500.0
G4 P0.02
G1 X66.2248 Y-232.6732 F12000.0
G1 Z0.0000 F2500.0
G4 P0.02
G0 X87.4034 Y-188.9923 F15000.0
G1 Z11.9000 F2500.0
G4 P0.02
G1 X64.3561 Y-188.9923 F12000.0
G1 Z0.0000 F2500.0
G4 P0.02
G0 X87.4034 Y-232.6732 F15000.0
G1 Z11.9000 F2500.0
G4 P0.02
G1 X64.3561 Y-232.6732 F12000.0
G1 Z0.0000 F2500.0
G4 P0.02
G0 X103.7545 Y-192.0289 F15000.0
G1 Z11.9000 F2500.0
G4 P0.02
G1 X100.1728 Y-194.4427 F2200.0
G1 X90.4400 Y-194.4427 F2200.0
G1 Z0.0000 F2500.0
G4 P0.02
G0 X104.3774 Y-187.5130 F15000.0
G1 Z11.9000 F2500.0
G4 P0.02
G1 X109.9057 Y-187.5130 F2200.0
G1 X110.6843 Y-187.6687 F2200.0
G1 X111.3850 Y-188.0579 F2200.0
G1 X111.9301 Y-188.7587 F2200.0
G1 X112.1637 Y-189.5374 F2200.0
G1 X112.0858 Y-190.3938 F2200.0
G1 X111.6965 Y-191.1725 F2200.0
G1 X111.0736 Y-191.7175 F2200.0
G1 X110.2950 Y-192.0289 F2200.0
G1 X109.9057 Y-192.1068 F2200.0
G1 X104.3774 Y-192.1068 F2200.0
G1 X103.5209 Y-191.9511 F2200.0
G1 X102.8202 Y-191.4840 F2200.0
G1 X102.2751 Y-190.7832 F2200.0
G1 X102.0415 Y-190.0045 F2200.0
G1 X102.1194 Y-189.1481 F2200.0
G1 X102.5087 Y-188.4473 F2200.0
G1 X103.1317 Y-187.8244 F2200.0
G1 X103.9102 Y-187.5130 F2200.0
G1 X104.3774 Y-187.5130 F2200.0
G1 Z0.0000 F2500.0
G4 P0.02
G0 X88.1820 Y-231.8945 F15000.0
G1 Z11.9000 F2500.0
G4 P0.02
G1 X88.1820 Y-189.6931 F12000.0
G1 Z0.0000 F2500.0
G4 P0.02
G0 X105.3117 Y-231.8945 F15000.0
G1 Z11.9000 F2500.0
G4 P0.02
G1 X105.3117 Y-189.6931 F12000.0
G1 Z0.0000 F2500.0
G4 P0.02
G0 X109.0491 Y-231.5053 F15000.0
G1 Z11.9000 F2500.0
G4 P0.02
G1 X109.0491 Y-190.1602 F12000.0
G1 Z0.0000 F2500.0
G4 P0.02
G0 X121.5072 Y-223.7190 F15000.0
G1 Z11.9000 F2500.0
G4 P0.02
G1 X121.5072 Y-197.9465 F12000.0
G1 Z0.0000 F2500.0
G4 P0.02
G0 X87.0141 Y-233.0625 F15000.0
G1 Z11.9000 F2500.0
G4 P0.02
G1 X87.0141 Y-188.6030 F12000.0
G1 Z0.0000 F2500.0
G4 P0.02
G0 X114.1103 Y-224.6533 F15000.0
G1 Z11.9000 F2500.0
G4 P0.02
G1 X114.1103 Y-197.0122 F12000.0
G1 Z0.0000 F2500.0
G4 P0.02
G0 X115.0446 Y-223.7190 F15000.0
G1 Z11.9000 F2500.0
G4 P0.02
G1 X115.0446 Y-197.9465 F12000.0
G1 Z0.0000 F2500.0
G4 P0.02
G0 X87.4034 Y-188.9923 F15000.0
G1 Z11.9000 F2500.0
G4 P0.02
G1 X106.0125 Y-188.9923 F12000.0
G1 Z0.0000 F2500.0
G4 P0.02
G0 X87.4034 Y-232.6732 F15000.0
G1 Z11.9000 F2500.0
G4 P0.02
G1 X106.0125 Y-232.6732 F12000.0
G1 Z0.0000 F2500.0
G4 P0.02
G0 X114.1103 Y-197.0122 F15000.0
G1 Z11.9000 F2500.0
G4 P0.02
G1 X115.0446 Y-197.9465 F2200.0
G1 Z0.0000 F2500.0
G4 P0.02
G0 X81.0187 Y-174.0427 F15000.0
G1 Z11.9000 F2500.0
G4 P0.02
G1 X92.5423 Y-185.5664 F2200.0
G1 Z0.0000 F2500.0
G4 P0.02
G0 X108.3484 Y-188.6809 F15000.0
G1 Z11.9000 F2500.0
G4 P0.02
G1 X108.8156 Y-188.8366 F2200.0
G1 X109.0491 Y-189.2259 F2200.0
G1 Z0.0000 F2500.0
G4 P0.02
G0 X87.0141 Y-185.5664 F15000.0
G1 Z11.9000 F2500.0
G4 P0.02
G1 X87.0141 Y-188.6030 F2200.0
G1 Z0.0000 F2500.0
G4 P0.02
G0 X106.4797 Y-232.9068 F15000.0
G1 Z11.9000 F2500.0
G4 P0.02
G1 X108.3484 Y-232.9068 F2200.0
G1 Z0.0000 F2500.0
G4 P0.02
G0 X105.3117 Y-189.6931 F15000.0
G1 Z11.9000 F2500.0
G4 P0.02
G1 X106.1683 Y-188.8366 F2200.0
G1 Z0.0000 F2500.0
G4 P0.02
G0 X88.1820 Y-231.8945 F15000.0
G1 Z11.9000 F2500.0
G4 P0.02
G1 X105.3117 Y-231.8945 F12000.0
G1 Z0.0000 F2500.0
G4 P0.02
G0 X121.5072 Y-236.0991 F15000.0
G1 Z11.9000 F2500.0
G4 P0.02
G1 X87.0141 Y-236.0991 F12000.0
G1 Z0.0000 F2500.0
G4 P0.02
G0 X87.0141 Y-233.0625 F15000.0
G1 Z11.9000 F2500.0
G4 P0.02
G1 X88.1820 Y-231.8945 F2200.0
G1 Z0.0000 F2500.0
G4 P0.02
G0 X88.1820 Y-189.6931 F15000.0
G1 Z11.9000 F2500.0
G4 P0.02
G1 X105.3117 Y-189.6931 F12000.0
G1 Z0.0000 F2500.0
G4 P0.02
G0 X106.1683 Y-188.8366 F15000.0
G1 Z11.9000 F2500.0
G4 P0.02
G1 X106.4797 Y-188.6809 F2200.0
G1 Z0.0000 F2500.0
G4 P0.02
G0 X92.5423 Y-185.5664 F15000.0
G1 Z11.9000 F2500.0
G4 P0.02
G1 X87.0141 Y-185.5664 F2200.0
G1 Z0.0000 F2500.0
G4 P0.02
G0 X106.1683 Y-232.8289 F15000.0
G1 Z11.9000 F2500.0
G4 P0.02
G1 X106.4797 Y-232.9068 F2200.0
G1 Z0.0000 F2500.0
G4 P0.02
G0 X105.3117 Y-231.8945 F15000.0
G1 Z11.9000 F2500.0
G4 P0.02
G1 X106.1683 Y-232.8289 F2200.0
G1 Z0.0000 F2500.0
G4 P0.02
G0 X109.0491 Y-189.4595 F15000.0
G1 Z11.9000 F2500.0
G4 P0.02
G1 X109.0491 Y-190.1602 F2200.0
G1 Z0.0000 F2500.0
G4 P0.02
G0 X121.5072 Y-197.9465 F15000.0
G1 Z11.9000 F2500.0
G4 P0.02
G1 X121.5072 Y-167.1129 F12000.0
G1 Z0.0000 F2500.0
G4 P0.02
G0 X75.4904 Y-174.0427 F15000.0
G1 Z11.9000 F2500.0
G4 P0.02
G1 X81.0187 Y-174.0427 F2200.0
G1 Z0.0000 F2500.0
G4 P0.02
G0 X115.0446 Y-223.7190 F15000.0
G1 Z11.9000 F2500.0
G4 P0.02
G1 X121.5072 Y-223.7190 F2200.0
G1 Z0.0000 F2500.0
G4 P0.02
G0 X75.4904 Y-167.1129 F15000.0
G1 Z11.9000 F2500.0
G4 P0.02
G1 X121.5072 Y-167.1129 F12000.0
G1 Z0.0000 F2500.0
G4 P0.02
G0 X109.0491 Y-231.5053 F15000.0
G1 Z11.9000 F2500.0
G4 P0.02
G1 X114.1103 Y-231.5053 F2200.0
G1 Z0.0000 F2500.0
G4 P0.02
G0 X108.3484 Y-232.9068 F15000.0
G1 Z11.9000 F2500.0
G4 P0.02
G1 X108.8156 Y-232.7511 F2200.0
G1 X109.0491 Y-232.3617 F2200.0
G1 Z0.0000 F2500.0
G4 P0.02
G0 X75.4904 Y-167.1129 F15000.0
G1 Z11.9000 F2500.0
G4 P0.02
G1 X75.4904 Y-174.0427 F2200.0
G1 Z0.0000 F2500.0
G4 P0.02
G0 X115.0446 Y-197.9465 F15000.0
G1 Z11.9000 F2500.0
G4 P0.02
G1 X121.5072 Y-197.9465 F2200.0
G1 Z0.0000 F2500.0
G4 P0.02
G0 X87.0141 Y-188.6030 F15000.0
G1 Z11.9000 F2500.0
G4 P0.02
G1 X88.1820 Y-189.6931 F2200.0
G1 Z0.0000 F2500.0
G4 P0.02
G0 X121.5072 Y-236.0991 F15000.0
G1 Z11.9000 F2500.0
G4 P0.02
G1 X121.5072 Y-223.7190 F2200.0
G1 Z0.0000 F2500.0
G4 P0.02
G0 X114.1103 Y-224.6533 F15000.0
G1 Z11.9000 F2500.0
G4 P0.02
G1 X115.0446 Y-223.7190 F2200.0
G1 Z0.0000 F2500.0
G4 P0.02
G0 X106.4797 Y-188.6809 F15000.0
G1 Z11.9000 F2500.0
G4 P0.02
G1 X108.3484 Y-188.6809 F2200.0
G1 Z0.0000 F2500.0
G4 P0.02
G0 X114.1103 Y-190.1602 F15000.0
G1 Z11.9000 F2500.0
G4 P0.02
G1 X114.1103 Y-197.0122 F2200.0
G1 Z0.0000 F2500.0
G4 P0.02
G0 X109.0491 Y-190.1602 F15000.0
G1 Z11.9000 F2500.0
G4 P0.02
G1 X114.1103 Y-190.1602 F2200.0
G1 Z0.0000 F2500.0
G4 P0.02
G0 X73.6217 Y-96.6474 F15000.0
G1 Z11.9000 F2500.0
G4 P0.02
G1 X82.8874 Y-96.6474 F2200.0
G1 Z0.0000 F2500.0
G4 P0.02
G0 X84.2889 Y-96.6474 F15000.0
G1 Z11.9000 F2500.0
G4 P0.02
G1 X85.7683 Y-96.6474 F2200.0
G1 Z0.0000 F2500.0
G4 P0.02
G0 X87.1698 Y-96.6474 F15000.0
G1 Z11.9000 F2500.0
G4 P0.02
G1 X96.3576 Y-96.6474 F2200.0
G1 Z0.0000 F2500.0
G4 P0.02
G0 X97.7591 Y-96.6474 F15000.0
G1 Z11.9000 F2500.0
G4 P0.02
G1 X99.2385 Y-96.6474 F2200.0
G1 Z0.0000 F2500.0
G4 P0.02
G0 X100.6400 Y-96.6474 F15000.0
G1 Z11.9000 F2500.0
G4 P0.02
G1 X109.8278 Y-96.6474 F2200.0
G1 Z0.0000 F2500.0
G4 P0.02
G0 X111.2293 Y-96.6474 F15000.0
G1 Z11.9000 F2500.0
G4 P0.02
G1 X112.7088 Y-96.6474 F2200.0
G1 Z0.0000 F2500.0
G4 P0.02
G0 X114.1103 Y-96.6474 F15000.0
G1 Z11.9000 F2500.0
G4 P0.02
G1 X123.2980 Y-96.6474 F2200.0
G1 Z0.0000 F2500.0
G4 P0.02
G0 X82.4202 Y-125.3786 F15000.0
G1 Z11.9000 F2500.0
G4 P0.02
G1 X82.4202 Y-119.6168 F2200.0
G1 Z0.0000 F2500.0
G4 P0.02
G0 X82.4202 Y-113.8550 F15000.0
G1 Z11.9000 F2500.0
G4 P0.02
G1 X82.4202 Y-119.6168 F2200.0
G1 Z0.0000 F2500.0
G4 P0.02
G0 X76.6583 Y-119.6168 F15000.0
G1 Z11.9000 F2500.0
G4 P0.02
G1 X82.4202 Y-119.6168 F2200.0
G1 Z0.0000 F2500.0
G4 P0.02
G0 X88.1820 Y-119.6168 F15000.0
G1 Z11.9000 F2500.0
G4 P0.02
G1 X82.4202 Y-119.6168 F2200.0
G1 Z0.0000 F2500.0
G4 P0.02
G0 X76.6583 Y-73.6000 F15000.0
G1 Z11.9000 F2500.0
G4 P0.02
G1 X82.4202 Y-73.6000 F2200.0
G1 Z0.0000 F2500.0
G4 P0.02
G0 X88.1820 Y-73.6000 F15000.0
G1 Z11.9000 F2500.0
G4 P0.02
G1 X82.4202 Y-73.6000 F2200.0
G1 Z0.0000 F2500.0
G4 P0.02
G0 X82.4202 Y-67.9161 F15000.0
G1 Z11.9000 F2500.0
G4 P0.02
G1 X82.4202 Y-73.6000 F2200.0
G1 Z0.0000 F2500.0
G4 P0.02
G0 X82.4202 Y-79.3619 F15000.0
G1 Z11.9000 F2500.0
G4 P0.02
G1 X82.4202 Y-73.6000 F2200.0
G1 Z0.0000 F2500.0
G4 P0.02
G0 X111.1514 Y-73.6000 F15000.0
G1 Z11.9000 F2500.0
G4 P0.02
G1 X105.3896 Y-73.6000 F2200.0
G1 Z0.0000 F2500.0
G4 P0.02
G0 X99.6278 Y-73.6000 F15000.0
G1 Z11.9000 F2500.0
G4 P0.02
G1 X105.3896 Y-73.6000 F2200.0
G1 Z0.0000 F2500.0
G4 P0.02
G0 X105.3896 Y-79.3619 F15000.0
G1 Z11.9000 F2500.0
G4 P0.02
G1 X105.3896 Y-73.6000 F2200.0
G1 Z0.0000 F2500.0
G4 P0.02
G0 X105.3896 Y-67.9161 F15000.0
G1 Z11.9000 F2500.0
G4 P0.02
G1 X105.3896 Y-73.6000 F2200.0
G1 Z0.0000 F2500.0
G4 P0.02
G0 X111.1514 Y-119.6168 F15000.0
G1 Z11.9000 F2500.0
G4 P0.02
G1 X105.3896 Y-119.6168 F2200.0
G1 Z0.0000 F2500.0
G4 P0.02
G0 X99.6278 Y-119.6168 F15000.0
G1 Z11.9000 F2500.0
G4 P0.02
G1 X105.3896 Y-119.6168 F2200.0
G1 Z0.0000 F2500.0
G4 P0.02
G0 X105.3896 Y-125.3786 F15000.0
G1 Z11.9000 F2500.0
G4 P0.02
G1 X105.3896 Y-119.6168 F2200.0
G1 Z0.0000 F2500.0
G4 P0.02
G0 X105.3896 Y-113.8550 F15000.0
G1 Z11.9000 F2500.0
G4 P0.02
G1 X105.3896 Y-119.6168 F2200.0
G1 Z0.0000 F2500.0
G4 P0.02
G0 X77.7485 Y-124.7558 F15000.0
G1 Z11.9000 F2500.0
G4 P0.02
G1 X81.3301 Y-121.7191 F2200.0
G1 X80.5515 Y-121.6412 F2200.0
G1 X80.3958 Y-120.9405 F2200.0
G1 X77.7485 Y-124.7558 F2200.0
G1 Z0.0000 F2500.0
G4 P0.02
G0 X79.2563 Y-123.5204 F15000.0
G1 Z11.9000 F2500.0
G4 P0.02
G1 X79.9001 Y-122.8767 F2200.0
G1 Z0.0000 F2500.0
G4 P0.02
G0 X78.9449 Y-123.0921 F15000.0
G1 Z11.9000 F2500.0
G4 P0.02
G1 X79.5887 Y-122.4484 F2200.0
G1 Z0.0000 F2500.0
G4 P0.02
G0 X82.4202 Y-119.6168 F15000.0
G1 Z11.9000 F2500.0
G4 P0.02
G1 X77.7485 Y-124.7558 F2200.0
G1 X73.9332 Y-128.9603 F2200.0
G1 X61.1638 Y-128.9603 F2200.0
G1 Z0.0000 F2500.0
G4 P0.02
G0 X66.3805 Y-73.6000 F15000.0
G1 Z11.9000 F2500.0
G4 P0.02
G1 X65.7576 Y-78.1940 F2200.0
G1 X66.3805 Y-77.8046 F2200.0
G1 X67.0034 Y-78.1940 F2200.0
G1 X66.3805 Y-73.6000 F2200.0
G1 Z0.0000 F2500.0
G4 P0.02
G0 X66.1080 Y-76.6223 F15000.0
G1 Z11.9000 F2500.0
G4 P0.02
G1 X66.1080 Y-75.7947 F2200.0
G1 Z0.0000 F2500.0
G4 P0.02
G0 X66.6920 Y-76.3498 F15000.0
G1 Z11.9000 F2500.0
G4 P0.02
G1 X66.6920 Y-75.5221 F2200.0
G1 Z0.0000 F2500.0
G4 P0.02
G0 X66.3805 Y-119.6168 F15000.0
G1 Z11.9000 F2500.0
G4 P0.02
G1 X67.0034 Y-115.0230 F2200.0
G1 X66.3805 Y-115.4901 F2200.0
G1 X65.7576 Y-115.0230 F2200.0
G1 X66.3805 Y-119.6168 F2200.0
G1 Z0.0000 F2500.0
G4 P0.02
G0 X66.6920 Y-117.7727 F15000.0
G1 Z11.9000 F2500.0
G4 P0.02
G1 X66.6920 Y-116.9450 F2200.0
G1 Z0.0000 F2500.0
G4 P0.02
G0 X66.1080 Y-117.5001 F15000.0
G1 Z11.9000 F2500.0
G4 P0.02
G1 X66.1080 Y-116.6724 F2200.0
G1 Z0.0000 F2500.0
G4 P0.02
G0 X66.3805 Y-73.6000 F15000.0
G1 Z11.9000 F2500.0
G4 P0.02
G1 X66.3805 Y-119.6168 F12000.0
G1 Z0.0000 F2500.0
G4 P0.02
G0 X78.5270 Y-73.6000 F15000.0
G1 Z11.9000 F2500.0
G4 P0.02
G1 X64.5897 Y-73.6000 F2200.0
G1 Z0.0000 F2500.0
G4 P0.02
G0 X78.5270 Y-119.6168 F15000.0
G1 Z11.9000 F2500.0
G4 P0.02
G1 X64.5897 Y-119.6168 F2200.0
G1 Z0.0000 F2500.0
G4 P0.02
G0 X105.3896 Y-53.2780 F15000.0
G1 Z11.9000 F2500.0
G4 P0.02
G1 X100.7958 Y-52.6550 F2200.0
G1 X101.2630 Y-53.2780 F2200.0
G1 X100.7958 Y-53.9009 F2200.0
G1 X105.3896 Y-53.2780 F2200.0
G1 Z0.0000 F2500.0
G4 P0.02
G0 X102.7178 Y-53.0054 F15000.0
G1 Z11.9000 F2500.0
G4 P0.02
G1 X103.5455 Y-53.0054 F2200.0
G1 Z0.0000 F2500.0
G4 P0.02
G0 X102.4452 Y-53.5894 F15000.0
G1 Z11.9000 F2500.0
G4 P0.02
G1 X103.2729 Y-53.5894 F2200.0
G1 Z0.0000 F2500.0
G4 P0.02
G0 X82.4202 Y-53.2780 F15000.0
G1 Z11.9000 F2500.0
G4 P0.02
G1 X87.0141 Y-53.9009 F2200.0
G1 X86.5469 Y-53.2780 F2200.0
G1 X87.0141 Y-52.6550 F2200.0
G1 X82.4202 Y-53.2780 F2200.0
G1 Z0.0000 F2500.0
G4 P0.02
G0 X84.6148 Y-53.5894 F15000.0
G1 Z11.9000 F2500.0
G4 P0.02
G1 X85.4424 Y-53.5894 F2200.0
G1 Z0.0000 F2500.0
G4 P0.02
G0 X84.3033 Y-53.0054 F15000.0
G1 Z11.9000 F2500.0
G4 P0.02
G1 X85.1310 Y-53.0054 F2200.0
G1 Z0.0000 F2500.0
G4 P0.02
G0 X105.3896 Y-53.2780 F15000.0
G1 Z11.9000 F2500.0
G4 P0.02
G1 X82.4202 Y-53.2780 F12000.0
G1 Z0.0000 F2500.0
G4 P0.02
G0 X105.3896 Y-69.7069 F15000.0
G1 Z11.9000 F2500.0
G4 P0.02
G1 X105.3896 Y-51.4871 F12000.0
G1 Z0.0000 F2500.0
G4 P0.02
G0 X82.4202 Y-69.7069 F15000.0
G1 Z11.9000 F2500.0
G4 P0.02
G1 X82.4202 Y-51.4871 F12000.0
G1 Z0.0000 F2500.0
G4 P0.02
G0 X86.3133 Y-119.6168 F15000.0
G1 Z11.9000 F2500.0
G4 P0.02
G1 X86.1576 Y-120.7069 F2200.0
G1 X85.6905 Y-121.7191 F2200.0
G1 X84.9897 Y-122.5756 F2200.0
G1 X84.0554 Y-123.1206 F2200.0
G1 X83.0431 Y-123.5099 F2200.0
G1 X81.8752 Y-123.5099 F2200.0
G1 X80.8629 Y-123.1985 F2200.0
G1 X79.9286 Y-122.6535 F2200.0
G1 X79.1500 Y-121.7970 F2200.0
G1 X78.6828 Y-120.8627 F2200.0
G1 X78.5270 Y-119.7725 F2200.0
G1 X78.6049 Y-118.6825 F2200.0
G1 X78.9942 Y-117.6702 F2200.0
G1 X79.6950 Y-116.7359 F2200.0
G1 X80.6293 Y-116.1130 F2200.0
G1 X81.6416 Y-115.8015 F2200.0
G1 X82.7316 Y-115.7237 F2200.0
G1 X83.8218 Y-115.9573 F2200.0
G1 X84.7561 Y-116.5023 F2200.0
G1 X85.5347 Y-117.2810 F2200.0
G1 X86.0797 Y-118.2932 F2200.0
G1 X86.3133 Y-119.3832 F2200.0
G1 Z0.0000 F2500.0
G4 P0.02
G0 X82.4202 Y-66.7482 F15000.0
G1 Z11.9000 F2500.0
G4 P0.02
G1 X114.1103 Y-66.7482 F12000.0
G1 Z0.0000 F2500.0
G4 P0.02
G0 X114.1103 Y-126.5466 F15000.0
G1 Z11.9000 F2500.0
G4 P0.02
G1 X82.4202 Y-126.5466 F12000.0
G1 Z0.0000 F2500.0
G4 P0.02
G0 X102.1973 Y-71.3421 F15000.0
G1 Z11.9000 F2500.0
G4 P0.02
G1 X102.9759 Y-70.5635 F2200.0
G1 X103.9881 Y-70.0184 F2200.0
G1 X105.0004 Y-69.7069 F2200.0
G1 X106.0904 Y-69.7848 F2200.0
G1 X107.1804 Y-70.1741 F2200.0
G1 X108.0370 Y-70.7971 F2200.0
G1 X108.5820 Y-71.3421 F2200.0
G1 Z0.0000 F2500.0
G4 P0.02
G0 X108.5820 Y-121.8748 F15000.0
G1 Z11.9000 F2500.0
G4 P0.02
G1 X107.8034 Y-122.7314 F2200.0
G1 X106.7912 Y-123.2763 F2200.0
G1 X105.7789 Y-123.5099 F2200.0
G1 X104.6889 Y-123.4321 F2200.0
G1 X103.5988 Y-123.1206 F2200.0
G1 X102.7423 Y-122.4978 F2200.0
G1 X102.1973 Y-121.8748 F2200.0
G1 Z0.0000 F2500.0
G4 P0.02
G0 X75.4904 Y-73.6000 F15000.0
G1 Z11.9000 F2500.0
G4 P0.02
G1 X75.6462 Y-72.1986 F2200.0
G1 X76.1134 Y-70.7971 F2200.0
G1 X76.8919 Y-69.5513 F2200.0
G1 X77.8263 Y-68.4612 F2200.0
G1 X79.0721 Y-67.6047 F2200.0
G1 X80.3958 Y-67.0597 F2200.0
G1 X81.7973 Y-66.7482 F2200.0
G1 X82.4202 Y-66.7482 F2200.0
G1 Z0.0000 F2500.0
G4 P0.02
G0 X86.3133 Y-73.6000 F15000.0
G1 Z11.9000 F2500.0
G4 P0.02
G1 X86.1576 Y-74.6902 F2200.0
G1 X85.6905 Y-75.7023 F2200.0
G1 X84.9897 Y-76.5589 F2200.0
G1 X84.0554 Y-77.1818 F2200.0
G1 X83.0431 Y-77.4932 F2200.0
G1 X81.8752 Y-77.4932 F2200.0
G1 X80.8629 Y-77.1818 F2200.0
G1 X79.9286 Y-76.6367 F2200.0
G1 X79.1500 Y-75.8581 F2200.0
G1 X78.6828 Y-74.8459 F2200.0
G1 X78.5270 Y-73.7558 F2200.0
G1 X78.6049 Y-72.6658 F2200.0
G1 X78.9942 Y-71.6535 F2200.0
G1 X79.6950 Y-70.7971 F2200.0
G1 X80.6293 Y-70.1741 F2200.0
G1 X81.6416 Y-69.7848 F2200.0
G1 X82.7316 Y-69.7069 F2200.0
G1 X83.8218 Y-70.0184 F2200.0
G1 X84.7561 Y-70.5635 F2200.0
G1 X85.5347 Y-71.3421 F2200.0
G1 X86.0797 Y-72.2764 F2200.0
G1 X86.3133 Y-73.3665 F2200.0
G1 Z0.0000 F2500.0
G4 P0.02
G0 X75.4904 Y-119.6168 F15000.0
G1 Z11.9000 F2500.0
G4 P0.02
G1 X75.4904 Y-73.6000 F12000.0
G1 Z0.0000 F2500.0
G4 P0.02
G0 X82.4202 Y-126.5466 F15000.0
G1 Z11.9000 F2500.0
G4 P0.02
G1 X80.9408 Y-126.3909 F2200.0
G1 X79.5393 Y-125.9237 F2200.0
G1 X78.2935 Y-125.1450 F2200.0
G1 X77.2034 Y-124.1329 F2200.0
G1 X76.3470 Y-122.9650 F2200.0
G1 X75.8019 Y-121.6412 F2200.0
G1 X75.4904 Y-120.1619 F2200.0
G1 X75.4904 Y-119.6168 F2200.0
G1 Z0.0000 F2500.0
G4 P0.02
G0 X114.1103 Y-71.4978 F15000.0
G1 Z11.9000 F2500.0
G4 P0.02
G1 X114.1103 Y-66.7482 F2200.0
G1 Z0.0000 F2500.0
G4 P0.02
G0 X121.5072 Y-66.7482 F15000.0
G1 Z11.9000 F2500.0
G4 P0.02
G1 X114.1103 Y-66.7482 F2200.0
G1 Z0.0000 F2500.0
G4 P0.02
G0 X114.1103 Y-126.5466 F15000.0
G1 Z11.9000 F2500.0
G4 P0.02
G1 X114.1103 Y-121.7191 F2200.0
G1 Z0.0000 F2500.0
G4 P0.02
G0 X121.5072 Y-71.4978 F15000.0
G1 Z11.9000 F2500.0
G4 P0.02
G1 X121.5072 Y-66.7482 F2200.0
G1 Z0.0000 F2500.0
G4 P0.02
G0 X114.1103 Y-126.5466 F15000.0
G1 Z11.9000 F2500.0
G4 P0.02
G1 X121.5072 Y-126.5466 F2200.0
G1 X121.5072 Y-121.7191 F2200.0
G1 Z0.0000 F2500.0
G4 P0.02
G0 X87.0141 Y-100.3069 F15000.0
G1 Z11.9000 F2500.0
G4 P0.02
G1 X81.0187 Y-100.3069 F2200.0
G1 X81.0187 Y-92.9100 F2200.0
G1 Z0.0000 F2500.0
G4 P0.02
G0 X87.0141 Y-92.9100 F15000.0
G1 Z11.9000 F2500.0
G4 P0.02
G1 X81.0187 Y-92.9100 F2200.0
G1 Z0.0000 F2500.0
G4 P0.02
G0 X114.1103 Y-121.8748 F15000.0
G1 Z11.9000 F2500.0
G4 P0.02
G1 X87.0141 Y-121.8748 F12000.0
G1 Z0.0000 F2500.0
G4 P0.02
G0 X121.5072 Y-71.4978 F15000.0
G1 Z11.9000 F2500.0
G4 P0.02
G1 X121.5072 Y-121.7191 F12000.0
G1 Z0.0000 F2500.0
G4 P0.02
G0 X114.1103 Y-71.3421 F15000.0
G1 Z11.9000 F2500.0
G4 P0.02
G1 X87.0141 Y-71.3421 F12000.0
G1 X87.0141 Y-121.8748 F12000.0
G1 Z0.0000 F2500.0
G4 P0.02
G0 X61.1638 Y-264.1297 F15000.0
G1 Z11.9000 F2500.0
G4 P0.02
G1 X0.0000 Y-264.1297 F12000.0
G1 Z0.0000 F2500.0
G4 P0.02
G0 X61.1638 Y-276.9770 F15000.0
G1 Z11.9000 F2500.0
G4 P0.02
G1 X61.1638 Y-264.1297 F2200.0
G1 Z0.0000 F2500.0
G4 P0.02
G0 X93.2575 Y-198.1453 F15000.0
G1 Z11.9000 F2500.0
G4 P0.02
G1 X95.5356 Y-206.5893 F2200.0
G1 X95.5356 Y-205.7950
G1 Z0.0000 F2500.0
G4 P0.02
G0 X96.9569 Y-201.3431 F15000.0
G1 Z11.9000 F2500.0
G4 P0.02
G1 X97.0405 Y-200.7161 F2200.0
G1 X97.8139 Y-198.1871
G1 Z0.0000 F2500.0
G4 P0.02
G0 X97.1241 Y-200.6325 F15000.0
G1 Z11.9000 F2500.0
G4 P0.02
G1 X97.0197 Y-200.6952 F2200.0
G1 X94.0517 Y-200.6952
G1 Z0.0000 F2500.0
G4 P0.02
G0 X95.6015 Y-205.7745 F15000.0
G1 Z11.9000 F2500.0
G4 P0.02
G1 X95.9986 Y-205.1056 F2200.0
G1 X97.0228 Y-201.3226
G1 Z0.0000 F2500.0
G4 P0.02
G0 X97.8797 Y-198.1666 F15000.0
G1 Z11.9000 F2500.0
G4 P0.02
G1 X97.1900 Y-200.6120 F2200.0
G1 X97.0855 Y-200.6747
G1 Z0.0000 F2500.0
G4 P0.02
G0 X96.3576 Y-210.7938 F15000.0
G1 Z11.9000 F2500.0
G4 P0.02
G1 X97.9148 Y-210.7938 F2200.0
G1 Z0.0000 F2500.0
G4 P0.02
G0 X44.2856 Y-267.6013 F15000.0
G1 Z11.9000 F2500.0
G4 P0.02
G1 X44.4060 Y-267.3159 F2200.0
G1 X44.6778 Y-267.7549
G1 Z0.0000 F2500.0
G4 P0.02
G0 X46.4125 Y-272.8337 F15000.0
G1 Z11.9000 F2500.0
G4 P0.02
G1 X46.6007 Y-273.2100 F2200.0
G1 X46.4335 Y-272.8756
G1 X47.3740 Y-270.2211
G1 X47.2904 Y-269.9285
G1 X46.9769 Y-269.8240
G1 Z0.0000 F2500.0
G4 P0.02
G0 X47.8756 Y-267.8176 F15000.0
G1 Z11.9000 F2500.0
G4 P0.02
G1 X48.0010 Y-267.7130 F2200.0
G1 Z0.0000 F2500.0
G4 P0.02
G0 X47.9801 Y-267.1696 F15000.0
G1 Z11.9000 F2500.0
G4 P0.02
G1 X48.7534 Y-269.1552 F2200.0
G1 Z0.0000 F2500.0
G4 P0.02
G0 X44.3327 Y-267.5509 F15000.0
G1 Z11.9000 F2500.0
G4 P0.02
G1 X44.4532 Y-267.2656 F2200.0
G1 Z0.0000 F2500.0
G4 P0.02
G0 X44.7249 Y-267.7045 F15000.0
G1 Z11.9000 F2500.0
G4 P0.02
G1 X46.4597 Y-272.7834 F2200.0
G1 X46.6477 Y-273.1597
G1 X46.4806 Y-272.8252
G1 Z0.0000 F2500.0
G4 P0.02
G0 X47.4211 Y-270.1708 F15000.0
G1 Z11.9000 F2500.0
G4 P0.02
G1 X47.3375 Y-269.8782 F2200.0
G1 X47.0240 Y-269.7737
G1 Z0.0000 F2500.0
G4 P0.02
G0 X47.3584 Y-269.8782 F15000.0
G1 Z11.9000 F2500.0
G4 P0.02
G1 X47.9227 Y-267.7672 F2200.0
G1 X48.0482 Y-267.6627
G1 X48.0272 Y-267.1193
G1 Z0.0000 F2500.0
G4 P0.02
G0 X48.5706 Y-268.4778 F15000.0
G1 Z11.9000 F2500.0
G4 P0.02
G1 X50.0546 Y-272.4699 F2200.0
G1 Z0.0000 F2500.0
G4 P0.02
G0 X49.8247 Y-271.8428 F15000.0
G1 Z11.9000 F2500.0
G4 P0.02
G1 X50.3263 Y-273.1597 F2200.0
G1 Z0.0000 F2500.0
G4 P0.02
G0 X46.9769 Y-269.8240 F15000.0
G1 Z11.9000 F2500.0
G4 P0.02
G1 X44.8241 Y-267.8176 F2200.0
G1 X43.1517 Y-267.1072
G1 Z0.0000 F2500.0
G4 P0.02
G0 X43.4025 Y-267.5251 F15000.0
G1 Z11.9000 F2500.0
G4 P0.02
G1 X44.0296 Y-269.3227 F2200.0
G1 X44.0087 Y-269.9915
G1 X43.7160 Y-270.2840
G1 X41.8141 Y-270.3886
G1 Z0.0000 F2500.0
G4 P0.02
G0 X40.3720 Y-267.0863 F15000.0
G1 Z11.9000 F2500.0
G4 P0.02
G1 X39.5185 Y-267.8592 F2200.0
G1 Z0.0000 F2500.0
G4 P0.02
G0 X43.1342 Y-267.1738 F15000.0
G1 Z11.9000 F2500.0
G4 P0.02
G1 X43.3850 Y-267.5919 F2200.0
G1 Z0.0000 F2500.0
G4 P0.02
G0 X44.0120 Y-269.3893 F15000.0
G1 Z11.9000 F2500.0
G4 P0.02
G1 X43.9911 Y-270.0582 F2200.0
G1 X43.6985 Y-270.3508
G1 Z0.0000 F2500.0
G4 P0.02
G0 X41.7966 Y-270.4553 F15000.0
G1 Z11.9000 F2500.0
G4 P0.02
G1 X42.5281 Y-272.7962 F2200.0
G1 X40.3544 Y-267.1530
G1 Z0.0000 F2500.0
G4 P0.02
G0 X42.5456 Y-272.7295 F15000.0
G1 Z11.9000 F2500.0
G4 P0.02
G1 X42.7338 Y-273.2102 F2200.0
G1 Z0.0000 F2500.0
G4 P0.02
G0 X40.9189 Y-272.9800 F15000.0
G1 Z11.9000 F2500.0
G4 P0.02
G1 X41.1488 Y-272.5829 F2200.0
G1 X41.0861 Y-271.9140
G1 X39.5185 Y-267.8592
G1 Z0.0000 F2500.0
G4 P0.02
G0 X37.0523 Y-267.4830 F15000.0
G1 Z11.9000 F2500.0
G4 P0.02
G1 X36.9687 Y-267.6712 F2200.0
G1 Z0.0000 F2500.0
G4 P0.02
G0 X38.6198 Y-272.4783 F15000.0
G1 Z11.9000 F2500.0
G4 P0.02
G1 X39.3722 Y-273.0427 F2200.0
G1 X39.5813 Y-273.1054
G1 Z0.0000 F2500.0
G4 P0.02
G0 X42.5587 Y-272.7972 F15000.0
G1 Z11.9000 F2500.0
G4 P0.02
G1 X42.7468 Y-273.2779 F2200.0
G1 X40.9319 Y-273.0476
G1 X41.1618 Y-272.6506
G1 X41.0991 Y-271.9817
G1 Z0.0000 F2500.0
G4 P0.02
G0 X39.5316 Y-267.9270 F15000.0
G1 Z11.9000 F2500.0
G4 P0.02
G1 X38.7583 Y-267.3626 F2200.0
G1 X37.0653 Y-267.5508
G1 X36.9817 Y-267.7389
G1 X38.6328 Y-272.5461
G1 Z0.0000 F2500.0
G4 P0.02
G0 X39.3853 Y-273.1104 F15000.0
G1 Z11.9000 F2500.0
G4 P0.02
G1 X39.5943 Y-273.1731 F2200.0
G1 X40.8275 Y-273.1312
G1 Z0.0000 F2500.0
G4 P0.02
G0 X36.8969 Y-273.0636 F15000.0
G1 Z11.9000 F2500.0
G4 P0.02
G1 X35.6638 Y-273.1054 F2200.0
G1 X35.4548 Y-273.0427
G1 X34.7023 Y-272.4783
G1 Z0.0000 F2500.0
G4 P0.02
G0 X33.0512 Y-267.6712 F15000.0
G1 Z11.9000 F2500.0
G4 P0.02
G1 X33.1348 Y-267.4830 F2200.0
G1 Z0.0000 F2500.0
G4 P0.02
G0 X35.6207 Y-273.0515 F15000.0
G1 Z11.9000 F2500.0
G4 P0.02
G1 X35.4116 Y-272.9888 F2200.0
G1 Z0.0000 F2500.0
G4 P0.02
G0 X34.6593 Y-272.4245 F15000.0
G1 Z11.9000 F2500.0
G4 P0.02
G1 X33.0081 Y-267.6173 F2200.0
G1 X33.0917 Y-267.4292
G1 X34.7846 Y-267.2411
G1 X35.5579 Y-267.8054
G1 X37.1256 Y-271.8601
G1 X37.1883 Y-272.5290
G1 X36.9584 Y-272.9261
G1 Z0.0000 F2500.0
G4 P0.02
G0 X33.8513 Y-273.1229 F15000.0
G1 Z11.9000 F2500.0
G4 P0.02
G1 X33.6840 Y-272.9557 F2200.0
G1 Z0.0000 F2500.0
G4 P0.02
G0 X31.3084 Y-273.1264 F15000.0
G1 Z11.9000 F2500.0
G4 P0.02
G1 X29.2810 Y-267.4622 F2200.0
G1 X29.0510 Y-267.1279
G1 Z0.0000 F2500.0
G4 P0.02
G0 X30.9113 Y-268.4655 F15000.0
G1 Z11.9000 F2500.0
G4 P0.02
G1 X28.4647 Y-268.6153 F2200.0
G1 X28.4438 Y-268.5526
G1 X26.3329 Y-270.3501
G1 Z0.0000 F2500.0
G4 P0.02
G0 X25.5596 Y-268.1973 F15000.0
G1 Z11.9000 F2500.0
G4 P0.02
G1 X25.5596 Y-267.6748 F2200.0
G1 X25.7476 Y-267.3821
G1 Z0.0000 F2500.0
G4 P0.02
G0 X27.6914 Y-267.4657 F15000.0
G1 Z11.9000 F2500.0
G4 P0.02
G1 X28.0886 Y-267.8420 F2200.0
G1 Z0.0000 F2500.0
G4 P0.02
G0 X28.6110 Y-269.0124 F15000.0
G1 Z11.9000 F2500.0
G4 P0.02
G1 X28.6320 Y-270.0783 F2200.0
G1 X28.5065 Y-270.2038
G1 X26.4792 Y-270.4128
G1 Z0.0000 F2500.0
G4 P0.02
G0 X26.6881 Y-271.1025 F15000.0
G1 Z11.9000 F2500.0
G4 P0.02
G1 X26.8946 Y-271.3762 F2200.0
G1 Z0.0000 F2500.0
G4 P0.02
G0 X34.6927 Y-272.5466 F15000.0
G1 Z11.9000 F2500.0
G4 P0.02
G1 X33.8416 Y-273.1912 F2200.0
G1 X33.6744 Y-273.0240
G1 X31.2987 Y-273.1947
G1 Z0.0000 F2500.0
G4 P0.02
G0 X29.2714 Y-267.5306 F15000.0
G1 Z11.9000 F2500.0
G4 P0.02
G1 X29.0415 Y-267.1961 F2200.0
G1 X29.3550 Y-267.5933
G1 X30.9016 Y-268.5338
G1 Z0.0000 F2500.0
G4 P0.02
G0 X28.4551 Y-268.6836 F15000.0
G1 Z11.9000 F2500.0
G4 P0.02
G1 X28.4342 Y-268.6209 F2200.0
G1 Z0.0000 F2500.0
G4 P0.02
G0 X26.3232 Y-270.4183 F15000.0
G1 Z11.9000 F2500.0
G4 P0.02
G1 X25.5499 Y-268.2655 F2200.0
G1 X25.5499 Y-267.7431
G1 X25.7380 Y-267.4505
G1 X27.0757 Y-267.2623
G1 X27.6818 Y-267.5341
G1 Z0.0000 F2500.0
G4 P0.02
G0 X28.0789 Y-267.9103 F15000.0
G1 Z11.9000 F2500.0
G4 P0.02
G1 X28.6014 Y-269.0807 F2200.0
G1 Z0.0000 F2500.0
G4 P0.02
G0 X28.6223 Y-270.1467 F15000.0
G1 Z11.9000 F2500.0
G4 P0.02
G1 X28.4969 Y-270.2721 F2200.0
G1 Z0.0000 F2500.0
G4 P0.02
G0 X26.4695 Y-270.4810 F15000.0
G1 Z11.9000 F2500.0
G4 P0.02
G1 X26.6785 Y-271.1708 F2200.0
G1 X26.8849 Y-271.4445
G1 Z0.0000 F2500.0
G4 P0.02
G0 X25.6398 Y-268.4209 F15000.0
G1 Z11.9000 F2500.0
G4 P0.02
G1 X25.6109 Y-268.3401 F2200.0
G1 Z0.0000 F2500.0
G4 P0.02
G0 X25.5749 Y-268.4442 F15000.0
G1 Z11.9000 F2500.0
G4 P0.02
G1 X25.5459 Y-268.3635 F2200.0
G1 Z0.0000 F2500.0
G4 P0.02
G0 X26.7161 Y-271.1389 F15000.0
G1 Z11.9000 F2500.0
G4 P0.02
G1 X27.3779 Y-271.9803 F2200.0
G1 X27.9004 Y-272.4193
G1 X27.7959 Y-272.3357
G1 Z0.0000 F2500.0
G4 P0.02
G0 X28.1930 Y-272.6700 F15000.0
G1 Z11.9000 F2500.0
G4 P0.02
G1 X29.2381 Y-273.1717 F2200.0
G1 Z0.0000 F2500.0
G4 P0.02
G0 X27.9437 Y-272.3656 F15000.0
G1 Z11.9000 F2500.0
G4 P0.02
G1 X27.8392 Y-272.2820 F2200.0
G1 X28.2363 Y-272.6163
G1 Z0.0000 F2500.0
G4 P0.02
G0 X26.1898 Y-272.9557 F15000.0
G1 Z11.9000 F2500.0
G4 P0.02
G1 X26.3570 Y-273.1229 F2200.0
G1 Z0.0000 F2500.0
G4 P0.02
G0 X23.2301 Y-273.1054 F15000.0
G1 Z11.9000 F2500.0
G4 P0.02
G1 X23.0211 Y-273.0427 F2200.0
G1 X22.2686 Y-272.4783
G1 Z0.0000 F2500.0
G4 P0.02
G0 X20.6175 Y-267.6712 F15000.0
G1 Z11.9000 F2500.0
G4 P0.02
G1 X20.7011 Y-267.4830 F2200.0
G1 Z0.0000 F2500.0
G4 P0.02
G0 X24.7349 Y-271.9140 F15000.0
G1 Z11.9000 F2500.0
G4 P0.02
G1 X24.7976 Y-272.5829 F2200.0
G1 Z0.0000 F2500.0
G4 P0.02
G0 X27.4010 Y-272.0453 F15000.0
G1 Z11.9000 F2500.0
G4 P0.02
G1 X26.2129 Y-273.0207 F2200.0
G1 X26.3801 Y-273.1879
G1 X23.2532 Y-273.1703
G1 X23.0442 Y-273.1076
G1 Z0.0000 F2500.0
G4 P0.02
G0 X22.2918 Y-272.5433 F15000.0
G1 Z11.9000 F2500.0
G4 P0.02
G1 X20.6406 Y-267.7361 F2200.0
G1 X20.7242 Y-267.5480
G1 X22.4172 Y-267.3599
G1 X23.1905 Y-267.9243
G1 X24.7581 Y-271.9790
G1 Z0.0000 F2500.0
G4 P0.02
G0 X24.8208 Y-272.6478 F15000.0
G1 Z11.9000 F2500.0
G4 P0.02
G1 X24.5909 Y-273.0450 F2200.0
G1 Z0.0000 F2500.0
G4 P0.02
G0 X19.3126 Y-273.1054 F15000.0
G1 Z11.9000 F2500.0
G4 P0.02
G1 X19.1036 Y-273.0427 F2200.0
G1 X18.3512 Y-272.4783
G1 Z0.0000 F2500.0
G4 P0.02
G0 X16.7001 Y-267.6712 F15000.0
G1 Z11.9000 F2500.0
G4 P0.02
G1 X16.7836 Y-267.4830 F2200.0
G1 Z0.0000 F2500.0
G4 P0.02
G0 X19.2499 Y-267.8592 F15000.0
G1 Z11.9000 F2500.0
G4 P0.02
G1 X20.8175 Y-271.9140 F2200.0
G1 Z0.0000 F2500.0
G4 P0.02
G0 X20.5027 Y-273.0097 F15000.0
G1 Z11.9000 F2500.0
G4 P0.02
G1 X19.2695 Y-273.0515 F2200.0
G1 X19.0606 Y-272.9888
G1 Z0.0000 F2500.0
G4 P0.02
G0 X18.3081 Y-272.4245 F15000.0
G1 Z11.9000 F2500.0
G4 P0.02
G1 X16.6569 Y-267.6173 F2200.0
G1 X16.7405 Y-267.4292
G1 X18.4335 Y-267.2411
G1 X19.2069 Y-267.8054
G1 Z0.0000 F2500.0
G4 P0.02
G0 X20.7744 Y-271.8601 F15000.0
G1 Z11.9000 F2500.0
G4 P0.02
G1 X20.8371 Y-272.5290 F2200.0
G1 X20.6072 Y-272.9261
G1 Z0.0000 F2500.0
G4 P0.02
G0 X17.5001 Y-273.1229 F15000.0
G1 Z11.9000 F2500.0
G4 P0.02
G1 X17.3329 Y-272.9557 F2200.0
G1 X14.3733 Y-273.1054
G1 X14.1642 Y-273.0427
G1 X13.4118 Y-272.4783
G1 X11.7606 Y-267.6712
G1 X11.8443 Y-267.4830
G1 X13.5372 Y-267.2950
G1 Z0.0000 F2500.0
G4 P0.02
G0 X14.3106 Y-267.8592 F15000.0
G1 Z11.9000 F2500.0
G4 P0.02
G1 X15.8781 Y-271.9140 F2200.0
G1 X15.9408 Y-272.5829
G1 X15.7109 Y-272.9800
G1 Z0.0000 F2500.0
G4 P0.02
G0 X18.3640 Y-272.5461 F15000.0
G1 Z11.9000 F2500.0
G4 P0.02
G1 X17.5130 Y-273.1907 F2200.0
G1 X17.3458 Y-273.0235
G1 Z0.0000 F2500.0
G4 P0.02
G0 X14.3862 Y-273.1731 F15000.0
G1 Z11.9000 F2500.0
G4 P0.02
G1 X14.1771 Y-273.1105 F2200.0
G1 Z0.0000 F2500.0
G4 P0.02
G0 X11.7735 Y-267.7390 F15000.0
G1 Z11.9000 F2500.0
G4 P0.02
G1 X11.8572 Y-267.5508 F2200.0
G1 Z0.0000 F2500.0
G4 P0.02
G0 X13.5501 Y-267.3627 F15000.0
G1 Z11.9000 F2500.0
G4 P0.02
G1 X14.3234 Y-267.9270 F2200.0
G1 Z0.0000 F2500.0
G4 P0.02
G0 X15.8910 Y-271.9818 F15000.0
G1 Z11.9000 F2500.0
G4 P0.02
G1 X15.9537 Y-272.6506 F2200.0
G1 X15.7238 Y-273.0477
G1 Z0.0000 F2500.0
G4 P0.02
G0 X8.0979 Y-268.8416 F15000.0
G1 Z11.9000 F2500.0
G4 P0.02
G1 X8.2233 Y-268.9879 F2200.0
G1 Z0.0000 F2500.0
G4 P0.02
G0 X7.9934 Y-267.6085 F15000.0
G1 Z11.9000 F2500.0
G4 P0.02
G1 X8.3695 Y-267.2950 F2200.0
G1 X9.4355 Y-267.2950
G1 X9.8744 Y-267.5040
G1 Z0.0000 F2500.0
G4 P0.02
G0 X8.9130 Y-269.6776 F15000.0
G1 Z11.9000 F2500.0
G4 P0.02
G1 X12.3617 Y-273.2099 F2200.0
G1 X12.1318 Y-273.1263
G1 X10.8985 Y-273.1890
G1 Z0.0000 F2500.0
G4 P0.02
G0 X9.6654 Y-273.1054 F15000.0
G1 Z11.9000 F2500.0
G4 P0.02
G1 X12.0063 Y-272.7709 F2200.0
G1 X12.1318 Y-273.1054
G1 Z0.0000 F2500.0
G4 P0.02
G0 X8.1368 Y-268.7847 F15000.0
G1 Z11.9000 F2500.0
G4 P0.02
G1 X8.2622 Y-268.9310 F2200.0
G1 X7.9696 Y-268.3667
G1 X8.0323 Y-267.5515
G1 X8.4085 Y-267.2380
G1 Z0.0000 F2500.0
G4 P0.02
G0 X9.9134 Y-267.4471 F15000.0
G1 Z11.9000 F2500.0
G4 P0.02
G1 X8.9519 Y-269.6207 F2200.0
G1 Z0.0000 F2500.0
G4 P0.02
G0 X12.4006 Y-273.1529 F15000.0
G1 Z11.9000 F2500.0
G4 P0.02
G1 X12.1707 Y-273.0694 F2200.0
G1 Z0.0000 F2500.0
G4 P0.02
G0 X10.9375 Y-273.1321 F15000.0
G1 Z11.9000 F2500.0
G4 P0.02
G1 X9.7044 Y-273.0485 F2200.0
G1 Z0.0000 F2500.0
G4 P0.02
G0 X12.0452 Y-272.7140 F15000.0
G1 Z11.9000 F2500.0
G4 P0.02
G1 X12.1707 Y-273.0485 F2200.0
G1 X13.4508 Y-272.4214
G1 Z0.0000 F2500.0
G4 P0.02
G0 X9.7553 Y-267.7733 F15000.0
G1 Z11.9000 F2500.0
G4 P0.02
G1 X10.5641 Y-268.1310 F2200.0
G1 X10.1670 Y-267.7339
G1 X9.8373 Y-267.5879
G1 Z0.0000 F2500.0
G4 P0.02
G0 X10.5011 Y-268.1030 F15000.0
G1 Z11.9000 F2500.0
G4 P0.02
G1 X10.1040 Y-267.7059 F2200.0
G1 X9.7742 Y-267.5601
G1 Z0.0000 F2500.0
G4 P0.02
G0 X126.6018 Y-257.0476 F15000.0
G1 Z11.9000 F2500.0
G4 P0.02
G1 X126.8526 Y-257.1312 F2200.0
G1 X126.9362 Y-257.3611
G1 Z0.0000 F2500.0
G4 P0.02
G0 X126.8735 Y-257.1312 F15000.0
G1 Z11.9000 F2500.0
G4 P0.02
G1 X129.4234 Y-257.0685 F2200.0
G1 Z0.0000 F2500.0
G4 P0.02
G0 X130.3639 Y-258.0927 F15000.0
G1 Z11.9000 F2500.0
G4 P0.02
G1 X130.7610 Y-258.3644 F2200.0
G1 X130.8238 Y-258.3226
G1 Z0.0000 F2500.0
G4 P0.02
G0 X131.0328 Y-257.1103 F15000.0
G1 Z11.9000 F2500.0
G4 P0.02
G1 X130.5311 Y-259.9737 F2200.0
G1 X130.8029 Y-258.7406
G1 Z0.0000 F2500.0
G4 P0.02
G0 X131.2000 Y-258.9914 F15000.0
G1 Z11.9000 F2500.0
G4 P0.02
G1 X132.0569 Y-259.9320 F2200.0
G1 X133.0184 Y-259.4722
G1 Z0.0000 F2500.0
G4 P0.02
G0 X126.6360 Y-256.9878 F15000.0
G1 Z11.9000 F2500.0
G4 P0.02
G1 X126.8868 Y-257.0714 F2200.0
G1 X126.9705 Y-257.3013
G1 Z0.0000 F2500.0
G4 P0.02
G0 X129.4576 Y-257.0086 F15000.0
G1 Z11.9000 F2500.0
G4 P0.02
G1 X130.3981 Y-258.0328 F2200.0
G1 Z0.0000 F2500.0
G4 P0.02
G0 X130.7952 Y-258.3045 F15000.0
G1 Z11.9000 F2500.0
G4 P0.02
G1 X130.8580 Y-258.2627 F2200.0
G1 Z0.0000 F2500.0
G4 P0.02
G0 X130.8371 Y-258.6807 F15000.0
G1 Z11.9000 F2500.0
G4 P0.02
G1 X131.2342 Y-258.9315 F2200.0
G1 Z0.0000 F2500.0
G4 P0.02
G0 X133.0526 Y-259.4123 F15000.0
G1 Z11.9000 F2500.0
G4 P0.02
G1 X134.0977 Y-261.2516 F2200.0
G1 Z0.0000 F2500.0
G4 P0.02
G0 X137.7784 Y-261.3331 F15000.0
G1 Z11.9000 F2500.0
G4 P0.02
G1 X138.4258 Y-260.4661 F2200.0
G1 Z0.0000 F2500.0
G4 P0.02
G0 X139.1783 Y-261.1976 F15000.0
G1 Z11.9000 F2500.0
G4 P0.02
G1 X139.2201 Y-260.6542 F2200.0
G1 X138.9275 Y-260.4243
G1 X138.4886 Y-260.4034
G1 X136.7752 Y-259.1594
G1 X136.5035 Y-259.3267
G1 Z0.0000 F2500.0
G4 P0.02
G0 X135.7928 Y-260.1209 F15000.0
G1 Z11.9000 F2500.0
G4 P0.02
G1 X136.8588 Y-258.9713 F2200.0
G1 X136.7961 Y-258.5533
G1 Z0.0000 F2500.0
G4 P0.02
G0 X136.5662 Y-257.9054 F15000.0
G1 Z11.9000 F2500.0
G4 P0.02
G1 X136.0019 Y-257.2365 F2200.0
G1 Z0.0000 F2500.0
G4 P0.02
G0 X134.7478 Y-257.0693 F15000.0
G1 Z11.9000 F2500.0
G4 P0.02
G1 X134.2515 Y-258.1136 F2200.0
G1 X133.4991 Y-258.0509
G1 X133.5827 Y-258.0509
G1 X133.9171 Y-259.0123
G1 X132.7049 Y-258.9078
G1 Z0.0000 F2500.0
G4 P0.02
G0 X133.4573 Y-258.0509 F15000.0
G1 Z11.9000 F2500.0
G4 P0.02
G1 X133.3946 Y-257.6956 F2200.0
G1 X133.1228 Y-257.0685
G1 Z0.0000 F2500.0
G4 P0.02
G0 X135.9064 Y-260.6240 F15000.0
G1 Z11.9000 F2500.0
G4 P0.02
G1 X136.2199 Y-261.3556 F2200.0
G1 X137.7248 Y-261.3764
G1 Z0.0000 F2500.0
G4 P0.02
G0 X138.3722 Y-260.5094 F15000.0
G1 Z11.9000 F2500.0
G4 P0.02
G1 X138.5185 Y-261.0738 F2200.0
G1 X139.1247 Y-261.2410
G1 Z0.0000 F2500.0
G4 P0.02
G0 X139.1664 Y-260.6976 F15000.0
G1 Z11.9000 F2500.0
G4 P0.02
G1 X138.8738 Y-260.4677 F2200.0
G1 X138.4349 Y-260.4467
G1 Z0.0000 F2500.0
G4 P0.02
G0 X136.7216 Y-259.2028 F15000.0
G1 Z11.9000 F2500.0
G4 P0.02
G1 X136.4498 Y-259.3700 F2200.0
G1 X135.5511 Y-259.4536
G1 X135.7392 Y-260.1642
G1 Z0.0000 F2500.0
G4 P0.02
G0 X136.8052 Y-259.0146 F15000.0
G1 Z11.9000 F2500.0
G4 P0.02
G1 X136.7424 Y-258.5967 F2200.0
G1 X136.5125 Y-257.9487
G1 Z0.0000 F2500.0
G4 P0.02
G0 X135.9482 Y-257.2799 F15000.0
G1 Z11.9000 F2500.0
G4 P0.02
G1 X134.6941 Y-257.1126 F2200.0
G1 Z0.0000 F2500.0
G4 P0.02
G0 X133.4455 Y-258.0942 F15000.0
G1 Z11.9000 F2500.0
G4 P0.02
G1 X133.5291 Y-258.0942 F2200.0
G1 Z0.0000 F2500.0
G4 P0.02
G0 X132.6512 Y-258.9512 F15000.0
G1 Z11.9000 F2500.0
G4 P0.02
G1 X132.2749 Y-258.1360 F2200.0
G1 X133.4036 Y-258.0942
G1 X133.3409 Y-257.7389
G1 Z0.0000 F2500.0
G4 P0.02
G0 X129.8205 Y-260.8725 F15000.0
G1 Z11.9000 F2500.0
G4 P0.02
G1 X129.6325 Y-261.1651 F2200.0
G1 X129.4652 Y-261.2487
G1 X128.6083 Y-261.1651
G1 X127.8977 Y-260.5590
G1 Z0.0000 F2500.0
G4 P0.02
G0 X128.3829 Y-258.7560 F15000.0
G1 Z11.9000 F2500.0
G4 P0.02
G1 X129.8878 Y-260.8879 F2200.0
G1 X129.6997 Y-261.1806
G1 X129.5324 Y-261.2642
G1 Z0.0000 F2500.0
G4 P0.02

G0 Z0.0000 F800.0
G4 P0.06
G0 X0.0000 Y0.0000 F15000.0
M5
G4 P0.10
$1=0
