$X
$1=255
G21
G90
G92 Z4.0000
G0 Z0.0000 F800.0
G4 P0.06
G92 Z0.0000
G0 Z0.0000 F800.0
G0 X0.0000 Y0.0000 F15000.0
G21
G90
G17
G91.1
G0 Z0.0000
G0 X140.1011 Y-193.0727 F15000.0
G1 Z11.9000 F2500.0
G4 P0.02
G1 X140.1639 Y-191.9650 F2200.0
G1 X140.4774 Y-191.5678
G1 X142.4630 Y-190.7528
G1 Z0.0000 F2500.0
G4 P0.02
G0 X140.1011 Y-190.6900 F15000.0
G1 Z11.9000 F2500.0
G4 P0.02
G1 X140.3102 Y-190.5228 F2200.0
G1 X140.4146 Y-190.1884
G1 Z0.0000 F2500.0
G4 P0.02
G0 X140.2684 Y-193.2608 F15000.0
G1 Z11.9000 F2500.0
G4 P0.02
G1 X141.2925 Y-193.1354 F2200.0
G1 Z0.0000 F2500.0
G4 P0.02
G0 X140.3520 Y-190.5019 F15000.0
G1 Z11.9000 F2500.0
G4 P0.02
G1 X142.4630 Y-189.7913 F2200.0
G1 Z0.0000 F2500.0
G4 P0.02
G0 X140.5610 Y-189.9585 F15000.0
G1 Z11.9000 F2500.0
G4 P0.02
G1 X140.7491 Y-189.6868 F2200.0
G1 Z0.0000 F2500.0
G4 P0.02
G0 X140.9372 Y-189.3942 F15000.0
G1 Z11.9000 F2500.0
G4 P0.02
G1 X141.1462 Y-189.2061 F2200.0
G1 Z0.0000 F2500.0
G4 P0.02
G0 X141.6896 Y-192.9891 F15000.0
G1 Z11.9000 F2500.0
G4 P0.02
G1 X143.8007 Y-192.1740 F2200.0
G1 Z0.0000 F2500.0
G4 P0.02
G0 X142.7974 Y-190.6273 F15000.0
G1 Z11.9000 F2500.0
G4 P0.02
G1 X143.2572 Y-190.4601 F2200.0
G1 X143.9887 Y-190.3765
G1 Z0.0000 F2500.0
G4 P0.02
G0 X143.0273 Y-189.5822 F15000.0
G1 Z11.9000 F2500.0
G4 P0.02
G1 X144.1978 Y-189.1434 F2200.0
G1 Z0.0000 F2500.0
G4 P0.02
G0 X144.0514 Y-191.9023 F15000.0
G1 Z11.9000 F2500.0
G4 P0.02
G1 X144.2605 Y-191.4634 F2200.0
G1 X144.2395 Y-190.6064
G1 Z0.0000 F2500.0
G4 P0.02
G0 X151.2801 Y-204.5625 F15000.0
G1 Z11.9000 F2500.0
G4 P0.02
G1 X151.9072 Y-204.2072 F2200.0
G1 Z0.0000 F2500.0
G4 P0.02
G0 X153.9763 Y-206.8198 F15000.0
G1 Z11.9000 F2500.0
G4 P0.02
G1 X152.1371 Y-208.4501 F2200.0
G1 X151.6773 Y-208.4501
G1 X151.3638 Y-208.1574
G1 X151.3846 Y-207.3632
G1 X151.8862 Y-206.6317
G1 X152.0535 Y-206.5272
G1 Z0.0000 F2500.0
G4 P0.02
G0 X152.4296 Y-203.9146 F15000.0
G1 Z11.9000 F2500.0
G4 P0.02
G1 X153.8091 Y-203.1204 F2200.0
G1 Z0.0000 F2500.0
G4 P0.02
G0 X153.6628 Y-204.3744 F15000.0
G1 Z11.9000 F2500.0
G4 P0.02
G1 X154.5198 Y-204.1027 F2200.0
G1 X154.5406 Y-203.9773
G1 X155.5230 Y-203.6428
G1 Z0.0000 F2500.0
G4 P0.02
G0 X154.2271 Y-202.8905 F15000.0
G1 Z11.9000 F2500.0
G4 P0.02
G1 X154.4779 Y-202.8278 F2200.0
G1 X154.5406 Y-204.5835
G1 Z0.0000 F2500.0
G4 P0.02
G0 X155.2304 Y-205.5867 F15000.0
G1 Z11.9000 F2500.0
G4 P0.02
G1 X155.4394 Y-205.5031 F2200.0
G1 X155.5230 Y-205.3149
G1 Z0.0000 F2500.0
G4 P0.02
G0 X155.4812 Y-205.5448 F15000.0
G1 Z11.9000 F2500.0
G4 P0.02
G1 X155.5439 Y-207.1333 F2200.0
G1 Z0.0000 F2500.0
G4 P0.02
G0 X78.6460 Y-256.5644 F15000.0
G1 Z11.9000 F2500.0
G4 P0.02
G1 X78.3953 Y-255.8329 F2200.0
G1 X78.4580 Y-255.3103
G1 Z0.0000 F2500.0
G4 P0.02
G0 X78.4370 Y-255.9792 F15000.0
G1 Z11.9000 F2500.0
G4 P0.02
G1 X78.4580 Y-256.0628 F2200.0
G1 Z0.0000 F2500.0
G4 P0.02
G0 X78.6460 Y-255.1431 F15000.0
G1 Z11.9000 F2500.0
G4 P0.02
G1 X79.4612 Y-255.1013 F2200.0
G1 X79.9419 Y-255.3312
G1 Z0.0000 F2500.0
G4 P0.02
G0 X78.7715 Y-256.8988 F15000.0
G1 Z11.9000 F2500.0
G4 P0.02
G1 X79.5030 Y-258.7799 F2200.0
G1 X80.1091 Y-259.2605
G1 X81.1959 Y-259.2188
G1 Z0.0000 F2500.0
G4 P0.02
G0 X79.5239 Y-258.8217 F15000.0
G1 Z11.9000 F2500.0
G4 P0.02
G1 X79.5657 Y-258.8634 F2200.0
G1 Z0.0000 F2500.0
G4 P0.02
G0 X80.2345 Y-255.6238 F15000.0
G1 Z11.9000 F2500.0
G4 P0.02
G1 X81.0287 Y-257.6930 F2200.0
G1 Z0.0000 F2500.0
G4 P0.02
G0 X81.1751 Y-258.0901 F15000.0
G1 Z11.9000 F2500.0
G4 P0.02
G1 X81.3005 Y-259.1142 F2200.0
G1 Z0.0000 F2500.0
G4 P0.02
G0 X75.1203 Y-176.0482 F15000.0
G1 Z11.9000 F2500.0
G4 P0.02
G1 X76.0399 Y-176.5498 F2200.0
G1 X75.9354 Y-176.4872
G1 Z0.0000 F2500.0
G4 P0.02
G0 X75.4546 Y-178.2428 F15000.0
G1 Z11.9000 F2500.0
G4 P0.02
G1 X75.5801 Y-179.2042 F2200.0
G1 X75.8100 Y-179.7059
G1 X76.2907 Y-180.1239
G1 X77.3149 Y-180.2493
G1 X77.6284 Y-179.9776
G1 X77.5448 Y-179.1834
G1 Z0.0000 F2500.0
G4 P0.02
G0 X75.6218 Y-178.0756 F15000.0
G1 Z11.9000 F2500.0
G4 P0.02
G1 X77.0013 Y-177.9711 F2200.0
G1 X76.9595 Y-177.6576
G1 Z0.0000 F2500.0
G4 P0.02
G0 X75.8309 Y-179.7476 F15000.0
G1 Z11.9000 F2500.0
G4 P0.02
G1 X75.8727 Y-179.7895 F2200.0
G1 Z0.0000 F2500.0
G4 P0.02
G0 X76.3116 Y-176.8007 F15000.0
G1 Z11.9000 F2500.0
G4 P0.02
G1 X76.6460 Y-177.1978 F2200.0
G1 Z0.0000 F2500.0
G4 P0.02
G0 X77.1686 Y-178.1174 F15000.0
G1 Z11.9000 F2500.0
G4 P0.02
G1 X77.4402 Y-178.8907 F2200.0
G1 Z0.0000 F2500.0
G4 P0.02
G0 X78.6106 Y-176.0064 F15000.0
G1 Z11.9000 F2500.0
G4 P0.02
G1 X78.8824 Y-176.6334 F2200.0
G1 X78.9451 Y-176.9887
G1 X77.8164 Y-177.0306
G1 X78.1927 Y-177.8457
G1 Z0.0000 F2500.0
G4 P0.02
G0 X78.5062 Y-178.4100 F15000.0
G1 Z11.9000 F2500.0
G4 P0.02
G1 X79.1959 Y-179.6013 F2200.0
G1 Z0.0000 F2500.0
G4 P0.02
G0 X78.9869 Y-176.9887 F15000.0
G1 Z11.9000 F2500.0
G4 P0.02
G1 X79.0705 Y-176.9887 F2200.0
G1 X79.3422 Y-177.8039
G1 Z0.0000 F2500.0
G4 P0.02
G0 X79.1123 Y-176.9887 F15000.0
G1 Z11.9000 F2500.0
G4 P0.02
G1 X79.6766 Y-177.0306 F2200.0
G1 Z0.0000 F2500.0
G4 P0.02
G0 X79.5094 Y-180.1657 F15000.0
G1 Z11.9000 F2500.0
G4 P0.02
G1 X79.5512 Y-180.2493 F2200.0
G1 Z0.0000 F2500.0
G4 P0.02
G0 X75.7190 Y-162.8973 F15000.0
G1 Z11.9000 F2500.0
G4 P0.02
G1 X77.0566 Y-166.7432 F2200.0
G1 X77.3493 Y-167.2239
G1 Z0.0000 F2500.0
G4 P0.02
G0 X75.8026 Y-165.9907 F15000.0
G1 Z11.9000 F2500.0
G4 P0.02
G1 X76.1997 Y-166.3251 F2200.0
G1 Z0.0000 F2500.0
G4 P0.02
G0 X76.4924 Y-166.5132 F15000.0
G1 Z11.9000 F2500.0
G4 P0.02
G1 X76.7640 Y-166.7013 F2200.0
G1 X77.0358 Y-166.7640
G1 Z0.0000 F2500.0
G4 P0.02
G0 X77.6628 Y-162.8973 F15000.0
G1 Z11.9000 F2500.0
G4 P0.02
G1 X78.5197 Y-165.2383 F2200.0
G1 Z0.0000 F2500.0
G4 P0.02
G0 X77.7673 Y-165.9907 F15000.0
G1 Z11.9000 F2500.0
G4 P0.02
G1 X77.9345 Y-166.1788 F2200.0
G1 Z0.0000 F2500.0
G4 P0.02
G0 X78.2272 Y-166.3669 F15000.0
G1 Z11.9000 F2500.0
G4 P0.02
G1 X78.4988 Y-166.5550 F2200.0
G1 Z0.0000 F2500.0
G4 P0.02
G0 X78.7287 Y-166.7013 F15000.0
G1 Z11.9000 F2500.0
G4 P0.02
G1 X79.0005 Y-166.7849 F2200.0
G1 X79.2094 Y-167.0148
G1 Z0.0000 F2500.0
G4 P0.02
G0 X78.7287 Y-165.8026 F15000.0
G1 Z11.9000 F2500.0
G4 P0.02
G1 X79.0214 Y-166.7640 F2200.0
G1 Z0.0000 F2500.0
G4 P0.02
G0 X79.0005 Y-163.9633 F15000.0
G1 Z11.9000 F2500.0
G4 P0.02
G1 X78.8750 Y-163.5662 F2200.0
G1 X78.8750 Y-163.1900
G1 X78.9586 Y-163.0436
G1 Z0.0000 F2500.0
G4 P0.02
G0 X79.1258 Y-162.8765 F15000.0
G1 Z11.9000 F2500.0
G4 P0.02
G1 X80.2336 Y-162.9600 F2200.0
G1 X80.5471 Y-163.1691
G1 Z0.0000 F2500.0
G4 P0.02
G0 X79.1468 Y-164.3395 F15000.0
G1 Z11.9000 F2500.0
G4 P0.02
G1 X79.6275 Y-165.6145 F2200.0
G1 X79.5856 Y-165.5099
G1 Z0.0000 F2500.0
G4 P0.02
G0 X79.2930 Y-167.2239 F15000.0
G1 Z11.9000 F2500.0
G4 P0.02
G1 X79.2930 Y-167.1611 F2200.0
G1 Z0.0000 F2500.0
G4 P0.02
G0 X79.7947 Y-166.0534 F15000.0
G1 Z11.9000 F2500.0
G4 P0.02
G1 X79.7320 Y-165.8861 F2200.0
G1 X80.1082 Y-166.6595
G1 X80.3381 Y-166.8476
G1 X81.4876 Y-167.0567
G1 X81.6131 Y-167.0148
G1 Z0.0000 F2500.0
G4 P0.02
G0 X80.3799 Y-166.8685 F15000.0
G1 Z11.9000 F2500.0
G4 P0.02
G1 X80.4635 Y-166.9312 F2200.0
G1 Z0.0000 F2500.0
G4 P0.02
G0 X80.7562 Y-163.4199 F15000.0
G1 Z11.9000 F2500.0
G4 P0.02
G1 X81.3413 Y-164.9456 F2200.0
G1 Z0.0000 F2500.0
G4 P0.02
G0 X81.5085 Y-165.4055 F15000.0
G1 Z11.9000 F2500.0
G4 P0.02
G1 X81.7803 Y-166.8476 F2200.0
G1 Z0.0000 F2500.0
G4 P0.02
G0 X49.2263 Y-204.2587 F15000.0
G1 Z11.9000 F2500.0
G4 P0.02
G1 X49.2682 Y-204.3214 F2200.0
G1 Z0.0000 F2500.0
G4 P0.02
G0 X49.3726 Y-204.5931 F15000.0
G1 Z11.9000 F2500.0
G4 P0.02
G1 X49.9788 Y-206.2025 F2200.0
G1 X52.3406 Y-208.4388
G1 Z0.0000 F2500.0
G4 P0.02
G0 X50.0624 Y-206.2652 F15000.0
G1 Z11.9000 F2500.0
G4 P0.02
G1 X50.8148 Y-206.2652 F2200.0
G1 X51.1702 Y-204.4050
G1 Z0.0000 F2500.0
G4 P0.02
G0 X50.8566 Y-206.2652 F15000.0
G1 Z11.9000 F2500.0
G4 P0.02
G1 X51.3791 Y-206.3279 F2200.0
G1 X52.0062 Y-206.7041
G1 X52.4450 Y-207.7491
G1 X52.4450 Y-208.3344
G1 Z0.0000 F2500.0
G4 P0.02
G0 X52.1943 Y-207.0385 F15000.0
G1 Z11.9000 F2500.0
G4 P0.02
G1 X52.2361 Y-207.1221 F2200.0
G1 Z0.0000 F2500.0
G4 P0.02
G0 X53.1975 Y-204.4050 F15000.0
G1 Z11.9000 F2500.0
G4 P0.02
G1 X53.6156 Y-205.5546 F2200.0
G1 Z0.0000 F2500.0
G4 P0.02
G0 X53.2811 Y-207.4775 F15000.0
G1 Z11.9000 F2500.0
G4 P0.02
G1 X53.4483 Y-207.6655 F2200.0
G1 Z0.0000 F2500.0
G4 P0.02
G0 X53.7409 Y-207.8537 F15000.0
G1 Z11.9000 F2500.0
G4 P0.02
G1 X54.0127 Y-208.0417 F2200.0
G1 Z0.0000 F2500.0
G4 P0.02
G0 X53.8245 Y-206.1189 F15000.0
G1 Z11.9000 F2500.0
G4 P0.02
G1 X54.5561 Y-208.2508 F2200.0
G1 X54.7860 Y-208.6270
G1 Z0.0000 F2500.0
G4 P0.02
G0 X54.2426 Y-208.1881 F15000.0
G1 Z11.9000 F2500.0
G4 P0.02
G1 X54.5978 Y-208.3135 F2200.0
G1 Z0.0000 F2500.0
G4 P0.02
G0 X55.3921 Y-204.3005 F15000.0
G1 Z11.9000 F2500.0
G4 P0.02
G1 X55.6847 Y-204.9902 F2200.0
G1 X55.7056 Y-205.2828
G1 X54.5978 Y-205.3456
G1 X54.6605 Y-205.5963
G1 Z0.0000 F2500.0
G4 P0.02
G0 X54.8905 Y-206.0144 F15000.0
G1 Z11.9000 F2500.0
G4 P0.02
G1 X55.6638 Y-207.3730 F2200.0
G1 Z0.0000 F2500.0
G4 P0.02
G0 X55.7474 Y-205.2828 F15000.0
G1 Z11.9000 F2500.0
G4 P0.02
G1 X55.8519 Y-205.2828 F2200.0
G1 X56.1446 Y-206.1607
G1 Z0.0000 F2500.0
G4 P0.02
G0 X55.8937 Y-205.2828 F15000.0
G1 Z11.9000 F2500.0
G4 P0.02
G1 X56.4581 Y-205.3247 F2200.0
G1 Z0.0000 F2500.0
G4 P0.02
G0 X55.9564 Y-207.8954 F15000.0
G1 Z11.9000 F2500.0
G4 P0.02
G1 X56.3326 Y-208.5434 F2200.0
G1 Z0.0000 F2500.0
G4 P0.02
G0 X96.3914 Y-204.2587 F15000.0
G1 Z11.9000 F2500.0
G4 P0.02
G1 X96.4332 Y-204.3214 F2200.0
G1 Z0.0000 F2500.0
G4 P0.02
G0 X96.5377 Y-204.5931 F15000.0
G1 Z11.9000 F2500.0
G4 P0.02
G1 X97.1438 Y-206.2025 F2200.0
G1 X99.5056 Y-208.4388
G1 Z0.0000 F2500.0
G4 P0.02
G0 X97.2274 Y-206.2652 F15000.0
G1 Z11.9000 F2500.0
G4 P0.02
G1 X97.9798 Y-206.2652 F2200.0
G1 X98.3352 Y-204.4050
G1 Z0.0000 F2500.0
G4 P0.02
G0 X98.0217 Y-206.2652 F15000.0
G1 Z11.9000 F2500.0
G4 P0.02
G1 X98.5441 Y-206.3279 F2200.0
G1 X99.1712 Y-206.7041
G1 X99.6101 Y-207.7491
G1 X99.6101 Y-208.3344
G1 Z0.0000 F2500.0
G4 P0.02
G0 X99.3175 Y-204.2796 F15000.0
G1 Z11.9000 F2500.0
G4 P0.02
G1 X99.5683 Y-204.3632 F2200.0
G1 X99.6519 Y-204.5931
G1 Z0.0000 F2500.0
G4 P0.02
G0 X99.3593 Y-207.0385 F15000.0
G1 Z11.9000 F2500.0
G4 P0.02
G1 X99.4011 Y-207.1221 F2200.0
G1 Z0.0000 F2500.0
G4 P0.02
G0 X99.5892 Y-204.3632 F15000.0
G1 Z11.9000 F2500.0
G4 P0.02
G1 X101.0105 Y-204.3005 F2200.0
G1 X101.3658 Y-204.3632
G1 Z0.0000 F2500.0
G4 P0.02
G0 X100.6133 Y-207.7910 F15000.0
G1 Z11.9000 F2500.0
G4 P0.02
G1 X101.3240 Y-208.3971 F2200.0
G1 X102.1809 Y-208.4807
G1 Z0.0000 F2500.0
G4 P0.02
G0 X102.3481 Y-208.3971 F15000.0
G1 Z11.9000 F2500.0
G4 P0.02
G1 X102.5153 Y-208.1463 F2200.0
G1 X102.4108 Y-207.3730
G1 Z0.0000 F2500.0
G4 P0.02
G0 X103.5185 Y-204.3005 F15000.0
G1 Z11.9000 F2500.0
G4 P0.02
G1 X103.7903 Y-204.9276 F2200.0
G1 X103.8530 Y-205.2828
G1 X102.7452 Y-205.3456
G1 X102.8079 Y-205.5963
G1 Z0.0000 F2500.0
G4 P0.02
G0 X102.9751 Y-205.9098 F15000.0
G1 Z11.9000 F2500.0
G4 P0.02
G1 X103.4977 Y-206.8295 F2200.0
G1 Z0.0000 F2500.0
G4 P0.02
G0 X103.7276 Y-207.2475 F15000.0
G1 Z11.9000 F2500.0
G4 P0.02
G1 X104.2710 Y-208.1881 F2200.0
G1 Z0.0000 F2500.0
G4 P0.02
G0 X103.8948 Y-205.2828 F15000.0
G1 Z11.9000 F2500.0
G4 P0.02
G1 X103.9993 Y-205.2828 F2200.0
G1 X104.2919 Y-206.1607
G1 Z0.0000 F2500.0
G4 P0.02
G0 X104.0411 Y-205.2828 F15000.0
G1 Z11.9000 F2500.0
G4 P0.02
G1 X104.6472 Y-205.3456 F2200.0
G1 Z0.0000 F2500.0
G4 P0.02
G0 X104.4173 Y-208.4598 F15000.0
G1 Z11.9000 F2500.0
G4 P0.02
G1 X104.4592 Y-208.5434 F2200.0
G1 Z0.0000 F2500.0
G4 P0.02
G0 X164.8350 Y-209.4078 F15000.0
G1 Z11.9000 F2500.0
G4 P0.02
G1 X164.9395 Y-207.7775 F2200.0
G1 X165.2112 Y-207.6731
G1 Z0.0000 F2500.0
G4 P0.02
G0 X164.9395 Y-211.7696 F15000.0
G1 Z11.9000 F2500.0
G4 P0.02
G1 X165.0021 Y-210.6619 F2200.0
G1 X165.3157 Y-210.2647
G1 X167.3012 Y-209.4496
G1 Z0.0000 F2500.0
G4 P0.02
G0 X165.1067 Y-211.9577 F15000.0
G1 Z11.9000 F2500.0
G4 P0.02
G1 X166.1308 Y-211.8323 F2200.0
G1 Z0.0000 F2500.0
G4 P0.02
G0 X165.9428 Y-207.4013 F15000.0
G1 Z11.9000 F2500.0
G4 P0.02
G1 X166.7997 Y-207.1505 F2200.0
G1 X166.9877 Y-208.2582
G1 X167.0713 Y-208.3628
G1 Z0.0000 F2500.0
G4 P0.02
G0 X166.5279 Y-211.6860 F15000.0
G1 Z11.9000 F2500.0
G4 P0.02
G1 X168.6389 Y-210.8708 F2200.0
G1 Z0.0000 F2500.0
G4 P0.02
G0 X167.2386 Y-208.4254 F15000.0
G1 Z11.9000 F2500.0
G4 P0.02
G1 X168.5762 Y-208.0074 F2200.0
G1 Z0.0000 F2500.0
G4 P0.02
G0 X167.6357 Y-209.3242 F15000.0
G1 Z11.9000 F2500.0
G4 P0.02
G1 X168.0955 Y-209.1570 F2200.0
G1 X168.8270 Y-209.0734
G1 Z0.0000 F2500.0
G4 P0.02
G0 X168.7853 Y-207.7984 F15000.0
G1 Z11.9000 F2500.0
G4 P0.02
G1 X169.2660 Y-206.0637 F2200.0
G1 Z0.0000 F2500.0
G4 P0.02
G0 X168.8897 Y-210.5992 F15000.0
G1 Z11.9000 F2500.0
G4 P0.02
G1 X169.0988 Y-210.1602 F2200.0
G1 X169.0779 Y-209.3033
G1 Z0.0000 F2500.0
G4 P0.02
G0 X146.0362 Y-111.6852 F15000.0
G1 Z11.9000 F2500.0
G4 P0.02
G1 X146.6841 Y-110.6611 F2200.0
G1 Z0.0000 F2500.0
G4 P0.02
G0 X147.7083 Y-108.4038 F15000.0
G1 Z11.9000 F2500.0
G4 P0.02
G1 X146.4751 Y-109.1354 F2200.0
G1 X146.1825 Y-109.1772
G1 X146.2243 Y-107.3588
G1 Z0.0000 F2500.0
G4 P0.02
G0 X146.3706 Y-107.2752 F15000.0
G1 Z11.9000 F2500.0
G4 P0.02
G1 X146.6632 Y-107.1289 F2200.0
G1 Z0.0000 F2500.0
G4 P0.02
G0 X146.9558 Y-110.3476 F15000.0
G1 Z11.9000 F2500.0
G4 P0.02
G1 X147.3529 Y-110.0132 F2200.0
G1 Z0.0000 F2500.0
G4 P0.02
G0 X147.6247 Y-109.8042 F15000.0
G1 Z11.9000 F2500.0
G4 P0.02
G1 X148.1054 Y-109.6370 F2200.0
G1 X148.3771 Y-111.2045
G1 X148.9414 Y-111.2045
G1 X149.9447 Y-110.7866
G1 X150.3626 Y-110.2013
G1 X150.3626 Y-109.2398
G1 Z0.0000 F2500.0
G4 P0.02
G0 X148.1054 Y-109.6370 F15000.0
G1 Z11.9000 F2500.0
G4 P0.02
G1 X149.2968 Y-109.1354 F2200.0
G1 X150.0283 Y-108.9890
G1 X150.1954 Y-109.0518
G1 Z0.0000 F2500.0
G4 P0.02
G0 X148.3144 Y-108.0485 F15000.0
G1 Z11.9000 F2500.0
G4 P0.02
G1 X149.6729 Y-107.2334 F2200.0
G1 Z0.0000 F2500.0
G4 P0.02
G0 X150.1746 Y-106.9407 F15000.0
G1 Z11.9000 F2500.0
G4 P0.02
G1 X150.3418 Y-106.8363 F2200.0
G1 Z0.0000 F2500.0
G4 P0.02
G0 X75.4149 Y-60.8317 F15000.0
G1 Z11.9000 F2500.0
G4 P0.02
G1 X76.7525 Y-64.6775 F2200.0
G1 X77.0451 Y-65.1581
G1 Z0.0000 F2500.0
G4 P0.02
G0 X75.4985 Y-63.9250 F15000.0
G1 Z11.9000 F2500.0
G4 P0.02
G1 X75.8956 Y-64.2594 F2200.0
G1 Z0.0000 F2500.0
G4 P0.02
G0 X76.1882 Y-64.4475 F15000.0
G1 Z11.9000 F2500.0
G4 P0.02
G1 X76.4599 Y-64.6356 F2200.0
G1 X76.7316 Y-64.6983
G1 Z0.0000 F2500.0
G4 P0.02
G0 X76.2927 Y-60.7063 F15000.0
G1 Z11.9000 F2500.0
G4 P0.02
G1 X76.5645 Y-60.8107 F2200.0
G1 X79.4906 Y-64.0713
G1 X79.5114 Y-64.6147
G1 Z0.0000 F2500.0
G4 P0.02
G0 X76.5853 Y-60.8107 F15000.0
G1 Z11.9000 F2500.0
G4 P0.02
G1 X78.3619 Y-60.8107 F2200.0
G1 Z0.0000 F2500.0
G4 P0.02
G0 X77.6303 Y-64.2385 F15000.0
G1 Z11.9000 F2500.0
G4 P0.02
G1 X78.1528 Y-64.7610 F2200.0
G1 X78.9680 Y-64.9910
G1 X79.3860 Y-64.8028
G1 Z0.0000 F2500.0
G4 P0.02
G0 X79.3651 Y-60.7480 F15000.0
G1 Z11.9000 F2500.0
G4 P0.02
G1 X80.6818 Y-60.9571 F2200.0
G1 X80.8282 Y-61.0825
G1 Z0.0000 F2500.0
G4 P0.02
G0 X81.3089 Y-62.9009 F15000.0
G1 Z11.9000 F2500.0
G4 P0.02
G1 X80.2012 Y-63.0890 F2200.0
G1 X80.3892 Y-63.7787
G1 Z0.0000 F2500.0
G4 P0.02
G0 X80.5147 Y-64.1131 F15000.0
G1 Z11.9000 F2500.0
G4 P0.02
G1 X80.5355 Y-64.1758 F2200.0
G1 Z0.0000 F2500.0
G4 P0.02
G0 X80.7237 Y-64.6775 F15000.0
G1 Z11.9000 F2500.0
G4 P0.02
G1 X80.8073 Y-64.9074 F2200.0
G1 Z0.0000 F2500.0
G4 P0.02
G0 X80.8909 Y-64.9910 F15000.0
G1 Z11.9000 F2500.0
G4 P0.02
G1 X82.5211 Y-65.0746 F2200.0
G1 Z0.0000 F2500.0
G4 P0.02
G0 X81.0581 Y-61.3124 F15000.0
G1 Z11.9000 F2500.0
G4 P0.02
G1 X81.3298 Y-62.0021 F2200.0
G1 X81.4761 Y-62.6500
G1 Z0.0000 F2500.0
G4 P0.02
G0 X20.9089 Y-186.2671 F15000.0
G1 Z11.9000 F2500.0
G4 P0.02
G1 X20.9089 Y-195.4550 F2200.0
G1 Z0.0000 F2500.0
G4 P0.02
G0 X20.9089 Y-186.2671 F15000.0
G1 Z11.9000 F2500.0
G4 P0.02
G1 X78.3714 Y-186.2671 F12000.0
G1 Z0.0000 F2500.0
G4 P0.02
G0 X20.9089 Y-195.4550 F15000.0
G1 Z11.9000 F2500.0
G4 P0.02
G1 X78.3714 Y-195.4550 F12000.0
G1 Z0.0000 F2500.0
G4 P0.02
G0 X20.9089 Y-232.2060 F15000.0
G1 Z11.9000 F2500.0
G4 P0.02
G1 X59.9958 Y-232.2060 F12000.0
G1 Z0.0000 F2500.0
G4 P0.02
G0 X20.9089 Y-224.8869 F15000.0
G1 Z11.9000 F2500.0
G4 P0.02
G1 X20.9089 Y-232.2060 F2200.0
G1 Z0.0000 F2500.0
G4 P0.02
G0 X27.8386 Y-195.4550 F15000.0
G1 Z11.9000 F2500.0
G4 P0.02
G1 X27.8386 Y-224.8869 F12000.0
G1 X20.9089 Y-224.8869 F2200.0
G1 Z0.0000 F2500.0
G4 P0.02
G0 X65.5240 Y-232.2060 F15000.0
G1 Z11.9000 F2500.0
G4 P0.02
G1 X65.6797 Y-230.2594 F2200.0
G1 X66.1469 Y-228.3129 F2200.0
G1 X66.9256 Y-226.4442 F2200.0
G1 X67.9378 Y-224.7312 F2200.0
G1 X69.2614 Y-223.1740 F2200.0
G1 X70.7409 Y-221.8503 F2200.0
G1 X72.4538 Y-220.8381 F2200.0
G1 X74.2447 Y-220.0595 F2200.0
G1 X76.1912 Y-219.5144 F2200.0
G1 X78.2157 Y-219.3587 F2200.0
G1 Z0.0000 F2500.0
G4 P0.02
G0 X59.9958 Y-241.3938 F15000.0
G1 Z11.9000 F2500.0
G4 P0.02
G1 X59.9958 Y-232.2060 F2200.0
G1 Z0.0000 F2500.0
G4 P0.02
G0 X65.5240 Y-241.3938 F15000.0
G1 Z11.9000 F2500.0
G4 P0.02
G1 X59.9958 Y-241.3938 F2200.0
G1 Z0.0000 F2500.0
G4 P0.02
G0 X65.5240 Y-232.2060 F15000.0
G1 Z11.9000 F2500.0
G4 P0.02
G1 X65.5240 Y-241.3938 F2200.0
G1 Z0.0000 F2500.0
G4 P0.02
G0 X91.2965 Y-241.3938 F15000.0
G1 Z11.9000 F2500.0
G4 P0.02
G1 X96.8248 Y-241.3938 F2200.0
G1 Z0.0000 F2500.0
G4 P0.02
G0 X99.2385 Y-224.8869 F15000.0
G1 Z11.9000 F2500.0
G4 P0.02
G1 X98.2263 Y-222.4732 F2200.0
G1 X96.9026 Y-220.2152 F2200.0
G1 X95.3454 Y-218.0351 F2200.0
G1 X93.5546 Y-216.1664 F2200.0
G1 X91.5301 Y-214.4534 F2200.0
G1 X89.3500 Y-213.0518 F2200.0
G1 X87.0141 Y-211.8839 F2200.0
G1 X84.5225 Y-211.0274 F2200.0
G1 X81.9531 Y-210.4824 F2200.0
G1 X79.3836 Y-210.1709 F2200.0
G1 X78.3714 Y-210.1709 F2200.0
G1 Z0.0000 F2500.0
G4 P0.02
G0 X78.3714 Y-219.3587 F15000.0
G1 Z11.9000 F2500.0
G4 P0.02
G1 X80.3958 Y-219.5144 F2200.0
G1 X82.3423 Y-219.9816 F2200.0
G1 X84.2110 Y-220.7602 F2200.0
G1 X85.9241 Y-221.7725 F2200.0
G1 X87.4034 Y-223.0182 F2200.0
G1 X88.7271 Y-224.5755 F2200.0
G1 X89.8172 Y-226.2884 F2200.0
G1 X90.5957 Y-228.0793 F2200.0
G1 X91.0629 Y-230.0258 F2200.0
G1 X91.2965 Y-232.0503 F2200.0
G1 Z0.0000 F2500.0
G4 P0.02
G0 X121.5851 Y-224.8869 F15000.0
G1 Z11.9000 F2500.0
G4 P0.02
G1 X121.5851 Y-186.2671 F12000.0
G1 Z0.0000 F2500.0
G4 P0.02
G0 X135.9117 Y-232.2060 F15000.0
G1 Z11.9000 F2500.0
G4 P0.02
G1 X135.9117 Y-224.8869 F2200.0
G1 Z0.0000 F2500.0
G4 P0.02
G0 X96.8248 Y-232.2060 F15000.0
G1 Z11.9000 F2500.0
G4 P0.02
G1 X135.9117 Y-232.2060 F12000.0
G1 Z0.0000 F2500.0
G4 P0.02
G0 X135.9117 Y-195.4550 F15000.0
G1 Z11.9000 F2500.0
G4 P0.02
G1 X135.9117 Y-186.2671 F2200.0
G1 Z0.0000 F2500.0
G4 P0.02
G0 X99.2385 Y-224.8869 F15000.0
G1 Z11.9000 F2500.0
G4 P0.02
G1 X121.5851 Y-224.8869 F12000.0
G1 Z0.0000 F2500.0
G4 P0.02
G0 X91.2965 Y-232.2060 F15000.0
G1 Z11.9000 F2500.0
G4 P0.02
G1 X91.2965 Y-241.3938 F2200.0
G1 Z0.0000 F2500.0
G4 P0.02
G0 X128.9820 Y-195.4550 F15000.0
G1 Z11.9000 F2500.0
G4 P0.02
G1 X128.9820 Y-224.8869 F12000.0
G1 Z0.0000 F2500.0
G4 P0.02
G0 X96.8248 Y-241.3938 F15000.0
G1 Z11.9000 F2500.0
G4 P0.02
G1 X96.8248 Y-232.2060 F2200.0
G1 Z0.0000 F2500.0
G4 P0.02
G0 X121.5851 Y-186.2671 F15000.0
G1 Z11.9000 F2500.0
G4 P0.02
G1 X135.9117 Y-186.2671 F12000.0
G1 Z0.0000 F2500.0
G4 P0.02
G0 X78.3714 Y-186.2671 F15000.0
G1 Z11.9000 F2500.0
G4 P0.02
G1 X121.5851 Y-186.2671 F12000.0
G1 Z0.0000 F2500.0
G4 P0.02
G0 X78.3714 Y-183.4641 F15000.0
G1 Z11.9000 F2500.0
G4 P0.02
G1 X78.3714 Y-195.7663 F2200.0
G1 Z0.0000 F2500.0
G4 P0.02
G0 X78.3714 Y-197.1679 F15000.0
G1 Z11.9000 F2500.0
G4 P0.02
G1 X78.3714 Y-198.5694 F2200.0
G1 Z0.0000 F2500.0
G4 P0.02
G0 X78.3714 Y-199.8931 F15000.0
G1 Z11.9000 F2500.0
G4 P0.02
G1 X78.3714 Y-212.1954 F2200.0
G1 Z0.0000 F2500.0
G4 P0.02
G0 X78.3714 Y-213.5969 F15000.0
G1 Z11.9000 F2500.0
G4 P0.02
G1 X78.3714 Y-214.9984 F2200.0
G1 Z0.0000 F2500.0
G4 P0.02
G0 X78.3714 Y-216.4000 F15000.0
G1 Z11.9000 F2500.0
G4 P0.02
G1 X78.3714 Y-228.7022 F2200.0
G1 Z0.0000 F2500.0
G4 P0.02
G0 X78.3714 Y-230.0258 F15000.0
G1 Z11.9000 F2500.0
G4 P0.02
G1 X78.3714 Y-231.4274 F2200.0
G1 Z0.0000 F2500.0
G4 P0.02
G0 X78.3714 Y-232.8289 F15000.0
G1 Z11.9000 F2500.0
G4 P0.02
G1 X78.3714 Y-245.1312 F2200.0
G1 Z0.0000 F2500.0
G4 P0.02
G0 X135.6003 Y-186.2671 F15000.0
G1 Z11.9000 F2500.0
G4 P0.02
G1 X135.9117 Y-186.5007 F2200.0
G1 Z0.0000 F2500.0
G4 P0.02
G0 X130.3835 Y-186.2671 F15000.0
G1 Z11.9000 F2500.0
G4 P0.02
G1 X135.9117 Y-191.7175 F2200.0
G1 Z0.0000 F2500.0
G4 P0.02
G0 X125.2446 Y-186.2671 F15000.0
G1 Z11.9000 F2500.0
G4 P0.02
G1 X134.4323 Y-195.4550 F2200.0
G1 Z0.0000 F2500.0
G4 P0.02
G0 X121.5851 Y-187.8244 F15000.0
G1 Z11.9000 F2500.0
G4 P0.02
G1 X129.2156 Y-195.4550 F2200.0
G1 Z0.0000 F2500.0
G4 P0.02
G0 X121.5851 Y-193.0412 F15000.0
G1 Z11.9000 F2500.0
G4 P0.02
G1 X128.9820 Y-200.4381 F2200.0
G1 Z0.0000 F2500.0
G4 P0.02
G0 X121.5851 Y-198.2580 F15000.0
G1 Z11.9000 F2500.0
G4 P0.02
G1 X128.9820 Y-205.5770 F2200.0
G1 Z0.0000 F2500.0
G4 P0.02
G0 X121.5851 Y-203.4747 F15000.0
G1 Z11.9000 F2500.0
G4 P0.02
G1 X128.9820 Y-210.7938 F2200.0
G1 Z0.0000 F2500.0
G4 P0.02
G0 X121.5851 Y-208.6916 F15000.0
G1 Z11.9000 F2500.0
G4 P0.02
G1 X128.9820 Y-216.0106 F2200.0
G1 Z0.0000 F2500.0
G4 P0.02
G0 X121.5851 Y-213.8305 F15000.0
G1 Z11.9000 F2500.0
G4 P0.02
G1 X128.9820 Y-221.2274 F2200.0
G1 Z0.0000 F2500.0
G4 P0.02
G0 X132.6415 Y-224.8869 F15000.0
G1 Z11.9000 F2500.0
G4 P0.02
G1 X135.9117 Y-228.0793 F2200.0
G1 Z0.0000 F2500.0
G4 P0.02
G0 X121.5851 Y-219.0472 F15000.0
G1 Z11.9000 F2500.0
G4 P0.02
G1 X134.8217 Y-232.2060 F2200.0
G1 Z0.0000 F2500.0
G4 P0.02
G0 X121.5851 Y-224.2640 F15000.0
G1 Z11.9000 F2500.0
G4 P0.02
G1 X129.6049 Y-232.2060 F2200.0
G1 Z0.0000 F2500.0
G4 P0.02
G0 X116.9911 Y-224.8869 F15000.0
G1 Z11.9000 F2500.0
G4 P0.02
G1 X124.3880 Y-232.2060 F2200.0
G1 Z0.0000 F2500.0
G4 P0.02
G0 X111.8522 Y-224.8869 F15000.0
G1 Z11.9000 F2500.0
G4 P0.02
G1 X119.1713 Y-232.2060 F2200.0
G1 Z0.0000 F2500.0
G4 P0.02
G0 X106.6355 Y-224.8869 F15000.0
G1 Z11.9000 F2500.0
G4 P0.02
G1 X113.9545 Y-232.2060 F2200.0
G1 Z0.0000 F2500.0
G4 P0.02
G0 X89.9728 Y-213.4411 F15000.0
G1 Z11.9000 F2500.0
G4 P0.02
G1 X97.2141 Y-220.6045 F2200.0
G1 Z0.0000 F2500.0
G4 P0.02
G0 X101.4186 Y-224.8869 F15000.0
G1 Z11.9000 F2500.0
G4 P0.02
G1 X108.7378 Y-232.2060 F2200.0
G1 Z0.0000 F2500.0
G4 P0.02
G0 X81.7195 Y-210.4045 F15000.0
G1 Z11.9000 F2500.0
G4 P0.02
G1 X103.5988 Y-232.2060 F12000.0
G1 Z0.0000 F2500.0
G4 P0.02
G0 X78.3714 Y-212.2732 F15000.0
G1 Z11.9000 F2500.0
G4 P0.02
G1 X98.3820 Y-232.2060 F12000.0
G1 Z0.0000 F2500.0
G4 P0.02
G0 X91.1408 Y-230.1816 F15000.0
G1 Z11.9000 F2500.0
G4 P0.02
G1 X96.8248 Y-235.8655 F2200.0
G1 Z0.0000 F2500.0
G4 P0.02
G0 X78.3714 Y-217.4900 F15000.0
G1 Z11.9000 F2500.0
G4 P0.02
G1 X80.4736 Y-219.5144 F2200.0
G1 Z0.0000 F2500.0
G4 P0.02
G0 X91.2965 Y-235.5541 F15000.0
G1 Z11.9000 F2500.0
G4 P0.02
G1 X96.8248 Y-241.0824 F2200.0
G1 Z0.0000 F2500.0
G4 P0.02
G0 X91.2965 Y-240.7709 F15000.0
G1 Z11.9000 F2500.0
G4 P0.02
G1 X91.9972 Y-241.3938 F2200.0
G1 Z0.0000 F2500.0
G4 P0.02
G0 X135.9117 Y-74.0672 F15000.0
G1 Z11.9000 F2500.0
G4 P0.02
G1 X135.9117 Y-85.9802 F2200.0
G1 Z0.0000 F2500.0
G4 P0.02
G0 X135.9117 Y-131.9970 F15000.0
G1 Z11.9000 F2500.0
G4 P0.02
G1 X135.9117 Y-143.9100 F2200.0
G1 Z0.0000 F2500.0
G4 P0.02
G0 X20.9089 Y-143.9100 F15000.0
G1 Z11.9000 F2500.0
G4 P0.02
G1 X20.9089 Y-131.9970 F2200.0
G1 Z0.0000 F2500.0
G4 P0.02
G0 X20.9089 Y-85.9802 F15000.0
G1 Z11.9000 F2500.0
G4 P0.02
G1 X20.9089 Y-74.0672 F2200.0
G1 Z0.0000 F2500.0
G4 P0.02
G0 X135.9117 Y-143.9100 F15000.0
G1 Z11.9000 F2500.0
G4 P0.02
G1 X20.9089 Y-143.9100 F12000.0
G1 Z0.0000 F2500.0
G4 P0.02
G0 X20.9089 Y-74.0672 F15000.0
G1 Z11.9000 F2500.0
G4 P0.02
G1 X135.9117 Y-74.0672 F12000.0
G1 Z0.0000 F2500.0
G4 P0.02
G0 X135.9117 Y-85.9802 F15000.0
G1 Z11.9000 F2500.0
G4 P0.02
G1 X135.9117 Y-131.9970 F12000.0
G1 Z0.0000 F2500.0
G4 P0.02
G0 X96.8248 Y-85.9802 F15000.0
G1 Z11.9000 F2500.0
G4 P0.02
G1 X135.9117 Y-85.9802 F12000.0
G1 Z0.0000 F2500.0
G4 P0.02
G0 X59.9958 Y-131.9970 F15000.0
G1 Z11.9000 F2500.0
G4 P0.02
G1 X20.9089 Y-131.9970 F12000.0
G1 Z0.0000 F2500.0
G4 P0.02
G0 X20.9089 Y-85.9802 F15000.0
G1 Z11.9000 F2500.0
G4 P0.02
G1 X59.9958 Y-85.9802 F12000.0
G1 Z0.0000 F2500.0
G4 P0.02
G0 X135.9117 Y-131.9970 F15000.0
G1 Z11.9000 F2500.0
G4 P0.02
G1 X96.8248 Y-131.9970 F12000.0
G1 Z0.0000 F2500.0
G4 P0.02
G0 X20.9089 Y-131.9970 F15000.0
G1 Z11.9000 F2500.0
G4 P0.02
G1 X20.9089 Y-85.9802 F12000.0
G1 Z0.0000 F2500.0
G4 P0.02
G0 X65.5240 Y-85.9802 F15000.0
G1 Z11.9000 F2500.0
G4 P0.02
G1 X91.2965 Y-85.9802 F12000.0
G1 Z0.0000 F2500.0
G4 P0.02
G0 X65.5240 Y-131.9970 F15000.0
G1 Z11.9000 F2500.0
G4 P0.02
G1 X91.2965 Y-131.9970 F12000.0
G1 Z0.0000 F2500.0
G4 P0.02
G0 X78.3714 Y-145.7787 F15000.0
G1 Z11.9000 F2500.0
G4 P0.02
G1 X78.3714 Y-134.4108 F2200.0
G1 Z0.0000 F2500.0
G4 P0.02
G0 X78.3714 Y-133.0870 F15000.0
G1 Z11.9000 F2500.0
G4 P0.02
G1 X78.3714 Y-131.6077 F2200.0
G1 Z0.0000 F2500.0
G4 P0.02
G0 X78.3714 Y-130.2062 F15000.0
G1 Z11.9000 F2500.0
G4 P0.02
G1 X78.3714 Y-118.9161 F2200.0
G1 Z0.0000 F2500.0
G4 P0.02
G0 X78.3714 Y-117.5145 F15000.0
G1 Z11.9000 F2500.0
G4 P0.02
G1 X78.3714 Y-116.0351 F2200.0
G1 Z0.0000 F2500.0
G4 P0.02
G0 X78.3714 Y-114.6336 F15000.0
G1 Z11.9000 F2500.0
G4 P0.02
G1 X78.3714 Y-103.3436 F2200.0
G1 Z0.0000 F2500.0
G4 P0.02
G0 X78.3714 Y-101.9421 F15000.0
G1 Z11.9000 F2500.0
G4 P0.02
G1 X78.3714 Y-100.4626 F2200.0
G1 Z0.0000 F2500.0
G4 P0.02
G0 X78.3714 Y-99.1390 F15000.0
G1 Z11.9000 F2500.0
G4 P0.02
G1 X78.3714 Y-87.7711 F2200.0
G1 Z0.0000 F2500.0
G4 P0.02
G0 X78.3714 Y-86.3696 F15000.0
G1 Z11.9000 F2500.0
G4 P0.02
G1 X78.3714 Y-84.8901 F2200.0
G1 Z0.0000 F2500.0
G4 P0.02
G0 X78.3714 Y-83.5665 F15000.0
G1 Z11.9000 F2500.0
G4 P0.02
G1 X78.3714 Y-72.1986 F2200.0
G1 Z0.0000 F2500.0
G4 P0.02
G0 X96.8248 Y-85.9802 F15000.0
G1 Z11.9000 F2500.0
G4 P0.02
G1 X91.2965 Y-85.9802 F2200.0
G1 Z0.0000 F2500.0
G4 P0.02
G0 X65.5240 Y-85.9802 F15000.0
G1 Z11.9000 F2500.0
G4 P0.02
G1 X59.9958 Y-85.9802 F2200.0
G1 Z0.0000 F2500.0
G4 P0.02
G0 X96.8248 Y-131.9970 F15000.0
G1 Z11.9000 F2500.0
G4 P0.02
G1 X91.2965 Y-131.9970 F2200.0
G1 Z0.0000 F2500.0
G4 P0.02
G0 X96.8248 Y-131.9970 F15000.0
G1 Z11.9000 F2500.0
G4 P0.02
G1 X96.8248 Y-85.9802 F12000.0
G1 Z0.0000 F2500.0
G4 P0.02
G0 X65.5240 Y-131.9970 F15000.0
G1 Z11.9000 F2500.0
G4 P0.02
G1 X59.9958 Y-131.9970 F2200.0
G1 Z0.0000 F2500.0
G4 P0.02
G0 X65.5240 Y-131.9970 F15000.0
G1 Z11.9000 F2500.0
G4 P0.02
G1 X65.5240 Y-85.9802 F12000.0
G1 Z0.0000 F2500.0
G4 P0.02
G0 X91.2965 Y-131.9970 F15000.0
G1 Z11.9000 F2500.0
G4 P0.02
G1 X91.2965 Y-85.9802 F12000.0
G1 Z0.0000 F2500.0
G4 P0.02
G0 X59.9958 Y-131.9970 F15000.0
G1 Z11.9000 F2500.0
G4 P0.02
G1 X59.9958 Y-85.9802 F12000.0
G1 Z0.0000 F2500.0
G4 P0.02
G0 X62.7989 Y-232.2060 F15000.0
G1 Z11.9000 F2500.0
G4 P0.02
G1 X71.8309 Y-232.2060 F2200.0
G1 Z0.0000 F2500.0
G4 P0.02
G0 X73.2324 Y-232.2060 F15000.0
G1 Z11.9000 F2500.0
G4 P0.02
G1 X74.6340 Y-232.2060 F2200.0
G1 Z0.0000 F2500.0
G4 P0.02
G0 X75.9576 Y-232.2060 F15000.0
G1 Z11.9000 F2500.0
G4 P0.02
G1 X85.0675 Y-232.2060 F2200.0
G1 Z0.0000 F2500.0
G4 P0.02
G0 X86.4690 Y-232.2060 F15000.0
G1 Z11.9000 F2500.0
G4 P0.02
G1 X87.8706 Y-232.2060 F2200.0
G1 Z0.0000 F2500.0
G4 P0.02
G0 X89.1943 Y-232.2060 F15000.0
G1 Z11.9000 F2500.0
G4 P0.02
G1 X98.3041 Y-232.2060 F2200.0
G1 Z0.0000 F2500.0
G4 P0.02
G0 X18.5730 Y-109.0275 F15000.0
G1 Z11.9000 F2500.0
G4 P0.02
G1 X35.2355 Y-109.0275 F12000.0
G1 Z0.0000 F2500.0
G4 P0.02
G0 X36.5591 Y-109.0275 F15000.0
G1 Z11.9000 F2500.0
G4 P0.02
G1 X37.9607 Y-109.0275 F2200.0
G1 Z0.0000 F2500.0
G4 P0.02
G0 X39.3622 Y-109.0275 F15000.0
G1 Z11.9000 F2500.0
G4 P0.02
G1 X55.9469 Y-109.0275 F12000.0
G1 Z0.0000 F2500.0
G4 P0.02
G0 X57.3485 Y-109.0275 F15000.0
G1 Z11.9000 F2500.0
G4 P0.02
G1 X58.7500 Y-109.0275 F2200.0
G1 Z0.0000 F2500.0
G4 P0.02
G0 X60.1515 Y-109.0275 F15000.0
G1 Z11.9000 F2500.0
G4 P0.02
G1 X76.7362 Y-109.0275 F12000.0
G1 Z0.0000 F2500.0
G4 P0.02
G0 X78.1378 Y-109.0275 F15000.0
G1 Z11.9000 F2500.0
G4 P0.02
G1 X79.5393 Y-109.0275 F2200.0
G1 Z0.0000 F2500.0
G4 P0.02
G0 X80.8629 Y-109.0275 F15000.0
G1 Z11.9000 F2500.0
G4 P0.02
G1 X97.5255 Y-109.0275 F12000.0
G1 Z0.0000 F2500.0
G4 P0.02
G0 X98.9271 Y-109.0275 F15000.0
G1 Z11.9000 F2500.0
G4 P0.02
G1 X100.2507 Y-109.0275 F2200.0
G1 Z0.0000 F2500.0
G4 P0.02
G0 X101.6522 Y-109.0275 F15000.0
G1 Z11.9000 F2500.0
G4 P0.02
G1 X118.3149 Y-109.0275 F12000.0
G1 Z0.0000 F2500.0
G4 P0.02
G0 X119.6385 Y-109.0275 F15000.0
G1 Z11.9000 F2500.0
G4 P0.02
G1 X121.0400 Y-109.0275 F2200.0
G1 Z0.0000 F2500.0
G4 P0.02
G0 X122.4415 Y-109.0275 F15000.0
G1 Z11.9000 F2500.0
G4 P0.02
G1 X139.0263 Y-109.0275 F12000.0
G1 Z0.0000 F2500.0
G4 P0.02
G0 X128.9820 Y-195.4550 F15000.0
G1 Z11.9000 F2500.0
G4 P0.02
G1 X148.6034 Y-195.4550 F12000.0
G1 Z0.0000 F2500.0
G4 P0.02
G0 X121.5851 Y-224.8869 F15000.0
G1 Z11.9000 F2500.0
G4 P0.02
G1 X159.8934 Y-224.8869 F12000.0
G1 Z0.0000 F2500.0
G4 P0.02
G0 X59.9958 Y-241.3938 F15000.0
G1 Z11.9000 F2500.0
G4 P0.02
G1 X59.9958 Y-254.3969 F2200.0
G1 Z0.0000 F2500.0
G4 P0.02
G0 X96.8248 Y-241.3938 F15000.0
G1 Z11.9000 F2500.0
G4 P0.02
G1 X96.8248 Y-254.3969 F2200.0
G1 Z0.0000 F2500.0
G4 P0.02
G0 X121.5851 Y-186.2671 F15000.0
G1 Z11.9000 F2500.0
G4 P0.02
G1 X121.5851 Y-171.7068 F12000.0
G1 Z0.0000 F2500.0
G4 P0.02
G0 X128.9820 Y-195.4550 F15000.0
G1 Z11.9000 F2500.0
G4 P0.02
G1 X128.9820 Y-158.4702 F12000.0
G1 Z0.0000 F2500.0
G4 P0.02
G0 X27.8386 Y-195.4550 F15000.0
G1 Z11.9000 F2500.0
G4 P0.02
G1 X27.8386 Y-158.4702 F12000.0
G1 Z0.0000 F2500.0
G4 P0.02
G0 X71.7530 Y-221.2274 F15000.0
G1 Z11.9000 F2500.0
G4 P0.02
G1 X59.9958 Y-201.8396 F12000.0
G1 X46.8370 Y-201.8396 F2200.0
G1 Z0.0000 F2500.0
G4 P0.02
G0 X88.4935 Y-212.5847 F15000.0
G1 Z11.9000 F2500.0
G4 P0.02
G1 X94.0217 Y-201.8396 F2200.0
G1 X108.1148 Y-201.8396 F12000.0
G1 Z0.0000 F2500.0
G4 P0.02
G0 X135.9117 Y-186.2671 F15000.0
G1 Z11.9000 F2500.0
G4 P0.02
G1 X173.4415 Y-186.2671 F12000.0
G1 Z0.0000 F2500.0
G4 P0.02
G0 X135.9117 Y-232.2060 F15000.0
G1 Z11.9000 F2500.0
G4 P0.02
G1 X173.4415 Y-232.2060 F12000.0
G1 Z0.0000 F2500.0
G4 P0.02
G0 X135.9117 Y-74.0672 F15000.0
G1 Z11.9000 F2500.0
G4 P0.02
G1 X154.7545 Y-74.0672 F12000.0
G1 Z0.0000 F2500.0
G4 P0.02
G0 X135.9117 Y-143.9100 F15000.0
G1 Z11.9000 F2500.0
G4 P0.02
G1 X154.7545 Y-143.9100 F12000.0
G1 Z0.0000 F2500.0
G4 P0.02
G0 X20.9089 Y-74.0672 F15000.0
G1 Z11.9000 F2500.0
G4 P0.02
G1 X20.9089 Y-56.3924 F12000.0
G1 Z0.0000 F2500.0
G4 P0.02
G0 X135.9117 Y-74.0672 F15000.0
G1 Z11.9000 F2500.0
G4 P0.02
G1 X135.9117 Y-56.3924 F12000.0
G1 Z0.0000 F2500.0
G4 P0.02
G0 X146.8125 Y-186.2671 F15000.0
G1 Z11.9000 F2500.0
G4 P0.02
G1 X146.1896 Y-181.6733 F2200.0
G1 X146.8125 Y-182.1405 F2200.0
G1 X147.4354 Y-181.6733 F2200.0
G1 X146.8125 Y-186.2671 F2200.0
G1 X146.8125 Y-179.8046 F2200.0
G1 Z0.0000 F2500.0
G4 P0.02
G0 X146.5400 Y-184.1504 F15000.0
G1 Z11.9000 F2500.0
G4 P0.02
G1 X146.5400 Y-183.3227 F2200.0
G1 Z0.0000 F2500.0
G4 P0.02
G0 X147.1240 Y-184.4230 F15000.0
G1 Z11.9000 F2500.0
G4 P0.02
G1 X147.1240 Y-183.5953 F2200.0
G1 Z0.0000 F2500.0
G4 P0.02
G0 X146.8125 Y-195.4550 F15000.0
G1 Z11.9000 F2500.0
G4 P0.02
G1 X147.4354 Y-200.0488 F2200.0
G1 X146.8125 Y-199.5816 F2200.0
G1 X146.1896 Y-200.0488 F2200.0
G1 X146.8125 Y-195.4550 F2200.0
G1 X146.8125 Y-201.9175 F2200.0
G1 Z0.0000 F2500.0
G4 P0.02
G0 X147.1240 Y-198.2047 F15000.0
G1 Z11.9000 F2500.0
G4 P0.02
G1 X147.1240 Y-197.3770 F2200.0
G1 Z0.0000 F2500.0
G4 P0.02
G0 X146.5400 Y-198.4772 F15000.0
G1 Z11.9000 F2500.0
G4 P0.02
G1 X146.5400 Y-197.6495 F2200.0
G1 Z0.0000 F2500.0
G4 P0.02
G0 X146.8125 Y-186.2671 F15000.0
G1 Z11.9000 F2500.0
G4 P0.02
G1 X146.8125 Y-195.4550 F2200.0
G1 Z0.0000 F2500.0
G4 P0.02
G0 X158.0247 Y-186.2671 F15000.0
G1 Z11.9000 F2500.0
G4 P0.02
G1 X157.4018 Y-190.8610 F2200.0
G1 X158.0247 Y-190.3938 F2200.0
G1 X158.6476 Y-190.8610 F2200.0
G1 X158.0247 Y-186.2671 F2200.0
G1 Z0.0000 F2500.0
G4 P0.02
G0 X157.7522 Y-189.2893 F15000.0
G1 Z11.9000 F2500.0
G4 P0.02
G1 X157.7522 Y-188.4617 F2200.0
G1 Z0.0000 F2500.0
G4 P0.02
G0 X158.3362 Y-189.0169 F15000.0
G1 Z11.9000 F2500.0
G4 P0.02
G1 X158.3362 Y-188.1892 F2200.0
G1 Z0.0000 F2500.0
G4 P0.02
G0 X158.0247 Y-224.8869 F15000.0
G1 Z11.9000 F2500.0
G4 P0.02
G1 X158.6476 Y-220.2931 F2200.0
G1 X158.0247 Y-220.7602 F2200.0
G1 X157.4018 Y-220.2931 F2200.0
G1 X158.0247 Y-224.8869 F2200.0
G1 Z0.0000 F2500.0
G4 P0.02
G0 X158.3362 Y-223.0428 F15000.0
G1 Z11.9000 F2500.0
G4 P0.02
G1 X158.3362 Y-222.2151 F2200.0
G1 Z0.0000 F2500.0
G4 P0.02
G0 X157.7522 Y-222.7703 F15000.0
G1 Z11.9000 F2500.0
G4 P0.02
G1 X157.7522 Y-221.9426 F2200.0
G1 Z0.0000 F2500.0
G4 P0.02
G0 X158.0247 Y-186.2671 F15000.0
G1 Z11.9000 F2500.0
G4 P0.02
G1 X158.0247 Y-224.8869 F12000.0
G1 Z0.0000 F2500.0
G4 P0.02
G0 X76.5208 Y-255.1939 F15000.0
G1 Z11.9000 F2500.0
G4 P0.02
G1 X76.8134 Y-256.0508 F2200.0
G1 X75.6639 Y-256.1135
G1 X76.0610 Y-256.9495
G1 Z0.0000 F2500.0
G4 P0.02
G0 X76.3954 Y-257.5556 F15000.0
G1 Z11.9000 F2500.0
G4 P0.02
G1 X77.1269 Y-258.8306 F2200.0
G1 Z0.0000 F2500.0
G4 P0.02
G0 X76.8134 Y-256.0508 F15000.0
G1 Z11.9000 F2500.0
G4 P0.02
G1 X76.9179 Y-256.0717 F2200.0
G1 X77.2523 Y-257.0122
G1 Z0.0000 F2500.0
G4 P0.02
G0 X76.9597 Y-256.0717 F15000.0
G1 Z11.9000 F2500.0
G4 P0.02
G1 X77.3777 Y-256.0508 F2200.0
G1 Z0.0000 F2500.0
G4 P0.02
G0 X77.3568 Y-259.2486 F15000.0
G1 Z11.9000 F2500.0
G4 P0.02
G1 X77.3987 Y-259.3323 F2200.0
G1 Z0.0000 F2500.0
G4 P0.02
G0 X59.9958 Y-252.6060 F15000.0
G1 Z11.9000 F2500.0
G4 P0.02
G1 X64.5897 Y-253.1510 F2200.0
G1 X64.1225 Y-252.6060 F2200.0
G1 X64.5897 Y-251.9831 F2200.0
G1 X59.9958 Y-252.6060 F2200.0
G1 Z0.0000 F2500.0
G4 P0.02
G0 X62.2292 Y-252.8785 F15000.0
G1 Z11.9000 F2500.0
G4 P0.02
G1 X63.0569 Y-252.8785 F2200.0
G1 Z0.0000 F2500.0
G4 P0.02
G0 X61.8789 Y-252.3335 F15000.0
G1 Z11.9000 F2500.0
G4 P0.02
G1 X62.7065 Y-252.3335 F2200.0
G1 Z0.0000 F2500.0
G4 P0.02
G0 X96.8248 Y-252.6060 F15000.0
G1 Z11.9000 F2500.0
G4 P0.02
G1 X92.2308 Y-251.9831 F2200.0
G1 X92.6202 Y-252.6060 F2200.0
G1 X92.2308 Y-253.1510 F2200.0
G1 X96.8248 Y-252.6060 F2200.0
G1 Z0.0000 F2500.0
G4 P0.02
G0 X94.1529 Y-252.3335 F15000.0
G1 Z11.9000 F2500.0
G4 P0.02
G1 X94.9805 Y-252.3335 F2200.0
G1 Z0.0000 F2500.0
G4 P0.02
G0 X93.8415 Y-252.8785 F15000.0
G1 Z11.9000 F2500.0
G4 P0.02
G1 X94.6692 Y-252.8785 F2200.0
G1 Z0.0000 F2500.0
G4 P0.02
G0 X59.9958 Y-252.6060 F15000.0
G1 Z11.9000 F2500.0
G4 P0.02
G1 X96.8248 Y-252.6060 F12000.0
G1 Z0.0000 F2500.0
G4 P0.02
G0 X121.5851 Y-173.4977 F15000.0
G1 Z11.9000 F2500.0
G4 P0.02
G1 X116.9911 Y-172.8747 F2200.0
G1 X117.4583 Y-173.4977 F2200.0
G1 X116.9911 Y-174.1206 F2200.0
G1 X121.5851 Y-173.4977 F2200.0
G1 Z0.0000 F2500.0
G4 P0.02
G0 X118.9132 Y-173.2251 F15000.0
G1 Z11.9000 F2500.0
G4 P0.02
G1 X119.7408 Y-173.2251 F2200.0
G1 Z0.0000 F2500.0
G4 P0.02
G0 X118.6407 Y-173.8091 F15000.0
G1 Z11.9000 F2500.0
G4 P0.02
G1 X119.4684 Y-173.8091 F2200.0
G1 Z0.0000 F2500.0
G4 P0.02
G0 X121.5851 Y-173.4977 F15000.0
G1 Z11.9000 F2500.0
G4 P0.02
G1 X33.6783 Y-173.4977 F12000.0
G1 Z0.0000 F2500.0
G4 P0.02
G0 X128.9820 Y-160.3389 F15000.0
G1 Z11.9000 F2500.0
G4 P0.02
G1 X124.3880 Y-159.7160 F2200.0
G1 X124.8552 Y-160.3389 F2200.0
G1 X124.3880 Y-160.8840 F2200.0
G1 X128.9820 Y-160.3389 F2200.0
G1 Z0.0000 F2500.0
G4 P0.02
G0 X126.3101 Y-160.0664 F15000.0
G1 Z11.9000 F2500.0
G4 P0.02
G1 X127.1378 Y-160.0664 F2200.0
G1 Z0.0000 F2500.0
G4 P0.02
G0 X125.9987 Y-160.6115 F15000.0
G1 Z11.9000 F2500.0
G4 P0.02
G1 X126.8264 Y-160.6115 F2200.0
G1 Z0.0000 F2500.0
G4 P0.02
G0 X27.8386 Y-160.3389 F15000.0
G1 Z11.9000 F2500.0
G4 P0.02
G1 X32.4325 Y-160.8840 F2200.0
G1 X31.9653 Y-160.3389 F2200.0
G1 X32.4325 Y-159.7160 F2200.0
G1 X27.8386 Y-160.3389 F2200.0
G1 Z0.0000 F2500.0
G4 P0.02
G0 X30.0720 Y-160.6115 F15000.0
G1 Z11.9000 F2500.0
G4 P0.02
G1 X30.8997 Y-160.6115 F2200.0
G1 Z0.0000 F2500.0
G4 P0.02
G0 X29.7216 Y-160.0664 F15000.0
G1 Z11.9000 F2500.0
G4 P0.02
G1 X30.5493 Y-160.0664 F2200.0
G1 Z0.0000 F2500.0
G4 P0.02
G0 X128.9820 Y-160.3389 F15000.0
G1 Z11.9000 F2500.0
G4 P0.02
G1 X27.8386 Y-160.3389 F12000.0
G1 Z0.0000 F2500.0
G4 P0.02
G0 X71.7530 Y-221.2274 F15000.0
G1 Z11.9000 F2500.0
G4 P0.02
G1 X73.6217 Y-225.4320 F2200.0
G1 X73.8553 Y-224.7312 F2200.0
G1 X74.6340 Y-224.8091 F2200.0
G1 X71.7530 Y-221.2274 F2200.0
G1 Z0.0000 F2500.0
G4 P0.02
G0 X72.8820 Y-223.8603 F15000.0
G1 Z11.9000 F2500.0
G4 P0.02
G1 X72.8820 Y-223.0327 F2200.0
G1 Z0.0000 F2500.0
G4 P0.02
G0 X72.9884 Y-223.4569 F15000.0
G1 Z11.9000 F2500.0
G4 P0.02
G1 X73.6322 Y-222.8131 F2200.0
G1 Z0.0000 F2500.0
G4 P0.02
G0 X78.3714 Y-232.2060 F15000.0
G1 Z11.9000 F2500.0
G4 P0.02
G1 X71.7530 Y-221.2274 F2200.0
G1 Z0.0000 F2500.0
G4 P0.02
G0 X88.4935 Y-212.5847 F15000.0
G1 Z11.9000 F2500.0
G4 P0.02
G1 X85.8462 Y-216.4000 F2200.0
G1 X86.6248 Y-216.2442 F2200.0
G1 X86.9362 Y-216.9449 F2200.0
G1 X88.4935 Y-212.5847 F2200.0
G1 Z0.0000 F2500.0
G4 P0.02
G0 X86.8090 Y-214.9699 F15000.0
G1 Z11.9000 F2500.0
G4 P0.02
G1 X87.4528 Y-214.3262 F2200.0
G1 Z0.0000 F2500.0
G4 P0.02
G0 X87.5202 Y-215.2955 F15000.0
G1 Z11.9000 F2500.0
G4 P0.02
G1 X87.5202 Y-214.4678 F2200.0
G1 Z0.0000 F2500.0
G4 P0.02
G0 X78.3714 Y-232.2060 F15000.0
G1 Z11.9000 F2500.0
G4 P0.02
G1 X88.4935 Y-212.5847 F12000.0
G1 Z0.0000 F2500.0
G4 P0.02
G0 X171.6507 Y-186.2671 F15000.0
G1 Z11.9000 F2500.0
G4 P0.02
G1 X171.0277 Y-190.8610 F2200.0
G1 X171.6507 Y-190.3938 F2200.0
G1 X172.2735 Y-190.8610 F2200.0
G1 X171.6507 Y-186.2671 F2200.0
G1 Z0.0000 F2500.0
G4 P0.02
G0 X171.3781 Y-189.2893 F15000.0
G1 Z11.9000 F2500.0
G4 P0.02
G1 X171.3781 Y-188.4617 F2200.0
G1 Z0.0000 F2500.0
G4 P0.02
G0 X171.9621 Y-189.0169 F15000.0
G1 Z11.9000 F2500.0
G4 P0.02
G1 X171.9621 Y-188.1892 F2200.0
G1 Z0.0000 F2500.0
G4 P0.02
G0 X171.6507 Y-232.2060 F15000.0
G1 Z11.9000 F2500.0
G4 P0.02
G1 X172.2735 Y-227.6122 F2200.0
G1 X171.6507 Y-228.0793 F2200.0
G1 X171.0277 Y-227.6122 F2200.0
G1 X171.6507 Y-232.2060 F2200.0
G1 Z0.0000 F2500.0
G4 P0.02
G0 X171.9621 Y-230.3619 F15000.0
G1 Z11.9000 F2500.0
G4 P0.02
G1 X171.9621 Y-229.5342 F2200.0
G1 Z0.0000 F2500.0
G4 P0.02
G0 X171.3781 Y-230.0893 F15000.0
G1 Z11.9000 F2500.0
G4 P0.02
G1 X171.3781 Y-229.2616 F2200.0
G1 Z0.0000 F2500.0
G4 P0.02
G0 X171.6507 Y-186.2671 F15000.0
G1 Z11.9000 F2500.0
G4 P0.02
G1 X171.6507 Y-232.2060 F12000.0
G1 Z0.0000 F2500.0
G4 P0.02
G0 X152.9636 Y-74.0672 F15000.0
G1 Z11.9000 F2500.0
G4 P0.02
G1 X152.3408 Y-78.6612 F2200.0
G1 X152.9636 Y-78.1940 F2200.0
G1 X153.5087 Y-78.6612 F2200.0
G1 X152.9636 Y-74.0672 F2200.0
G1 Z0.0000 F2500.0
G4 P0.02
G0 X152.6912 Y-77.0895 F15000.0
G1 Z11.9000 F2500.0
G4 P0.02
G1 X152.6912 Y-76.2618 F2200.0
G1 Z0.0000 F2500.0
G4 P0.02
G0 X153.2361 Y-76.8169 F15000.0
G1 Z11.9000 F2500.0
G4 P0.02
G1 X153.2361 Y-75.9893 F2200.0
G1 Z0.0000 F2500.0
G4 P0.02
G0 X152.9636 Y-143.9100 F15000.0
G1 Z11.9000 F2500.0
G4 P0.02
G1 X153.5087 Y-139.3160 F2200.0
G1 X152.9636 Y-139.7832 F2200.0
G1 X152.3408 Y-139.3160 F2200.0
G1 X152.9636 Y-143.9100 F2200.0
G1 Z0.0000 F2500.0
G4 P0.02
G0 X153.2361 Y-142.0657 F15000.0
G1 Z11.9000 F2500.0
G4 P0.02
G1 X153.2361 Y-141.2380 F2200.0
G1 Z0.0000 F2500.0
G4 P0.02
G0 X152.6912 Y-141.7932 F15000.0
G1 Z11.9000 F2500.0
G4 P0.02
G1 X152.6912 Y-140.9656 F2200.0
G1 Z0.0000 F2500.0
G4 P0.02
G0 X152.9636 Y-74.0672 F15000.0
G1 Z11.9000 F2500.0
G4 P0.02
G1 X152.9636 Y-143.9100 F12000.0
G1 Z0.0000 F2500.0
G4 P0.02
G0 X20.9089 Y-58.2611 F15000.0
G1 Z11.9000 F2500.0
G4 P0.02
G1 X25.5027 Y-58.8841 F2200.0
G1 X25.0355 Y-58.2611 F2200.0
G1 X25.5027 Y-57.6383 F2200.0
G1 X20.9089 Y-58.2611 F2200.0
G1 Z0.0000 F2500.0
G4 P0.02
G0 X23.1034 Y-58.5726 F15000.0
G1 Z11.9000 F2500.0
G4 P0.02
G1 X23.9311 Y-58.5726 F2200.0
G1 Z0.0000 F2500.0
G4 P0.02
G0 X22.7919 Y-57.9887 F15000.0
G1 Z11.9000 F2500.0
G4 P0.02
G1 X23.6196 Y-57.9887 F2200.0
G1 Z0.0000 F2500.0
G4 P0.02
G0 X135.9117 Y-58.2611 F15000.0
G1 Z11.9000 F2500.0
G4 P0.02
G1 X131.2400 Y-57.6383 F2200.0
G1 X131.7072 Y-58.2611 F2200.0
G1 X131.2400 Y-58.8841 F2200.0
G1 X135.9117 Y-58.2611 F2200.0
G1 Z0.0000 F2500.0
G4 P0.02
G0 X133.2009 Y-57.9887 F15000.0
G1 Z11.9000 F2500.0
G4 P0.02
G1 X134.0286 Y-57.9887 F2200.0
G1 Z0.0000 F2500.0
G4 P0.02
G0 X132.9284 Y-58.5726 F15000.0
G1 Z11.9000 F2500.0
G4 P0.02
G1 X133.7561 Y-58.5726 F2200.0
G1 Z0.0000 F2500.0
G4 P0.02
G0 X20.9089 Y-58.2611 F15000.0
G1 Z11.9000 F2500.0
G4 P0.02
G1 X135.9117 Y-58.2611 F12000.0
G1 Z0.0000 F2500.0
G4 P0.02
G0 X61.1638 Y-264.1297 F15000.0
G1 Z11.9000 F2500.0
G4 P0.02
G1 X0.0000 Y-264.1297 F12000.0
G1 Z0.0000 F2500.0
G4 P0.02
G0 X61.1638 Y-276.9770 F15000.0
G1 Z11.9000 F2500.0
G4 P0.02
G1 X61.1638 Y-264.1297 F2200.0
G1 Z0.0000 F2500.0
G4 P0.02
G0 X9.2886 Y-269.3524 F15000.0
G1 Z11.9000 F2500.0
G4 P0.02
G1 X9.0377 Y-268.8298 F2200.0
G1 Z0.0000 F2500.0
G4 P0.02
G0 X9.1004 Y-268.0147 F15000.0
G1 Z11.9000 F2500.0
G4 P0.02
G1 X9.4767 Y-267.7012 F2200.0
G1 X10.5426 Y-267.7012
G1 X10.9816 Y-267.9102
G1 X10.0201 Y-270.0838
G1 X13.4687 Y-273.6161
G1 X13.2388 Y-273.5325
G1 X12.0057 Y-273.5952
G1 Z0.0000 F2500.0
G4 P0.02
G0 X10.7725 Y-273.5116 F15000.0
G1 Z11.9000 F2500.0
G4 P0.02
G1 X13.1134 Y-273.1771 F2200.0
G1 X13.2388 Y-273.5116
G1 Z0.0000 F2500.0
G4 P0.02
G0 X15.0990 Y-273.2608 F15000.0
G1 Z11.9000 F2500.0
G4 P0.02
G1 X15.2035 Y-273.3234 F2200.0
G1 Z0.0000 F2500.0
G4 P0.02
G0 X17.1473 Y-273.2190 F15000.0
G1 Z11.9000 F2500.0
G4 P0.02
G1 X17.1891 Y-272.4874 F2200.0
G1 X15.6424 Y-268.3490
G1 X15.3916 Y-268.0774
G1 Z0.0000 F2500.0
G4 P0.02
G0 X9.2744 Y-269.2848 F15000.0
G1 Z11.9000 F2500.0
G4 P0.02
G1 X9.0237 Y-268.7623 F2200.0
G1 X9.0864 Y-267.9472
G1 Z0.0000 F2500.0
G4 P0.02
G0 X13.4547 Y-273.5486 F15000.0
G1 Z11.9000 F2500.0
G4 P0.02
G1 X13.2247 Y-273.4650 F2200.0
G1 Z0.0000 F2500.0
G4 P0.02
G0 X11.9916 Y-273.5277 F15000.0
G1 Z11.9000 F2500.0
G4 P0.02
G1 X10.7585 Y-273.4441 F2200.0
G1 Z0.0000 F2500.0
G4 P0.02
G0 X13.0993 Y-273.1096 F15000.0
G1 Z11.9000 F2500.0
G4 P0.02
G1 X13.2247 Y-273.4441 F2200.0
G1 X15.0849 Y-273.1932
G1 X15.1894 Y-273.2559
G1 X17.1332 Y-273.1515
G1 Z0.0000 F2500.0
G4 P0.02
G0 X15.6283 Y-268.2815 F15000.0
G1 Z11.9000 F2500.0
G4 P0.02
G1 X15.3775 Y-268.0099 F2200.0
G1 Z0.0000 F2500.0
G4 P0.02
G0 X11.6713 Y-268.5372 F15000.0
G1 Z11.9000 F2500.0
G4 P0.02
G1 X11.2741 Y-268.1401 F2200.0
G1 X10.9443 Y-267.9942
G1 Z0.0000 F2500.0
G4 P0.02
G0 X10.7994 Y-268.1515 F15000.0
G1 Z11.9000 F2500.0
G4 P0.02
G1 X11.6082 Y-268.5093 F2200.0
G1 X11.2111 Y-268.1121
G1 X10.8813 Y-267.9663
G1 Z0.0000 F2500.0
G4 P0.02
G0 X16.8409 Y-273.2354 F15000.0
G1 Z11.9000 F2500.0
G4 P0.02
G1 X16.8546 Y-273.4907 F2200.0
G1 Z0.0000 F2500.0
G4 P0.02
G0 X15.5588 Y-273.4907 F15000.0
G1 Z11.9000 F2500.0
G4 P0.02
G1 X14.8691 Y-273.0727 F2200.0
G1 Z0.0000 F2500.0
G4 P0.02
G0 X13.1134 Y-268.8925 F15000.0
G1 Z11.9000 F2500.0
G4 P0.02
G1 X13.1343 Y-267.8892 F2200.0
G1 X13.3224 Y-267.7012
G1 X14.5765 Y-267.6176
G1 Z0.0000 F2500.0
G4 P0.02
G0 X15.1826 Y-267.8892 F15000.0
G1 Z11.9000 F2500.0
G4 P0.02
G1 X15.6424 Y-268.3490 F2200.0
G1 Z0.0000 F2500.0
G4 P0.02
G0 X16.7740 Y-273.2519 F15000.0
G1 Z11.9000 F2500.0
G4 P0.02
G1 X16.7877 Y-273.5071 F2200.0
G1 X15.4918 Y-273.5071
G1 Z0.0000 F2500.0
G4 P0.02
G0 X14.8021 Y-273.0891 F15000.0
G1 Z11.9000 F2500.0
G4 P0.02
G1 X14.3423 Y-272.4411 F2200.0
G1 X13.0464 Y-268.9089
G1 Z0.0000 F2500.0
G4 P0.02
G0 X13.0673 Y-267.9057 F15000.0
G1 Z11.9000 F2500.0
G4 P0.02
G1 X13.2555 Y-267.7176 F2200.0
G1 Z0.0000 F2500.0
G4 P0.02
G0 X14.5095 Y-267.6340 F15000.0
G1 Z11.9000 F2500.0
G4 P0.02
G1 X15.1156 Y-267.9057 F2200.0
G1 Z0.0000 F2500.0
G4 P0.02
G0 X44.3001 Y-267.5479 F15000.0
G1 Z11.9000 F2500.0
G4 P0.02
G1 X46.6829 Y-269.6798 F2200.0
G1 X46.8918 Y-270.0769
G1 Z0.0000 F2500.0
G4 P0.02
G0 X48.1250 Y-270.7457 F15000.0
G1 Z11.9000 F2500.0
G4 P0.02
G1 X48.3340 Y-271.0383 F2200.0
G1 X48.6057 Y-271.6863
G1 X46.8918 Y-270.0769
G1 Z0.0000 F2500.0
G4 P0.02
G0 X46.5574 Y-273.4210 F15000.0
G1 Z11.9000 F2500.0
G4 P0.02
G1 X45.2372 Y-273.6164 F2200.0
G1 X43.1680 Y-267.9941
G1 X43.8995 Y-270.3350
G1 X41.3420 Y-270.3522
G1 Z0.0000 F2500.0
G4 P0.02
G0 X43.0187 Y-267.5897 F15000.0
G1 Z11.9000 F2500.0
G4 P0.02
G1 X44.3599 Y-267.5824 F2200.0
G1 Z0.0000 F2500.0
G4 P0.02
G0 X46.7426 Y-269.7143 F15000.0
G1 Z11.9000 F2500.0
G4 P0.02
G1 X46.9516 Y-270.1114 F2200.0
G1 X48.1847 Y-270.7803
G1 X48.3937 Y-271.0729
G1 Z0.0000 F2500.0
G4 P0.02
G0 X46.9516 Y-270.1114 F15000.0
G1 Z11.9000 F2500.0
G4 P0.02
G1 X46.6171 Y-273.4556 F2200.0
G1 Z0.0000 F2500.0
G4 P0.02
G0 X48.0623 Y-270.2233 F15000.0
G1 Z11.9000 F2500.0
G4 P0.02
G1 X47.0173 Y-267.5270 F2200.0
G1 Z0.0000 F2500.0
G4 P0.02
G0 X48.0668 Y-270.7782 F15000.0
G1 Z11.9000 F2500.0
G4 P0.02
G1 X47.9971 Y-270.2457 F2200.0
G1 Z0.0000 F2500.0
G4 P0.02
G0 X48.6057 Y-271.6863 F15000.0
G1 Z11.9000 F2500.0
G4 P0.02
G1 X49.3372 Y-273.6092 F2200.0
G1 Z0.0000 F2500.0
G4 P0.02
G0 X41.1535 Y-273.6164 F15000.0
G1 Z11.9000 F2500.0
G4 P0.02
G1 X42.4783 Y-273.6164 F2200.0
G1 Z0.0000 F2500.0
G4 P0.02
G0 X41.3288 Y-270.3141 F15000.0
G1 Z11.9000 F2500.0
G4 P0.02
G1 X41.2451 Y-270.2514 F2200.0
G1 X40.1165 Y-267.4925
G1 X42.9590 Y-267.5552
G1 X43.1680 Y-267.9941
G1 Z0.0000 F2500.0
G4 P0.02
G0 X42.4134 Y-273.5932 F15000.0
G1 Z11.9000 F2500.0
G4 P0.02
G1 X41.2638 Y-270.2909 F2200.0
G1 X41.1801 Y-270.2281
G1 Z0.0000 F2500.0
G4 P0.02
G0 X42.8941 Y-267.5319 F15000.0
G1 Z11.9000 F2500.0
G4 P0.02
G1 X43.1031 Y-267.9708 F2200.0
G1 Z0.0000 F2500.0
G4 P0.02
G0 X40.8608 Y-272.8013 F15000.0
G1 Z11.9000 F2500.0
G4 P0.02
G1 X38.9171 Y-267.6388 F2200.0
G1 X36.6180 Y-267.4925
G1 Z0.0000 F2500.0
G4 P0.02
G0 X40.7354 Y-272.4669 F15000.0
G1 Z11.9000 F2500.0
G4 P0.02
G1 X41.1535 Y-273.6164 F2200.0
G1 Z0.0000 F2500.0
G4 P0.02
G0 X37.6836 Y-273.5292 F15000.0
G1 Z11.9000 F2500.0
G4 P0.02
G1 X37.5163 Y-273.3619 F2200.0
G1 X34.3863 Y-273.5116
G1 X34.1773 Y-273.4489
G1 Z0.0000 F2500.0
G4 P0.02
G0 X33.4249 Y-272.8846 F15000.0
G1 Z11.9000 F2500.0
G4 P0.02
G1 X31.8156 Y-268.7880 F2200.0
G1 X31.7737 Y-268.0774
G1 X31.8364 Y-268.8925
G1 X31.8573 Y-267.8892
G1 X33.5503 Y-267.7012
G1 X34.3236 Y-268.2654
G1 X35.8285 Y-272.1322
G1 X35.9539 Y-272.9891
G1 X35.7240 Y-273.3862
G1 Z0.0000 F2500.0
G4 P0.02
G0 X37.6435 Y-273.5853 F15000.0
G1 Z11.9000 F2500.0
G4 P0.02
G1 X37.4763 Y-273.4181 F2200.0
G1 Z0.0000 F2500.0
G4 P0.02
G0 X34.3463 Y-273.5678 F15000.0
G1 Z11.9000 F2500.0
G4 P0.02
G1 X34.1373 Y-273.5051 F2200.0
G1 X33.3848 Y-272.9407
G1 Z0.0000 F2500.0
G4 P0.02
G0 X35.9138 Y-273.0453 F15000.0
G1 Z11.9000 F2500.0
G4 P0.02
G1 X35.6839 Y-273.4424 F2200.0
G1 X35.8302 Y-272.2928
G1 Z0.0000 F2500.0
G4 P0.02
G0 X28.0243 Y-269.3524 F15000.0
G1 Z11.9000 F2500.0
G4 P0.02
G1 X27.7734 Y-268.8298 F2200.0
G1 X27.8361 Y-268.0147
G1 X28.2123 Y-267.7012
G1 X29.2783 Y-267.7012
G1 X29.7172 Y-267.9102
G1 X28.7558 Y-270.0838
G1 Z0.0000 F2500.0
G4 P0.02
G0 X32.2044 Y-273.6161 F15000.0
G1 Z11.9000 F2500.0
G4 P0.02
G1 X31.9745 Y-273.5325 F2200.0
G1 X30.7413 Y-273.5952
G1 X29.5082 Y-273.5116
G1 X28.3157 Y-273.5292
G1 X28.1485 Y-273.3619
G1 X26.6945 Y-273.5116
G1 X26.5431 Y-273.2010
G1 Z0.0000 F2500.0
G4 P0.02
G0 X29.3427 Y-267.7259 F15000.0
G1 Z11.9000 F2500.0
G4 P0.02
G1 X29.7816 Y-267.9349 F2200.0
G1 Z0.0000 F2500.0
G4 P0.02
G0 X28.8201 Y-270.1086 F15000.0
G1 Z11.9000 F2500.0
G4 P0.02
G1 X32.2688 Y-273.6409 F2200.0
G1 X32.0389 Y-273.5572
G1 Z0.0000 F2500.0
G4 P0.02
G0 X28.3801 Y-273.5539 F15000.0
G1 Z11.9000 F2500.0
G4 P0.02
G1 X28.2129 Y-273.3867 F2200.0
G1 Z0.0000 F2500.0
G4 P0.02
G0 X26.7589 Y-273.5363 F15000.0
G1 Z11.9000 F2500.0
G4 P0.02
G1 X26.6075 Y-273.2258 F2200.0
G1 Z0.0000 F2500.0
G4 P0.02
G0 X29.5980 Y-268.1795 F15000.0
G1 Z11.9000 F2500.0
G4 P0.02
G1 X30.4070 Y-268.5372 F2200.0
G1 X30.0098 Y-268.1401
G1 X29.6800 Y-267.9942
G1 Z0.0000 F2500.0
G4 P0.02
G0 X30.3439 Y-268.5093 F15000.0
G1 Z11.9000 F2500.0
G4 P0.02
G1 X29.9468 Y-268.1121 F2200.0
G1 X29.6169 Y-267.9663
G1 Z0.0000 F2500.0
G4 P0.02
G0 X31.8232 Y-273.2010 F15000.0
G1 Z11.9000 F2500.0
G4 P0.02
G1 X31.9745 Y-273.5325 F2200.0
G1 Z0.0000 F2500.0
G4 P0.02
G0 X31.8859 Y-273.1724 F15000.0
G1 Z11.9000 F2500.0
G4 P0.02
G1 X32.0372 Y-273.5039 F2200.0
G1 Z0.0000 F2500.0
G4 P0.02
G0 X21.4339 Y-269.7703 F15000.0
G1 Z11.9000 F2500.0
G4 P0.02
G1 X22.7442 Y-269.3524 F2200.0
G1 X22.4934 Y-268.8298
G1 X22.5561 Y-268.0147
G1 Z0.0000 F2500.0
G4 P0.02
G0 X22.9322 Y-267.7012 F15000.0
G1 Z11.9000 F2500.0
G4 P0.02
G1 X23.9982 Y-267.7012 F2200.0
G1 X24.4371 Y-267.9102
G1 Z0.0000 F2500.0
G4 P0.02
G0 X23.4758 Y-270.0838 F15000.0
G1 Z11.9000 F2500.0
G4 P0.02
G1 X26.9244 Y-273.6161 F2200.0
G1 X26.6945 Y-273.5325
G1 X25.4612 Y-273.5952
G1 Z0.0000 F2500.0
G4 P0.02
G0 X22.3326 Y-273.3234 F15000.0
G1 Z11.9000 F2500.0
G4 P0.02
G1 X22.4998 Y-272.9891 F2200.0
G1 Z0.0000 F2500.0
G4 P0.02
G0 X22.3744 Y-272.1322 F15000.0
G1 Z11.9000 F2500.0
G4 P0.02
G1 X21.7265 Y-270.3973 F2200.0
G1 X21.5593 Y-270.3346
G1 X19.7200 Y-270.3973
G1 X19.3229 Y-270.8363
G1 Z0.0000 F2500.0
G4 P0.02
G0 X22.7753 Y-269.4139 F15000.0
G1 Z11.9000 F2500.0
G4 P0.02
G1 X22.5245 Y-268.8914 F2200.0
G1 Z0.0000 F2500.0
G4 P0.02
G0 X22.5872 Y-268.0763 F15000.0
G1 Z11.9000 F2500.0
G4 P0.02
G1 X22.9634 Y-267.7627 F2200.0
G1 Z0.0000 F2500.0
G4 P0.02
G0 X24.0293 Y-267.7627 F15000.0
G1 Z11.9000 F2500.0
G4 P0.02
G1 X24.4682 Y-267.9717 F2200.0
G1 X23.5068 Y-270.1455
G1 Z0.0000 F2500.0
G4 P0.02
G0 X26.9555 Y-273.6777 F15000.0
G1 Z11.9000 F2500.0
G4 P0.02
G1 X26.7256 Y-273.5941 F2200.0
G1 Z0.0000 F2500.0
G4 P0.02
G0 X25.4924 Y-273.6567 F15000.0
G1 Z11.9000 F2500.0
G4 P0.02
G1 X22.3637 Y-273.3851 F2200.0
G1 X22.5309 Y-273.0506
G1 X22.4055 Y-272.1937
G1 Z0.0000 F2500.0
G4 P0.02
G0 X21.7576 Y-270.4590 F15000.0
G1 Z11.9000 F2500.0
G4 P0.02
G1 X21.5904 Y-270.3962 F2200.0
G1 Z0.0000 F2500.0
G4 P0.02
G0 X25.1269 Y-268.5372 F15000.0
G1 Z11.9000 F2500.0
G4 P0.02
G1 X24.7298 Y-268.1401 F2200.0
G1 X24.4000 Y-267.9942
G1 Z0.0000 F2500.0
G4 P0.02
G0 X24.2550 Y-268.1515 F15000.0
G1 Z11.9000 F2500.0
G4 P0.02
G1 X25.0638 Y-268.5093 F2200.0
G1 X24.6667 Y-268.1121
G1 X24.3369 Y-267.9663
G1 Z0.0000 F2500.0
G4 P0.02
G0 X19.9500 Y-268.1401 F15000.0
G1 Z11.9000 F2500.0
G4 P0.02
G1 X20.0544 Y-268.2237 F2200.0
G1 X18.9258 Y-267.5967
G1 X20.4934 Y-268.5999
G1 X20.2843 Y-268.4118
G1 Z0.0000 F2500.0
G4 P0.02
G0 X20.7233 Y-268.8089 F15000.0
G1 Z11.9000 F2500.0
G4 P0.02
G1 X21.4339 Y-269.7703 F2200.0
G1 X21.5802 Y-270.3138
G1 X22.4371 Y-272.3202
G1 Z0.0000 F2500.0
G4 P0.02
G0 X22.1655 Y-273.4698 F15000.0
G1 Z11.9000 F2500.0
G4 P0.02
G1 X20.9322 Y-273.5116 F2200.0
G1 X20.3679 Y-273.2817
G1 X19.9500 Y-272.8636
G1 Z0.0000 F2500.0
G4 P0.02
G0 X19.5946 Y-272.1322 F15000.0
G1 Z11.9000 F2500.0
G4 P0.02
G1 X19.3229 Y-270.8363 F2200.0
G1 Z0.0000 F2500.0
G4 P0.02
G0 X18.7806 Y-273.3619 F15000.0
G1 Z11.9000 F2500.0
G4 P0.02
G1 X18.9479 Y-273.5292 F2200.0
G1 Z0.0000 F2500.0
G4 P0.02
G0 X20.0177 Y-268.1527 F15000.0
G1 Z11.9000 F2500.0
G4 P0.02
G1 X20.1222 Y-268.2363 F2200.0
G1 Z0.0000 F2500.0
G4 P0.02
G0 X20.5611 Y-268.6125 F15000.0
G1 Z11.9000 F2500.0
G4 P0.02
G1 X20.3521 Y-268.4244 F2200.0
G1 X20.7911 Y-268.8216
G1 Z0.0000 F2500.0
G4 P0.02
G0 X22.5049 Y-272.3328 F15000.0
G1 Z11.9000 F2500.0
G4 P0.02
G1 X22.2332 Y-273.4824 F2200.0
G1 Z0.0000 F2500.0
G4 P0.02
G0 X21.0001 Y-273.5242 F15000.0
G1 Z11.9000 F2500.0
G4 P0.02
G1 X20.4357 Y-273.2943 F2200.0
G1 Z0.0000 F2500.0
G4 P0.02
G0 X20.0177 Y-272.8762 F15000.0
G1 Z11.9000 F2500.0
G4 P0.02
G1 X19.6624 Y-272.1448 F2200.0
G1 Z0.0000 F2500.0
G4 P0.02
G0 X19.3907 Y-270.8489 F15000.0
G1 Z11.9000 F2500.0
G4 P0.02
G1 X18.8485 Y-273.3746 F2200.0
G1 X19.0157 Y-273.5418
G1 Z0.0000 F2500.0
G4 P0.02

G0 Z0.0000 F800.0
G4 P0.06
G0 X0.0000 Y0.0000 F15000.0
M5
G4 P0.10
$1=0
