$X
$1=255
G21
G90
G92 Z4.0000
G0 Z0.0000 F800.0
G4 P0.06
G92 Z0.0000
G0 Z0.0000 F800.0
G0 X0.0000 Y0.0000 F15000.0
G21
G90
G17
G91.1
G0 Z0.0000
G0 X137.9891 Y-111.0772 F15000.0
G1 Z11.9000 F2500.0
G4 P0.02
G1 X136.8604 Y-110.9518 F12000.0
G1 X136.3589 Y-110.7010
G1 X136.1081 Y-110.4502
G1 X135.8572 Y-109.8649
G1 Z0.0000 F2500.0
G4 P0.02
G0 X136.2334 Y-106.7298 F15000.0
G1 Z11.9000 F2500.0
G4 P0.02
G1 X135.3556 Y-106.8134 F12000.0
G1 Z0.0000 F2500.0
G4 P0.02
G0 X136.2334 Y-108.6945 F15000.0
G1 Z11.9000 F2500.0
G4 P0.02
G1 X135.9408 Y-108.6945 F12000.0
G1 X135.6900 Y-109.4887
G1 X135.7319 Y-109.5723
G1 Z0.0000 F2500.0
G4 P0.02
G0 X135.8572 Y-108.6109 F15000.0
G1 Z11.9000 F2500.0
G4 P0.02
G1 X135.3556 Y-107.9002 F12000.0
G1 X135.1048 Y-107.1060
G1 X135.1884 Y-106.9388
G1 Z0.0000 F2500.0
G4 P0.02
G0 X134.1015 Y-108.5273 F15000.0
G1 Z11.9000 F2500.0
G4 P0.02
G1 X134.7704 Y-109.6978 F12000.0
G1 X133.6836 Y-110.0321
G1 X133.0565 Y-109.9904
G1 Z0.0000 F2500.0
G4 P0.02
G0 X133.9762 Y-110.8682 F15000.0
G1 Z11.9000 F2500.0
G4 P0.02
G1 X133.2237 Y-109.0289 F12000.0
G1 Z0.0000 F2500.0
G4 P0.02
G0 X133.6417 Y-107.6913 F15000.0
G1 Z11.9000 F2500.0
G4 P0.02
G1 X133.0983 Y-106.7298 F12000.0
G1 Z0.0000 F2500.0
G4 P0.02
G0 X138.9832 Y-32.0032 F15000.0
G1 Z11.9000 F2500.0
G4 P0.02
G1 X137.8546 Y-31.8778 F12000.0
G1 X137.2276 Y-31.5016
G1 X136.9349 Y-30.9999
G1 Z0.0000 F2500.0
G4 P0.02
G0 X136.8513 Y-29.7459 F15000.0
G1 Z11.9000 F2500.0
G4 P0.02
G1 X137.9382 Y-29.5369 F12000.0
G1 X137.3947 Y-27.9066
G1 X135.8063 Y-27.6559
G1 Z0.0000 F2500.0
G4 P0.02
G0 X136.7677 Y-30.5820 F15000.0
G1 Z11.9000 F2500.0
G4 P0.02
G1 X136.7259 Y-29.8713 F12000.0
G1 Z0.0000 F2500.0
G4 P0.02
G0 X133.2564 Y-27.7395 F15000.0
G1 Z11.9000 F2500.0
G4 P0.02
G1 X134.5522 Y-27.8648 F12000.0
G1 X134.9285 Y-28.2410
G1 X135.9734 Y-30.8746
G1 X135.9734 Y-31.6688
G1 Z0.0000 F2500.0
G4 P0.02
G0 X135.8899 Y-31.7524 F15000.0
G1 Z11.9000 F2500.0
G4 P0.02
G1 X135.1374 Y-31.9196 F12000.0
G1 X134.4686 Y-31.6688
G1 Z0.0000 F2500.0
G4 P0.02
G0 X134.2596 Y-31.4598 F15000.0
G1 Z11.9000 F2500.0
G4 P0.02
G1 X133.9252 Y-30.7491 F12000.0
G1 Z0.0000 F2500.0
G4 P0.02
G0 X133.7998 Y-30.4148 F15000.0
G1 Z11.9000 F2500.0
G4 P0.02
G1 X133.0473 Y-28.0320 F12000.0
G1 Z0.0000 F2500.0
G4 P0.02
G0 X93.3335 Y-73.5431 F15000.0
G1 Z11.9000 F2500.0
G4 P0.02
G1 X92.8319 Y-74.4209 F12000.0
G1 Z0.0000 F2500.0
G4 P0.02
G0 X92.9991 Y-71.8710 F15000.0
G1 Z11.9000 F2500.0
G4 P0.02
G1 X93.2917 Y-71.4948 F12000.0
G1 X93.1663 Y-70.2407
G1 X92.6647 Y-70.1571
G1 Z0.0000 F2500.0
G4 P0.02
G0 X92.7483 Y-72.0800 F15000.0
G1 Z11.9000 F2500.0
G4 P0.02
G1 X90.6164 Y-72.9161 F12000.0
G1 Z0.0000 F2500.0
G4 P0.02
G0 X92.3721 Y-74.8807 F15000.0
G1 Z11.9000 F2500.0
G4 P0.02
G1 X92.1631 Y-75.0897 F12000.0
G1 X91.4942 Y-75.4242
G1 X91.2853 Y-74.0029
G1 Z0.0000 F2500.0
G4 P0.02
G0 X91.7451 Y-70.4915 F15000.0
G1 Z11.9000 F2500.0
G4 P0.02
G1 X91.6196 Y-70.5334 F12000.0
G1 Z0.0000 F2500.0
G4 P0.02
G0 X91.4525 Y-75.4242 F15000.0
G1 Z11.9000 F2500.0
G4 P0.02
G1 X91.2434 Y-75.5914 F12000.0
G1 Z0.0000 F2500.0
G4 P0.02
G0 X91.0344 Y-70.7423 F15000.0
G1 Z11.9000 F2500.0
G4 P0.02
G1 X90.9090 Y-70.7842 F12000.0
G1 Z0.0000 F2500.0
G4 P0.02
G0 X90.9926 Y-73.7939 F15000.0
G1 Z11.9000 F2500.0
G4 P0.02
G1 X90.6164 Y-73.8357 F12000.0
G1 X89.5713 Y-74.2955
G1 Z0.0000 F2500.0
G4 P0.02
G0 X90.9090 Y-75.7167 F15000.0
G1 Z11.9000 F2500.0
G4 P0.02
G1 X89.4877 Y-76.0929 F12000.0
G1 X89.2788 Y-75.9676
G1 X89.1115 Y-75.5914
G1 X89.2788 Y-74.6717
G1 Z0.0000 F2500.0
G4 P0.02
G0 X90.4492 Y-70.9513 F15000.0
G1 Z11.9000 F2500.0
G4 P0.02
G1 X89.6968 Y-71.2858 F12000.0
G1 X89.2788 Y-71.7456
G1 X89.1951 Y-71.9964
G1 X89.1951 Y-72.9161
G1 Z0.0000 F2500.0
G4 P0.02
G0 X90.1984 Y-73.0832 F15000.0
G1 Z11.9000 F2500.0
G4 P0.02
G1 X89.5296 Y-73.2087 F12000.0
G1 X89.2788 Y-73.0414
G1 Z0.0000 F2500.0
G4 P0.02
G0 X48.8323 Y-59.0352 F15000.0
G1 Z11.9000 F2500.0
G4 P0.02
G1 X48.9994 Y-58.4500 F12000.0
G1 X47.9126 Y-55.6075
G1 X47.4946 Y-55.1477
G1 Z0.0000 F2500.0
G4 P0.02
G0 X48.7068 Y-59.1188 F15000.0
G1 Z11.9000 F2500.0
G4 P0.02
G1 X47.7454 Y-59.1188 F12000.0
G1 X47.4946 Y-59.0352
G1 X47.1184 Y-58.7008
G1 X46.7839 Y-57.9066
G1 Z0.0000 F2500.0
G4 P0.02
G0 X47.3274 Y-55.0641 F15000.0
G1 Z11.9000 F2500.0
G4 P0.02
G1 X46.0316 Y-55.1477 F12000.0
G1 X45.9897 Y-55.6911
G1 Z0.0000 F2500.0
G4 P0.02
G0 X46.6168 Y-57.4468 F15000.0
G1 Z11.9000 F2500.0
G4 P0.02
G1 X46.5750 Y-57.3213 F12000.0
G1 Z0.0000 F2500.0
G4 P0.02
G0 X46.3660 Y-56.7361 F15000.0
G1 Z11.9000 F2500.0
G4 P0.02
G1 X46.3241 Y-56.6107 F12000.0
G1 Z0.0000 F2500.0
G4 P0.02
G0 X21.7768 Y-35.4817 F15000.0
G1 Z11.9000 F2500.0
G4 P0.02
G1 X21.4842 Y-35.4817 F12000.0
G1 X21.0662 Y-35.6489
G1 X19.1433 Y-35.6070
G1 X18.1401 Y-35.1891
G1 Z0.0000 F2500.0
G4 P0.02
G0 X19.8121 Y-34.1022 F15000.0
G1 Z11.9000 F2500.0
G4 P0.02
G1 X19.7704 Y-34.5621 F12000.0
G1 Z0.0000 F2500.0
G4 P0.02
G0 X19.6449 Y-37.4463 F15000.0
G1 Z11.9000 F2500.0
G4 P0.02
G1 X19.5613 Y-36.9029 F12000.0
G1 X18.8925 Y-36.4849
G1 Z0.0000 F2500.0
G4 P0.02
G0 X19.4777 Y-33.7678 F15000.0
G1 Z11.9000 F2500.0
G4 P0.02
G1 X18.6417 Y-33.3915 F12000.0
G1 X17.7220 Y-33.4752
G1 X17.3041 Y-33.8096
G1 Z0.0000 F2500.0
G4 P0.02
G0 X19.3941 Y-37.7389 F15000.0
G1 Z11.9000 F2500.0
G4 P0.02
G1 X19.0597 Y-38.0316 F12000.0
G1 Z0.0000 F2500.0
G4 P0.02
G0 X19.1015 Y-35.3145 F15000.0
G1 Z11.9000 F2500.0
G4 P0.02
G1 X19.0179 Y-35.4817 F12000.0
G1 Z0.0000 F2500.0
G4 P0.02
G0 X18.8925 Y-38.1152 F15000.0
G1 Z11.9000 F2500.0
G4 P0.02
G1 X16.5934 Y-37.4882 F12000.0
G1 X15.9664 Y-37.1955
G1 Z0.0000 F2500.0
G4 P0.02
G0 X18.2655 Y-36.1923 F15000.0
G1 Z11.9000 F2500.0
G4 P0.02
G1 X16.5516 Y-35.4398 F12000.0
G1 X16.1336 Y-35.3981
G1 X15.6737 Y-35.5234
G1 Z0.0000 F2500.0
G4 P0.02
G0 X17.8056 Y-35.0219 F15000.0
G1 Z11.9000 F2500.0
G4 P0.02
G1 X17.1786 Y-34.6874 F12000.0
G1 X17.0950 Y-34.0604
G1 Z0.0000 F2500.0
G4 P0.02
G0 X15.0886 Y-36.0669 F15000.0
G1 Z11.9000 F2500.0
G4 P0.02
G1 X14.9631 Y-36.4431 F12000.0
G1 X15.0050 Y-36.6103
G1 Z0.0000 F2500.0
G4 P0.02
G0 X14.6705 Y-37.6136 F15000.0
G1 Z11.9000 F2500.0
G4 P0.02
G1 X14.6705 Y-37.8225 F12000.0
G1 Z0.0000 F2500.0
G4 P0.02
G0 X14.5869 Y-37.5299 F15000.0
G1 Z11.9000 F2500.0
G4 P0.02
G1 X14.4616 Y-37.4463 F12000.0
G1 Z0.0000 F2500.0
G4 P0.02
G0 X14.5033 Y-37.9897 F15000.0
G1 Z11.9000 F2500.0
G4 P0.02
G1 X13.8763 Y-38.1152 F12000.0
G1 X13.6255 Y-37.9061
G1 X13.7509 Y-37.4882
G1 X14.2943 Y-37.3627
G1 Z0.0000 F2500.0
G4 P0.02
G0 X19.4413 Y-67.6157 F15000.0
G1 Z11.9000 F2500.0
G4 P0.02
G1 X19.8593 Y-67.3649 F12000.0
G1 X20.5281 Y-68.1591
G1 X20.5281 Y-68.4936
G1 Z0.0000 F2500.0
G4 P0.02
G0 X19.6085 Y-64.7314 F15000.0
G1 Z11.9000 F2500.0
G4 P0.02
G1 X19.7757 Y-65.5674 F12000.0
G1 X19.4831 Y-66.1945
G1 X19.2740 Y-66.4035
G1 Z0.0000 F2500.0
G4 P0.02
G0 X19.4413 Y-64.5224 F15000.0
G1 Z11.9000 F2500.0
G4 P0.02
G1 X19.0651 Y-64.3970 F12000.0
G1 X18.8979 Y-64.4388
G1 Z0.0000 F2500.0
G4 P0.02
G0 X18.9396 Y-67.9920 F15000.0
G1 Z11.9000 F2500.0
G4 P0.02
G1 X18.6470 Y-68.5354 F12000.0
G1 X18.4381 Y-68.4936
G1 X17.6020 Y-68.6608
G1 Z0.0000 F2500.0
G4 P0.02
G0 X18.6470 Y-68.5772 F15000.0
G1 Z11.9000 F2500.0
G4 P0.02
G1 X18.6470 Y-68.9534 F12000.0
G1 Z0.0000 F2500.0
G4 P0.02
G0 X18.4381 Y-66.9887 F15000.0
G1 Z11.9000 F2500.0
G4 P0.02
G1 X17.6020 Y-67.6157 F12000.0
G1 Z0.0000 F2500.0
G4 P0.02
G0 X17.1840 Y-68.9534 F15000.0
G1 Z11.9000 F2500.0
G4 P0.02
G1 X16.9332 Y-69.1624 F12000.0
G1 X16.7241 Y-69.6222
G1 X16.8077 Y-71.0852
G1 Z0.0000 F2500.0
G4 P0.02
G0 X16.9749 Y-68.0338 F15000.0
G1 Z11.9000 F2500.0
G4 P0.02
G1 X16.4315 Y-68.2010 F12000.0
G1 X16.1390 Y-68.0338
G1 X15.8881 Y-67.3649
G1 X16.1390 Y-66.4035
G1 X16.4315 Y-66.1108
G1 Z0.0000 F2500.0
G4 P0.02
G0 X18.9245 Y-62.6836 F15000.0
G1 Z11.9000 F2500.0
G4 P0.02
G1 X19.0081 Y-62.9763 F12000.0
G1 X18.8409 Y-63.3943
G1 Z0.0000 F2500.0
G4 P0.02
G0 X18.7990 Y-62.5583 F15000.0
G1 Z11.9000 F2500.0
G4 P0.02
G1 X18.4647 Y-62.6419 F12000.0
G1 Z0.0000 F2500.0
G4 P0.02
G0 X18.6737 Y-63.4779 F15000.0
G1 Z11.9000 F2500.0
G4 P0.02
G1 X18.3392 Y-63.5615 F12000.0
G1 X18.2556 Y-63.4779
G1 X18.2139 Y-63.0599
G1 X18.3811 Y-62.7255
G1 Z0.0000 F2500.0
G4 P0.02
G0 X45.7167 Y-86.8308 F15000.0
G1 Z11.9000 F2500.0
G4 P0.02
G1 X44.3373 Y-82.9850 F12000.0
G1 X44.0865 Y-82.6506
G1 Z0.0000 F2500.0
G4 P0.02
G0 X45.5495 Y-83.6538 F15000.0
G1 Z11.9000 F2500.0
G4 P0.02
G1 X45.3823 Y-83.4866 F12000.0
G1 Z0.0000 F2500.0
G4 P0.02
G0 X44.7552 Y-86.9144 F15000.0
G1 Z11.9000 F2500.0
G4 P0.02
G1 X44.4627 Y-86.7890 F12000.0
G1 X41.6619 Y-83.7793
G1 X41.5365 Y-83.4448
G1 X41.6619 Y-82.8596
G1 Z0.0000 F2500.0
G4 P0.02
G0 X44.6716 Y-83.0268 F15000.0
G1 Z11.9000 F2500.0
G4 P0.02
G1 X44.3791 Y-82.9432 F12000.0
G1 Z0.0000 F2500.0
G4 P0.02
G0 X44.4627 Y-86.7890 F15000.0
G1 Z11.9000 F2500.0
G4 P0.02
G1 X42.8742 Y-86.8726 F12000.0
G1 Z0.0000 F2500.0
G4 P0.02
G0 X43.1250 Y-83.0268 F15000.0
G1 Z11.9000 F2500.0
G4 P0.02
G1 X42.9160 Y-82.8596 F12000.0
G1 Z0.0000 F2500.0
G4 P0.02
G0 X42.5816 Y-82.6924 F15000.0
G1 Z11.9000 F2500.0
G4 P0.02
G1 X41.9546 Y-82.6506 F12000.0
G1 X41.7455 Y-82.7760
G1 Z0.0000 F2500.0
G4 P0.02
G0 X39.2793 Y-85.3678 F15000.0
G1 Z11.9000 F2500.0
G4 P0.02
G1 X38.5268 Y-82.9850 F12000.0
G1 X38.8194 Y-82.6506
G1 X39.9063 Y-82.7342
G1 X40.4079 Y-83.1940
G1 X41.4529 Y-85.8276
G1 X41.5783 Y-86.4127
G1 X41.4529 Y-86.6218
G1 Z0.0000 F2500.0
G4 P0.02
G0 X41.2857 Y-86.7890 F15000.0
G1 Z11.9000 F2500.0
G4 P0.02
G1 X40.4079 Y-86.8308 F12000.0
G1 X40.0734 Y-86.7054
G1 X39.6555 Y-86.3291
G1 X39.4047 Y-85.7021
G1 Z0.0000 F2500.0
G4 P0.02
G0 X37.5893 Y-83.4751 F15000.0
G1 Z11.9000 F2500.0
G4 P0.02
G1 X37.5057 Y-83.0570 F12000.0
G1 X37.1713 Y-82.7644
G1 X36.7951 Y-82.7226
G1 Z0.0000 F2500.0
G4 P0.02
G0 X37.4639 Y-83.5586 F15000.0
G1 Z11.9000 F2500.0
G4 P0.02
G1 X37.0459 Y-83.5586 F12000.0
G1 Z0.0000 F2500.0
G4 P0.02
G0 X36.7114 Y-82.8062 F15000.0
G1 Z11.9000 F2500.0
G4 P0.02
G1 X36.6278 Y-83.0152 F12000.0
G1 X36.7114 Y-83.2242
G1 Z0.0000 F2500.0
G4 P0.02
G0 X10.0088 Y-250.7960 F15000.0
G1 Z11.9000 F2500.0
G4 P0.02
G1 X8.6293 Y-246.9501 F12000.0
G1 X8.3785 Y-246.6158
G1 Z0.0000 F2500.0
G4 P0.02
G0 X9.8416 Y-247.6190 F15000.0
G1 Z11.9000 F2500.0
G4 P0.02
G1 X9.6744 Y-247.4518 F12000.0
G1 Z0.0000 F2500.0
G4 P0.02
G0 X8.9637 Y-246.9920 F15000.0
G1 Z11.9000 F2500.0
G4 P0.02
G1 X8.6711 Y-246.9084 F12000.0
G1 Z0.0000 F2500.0
G4 P0.02
G0 X8.7129 Y-249.7927 F15000.0
G1 Z11.9000 F2500.0
G4 P0.02
G1 X8.5875 Y-249.6673 F12000.0
G1 Z0.0000 F2500.0
G4 P0.02
G0 X8.1277 Y-248.1207 F15000.0
G1 Z11.9000 F2500.0
G4 P0.02
G1 X7.9187 Y-247.9952 F12000.0
G1 Z0.0000 F2500.0
G4 P0.02
G0 X27.6840 Y-250.7865 F15000.0
G1 Z11.9000 F2500.0
G4 P0.02
G1 X26.3046 Y-246.9408 F12000.0
G1 X26.0537 Y-246.6063
G1 Z0.0000 F2500.0
G4 P0.02
G0 X27.5167 Y-247.6095 F15000.0
G1 Z11.9000 F2500.0
G4 P0.02
G1 X27.3495 Y-247.4423 F12000.0
G1 Z0.0000 F2500.0
G4 P0.02
G0 X27.2242 Y-251.6225 F15000.0
G1 Z11.9000 F2500.0
G4 P0.02
G1 X26.6389 Y-250.7447 F12000.0
G1 Z0.0000 F2500.0
G4 P0.02
G0 X26.6389 Y-246.9825 F15000.0
G1 Z11.9000 F2500.0
G4 P0.02
G1 X26.3463 Y-246.8989 F12000.0
G1 Z0.0000 F2500.0
G4 P0.02
G0 X25.8447 Y-250.9119 F15000.0
G1 Z11.9000 F2500.0
G4 P0.02
G1 X24.3817 Y-250.6611 F12000.0
G1 Z0.0000 F2500.0
G4 P0.02
G0 X23.7546 Y-248.6128 F15000.0
G1 Z11.9000 F2500.0
G4 P0.02
G1 X24.7578 Y-248.4456 F12000.0
G1 X22.6678 Y-246.5645
G1 Z0.0000 F2500.0
G4 P0.02
G0 X23.8382 Y-250.0759 F15000.0
G1 Z11.9000 F2500.0
G4 P0.02
G1 X23.5038 Y-249.0308 F12000.0
G1 X23.5874 Y-248.7800
G1 Z0.0000 F2500.0
G4 P0.02
G0 X23.2948 Y-250.9119 F15000.0
G1 Z11.9000 F2500.0
G4 P0.02
G1 X21.7481 Y-250.6193 F12000.0
G1 X21.5391 Y-250.4521
G1 X20.9539 Y-248.9472
G1 Z0.0000 F2500.0
G4 P0.02
G0 X21.7900 Y-248.6128 F15000.0
G1 Z11.9000 F2500.0
G4 P0.02
G1 X21.2047 Y-248.5292 F12000.0
G1 X20.9121 Y-248.1948
G1 X20.4105 Y-246.9408
G1 Z0.0000 F2500.0
G4 P0.02
G0 X21.4555 Y-246.5227 F15000.0
G1 Z11.9000 F2500.0
G4 P0.02
G1 X20.6613 Y-246.6481 F12000.0
G1 Z0.0000 F2500.0
G4 P0.02
G0 X21.2047 Y-248.5292 F15000.0
G1 Z11.9000 F2500.0
G4 P0.02
G1 X21.0375 Y-248.7800 F12000.0
G1 Z0.0000 F2500.0
G4 P0.02
G0 X170.7525 Y-100.7329 F15000.0
G1 Z11.9000 F2500.0
G4 P0.02
G1 X170.7525 Y-91.5450 F12000.0
G1 Z0.0000 F2500.0
G4 P0.02
G0 X170.7525 Y-100.7329 F15000.0
G1 Z11.9000 F2500.0
G4 P0.02
G1 X135.8701 Y-100.7329 F12000.0
G1 Z0.0000 F2500.0
G4 P0.02
G0 X170.7525 Y-91.5450 F15000.0
G1 Z11.9000 F2500.0
G4 P0.02
G1 X135.8701 Y-91.5450 F12000.0
G1 Z0.0000 F2500.0
G4 P0.02
G0 X158.8395 Y-54.7940 F15000.0
G1 Z11.9000 F2500.0
G4 P0.02
G1 X135.8701 Y-54.7940 F12000.0
G1 Z0.0000 F2500.0
G4 P0.02
G0 X135.8701 Y-62.1131 F15000.0
G1 Z11.9000 F2500.0
G4 P0.02
G1 X158.8395 Y-62.1131 F12000.0
G1 X158.8395 Y-91.5450 F12000.0
G1 Z0.0000 F2500.0
G4 P0.02
G0 X158.8395 Y-45.6062 F15000.0
G1 Z11.9000 F2500.0
G4 P0.02
G1 X135.8701 Y-45.6062 F12000.0
G1 Z0.0000 F2500.0
G4 P0.02
G0 X112.8227 Y-67.6413 F15000.0
G1 Z11.9000 F2500.0
G4 P0.02
G1 X112.8227 Y-91.5450 F12000.0
G1 Z0.0000 F2500.0
G4 P0.02
G0 X120.2197 Y-100.7329 F15000.0
G1 Z11.9000 F2500.0
G4 P0.02
G1 X100.9098 Y-100.7329 F12000.0
G1 Z0.0000 F2500.0
G4 P0.02
G0 X120.2197 Y-76.8291 F15000.0
G1 Z11.9000 F2500.0
G4 P0.02
G1 X120.2197 Y-100.7329 F12000.0
G1 Z0.0000 F2500.0
G4 P0.02
G0 X100.9098 Y-91.5450 F15000.0
G1 Z11.9000 F2500.0
G4 P0.02
G1 X100.9098 Y-100.7329 F12000.0
G1 Z0.0000 F2500.0
G4 P0.02
G0 X135.8701 Y-67.6413 F15000.0
G1 Z11.9000 F2500.0
G4 P0.02
G1 X112.8227 Y-67.6413 F12000.0
G1 Z0.0000 F2500.0
G4 P0.02
G0 X112.8227 Y-91.5450 F15000.0
G1 Z11.9000 F2500.0
G4 P0.02
G1 X100.9098 Y-91.5450 F12000.0
G1 Z0.0000 F2500.0
G4 P0.02
G0 X135.8701 Y-76.8291 F15000.0
G1 Z11.9000 F2500.0
G4 P0.02
G1 X120.2197 Y-76.8291 F12000.0
G1 Z0.0000 F2500.0
G4 P0.02
G0 X137.6609 Y-54.7940 F15000.0
G1 Z11.9000 F2500.0
G4 P0.02
G1 X126.5266 Y-54.7940 F12000.0
G1 Z0.0000 F2500.0
G4 P0.02
G0 X125.1250 Y-54.7940 F15000.0
G1 Z11.9000 F2500.0
G4 P0.02
G1 X123.4899 Y-54.7940 F12000.0
G1 Z0.0000 F2500.0
G4 P0.02
G0 X122.1662 Y-54.7940 F15000.0
G1 Z11.9000 F2500.0
G4 P0.02
G1 X111.0319 Y-54.7940 F12000.0
G1 Z0.0000 F2500.0
G4 P0.02
G0 X135.8701 Y-45.6062 F15000.0
G1 Z11.9000 F2500.0
G4 P0.02
G1 X112.8227 Y-45.6062 F12000.0
G1 Z0.0000 F2500.0
G4 P0.02
G0 X120.2197 Y-100.7329 F15000.0
G1 Z11.9000 F2500.0
G4 P0.02
G1 X135.8701 Y-100.7329 F12000.0
G1 Z0.0000 F2500.0
G4 P0.02
G0 X135.8701 Y-103.5359 F15000.0
G1 Z11.9000 F2500.0
G4 P0.02
G1 X135.8701 Y-91.2337 F12000.0
G1 Z0.0000 F2500.0
G4 P0.02
G0 X135.8701 Y-89.8321 F15000.0
G1 Z11.9000 F2500.0
G4 P0.02
G1 X135.8701 Y-88.4306 F12000.0
G1 Z0.0000 F2500.0
G4 P0.02
G0 X135.8701 Y-87.1069 F15000.0
G1 Z11.9000 F2500.0
G4 P0.02
G1 X135.8701 Y-74.8046 F12000.0
G1 Z0.0000 F2500.0
G4 P0.02
G0 X135.8701 Y-73.4031 F15000.0
G1 Z11.9000 F2500.0
G4 P0.02
G1 X135.8701 Y-72.0016 F12000.0
G1 Z0.0000 F2500.0
G4 P0.02
G0 X135.8701 Y-70.6000 F15000.0
G1 Z11.9000 F2500.0
G4 P0.02
G1 X135.8701 Y-58.2978 F12000.0
G1 Z0.0000 F2500.0
G4 P0.02
G0 X135.8701 Y-56.9742 F15000.0
G1 Z11.9000 F2500.0
G4 P0.02
G1 X135.8701 Y-55.5726 F12000.0
G1 Z0.0000 F2500.0
G4 P0.02
G0 X135.8701 Y-54.1711 F15000.0
G1 Z11.9000 F2500.0
G4 P0.02
G1 X135.8701 Y-41.8688 F12000.0
G1 Z0.0000 F2500.0
G4 P0.02
G0 X104.7250 Y-100.7329 F15000.0
G1 Z11.9000 F2500.0
G4 P0.02
G1 X100.9098 Y-96.9176 F12000.0
G1 Z0.0000 F2500.0
G4 P0.02
G0 X109.9418 Y-100.7329 F15000.0
G1 Z11.9000 F2500.0
G4 P0.02
G1 X100.9098 Y-91.7008 F12000.0
G1 Z0.0000 F2500.0
G4 P0.02
G0 X115.1586 Y-100.7329 F15000.0
G1 Z11.9000 F2500.0
G4 P0.02
G1 X105.9708 Y-91.5450 F12000.0
G1 Z0.0000 F2500.0
G4 P0.02
G0 X120.2197 Y-100.6550 F15000.0
G1 Z11.9000 F2500.0
G4 P0.02
G1 X111.1098 Y-91.5450 F12000.0
G1 Z0.0000 F2500.0
G4 P0.02
G0 X120.2197 Y-95.4382 F15000.0
G1 Z11.9000 F2500.0
G4 P0.02
G1 X112.8227 Y-88.0412 F12000.0
G1 Z0.0000 F2500.0
G4 P0.02
G0 X120.2197 Y-90.2214 F15000.0
G1 Z11.9000 F2500.0
G4 P0.02
G1 X112.8227 Y-82.9024 F12000.0
G1 Z0.0000 F2500.0
G4 P0.02
G0 X120.2197 Y-85.0047 F15000.0
G1 Z11.9000 F2500.0
G4 P0.02
G1 X112.8227 Y-77.6856 F12000.0
G1 Z0.0000 F2500.0
G4 P0.02
G0 X120.2197 Y-79.7879 F15000.0
G1 Z11.9000 F2500.0
G4 P0.02
G1 X112.8227 Y-72.4687 F12000.0
G1 Z0.0000 F2500.0
G4 P0.02
G0 X122.3998 Y-76.8291 F15000.0
G1 Z11.9000 F2500.0
G4 P0.02
G1 X113.2121 Y-67.6413 F12000.0
G1 Z0.0000 F2500.0
G4 P0.02
G0 X127.6166 Y-76.8291 F15000.0
G1 Z11.9000 F2500.0
G4 P0.02
G1 X118.4288 Y-67.6413 F12000.0
G1 Z0.0000 F2500.0
G4 P0.02
G0 X132.8334 Y-76.8291 F15000.0
G1 Z11.9000 F2500.0
G4 P0.02
G1 X123.6456 Y-67.6413 F12000.0
G1 Z0.0000 F2500.0
G4 P0.02
G0 X135.8701 Y-74.6489 F15000.0
G1 Z11.9000 F2500.0
G4 P0.02
G1 X128.8624 Y-67.6413 F12000.0
G1 Z0.0000 F2500.0
G4 P0.02
G0 X135.8701 Y-69.4321 F15000.0
G1 Z11.9000 F2500.0
G4 P0.02
G1 X134.0792 Y-67.6413 F12000.0
G1 Z0.0000 F2500.0
G4 P0.02
G0 X41.5007 Y-23.4932 F15000.0
G1 Z11.9000 F2500.0
G4 P0.02
G1 X41.5007 Y-60.3222 F12000.0
G1 X9.3435 Y-60.3222 F12000.0
G1 Z0.0000 F2500.0
G4 P0.02
G0 X41.5007 Y-60.3222 F15000.0
G1 Z11.9000 F2500.0
G4 P0.02
G1 X9.4213 Y-78.8535 F12000.0
G1 Z0.0000 F2500.0
G4 P0.02
G0 X41.5007 Y-60.3222 F15000.0
G1 Z11.9000 F2500.0
G4 P0.02
G1 X73.3465 Y-78.6978 F12000.0
G1 Z0.0000 F2500.0
G4 P0.02
G0 X142.8776 Y-196.5037 F15000.0
G1 Z11.9000 F2500.0
G4 P0.02
G1 X142.8776 Y-188.9510 F12000.0
G1 Z0.0000 F2500.0
G4 P0.02
G0 X12.1466 Y-170.5755 F15000.0
G1 Z11.9000 F2500.0
G4 P0.02
G1 X25.4610 Y-162.8671 F12000.0
G1 Z0.0000 F2500.0
G4 P0.02
G0 X52.7907 Y-201.5648 F15000.0
G1 Z11.9000 F2500.0
G4 P0.02
G1 X12.1466 Y-178.1282 F12000.0
G1 X12.1466 Y-170.5755 F12000.0
G1 Z0.0000 F2500.0
G4 P0.02
G0 X142.8776 Y-196.5037 F15000.0
G1 Z11.9000 F2500.0
G4 P0.02
G1 X118.1174 Y-210.7526 F12000.0
G1 Z0.0000 F2500.0
G4 P0.02
G0 X142.8776 Y-188.9510 F15000.0
G1 Z11.9000 F2500.0
G4 P0.02
G1 X118.1174 Y-203.2778 F12000.0
G1 Z0.0000 F2500.0
G4 P0.02
G0 X129.5632 Y-181.3205 F15000.0
G1 Z11.9000 F2500.0
G4 P0.02
G1 X142.8776 Y-188.9510 F12000.0
G1 Z0.0000 F2500.0
G4 P0.02
G0 X52.7907 Y-194.0900 F15000.0
G1 Z11.9000 F2500.0
G4 P0.02
G1 X12.1466 Y-170.5755 F12000.0
G1 Z0.0000 F2500.0
G4 P0.02
G0 X20.6335 Y-135.6931 F15000.0
G1 Z11.9000 F2500.0
G4 P0.02
G1 X53.1022 Y-116.9283 F12000.0
G1 Z0.0000 F2500.0
G4 P0.02
G0 X48.2747 Y-151.6549 F15000.0
G1 Z11.9000 F2500.0
G4 P0.02
G1 X20.6335 Y-135.6931 F12000.0
G1 Z0.0000 F2500.0
G4 P0.02
G0 X61.2778 Y-189.1846 F15000.0
G1 Z11.9000 F2500.0
G4 P0.02
G1 X25.4610 Y-168.5511 F12000.0
G1 Z0.0000 F2500.0
G4 P0.02
G0 X134.3907 Y-169.8747 F15000.0
G1 Z11.9000 F2500.0
G4 P0.02
G1 X134.3907 Y-163.8015 F12000.0
G1 Z0.0000 F2500.0
G4 P0.02
G0 X106.7495 Y-147.8397 F15000.0
G1 Z11.9000 F2500.0
G4 P0.02
G1 X134.3907 Y-163.8015 F12000.0
G1 Z0.0000 F2500.0
G4 P0.02
G0 X53.1022 Y-116.9283 F15000.0
G1 Z11.9000 F2500.0
G4 P0.02
G1 X74.2808 Y-129.0748 F12000.0
G1 Z0.0000 F2500.0
G4 P0.02
G0 X134.3907 Y-163.8015 F15000.0
G1 Z11.9000 F2500.0
G4 P0.02
G1 X118.1174 Y-173.2229 F12000.0
G1 Z0.0000 F2500.0
G4 P0.02
G0 X20.6335 Y-141.6885 F15000.0
G1 Z11.9000 F2500.0
G4 P0.02
G1 X20.6335 Y-135.6931 F12000.0
G1 Z0.0000 F2500.0
G4 P0.02
G0 X129.5632 Y-191.0533 F15000.0
G1 Z11.9000 F2500.0
G4 P0.02
G1 X113.2899 Y-200.4747 F12000.0
G1 Z0.0000 F2500.0
G4 P0.02
G0 X20.6335 Y-141.6885 F15000.0
G1 Z11.9000 F2500.0
G4 P0.02
G1 X25.4610 Y-144.4916 F12000.0
G1 Z0.0000 F2500.0
G4 P0.02
G0 X118.1174 Y-179.2183 F15000.0
G1 Z11.9000 F2500.0
G4 P0.02
G1 X134.3907 Y-169.8747 F12000.0
G1 Z0.0000 F2500.0
G4 P0.02
G0 X25.4610 Y-144.4916 F15000.0
G1 Z11.9000 F2500.0
G4 P0.02
G1 X25.4610 Y-168.5511 F12000.0
G1 Z0.0000 F2500.0
G4 P0.02
G0 X129.5632 Y-172.6778 F15000.0
G1 Z11.9000 F2500.0
G4 P0.02
G1 X129.5632 Y-191.0533 F12000.0
G1 Z0.0000 F2500.0
G4 P0.02
G0 X61.2778 Y-169.6412 F15000.0
G1 Z11.9000 F2500.0
G4 P0.02
G1 X59.7205 Y-168.6290 F12000.0
G1 X58.0854 Y-167.2275 F12000.0
G1 X56.5281 Y-165.4366 F12000.0
G1 X55.1266 Y-163.3343 F12000.0
G1 X53.8808 Y-160.9984 F12000.0
G1 X52.9464 Y-158.6625 F12000.0
G1 X52.4015 Y-156.4045 F12000.0
G1 X52.1679 Y-154.3802 F12000.0
G1 X52.1679 Y-153.9130 F12000.0
G1 Z0.0000 F2500.0
G4 P0.02
G0 X88.7632 Y-146.2825 F15000.0
G1 Z11.9000 F2500.0
G4 P0.02
G1 X87.3617 Y-144.1023 F12000.0
G1 X86.1938 Y-141.7664 F12000.0
G1 X85.3372 Y-139.4305 F12000.0
G1 X84.7923 Y-137.1726 F12000.0
G1 X84.6365 Y-135.2260 F12000.0
G1 Z0.0000 F2500.0
G4 P0.02
G0 X48.2747 Y-144.1023 F15000.0
G1 Z11.9000 F2500.0
G4 P0.02
G1 X52.1679 Y-146.3603 F12000.0
G1 X52.1679 Y-153.9130 F12000.0
G1 Z0.0000 F2500.0
G4 P0.02
G0 X80.7434 Y-125.3374 F15000.0
G1 Z11.9000 F2500.0
G4 P0.02
G1 X84.6365 Y-127.5955 F12000.0
G1 X84.6365 Y-135.1481 F12000.0
G1 Z0.0000 F2500.0
G4 P0.02
G0 X80.7434 Y-125.3374 F15000.0
G1 Z11.9000 F2500.0
G4 P0.02
G1 X48.2747 Y-144.1023 F12000.0
G1 Z0.0000 F2500.0
G4 P0.02
G0 X102.8563 Y-138.1069 F15000.0
G1 Z11.9000 F2500.0
G4 P0.02
G1 X106.7495 Y-140.3649 F12000.0
G1 Z0.0000 F2500.0
G4 P0.02
G0 X48.2747 Y-151.6549 F15000.0
G1 Z11.9000 F2500.0
G4 P0.02
G1 X48.2747 Y-144.1023 F12000.0
G1 Z0.0000 F2500.0
G4 P0.02
G0 X106.7495 Y-140.3649 F15000.0
G1 Z11.9000 F2500.0
G4 P0.02
G1 X106.7495 Y-147.8397 F12000.0
G1 Z0.0000 F2500.0
G4 P0.02
G0 X102.8563 Y-138.1069 F15000.0
G1 Z11.9000 F2500.0
G4 P0.02
G1 X86.5831 Y-147.5282 F12000.0
G1 Z0.0000 F2500.0
G4 P0.02
G0 X84.6365 Y-127.5955 F15000.0
G1 Z11.9000 F2500.0
G4 P0.02
G1 X52.1679 Y-146.3603 F12000.0
G1 Z0.0000 F2500.0
G4 P0.02
G0 X106.7495 Y-147.8397 F15000.0
G1 Z11.9000 F2500.0
G4 P0.02
G1 X90.5541 Y-157.2610 F12000.0
G1 Z0.0000 F2500.0
G4 P0.02
G0 X106.7495 Y-140.3649 F15000.0
G1 Z11.9000 F2500.0
G4 P0.02
G1 X90.5541 Y-149.7862 F12000.0
G1 Z0.0000 F2500.0
G4 P0.02
G0 X94.3694 Y-165.5145 F15000.0
G1 Z11.9000 F2500.0
G4 P0.02
G1 X88.5297 Y-168.8626 F12000.0
G1 Z0.0000 F2500.0
G4 P0.02
G0 X108.0731 Y-192.1435 F15000.0
G1 Z11.9000 F2500.0
G4 P0.02
G1 X71.6335 Y-171.1206 F12000.0
G1 Z0.0000 F2500.0
G4 P0.02
G0 X66.4167 Y-193.7007 F15000.0
G1 Z11.9000 F2500.0
G4 P0.02
G1 X66.4167 Y-174.1572 F12000.0
G1 Z0.0000 F2500.0
G4 P0.02
G0 X113.2899 Y-200.4747 F15000.0
G1 Z11.9000 F2500.0
G4 P0.02
G1 X118.1174 Y-203.2778 F12000.0
G1 Z0.0000 F2500.0
G4 P0.02
G0 X86.5831 Y-155.0030 F15000.0
G1 Z11.9000 F2500.0
G4 P0.02
G1 X86.5831 Y-147.5282 F12000.0
G1 Z0.0000 F2500.0
G4 P0.02
G0 X61.2778 Y-189.1846 F15000.0
G1 Z11.9000 F2500.0
G4 P0.02
G1 X61.2778 Y-169.6412 F12000.0
G1 Z0.0000 F2500.0
G4 P0.02
G0 X86.5831 Y-147.5282 F15000.0
G1 Z11.9000 F2500.0
G4 P0.02
G1 X90.5541 Y-149.7862 F12000.0
G1 Z0.0000 F2500.0
G4 P0.02
G0 X118.1174 Y-203.2778 F15000.0
G1 Z11.9000 F2500.0
G4 P0.02
G1 X118.1174 Y-210.7526 F12000.0
G1 Z0.0000 F2500.0
G4 P0.02
G0 X77.4731 Y-167.7725 F15000.0
G1 Z11.9000 F2500.0
G4 P0.02
G1 X66.4167 Y-174.1572 F12000.0
G1 Z0.0000 F2500.0
G4 P0.02
G0 X113.2899 Y-176.4152 F15000.0
G1 Z11.9000 F2500.0
G4 P0.02
G1 X118.1174 Y-179.2183 F12000.0
G1 Z0.0000 F2500.0
G4 P0.02
G0 X77.4731 Y-160.2976 F15000.0
G1 Z11.9000 F2500.0
G4 P0.02
G1 X61.2778 Y-169.6412 F12000.0
G1 Z0.0000 F2500.0
G4 P0.02
G0 X90.5541 Y-149.7862 F15000.0
G1 Z11.9000 F2500.0
G4 P0.02
G1 X90.5541 Y-157.2610 F12000.0
G1 X118.1174 Y-173.2229 F12000.0
G1 Z0.0000 F2500.0
G4 P0.02
G0 X52.7907 Y-194.0900 F15000.0
G1 Z11.9000 F2500.0
G4 P0.02
G1 X61.2778 Y-189.1846 F12000.0
G1 Z0.0000 F2500.0
G4 P0.02
G0 X52.7907 Y-201.5648 F15000.0
G1 Z11.9000 F2500.0
G4 P0.02
G1 X66.4167 Y-193.7007 F12000.0
G1 Z0.0000 F2500.0
G4 P0.02
G0 X77.4731 Y-160.2976 F15000.0
G1 Z11.9000 F2500.0
G4 P0.02
G1 X77.4731 Y-167.7725 F12000.0
G1 Z0.0000 F2500.0
G4 P0.02
G0 X113.2899 Y-200.4747 F15000.0
G1 Z11.9000 F2500.0
G4 P0.02
G1 X113.2899 Y-176.4152 F12000.0
G1 Z0.0000 F2500.0
G4 P0.02
G0 X108.0731 Y-173.3786 F15000.0
G1 Z11.9000 F2500.0
G4 P0.02
G1 X108.0731 Y-204.9129 F12000.0
G1 X118.1174 Y-210.7526 F12000.0
G1 Z0.0000 F2500.0
G4 P0.02
G0 X118.1174 Y-173.2229 F15000.0
G1 Z11.9000 F2500.0
G4 P0.02
G1 X118.1174 Y-179.2183 F12000.0
G1 Z0.0000 F2500.0
G4 P0.02
G0 X77.4731 Y-167.7725 F15000.0
G1 Z11.9000 F2500.0
G4 P0.02
G1 X79.5754 Y-168.7847 F12000.0
G1 X81.5220 Y-169.4855 F12000.0
G1 X83.3128 Y-169.8747 F12000.0
G1 X85.1036 Y-169.8747 F12000.0
G1 X86.6610 Y-169.6412 F12000.0
G1 X88.0625 Y-169.0962 F12000.0
G1 X88.5297 Y-168.8626 F12000.0
G1 X89.7754 Y-168.0060 F12000.0
G1 X90.8655 Y-166.8381 F12000.0
G1 X91.7220 Y-165.4366 F12000.0
G1 X92.1892 Y-164.2686 F12000.0
G1 Z0.0000 F2500.0
G4 P0.02
G0 X86.5831 Y-155.0030 F15000.0
G1 Z11.9000 F2500.0
G4 P0.02
G1 X86.5052 Y-156.7160 F12000.0
G1 X86.1159 Y-158.1954 F12000.0
G1 X85.4930 Y-159.3633 F12000.0
G1 X84.7144 Y-160.2976 F12000.0
G1 X83.9357 Y-160.9206 F12000.0
G1 X82.8457 Y-161.3099 F12000.0
G1 X81.6777 Y-161.5435 F12000.0
G1 X80.3541 Y-161.3878 F12000.0
G1 X78.8747 Y-160.9206 F12000.0
G1 X77.4731 Y-160.2976 F12000.0
G1 Z0.0000 F2500.0
G4 P0.02
G0 X52.7907 Y-201.5648 F15000.0
G1 Z11.9000 F2500.0
G4 P0.02
G1 X52.7907 Y-194.0900 F12000.0
G1 Z0.0000 F2500.0
G4 P0.02
G0 X92.1892 Y-164.2686 F15000.0
G1 Z11.9000 F2500.0
G4 P0.02
G1 X108.0731 Y-173.3786 F12000.0
G1 Z0.0000 F2500.0
G4 P0.02
G0 X102.8563 Y-138.1069 F15000.0
G1 Z11.9000 F2500.0
G4 P0.02
G1 X95.5373 Y-133.9023 F12000.0
G1 Z0.0000 F2500.0
G4 P0.02
G0 X94.3694 Y-133.2016 F15000.0
G1 Z11.9000 F2500.0
G4 P0.02
G1 X93.2014 Y-132.5008 F12000.0
G1 Z0.0000 F2500.0
G4 P0.02
G0 X91.9556 Y-131.8000 F15000.0
G1 Z11.9000 F2500.0
G4 P0.02
G1 X84.6365 Y-127.5955 F12000.0
G1 Z0.0000 F2500.0
G4 P0.02
G0 X61.2778 Y-169.6412 F15000.0
G1 Z11.9000 F2500.0
G4 P0.02
G1 X61.2778 Y-160.0641 F12000.0
G1 Z0.0000 F2500.0
G4 P0.02
G0 X61.2778 Y-158.7404 F15000.0
G1 Z11.9000 F2500.0
G4 P0.02
G1 X61.2778 Y-157.3389 F12000.0
G1 Z0.0000 F2500.0
G4 P0.02
G0 X61.2778 Y-155.9374 F15000.0
G1 Z11.9000 F2500.0
G4 P0.02
G1 X61.2778 Y-146.3603 F12000.0
G1 Z0.0000 F2500.0
G4 P0.02
G0 X52.1679 Y-146.3603 F15000.0
G1 Z11.9000 F2500.0
G4 P0.02
G1 X61.2778 Y-151.6549 F12000.0
G1 X69.6869 Y-146.7496 F12000.0
G1 Z0.0000 F2500.0
G4 P0.02
G0 X70.9327 Y-146.0489 F15000.0
G1 Z11.9000 F2500.0
G4 P0.02
G1 X72.1006 Y-145.3481 F12000.0
G1 Z0.0000 F2500.0
G4 P0.02
G0 X73.2686 Y-144.6474 F15000.0
G1 Z11.9000 F2500.0
G4 P0.02
G1 X81.7556 Y-139.8198 F12000.0
G1 Z0.0000 F2500.0
G4 P0.02
G0 X82.9236 Y-139.1191 F15000.0
G1 Z11.9000 F2500.0
G4 P0.02
G1 X84.0915 Y-138.4183 F12000.0
G1 Z0.0000 F2500.0
G4 P0.02
G0 X85.3372 Y-137.7175 F15000.0
G1 Z11.9000 F2500.0
G4 P0.02
G1 X93.7464 Y-132.8901 F12000.0
G1 Z0.0000 F2500.0
G4 P0.02
G0 X93.7464 Y-131.3329 F15000.0
G1 Z11.9000 F2500.0
G4 P0.02
G1 X93.7464 Y-143.4015 F12000.0
G1 Z0.0000 F2500.0
G4 P0.02
G0 X78.4854 Y-168.3175 F15000.0
G1 Z11.9000 F2500.0
G4 P0.02
G1 X77.4731 Y-166.6045 F12000.0
G1 Z0.0000 F2500.0
G4 P0.02
G0 X82.4564 Y-169.7190 F15000.0
G1 Z11.9000 F2500.0
G4 P0.02
G1 X77.4731 Y-161.0763 F12000.0
G1 Z0.0000 F2500.0
G4 P0.02
G0 X85.7266 Y-169.7969 F15000.0
G1 Z11.9000 F2500.0
G4 P0.02
G1 X80.8991 Y-161.4656 F12000.0
G1 Z0.0000 F2500.0
G4 P0.02
G0 X88.4518 Y-168.9404 F15000.0
G1 Z11.9000 F2500.0
G4 P0.02
G1 X83.7800 Y-160.9984 F12000.0
G1 Z0.0000 F2500.0
G4 P0.02
G0 X109.7861 Y-205.9251 F15000.0
G1 Z11.9000 F2500.0
G4 P0.02
G1 X108.0731 Y-202.9663 F12000.0
G1 Z0.0000 F2500.0
G4 P0.02
G0 X114.5357 Y-208.6503 F15000.0
G1 Z11.9000 F2500.0
G4 P0.02
G1 X108.0731 Y-197.4381 F12000.0
G1 Z0.0000 F2500.0
G4 P0.02
G0 X90.5541 Y-167.1496 F15000.0
G1 Z11.9000 F2500.0
G4 P0.02
G1 X85.8044 Y-158.8961 F12000.0
G1 Z0.0000 F2500.0
G4 P0.02
G0 X92.1892 Y-164.4244 F15000.0
G1 Z11.9000 F2500.0
G4 P0.02
G1 X86.5831 Y-154.7694 F12000.0
G1 Z0.0000 F2500.0
G4 P0.02
G0 X118.1174 Y-209.4290 F15000.0
G1 Z11.9000 F2500.0
G4 P0.02
G1 X108.0731 Y-191.9877 F12000.0
G1 Z0.0000 F2500.0
G4 P0.02
G0 X118.1174 Y-203.9007 F15000.0
G1 Z11.9000 F2500.0
G4 P0.02
G1 X117.5723 Y-202.9663 F12000.0
G1 Z0.0000 F2500.0
G4 P0.02
G0 X113.2899 Y-195.4137 F15000.0
G1 Z11.9000 F2500.0
G4 P0.02
G1 X108.0731 Y-186.4595 F12000.0
G1 Z0.0000 F2500.0
G4 P0.02
G0 X96.7830 Y-166.9160 F15000.0
G1 Z11.9000 F2500.0
G4 P0.02
G1 X91.5663 Y-157.8840 F12000.0
G1 Z0.0000 F2500.0
G4 P0.02
G0 X90.5541 Y-156.0153 F15000.0
G1 Z11.9000 F2500.0
G4 P0.02
G1 X86.5831 Y-149.2412 F12000.0
G1 Z0.0000 F2500.0
G4 P0.02
G0 X90.5541 Y-150.4870 F15000.0
G1 Z11.9000 F2500.0
G4 P0.02
G1 X89.8533 Y-149.3969 F12000.0
G1 Z0.0000 F2500.0
G4 P0.02
G0 X101.5327 Y-169.6412 F15000.0
G1 Z11.9000 F2500.0
G4 P0.02
G1 X96.3938 Y-160.6091 F12000.0
G1 Z0.0000 F2500.0
G4 P0.02
G0 X113.2899 Y-189.9633 F15000.0
G1 Z11.9000 F2500.0
G4 P0.02
G1 X108.0731 Y-180.9313 F12000.0
G1 Z0.0000 F2500.0
G4 P0.02
G0 X113.2899 Y-184.4351 F15000.0
G1 Z11.9000 F2500.0
G4 P0.02
G1 X108.0731 Y-175.4030 F12000.0
G1 Z0.0000 F2500.0
G4 P0.02
G0 X106.3601 Y-172.4442 F15000.0
G1 Z11.9000 F2500.0
G4 P0.02
G1 X101.1434 Y-163.4122 F12000.0
G1 Z0.0000 F2500.0
G4 P0.02
G0 X113.2899 Y-178.9069 F15000.0
G1 Z11.9000 F2500.0
G4 P0.02
G1 X105.8930 Y-166.1373 F12000.0
G1 Z0.0000 F2500.0
G4 P0.02
G0 X115.9372 Y-177.8946 F15000.0
G1 Z11.9000 F2500.0
G4 P0.02
G1 X110.7204 Y-168.9404 F12000.0
G1 Z0.0000 F2500.0
G4 P0.02
G0 X118.1174 Y-176.3374 F15000.0
G1 Z11.9000 F2500.0
G4 P0.02
G1 X115.4701 Y-171.6656 F12000.0
G1 Z0.0000 F2500.0
G4 P0.02
G0 X66.4167 Y-191.9877 F15000.0
G1 Z11.9000 F2500.0
G4 P0.02
G1 X65.0152 Y-194.5571 F12000.0
G1 Z0.0000 F2500.0
G4 P0.02
G0 X66.4167 Y-186.4595 F15000.0
G1 Z11.9000 F2500.0
G4 P0.02
G1 X60.1877 Y-197.2824 F12000.0
G1 Z0.0000 F2500.0
G4 P0.02
G0 X77.4731 Y-167.3053 F15000.0
G1 Z11.9000 F2500.0
G4 P0.02
G1 X77.0839 Y-168.0060 F12000.0
G1 Z0.0000 F2500.0
G4 P0.02
G0 X77.4731 Y-161.7771 F15000.0
G1 Z11.9000 F2500.0
G4 P0.02
G1 X72.3342 Y-170.7313 F12000.0
G1 Z0.0000 F2500.0
G4 P0.02
G0 X66.4167 Y-180.9313 F15000.0
G1 Z11.9000 F2500.0
G4 P0.02
G1 X55.4381 Y-200.0076 F12000.0
G1 Z0.0000 F2500.0
G4 P0.02
G0 X57.1510 Y-191.5205 F15000.0
G1 Z11.9000 F2500.0
G4 P0.02
G1 X52.7907 Y-199.0732 F12000.0
G1 Z0.0000 F2500.0
G4 P0.02
G0 X66.4167 Y-175.4030 F15000.0
G1 Z11.9000 F2500.0
G4 P0.02
G1 X61.2778 Y-184.4351 F12000.0
G1 Z0.0000 F2500.0
G4 P0.02
G0 X74.0472 Y-162.2442 F15000.0
G1 Z11.9000 F2500.0
G4 P0.02
G1 X67.5847 Y-173.5343 F12000.0
G1 Z0.0000 F2500.0
G4 P0.02
G0 X69.2976 Y-165.0473 F15000.0
G1 Z11.9000 F2500.0
G4 P0.02
G1 X61.2778 Y-178.9069 F12000.0
G1 Z0.0000 F2500.0
G4 P0.02
G0 X64.4701 Y-167.7725 F15000.0
G1 Z11.9000 F2500.0
G4 P0.02
G1 X61.2778 Y-173.3786 F12000.0
G1 Z0.0000 F2500.0
G4 P0.02
G0 X120.2197 Y-100.7329 F15000.0
G1 Z11.9000 F2500.0
G4 P0.02
G1 X120.2197 Y-115.2932 F12000.0
G1 Z0.0000 F2500.0
G4 P0.02
G0 X158.8395 Y-62.1131 F15000.0
G1 Z11.9000 F2500.0
G4 P0.02
G1 X158.8395 Y-32.6031 F12000.0
G1 Z0.0000 F2500.0
G4 P0.02
G0 X112.8227 Y-79.6322 F15000.0
G1 Z11.9000 F2500.0
G4 P0.02
G1 X112.8227 Y-32.6031 F12000.0
G1 Z0.0000 F2500.0
G4 P0.02
G0 X100.9098 Y-100.7329 F15000.0
G1 Z11.9000 F2500.0
G4 P0.02
G1 X84.7923 Y-100.7329 F12000.0
G1 Z0.0000 F2500.0
G4 P0.02
G0 X112.8227 Y-45.6062 F15000.0
G1 Z11.9000 F2500.0
G4 P0.02
G1 X84.7923 Y-45.6062 F12000.0
G1 Z0.0000 F2500.0
G4 P0.02
G0 X41.5007 Y-31.2016 F15000.0
G1 Z11.9000 F2500.0
G4 P0.02
G1 X38.5419 Y-31.3574 F12000.0
G1 X35.5052 Y-31.8246 F12000.0
G1 X32.6244 Y-32.6031 F12000.0
G1 X29.8213 Y-33.6933 F12000.0
G1 X27.0961 Y-35.0169 F12000.0
G1 X24.6045 Y-36.6520 F12000.0
G1 X22.2686 Y-38.5207 F12000.0
G1 X20.0885 Y-40.6230 F12000.0
G1 X18.1420 Y-42.9589 F12000.0
G1 X16.5068 Y-45.4505 F12000.0
G1 X15.1053 Y-48.0978 F12000.0
G1 X14.0152 Y-50.9009 F12000.0
G1 X13.1587 Y-53.7817 F12000.0
G1 X12.6137 Y-56.7406 F12000.0
G1 X12.4580 Y-59.7772 F12000.0
G1 X12.4580 Y-60.3222 F12000.0
G1 X12.6137 Y-63.2810 F12000.0
G1 X13.0808 Y-66.2398 F12000.0
G1 X13.8595 Y-69.1985 F12000.0
G1 X14.8717 Y-72.0016 F12000.0
G1 X16.2732 Y-74.6489 F12000.0
G1 Z0.0000 F2500.0
G4 P0.02
G0 X66.7281 Y-74.8046 F15000.0
G1 Z11.9000 F2500.0
G4 P0.02
G1 X65.0930 Y-77.3741 F12000.0
G1 X63.1465 Y-79.7100 F12000.0
G1 X61.0442 Y-81.8123 F12000.0
G1 X58.7083 Y-83.7589 F12000.0
G1 X56.2167 Y-85.3940 F12000.0
G1 X53.5694 Y-86.7955 F12000.0
G1 X50.7663 Y-87.8855 F12000.0
G1 X47.8075 Y-88.6642 F12000.0
G1 X44.8488 Y-89.2092 F12000.0
G1 X41.8900 Y-89.3650 F12000.0
G1 X38.8534 Y-89.2871 F12000.0
G1 X35.8946 Y-88.8199 F12000.0
G1 X32.9358 Y-88.1191 F12000.0
G1 X30.1327 Y-87.0291 F12000.0
G1 X27.4076 Y-85.7054 F12000.0
G1 X24.9160 Y-84.1481 F12000.0
G1 X22.5022 Y-82.2794 F12000.0
G1 X20.3220 Y-80.2550 F12000.0
G1 X18.3755 Y-77.9192 F12000.0
G1 X16.6625 Y-75.4276 F12000.0
G1 Z0.0000 F2500.0
G4 P0.02
G0 X120.2197 Y-113.5023 F15000.0
G1 Z11.9000 F2500.0
G4 P0.02
G1 X124.8136 Y-114.1253 F12000.0
G1 X124.3464 Y-113.5023 F12000.0
G1 X124.8136 Y-112.8794 F12000.0
G1 X120.2197 Y-113.5023 F12000.0
G1 Z0.0000 F2500.0
G4 P0.02
G0 X122.8915 Y-113.7749 F15000.0
G1 Z11.9000 F2500.0
G4 P0.02
G1 X122.0638 Y-113.7749 F12000.0
G1 Z0.0000 F2500.0
G4 P0.02
G0 X123.1640 Y-113.1909 F15000.0
G1 Z11.9000 F2500.0
G4 P0.02
G1 X122.3363 Y-113.1909 F12000.0
G1 Z0.0000 F2500.0
G4 P0.02
G0 X120.2197 Y-113.5023 F15000.0
G1 Z11.9000 F2500.0
G4 P0.02
G1 X149.4960 Y-113.5023 F12000.0
G1 Z0.0000 F2500.0
G4 P0.02
G0 X158.8395 Y-34.3940 F15000.0
G1 Z11.9000 F2500.0
G4 P0.02
G1 X154.2456 Y-33.8490 F12000.0
G1 X154.7128 Y-34.3940 F12000.0
G1 X154.2456 Y-35.0169 F12000.0
G1 X158.8395 Y-34.3940 F12000.0
G1 Z0.0000 F2500.0
G4 P0.02
G0 X156.6060 Y-34.1215 F15000.0
G1 Z11.9000 F2500.0
G4 P0.02
G1 X155.7783 Y-34.1215 F12000.0
G1 Z0.0000 F2500.0
G4 P0.02
G0 X156.9563 Y-34.6665 F15000.0
G1 Z11.9000 F2500.0
G4 P0.02
G1 X156.1287 Y-34.6665 F12000.0
G1 Z0.0000 F2500.0
G4 P0.02
G0 X112.8227 Y-34.3940 F15000.0
G1 Z11.9000 F2500.0
G4 P0.02
G1 X117.4166 Y-35.0169 F12000.0
G1 X116.9495 Y-34.3940 F12000.0
G1 X117.4166 Y-33.8490 F12000.0
G1 X112.8227 Y-34.3940 F12000.0
G1 Z0.0000 F2500.0
G4 P0.02
G0 X115.4946 Y-34.6665 F15000.0
G1 Z11.9000 F2500.0
G4 P0.02
G1 X114.6669 Y-34.6665 F12000.0
G1 Z0.0000 F2500.0
G4 P0.02
G0 X115.8060 Y-34.1215 F15000.0
G1 Z11.9000 F2500.0
G4 P0.02
G1 X114.9783 Y-34.1215 F12000.0
G1 Z0.0000 F2500.0
G4 P0.02
G0 X158.8395 Y-34.3940 F15000.0
G1 Z11.9000 F2500.0
G4 P0.02
G1 X112.8227 Y-34.3940 F12000.0
G1 Z0.0000 F2500.0
G4 P0.02
G0 X86.5831 Y-100.7329 F15000.0
G1 Z11.9000 F2500.0
G4 P0.02
G1 X87.2059 Y-96.1390 F12000.0
G1 X86.5831 Y-96.6062 F12000.0
G1 X86.0380 Y-96.1390 F12000.0
G1 X86.5831 Y-100.7329 F12000.0
G1 Z0.0000 F2500.0
G4 P0.02
G0 X86.8556 Y-97.7107 F15000.0
G1 Z11.9000 F2500.0
G4 P0.02
G1 X86.8556 Y-98.5383 F12000.0
G1 Z0.0000 F2500.0
G4 P0.02
G0 X86.3106 Y-97.9831 F15000.0
G1 Z11.9000 F2500.0
G4 P0.02
G1 X86.3106 Y-98.8108 F12000.0
G1 Z0.0000 F2500.0
G4 P0.02
G0 X86.5831 Y-45.6062 F15000.0
G1 Z11.9000 F2500.0
G4 P0.02
G1 X86.0380 Y-50.2001 F12000.0
G1 X86.5831 Y-49.7329 F12000.0
G1 X87.2059 Y-50.2001 F12000.0
G1 X86.5831 Y-45.6062 F12000.0
G1 Z0.0000 F2500.0
G4 P0.02
G0 X86.3106 Y-47.4504 F15000.0
G1 Z11.9000 F2500.0
G4 P0.02
G1 X86.3106 Y-48.2781 F12000.0
G1 Z0.0000 F2500.0
G4 P0.02
G0 X86.8556 Y-47.7229 F15000.0
G1 Z11.9000 F2500.0
G4 P0.02
G1 X86.8556 Y-48.5506 F12000.0
G1 Z0.0000 F2500.0
G4 P0.02
G0 X86.5831 Y-100.7329 F15000.0
G1 Z11.9000 F2500.0
G4 P0.02
G1 X86.5831 Y-45.6062 F12000.0
G1 Z0.0000 F2500.0
G4 P0.02
G0 X39.0280 Y-20.9968 F15000.0
G1 Z11.9000 F2500.0
G4 P0.02
G1 X40.3657 Y-20.9132 F12000.0
G1 X40.2821 Y-20.6623
G1 Z0.0000 F2500.0
G4 P0.02
G0 X40.1148 Y-20.4534 F15000.0
G1 Z11.9000 F2500.0
G4 P0.02
G1 X39.9895 Y-20.3279 F12000.0
G1 Z0.0000 F2500.0
G4 P0.02
G0 X39.6550 Y-18.1124 F15000.0
G1 Z11.9000 F2500.0
G4 P0.02
G1 X38.1084 Y-18.0707 F12000.0
G1 X38.3592 Y-18.5305
G1 Z0.0000 F2500.0
G4 P0.02
G0 X39.1952 Y-19.4501 F15000.0
G1 Z11.9000 F2500.0
G4 P0.02
G1 X39.1116 Y-19.3665 F12000.0
G1 Z0.0000 F2500.0
G4 P0.02
G0 X38.7772 Y-18.9903 F15000.0
G1 Z11.9000 F2500.0
G4 P0.02
G1 X38.6100 Y-18.8230 F12000.0
G1 Z0.0000 F2500.0
G4 P0.02
G0 X41.5007 Y-31.2016 F15000.0
G1 Z11.9000 F2500.0
G4 P0.02
G1 X36.9068 Y-30.9680 F12000.0
G1 X37.3739 Y-31.5131 F12000.0
G1 X36.9847 Y-32.1360 F12000.0
G1 X41.5007 Y-31.2016 F12000.0
G1 Z0.0000 F2500.0
G4 P0.02
G0 X39.6176 Y-31.2406 F15000.0
G1 Z11.9000 F2500.0
G4 P0.02
G1 X38.7899 Y-31.2406 F12000.0
G1 Z0.0000 F2500.0
G4 P0.02
G0 X39.4619 Y-31.6688 F15000.0
G1 Z11.9000 F2500.0
G4 P0.02
G1 X38.6342 Y-31.6688 F12000.0
G1 Z0.0000 F2500.0
G4 P0.02
G0 X12.4580 Y-60.3222 F15000.0
G1 Z11.9000 F2500.0
G4 P0.02
G1 X13.3923 Y-55.7283 F12000.0
G1 X12.6915 Y-56.1955 F12000.0
G1 X12.1466 Y-55.6504 F12000.0
G1 X12.4580 Y-60.3222 F12000.0
G1 Z0.0000 F2500.0
G4 P0.02
G0 X12.8862 Y-57.4168 F15000.0
G1 Z11.9000 F2500.0
G4 P0.02
G1 X12.8862 Y-58.2444 F12000.0
G1 Z0.0000 F2500.0
G4 P0.02
G0 X12.4191 Y-57.5336 F15000.0
G1 Z11.9000 F2500.0
G4 P0.02
G1 X12.4191 Y-58.3612 F12000.0
G1 Z0.0000 F2500.0
G4 P0.02
G0 X12.4580 Y-60.3222 F15000.0
G1 Z11.9000 F2500.0
G4 P0.02
G1 X12.1466 Y-64.9161 F12000.0
G1 X12.6915 Y-64.4490 F12000.0
G1 X13.3923 Y-64.8382 F12000.0
G1 X12.4580 Y-60.3222 F12000.0
G1 Z0.0000 F2500.0
G4 P0.02
G0 X12.4191 Y-62.1664 F15000.0
G1 Z11.9000 F2500.0
G4 P0.02
G1 X12.4191 Y-62.9941 F12000.0
G1 Z0.0000 F2500.0
G4 P0.02
G0 X12.8862 Y-62.2832 F15000.0
G1 Z11.9000 F2500.0
G4 P0.02
G1 X12.8862 Y-63.1109 F12000.0
G1 Z0.0000 F2500.0
G4 P0.02
G0 X16.3510 Y-74.8046 F15000.0
G1 Z11.9000 F2500.0
G4 P0.02
G1 X14.8717 Y-70.4444 F12000.0
G1 X14.4823 Y-71.1451 F12000.0
G1 X13.7816 Y-70.9894 F12000.0
G1 X16.3510 Y-74.8046 F12000.0
G1 Z0.0000 F2500.0
G4 P0.02
G0 X15.3389 Y-72.0939 F15000.0
G1 Z11.9000 F2500.0
G4 P0.02
G1 X15.3389 Y-72.9216 F12000.0
G1 Z0.0000 F2500.0
G4 P0.02
G0 X15.2714 Y-72.4195 F15000.0
G1 Z11.9000 F2500.0
G4 P0.02
G1 X14.6277 Y-73.0632 F12000.0
G1 Z0.0000 F2500.0
G4 P0.02
G0 X66.7281 Y-74.8046 F15000.0
G1 Z11.9000 F2500.0
G4 P0.02
G1 X63.6137 Y-78.3084 F12000.0
G1 X64.3922 Y-78.2306 F12000.0
G1 X64.6258 Y-79.0092 F12000.0
G1 X66.7281 Y-74.8046 F12000.0
G1 Z0.0000 F2500.0
G4 P0.02
G0 X65.3760 Y-76.3515 F15000.0
G1 Z11.9000 F2500.0
G4 P0.02
G1 X64.7322 Y-76.9952 F12000.0
G1 Z0.0000 F2500.0
G4 P0.02
G0 X65.5213 Y-76.4931 F15000.0
G1 Z11.9000 F2500.0
G4 P0.02
G1 X65.5213 Y-77.3208 F12000.0
G1 Z0.0000 F2500.0
G4 P0.02
G0 X16.3510 Y-74.8046 F15000.0
G1 Z11.9000 F2500.0
G4 P0.02
G1 X18.3755 Y-79.0092 F12000.0
G1 X18.6091 Y-78.2306 F12000.0
G1 X19.3877 Y-78.3084 F12000.0
G1 X16.3510 Y-74.8046 F12000.0
G1 Z0.0000 F2500.0
G4 P0.02
G0 X17.4801 Y-76.4931 F15000.0
G1 Z11.9000 F2500.0
G4 P0.02
G1 X17.4801 Y-77.3208 F12000.0
G1 Z0.0000 F2500.0
G4 P0.02
G0 X18.1912 Y-76.3126 F15000.0
G1 Z11.9000 F2500.0
G4 P0.02
G1 X17.5475 Y-76.9563 F12000.0
G1 Z0.0000 F2500.0
G4 P0.02
G0 X0.0000 Y-216.9595 F15000.0
G1 Z11.9000 F2500.0
G4 P0.02
G1 X0.0000 Y-273.9770 F12000.0
G1 X174.7310 Y-273.9770 F12000.0
G1 Z0.0000 F2500.0
G4 P0.02
G0 X170.1296 Y-223.3663 F15000.0
G1 Z11.9000 F2500.0
G4 P0.02
G1 X0.0000 Y-223.3663 F12000.0
G1 Z0.0000 F2500.0
G4 P0.02
G0 X170.1296 Y-232.5541 F15000.0
G1 Z11.9000 F2500.0
G4 P0.02
G1 X110.3311 Y-232.5541 F12000.0
G1 Z0.0000 F2500.0
G4 P0.02
G0 X170.1296 Y-237.1480 F15000.0
G1 Z11.9000 F2500.0
G4 P0.02
G1 X110.3311 Y-237.1480 F12000.0
G1 Z0.0000 F2500.0
G4 P0.02
G0 X170.1296 Y-250.9296 F15000.0
G1 Z11.9000 F2500.0
G4 P0.02
G1 X110.3311 Y-250.9296 F12000.0
G1 Z0.0000 F2500.0
G4 P0.02
G0 X170.1296 Y-255.6014 F15000.0
G1 Z11.9000 F2500.0
G4 P0.02
G1 X110.3311 Y-255.6014 F12000.0
G1 Z0.0000 F2500.0
G4 P0.02
G0 X170.1296 Y-260.1953 F15000.0
G1 Z11.9000 F2500.0
G4 P0.02
G1 X110.3311 Y-260.1953 F12000.0
G1 Z0.0000 F2500.0
G4 P0.02
G0 X170.1296 Y-264.7892 F15000.0
G1 Z11.9000 F2500.0
G4 P0.02
G1 X110.3311 Y-264.7892 F12000.0
G1 Z0.0000 F2500.0
G4 P0.02
G0 X170.1296 Y-269.3830 F15000.0
G1 Z11.9000 F2500.0
G4 P0.02
G1 X110.3311 Y-269.3830 F12000.0
G1 Z0.0000 F2500.0
G4 P0.02
G0 X170.1296 Y-273.9770 F15000.0
G1 Z11.9000 F2500.0
G4 P0.02
G1 X170.1296 Y-223.3663 F12000.0
G1 Z0.0000 F2500.0
G4 P0.02
G0 X170.1296 Y-227.9602 F15000.0
G1 Z11.9000 F2500.0
G4 P0.02
G1 X110.3311 Y-227.9602 F12000.0
G1 Z0.0000 F2500.0
G4 P0.02
G0 X154.4792 Y-273.9770 F15000.0
G1 Z11.9000 F2500.0
G4 P0.02
G1 X154.4792 Y-223.3663 F12000.0
G1 Z0.0000 F2500.0
G4 P0.02
G0 X133.3006 Y-273.9770 F15000.0
G1 Z11.9000 F2500.0
G4 P0.02
G1 X133.3006 Y-223.3663 F12000.0
G1 Z0.0000 F2500.0
G4 P0.02
G0 X119.5189 Y-273.9770 F15000.0
G1 Z11.9000 F2500.0
G4 P0.02
G1 X119.5189 Y-223.3663 F12000.0
G1 Z0.0000 F2500.0
G4 P0.02
G0 X110.3311 Y-273.9770 F15000.0
G1 Z11.9000 F2500.0
G4 P0.02
G1 X110.3311 Y-223.3663 F12000.0
G1 Z0.0000 F2500.0
G4 P0.02
G0 X45.9388 Y-273.9770 F15000.0
G1 Z11.9000 F2500.0
G4 P0.02
G1 X45.9388 Y-237.1480 F12000.0
G1 Z0.0000 F2500.0
G4 P0.02
G0 X32.1572 Y-255.6014 F15000.0
G1 Z11.9000 F2500.0
G4 P0.02
G1 X32.1572 Y-237.1480 F12000.0
G1 Z0.0000 F2500.0
G4 P0.02
G0 X16.5068 Y-255.6014 F15000.0
G1 Z11.9000 F2500.0
G4 P0.02
G1 X16.5068 Y-237.1480 F12000.0
G1 Z0.0000 F2500.0
G4 P0.02
G0 X170.1296 Y-241.7419 F15000.0
G1 Z11.9000 F2500.0
G4 P0.02
G1 X110.3311 Y-241.7419 F12000.0
G1 Z0.0000 F2500.0
G4 P0.02
G0 X170.1296 Y-246.3357 F15000.0
G1 Z11.9000 F2500.0
G4 P0.02
G1 X110.3311 Y-246.3357 F12000.0
G1 Z0.0000 F2500.0
G4 P0.02
G0 X45.9388 Y-260.1953 F15000.0
G1 Z11.9000 F2500.0
G4 P0.02
G1 X0.0000 Y-260.1953 F12000.0
G1 Z0.0000 F2500.0
G4 P0.02
G0 X32.1572 Y-241.7419 F15000.0
G1 Z11.9000 F2500.0
G4 P0.02
G1 X0.0000 Y-241.7419 F12000.0
G1 Z0.0000 F2500.0
G4 P0.02
G0 X45.9388 Y-241.7419 F15000.0
G1 Z11.9000 F2500.0
G4 P0.02
G1 X32.1572 Y-241.7419 F12000.0
G1 Z0.0000 F2500.0
G4 P0.02
G0 X110.3311 Y-237.1480 F15000.0
G1 Z11.9000 F2500.0
G4 P0.02
G1 X0.0000 Y-237.1480 F12000.0
G1 Z0.0000 F2500.0
G4 P0.02
G0 X110.3311 Y-260.1953 F15000.0
G1 Z11.9000 F2500.0
G4 P0.02
G1 X45.9388 Y-260.1953 F12000.0
G1 Z0.0000 F2500.0
G4 P0.02
G0 X45.9388 Y-255.6014 F15000.0
G1 Z11.9000 F2500.0
G4 P0.02
G1 X0.0000 Y-255.6014 F12000.0
G1 Z0.0000 F2500.0
G4 P0.02
G0 X27.0183 Y-260.1953 F15000.0
G1 Z11.9000 F2500.0
G4 P0.02
G1 X27.0183 Y-255.6014 F12000.0
G1 Z0.0000 F2500.0
G4 P0.02
G0 X41.3449 Y-255.6014 F15000.0
G1 Z11.9000 F2500.0
G4 P0.02
G1 X41.3449 Y-241.7419 F12000.0
G1 Z0.0000 F2500.0
G4 P0.02
G0 X36.7511 Y-255.6014 F15000.0
G1 Z11.9000 F2500.0
G4 P0.02
G1 X36.7511 Y-241.7419 F12000.0
G1 Z0.0000 F2500.0
G4 P0.02
G0 X163.6669 Y-246.3357 F15000.0
G1 Z11.9000 F2500.0
G4 P0.02
G1 X163.6669 Y-223.3663 F12000.0
G1 Z0.0000 F2500.0
G4 P0.02
G0 X7.0889 Y-250.7960 F15000.0
G1 Z11.9000 F2500.0
G4 P0.02
G1 X5.7095 Y-246.9501 F12000.0
G1 X5.4587 Y-246.6158
G1 Z0.0000 F2500.0
G4 P0.02
G0 X6.9217 Y-247.6190 F15000.0
G1 Z11.9000 F2500.0
G4 P0.02
G1 X6.7545 Y-247.4518 F12000.0
G1 Z0.0000 F2500.0
G4 P0.02
G0 X6.0439 Y-246.9920 F15000.0
G1 Z11.9000 F2500.0
G4 P0.02
G1 X5.7512 Y-246.9084 F12000.0
G1 Z0.0000 F2500.0
G4 P0.02
G0 X5.4579 Y-259.3308 F15000.0
G1 Z11.9000 F2500.0
G4 P0.02
G1 X5.2907 Y-259.0381 F12000.0
G1 X4.4964 Y-256.8226
G1 Z0.0000 F2500.0
G4 P0.02
G0 X5.1234 Y-256.9481 F15000.0
G1 Z11.9000 F2500.0
G4 P0.02
G1 X4.9144 Y-256.8226 F12000.0
G1 Z0.0000 F2500.0
G4 P0.02
G0 X79.2594 Y-77.9624 F15000.0
G1 Z11.9000 F2500.0
G4 P0.02
G1 X78.9593 Y-78.1989 F12000.0
G1 X78.6411 Y-78.0306
G1 X79.0327 Y-78.5517
G1 X78.9303 Y-78.4834
G1 X78.9298 Y-78.5959
G1 X78.6379 Y-78.8206
G1 X79.0173 Y-78.5653
G1 X79.2202 Y-78.9168
G1 X78.6745 Y-78.7784
G1 X78.7077 Y-78.6981
G1 Z0.0000 F2500.0
G4 P0.02
G0 X6.6755 Y-77.7801 F15000.0
G1 Z11.9000 F2500.0
G4 P0.02
G1 X6.0839 Y-79.5268 F12000.0
G1 X5.9090 Y-79.6065
G1 X5.7381 Y-79.5590
G1 X5.4756 Y-79.1262
G1 X5.1121 Y-77.7801
G1 Z0.0000 F2500.0
G4 P0.02
G0 X5.9397 Y-79.6194 F15000.0
G1 Z11.9000 F2500.0
G4 P0.02
G1 X5.8628 Y-80.1267 F12000.0
G1 X6.0992 Y-81.0174
G1 X6.2470 Y-81.2348
G1 X6.1237 Y-81.0908
G1 Z0.0000 F2500.0
G4 P0.02
G0 X72.6750 Y-227.3595 F15000.0
G1 Z11.9000 F2500.0
G4 P0.02
G1 X73.1250 Y-227.5060 F12000.0
G1 X73.3202 Y-227.6701
G1 X73.9671 Y-228.8854
G1 X74.3103 Y-229.3105
G1 X74.1205 Y-229.1167
G1 X74.3730 Y-229.4706
G1 X74.2837 Y-229.6628
G1 X73.7382 Y-230.2334
G1 X72.4934 Y-231.8137
G1 X71.7100 Y-231.6406
G1 X71.5490 Y-231.5229
G1 X71.5255 Y-228.7389
G1 Z0.0000 F2500.0
G4 P0.02
G0 X71.5255 Y-230.1184 F15000.0
G1 Z11.9000 F2500.0
G4 P0.02
G1 X69.3643 Y-230.1644 F12000.0
G1 Z0.0000 F2500.0
G4 P0.02
G0 X69.3184 Y-231.5898 F15000.0
G1 Z11.9000 F2500.0
G4 P0.02
G1 X69.3184 Y-228.7389 F12000.0
G1 Z0.0000 F2500.0
G4 P0.02
G0 X66.4215 Y-228.6930 F15000.0
G1 Z11.9000 F2500.0
G4 P0.02
G1 X67.7040 Y-228.7261 F12000.0
G1 X67.8010 Y-231.5898
G1 Z0.0000 F2500.0
G4 P0.02
G0 X64.3523 Y-230.8541 F15000.0
G1 Z11.9000 F2500.0
G4 P0.02
G1 X64.1224 Y-231.3139 F12000.0
G1 Z0.0000 F2500.0
G4 P0.02
G0 X64.2144 Y-227.9573 F15000.0
G1 Z11.9000 F2500.0
G4 P0.02
G1 X63.9008 Y-227.5551 F12000.0
G1 Z0.0000 F2500.0
G4 P0.02
G0 X64.1513 Y-227.8693 F15000.0
G1 Z11.9000 F2500.0
G4 P0.02
G1 X64.4670 Y-229.9860 F12000.0
G1 X64.4347 Y-230.3347
G1 X64.0649 Y-231.3228
G1 X63.3308 Y-231.7067
G1 X63.1114 Y-231.7348
G1 X62.6594 Y-231.5906
G1 X62.3825 Y-231.3848
G1 X62.2013 Y-231.0810
G1 X61.9834 Y-230.0293
G1 X62.1560 Y-228.1327
G1 X62.5439 Y-227.5473
G1 X62.9704 Y-227.3486
G1 X63.6723 Y-227.4036
G1 X63.9845 Y-227.5894
G1 Z0.0000 F2500.0
G4 P0.02
G0 X60.6738 Y-228.1412 F15000.0
G1 Z11.9000 F2500.0
G4 P0.02
G1 X60.7129 Y-228.1980 F12000.0
G1 X60.3771 Y-227.6603
G1 X59.6556 Y-227.3306
G1 X58.8431 Y-227.4664
G1 X58.5539 Y-227.6705
G1 X58.3936 Y-227.9786
G1 X58.3092 Y-228.4405
G1 X58.6771 Y-229.3717
G1 X60.3899 Y-231.0033
G1 X60.6280 Y-231.5359
G1 X60.8619 Y-231.7230
G1 X60.4655 Y-231.5947
G1 X58.2367 Y-231.6358
G1 Z0.0000 F2500.0
G4 P0.02
G0 X58.7425 Y-229.4747 F15000.0
G1 Z11.9000 F2500.0
G4 P0.02
G1 X58.6506 Y-229.2907 F12000.0
G1 Z0.0000 F2500.0
G4 P0.02
G0 X55.1100 Y-228.2331 F15000.0
G1 Z11.9000 F2500.0
G4 P0.02
G1 X54.7750 Y-227.6664 F12000.0
G1 X54.2776 Y-227.3868
G1 X53.9383 Y-227.3371
G1 X53.3492 Y-227.4160
G1 X52.9516 Y-227.6639
G1 X52.7869 Y-227.9688
G1 X52.6977 Y-228.4309
G1 X52.9202 Y-229.1051
G1 X53.4968 Y-229.8257
G1 X54.8612 Y-231.1354
G1 X55.0374 Y-231.5694
G1 X55.2674 Y-231.7323
G1 X54.9248 Y-231.5981
G1 X52.6270 Y-231.6358
G1 Z0.0000 F2500.0
G4 P0.02
G0 X51.3395 Y-229.6126 F15000.0
G1 Z11.9000 F2500.0
G4 P0.02
G1 X50.6054 Y-229.2201 F12000.0
G1 X49.6559 Y-229.2014
G1 X49.4535 Y-229.2768
G1 X49.0207 Y-229.8363
G1 X48.9301 Y-230.2993
G1 X48.9599 Y-230.6465
G1 X49.2710 Y-231.4034
G1 X50.0187 Y-231.7359
G1 X51.0764 Y-231.2606
G1 X51.2940 Y-230.8453
G1 X51.3949 Y-230.2575
G1 X51.4204 Y-228.9505
G1 X51.1938 Y-228.0864
G1 X51.3824 Y-228.7299
G1 Z0.0000 F2500.0
G4 P0.02
G0 X51.1887 Y-228.0985 F15000.0
G1 Z11.9000 F2500.0
G4 P0.02
G1 X51.0606 Y-227.9138 F12000.0
G1 X49.6326 Y-227.4097
G1 X49.2632 Y-227.6307
G1 X49.0404 Y-228.0492
G1 Z0.0000 F2500.0
G4 P0.02
G0 X49.6841 Y-229.1068 F15000.0
G1 Z11.9000 F2500.0
G4 P0.02
G1 X49.0783 Y-229.6349 F12000.0
G1 X48.9944 Y-229.8425
G1 Z0.0000 F2500.0
G4 P0.02
G0 X49.0863 Y-231.1760 F15000.0
G1 Z11.9000 F2500.0
G4 P0.02
G1 X49.2243 Y-231.4059 F12000.0
G1 Z0.0000 F2500.0
G4 P0.02
G0 X45.6837 Y-230.8541 F15000.0
G1 Z11.9000 F2500.0
G4 P0.02
G1 X45.4538 Y-231.3139 F12000.0
G1 Z0.0000 F2500.0
G4 P0.02
G0 X42.2810 Y-231.7737 F15000.0
G1 Z11.9000 F2500.0
G4 P0.02
G1 X41.9890 Y-231.5800 F12000.0
G1 X41.6815 Y-230.9565
G1 X40.0174 Y-229.3690
G1 X39.6426 Y-228.4517
G1 X39.7220 Y-227.9898
G1 X39.8769 Y-227.6781
G1 X40.2696 Y-227.4211
G1 X40.8578 Y-227.3391
G1 X41.1994 Y-227.3770
G1 X41.6992 Y-227.6537
G1 X42.0511 Y-228.2331
G1 Z0.0000 F2500.0
G4 P0.02
G0 X45.2699 Y-227.5894 F15000.0
G1 Z11.9000 F2500.0
G4 P0.02
G1 X45.0026 Y-227.4040 F12000.0
G1 X44.3014 Y-227.3487
G1 X43.8750 Y-227.5475
G1 X43.4872 Y-228.1330
G1 X43.3148 Y-230.0296
G1 X43.5328 Y-231.0813
G1 X43.7141 Y-231.3851
G1 X43.9910 Y-231.5907
G1 X44.4430 Y-231.7348
G1 X44.6624 Y-231.7066
G1 X45.3965 Y-231.3227
G1 X45.7662 Y-230.3344
G1 X45.7984 Y-229.9857
G1 X45.5602 Y-228.0884
G1 X45.2740 Y-227.5690
G1 X45.5457 Y-227.9573
G1 Z0.0000 F2500.0
G4 P0.02
G0 X41.9592 Y-231.5898 F15000.0
G1 Z11.9000 F2500.0
G4 P0.02
G1 X39.5681 Y-231.6358 F12000.0
G1 Z0.0000 F2500.0
G4 P0.02
G0 X74.4223 Y-229.4287 F15000.0
G1 Z11.9000 F2500.0
G4 P0.02
G1 X75.3880 Y-229.3827 F12000.0
G1 Z0.0000 F2500.0
G4 P0.02
G0 X75.3880 Y-227.4515 F15000.0
G1 Z11.9000 F2500.0
G4 P0.02
G1 X75.3880 Y-231.5898 F12000.0
G1 Z0.0000 F2500.0
G4 P0.02
G0 X38.2107 Y-238.6613 F15000.0
G1 Z11.9000 F2500.0
G4 P0.02
G1 X37.6524 Y-238.7420 F12000.0
G1 X37.6130 Y-240.1787
G1 Z0.0000 F2500.0
G4 P0.02
G0 X38.8085 Y-240.2247 F15000.0
G1 Z11.9000 F2500.0
G4 P0.02
G1 X38.9027 Y-238.9969 F12000.0
G1 X39.1915 Y-239.1723
G1 X39.6962 Y-239.8233
G1 X39.8732 Y-239.8907
G1 X39.9330 Y-238.7880
G1 X39.8746 Y-238.7315
G1 X38.8684 Y-238.7831
G1 X39.5110 Y-239.6910
G1 X39.8941 Y-240.0634
G1 X39.7622 Y-239.9068
G1 X39.9121 Y-239.9947
G1 Z0.0000 F2500.0
G4 P0.02
G0 X40.7857 Y-240.1787 F15000.0
G1 Z11.9000 F2500.0
G4 P0.02
G1 X40.8744 Y-238.0643 F12000.0
G1 X42.2111 Y-240.2247
G1 Z0.0000 F2500.0
G4 P0.02
G0 X37.6130 Y-238.7073 F15000.0
G1 Z11.9000 F2500.0
G4 P0.02
G1 X37.0612 Y-238.6613 F12000.0
G1 Z0.0000 F2500.0
G4 P0.02
G0 X29.4346 Y-239.8578 F15000.0
G1 Z11.9000 F2500.0
G4 P0.02
G1 X29.3577 Y-238.0115 F12000.0
G1 X28.5432 Y-239.6245
G1 X28.3984 Y-239.5991
G1 X28.1801 Y-239.3305
G1 Z0.0000 F2500.0
G4 P0.02
G0 X27.9456 Y-238.6198 F15000.0
G1 Z11.9000 F2500.0
G4 P0.02
G1 X28.2490 Y-239.4995 F12000.0
G1 X28.1297 Y-239.1130
G1 Z0.0000 F2500.0
G4 P0.02
G0 X28.2683 Y-239.5370 F15000.0
G1 Z11.9000 F2500.0
G4 P0.02
G1 X28.4334 Y-239.7344 F12000.0
G1 X27.5263 Y-239.8223
G1 X27.5609 Y-238.2542
G1 X27.6549 Y-238.2066
G1 X27.5027 Y-237.9887
G1 X26.6389 Y-238.5085
G1 X26.0001 Y-238.4189
G1 X25.8464 Y-238.5539
G1 X25.6547 Y-239.0250
G1 X26.5360 Y-239.2844
G1 X26.7359 Y-239.5526
G1 X26.6908 Y-239.7568
G1 X26.2795 Y-239.9567
G1 X25.6590 Y-239.7962
G1 X25.7592 Y-239.8574
G1 X25.5716 Y-239.8211
G1 X25.5346 Y-239.0987
G1 X24.7257 Y-239.8128
G1 X24.8948 Y-239.3702
G1 X24.5664 Y-238.5020
G1 X24.1428 Y-238.4071
G1 X23.9409 Y-238.4980
G1 X23.7767 Y-238.7791
G1 X23.7483 Y-239.4909
G1 X23.9704 Y-239.8884
G1 X24.1830 Y-239.9673
G1 X24.6065 Y-239.8578
G1 Z0.0000 F2500.0
G4 P0.02
G0 X23.0432 Y-239.8578 F15000.0
G1 Z11.9000 F2500.0
G4 P0.02
G1 X23.2297 Y-239.2697 F12000.0
G1 X22.9724 Y-238.6056
G1 X22.8368 Y-238.4460
G1 X22.3889 Y-238.4348
G1 X22.0172 Y-238.6409
G1 X21.1286 Y-238.4384
G1 X20.7987 Y-238.4348
G1 X20.4790 Y-239.0003
G1 X21.3358 Y-239.2640
G1 X21.5025 Y-239.4155
G1 X21.5574 Y-239.6322
G1 X21.4328 Y-239.3206
G1 X21.5031 Y-239.7851
G1 X21.2002 Y-239.9393
G1 X20.4423 Y-239.8707
G1 X20.4222 Y-239.0301
G1 Z0.0000 F2500.0
G4 P0.02
G0 X22.0775 Y-239.5359 F15000.0
G1 Z11.9000 F2500.0
G4 P0.02
G1 X22.2608 Y-239.8374 F12000.0
G1 X22.4563 Y-239.9525
G1 X22.9512 Y-239.8578
G1 Z0.0000 F2500.0
G4 P0.02
G0 X1.6835 Y-238.0051 F15000.0
G1 Z11.9000 F2500.0
G4 P0.02
G1 X2.6136 Y-238.2112 F12000.0
G1 X2.9294 Y-238.5292
G1 X2.9996 Y-239.2651
G1 X2.9287 Y-239.8549
G1 X2.7663 Y-240.1604
G1 X2.3819 Y-240.3307
G1 X1.7016 Y-239.6968
G1 X1.7187 Y-239.2554
G1 X1.8461 Y-239.0732
G1 X2.2365 Y-238.8198
G1 X2.9250 Y-239.0167
G1 Z0.0000 F2500.0
G4 P0.02
G0 X3.7527 Y-239.4765 F15000.0
G1 Z11.9000 F2500.0
G4 P0.02
G1 X3.8398 Y-240.1477 F12000.0
G1 X4.3717 Y-240.3729
G1 X4.8165 Y-240.2491
G1 X4.9236 Y-240.0701
G1 X4.8454 Y-239.7483
G1 X3.8128 Y-239.3475
G1 X4.1668 Y-238.7934
G1 X4.7643 Y-238.8788
G1 Z0.0000 F2500.0
G4 P0.02
G0 X5.4080 Y-238.7868 F15000.0
G1 Z11.9000 F2500.0
G4 P0.02
G1 X6.4608 Y-238.7868 F12000.0
G1 X6.0833 Y-238.8383
G1 X6.0058 Y-240.3042
G1 Z0.0000 F2500.0
G4 P0.02
G0 X7.1553 Y-238.8328 F15000.0
G1 Z11.9000 F2500.0
G4 P0.02
G1 X8.1209 Y-240.3042 F12000.0
G1 Z0.0000 F2500.0
G4 P0.02
G0 X8.1669 Y-238.8328 F15000.0
G1 Z11.9000 F2500.0
G4 P0.02
G1 X8.2386 Y-240.2376 F12000.0
G1 X8.4157 Y-240.2926
G1 X9.0930 Y-240.2225
G1 X9.1325 Y-238.8328
G1 Z0.0000 F2500.0
G4 P0.02
G0 X9.9142 Y-238.8788 F15000.0
G1 Z11.9000 F2500.0
G4 P0.02
G1 X10.3707 Y-238.7671 F12000.0
G1 X10.7678 Y-238.9833
G1 X10.9079 Y-239.2919
G1 X10.8433 Y-240.0021
G1 X10.7554 Y-240.2007
G1 X10.4570 Y-240.3210
G1 X9.9029 Y-240.1616
G1 X9.7303 Y-239.9364
G1 Z0.0000 F2500.0
G4 P0.02
G0 X11.7075 Y-239.4765 F15000.0
G1 Z11.9000 F2500.0
G4 P0.02
G1 X11.7370 Y-240.0649 F12000.0
G1 X12.3322 Y-240.3656
G1 X12.7701 Y-240.2454
G1 X12.8535 Y-240.0526
G1 X12.7869 Y-239.7308
G1 X11.7705 Y-239.3314
G1 X12.1373 Y-238.7802
G1 X12.7191 Y-238.8788
G1 Z0.0000 F2500.0
G4 P0.02
G0 X13.7307 Y-238.4189 F15000.0
G1 Z11.9000 F2500.0
G4 P0.02
G1 X13.6388 Y-240.2582 F12000.0
G1 Z0.0000 F2500.0
G4 P0.02
G0 X13.8227 Y-238.4649 F15000.0
G1 Z11.9000 F2500.0
G4 P0.02
G1 X13.8782 Y-238.5098 F12000.0
G1 X13.7423 Y-238.3288
G1 X14.5768 Y-240.0472
G1 X15.5932 Y-238.3846
G1 X15.7079 Y-240.3042
G1 Z0.0000 F2500.0
G4 P0.02
G0 X1.7755 Y-239.0627 F15000.0
G1 Z11.9000 F2500.0
G4 P0.02
G1 X1.7295 Y-239.1547 F12000.0
G1 Z0.0000 F2500.0
G4 P0.02
G0 X149.3324 Y-242.7075 F15000.0
G1 Z11.9000 F2500.0
G4 P0.02
G1 X149.3388 Y-244.0953 F12000.0
G1 X149.4518 Y-244.3962
G1 X149.7119 Y-244.2254
G1 X150.2397 Y-243.3934
G1 X150.6062 Y-243.1284
G1 X150.7081 Y-243.3441
G1 X150.7118 Y-244.6387
G1 Z0.0000 F2500.0
G4 P0.02
G0 X148.5047 Y-244.2709 F15000.0
G1 Z11.9000 F2500.0
G4 P0.02
G1 X148.3208 Y-244.1789 F12000.0
G1 Z0.0000 F2500.0
G4 P0.02
G0 X148.1368 Y-243.3512 F15000.0
G1 Z11.9000 F2500.0
G4 P0.02
G1 X148.2390 Y-243.1869 F12000.0
G1 X148.4003 Y-243.1066
G1 X148.5730 Y-243.1652
G1 X148.8430 Y-243.4415
G1 X148.8506 Y-243.9203
G1 X148.4555 Y-244.4250
G1 X148.0797 Y-243.8343
G1 X148.1184 Y-243.4540
G1 X148.3669 Y-243.1211
G1 X148.3025 Y-243.2300
G1 X148.5521 Y-243.1963
G1 X148.7806 Y-243.3512
G1 Z0.0000 F2500.0
G4 P0.02
G0 X143.1780 Y-243.3512 F15000.0
G1 Z11.9000 F2500.0
G4 P0.02
G1 X143.1375 Y-243.9589 F12000.0
G1 X142.6462 Y-243.7176
G1 X142.2582 Y-243.2966
G1 X142.1151 Y-243.3562
G1 X141.3773 Y-244.4324
G1 X141.3862 Y-244.8954
G1 X141.5253 Y-245.1891
G1 X141.6711 Y-245.2511
G1 X141.8510 Y-245.1575
G1 X142.4040 Y-244.5435
G1 X142.6262 Y-244.1789
G1 Z0.0000 F2500.0
G4 P0.02
G0 X143.1780 Y-243.9030 F15000.0
G1 Z11.9000 F2500.0
G4 P0.02
G1 X142.8464 Y-243.9129 F12000.0
G1 X142.7305 Y-243.8380
G1 X143.1780 Y-244.6387
G1 Z0.0000 F2500.0
G4 P0.02
G0 X143.8677 Y-244.4548 F15000.0
G1 Z11.9000 F2500.0
G4 P0.02
G1 X144.0697 Y-244.5591 F12000.0
G1 X144.6385 Y-244.5890
G1 X144.7869 Y-244.4497
G1 X144.8653 Y-243.7589
G1 Z0.0000 F2500.0
G4 P0.02
G0 X144.6376 Y-243.3702 F15000.0
G1 Z11.9000 F2500.0
G4 P0.02
G1 X144.9067 Y-243.8409 F12000.0
G1 X144.9253 Y-244.0960
G1 X144.9211 Y-243.8898
G1 X144.8900 Y-244.2167
G1 X144.5969 Y-244.5733
G1 X144.3997 Y-244.6525
G1 X143.8699 Y-244.4213
G1 X143.7589 Y-244.2270
G1 X143.8407 Y-243.6472
G1 X144.1098 Y-243.3375
G1 X144.5574 Y-243.3053
G1 Z0.0000 F2500.0
G4 P0.02
G0 X146.5806 Y-244.2249 F15000.0
G1 Z11.9000 F2500.0
G4 P0.02
G1 X146.3536 Y-243.3390 F12000.0
G1 X145.7007 Y-243.3424
G1 X145.5870 Y-244.5924
G1 X145.4538 Y-244.7335
G1 X145.4082 Y-245.0136
G1 X145.7384 Y-244.6965
G1 X146.5656 Y-244.6466
G1 X146.7690 Y-244.7056
G1 X146.8565 Y-245.0985
G1 Z0.0000 F2500.0
G4 P0.02
G0 X141.3387 Y-244.5008 F15000.0
G1 Z11.9000 F2500.0
G4 P0.02
G1 X141.1836 Y-244.3334 F12000.0
G1 X140.7793 Y-243.3704
G1 X140.0453 Y-243.6013
G1 X140.1812 Y-243.5494
G1 X140.1888 Y-244.6030
G1 X139.7492 Y-244.6373
G1 X139.5664 Y-244.5769
G1 X138.9134 Y-243.6239
G1 X138.8097 Y-244.6387
G1 Z0.0000 F2500.0
G4 P0.02
G0 X139.5454 Y-244.4548 F15000.0
G1 Z11.9000 F2500.0
G4 P0.02
G1 X139.9592 Y-243.6271 F12000.0
G1 Z0.0000 F2500.0
G4 P0.02
G0 X128.6913 Y-244.3472 F15000.0
G1 Z11.9000 F2500.0
G4 P0.02
G1 X128.7902 Y-242.5993 F12000.0
G1 X130.0708 Y-244.3472
G1 Z0.0000 F2500.0
G4 P0.02
G0 X127.3118 Y-243.0597 F15000.0
G1 Z11.9000 F2500.0
G4 P0.02
G1 X127.8638 Y-243.1989 F12000.0
G1 X128.0693 Y-243.7940
G1 X127.9582 Y-244.1258
G1 X127.8135 Y-244.2883
G1 X127.4868 Y-244.3628
G1 X127.1000 Y-244.2222
G1 X127.1409 Y-244.2911
G1 X126.9742 Y-244.0313
G1 X127.0747 Y-243.3357
G1 X127.2405 Y-243.1088
G1 X127.0360 Y-243.2436
G1 Z0.0000 F2500.0
G4 P0.02
G0 X126.5761 Y-244.3932 F15000.0
G1 Z11.9000 F2500.0
G4 P0.02
G1 X126.6022 Y-244.6826 F12000.0
G1 X126.3576 Y-244.2414
G1 X125.5127 Y-243.1409
G1 X125.4570 Y-244.3102
G1 X125.5266 Y-244.3682
G1 X126.3489 Y-244.3487
G1 X125.3584 Y-244.3967
G1 X125.2118 Y-244.7427
G1 X124.6924 Y-244.3337
G1 X123.8003 Y-243.1349
G1 X123.7253 Y-244.3472
G1 Z0.0000 F2500.0
G4 P0.02
G0 X169.2549 Y-242.6561 F15000.0
G1 Z11.9000 F2500.0
G4 P0.02
G1 X169.1626 Y-244.2914 F12000.0
G1 X168.8684 Y-244.0025
G1 X168.2049 Y-243.0828
G1 X168.3871 Y-243.3218
G1 X167.9127 Y-242.8146
G1 X167.9939 Y-243.0631
G1 X167.8929 Y-244.2477
G1 X167.8125 Y-244.4219
G1 X166.8926 Y-244.4615
G1 X166.4850 Y-244.2780
G1 X166.5711 Y-243.8912
G1 X166.7184 Y-243.8050
G1 X166.5244 Y-243.6700
G1 X166.5664 Y-243.2516
G1 X166.8914 Y-243.1809
G1 X167.1162 Y-243.3389
G1 X165.8444 Y-243.5254
G1 X165.8454 Y-244.3723
G1 X165.7499 Y-243.4504
G1 X165.1249 Y-244.3588
G1 X164.7770 Y-243.6528
G1 X164.5778 Y-243.5257
G1 X164.4728 Y-244.4494
G1 Z0.0000 F2500.0
G4 P0.02
G0 X161.9481 Y-242.6101 F15000.0
G1 Z11.9000 F2500.0
G4 P0.02
G1 X161.0554 Y-242.6347 F12000.0
G1 X160.9988 Y-242.6992
G1 X160.8840 Y-244.4022
G1 X160.3403 Y-244.2734
G1 X159.8380 Y-243.9705
G1 X159.2758 Y-243.2964
G1 X159.4191 Y-243.4378
G1 Z0.0000 F2500.0
G4 P0.02
G0 X160.2468 Y-243.2079 F15000.0
G1 Z11.9000 F2500.0
G4 P0.02
G1 X160.1831 Y-244.1338 F12000.0
G1 X160.0024 Y-244.1533
G1 X160.0948 Y-244.2031
G1 X159.9561 Y-244.1438
G1 X159.6280 Y-243.6739
G1 X159.4020 Y-243.5057
G1 X159.2352 Y-244.4494
G1 Z0.0000 F2500.0
G4 P0.02
G0 X157.7178 Y-244.3574 F15000.0
G1 Z11.9000 F2500.0
G4 P0.02
G1 X157.6840 Y-244.2980 F12000.0
G1 X158.0625 Y-244.4598
G1 X158.5591 Y-244.1927
G1 X158.6215 Y-243.8575
G1 X158.5230 Y-243.4140
G1 X157.9828 Y-243.2009
G1 X156.2924 Y-243.1619
G1 Z0.0000 F2500.0
G4 P0.02
G0 X156.7982 Y-243.1619 F15000.0
G1 Z11.9000 F2500.0
G4 P0.02
G1 X156.7522 Y-244.4494 F12000.0
G1 Z0.0000 F2500.0
G4 P0.02
G0 X162.2700 Y-244.5413 F15000.0
G1 Z11.9000 F2500.0
G4 P0.02
G1 X162.1171 Y-244.4712 F12000.0
G1 X162.0417 Y-244.2889
G1 X161.9941 Y-242.7021
G1 Z0.0000 F2500.0
G4 P0.02
G0 X118.7008 Y-244.5965 F15000.0
G1 Z11.9000 F2500.0
G4 P0.02
G1 X118.5316 Y-244.4830 F12000.0
G1 X118.2232 Y-242.6285
G1 X117.1917 Y-244.5507
G1 X117.0698 Y-244.6524
G1 X117.0150 Y-245.0521
G1 X117.3110 Y-244.6105
G1 X118.3743 Y-244.5577
G1 X118.6820 Y-244.6739
G1 X118.7468 Y-245.1483
G1 Z0.0000 F2500.0
G4 P0.02
G0 X116.0799 Y-243.1711 F15000.0
G1 Z11.9000 F2500.0
G4 P0.02
G1 X115.3969 Y-243.8148 F12000.0
G1 X116.0653 Y-243.9427
G1 X116.2451 Y-244.0681
G1 X116.4060 Y-244.3647
G1 X116.3153 Y-244.5567
G1 X116.1212 Y-244.6633
G1 X115.6580 Y-244.5874
G1 X115.3526 Y-244.4465
G1 X115.3199 Y-243.9195
G1 X114.7892 Y-243.2403
G1 X113.7808 Y-243.2171
G1 Z0.0000 F2500.0
G4 P0.02
G0 X114.3326 Y-243.2171 F15000.0
G1 Z11.9000 F2500.0
G4 P0.02
G1 X114.2866 Y-244.5965 F12000.0
G1 Z0.0000 F2500.0
G4 P0.02
G0 X112.9991 Y-243.1711 F15000.0
G1 Z11.9000 F2500.0
G4 P0.02
G1 X112.3161 Y-243.8148 F12000.0
G1 X113.0852 Y-243.9887
G1 X113.3252 Y-244.3647
G1 X113.2345 Y-244.5567
G1 X112.9264 Y-244.6617
G1 X112.2718 Y-244.4465
G1 X112.2174 Y-243.9068
G1 Z0.0000 F2500.0
G4 P0.02
G0 X95.9822 Y-252.0335 F15000.0
G1 Z11.9000 F2500.0
G4 P0.02
G1 X95.3389 Y-250.3601 F12000.0
G1 X95.1170 Y-249.4303
G1 X94.5410 Y-244.5203
G1 X91.3644 Y-250.4045
G1 X90.7611 Y-250.5459
G1 X90.6943 Y-252.0335
G1 Z0.0000 F2500.0
G4 P0.02
G0 X91.4300 Y-250.4242 F15000.0
G1 Z11.9000 F2500.0
G4 P0.02
G1 X95.2356 Y-250.3823 F12000.0
G1 X95.9362 Y-250.4701
G1 Z0.0000 F2500.0
G4 P0.02
G0 X89.1309 Y-248.2170 F15000.0
G1 Z11.9000 F2500.0
G4 P0.02
G1 X88.8589 Y-247.0898 F12000.0
G1 X88.6796 Y-246.8098
G1 X87.9345 Y-246.2927
G1 X87.1064 Y-246.2076
G1 X86.4395 Y-246.4251
G1 X85.9126 Y-246.8921
G1 X85.5910 Y-248.1207
G1 X89.0734 Y-248.2935
G1 X88.9452 Y-249.5359
G1 X88.7109 Y-249.9437
G1 X88.3745 Y-250.2587
G1 X87.3500 Y-250.5673
G1 X87.0019 Y-250.5608
G1 X86.2627 Y-250.3476
G1 Z0.0000 F2500.0
G4 P0.02
G0 X85.5634 Y-249.6516 F15000.0
G1 Z11.9000 F2500.0
G4 P0.02
G1 X86.2868 Y-250.3672 F12000.0
G1 X86.1421 Y-250.2862
G1 Z0.0000 F2500.0
G4 P0.02
G0 X82.8774 Y-250.4242 F15000.0
G1 Z11.9000 F2500.0
G4 P0.02
G1 X82.8463 Y-246.3779 F12000.0
G1 X82.7788 Y-246.3116
G1 X81.3074 Y-246.2867
G1 X84.4868 Y-246.2858
G1 Z0.0000 F2500.0
G4 P0.02
G0 X79.9805 Y-247.1595 F15000.0
G1 Z11.9000 F2500.0
G4 P0.02
G1 X79.4659 Y-246.5965 F12000.0
G1 X78.4759 Y-246.2154
G1 X77.2963 Y-246.3430
G1 X76.8996 Y-246.5928
G1 X76.7003 Y-246.9283
G1 X76.6568 Y-247.9728
G1 X79.5032 Y-248.6460
G1 X79.7899 Y-249.0006
G1 X79.9560 Y-249.6886
G1 X79.9062 Y-249.9178
G1 X79.6713 Y-250.2707
G1 X78.5665 Y-250.5769
G1 X77.6480 Y-250.3723
G1 X76.8191 Y-249.8993
G1 X76.6340 Y-249.6303
G1 X76.6698 Y-248.0791
G1 Z0.0000 F2500.0
G4 P0.02
G0 X77.5895 Y-250.3782 F15000.0
G1 Z11.9000 F2500.0
G4 P0.02
G1 X76.6767 Y-249.8843 F12000.0
G1 X75.9858 Y-250.7780
G1 X74.3199 Y-250.3528
G1 X74.2297 Y-250.1562
G1 X74.0571 Y-246.5753
G1 X73.9824 Y-246.3352
G1 X71.0141 Y-250.4242
G1 Z0.0000 F2500.0
G4 P0.02
G0 X68.9909 Y-248.2630 F15000.0
G1 Z11.9000 F2500.0
G4 P0.02
G1 X67.1931 Y-250.4677 F12000.0
G1 X66.0126 Y-250.0156
G1 X65.8487 Y-249.5842
G1 X66.1524 Y-248.5760
G1 X66.6639 Y-248.3167
G1 X68.8108 Y-248.2640
G1 X68.9699 Y-248.1809
G1 X68.9909 Y-246.3778
G1 Z0.0000 F2500.0
G4 P0.02
G0 X74.2328 Y-250.2862 F15000.0
G1 Z11.9000 F2500.0
G4 P0.02
G1 X74.2788 Y-250.3782 F12000.0
G1 Z0.0000 F2500.0
G4 P0.02
G0 X159.5018 Y-247.4063 F15000.0
G1 Z11.9000 F2500.0
G4 P0.02
G1 X160.4149 Y-247.6455 F12000.0
G1 X160.5732 Y-247.8130
G1 X160.6670 Y-248.1475
G1 X160.5792 Y-249.1297
G1 X160.3801 Y-249.3768
G1 X160.1692 Y-249.4500
G1 X159.7426 Y-249.3132
G1 X159.5336 Y-249.0289
G1 X159.4923 Y-248.8169
G1 X159.6252 Y-248.3634
G1 X159.7653 Y-248.1862
G1 X159.9691 Y-248.1354
G1 X160.5758 Y-248.2454
G1 X160.5372 Y-247.7475
G1 X160.3982 Y-247.6286
G1 X159.6501 Y-248.2713
G1 X159.6054 Y-249.1759
G1 X159.7777 Y-249.4295
G1 Z0.0000 F2500.0
G4 P0.02
G0 X161.2951 Y-248.7398 F15000.0
G1 Z11.9000 F2500.0
G4 P0.02
G1 X161.3452 Y-249.3081 F12000.0
G1 X161.5441 Y-249.3955
G1 X161.3757 Y-249.3136
G1 X162.0085 Y-249.4489
G1 X162.3072 Y-249.3380
G1 X162.3376 Y-249.0309
G1 X162.2255 Y-248.8996
G1 X161.3650 Y-248.6340
G1 X161.3309 Y-248.3468
G1 X161.5780 Y-248.1258
G1 X162.1333 Y-248.1997
G1 X162.0782 Y-248.6961
G1 X162.0093 Y-248.7476
G1 X161.6170 Y-248.6938
G1 Z0.0000 F2500.0
G4 P0.02
G0 X164.0080 Y-249.2915 F15000.0
G1 Z11.9000 F2500.0
G4 P0.02
G1 X163.9237 Y-248.2618 F12000.0
G1 X163.3715 Y-248.1238
G1 X163.1662 Y-248.1871
G1 X163.0389 Y-248.3740
G1 X162.9349 Y-248.9501
G1 X163.1166 Y-249.3332
G1 X163.2848 Y-249.4341
G1 X163.9443 Y-249.3382
G1 X164.0540 Y-250.0272
G1 Z0.0000 F2500.0
G4 P0.02
G0 X165.2955 Y-249.4295 F15000.0
G1 Z11.9000 F2500.0
G4 P0.02
G1 X165.3963 Y-249.3750 F12000.0
G1 X164.9975 Y-249.4531
G1 X164.7118 Y-249.3158
G1 X164.7808 Y-248.6876
G1 X164.8928 Y-248.7730
G1 X165.0998 Y-248.7480
G1 X165.4041 Y-248.2903
G1 X165.3125 Y-248.1711
G1 X164.9843 Y-248.1281
G1 X164.7311 Y-248.4675
G1 X164.9277 Y-248.0960
G1 Z0.0000 F2500.0
G4 P0.02
G0 X166.1232 Y-248.6478 F15000.0
G1 Z11.9000 F2500.0
G4 P0.02
G1 X166.1607 Y-249.3144 F12000.0
G1 X166.9498 Y-249.4362
G1 X167.1402 Y-249.0660
G1 X167.0931 Y-248.9307
G1 X167.1450 Y-249.2017
G1 X166.9265 Y-248.8420
G1 X166.1676 Y-248.6200
G1 X166.1361 Y-248.4215
G1 X166.2449 Y-248.2285
G1 X166.4394 Y-248.1228
G1 X167.0428 Y-248.1880
G1 Z0.0000 F2500.0
G4 P0.02
G0 X168.9741 Y-248.5558 F15000.0
G1 Z11.9000 F2500.0
G4 P0.02
G1 X167.8211 Y-248.3453 F12000.0
G1 X167.7263 Y-247.8202
G1 X168.9220 Y-247.5416
G1 X168.9822 Y-247.7156
G1 X169.0200 Y-249.3835
G1 Z0.0000 F2500.0
G4 P0.02
G0 X152.8763 Y-247.3622 F15000.0
G1 Z11.9000 F2500.0
G4 P0.02
G1 X152.7857 Y-248.1774 F12000.0
G1 X152.1681 Y-248.4828
G1 X151.6099 Y-248.4625
G1 X151.5428 Y-249.1063
G1 X151.5155 Y-247.4283
G1 X150.9472 Y-247.9396
G1 X150.4295 Y-248.9533
G1 X150.2258 Y-248.7786
G1 X150.2206 Y-248.8348
G1 X149.9079 Y-247.9942
G1 X149.8422 Y-248.1000
G1 X149.3617 Y-248.3084
G1 X149.3114 Y-249.1628
G1 X148.5441 Y-249.0103
G1 X148.0223 Y-249.1506
G1 X148.1102 Y-248.2215
G1 X148.3160 Y-248.3741
G1 X148.6905 Y-249.0453
G1 X149.2785 Y-248.1986
G1 X148.3192 Y-248.2545
G1 X147.3452 Y-248.0134
G1 X147.2038 Y-248.9561
G1 X146.3896 Y-248.2169
G1 X146.3009 Y-249.2015
G1 Z0.0000 F2500.0
G4 P0.02
G0 X145.7491 Y-247.9600 F15000.0
G1 Z11.9000 F2500.0
G4 P0.02
G1 X145.6315 Y-248.5259 F12000.0
G1 X145.3426 Y-248.6692
G1 X144.7890 Y-248.7055
G1 X144.7375 Y-249.0989
G1 X144.7006 Y-248.0258
G1 X144.0834 Y-248.4752
G1 X143.1441 Y-248.1633
G1 X143.7307 Y-247.9497
G1 X144.0696 Y-248.2241
G1 X144.1246 Y-248.5694
G1 X144.0032 Y-249.0152
G1 X143.6390 Y-249.2236
G1 X143.1879 Y-249.0992
G1 X142.4289 Y-248.5357
G1 X141.6227 Y-248.4727
G1 X141.5216 Y-248.1886
G1 X141.7072 Y-247.9610
G1 X142.3998 Y-248.5339
G1 X141.8825 Y-249.1201
G1 X141.6929 Y-249.2099
G1 X141.5531 Y-249.0917
G1 X141.5149 Y-248.7088
G1 X141.6031 Y-248.6130
G1 X141.5000 Y-249.0852
G1 X141.5647 Y-249.2015
G1 Z0.0000 F2500.0
G4 P0.02
G0 X150.2553 Y-248.9256 F15000.0
G1 Z11.9000 F2500.0
G4 P0.02
G1 X150.4009 Y-249.0622 F12000.0
G1 X150.4244 Y-249.3918
G1 X150.4034 Y-249.1541
G1 X150.5084 Y-249.6081
G1 X150.8071 Y-249.8453
G1 Z0.0000 F2500.0
G4 P0.02
G0 X167.9101 Y-251.8903 F15000.0
G1 Z11.9000 F2500.0
G4 P0.02
G1 X168.0090 Y-250.1424 F12000.0
G1 X169.2896 Y-251.8903
G1 Z0.0000 F2500.0
G4 P0.02
G0 X167.1744 Y-251.7524 F15000.0
G1 Z11.9000 F2500.0
G4 P0.02
G1 X166.6088 Y-251.9060 F12000.0
G1 X166.2739 Y-251.7174
G1 X166.1853 Y-251.5170
G1 X166.2807 Y-250.8199
G1 X166.4330 Y-250.6592
G1 X166.8863 Y-250.6599
G1 X167.1506 Y-250.8430
G1 X167.2204 Y-252.4881
G1 Z0.0000 F2500.0
G4 P0.02
G0 X164.8753 Y-250.6028 F15000.0
G1 Z11.9000 F2500.0
G4 P0.02
G1 X165.4273 Y-250.7419 F12000.0
G1 X165.6327 Y-251.3371
G1 X165.5217 Y-251.6689
G1 X165.3770 Y-251.8314
G1 X165.0502 Y-251.9060
G1 X164.6612 Y-251.7665
G1 X164.7030 Y-251.8343
G1 X164.5321 Y-251.4619
G1 X164.6873 Y-250.7784
G1 X164.8038 Y-250.6521
G1 X164.0178 Y-251.1519
G1 X163.1122 Y-251.3435
G1 X162.9928 Y-251.6512
G1 X162.9970 Y-251.5631
G1 X163.0256 Y-251.7883
G1 X163.2951 Y-251.8786
G1 X163.8228 Y-251.4142
G1 X163.9173 Y-251.2368
G1 X163.2368 Y-250.6539
G1 X163.1513 Y-250.6749
G1 X163.0643 Y-250.8684
G1 X163.0820 Y-251.8903
G1 Z0.0000 F2500.0
G4 P0.02
G0 X153.6152 Y-251.8804 F15000.0
G1 Z11.9000 F2500.0
G4 P0.02
G1 X152.1304 Y-253.8551 F12000.0
G1 X151.3704 Y-254.5907
G1 X151.1671 Y-254.5590
G1 X150.9126 Y-254.0546
G1 X150.8957 Y-253.7528
G1 X150.6890 Y-253.5362
G1 X150.2719 Y-252.5594
G1 X150.0860 Y-252.4807
G1 X149.2415 Y-252.4843
G1 X149.4779 Y-252.5141
G1 X149.1437 Y-252.5164
G1 X149.0177 Y-252.6829
G1 X148.9692 Y-253.0160
G1 X149.0693 Y-253.1834
G1 X149.2364 Y-253.2139
G1 X148.9827 Y-253.3301
G1 X148.8704 Y-253.7691
G1 X149.0129 Y-253.9178
G1 X149.3519 Y-254.0093
G1 X149.7028 Y-253.8426
G1 X149.6148 Y-253.9496
G1 Z0.0000 F2500.0
G4 P0.02
G0 X150.9483 Y-253.7197 F15000.0
G1 Z11.9000 F2500.0
G4 P0.02
G1 X151.4541 Y-252.5242 F12000.0
G1 Z0.0000 F2500.0
G4 P0.02
G0 X153.6612 Y-251.9724 F15000.0
G1 Z11.9000 F2500.0
G4 P0.02
G1 X153.6612 Y-253.9496 F12000.0
G1 Z0.0000 F2500.0
G4 P0.02
G0 X148.0974 Y-252.5701 F15000.0
G1 Z11.9000 F2500.0
G4 P0.02
G1 X148.1371 Y-252.6272 F12000.0
G1 X147.9742 Y-252.5318
G1 X147.5089 Y-252.4981
G1 X147.3041 Y-252.5916
G1 X147.1848 Y-252.7679
G1 X147.1694 Y-253.0973
G1 X148.2623 Y-253.7217
G1 X148.2084 Y-253.8843
G1 X147.7700 Y-254.0195
G1 X147.1702 Y-253.8023
G1 X147.1132 Y-253.2186
G1 X145.3843 Y-253.1776
G1 X145.2941 Y-252.6721
G1 X145.2573 Y-253.8482
G1 X144.6811 Y-253.5612
G1 X144.5893 Y-252.8713
G1 X144.3637 Y-252.5796
G1 X143.8031 Y-252.5307
G1 X143.5546 Y-252.7531
G1 X143.4536 Y-252.9589
G1 X143.4267 Y-253.4310
G1 X143.5613 Y-253.7350
G1 X144.1920 Y-253.9966
G1 X144.3951 Y-253.8976
G1 X144.5943 Y-253.6644
G1 Z0.0000 F2500.0
G4 P0.02
G0 X144.4034 Y-253.8837 F15000.0
G1 Z11.9000 F2500.0
G4 P0.02
G1 X143.5998 Y-253.8173 F12000.0
G1 X143.3567 Y-253.5814
G1 X142.7196 Y-253.2821
G1 X141.8230 Y-253.4359
G1 X141.8530 Y-253.6138
G1 X142.1063 Y-253.9274
G1 X142.7710 Y-253.3063
G1 X142.7739 Y-252.7271
G1 X142.7009 Y-252.5641
G1 X141.8400 Y-252.7472
G1 X141.8459 Y-253.2655
G1 X140.9835 Y-252.5843
G1 X141.0109 Y-252.6352
G1 X140.8736 Y-252.5403
G1 X140.5273 Y-252.4929
G1 X140.1129 Y-252.6443
G1 X140.0371 Y-253.0720
G1 X141.1196 Y-253.7047
G1 X141.0990 Y-253.8651
G1 X140.7863 Y-253.9981
G1 X140.4424 Y-253.9810
G1 X140.0293 Y-253.7943
G1 X140.0046 Y-253.2139
G1 Z0.0000 F2500.0
G4 P0.02
G0 X144.5108 Y-252.6621 F15000.0
G1 Z11.9000 F2500.0
G4 P0.02
G1 X144.5568 Y-252.7541 F12000.0
G1 Z0.0000 F2500.0
G4 P0.02
G0 X146.3961 Y-252.5701 F15000.0
G1 Z11.9000 F2500.0
G4 P0.02
G1 X146.3961 Y-253.9496 F12000.0
G1 Z0.0000 F2500.0
G4 P0.02
G0 X168.5882 Y-256.5401 F15000.0
G1 Z11.9000 F2500.0
G4 P0.02
G1 X167.1168 Y-256.5401 F12000.0
G1 Z0.0000 F2500.0
G4 P0.02
G0 X167.9444 Y-256.5401 F15000.0
G1 Z11.9000 F2500.0
G4 P0.02
G1 X167.8985 Y-258.5633 F12000.0
G1 Z0.0000 F2500.0
G4 P0.02
G0 X166.0132 Y-258.5173 F15000.0
G1 Z11.9000 F2500.0
G4 P0.02
G1 X165.9751 Y-257.9621 F12000.0
G1 X165.6492 Y-257.9084
G1 X165.1355 Y-257.2211
G1 X164.3933 Y-257.2331
G1 X164.6446 Y-258.0607
G1 X164.2322 Y-258.6007
G1 X164.0106 Y-258.6357
G1 X163.6933 Y-258.5118
G1 X163.4745 Y-257.9902
G1 X163.7617 Y-257.2300
G1 X164.2659 Y-257.1379
G1 Z0.0000 F2500.0
G4 P0.02
G0 X164.4498 Y-258.5173 F15000.0
G1 Z11.9000 F2500.0
G4 P0.02
G1 X164.2659 Y-258.6093 F12000.0
G1 Z0.0000 F2500.0
G4 P0.02
G0 X165.2315 Y-258.4714 F15000.0
G1 Z11.9000 F2500.0
G4 P0.02
G1 X165.6451 Y-257.9502 F12000.0
G1 X165.9940 Y-257.7436
G1 X166.0132 Y-257.2298
G1 Z0.0000 F2500.0
G4 P0.02
G0 X162.8405 Y-257.2298 F15000.0
G1 Z11.9000 F2500.0
G4 P0.02
G1 X162.8405 Y-258.4787 F12000.0
G1 X162.8125 Y-257.8936
G1 X161.8555 Y-257.8150
G1 X161.7866 Y-257.3155
G1 X161.7534 Y-258.4577
G1 X161.5742 Y-258.5252
G1 X160.7749 Y-258.5269
G1 X160.7713 Y-257.1839
G1 Z0.0000 F2500.0
G4 P0.02
G0 X161.2771 Y-257.1839 F15000.0
G1 Z11.9000 F2500.0
G4 P0.02
G1 X159.7297 Y-257.1932 F12000.0
G1 X159.4596 Y-257.3029
G1 X158.7617 Y-257.2285
G1 X158.9186 Y-257.1678
G1 X159.5507 Y-257.3773
G1 X159.6156 Y-259.1094
G1 X159.5213 Y-258.5188
G1 X158.9778 Y-258.6307
G1 X158.7697 Y-258.5498
G1 X158.5926 Y-258.3301
G1 X158.5399 Y-258.1197
G1 X158.6561 Y-257.3218
G1 Z0.0000 F2500.0
G4 P0.02
G0 X42.5983 Y-258.6636 F15000.0
G1 Z11.9000 F2500.0
G4 P0.02
G1 X42.6601 Y-256.4482 F12000.0
G1 X44.2537 Y-258.7556
G1 Z0.0000 F2500.0
G4 P0.02
G0 X41.6787 Y-258.4797 F15000.0
G1 Z11.9000 F2500.0
G4 P0.02
G1 X41.3888 Y-258.3084 F12000.0
G1 X40.5169 Y-257.2163
G1 X40.3321 Y-257.1775
G1 X39.6648 Y-257.3104
G1 X39.7554 Y-258.1996
G1 X39.4482 Y-258.6705
G1 X39.2436 Y-258.7080
G1 X38.5006 Y-258.4350
G1 X37.4927 Y-258.6276
G1 X37.4053 Y-258.4959
G1 X37.4659 Y-257.1241
G1 X38.0461 Y-257.0543
G1 Z0.0000 F2500.0
G4 P0.02
G0 X38.5979 Y-257.2842 F15000.0
G1 Z11.9000 F2500.0
G4 P0.02
G1 X38.9996 Y-257.0476 F12000.0
G1 X39.5635 Y-257.1922
G1 Z0.0000 F2500.0
G4 P0.02
G0 X40.4831 Y-258.6636 F15000.0
G1 Z11.9000 F2500.0
G4 P0.02
G1 X40.6109 Y-257.4483 F12000.0
G1 X41.1429 Y-257.9855
G1 X41.3039 Y-258.2612
G1 X40.9904 Y-257.7370
G1 Z0.0000 F2500.0
G4 P0.02
G0 X41.2504 Y-258.1789 F15000.0
G1 Z11.9000 F2500.0
G4 P0.02
G1 X41.6561 Y-258.4024 F12000.0
G1 X41.7247 Y-257.1003
G1 Z0.0000 F2500.0
G4 P0.02
G0 X37.4024 Y-257.1003 F15000.0
G1 Z11.9000 F2500.0
G4 P0.02
G1 X36.8046 Y-257.0543 F12000.0
G1 Z0.0000 F2500.0
G4 P0.02
G0 X23.2503 Y-258.6637 F15000.0
G1 Z11.9000 F2500.0
G4 P0.02
G1 X23.3121 Y-256.4483 F12000.0
G1 X24.9056 Y-258.7557
G1 Z0.0000 F2500.0
G4 P0.02
G0 X22.3306 Y-258.4798 F15000.0
G1 Z11.9000 F2500.0
G4 P0.02
G1 X22.0408 Y-258.3085 F12000.0
G1 X21.1688 Y-257.2165
G1 X20.9840 Y-257.1776
G1 X20.3167 Y-257.3105
G1 X20.4074 Y-258.1997
G1 X20.1001 Y-258.6706
G1 X19.8955 Y-258.7081
G1 X19.1525 Y-258.4351
G1 X18.1446 Y-258.6277
G1 X18.0573 Y-258.4960
G1 X18.1179 Y-257.1242
G1 X18.6981 Y-257.0544
G1 Z0.0000 F2500.0
G4 P0.02
G0 X19.2498 Y-257.2843 F15000.0
G1 Z11.9000 F2500.0
G4 P0.02
G1 X19.6515 Y-257.0477 F12000.0
G1 X20.2155 Y-257.1923
G1 Z0.0000 F2500.0
G4 P0.02
G0 X21.1351 Y-258.6637 F15000.0
G1 Z11.9000 F2500.0
G4 P0.02
G1 X21.2628 Y-257.4484 F12000.0
G1 X21.7948 Y-257.9856
G1 X21.9560 Y-258.2613
G1 X21.6425 Y-257.7372
G1 Z0.0000 F2500.0
G4 P0.02
G0 X21.9023 Y-258.1791 F15000.0
G1 Z11.9000 F2500.0
G4 P0.02
G1 X22.3081 Y-258.4026 F12000.0
G1 X22.3766 Y-257.1004
G1 Z0.0000 F2500.0
G4 P0.02
G0 X18.0543 Y-257.1004 F15000.0
G1 Z11.9000 F2500.0
G4 P0.02
G1 X17.4565 Y-257.0544 F12000.0
G1 Z0.0000 F2500.0
G4 P0.02
G0 X15.8472 Y-257.1463 F15000.0
G1 Z11.9000 F2500.0
G4 P0.02
G1 X16.3022 Y-257.0379 F12000.0
G1 X16.7114 Y-257.2345
G1 X16.8746 Y-257.5785
G1 X16.9322 Y-258.1698
G1 X16.8686 Y-258.3879
G1 X16.6599 Y-258.6359
G1 X15.9823 Y-258.7214
G1 X15.7325 Y-258.5745
G1 X15.5588 Y-258.1602
G1 X15.6337 Y-257.3315
G1 X14.8546 Y-257.8048
G1 X13.8216 Y-257.9510
G1 X13.7246 Y-258.1453
G1 X13.7283 Y-258.6012
G1 X13.8240 Y-258.7097
G1 Z0.0000 F2500.0
G4 P0.02
G0 X13.7320 Y-257.2843 F15000.0
G1 Z11.9000 F2500.0
G4 P0.02
G1 X13.8847 Y-257.1551 F12000.0
G1 X13.6923 Y-257.5065
G1 X13.6798 Y-258.5635
G1 X13.8992 Y-258.6872
G1 X14.8007 Y-258.6186
G1 X14.7675 Y-257.1260
G1 X14.5935 Y-257.0671
G1 X13.9619 Y-257.1004
G1 Z0.0000 F2500.0
G4 P0.02
G0 X27.0174 Y-264.4089 F15000.0
G1 Z11.9000 F2500.0
G4 P0.02
G1 X26.0028 Y-262.5333 F12000.0
G1 X25.6938 Y-262.5400
G1 X24.8444 Y-264.3096
G1 X25.0226 Y-265.0820
G1 X25.4080 Y-265.2826
G1 Z0.0000 F2500.0
G4 P0.02
G0 X24.7643 Y-264.1790 F15000.0
G1 Z11.9000 F2500.0
G4 P0.02
G1 X24.6184 Y-263.9891 F12000.0
G1 X24.0285 Y-262.5236
G1 Z0.0000 F2500.0
G4 P0.02
G0 X23.3388 Y-264.4089 F15000.0
G1 Z11.9000 F2500.0
G4 P0.02
G1 X22.0270 Y-262.6390 F12000.0
G1 X21.9594 Y-264.4089
G1 Z0.0000 F2500.0
G4 P0.02
G0 X19.8442 Y-264.3629 F15000.0
G1 Z11.9000 F2500.0
G4 P0.02
G1 X19.7034 Y-264.1158 F12000.0
G1 X19.9044 Y-264.3220
G1 X20.3485 Y-264.4684
G1 X20.8792 Y-264.2641
G1 X21.0872 Y-263.8470
G1 X21.0349 Y-263.0260
G1 X20.7446 Y-262.6681
G1 X20.4308 Y-262.5460
G1 X19.8442 Y-262.6616
G1 Z0.0000 F2500.0
G4 P0.02
G0 X27.9830 Y-264.3629 F15000.0
G1 Z11.9000 F2500.0
G4 P0.02
G1 X28.0548 Y-261.8137 F12000.0
G1 X29.9602 Y-264.3629
G1 Z0.0000 F2500.0
G4 P0.02
G0 X107.7951 Y-264.3555 F15000.0
G1 Z11.9000 F2500.0
G4 P0.02
G1 X108.1912 Y-264.7120 F12000.0
G1 X107.7153 Y-264.3460
G1 X106.9055 Y-264.2057
G1 X106.1278 Y-264.4955
G1 X105.7598 Y-264.9158
G1 X104.7600 Y-265.2736
G1 X103.0590 Y-265.2751
G1 Z0.0000 F2500.0
G4 P0.02
G0 X104.0246 Y-265.2751 F15000.0
G1 Z11.9000 F2500.0
G4 P0.02
G1 X103.9786 Y-267.6662 F12000.0
G1 Z0.0000 F2500.0
G4 P0.02
G0 X105.9559 Y-267.2523 F15000.0
G1 Z11.9000 F2500.0
G4 P0.02
G1 X105.7672 Y-266.8751 F12000.0
G1 X106.0907 Y-267.3519
G1 X106.4458 Y-267.6141
G1 X106.6907 Y-267.6783
G1 X108.4236 Y-266.6705
G1 X108.5487 Y-266.1103
G1 X108.2550 Y-264.7693
G1 Z0.0000 F2500.0
G4 P0.02
G0 X102.1853 Y-265.6889 F15000.0
G1 Z11.9000 F2500.0
G4 P0.02
G1 X102.0544 Y-265.4833 F12000.0
G1 X100.9709 Y-265.2528
G1 X100.4963 Y-265.5230
G1 X100.4215 Y-266.2073
G1 X100.4721 Y-266.2789
G1 X101.8530 Y-266.5735
G1 X102.1592 Y-266.8159
G1 X102.2746 Y-267.0131
G1 X102.2838 Y-267.2363
G1 X101.9528 Y-267.7019
G1 X101.1394 Y-267.6593
G1 X100.8471 Y-267.5667
G1 X100.9898 Y-267.6487
G1 X100.3476 Y-267.6193
G1 X100.3921 Y-266.2867
G1 Z0.0000 F2500.0
G4 P0.02
G0 X99.4264 Y-267.7121 F15000.0
G1 Z11.9000 F2500.0
G4 P0.02
G1 X99.0409 Y-267.5904 F12000.0
G1 X97.2390 Y-265.3518
G1 X97.1733 Y-267.6662
G1 Z0.0000 F2500.0
G4 P0.02
G0 X96.0238 Y-266.3327 F15000.0
G1 Z11.9000 F2500.0
G4 P0.02
G1 X94.4929 Y-266.5914 F12000.0
G1 X94.2813 Y-266.8072
G1 X94.9785 Y-267.6465
G1 X96.0044 Y-266.3903
G1 X96.0238 Y-265.3211
G1 Z0.0000 F2500.0
G4 P0.02
G0 X94.6903 Y-266.4246 F15000.0
G1 Z11.9000 F2500.0
G4 P0.02
G1 X94.4144 Y-266.6086 F12000.0
G1 Z0.0000 F2500.0
G4 P0.02
G0 X88.5446 Y-265.0912 F15000.0
G1 Z11.9000 F2500.0
G4 P0.02
G1 X88.1365 Y-264.5433 F12000.0
G1 X87.5758 Y-264.3842
G1 X86.8827 Y-264.8804
G1 X86.7104 Y-265.5501
G1 X86.6238 Y-266.5377
G1 X86.7562 Y-267.0086
G1 X87.1970 Y-267.6497
G1 X87.8709 Y-267.7383
G1 X88.4389 Y-267.3728
G1 X88.5492 Y-267.0019
G1 X88.6365 Y-265.2751
G1 Z0.0000 F2500.0
G4 P0.02
G0 X88.6365 Y-266.9304 F15000.0
G1 Z11.9000 F2500.0
G4 P0.02
G1 X88.5446 Y-267.1144 F12000.0
G1 Z0.0000 F2500.0
G4 P0.02
G0 X90.3838 Y-267.6662 F15000.0
G1 Z11.9000 F2500.0
G4 P0.02
G1 X90.5214 Y-264.8625 F12000.0
G1 X91.3954 Y-265.2751
G1 Z0.0000 F2500.0
G4 P0.02
G0 X82.0137 Y-264.2175 F15000.0
G1 Z11.9000 F2500.0
G4 P0.02
G1 X84.0369 Y-267.6202 F12000.0
G1 Z0.0000 F2500.0
G4 P0.02
G0 X81.4159 Y-266.7925 F15000.0
G1 Z11.9000 F2500.0
G4 P0.02
G1 X81.0891 Y-267.2773 F12000.0
G1 X80.7722 Y-267.5282
G1 Z0.0000 F2500.0
G4 P0.02
G0 X78.7490 Y-267.2063 F15000.0
G1 Z11.9000 F2500.0
G4 P0.02
G1 X78.6570 Y-267.0224 F12000.0
G1 Z0.0000 F2500.0
G4 P0.02
G0 X77.0476 Y-264.8613 F15000.0
G1 Z11.9000 F2500.0
G4 P0.02
G1 X77.2994 Y-266.1505 F12000.0
G1 X77.1452 Y-266.6994
G1 X75.4020 Y-267.6751
G1 X75.2354 Y-267.6365
G1 X74.6544 Y-267.1493
G1 X74.5152 Y-266.8777
G1 X74.7026 Y-267.2523
G1 Z0.0000 F2500.0
G4 P0.02
G0 X72.4494 Y-267.6202 F15000.0
G1 Z11.9000 F2500.0
G4 P0.02
G1 X72.4851 Y-264.3071 F12000.0
G1 X73.7369 Y-264.2175
G1 Z0.0000 F2500.0
G4 P0.02
G0 X74.5646 Y-264.9072 F15000.0
G1 Z11.9000 F2500.0
G4 P0.02
G1 X74.9200 Y-264.4719 F12000.0
G1 X75.7020 Y-264.1957
G1 X76.5099 Y-264.3641
G1 X77.0016 Y-264.7693
G1 Z0.0000 F2500.0
G4 P0.02
G0 X80.9561 Y-264.4934 F15000.0
G1 Z11.9000 F2500.0
G4 P0.02
G1 X81.2780 Y-267.0684 F12000.0
G1 X81.5538 Y-265.5970
G1 X80.9561 Y-264.4934
G1 X79.8985 Y-264.1715
G1 X78.9329 Y-264.5394
G1 X78.4731 Y-265.2751
G1 X78.3811 Y-266.1947
G1 X78.6570 Y-267.0224
G1 X80.2664 Y-267.7121
G1 X80.7722 Y-267.5282
G1 Z0.0000 F2500.0
G4 P0.02
G0 X81.5079 Y-265.5050 F15000.0
G1 Z11.9000 F2500.0
G4 P0.02
G1 X81.5538 Y-265.5970 F12000.0
G1 Z0.0000 F2500.0
G4 P0.02
G0 X72.4494 Y-264.2635 F15000.0
G1 Z11.9000 F2500.0
G4 P0.02
G1 X71.1620 Y-264.2175 F12000.0
G1 Z0.0000 F2500.0
G4 P0.02
G0 X60.8965 Y-264.4474 F15000.0
G1 Z11.9000 F2500.0
G4 P0.02
G1 X62.2537 Y-264.4845 F12000.0
G1 X62.3627 Y-264.7205
G1 X62.4306 Y-265.6796
G1 X61.4236 Y-265.5893
G1 X60.8597 Y-265.9798
G1 X60.6973 Y-266.3244
G1 X60.6367 Y-266.8166
G1 X60.7030 Y-267.0945
G1 X60.9598 Y-267.5127
G1 X61.9956 Y-267.7327
G1 X62.3162 Y-267.5158
G1 X62.5971 Y-267.1718
G1 X62.3679 Y-267.4822
G1 Z0.0000 F2500.0
G4 P0.02
G0 X59.7010 Y-266.9304 F15000.0
G1 Z11.9000 F2500.0
G4 P0.02
G1 X59.6090 Y-267.1144 F12000.0
G1 Z0.0000 F2500.0
G4 P0.02
G0 X59.7010 Y-265.2751 F15000.0
G1 Z11.9000 F2500.0
G4 P0.02
G1 X59.6162 Y-266.9613 F12000.0
G1 X59.5221 Y-267.3387
G1 X58.9729 Y-267.7313
G1 X58.2188 Y-267.6182
G1 X57.7944 Y-266.9569
G1 X57.6908 Y-266.5778
G1 X57.7694 Y-265.5903
G1 X57.9708 Y-264.8300
G1 X58.5179 Y-264.4163
G1 X58.6943 Y-264.3864
G1 X59.2459 Y-264.5750
G1 X59.6090 Y-265.0912
G1 Z0.0000 F2500.0
G4 P0.02
G0 X56.7581 Y-266.5626 F15000.0
G1 Z11.9000 F2500.0
G4 P0.02
G1 X55.8385 Y-266.5626 F12000.0
G1 Z0.0000 F2500.0
G4 P0.02
G0 X54.8269 Y-267.2063 F15000.0
G1 Z11.9000 F2500.0
G4 P0.02
G1 X54.7349 Y-267.3903 F12000.0
G1 Z0.0000 F2500.0
G4 P0.02
G0 X54.4591 Y-266.1947 F15000.0
G1 Z11.9000 F2500.0
G4 P0.02
G1 X54.4046 Y-266.0648 F12000.0
G1 X54.5941 Y-266.2466
G1 X54.3173 Y-265.9874
G1 Z0.0000 F2500.0
G4 P0.02
G0 X54.5890 Y-266.2454 F15000.0
G1 Z11.9000 F2500.0
G4 P0.02
G1 X54.6999 Y-267.3971 F12000.0
G1 X54.3951 Y-267.5992
G1 X53.5166 Y-267.7369
G1 X52.9771 Y-267.3497
G1 X52.8246 Y-266.9957
G1 X52.8913 Y-266.6100
G1 X53.0249 Y-266.3499
G1 X53.5661 Y-265.9372
G1 X54.2462 Y-265.9005
G1 X54.6313 Y-265.4917
G1 X54.6090 Y-264.8189
G1 X53.9781 Y-264.3819
G1 X53.4216 Y-264.4997
G1 X53.0444 Y-264.9461
G1 X53.0251 Y-265.1214
G1 X53.3155 Y-265.8589
G1 X53.2103 Y-265.7011
G1 X53.3555 Y-266.0108
G1 Z0.0000 F2500.0
G4 P0.02
G0 X51.4242 Y-266.1947 F15000.0
G1 Z11.9000 F2500.0
G4 P0.02
G1 X51.3698 Y-266.0648 F12000.0
G1 X51.5593 Y-266.2466
G1 X51.2825 Y-265.9874
G1 Z0.0000 F2500.0
G4 P0.02
G0 X51.5542 Y-266.2454 F15000.0
G1 Z11.9000 F2500.0
G4 P0.02
G1 X51.6651 Y-267.3971 F12000.0
G1 X51.3603 Y-267.5992
G1 X50.4818 Y-267.7369
G1 X49.9423 Y-267.3497
G1 X49.7898 Y-266.9957
G1 X49.8565 Y-266.6100
G1 X49.9901 Y-266.3499
G1 X50.5313 Y-265.9372
G1 X51.2102 Y-265.9000
G1 X51.5858 Y-265.5412
G1 X51.5914 Y-264.8638
G1 X50.9013 Y-264.3824
G1 X50.4273 Y-264.4709
G1 X49.9921 Y-264.9835
G1 X50.1104 Y-265.5461
G1 X50.3207 Y-266.0108
G1 Z0.0000 F2500.0
G4 P0.02
G0 X51.7921 Y-267.2063 F15000.0
G1 Z11.9000 F2500.0
G4 P0.02
G1 X51.7001 Y-267.3903 F12000.0
G1 Z0.0000 F2500.0
G4 P0.02
G0 X65.5867 Y-267.1144 F15000.0
G1 Z11.9000 F2500.0
G4 P0.02
G1 X65.6786 Y-266.9304 F12000.0
G1 Z0.0000 F2500.0
G4 P0.02
G0 X65.6786 Y-265.2751 F15000.0
G1 Z11.9000 F2500.0
G4 P0.02
G1 X65.5938 Y-266.9613 F12000.0
G1 X65.4997 Y-267.3387
G1 X64.9505 Y-267.7313
G1 X64.1964 Y-267.6182
G1 X63.7720 Y-266.9569
G1 X63.6685 Y-266.5778
G1 X63.7470 Y-265.5903
G1 X63.9484 Y-264.8300
G1 X64.4955 Y-264.4163
G1 X64.6719 Y-264.3864
G1 X65.2236 Y-264.5750
G1 X65.5867 Y-265.0912
G1 Z0.0000 F2500.0
G4 P0.02
G0 X68.4375 Y-265.2751 F15000.0
G1 Z11.9000 F2500.0
G4 P0.02
G1 X67.5681 Y-264.8627 F12000.0
G1 X67.4259 Y-267.6662
G1 Z0.0000 F2500.0
G4 P0.02
G0 X169.2688 Y-265.6426 F15000.0
G1 Z11.9000 F2500.0
G4 P0.02
G1 X169.2688 Y-267.6198 F12000.0
G1 Z0.0000 F2500.0
G4 P0.02
G0 X169.2688 Y-266.5162 F15000.0
G1 Z11.9000 F2500.0
G4 P0.02
G1 X167.8770 Y-266.5168 F12000.0
G1 X167.7987 Y-265.7385
G1 X167.7974 Y-267.6198
G1 Z0.0000 F2500.0
G4 P0.02
G0 X166.1420 Y-267.5738 F15000.0
G1 Z11.9000 F2500.0
G4 P0.02
G1 X166.1065 Y-267.0002 F12000.0
G1 X165.7140 Y-266.7810
G1 X165.3411 Y-266.3316
G1 X165.1424 Y-266.2599
G1 X164.6716 Y-266.3111
G1 X164.4620 Y-266.2411
G1 X164.6152 Y-266.4724
G1 X164.7733 Y-267.1547
G1 X164.3252 Y-267.6703
G1 X163.8812 Y-267.6134
G1 X163.5982 Y-267.1196
G1 X163.7930 Y-266.4429
G1 X164.0222 Y-266.2157
G1 X164.3947 Y-266.1944
G1 Z0.0000 F2500.0
G4 P0.02
G0 X164.5787 Y-267.5738 F15000.0
G1 Z11.9000 F2500.0
G4 P0.02
G1 X164.3947 Y-267.6658 F12000.0
G1 Z0.0000 F2500.0
G4 P0.02
G0 X165.3603 Y-267.5278 F15000.0
G1 Z11.9000 F2500.0
G4 P0.02
G1 X165.7143 Y-266.9735 F12000.0
G1 X165.7257 Y-267.0305
G1 X166.0804 Y-266.8640
G1 X166.1420 Y-266.2863
G1 Z0.0000 F2500.0
G4 P0.02
G0 X162.9693 Y-266.2863 F15000.0
G1 Z11.9000 F2500.0
G4 P0.02
G1 X162.9693 Y-267.5352 F12000.0
G1 X162.9413 Y-266.9501
G1 X161.9844 Y-266.8715
G1 X161.9155 Y-266.3720
G1 X161.8824 Y-267.5141
G1 X161.7031 Y-267.5816
G1 X160.9037 Y-267.5835
G1 X160.9001 Y-266.2404
G1 Z0.0000 F2500.0
G4 P0.02
G0 X161.4059 Y-266.2404 F15000.0
G1 Z11.9000 F2500.0
G4 P0.02
G1 X159.8585 Y-266.2498 F12000.0
G1 X159.5884 Y-266.3594
G1 X158.8906 Y-266.2850
G1 X159.0475 Y-266.2243
G1 X159.6796 Y-266.4338
G1 X159.7445 Y-268.1659
G1 X159.6501 Y-267.5753
G1 X159.1067 Y-267.6872
G1 X158.8985 Y-267.6063
G1 X158.7214 Y-267.3866
G1 X158.6687 Y-267.1762
G1 X158.7849 Y-266.3783
G1 Z0.0000 F2500.0
G4 P0.02
G0 X28.6773 Y-268.1716 F15000.0
G1 Z11.9000 F2500.0
G4 P0.02
G1 X27.6523 Y-268.2669 F12000.0
G1 X27.5737 Y-271.0225
G1 Z0.0000 F2500.0
G4 P0.02
G0 X25.8724 Y-270.1028 F15000.0
G1 Z11.9000 F2500.0
G4 P0.02
G1 X25.0470 Y-270.1435 F12000.0
G1 X24.3354 Y-270.5737
G1 X23.9576 Y-270.9984
G1 X23.4122 Y-271.1448
G1 X22.8886 Y-270.9426
G1 X22.8000 Y-270.8320
G1 X23.1097 Y-271.0708
G1 X22.6633 Y-270.5958
G1 X22.6248 Y-269.8992
G1 X22.8611 Y-269.4954
G1 X23.1567 Y-269.3139
G1 X24.0771 Y-269.3798
G1 X24.1382 Y-269.3228
G1 X24.0285 Y-268.5188
G1 X23.9072 Y-268.2426
G1 X22.6685 Y-268.2566
G1 X21.5545 Y-268.9880
G1 X20.7711 Y-268.5421
G1 X20.6529 Y-268.2960
G1 X20.7188 Y-268.6714
G1 X20.6765 Y-271.0225
G1 Z0.0000 F2500.0
G4 P0.02
G0 X18.6533 Y-271.1144 F15000.0
G1 Z11.9000 F2500.0
G4 P0.02
G1 X19.0080 Y-270.8669 F12000.0
G1 Z0.0000 F2500.0
G4 P0.02
G0 X18.6395 Y-271.1046 F15000.0
G1 Z11.9000 F2500.0
G4 P0.02
G1 X18.4136 Y-271.1435 F12000.0
G1 X18.0791 Y-271.0528
G1 X17.6720 Y-270.6407
G1 X17.5394 Y-270.3093
G1 X17.5037 Y-269.7388
G1 X17.5895 Y-270.5535
G1 X16.6824 Y-270.1163
G1 X15.8755 Y-270.0335
G1 X14.8141 Y-269.0806
G1 X14.6109 Y-269.0386
G1 X14.1565 Y-269.1653
G1 X14.0080 Y-269.3179
G1 X13.9479 Y-269.5384
G1 X14.1142 Y-269.9553
G1 X14.2504 Y-270.0474
G1 X14.4722 Y-270.0496
G1 X14.1908 Y-270.0506
G1 X13.9313 Y-270.3973
G1 X13.9765 Y-270.9452
G1 X14.3244 Y-271.1270
G1 X14.7835 Y-271.0939
G1 X15.1633 Y-270.7707
G1 X15.0084 Y-270.9971
G1 X14.7908 Y-271.1144
G1 Z0.0000 F2500.0
G4 P0.02
G0 X18.7912 Y-269.9189 F15000.0
G1 Z11.9000 F2500.0
G4 P0.02
G1 X19.0211 Y-269.6890 F12000.0
G1 Z0.0000 F2500.0
G4 P0.02
G0 X19.1131 Y-268.6314 F15000.0
G1 Z11.9000 F2500.0
G4 P0.02
G1 X18.8566 Y-268.3593 F12000.0
G1 X19.1142 Y-268.7010
G1 X19.1811 Y-269.2612
G1 X18.7977 Y-269.8355
G1 X18.2499 Y-269.9867
G1 X17.5372 Y-269.5849
G1 X17.6490 Y-268.6564
G1 X17.9206 Y-268.3299
G1 X18.6993 Y-268.2176
G1 Z0.0000 F2500.0
G4 P0.02
G0 X26.5162 Y-268.1716 F15000.0
G1 Z11.9000 F2500.0
G4 P0.02
G1 X27.5737 Y-268.2176 F12000.0
G1 Z0.0000 F2500.0
G4 P0.02
G0 X29.5510 Y-271.0225 F15000.0
G1 Z11.9000 F2500.0
G4 P0.02
G1 X31.0908 Y-268.2515 F12000.0
G1 X31.3748 Y-270.8837
G1 X31.4645 Y-271.0585
G1 X31.6661 Y-271.1144
G1 Z0.0000 F2500.0
G4 P0.02
G0 X169.0325 Y-268.3702 F15000.0
G1 Z11.9000 F2500.0
G4 P0.02
G1 X168.2285 Y-269.7908 F12000.0
G1 X168.2412 Y-270.0314
G1 X168.1863 Y-269.7537
G1 X168.0837 Y-269.6515
G1 X168.3911 Y-270.3213
G1 X168.7326 Y-270.3938
G1 X168.0526 Y-269.6328
G1 X167.4108 Y-268.4456
G1 X167.0380 Y-268.9787
G1 X165.9517 Y-269.0140
G1 Z0.0000 F2500.0
G4 P0.02
G0 X166.5494 Y-269.0140 F15000.0
G1 Z11.9000 F2500.0
G4 P0.02
G1 X166.4390 Y-270.3286 F12000.0
G1 X165.3435 Y-269.6801
G1 X164.5373 Y-269.6971
G1 X164.4026 Y-269.7849
G1 X164.3772 Y-269.2775
G1 X164.4735 Y-269.5991
G1 X164.3490 Y-269.9725
G1 X164.6543 Y-270.3701
G1 X165.3188 Y-269.7450
G1 X165.2822 Y-269.0791
G1 X164.3883 Y-269.1979
G1 Z0.0000 F2500.0
G4 P0.02

G0 Z0.0000 F800.0
G4 P0.06
G0 X0.0000 Y0.0000 F15000.0
M5
G4 P0.10
$1=0
