$X
$1=255
G21
G90
G92 Z4.0000
G0 Z0.0000 F800.0
G4 P0.06
G92 Z0.0000
G0 Z0.0000 F800.0
G0 X0.0000 Y0.0000 F15000.0
G21
G90
G17
G91.1
G0 Z0.0000
G0 X0.0000 Y-5.0000 F15000.0
G1 Z11.9000 F8000.0
G1 X180.0000 Y-5.0000 F12000.0
G1 X180.0000 Y-285.0000
G1 X0.0000 Y-285.0000
G1 X0.0000 Y-5.0000
G1 Z0.0000 F8000.0
G0 X91.7152 Y-103.9640 F15000.0
G1 Z11.9000 F8000.0
G1 X93.1747 Y-108.0329 F12000.0
G1 X93.4400 Y-108.3867
G1 Z0.0000 F8000.0
G0 X93.1304 Y-108.0771 F15000.0
G1 Z11.9000 F8000.0
G1 X92.8208 Y-107.9887 F12000.0
G1 Z0.0000 F8000.0
G0 X92.0690 Y-107.5022 F15000.0
G1 Z11.9000 F8000.0
G1 X91.8921 Y-107.3252 F12000.0
G1 Z0.0000 F8000.0
G0 X94.3688 Y-106.3523 F15000.0
G1 Z11.9000 F8000.0
G1 X94.6784 Y-106.3523 F12000.0
G1 X94.9437 Y-105.5119
G1 X94.8995 Y-105.4235
G1 Z0.0000 F8000.0
G0 X94.7668 Y-105.1139 F15000.0
G1 Z11.9000 F8000.0
G1 X94.5015 Y-104.4947 F12000.0
G1 X94.2361 Y-104.2294
G1 X93.7054 Y-103.9640
G1 X92.5113 Y-103.8313
G1 Z0.0000 F8000.0
G0 X94.7668 Y-106.4407 F15000.0
G1 Z11.9000 F8000.0
G1 X95.2975 Y-107.1926 F12000.0
G1 X95.5629 Y-108.0329
G1 X95.4745 Y-108.2098
G1 Z0.0000 F8000.0
G0 X95.2975 Y-108.3425 F15000.0
G1 Z11.9000 F8000.0
G1 X94.3688 Y-108.4309 F12000.0
G1 Z0.0000 F8000.0
G0 X97.7849 Y-112.1304 F15000.0
G1 Z11.9000 F8000.0
G1 X97.7849 Y-131.1602 F12000.0
G1 X97.7849 Y-149.6957 F12000.0
G1 X82.2151 Y-149.6957 F12000.0
G1 X62.3616 Y-149.6957 F12000.0
G1 Z0.0000 F8000.0
G0 X64.2563 Y-149.6957 F15000.0
G1 Z11.9000 F8000.0
G1 X63.5973 Y-154.5561 F12000.0
G1 X64.2563 Y-154.0618 F12000.0
G1 X64.9153 Y-154.5561 F12000.0
G1 X64.2563 Y-149.6957 F12000.0
G1 X64.2563 Y-202.2540 F12000.0
G1 X64.9153 Y-197.3112 F12000.0
G1 X64.2563 Y-197.8055 F12000.0
G1 X63.5973 Y-197.3112 F12000.0
G1 X64.2563 Y-202.2540 F12000.0
G1 Z0.0000 F8000.0
G0 X62.3616 Y-202.2540 F15000.0
G1 Z11.9000 F8000.0
G1 X82.2151 Y-202.2540 F12000.0
G1 X91.9359 Y-202.2540 F12000.0
G1 Z0.0000 F8000.0
G0 X82.2151 Y-202.2540 F15000.0
G1 Z11.9000 F8000.0
G1 X82.2151 Y-175.9748 F12000.0
G1 X82.2151 Y-99.3616 F12000.0
G1 Z0.0000 F8000.0
G0 X82.2151 Y-101.2563 F15000.0
G1 Z11.9000 F8000.0
G1 X87.0755 Y-101.9153 F12000.0
G1 X86.5812 Y-101.2563 F12000.0
G1 X87.0755 Y-100.5973 F12000.0
G1 X82.2151 Y-101.2563 F12000.0
G1 X107.5057 Y-101.2563 F12000.0
G1 X102.6453 Y-100.5973 F12000.0
G1 X103.1396 Y-101.2563 F12000.0
G1 X102.6453 Y-101.9153 F12000.0
G1 X107.5057 Y-101.2563 F12000.0
G1 Z0.0000 F8000.0
G0 X107.5057 Y-99.3616 F15000.0
G1 Z11.9000 F8000.0
G1 X107.5057 Y-175.9748 F12000.0
G1 X107.5057 Y-227.5446 F12000.0
G1 X91.9359 Y-227.5446 F12000.0
G1 X91.9359 Y-175.9748 F12000.0
G1 Z0.0000 F8000.0
G0 X92.6773 Y-175.9748 F15000.0
G1 Z11.9000 F8000.0
G1 X80.5675 Y-175.9748 F12000.0
G1 Z0.0000 F8000.0
G0 X76.9428 Y-173.0091 F15000.0
G1 Z11.9000 F8000.0
G1 X76.3661 Y-172.5149 F12000.0
G1 X75.7071 Y-173.0091 F12000.0
G1 X76.3661 Y-168.1487 F12000.0
G1 X76.9428 Y-173.0091 F12000.0
G1 Z0.0000 F8000.0
G0 X76.0778 Y-171.3463 F15000.0
G1 Z11.9000 F8000.0
G1 X76.0778 Y-170.4706 F12000.0
G1 Z0.0000 F8000.0
G0 X76.6545 Y-170.1823 F15000.0
G1 Z11.9000 F8000.0
G1 X76.6545 Y-171.0580 F12000.0
G1 Z0.0000 F8000.0
G0 X76.3661 Y-168.1487 F15000.0
G1 Z11.9000 F8000.0
G1 X76.3661 Y-189.0732 F12000.0
G1 Z0.0000 F8000.0
G0 X73.3280 Y-179.7693 F15000.0
G1 Z11.9000 F8000.0
G1 X73.0626 Y-180.0347 F12000.0
G1 X72.4877 Y-180.3000
G1 X71.3820 Y-180.3443
G1 X71.1609 Y-180.2116
G1 X71.0724 Y-180.3000
G1 Z0.0000 F8000.0
G0 X71.0282 Y-179.1944 F15000.0
G1 Z11.9000 F8000.0
G1 X70.0994 Y-179.2386 F12000.0
G1 Z0.0000 F8000.0
G0 X69.5687 Y-179.5924 F15000.0
G1 Z11.9000 F8000.0
G1 X69.4802 Y-179.6809 F12000.0
G1 Z0.0000 F8000.0
G0 X69.2591 Y-179.9904 F15000.0
G1 Z11.9000 F8000.0
G1 X69.1706 Y-180.7423 F12000.0
G1 X69.8783 Y-181.0519
G1 X70.8955 Y-180.5212
G1 X71.0282 Y-180.3443
G1 X71.1609 Y-179.2828
G1 X71.4704 Y-178.8405
G1 Z0.0000 F8000.0
G0 X71.7358 Y-178.5752 F15000.0
G1 Z11.9000 F8000.0
G1 X71.8243 Y-178.4867 F12000.0
G1 X73.2395 Y-178.0445
G1 X73.3722 Y-178.1329
G1 Z0.0000 F8000.0
G0 X73.4606 Y-178.2214 F15000.0
G1 Z11.9000 F8000.0
G1 X73.6376 Y-179.0175 F12000.0
G1 X73.5491 Y-179.4155
G1 Z0.0000 F8000.0
G0 X71.8243 Y-177.6022 F15000.0
G1 Z11.9000 F8000.0
G1 X72.0454 Y-177.3811 F12000.0
G1 Z0.0000 F8000.0
G0 X72.2223 Y-177.1599 F15000.0
G1 Z11.9000 F8000.0
G1 X72.4434 Y-176.8061 F12000.0
G1 X72.5761 Y-175.8773
G1 X72.3107 Y-175.9658
G1 Z0.0000 F8000.0
G0 X72.9299 Y-175.5235 F15000.0
G1 Z11.9000 F8000.0
G1 X72.4877 Y-175.6562 F12000.0
G1 X72.3550 Y-175.5235
G1 X71.4704 Y-175.3908
G1 X70.7628 Y-175.7447
G1 X70.5417 Y-176.0100
G1 Z0.0000 F8000.0
G0 X70.3648 Y-176.3196 F15000.0
G1 Z11.9000 F8000.0
G1 X70.1879 Y-177.2926 F12000.0
G1 X71.3820 Y-176.5850
G1 Z0.0000 F8000.0
G0 X71.5589 Y-177.7349 F15000.0
G1 Z11.9000 F8000.0
G1 X71.0282 Y-177.9118 F12000.0
G1 X70.3648 Y-177.6464
G1 X70.1879 Y-177.4695
G1 X69.7014 Y-177.7349
G1 Z0.0000 F8000.0
G0 X73.2837 Y-175.3024 F15000.0
G1 Z11.9000 F8000.0
G1 X73.3722 Y-175.2139 F12000.0
G1 Z0.0000 F8000.0
G0 X74.3890 Y-168.1487 F15000.0
G1 Z11.9000 F8000.0
G1 X82.2151 Y-168.1487 F12000.0
G1 X107.5057 Y-168.1487 F12000.0
G1 Z0.0000 F8000.0
G0 X106.9291 Y-168.1487 F15000.0
G1 Z11.9000 F8000.0
G1 X88.3936 Y-149.6957 F12000.0
G1 Z0.0000 F8000.0
G0 X85.6751 Y-149.6957 F15000.0
G1 Z11.9000 F8000.0
G1 X104.1281 Y-168.1487 F12000.0
G1 Z0.0000 F8000.0
G0 X101.4096 Y-168.1487 F15000.0
G1 Z11.9000 F8000.0
G1 X82.8741 Y-149.6957 F12000.0
G1 Z0.0000 F8000.0
G0 X82.2151 Y-151.6728 F15000.0
G1 Z11.9000 F8000.0
G1 X98.6087 Y-168.1487 F12000.0
G1 Z0.0000 F8000.0
G0 X95.8902 Y-168.1487 F15000.0
G1 Z11.9000 F8000.0
G1 X82.2151 Y-154.4737 F12000.0
G1 Z0.0000 F8000.0
G0 X82.2151 Y-157.1922 F15000.0
G1 Z11.9000 F8000.0
G1 X93.1716 Y-168.1487 F12000.0
G1 Z0.0000 F8000.0
G0 X90.3707 Y-168.1487 F15000.0
G1 Z11.9000 F8000.0
G1 X82.2151 Y-159.9931 F12000.0
G1 Z0.0000 F8000.0
G0 X82.2151 Y-162.7117 F15000.0
G1 Z11.9000 F8000.0
G1 X87.6522 Y-168.1487 F12000.0
G1 Z0.0000 F8000.0
G0 X84.8513 Y-168.1487 F15000.0
G1 Z11.9000 F8000.0
G1 X82.2151 Y-165.4302 F12000.0
G1 Z0.0000 F8000.0
G0 X94.0778 Y-175.9748 F15000.0
G1 Z11.9000 F8000.0
G1 X95.5606 Y-175.9748 F12000.0
G1 Z0.0000 F8000.0
G0 X97.0435 Y-175.9748 F15000.0
G1 Z11.9000 F8000.0
G1 X109.1533 Y-175.9748 F12000.0
G1 Z0.0000 F8000.0
G0 X107.5057 Y-166.0069 F15000.0
G1 Z11.9000 F8000.0
G1 X91.1945 Y-149.6957 F12000.0
G1 Z0.0000 F8000.0
G0 X91.9359 Y-149.6957 F15000.0
G1 Z11.9000 F8000.0
G1 X91.9359 Y-131.1602 F12000.0
G1 X97.7849 Y-131.1602 F12000.0
G1 Z0.0000 F8000.0
G0 X97.4554 Y-131.1602 F15000.0
G1 Z11.9000 F8000.0
G1 X91.9359 Y-125.6407 F12000.0
G1 Z0.0000 F8000.0
G0 X91.9359 Y-124.4050 F15000.0
G1 Z11.9000 F8000.0
G1 X91.9359 Y-131.1602 F12000.0
G1 X48.8513 Y-131.1602 F12000.0
G1 Z0.0000 F8000.0
G0 X50.7460 Y-131.1602 F15000.0
G1 Z11.9000 F8000.0
G1 X50.1693 Y-136.0206 F12000.0
G1 X50.7460 Y-135.5263 F12000.0
G1 X51.4050 Y-136.0206 F12000.0
G1 X50.7460 Y-131.1602 F12000.0
G1 X50.7460 Y-175.9748 F12000.0
G1 X50.7460 Y-196.0755 F12000.0
G1 Z0.0000 F8000.0
G0 X47.8698 Y-190.4275 F15000.0
G1 Z11.9000 F8000.0
G1 X47.3833 Y-190.8698 F12000.0
G1 X46.4546 Y-191.2236
G1 X46.0565 Y-191.2678
G1 Z0.0000 F8000.0
G0 X45.8796 Y-191.1794 F15000.0
G1 Z11.9000 F8000.0
G1 X45.5700 Y-189.5430 F12000.0
G1 X44.7740 Y-189.9852
G1 Z0.0000 F8000.0
G0 X44.0663 Y-190.6929 F15000.0
G1 Z11.9000 F8000.0
G1 X43.9336 Y-190.8698 F12000.0
G1 Z0.0000 F8000.0
G0 X43.7567 Y-191.2236 F15000.0
G1 Z11.9000 F8000.0
G1 X43.6241 Y-191.5332 F12000.0
G1 Z0.0000 F8000.0
G0 X45.7912 Y-189.3661 F15000.0
G1 Z11.9000 F8000.0
G1 X47.6929 Y-188.8353 F12000.0
G1 X47.9141 Y-188.9680
G1 Z0.0000 F8000.0
G0 X48.0025 Y-189.1007 F15000.0
G1 Z11.9000 F8000.0
G1 X47.9583 Y-190.2506 F12000.0
G1 Z0.0000 F8000.0
G0 X47.0477 Y-187.9465 F15000.0
G1 Z11.9000 F8000.0
G1 X47.0477 Y-187.5042 F12000.0
G1 Z0.0000 F8000.0
G0 X47.0477 Y-187.2831 F15000.0
G1 Z11.9000 F8000.0
G1 X47.0034 Y-187.4600 F12000.0
G1 X45.9862 Y-187.7696
G1 Z0.0000 F8000.0
G0 X43.8633 Y-187.7696 F15000.0
G1 Z11.9000 F8000.0
G1 X46.4285 Y-186.3101 F12000.0
G1 X46.9592 Y-186.1332
G1 X47.0477 Y-187.1946
G1 X47.7553 Y-187.0620
G1 X48.0649 Y-186.9293
G1 Z0.0000 F8000.0
G0 X46.4727 Y-185.2044 F15000.0
G1 Z11.9000 F8000.0
G1 X46.2516 Y-185.4256 F12000.0
G1 Z0.0000 F8000.0
G0 X45.9862 Y-185.5583 F15000.0
G1 Z11.9000 F8000.0
G1 X45.0575 Y-185.6025 F12000.0
G1 X44.7921 Y-185.4256
G1 Z0.0000 F8000.0
G0 X44.6152 Y-185.0718 F15000.0
G1 Z11.9000 F8000.0
G1 X44.6152 Y-184.5410 F12000.0
G1 X44.7921 Y-184.1430
G1 Z0.0000 F8000.0
G0 X44.9690 Y-183.8334 F15000.0
G1 Z11.9000 F8000.0
G1 X45.3228 Y-183.4796 F12000.0
G1 Z0.0000 F8000.0
G0 X45.5882 Y-183.3027 F15000.0
G1 Z11.9000 F8000.0
G1 X46.4727 Y-183.1258 F12000.0
G1 Z0.0000 F8000.0
G0 X46.8265 Y-183.3469 F15000.0
G1 Z11.9000 F8000.0
G1 X46.9150 Y-183.4354 F12000.0
G1 X47.4015 Y-183.3027
G1 Z0.0000 F8000.0
G0 X47.9322 Y-182.9489 F15000.0
G1 Z11.9000 F8000.0
G1 X48.0649 Y-182.8604 F12000.0
G1 Z0.0000 F8000.0
G0 X46.7823 Y-183.7450 F15000.0
G1 Z11.9000 F8000.0
G1 X47.0034 Y-183.7007 F12000.0
G1 X46.6496 Y-184.9833
G1 Z0.0000 F8000.0
G0 X46.4285 Y-183.9661 F15000.0
G1 Z11.9000 F8000.0
G1 X44.2172 Y-185.4698 F12000.0
G1 Z0.0000 F8000.0
G0 X43.8633 Y-185.6909 F15000.0
G1 Z11.9000 F8000.0
G1 X43.5538 Y-185.9121 F12000.0
G1 Z0.0000 F8000.0
G0 X57.3709 Y-177.0629 F15000.0
G1 Z11.9000 F8000.0
G1 X57.0613 Y-179.0973 F12000.0
G1 X58.6977 Y-178.3013
G1 Z0.0000 F8000.0
G0 X59.6707 Y-177.7263 F15000.0
G1 Z11.9000 F8000.0
G1 X61.6167 Y-176.5322 F12000.0
G1 X61.5725 Y-176.5764
G1 Z0.0000 F8000.0
G0 X61.5725 Y-174.4978 F15000.0
G1 Z11.9000 F8000.0
G1 X61.4840 Y-172.8614 F12000.0
G1 X58.1670 Y-175.9130
G1 X57.6363 Y-176.0015
G1 Z0.0000 F8000.0
G0 X57.3709 Y-175.8688 F15000.0
G1 Z11.9000 F8000.0
G1 X57.2825 Y-175.7803 F12000.0
G1 Z0.0000 F8000.0
G0 X57.1056 Y-175.5150 F15000.0
G1 Z11.9000 F8000.0
G1 X57.1498 Y-174.8516 F12000.0
G1 X57.5478 Y-174.1882
G1 Z0.0000 F8000.0
G0 X57.2825 Y-172.7729 F15000.0
G1 Z11.9000 F8000.0
G1 X58.8304 Y-171.7115 F12000.0
G1 Z0.0000 F8000.0
G0 X59.3169 Y-171.4019 F15000.0
G1 Z11.9000 F8000.0
G1 X61.4398 Y-169.9424 F12000.0
G1 Z0.0000 F8000.0
G0 X60.5110 Y-170.6942 F15000.0
G1 Z11.9000 F8000.0
G1 X60.1572 Y-171.9768 F12000.0
G1 Z0.0000 F8000.0
G0 X59.9803 Y-172.1980 F15000.0
G1 Z11.9000 F8000.0
G1 X59.7592 Y-172.4191 F12000.0
G1 Z0.0000 F8000.0
G0 X59.4938 Y-172.5518 F15000.0
G1 Z11.9000 F8000.0
G1 X58.4324 Y-172.5518 F12000.0
G1 X58.3439 Y-172.4633
G1 Z0.0000 F8000.0
G0 X58.1228 Y-172.1095 F15000.0
G1 Z11.9000 F8000.0
G1 X58.2997 Y-171.1365 F12000.0
G1 Z0.0000 F8000.0
G0 X58.4766 Y-170.8269 F15000.0
G1 Z11.9000 F8000.0
G1 X58.6977 Y-170.5616 F12000.0
G1 X59.5380 Y-170.1635
G1 X60.1130 Y-170.2077
G1 Z0.0000 F8000.0
G0 X61.5725 Y-172.6844 F15000.0
G1 Z11.9000 F8000.0
G1 X61.5282 Y-172.8171 F12000.0
G1 Z0.0000 F8000.0
G0 X63.9680 Y-152.8932 F15000.0
G1 Z11.9000 F8000.0
G1 X63.9680 Y-152.0175 F12000.0
G1 Z0.0000 F8000.0
G0 X64.5858 Y-151.7292 F15000.0
G1 Z11.9000 F8000.0
G1 X64.5858 Y-152.6049 F12000.0
G1 Z0.0000 F8000.0
G0 X51.0755 Y-134.0694 F15000.0
G1 Z11.9000 F8000.0
G1 X51.0755 Y-133.1937 F12000.0
G1 Z0.0000 F8000.0
G0 X50.4989 Y-133.5233 F15000.0
G1 Z11.9000 F8000.0
G1 X50.4989 Y-134.3989 F12000.0
G1 Z0.0000 F8000.0
G0 X82.2151 Y-114.0252 F15000.0
G1 Z11.9000 F8000.0
G1 X87.0755 Y-114.6842 F12000.0
G1 X86.5812 Y-114.0252 F12000.0
G1 X87.0755 Y-113.4485 F12000.0
G1 X82.2151 Y-114.0252 F12000.0
G1 X97.7849 Y-114.0252 F12000.0
G1 X92.9245 Y-113.4485 F12000.0
G1 X93.4188 Y-114.0252 F12000.0
G1 X92.9245 Y-114.6842 F12000.0
G1 X97.7849 Y-114.0252 F12000.0
G1 Z0.0000 F8000.0
G0 X95.8337 Y-113.7780 F15000.0
G1 Z11.9000 F8000.0
G1 X94.9580 Y-113.7780 F12000.0
G1 Z0.0000 F8000.0
G0 X94.6697 Y-114.3547 F15000.0
G1 Z11.9000 F8000.0
G1 X95.5454 Y-114.3547 F12000.0
G1 Z0.0000 F8000.0
G0 X89.0593 Y-117.5009 F15000.0
G1 Z11.9000 F8000.0
G1 X89.3689 Y-118.7393 F12000.0
G1 X89.1035 Y-119.1816
G1 X88.1305 Y-119.2258
G1 X87.9978 Y-119.5354
G1 X87.9978 Y-119.8450
G1 X88.2190 Y-120.4641
G1 Z0.0000 F8000.0
G0 X89.0593 Y-121.1718 F15000.0
G1 Z11.9000 F8000.0
G1 X89.7227 Y-121.1275 F12000.0
G1 Z0.0000 F8000.0
G0 X89.8996 Y-120.9064 F15000.0
G1 Z11.9000 F8000.0
G1 X89.9880 Y-120.8180 F12000.0
G1 X89.6785 Y-119.7565
G1 Z0.0000 F8000.0
G0 X89.5016 Y-119.5354 F15000.0
G1 Z11.9000 F8000.0
G1 X89.2362 Y-119.3142 F12000.0
G1 Z0.0000 F8000.0
G0 X87.6882 Y-118.8277 F15000.0
G1 Z11.9000 F8000.0
G1 X87.5556 Y-118.6951 F12000.0
G1 Z0.0000 F8000.0
G0 X87.3344 Y-118.4297 F15000.0
G1 Z11.9000 F8000.0
G1 X87.0248 Y-117.7221 F12000.0
G1 X87.1133 Y-116.8818
G1 Z0.0000 F8000.0
G0 X87.2460 Y-116.7933 F15000.0
G1 Z11.9000 F8000.0
G1 X88.3517 Y-116.7933 F12000.0
G1 Z0.0000 F8000.0
G0 X88.5286 Y-116.8818 F15000.0
G1 Z11.9000 F8000.0
G1 X88.9266 Y-117.2356 F12000.0
G1 Z0.0000 F8000.0
G0 X85.4127 Y-114.3547 F15000.0
G1 Z11.9000 F8000.0
G1 X84.5370 Y-114.3547 F12000.0
G1 Z0.0000 F8000.0
G0 X84.2075 Y-113.7780 F15000.0
G1 Z11.9000 F8000.0
G1 X85.0832 Y-113.7780 F12000.0
G1 Z0.0000 F8000.0
G0 X85.4127 Y-101.5858 F15000.0
G1 Z11.9000 F8000.0
G1 X84.5370 Y-101.5858 F12000.0
G1 Z0.0000 F8000.0
G0 X84.2075 Y-100.9680 F15000.0
G1 Z11.9000 F8000.0
G1 X85.0832 Y-100.9680 F12000.0
G1 Z0.0000 F8000.0
G0 X104.3905 Y-101.5858 F15000.0
G1 Z11.9000 F8000.0
G1 X105.2662 Y-101.5858 F12000.0
G1 Z0.0000 F8000.0
G0 X105.5546 Y-100.9680 F15000.0
G1 Z11.9000 F8000.0
G1 X104.6789 Y-100.9680 F12000.0
G1 Z0.0000 F8000.0
G0 X104.3753 Y-124.4050 F15000.0
G1 Z11.9000 F8000.0
G1 X107.5057 Y-127.4531 F12000.0
G1 Z0.0000 F8000.0
G0 X107.5057 Y-124.7346 F15000.0
G1 Z11.9000 F8000.0
G1 X107.1762 Y-124.4050 F12000.0
G1 Z0.0000 F8000.0
G0 X107.5057 Y-124.4050 F15000.0
G1 Z11.9000 F8000.0
G1 X91.9359 Y-124.4050 F12000.0
G1 Z0.0000 F8000.0
G0 X93.4188 Y-124.4050 F15000.0
G1 Z11.9000 F8000.0
G1 X107.5057 Y-138.4920 F12000.0
G1 Z0.0000 F8000.0
G0 X107.5057 Y-141.2105 F15000.0
G1 Z11.9000 F8000.0
G1 X97.7849 Y-131.4897 F12000.0
G1 Z0.0000 F8000.0
G0 X97.7849 Y-134.2082 F15000.0
G1 Z11.9000 F8000.0
G1 X107.5057 Y-144.0114 F12000.0
G1 Z0.0000 F8000.0
G0 X107.5057 Y-146.7300 F15000.0
G1 Z11.9000 F8000.0
G1 X97.7849 Y-137.0092 F12000.0
G1 Z0.0000 F8000.0
G0 X97.7849 Y-139.7277 F15000.0
G1 Z11.9000 F8000.0
G1 X107.5057 Y-149.4485 F12000.0
G1 Z0.0000 F8000.0
G0 X107.5057 Y-152.2494 F15000.0
G1 Z11.9000 F8000.0
G1 X97.7849 Y-142.5286 F12000.0
G1 Z0.0000 F8000.0
G0 X97.7849 Y-145.2471 F15000.0
G1 Z11.9000 F8000.0
G1 X107.5057 Y-154.9680 F12000.0
G1 Z0.0000 F8000.0
G0 X107.5057 Y-157.7689 F15000.0
G1 Z11.9000 F8000.0
G1 X97.7849 Y-148.0481 F12000.0
G1 Z0.0000 F8000.0
G0 X96.7140 Y-149.6957 F15000.0
G1 Z11.9000 F8000.0
G1 X107.5057 Y-160.4874 F12000.0
G1 Z0.0000 F8000.0
G0 X107.5057 Y-163.2059 F15000.0
G1 Z11.9000 F8000.0
G1 X93.9130 Y-149.6957 F12000.0
G1 Z0.0000 F8000.0
G0 X94.7368 Y-131.1602 F15000.0
G1 Z11.9000 F8000.0
G1 X91.9359 Y-128.4417 F12000.0
G1 Z0.0000 F8000.0
G0 X96.1373 Y-124.4050 F15000.0
G1 Z11.9000 F8000.0
G1 X107.5057 Y-135.6911 F12000.0
G1 Z0.0000 F8000.0
G0 X107.5057 Y-132.9725 F15000.0
G1 Z11.9000 F8000.0
G1 X98.8558 Y-124.4050 F12000.0
G1 Z0.0000 F8000.0
G0 X101.6568 Y-124.4050 F15000.0
G1 Z11.9000 F8000.0
G1 X107.5057 Y-130.2540 F12000.0
G1 Z0.0000 F8000.0
G0 X107.5057 Y-124.4050 F15000.0
G1 Z11.9000 F8000.0
G1 X133.7849 Y-124.4050 F12000.0
G1 Z0.0000 F8000.0
G0 X131.8078 Y-124.4050 F15000.0
G1 Z11.9000 F8000.0
G1 X131.1487 Y-129.2654 F12000.0
G1 X131.8078 Y-128.7712 F12000.0
G1 X132.4668 Y-129.2654 F12000.0
G1 X131.8078 Y-124.4050 F12000.0
G1 X131.8078 Y-227.5446 F12000.0
G1 X132.4668 Y-222.6842 F12000.0
G1 X131.8078 Y-223.0961 F12000.0
G1 X131.1487 Y-222.6842 F12000.0
G1 X131.8078 Y-227.5446 F12000.0
G1 Z0.0000 F8000.0
G0 X133.7849 Y-227.5446 F15000.0
G1 Z11.9000 F8000.0
G1 X107.5057 Y-227.5446 F12000.0
G1 X107.5057 Y-237.4302 F12000.0
G1 Z0.0000 F8000.0
G0 X107.5057 Y-235.4531 F15000.0
G1 Z11.9000 F8000.0
G1 X102.6453 Y-234.7940 F12000.0
G1 X103.1396 Y-235.4531 F12000.0
G1 X102.6453 Y-236.1121 F12000.0
G1 X107.5057 Y-235.4531 F12000.0
G1 X91.9359 Y-235.4531 F12000.0
G1 X96.7963 Y-236.1121 F12000.0
G1 X96.3021 Y-235.4531 F12000.0
G1 X96.7963 Y-234.7940 F12000.0
G1 X91.9359 Y-235.4531 F12000.0
G1 Z0.0000 F8000.0
G0 X91.9359 Y-237.4302 F15000.0
G1 Z11.9000 F8000.0
G1 X91.9359 Y-227.5446 F12000.0
G1 Z0.0000 F8000.0
G0 X93.9283 Y-235.1647 F15000.0
G1 Z11.9000 F8000.0
G1 X94.8040 Y-235.1647 F12000.0
G1 Z0.0000 F8000.0
G0 X95.1335 Y-235.7826 F15000.0
G1 Z11.9000 F8000.0
G1 X94.2578 Y-235.7826 F12000.0
G1 Z0.0000 F8000.0
G0 X96.8432 Y-238.2915 F15000.0
G1 Z11.9000 F8000.0
G1 X96.7547 Y-239.1318 F12000.0
G1 X97.0643 Y-239.8394
G1 Z0.0000 F8000.0
G0 X97.2855 Y-240.1048 F15000.0
G1 Z11.9000 F8000.0
G1 X97.4181 Y-240.2375 F12000.0
G1 Z0.0000 F8000.0
G0 X98.9661 Y-240.7240 F15000.0
G1 Z11.9000 F8000.0
G1 X99.2315 Y-240.9451 F12000.0
G1 Z0.0000 F8000.0
G0 X99.4084 Y-241.1663 F15000.0
G1 Z11.9000 F8000.0
G1 X99.7179 Y-242.2277 F12000.0
G1 X99.6295 Y-242.3162
G1 Z0.0000 F8000.0
G0 X99.4526 Y-242.5373 F15000.0
G1 Z11.9000 F8000.0
G1 X98.7892 Y-242.5815 F12000.0
G1 Z0.0000 F8000.0
G0 X97.9489 Y-241.8739 F15000.0
G1 Z11.9000 F8000.0
G1 X97.7277 Y-241.2547 F12000.0
G1 X97.7277 Y-240.9451
G1 X97.8604 Y-240.6355
G1 X98.8334 Y-240.5913
G1 X99.0988 Y-240.1490
G1 X98.7892 Y-238.9107
G1 Z0.0000 F8000.0
G0 X98.6565 Y-238.6453 F15000.0
G1 Z11.9000 F8000.0
G1 X98.2585 Y-238.2915 F12000.0
G1 Z0.0000 F8000.0
G0 X98.0816 Y-238.2031 F15000.0
G1 Z11.9000 F8000.0
G1 X96.9759 Y-238.2031 F12000.0
G1 Z0.0000 F8000.0
G0 X104.3905 Y-235.7826 F15000.0
G1 Z11.9000 F8000.0
G1 X105.2662 Y-235.7826 F12000.0
G1 Z0.0000 F8000.0
G0 X105.5546 Y-235.1647 F15000.0
G1 Z11.9000 F8000.0
G1 X104.6789 Y-235.1647 F12000.0
G1 Z0.0000 F8000.0
G0 X131.5194 Y-225.3051 F15000.0
G1 Z11.9000 F8000.0
G1 X131.5194 Y-224.4294 F12000.0
G1 Z0.0000 F8000.0
G0 X132.1373 Y-224.7177 F15000.0
G1 Z11.9000 F8000.0
G1 X132.1373 Y-225.5934 F12000.0
G1 Z0.0000 F8000.0
G0 X125.6580 Y-178.3257 F15000.0
G1 Z11.9000 F8000.0
G1 X124.9504 Y-178.4583 F12000.0
G1 X124.8177 Y-178.3699
G1 Z0.0000 F8000.0
G0 X124.6850 Y-178.1930 F15000.0
G1 Z11.9000 F8000.0
G1 X124.7293 Y-177.0431 F12000.0
G1 Z0.0000 F8000.0
G0 X124.5966 Y-176.2028 F15000.0
G1 Z11.9000 F8000.0
G1 X124.7293 Y-174.6106 F12000.0
G1 X126.5868 Y-173.9472
G1 X126.8079 Y-175.0971
G1 Z0.0000 F8000.0
G0 X126.9406 Y-175.2298 F15000.0
G1 Z11.9000 F8000.0
G1 X127.2944 Y-175.3182 F12000.0
G1 X127.6925 Y-175.1855
G1 Z0.0000 F8000.0
G0 X128.1347 Y-175.0086 F15000.0
G1 Z11.9000 F8000.0
G1 X128.5770 Y-174.7875 F12000.0
G1 X128.7539 Y-174.6106
G1 Z0.0000 F8000.0
G0 X128.9308 Y-174.3452 F15000.0
G1 Z11.9000 F8000.0
G1 X129.2404 Y-172.8415 F12000.0
G1 Z0.0000 F8000.0
G0 X127.6925 Y-172.3550 F15000.0
G1 Z11.9000 F8000.0
G1 X127.9136 Y-172.0012 F12000.0
G1 X128.0463 Y-171.0725
G1 X127.7809 Y-171.1609
G1 Z0.0000 F8000.0
G0 X128.4001 Y-170.7186 F15000.0
G1 Z11.9000 F8000.0
G1 X127.9578 Y-170.8513 F12000.0
G1 X127.8252 Y-170.7186
G1 X126.9406 Y-170.5860
G1 X126.2330 Y-170.9398
G1 X126.0118 Y-171.2051
G1 Z0.0000 F8000.0
G0 X125.8349 Y-171.5147 F15000.0
G1 Z11.9000 F8000.0
G1 X125.6580 Y-172.4877 F12000.0
G1 Z0.0000 F8000.0
G0 X125.9234 Y-172.3993 F15000.0
G1 Z11.9000 F8000.0
G1 X125.6580 Y-172.6646 F12000.0
G1 X125.1715 Y-172.9300
G1 Z0.0000 F8000.0
G0 X125.8792 Y-172.8415 F15000.0
G1 Z11.9000 F8000.0
G1 X126.4983 Y-173.1069 F12000.0
G1 X127.0291 Y-172.9300
G1 Z0.0000 F8000.0
G0 X127.2944 Y-172.7973 F15000.0
G1 Z11.9000 F8000.0
G1 X127.5156 Y-172.5762 F12000.0
G1 Z0.0000 F8000.0
G0 X128.7539 Y-170.4975 F15000.0
G1 Z11.9000 F8000.0
G1 X128.8424 Y-170.4090 F12000.0
G1 Z0.0000 F8000.0
G0 X129.2404 Y-175.4067 F15000.0
G1 Z11.9000 F8000.0
G1 X128.7981 Y-177.1315 F12000.0
G1 Z0.0000 F8000.0
G0 X128.6212 Y-177.3527 F15000.0
G1 Z11.9000 F8000.0
G1 X127.4271 Y-177.8834 F12000.0
G1 X126.8522 Y-177.7065
G1 Z0.0000 F8000.0
G0 X126.8079 Y-176.9988 F15000.0
G1 Z11.9000 F8000.0
G1 X126.6310 Y-177.6180 F12000.0
G1 X126.1888 Y-178.1045
G1 Z0.0000 F8000.0
G0 X131.5194 Y-127.6026 F15000.0
G1 Z11.9000 F8000.0
G1 X131.5194 Y-126.7269 F12000.0
G1 Z0.0000 F8000.0
G0 X132.1373 Y-126.4386 F15000.0
G1 Z11.9000 F8000.0
G1 X132.1373 Y-127.3143 F12000.0
G1 Z0.0000 F8000.0
G0 X130.7820 Y-54.9650 F15000.0
G1 Z11.9000 F8000.0
G1 X130.3414 Y-54.5975 F12000.0
G1 X130.8871 Y-55.0106
G1 X131.5027 Y-55.0203
G1 X132.0091 Y-54.7256
G1 X132.2796 Y-54.2014
G1 X132.4502 Y-52.9600
G1 X132.2690 Y-51.5953
G1 X131.9921 Y-51.0863
G1 X131.7492 Y-50.9060
G1 X130.9406 Y-50.8229
G1 X130.3319 Y-51.2548
G1 X130.4983 Y-51.0318
G1 X130.8539 Y-50.8407
G1 Z0.0000 F8000.0
G0 X130.2701 Y-51.3272 F15000.0
G1 Z11.9000 F8000.0
G1 X129.9961 Y-52.5559 F12000.0
G1 X130.2703 Y-54.4296
G1 X130.3920 Y-54.6373
G1 Z0.0000 F8000.0
G0 X127.1333 Y-54.9650 F15000.0
G1 Z11.9000 F8000.0
G1 X126.6927 Y-54.5975 F12000.0
G1 X127.2384 Y-55.0106
G1 X127.6072 Y-55.0604
G1 X127.9714 Y-54.9772
G1 X128.3603 Y-54.7256
G1 X128.6309 Y-54.2014
G1 X128.8015 Y-52.9600
G1 X128.6567 Y-51.7132
G1 X128.4524 Y-51.2585
G1 X128.1557 Y-50.9311
G1 Z0.0000 F8000.0
G0 X128.4214 Y-51.1812 F15000.0
G1 Z11.9000 F8000.0
G1 X128.1160 Y-50.9744 F12000.0
G1 X127.2428 Y-50.8613
G1 X126.9101 Y-50.9931
G1 X126.6813 Y-51.2660
G1 X127.3342 Y-50.8175
G1 Z0.0000 F8000.0
G0 X126.6213 Y-51.3272 F15000.0
G1 Z11.9000 F8000.0
G1 X126.3474 Y-52.5559 F12000.0
G1 X126.6216 Y-54.4296
G1 X126.7433 Y-54.6373
G1 Z0.0000 F8000.0
G0 X122.4861 Y-55.0732 F15000.0
G1 Z11.9000 F8000.0
G1 X122.2924 Y-54.4914 F12000.0
G1 X121.1512 Y-53.7991
G1 X122.2750 Y-54.4228
G1 X122.3888 Y-50.8893
G1 Z0.0000 F8000.0
G0 X119.2753 Y-51.1812 F15000.0
G1 Z11.9000 F8000.0
G1 X118.9834 Y-50.8893 F12000.0
G1 Z0.0000 F8000.0
G0 X118.0590 Y-50.8407 F15000.0
G1 Z11.9000 F8000.0
G1 X117.7404 Y-51.0157 F12000.0
G1 X117.5491 Y-51.2575
G1 X118.0004 Y-50.8969
G1 X118.2204 Y-50.8265
G1 X119.1771 Y-51.1108
G1 X119.4904 Y-51.6393
G1 X119.6532 Y-53.0076
G1 X119.5060 Y-54.1273
G1 X119.2475 Y-54.6718
G1 X118.7814 Y-54.9951
G1 X118.4137 Y-55.0600
G1 X118.0499 Y-54.9928
G1 X117.5445 Y-54.5957
G1 X117.9898 Y-54.9675
G1 X117.5005 Y-54.5011
G1 X117.1995 Y-52.5088
G1 X117.4752 Y-51.3272
G1 Z0.0000 F8000.0
G0 X113.7779 Y-51.1812 F15000.0
G1 Z11.9000 F8000.0
G1 X113.7292 Y-51.0839 F12000.0
G1 Z0.0000 F8000.0
G0 X112.5616 Y-50.8407 F15000.0
G1 Z11.9000 F8000.0
G1 X112.2430 Y-51.0157 F12000.0
G1 X112.0517 Y-51.2575
G1 X112.5031 Y-50.8965
G1 X112.7258 Y-50.8128
G1 X113.4465 Y-50.8963
G1 X113.6872 Y-51.0797
G1 X114.0210 Y-51.7466
G1 X114.1566 Y-52.8689
G1 X114.0114 Y-54.1151
G1 X113.7591 Y-54.6666
G1 X113.1768 Y-55.0286
G1 X112.5632 Y-54.9992
G1 X112.0427 Y-54.5921
G1 X112.5616 Y-55.0245
G1 Z0.0000 F8000.0
G0 X112.0265 Y-54.5867 F15000.0
G1 Z11.9000 F8000.0
G1 X111.7053 Y-52.5948 F12000.0
G1 X111.9778 Y-51.3272
G1 Z0.0000 F8000.0
G0 X110.1291 Y-51.1812 F15000.0
G1 Z11.9000 F8000.0
G1 X109.8373 Y-50.8893 F12000.0
G1 Z0.0000 F8000.0
G0 X108.9129 Y-50.8407 F15000.0
G1 Z11.9000 F8000.0
G1 X108.5942 Y-51.0157 F12000.0
G1 X108.4030 Y-51.2575
G1 X108.8543 Y-50.8969
G1 X109.0743 Y-50.8265
G1 X109.9214 Y-51.0569
G1 X110.1190 Y-51.1932
G1 X110.3758 Y-51.7585
G1 X110.5084 Y-52.8817
G1 X110.3598 Y-54.1273
G1 X110.1013 Y-54.6718
G1 X109.5158 Y-55.0316
G1 X108.9038 Y-54.9928
G1 X108.3984 Y-54.5957
G1 X108.9129 Y-55.0245
G1 Z0.0000 F8000.0
G0 X108.3778 Y-54.5867 F15000.0
G1 Z11.9000 F8000.0
G1 X108.0566 Y-52.5948 F12000.0
G1 X108.3291 Y-51.3272
G1 Z0.0000 F8000.0
G0 X106.7237 Y-50.8893 F15000.0
G1 Z11.9000 F8000.0
G1 X106.7225 Y-52.0264 F12000.0
G1 X106.6627 Y-52.2111
G1 X105.3188 Y-52.0801
G1 X104.9862 Y-52.2266
G1 X104.6955 Y-52.6211
G1 X104.5831 Y-53.7596
G1 Z0.0000 F8000.0
G0 X106.7237 Y-53.7110 F15000.0
G1 Z11.9000 F8000.0
G1 X106.7237 Y-52.2515 F12000.0
G1 Z0.0000 F8000.0
G0 X103.3182 Y-50.8893 F15000.0
G1 Z11.9000 F8000.0
G1 X103.1250 Y-54.5341 F12000.0
G1 X103.1892 Y-54.7854
G1 X102.7284 Y-54.2340
G1 X101.6295 Y-51.2819
G1 X101.3311 Y-51.1929
G1 X99.5954 Y-54.6381
G1 X99.5376 Y-54.6372
G1 X99.4713 Y-54.3147
G1 X99.4262 Y-50.8893
G1 Z0.0000 F8000.0
G0 X101.3722 Y-51.0839 F15000.0
G1 Z11.9000 F8000.0
G1 X101.4695 Y-51.1812 F12000.0
G1 Z0.0000 F8000.0
G0 X97.0803 Y-35.0514 F15000.0
G1 Z11.9000 F8000.0
G1 X96.8857 Y-34.9055 F12000.0
G1 Z0.0000 F8000.0
G0 X96.0587 Y-33.2027 F15000.0
G1 Z11.9000 F8000.0
G1 X96.3702 Y-34.4187 F12000.0
G1 X96.6610 Y-34.7571
G1 X97.2279 Y-35.0616
G1 X98.2306 Y-35.1258
G1 X99.0866 Y-34.6267
G1 X99.2031 Y-34.4313
G1 X99.4629 Y-33.2446
G1 X96.0714 Y-33.1505
G1 X96.1539 Y-32.1510
G1 X96.3826 Y-31.5730
G1 X96.6283 Y-31.2891
G1 X97.0274 Y-31.0297
G1 X98.1520 Y-30.8827
G1 X98.5225 Y-30.9423
G1 X98.8995 Y-31.1417
G1 X99.6777 Y-31.8683
G1 X98.6371 Y-30.9648
G1 Z0.0000 F8000.0
G0 X101.2155 Y-31.1108 F15000.0
G1 Z11.9000 F8000.0
G1 X101.5896 Y-31.7561 F12000.0
G1 X104.2941 Y-35.0221
G1 X104.4618 Y-31.1125
G1 X106.0570 Y-31.0621
G1 X106.3849 Y-31.1137
G1 X106.4653 Y-33.0288
G1 X107.3066 Y-33.0542
G1 X106.6234 Y-33.0203
G1 X106.4468 Y-33.0877
G1 X106.4210 Y-35.0028
G1 Z0.0000 F8000.0
G0 X108.5129 Y-34.9541 F15000.0
G1 Z11.9000 F8000.0
G1 X108.8476 Y-35.0263 F12000.0
G1 X108.5532 Y-34.9073
G1 X108.3239 Y-34.6137
G1 X107.8057 Y-33.6031
G1 X107.5098 Y-33.1972
G1 X107.4552 Y-32.9942
G1 X108.0721 Y-32.2674
G1 X108.8737 Y-30.9828
G1 X109.4373 Y-30.6243
G1 Z0.0000 F8000.0
G0 X110.7508 Y-32.6676 F15000.0
G1 Z11.9000 F8000.0
G1 X110.5817 Y-32.3382 F12000.0
G1 X110.4821 Y-31.7193
G1 X110.5930 Y-31.3655
G1 X110.8167 Y-31.1053
G1 X111.5226 Y-30.8582
G1 X112.5127 Y-30.9719
G1 X113.3032 Y-31.4121
G1 Z0.0000 F8000.0
G0 X112.6824 Y-31.0625 F15000.0
G1 Z11.9000 F8000.0
G1 X113.0624 Y-31.3021 F12000.0
G1 X113.1049 Y-31.2098
G1 X114.2340 Y-30.6948
G1 X113.6335 Y-31.5509
G1 X113.6698 Y-33.3487
G1 Z0.0000 F8000.0
G0 X110.8481 Y-32.7649 F15000.0
G1 Z11.9000 F8000.0
G1 X113.6765 Y-33.4480 F12000.0
G1 X113.5133 Y-34.6631
G1 X113.2763 Y-34.9404
G1 X113.0525 Y-35.0474
G1 X112.1867 Y-35.1669
G1 X110.8038 Y-34.5571
G1 X110.4103 Y-34.2244
G1 Z0.0000 F8000.0
G0 X94.1613 Y-31.6946 F15000.0
G1 Z11.9000 F8000.0
G1 X94.2658 Y-31.9520 F12000.0
G1 X94.0223 Y-31.4929
G1 X94.3415 Y-32.1290
G1 X94.4320 Y-32.7422
G1 X94.2046 Y-34.2404
G1 X93.8585 Y-34.8039
G1 X93.2221 Y-35.1320
G1 X92.4685 Y-35.1434
G1 X91.2658 Y-34.5751
G1 X91.1210 Y-34.9249
G1 X91.2314 Y-34.3958
G1 X91.1052 Y-32.1232
G1 X91.2334 Y-31.4374
G1 X92.1306 Y-31.0364
G1 X92.9991 Y-30.8849
G1 X93.3536 Y-30.9743
G1 X93.9453 Y-31.3708
G1 X93.3343 Y-30.9162
G1 Z0.0000 F8000.0
G0 X91.1450 Y-29.2135 F15000.0
G1 Z11.9000 F8000.0
G1 X91.1095 Y-31.3428 F12000.0
G1 X89.7056 Y-30.6771
G1 X89.0055 Y-31.4898
G1 X87.9584 Y-31.0090
G1 Z0.0000 F8000.0
G0 X86.1828 Y-32.6676 F15000.0
G1 Z11.9000 F8000.0
G1 X86.3287 Y-32.8135 F12000.0
G1 Z0.0000 F8000.0
G0 X85.7936 Y-34.2244 F15000.0
G1 Z11.9000 F8000.0
G1 X86.1701 Y-34.5460 F12000.0
G1 X87.5504 Y-35.1616
G1 X88.5333 Y-35.0114
G1 X88.8902 Y-34.6822
G1 X89.0635 Y-33.4640
G1 X86.3239 Y-32.7554
G1 X86.0738 Y-32.5900
G1 X85.8695 Y-31.7678
G1 X85.9525 Y-31.4111
G1 X86.1388 Y-31.1743
G1 X86.9369 Y-30.8582
G1 X87.9204 Y-30.9970
G1 X88.6807 Y-31.4441
G1 X89.0763 Y-31.9152
G1 X89.0531 Y-33.3487
G1 Z0.0000 F8000.0
G0 X91.3883 Y-34.6136 F15000.0
G1 Z11.9000 F8000.0
G1 X92.0207 Y-34.9541 F12000.0
G1 Z0.0000 F8000.0
G0 X85.6143 Y-37.1818 F15000.0
G1 Z11.9000 F8000.0
G1 X81.6781 Y-37.0933 F12000.0
G1 Z0.0000 F8000.0
G0 X82.6800 Y-36.8028 F15000.0
G1 Z11.9000 F8000.0
G1 X84.8693 Y-36.8514 F12000.0
G1 Z0.0000 F8000.0
G0 X80.4422 Y-36.8514 F15000.0
G1 Z11.9000 F8000.0
G1 X82.5625 Y-36.7749 F12000.0
G1 X82.6153 Y-36.7000
G1 X82.6314 Y-31.0621
G1 Z0.0000 F8000.0
G0 X84.2244 Y-16.0532 F15000.0
G1 Z11.9000 F8000.0
G1 X82.5290 Y-14.7196 F12000.0
G1 X82.3757 Y-14.3991
G1 Z0.0000 F8000.0
G0 X82.4244 Y-14.6423 F15000.0
G1 Z11.9000 F8000.0
G1 X83.5570 Y-14.7232 F12000.0
G1 X84.0864 Y-14.4531
G1 X84.2307 Y-14.2730
G1 X84.3954 Y-13.5401
G1 X84.1850 Y-12.8304
G1 X83.7952 Y-12.4632
G1 X83.3020 Y-12.3750
G1 X82.9351 Y-12.4184
G1 X82.4432 Y-12.8003
G1 X82.3046 Y-13.0557
G1 X82.5130 Y-12.7051
G1 X82.7779 Y-12.4666
G1 X83.0144 Y-12.4202
G1 X83.8833 Y-12.5235
G1 X84.1271 Y-12.7450
G1 Z0.0000 F8000.0
G0 X81.2568 Y-11.2855 F15000.0
G1 Z11.9000 F8000.0
G1 X81.1787 Y-12.3909 F12000.0
G1 X80.8702 Y-12.5414
G1 X80.8676 Y-16.0532
G1 Z0.0000 F8000.0
G0 X80.8189 Y-12.4531 F15000.0
G1 Z11.9000 F8000.0
G1 X78.1850 Y-15.9261 F12000.0
G1 X77.9702 Y-16.0077
G1 X76.8346 Y-16.0455
G1 X76.6052 Y-15.9821
G1 X75.0128 Y-14.7398
G1 X74.8639 Y-14.5152
G1 X74.9054 Y-14.5886
G1 X76.1111 Y-14.7109
G1 X76.5331 Y-14.4717
G1 X76.6780 Y-14.2943
G1 X76.8306 Y-13.3217
G1 X76.6046 Y-12.7612
G1 X76.3451 Y-12.5206
G1 X75.7373 Y-12.3790
G1 X75.3734 Y-12.4266
G1 X74.8875 Y-12.8171
G1 X74.7660 Y-13.0494
G1 X75.0703 Y-12.5976
G1 X75.3702 Y-12.4044
G1 Z0.0000 F8000.0
G0 X72.2080 Y-12.4044 F15000.0
G1 Z11.9000 F8000.0
G1 X71.6278 Y-12.8067 F12000.0
G1 X70.5904 Y-13.2646
G1 X70.4079 Y-13.2315
G1 Z0.0000 F8000.0
G0 X69.0458 Y-12.4531 F15000.0
G1 Z11.9000 F8000.0
G1 X68.9485 Y-12.5017 F12000.0
G1 Z0.0000 F8000.0
G0 X68.4133 Y-12.7450 F15000.0
G1 Z11.9000 F8000.0
G1 X69.3517 Y-12.3846 F12000.0
G1 X69.8380 Y-12.4693
G1 X70.1296 Y-12.6722
G1 X70.3453 Y-13.0518
G1 X70.4350 Y-13.4098
G1 X70.2628 Y-14.5301
G1 X70.0216 Y-14.8497
G1 X69.6870 Y-15.0059
G1 X69.1896 Y-14.9851
G1 X68.6227 Y-14.7260
G1 X68.4769 Y-14.5586
G1 X68.3647 Y-11.2855
G1 Z0.0000 F8000.0
G0 X66.9052 Y-12.5990 F15000.0
G1 Z11.9000 F8000.0
G1 X66.7851 Y-12.5484 F12000.0
G1 X66.9964 Y-12.7190
G1 X67.1971 Y-13.0369
G1 Z0.0000 F8000.0
G0 X68.4133 Y-14.6423 F15000.0
G1 Z11.9000 F8000.0
G1 X68.4373 Y-14.9536 F12000.0
G1 X68.9681 Y-14.9602
G1 X68.8512 Y-14.8369
G1 Z0.0000 F8000.0
G0 X66.8565 Y-16.1018 F15000.0
G1 Z11.9000 F8000.0
G1 X64.7921 Y-14.4413 F12000.0
G1 X64.7184 Y-14.2238
G1 X64.7343 Y-12.5995
G1 X64.8931 Y-12.5092
G1 X66.7569 Y-12.5669
G1 X67.1068 Y-12.9015
G1 X67.2161 Y-13.2476
G1 X66.8834 Y-14.1198
G1 X66.5780 Y-14.2602
G1 X64.7159 Y-14.3991
G1 Z0.0000 F8000.0
G0 X63.2677 Y-15.0870 F15000.0
G1 Z11.9000 F8000.0
G1 X0.0000 Y-15.0870 F12000.0
G1 Z0.0000 F8000.0
G0 X0.8804 Y-14.3679 F15000.0
G1 Z11.9000 F8000.0
G1 X0.8804 Y-12.5243 F12000.0
G1 X0.9349 Y-13.4553
G1 X2.2523 Y-13.4852
G1 X2.3362 Y-14.2690
G1 X2.3399 Y-12.3733
G1 Z0.0000 F8000.0
G0 X1.6976 Y-11.4880 F15000.0
G1 Z11.9000 F8000.0
G1 X2.3541 Y-10.4213 F12000.0
G1 X2.6934 Y-10.5047
G1 X2.5338 Y-10.3295
G1 X2.7057 Y-10.4926
G1 X2.6180 Y-10.3408
G1 Z0.0000 F8000.0
G0 X3.1495 Y-11.3740 F15000.0
G1 Z11.9000 F8000.0
G1 X2.2465 Y-9.6013 F12000.0
G1 X1.9708 Y-9.5506
G1 X2.7968 Y-10.5511
G1 X3.4736 Y-10.8761
G1 X4.5593 Y-10.9528
G1 X4.1650 Y-10.8924
G1 X4.2436 Y-9.6624
G1 X5.2698 Y-10.3024
G1 X5.8956 Y-10.2762
G1 X6.2002 Y-10.1321
G1 X6.1367 Y-10.7114
G1 X6.2159 Y-9.7106
G1 X5.8958 Y-9.6049
G1 X5.3379 Y-10.0975
G1 X5.2411 Y-10.2857
G1 X5.9788 Y-10.9528
G1 Z0.0000 F8000.0
G0 X3.9940 Y-12.3733 F15000.0
G1 Z11.9000 F8000.0
G1 X4.0185 Y-12.9900 F12000.0
G1 X4.5122 Y-13.3119
G1 X4.8697 Y-13.7841
G1 Z0.0000 F8000.0
G0 X3.9940 Y-13.7354 F15000.0
G1 Z11.9000 F8000.0
G1 X4.0688 Y-13.1678 F12000.0
G1 X4.5320 Y-12.8997
G1 X4.4475 Y-13.1377
G1 X4.4462 Y-13.0299
G1 X4.8419 Y-12.4534
G1 X5.3742 Y-12.8288
G1 X5.4642 Y-13.4328
G1 X5.7231 Y-13.7387
G1 X5.6613 Y-13.6899
G1 X6.0546 Y-13.7827
G1 X6.3885 Y-13.6701
G1 X6.4976 Y-13.4772
G1 X6.5914 Y-12.7367
G1 X6.4655 Y-12.5424
G1 X6.0061 Y-12.3628
G1 X5.7840 Y-12.4107
G1 X5.4501 Y-12.7109
G1 X5.6066 Y-12.4818
G1 X5.7943 Y-12.3878
G1 X7.1476 Y-12.4072
G1 X7.2049 Y-13.6519
G1 X7.2495 Y-13.1397
G1 X8.1852 Y-13.0175
G1 X8.2694 Y-12.4784
G1 X8.3082 Y-13.6788
G1 X8.7533 Y-13.7744
G1 X9.9293 Y-13.7841
G1 Z0.0000 F8000.0
G0 X9.3455 Y-13.7841 F15000.0
G1 Z11.9000 F8000.0
G1 X9.4267 Y-12.4328 F12000.0
G1 X10.5015 Y-12.5020
G1 X11.2125 Y-12.3912
G1 X11.5085 Y-12.6129
G1 X11.6087 Y-12.8236
G1 X11.5147 Y-13.5620
G1 X11.2233 Y-13.7162
G1 X10.6242 Y-13.6159
G1 X10.4828 Y-12.7922
G1 X10.5400 Y-11.8173
G1 X11.5347 Y-12.6165
G1 Z0.0000 F8000.0
G0 X16.5584 Y-5.3662 F15000.0
G1 Z11.9000 F8000.0
G1 X16.5584 Y-58.9131 F12000.0
G1 Z0.0000 F8000.0
G0 X6.8375 Y-58.9131 F15000.0
G1 Z11.9000 F8000.0
G1 X6.8375 Y-34.6110 F12000.0
G1 Z0.0000 F8000.0
G0 X7.0322 Y-33.7502 F15000.0
G1 Z11.9000 F8000.0
G1 X6.9835 Y-33.6529 F12000.0
G1 Z0.0000 F8000.0
G0 X6.0105 Y-33.6042 F15000.0
G1 Z11.9000 F8000.0
G1 X6.6090 Y-33.4417 F12000.0
G1 X6.9537 Y-33.6499
G1 X7.0534 Y-33.8596
G1 X6.9541 Y-34.5945
G1 X6.7913 Y-34.7626
G1 X6.3112 Y-34.7592
G1 X6.0347 Y-34.5627
G1 X5.9619 Y-32.8258
G1 Z0.0000 F8000.0
G0 X4.5997 Y-33.4583 F15000.0
G1 Z11.9000 F8000.0
G1 X4.9537 Y-33.4846 F12000.0
G1 X5.2593 Y-33.6552
G1 X5.1374 Y-34.0676
G1 X4.9895 Y-34.1375
G1 X5.1659 Y-34.2107
G1 X5.2064 Y-34.6629
G1 X4.9093 Y-34.7952
G1 X4.6829 Y-34.7632
G1 X4.5024 Y-34.5772
G1 Z0.0000 F8000.0
G0 X3.7240 Y-34.7718 F15000.0
G1 Z11.9000 F8000.0
G1 X3.8463 Y-34.2830 F12000.0
G1 X3.8469 Y-33.5166
G1 X3.5339 Y-33.6143
G1 X3.1633 Y-34.0547
G1 X3.7874 Y-34.1410
G1 X3.9082 Y-33.4769
G1 X3.0396 Y-33.4543
G1 X2.9063 Y-33.9466
G1 X3.0307 Y-34.0309
G1 X2.8451 Y-33.6356
G1 X2.9294 Y-34.5417
G1 X3.6267 Y-34.8205
G1 Z0.0000 F8000.0
G0 X2.3132 Y-34.7232 F15000.0
G1 Z11.9000 F8000.0
G1 X2.2216 Y-35.0937 F12000.0
G1 X1.0302 Y-35.3622
G1 X0.9447 Y-35.2067
G1 X0.9053 Y-33.5474
G1 X1.0077 Y-34.3142
G1 X2.2645 Y-34.6259
G1 Z0.0000 F8000.0
G0 X0.0000 Y-34.6110 F15000.0
G1 Z11.9000 F8000.0
G1 X63.2677 Y-34.6110 F12000.0
G1 Z0.0000 F8000.0
G0 X61.3329 Y-36.6785 F15000.0
G1 Z11.9000 F8000.0
G1 X61.2824 Y-36.6013 F12000.0
G1 X60.9984 Y-36.5573
G1 X61.0648 Y-36.6303
G1 Z0.0000 F8000.0
G0 X61.2816 Y-37.3310 F15000.0
G1 Z11.9000 F8000.0
G1 X61.3474 Y-36.5855 F12000.0
G1 X60.3198 Y-36.5448
G1 X60.1327 Y-36.8226
G1 X60.3872 Y-37.2241
G1 X61.2813 Y-37.5261
G1 X61.2491 Y-37.8615
G1 X60.9553 Y-38.0645
G1 X60.4653 Y-38.0331
G1 X60.2930 Y-37.9322
G1 X60.3350 Y-37.9925
G1 Z0.0000 F8000.0
G0 X59.6540 Y-38.0411 F15000.0
G1 Z11.9000 F8000.0
G1 X58.6492 Y-38.0384 F12000.0
G1 X58.4294 Y-37.9628
G1 X57.9675 Y-37.3926
G1 X57.9578 Y-36.6697
G1 X57.1985 Y-36.5121
G1 X56.9629 Y-36.5449
G1 X56.7759 Y-36.8226
G1 X57.1354 Y-37.2779
G1 X57.8557 Y-37.4554
G1 X57.9366 Y-37.7529
G1 X57.8111 Y-37.9485
G1 X57.5985 Y-38.0645
G1 X57.1085 Y-38.0331
G1 X56.9361 Y-37.9322
G1 X56.9782 Y-37.9925
G1 Z0.0000 F8000.0
G0 X59.0215 Y-38.0411 F15000.0
G1 Z11.9000 F8000.0
G1 X59.0702 Y-36.5816 F12000.0
G1 Z0.0000 F8000.0
G0 X54.8377 Y-38.7222 F15000.0
G1 Z11.9000 F8000.0
G1 X55.8761 Y-38.6630 F12000.0
G1 X55.9716 Y-36.6112
G1 X56.1225 Y-36.5235
G1 X56.1820 Y-36.1001
G1 X55.8424 Y-36.5610
G1 X54.6102 Y-36.6021
G1 X54.3136 Y-36.0918
G1 X54.3171 Y-36.4051
G1 X54.5878 Y-36.7676
G1 X54.6894 Y-37.1289
G1 X54.7890 Y-38.6249
G1 Z0.0000 F8000.0
G0 X49.2865 Y-36.9059 F15000.0
G1 Z11.9000 F8000.0
G1 X49.2072 Y-38.1886 F12000.0
G1 X48.2633 Y-36.9202
G1 X47.7139 Y-36.4875
G1 X47.5586 Y-36.8536
G1 X46.5107 Y-36.9044
G1 X47.3807 Y-36.8838
G1 X47.4543 Y-36.9451
G1 X47.3954 Y-38.1822
G1 X46.5014 Y-37.0179
G1 X46.2428 Y-36.5511
G1 X46.2703 Y-36.8573
G1 Z0.0000 F8000.0
G0 X45.7838 Y-38.0735 F15000.0
G1 Z11.9000 F8000.0
G1 X45.5674 Y-38.2162 F12000.0
G1 X45.7428 Y-37.9761
G1 X45.8491 Y-37.2402
G1 X45.6728 Y-36.9653
G1 X45.7160 Y-37.0382
G1 X45.3069 Y-36.8894
G1 X44.9611 Y-36.9683
G1 X44.8081 Y-37.1402
G1 X44.6905 Y-37.4913
G1 X44.9079 Y-38.1210
G1 X45.4919 Y-38.2681
G1 Z0.0000 F8000.0
G0 X44.0324 Y-36.9059 F15000.0
G1 Z11.9000 F8000.0
G1 X43.9278 Y-38.7553 F12000.0
G1 X42.5729 Y-36.9059
G1 Z0.0000 F8000.0
G0 X33.0018 Y-36.7456 F15000.0
G1 Z11.9000 F8000.0
G1 X32.8599 Y-37.7467 F12000.0
G1 X32.7058 Y-37.6270
G1 X32.2345 Y-36.7848
G1 X31.5775 Y-36.8072
G1 X31.5361 Y-37.7402
G1 X31.0134 Y-37.9037
G1 X31.0278 Y-38.0310
G1 X30.7386 Y-37.2538
G1 X30.4063 Y-37.0942
G1 X30.3238 Y-37.1206
G1 X29.9503 Y-38.0182
G1 X29.7581 Y-38.1050
G1 X29.5219 Y-38.0777
G1 X29.0918 Y-37.6431
G1 X28.6804 Y-37.3782
G1 X28.5934 Y-36.8185
G1 X27.9343 Y-36.9032
G1 X27.5907 Y-36.7092
G1 X26.4184 Y-36.3105
G1 X26.2550 Y-36.6654
G1 X26.1656 Y-36.7118
G1 X24.9165 Y-36.3758
G1 X24.9182 Y-36.5766
G1 X26.0375 Y-38.0127
G1 X26.1179 Y-36.8065
G1 X26.0583 Y-36.7311
G1 X25.0719 Y-36.7456
G1 Z0.0000 F8000.0
G0 X26.9693 Y-37.9132 F15000.0
G1 Z11.9000 F8000.0
G1 X27.0179 Y-38.0105 F12000.0
G1 Z0.0000 F8000.0
G0 X27.6017 Y-38.1078 F15000.0
G1 Z11.9000 F8000.0
G1 X27.1103 Y-38.0007 F12000.0
G1 X26.9348 Y-37.8437
G1 X26.8036 Y-37.3670
G1 X26.9032 Y-37.0144
G1 X27.0439 Y-36.8319
G1 X27.2603 Y-36.7313
G1 X27.5021 Y-36.7473
G1 X27.9049 Y-37.0116
G1 X27.9621 Y-37.2288
G1 X27.8765 Y-37.7250
G1 X27.6699 Y-38.0629
G1 X27.8936 Y-37.9132
G1 Z0.0000 F8000.0
G0 X28.6234 Y-38.0592 F15000.0
G1 Z11.9000 F8000.0
G1 X28.6633 Y-37.5104 F12000.0
G1 X29.0959 Y-37.3276
G1 X29.1044 Y-37.4721
G1 X29.1307 Y-37.2690
G1 X29.4018 Y-36.7456
G1 Z0.0000 F8000.0
G0 X30.0342 Y-36.0159 F15000.0
G1 Z11.9000 F8000.0
G1 X30.3555 Y-36.2606 F12000.0
G1 X30.8317 Y-37.4846
G1 X30.7383 Y-37.2607
G1 X30.4082 Y-37.0332
G1 X30.6666 Y-37.0375
G1 Z0.0000 F8000.0
G0 X31.6396 Y-37.8646 F15000.0
G1 Z11.9000 F8000.0
G1 X32.2721 Y-36.9402 F12000.0
G1 Z0.0000 F8000.0
G0 X25.7447 Y-31.6079 F15000.0
G1 Z11.9000 F8000.0
G1 X25.8143 Y-31.7403 F12000.0
G1 X25.7064 Y-32.2287
G1 X25.8022 Y-32.1211
G1 X25.7529 Y-31.7159
G1 X25.6000 Y-31.5989
G1 X25.4008 Y-31.7009
G1 X24.8718 Y-32.2249
G1 X24.8614 Y-32.3227
G1 X25.6013 Y-32.9207
G1 X25.7918 Y-32.6700
G1 X25.6766 Y-32.3725
G1 X25.0639 Y-32.3379
G1 X24.7061 Y-32.4128
G1 X23.8379 Y-32.9159
G1 X23.3591 Y-32.9091
G1 X23.1722 Y-32.7543
G1 X23.0086 Y-32.1757
G1 X23.1292 Y-31.8232
G1 X23.2969 Y-31.6737
G1 X23.6589 Y-31.5886
G1 X23.8892 Y-31.6484
G1 X24.1526 Y-31.9067
G1 X24.2141 Y-32.1288
G1 X24.1625 Y-32.5025
G1 X23.9635 Y-32.8676
G1 X24.1371 Y-32.5772
G1 X24.1309 Y-31.9514
G1 X23.9933 Y-31.6566
G1 Z0.0000 F8000.0
G0 X22.3879 Y-31.6079 F15000.0
G1 Z11.9000 F8000.0
G1 X22.3243 Y-32.8764 F12000.0
G1 X21.3471 Y-31.7254
G1 X20.1347 Y-31.5938
G1 X19.7924 Y-31.6697
G1 X19.6493 Y-31.8355
G1 X19.6068 Y-32.2857
G1 X20.6380 Y-32.4244
G1 X20.5772 Y-32.7306
G1 X20.0072 Y-32.9304
G1 X19.7112 Y-32.7728
G1 X19.5109 Y-32.3550
G1 X18.9822 Y-32.2599
G1 X18.9338 Y-31.9903
G1 X18.9306 Y-32.1944
G1 X18.8544 Y-31.8462
G1 X17.6675 Y-31.5941
G1 X17.5806 Y-31.6440
G1 X17.5229 Y-33.5052
G1 Z0.0000 F8000.0
G0 X17.5716 Y-33.6025 F15000.0
G1 Z11.9000 F8000.0
G1 X18.7392 Y-33.6025 F12000.0
G1 Z0.0000 F8000.0
G0 X18.8851 Y-32.3863 F15000.0
G1 Z11.9000 F8000.0
G1 X17.5229 Y-32.6782 F12000.0
G1 Z0.0000 F8000.0
G0 X19.6349 Y-28.3754 F15000.0
G1 Z11.9000 F8000.0
G1 X20.1814 Y-27.0162 F12000.0
G1 X19.9809 Y-26.2931
G1 X20.0096 Y-26.3666
G1 X19.8036 Y-26.2372
G1 X20.0864 Y-26.5031
G1 X20.1670 Y-26.9874
G1 X20.4154 Y-27.3538
G1 X20.8024 Y-28.4240
G1 Z0.0000 F8000.0
G0 X21.3862 Y-28.2781 F15000.0
G1 Z11.9000 F8000.0
G1 X21.7203 Y-28.3966 F12000.0
G1 X22.0475 Y-28.3139
G1 X22.0932 Y-27.8520
G1 X21.8248 Y-27.6535
G1 X22.0069 Y-27.6146
G1 X22.2191 Y-27.1991
G1 X22.1556 Y-26.9871
G1 X21.9602 Y-26.8619
G1 X21.5980 Y-26.8629
G1 X21.3512 Y-27.0417
G1 X21.5322 Y-26.8672
G1 Z0.0000 F8000.0
G0 X22.9917 Y-28.2781 F15000.0
G1 Z11.9000 F8000.0
G1 X23.1929 Y-28.3714 F12000.0
G1 X23.8847 Y-27.8021
G1 X23.0904 Y-27.5777
G1 X22.9064 Y-27.4226
G1 X22.8565 Y-27.0855
G1 X23.0043 Y-26.9025
G1 X23.2292 Y-26.8511
G1 X23.6900 Y-26.9929
G1 X23.9497 Y-27.6417
G1 X24.0482 Y-26.9654
G1 X24.5082 Y-26.9496
G1 X24.7078 Y-27.0159
G1 X24.7431 Y-28.2248
G1 X24.8177 Y-27.7179
G1 X25.5473 Y-27.6574
G1 X25.7393 Y-27.7138
G1 X25.8098 Y-28.2399
G1 X25.8329 Y-27.0129
G1 X25.9926 Y-26.9524
G1 X26.5387 Y-27.1070
G1 X26.4347 Y-27.6759
G1 X26.6445 Y-28.2356
G1 X27.0206 Y-28.4207
G1 X27.3753 Y-28.3598
G1 X27.5796 Y-28.1054
G1 X27.6511 Y-27.2529
G1 X27.4312 Y-26.9343
G1 X27.6143 Y-27.1357
G1 X27.1863 Y-26.8557
G1 X26.6890 Y-26.9645
G1 Z0.0000 F8000.0
G0 X28.3918 Y-27.5970 F15000.0
G1 Z11.9000 F8000.0
G1 X28.4556 Y-28.2813 F12000.0
G1 X28.5184 Y-28.3173
G1 X29.3609 Y-27.9093
G1 X29.3136 Y-27.6820
G1 X28.4752 Y-27.6121
G1 X29.0755 Y-26.9398
G1 X29.2854 Y-26.9441
G1 X29.4254 Y-27.1052
G1 X29.3524 Y-27.7608
G1 X29.4091 Y-27.5555
G1 X30.4271 Y-28.3719
G1 X31.1425 Y-27.8083
G1 X30.3556 Y-27.5852
G1 X30.1640 Y-27.4380
G1 X30.0998 Y-27.1017
G1 X30.2383 Y-26.9125
G1 X30.4598 Y-26.8521
G1 X31.1532 Y-27.0511
G1 X31.2462 Y-26.9949
G1 X31.2134 Y-27.6943
G1 Z0.0000 F8000.0
G0 X18.9538 Y-26.9645 F15000.0
G1 Z11.9000 F8000.0
G1 X18.8857 Y-28.9249 F12000.0
G1 X17.3970 Y-26.9645
G1 Z0.0000 F8000.0
G0 X11.6710 Y-22.1985 F15000.0
G1 Z11.9000 F8000.0
G1 X10.6763 Y-21.3992 F12000.0
G1 X10.6191 Y-22.3741
G1 X10.7605 Y-23.1978
G1 X11.3597 Y-23.2982
G1 X11.6510 Y-23.1439
G1 X11.7451 Y-22.4056
G1 X11.6449 Y-22.1948
G1 X11.3489 Y-21.9731
G1 X10.6378 Y-22.0839
G1 X9.5631 Y-22.0148
G1 X9.4818 Y-23.3660
G1 Z0.0000 F8000.0
G0 X10.0656 Y-23.3660 F15000.0
G1 Z11.9000 F8000.0
G1 X8.5193 Y-23.2897 F12000.0
G1 X8.4571 Y-22.0373
G1 X8.3897 Y-22.5631
G1 X7.5773 Y-22.6733
G1 X7.4113 Y-22.5944
G1 X7.3899 Y-22.0490
G1 X7.3899 Y-23.3174
G1 Z0.0000 F8000.0
G0 X5.6385 Y-23.1228 F15000.0
G1 Z11.9000 F8000.0
G1 X5.9608 Y-23.3354 F12000.0
G1 X6.5458 Y-23.2208
G1 X6.6419 Y-23.0175
G1 X6.7158 Y-22.2809
G1 X6.4567 Y-22.0470
G1 X5.9849 Y-21.9541
G1 X5.5872 Y-22.3193
G1 X5.7825 Y-22.0573
G1 X5.5606 Y-22.4285
G1 X5.5440 Y-23.0133
G1 X5.0449 Y-23.3079
G1 X4.6486 Y-22.8938
G1 X4.1548 Y-22.5719
G1 X4.1304 Y-21.9552
G1 Z0.0000 F8000.0
G0 X5.0061 Y-21.9552 F15000.0
G1 Z11.9000 F8000.0
G1 X4.6119 Y-22.7343 F12000.0
G1 X4.6840 Y-22.4753
G1 X4.1667 Y-22.7787
G1 X4.1304 Y-23.3174
G1 Z0.0000 F8000.0
G0 X3.0601 Y-23.9985 F15000.0
G1 Z11.9000 F8000.0
G1 X1.6006 Y-23.9985 F12000.0
G1 Z0.0000 F8000.0
G0 X2.2330 Y-23.9985 F15000.0
G1 Z11.9000 F8000.0
G1 X2.2817 Y-21.9552 F12000.0
G1 Z0.0000 F8000.0
G0 X0.0000 Y-19.9474 F15000.0
G1 Z11.9000 F8000.0
G1 X63.2677 Y-19.9474 F12000.0
G1 X131.3959 Y-19.9474 F12000.0
G1 X180.0000 Y-19.9474 F12000.0
G1 Z0.0000 F8000.0
G0 X180.0000 Y-24.8078 F15000.0
G1 Z11.9000 F8000.0
G1 X131.3959 Y-24.8078 F12000.0
G1 Z0.0000 F8000.0
G0 X133.4113 Y-21.6616 F15000.0
G1 Z11.9000 F8000.0
G1 X135.0973 Y-24.1028 F12000.0
G1 X135.1627 Y-21.7589
G1 Z0.0000 F8000.0
G0 X136.1357 Y-21.9535 F15000.0
G1 Z11.9000 F8000.0
G1 X136.4423 Y-22.1348 F12000.0
G1 X137.3648 Y-23.2902
G1 X137.5604 Y-23.3313
G1 X138.2664 Y-23.1907
G1 X138.1704 Y-22.2499
G1 X138.3273 Y-21.9141
G1 X138.4955 Y-21.7517
G1 X138.7120 Y-21.7120
G1 X139.4981 Y-22.0008
G1 X140.5645 Y-21.7971
G1 X140.6570 Y-21.9364
G1 X140.5928 Y-23.3878
G1 X139.9790 Y-23.4616
G1 Z0.0000 F8000.0
G0 X139.3952 Y-23.2184 F15000.0
G1 Z11.9000 F8000.0
G1 X138.9701 Y-23.4687 F12000.0
G1 X138.3735 Y-23.3157
G1 Z0.0000 F8000.0
G0 X136.8638 Y-22.7392 F15000.0
G1 Z11.9000 F8000.0
G1 X136.5321 Y-22.1847 F12000.0
G1 X136.7025 Y-22.4764
G1 X137.2654 Y-23.0448
G1 X137.4006 Y-21.7589
G1 Z0.0000 F8000.0
G0 X136.5888 Y-22.2717 F15000.0
G1 Z11.9000 F8000.0
G1 X136.1595 Y-22.0353 F12000.0
G1 X136.0870 Y-23.4130
G1 Z0.0000 F8000.0
G0 X136.1739 Y-24.8078 F15000.0
G1 Z11.9000 F8000.0
G1 X136.1739 Y-39.4714 F12000.0
G1 Z0.0000 F8000.0
G0 X135.5838 Y-41.4497 F15000.0
G1 Z11.9000 F8000.0
G1 X136.8838 Y-43.5448 F12000.0
G1 X136.9460 Y-41.4497
G1 Z0.0000 F8000.0
G0 X137.9677 Y-41.6929 F15000.0
G1 Z11.9000 F8000.0
G1 X138.3082 Y-42.1308 F12000.0
G1 Z0.0000 F8000.0
G0 X138.8920 Y-41.4010 F15000.0
G1 Z11.9000 F8000.0
G1 X138.8274 Y-42.6196 F12000.0
G1 X138.4344 Y-42.2996
G1 X138.0462 Y-41.8021
G1 X137.8788 Y-41.6991
G1 X137.8062 Y-41.8639
G1 X137.7514 Y-42.8211
G1 X138.4241 Y-42.3552
G1 X138.7765 Y-42.6707
G1 X138.8920 Y-42.9092
G1 Z0.0000 F8000.0
G0 X139.4758 Y-42.9578 F15000.0
G1 Z11.9000 F8000.0
G1 X140.6920 Y-42.9578 F12000.0
G1 Z0.0000 F8000.0
G0 X140.0596 Y-42.9578 F15000.0
G1 Z11.9000 F8000.0
G1 X140.1082 Y-41.4497 F12000.0
G1 Z0.0000 F8000.0
G0 X141.1167 Y-39.4714 F15000.0
G1 Z11.9000 F8000.0
G1 X141.1167 Y-24.8078 F12000.0
G1 Z0.0000 F8000.0
G0 X141.2925 Y-23.4616 F15000.0
G1 Z11.9000 F8000.0
G1 X140.6601 Y-23.4130 F12000.0
G1 Z0.0000 F8000.0
G0 X145.9771 Y-24.8078 F15000.0
G1 Z11.9000 F8000.0
G1 X145.9771 Y-44.3318 F12000.0
G1 Z0.0000 F8000.0
G0 X149.1025 Y-41.7786 F15000.0
G1 Z11.9000 F8000.0
G1 X149.1742 Y-43.4638 F12000.0
G1 X149.2512 Y-43.5690
G1 X150.0412 Y-42.0722
G1 X150.2055 Y-42.0571
G1 X150.4701 Y-42.6235
G1 X150.1206 Y-41.9802
G1 X150.1728 Y-42.0219
G1 Z0.0000 F8000.0
G0 X151.0971 Y-41.8273 F15000.0
G1 Z11.9000 F8000.0
G1 X150.9527 Y-43.3613 F12000.0
G1 X151.0153 Y-43.6225
G1 X150.6757 Y-43.1700
G1 X150.5340 Y-42.7809
G1 X150.6106 Y-43.0435
G1 Z0.0000 F8000.0
G0 X151.9728 Y-43.1408 F15000.0
G1 Z11.9000 F8000.0
G1 X152.1740 Y-43.2342 F12000.0
G1 X152.8658 Y-42.6649
G1 X151.9688 Y-42.3744
G1 X151.8150 Y-42.0606
G1 X151.9854 Y-41.7654
G1 X152.2098 Y-41.7161
G1 X152.8986 Y-41.9163
G1 X152.9788 Y-41.8669
G1 X152.9261 Y-42.5191
G1 X153.6850 Y-42.8749
G1 X153.6515 Y-42.3019
G1 X153.8419 Y-41.8582
G1 X154.1513 Y-41.7113
G1 X154.6972 Y-41.8759
G1 Z0.0000 F8000.0
G0 X154.7458 Y-43.0435 F15000.0
G1 Z11.9000 F8000.0
G1 X154.5447 Y-43.2278 F12000.0
G1 X154.0692 Y-43.2581
G1 X153.8369 Y-43.0969
G1 X154.1929 Y-43.2495
G1 X155.3393 Y-42.8856
G1 X155.3093 Y-42.2860
G1 X155.5078 Y-41.8497
G1 X155.8210 Y-41.7102
G1 X156.2826 Y-41.8695
G1 X156.3913 Y-42.0616
G1 X156.3694 Y-43.0717
G1 X156.1100 Y-43.2650
G1 X155.6380 Y-43.2110
G1 X155.4269 Y-43.0435
G1 Z0.0000 F8000.0
G0 X157.1296 Y-43.1408 F15000.0
G1 Z11.9000 F8000.0
G1 X157.3309 Y-43.2342 F12000.0
G1 X158.0226 Y-42.6649
G1 X157.1257 Y-42.3744
G1 X156.9718 Y-42.0606
G1 X157.1423 Y-41.7654
G1 X157.3666 Y-41.7161
G1 X158.0554 Y-41.9163
G1 X158.1356 Y-41.8669
G1 X158.1026 Y-42.5570
G1 Z0.0000 F8000.0
G0 X162.5355 Y-44.3318 F15000.0
G1 Z11.9000 F8000.0
G1 X162.5355 Y-24.8078 F12000.0
G1 Z0.0000 F8000.0
G0 X162.1612 Y-23.3961 F15000.0
G1 Z11.9000 F8000.0
G1 X162.6130 Y-23.4596 F12000.0
G1 X163.1348 Y-23.1495
G1 X163.2609 Y-22.5465
G1 X163.1758 Y-22.1841
G1 X163.0306 Y-22.0146
G1 X162.3170 Y-21.8256
G1 X162.2137 Y-21.8712
G1 X161.8674 Y-22.3804
G1 X161.9184 Y-22.9899
G1 X162.1011 Y-23.3270
G1 X161.9145 Y-23.1245
G1 X161.3014 Y-23.4338
G1 X160.1666 Y-23.4448
G1 Z0.0000 F8000.0
G0 X160.7017 Y-23.4448 F15000.0
G1 Z11.9000 F8000.0
G1 X160.7504 Y-21.8393 F12000.0
G1 Z0.0000 F8000.0
G0 X159.7287 Y-22.2285 F15000.0
G1 Z11.9000 F8000.0
G1 X159.5250 Y-21.9696 F12000.0
G1 X158.9307 Y-21.8221
G1 X158.6205 Y-21.9661
G1 X158.4495 Y-22.2893
G1 X158.4643 Y-22.9101
G1 X158.7160 Y-23.3256
G1 X159.0511 Y-23.4657
G1 X159.5341 Y-23.3475
G1 Z0.0000 F8000.0
G0 X157.6854 Y-21.8880 F15000.0
G1 Z11.9000 F8000.0
G1 X157.2445 Y-22.7821 F12000.0
G1 X157.2684 Y-22.8832
G1 X157.5614 Y-23.1045
G1 X157.3008 Y-22.9388
G1 X156.8882 Y-22.3498
G1 X156.5475 Y-22.2001
G1 X156.5131 Y-23.3329
G1 X157.1846 Y-22.9079
G1 X156.9194 Y-22.3998
G1 X156.5207 Y-22.0040
G1 X156.5179 Y-22.0826
G1 Z0.0000 F8000.0
G0 X155.5935 Y-21.8880 F15000.0
G1 Z11.9000 F8000.0
G1 X155.5264 Y-24.0945 F12000.0
G1 X154.1724 Y-21.8774
G1 X153.9881 Y-21.7907
G1 Z0.0000 F8000.0
G0 X151.4142 Y-19.9474 F15000.0
G1 Z11.9000 F8000.0
G1 X151.4142 Y-24.8078 F12000.0
G1 Z0.0000 F8000.0
G0 X161.9180 Y-22.1799 F15000.0
G1 Z11.9000 F8000.0
G1 X162.1612 Y-21.8880 F12000.0
G1 Z0.0000 F8000.0
G0 X164.0099 Y-22.6177 F15000.0
G1 Z11.9000 F8000.0
G1 X164.0896 Y-21.8965 F12000.0
G1 X165.0252 Y-21.9015
G1 X165.1348 Y-22.0237
G1 X165.0162 Y-22.6055
G1 X165.0749 Y-23.0672
G1 X164.7519 Y-23.3821
G1 X164.0875 Y-22.7611
G1 X164.9342 Y-22.6664
G1 Z0.0000 F8000.0
G0 X168.0276 Y-30.0865 F15000.0
G1 Z11.9000 F8000.0
G1 X168.3372 Y-30.2191 F12000.0
G1 X171.3004 Y-33.4035
G1 X171.4331 Y-34.1111
G1 Z0.0000 F8000.0
G0 X170.9908 Y-34.5976 F15000.0
G1 Z11.9000 F8000.0
G1 X170.2390 Y-34.5091 F12000.0
G1 X169.7525 Y-34.2438
G1 X169.4871 Y-33.9784
G1 Z0.0000 F8000.0
G0 X171.9618 Y-32.9455 F15000.0
G1 Z11.9000 F8000.0
G1 X172.0945 Y-33.0782 F12000.0
G1 Z0.0000 F8000.0
G0 X173.1012 Y-33.5262 F15000.0
G1 Z11.9000 F8000.0
G1 X173.2781 Y-33.7031 F12000.0
G1 Z0.0000 F8000.0
G0 X174.0300 Y-34.1896 F15000.0
G1 Z11.9000 F8000.0
G1 X174.3396 Y-34.2780 F12000.0
G1 Z0.0000 F8000.0
G0 X174.6492 Y-34.5876 F15000.0
G1 Z11.9000 F8000.0
G1 X174.3838 Y-34.2338 F12000.0
G1 X172.9243 Y-30.1649
G1 Z0.0000 F8000.0
G0 X169.9736 Y-30.1307 F15000.0
G1 Z11.9000 F8000.0
G1 X168.3372 Y-30.2191 F12000.0
G1 Z0.0000 F8000.0
G0 X174.5984 Y-23.5740 F15000.0
G1 Z11.9000 F8000.0
G1 X174.8195 Y-23.7067 F12000.0
G1 Z0.0000 F8000.0
G0 X175.2618 Y-23.7067 F15000.0
G1 Z11.9000 F8000.0
G1 X174.4215 Y-21.3627 F12000.0
G1 X174.2446 Y-21.0531
G1 Z0.0000 F8000.0
G0 X180.0000 Y-39.4714 F15000.0
G1 Z11.9000 F8000.0
G1 X145.9771 Y-39.4714 F12000.0
G1 X131.3959 Y-39.4714 F12000.0
G1 Z0.0000 F8000.0
G0 X131.3959 Y-44.3318 F15000.0
G1 Z11.9000 F8000.0
G1 X131.3959 Y-5.3662 F12000.0
G1 Z0.0000 F8000.0
G0 X126.3640 Y-12.9396 F15000.0
G1 Z11.9000 F8000.0
G1 X126.4863 Y-12.6601 F12000.0
G1 X126.9383 Y-12.4118
G1 X127.7478 Y-12.4649
G1 X128.3369 Y-13.2873
G1 X128.3669 Y-14.1618
G1 X127.0892 Y-13.8384
G1 X126.7901 Y-13.9165
G1 X126.4089 Y-14.2191
G1 X126.2686 Y-14.6036
G1 X126.3031 Y-15.3298
G1 X126.9847 Y-15.9290
G1 X127.9043 Y-15.7566
G1 X128.0837 Y-15.6612
G1 X128.2816 Y-15.1916
G1 X128.4073 Y-14.2045
G1 Z0.0000 F8000.0
G0 X124.4181 Y-14.6910 F15000.0
G1 Z11.9000 F8000.0
G1 X124.3208 Y-14.4964 F12000.0
G1 Z0.0000 F8000.0
G0 X123.0559 Y-15.9559 F15000.0
G1 Z11.9000 F8000.0
G1 X124.9824 Y-15.8858 F12000.0
G1 X124.9558 Y-15.6032
G1 X124.0522 Y-13.9468
G1 X123.7723 Y-12.7194
G1 X123.6397 Y-12.4531
G1 Z0.0000 F8000.0
G0 X121.9856 Y-13.6207 F15000.0
G1 Z11.9000 F8000.0
G1 X121.0126 Y-13.6207 F12000.0
G1 Z0.0000 F8000.0
G0 X118.1909 Y-12.6477 F15000.0
G1 Z11.9000 F8000.0
G1 X118.0563 Y-12.7823 F12000.0
G1 X118.4079 Y-12.4631
G1 X118.9107 Y-12.3873
G1 X119.7060 Y-12.6142
G1 X119.9909 Y-13.0434
G1 X119.9138 Y-13.8800
G1 X119.5125 Y-14.3740
G1 X119.8235 Y-15.0677
G1 X119.7571 Y-15.4779
G1 X119.4369 Y-15.8732
G1 X119.2594 Y-15.9411
G1 X118.4312 Y-15.8487
G1 X118.0529 Y-15.5103
G1 X117.9963 Y-15.2748
G1 Z0.0000 F8000.0
G0 X114.8827 Y-15.0802 F15000.0
G1 Z11.9000 F8000.0
G1 X115.8026 Y-15.5164 F12000.0
G1 X115.9530 Y-12.4531
G1 Z0.0000 F8000.0
G0 X113.4233 Y-12.9396 F15000.0
G1 Z11.9000 F8000.0
G1 X113.3260 Y-12.7450 F12000.0
G1 Z0.0000 F8000.0
G0 X113.4233 Y-14.0099 F15000.0
G1 Z11.9000 F8000.0
G1 X113.1314 Y-14.3991 F12000.0
G1 Z0.0000 F8000.0
G0 X113.3260 Y-15.4694 F15000.0
G1 Z11.9000 F8000.0
G1 X113.2943 Y-15.6664 F12000.0
G1 X113.0708 Y-15.8531
G1 X112.1464 Y-15.9208
G1 X111.5949 Y-15.4584
G1 X111.4079 Y-14.5404
G1 X111.3960 Y-13.2618
G1 X111.8702 Y-12.5807
G1 X112.0241 Y-12.4682
G1 X112.6354 Y-12.3731
G1 X113.0326 Y-12.4741
G1 X113.3260 Y-12.7655
G1 X113.5019 Y-13.1396
G1 X113.3726 Y-14.0578
G1 X112.8870 Y-14.5690
G1 X111.9575 Y-14.4815
G1 X111.5458 Y-14.3232
G1 X111.8823 Y-14.4058
G1 X111.9638 Y-14.4964
G1 Z0.0000 F8000.0
G0 X108.6115 Y-16.1018 F15000.0
G1 Z11.9000 F8000.0
G1 X107.2493 Y-16.0532 F12000.0
G1 Z0.0000 F8000.0
G0 X105.8871 Y-16.1018 F15000.0
G1 Z11.9000 F8000.0
G1 X107.0237 Y-16.0601 F12000.0
G1 X107.2168 Y-15.9934
G1 X107.2493 Y-12.5017
G1 Z0.0000 F8000.0
G0 X105.0601 Y-13.3288 F15000.0
G1 Z11.9000 F8000.0
G1 X104.6559 Y-12.6933 F12000.0
G1 X103.2768 Y-12.4328
G1 X102.9369 Y-12.5556
G1 X102.4484 Y-12.9481
G1 X102.1738 Y-13.5063
G1 X102.0637 Y-14.2495
G1 X102.3702 Y-15.4656
G1 X102.7289 Y-15.8141
G1 X103.0543 Y-15.9938
G1 X104.1844 Y-16.1018
G1 Z0.0000 F8000.0
G0 X104.2817 Y-16.0532 F15000.0
G1 Z11.9000 F8000.0
G1 X104.7646 Y-15.6874 F12000.0
G1 X104.9628 Y-15.3721
G1 Z0.0000 F8000.0
G0 X98.2005 Y-15.7613 F15000.0
G1 Z11.9000 F8000.0
G1 X97.9220 Y-15.4927 F12000.0
G1 X97.9982 Y-15.5906
G1 X97.6959 Y-14.9936
G1 X97.5853 Y-13.8680
G1 X97.7849 Y-13.2729
G1 X98.2777 Y-12.7168
G1 X98.9643 Y-12.4369
G1 X100.2904 Y-12.8304
G1 X100.5856 Y-13.0058
G1 X100.8450 Y-13.5137
G1 X100.9594 Y-14.1292
G1 X100.8731 Y-14.8806
G1 X100.5240 Y-15.5314
G1 X99.2873 Y-16.1163
G1 X98.2175 Y-15.7687
G1 X97.8901 Y-15.4006
G1 X97.7140 Y-15.0315
G1 Z0.0000 F8000.0
G0 X97.0329 Y-16.1018 F15000.0
G1 Z11.9000 F8000.0
G1 X94.8923 Y-12.5017 F12000.0
G1 Z0.0000 F8000.0
G0 X97.7627 Y-13.2801 F15000.0
G1 Z11.9000 F8000.0
G1 X98.2005 Y-12.7450 F12000.0
G1 Z0.0000 F8000.0
G0 X91.5218 Y-12.7450 F15000.0
G1 Z11.9000 F8000.0
G1 X91.3945 Y-12.6091 F12000.0
G1 X90.3228 Y-12.4267
G1 X90.1021 Y-12.5083
G1 X89.7036 Y-13.0430
G1 X89.8988 Y-12.7397
G1 X90.4112 Y-12.3934
G1 X91.2999 Y-12.5044
G1 X91.6368 Y-12.9382
G1 X91.7902 Y-13.5401
G1 X91.6254 Y-14.2730
G1 X91.4812 Y-14.4531
G1 X90.9517 Y-14.7232
G1 X89.8191 Y-14.6423
G1 Z0.0000 F8000.0
G0 X89.7705 Y-14.3991 F15000.0
G1 Z11.9000 F8000.0
G1 X89.9237 Y-14.7196 F12000.0
G1 X91.6191 Y-16.0532
G1 Z0.0000 F8000.0
G0 X88.4083 Y-15.3721 F15000.0
G1 Z11.9000 F8000.0
G1 X88.2101 Y-15.6874 F12000.0
G1 X87.7272 Y-16.0532
G1 Z0.0000 F8000.0
G0 X86.1704 Y-15.8099 F15000.0
G1 Z11.9000 F8000.0
G1 X86.5339 Y-16.0117 F12000.0
G1 X87.5383 Y-16.0943
G1 X86.4785 Y-15.9851
G1 X85.8019 Y-15.4417
G1 X85.5061 Y-14.2224
G1 X85.5903 Y-13.6000
G1 X85.8327 Y-13.0220
G1 X86.3013 Y-12.6085
G1 X86.7476 Y-12.4306
G1 X88.0773 Y-12.8045
G1 X88.2677 Y-12.9440
G1 X88.4575 Y-13.2372
G1 X88.3110 Y-12.9396
G1 Z0.0000 F8000.0
G0 X72.1593 Y-16.0532 F15000.0
G1 Z11.9000 F8000.0
G1 X73.0259 Y-15.9804 F12000.0
G1 X73.2848 Y-15.7615
G1 X73.3719 Y-15.5494
G1 X73.5935 Y-13.5482
G1 X73.3666 Y-12.8324
G1 X73.1516 Y-12.5430
G1 X72.5896 Y-12.3699
G1 X72.2239 Y-12.4228
G1 X71.7855 Y-12.7838
G1 X71.5082 Y-13.5172
G1 X71.7517 Y-15.5171
G1 X72.0737 Y-15.9903
G1 X71.7701 Y-15.6640
G1 Z0.0000 F8000.0
G0 X63.2677 Y-10.2266 F15000.0
G1 Z11.9000 F8000.0
G1 X0.0000 Y-10.2266 F12000.0
G1 Z0.0000 F8000.0
G0 X0.0000 Y-58.9131 F15000.0
G1 Z11.9000 F8000.0
G1 X180.0000 Y-58.9131 F12000.0
G1 Z0.0000 F8000.0
G0 X180.0000 Y-44.3318 F15000.0
G1 Z11.9000 F8000.0
G1 X63.2677 Y-44.3318 F12000.0
G1 X0.0000 Y-44.3318 F12000.0
G1 Z0.0000 F8000.0
G0 X0.0000 Y-49.1922 F15000.0
G1 Z11.9000 F8000.0
G1 X63.2677 Y-49.1922 F12000.0
G1 Z0.0000 F8000.0
G0 X63.2677 Y-54.0526 F15000.0
G1 Z11.9000 F8000.0
G1 X0.0000 Y-54.0526 F12000.0
G1 Z0.0000 F8000.0
G0 X0.0000 Y-39.4714 F15000.0
G1 Z11.9000 F8000.0
G1 X63.2677 Y-39.4714 F12000.0
G1 Z0.0000 F8000.0
G0 X63.2677 Y-29.7506 F15000.0
G1 Z11.9000 F8000.0
G1 X0.0000 Y-29.7506 F12000.0
G1 Z0.0000 F8000.0
G0 X0.8548 Y-28.9252 F15000.0
G1 Z11.9000 F8000.0
G1 X2.2097 Y-30.7745 F12000.0
G1 X2.3143 Y-28.9252
G1 Z0.0000 F8000.0
G0 X3.0927 Y-29.0711 F15000.0
G1 Z11.9000 F8000.0
G1 X3.6911 Y-28.9086 F12000.0
G1 X4.0455 Y-29.1082
G1 X4.1392 Y-29.3202
G1 X4.0382 Y-30.0577
G1 X3.8772 Y-30.2277
G1 X3.3975 Y-30.2270
G1 X3.1179 Y-30.0333
G1 X3.0440 Y-28.2927
G1 Z0.0000 F8000.0
G0 X5.5252 Y-30.2874 F15000.0
G1 Z11.9000 F8000.0
G1 X4.9412 Y-30.1402 F12000.0
G1 X4.7238 Y-29.5105
G1 X4.8414 Y-29.1594
G1 X4.9944 Y-28.9875
G1 X5.3401 Y-28.9086
G1 X5.7517 Y-29.0562
G1 X5.7075 Y-28.9844
G1 X5.8883 Y-29.3784
G1 X5.7242 Y-30.1016
G1 X5.6009 Y-30.2352
G1 X6.4325 Y-29.7065
G1 X7.3906 Y-29.5036
G1 X7.4835 Y-29.4063
G1 X7.5169 Y-29.1781
G1 X7.5125 Y-29.2714
G1 X7.4823 Y-29.0331
G1 X7.1970 Y-28.9376
G1 X6.6388 Y-29.4289
G1 X6.5388 Y-29.6166
G1 X7.2588 Y-30.2333
G1 X7.3492 Y-30.2111
G1 X7.4412 Y-30.0063
G1 X7.4225 Y-28.9252
G1 Z0.0000 F8000.0
G0 X8.7349 Y-33.4583 F15000.0
G1 Z11.9000 F8000.0
G1 X8.6209 Y-33.6374 F12000.0
G1 X8.6682 Y-34.2465
G1 X8.5311 Y-34.7168
G1 X8.3403 Y-34.7779
G1 X7.7749 Y-34.5650
G1 X7.6683 Y-33.7260
G1 X7.7411 Y-33.5133
G1 X7.9521 Y-33.4335
G1 X8.7254 Y-33.4706
G1 X8.6082 Y-34.1329
G1 X7.9771 Y-34.0614
G1 X8.4327 Y-33.5595
G1 X8.5890 Y-33.5556
G1 Z0.0000 F8000.0
G0 X10.4376 Y-33.6042 F15000.0
G1 Z11.9000 F8000.0
G1 X10.4834 Y-34.4523 F12000.0
G1 X10.4049 Y-34.6509
G1 X10.2082 Y-34.7420
G1 X9.5413 Y-34.6510
G1 X9.8054 Y-34.7813
G1 X10.1723 Y-34.7804
G1 X10.3751 Y-34.6679
G1 X10.5565 Y-33.9515
G1 X10.5022 Y-33.7230
G1 X10.3237 Y-33.5678
G1 X9.9705 Y-33.4487
G1 X9.6343 Y-33.5490
G1 X9.4899 Y-33.7416
G1 X9.3992 Y-34.7830
G1 X9.4924 Y-35.1243
G1 X9.6173 Y-35.2652
G1 X10.5836 Y-35.4529
G1 Z0.0000 F8000.0
G0 X11.7424 Y-36.6465 F15000.0
G1 Z11.9000 F8000.0
G1 X11.5659 Y-37.6450 F12000.0
G1 X11.3268 Y-37.4670
G1 X10.9797 Y-36.9699
G1 X10.8329 Y-36.9072
G1 X10.9307 Y-36.9598
G1 X10.7395 Y-36.9805
G1 X10.6721 Y-37.9601
G1 Z0.0000 F8000.0
G0 X11.5478 Y-37.7168 F15000.0
G1 Z11.9000 F8000.0
G1 X11.6994 Y-37.8664 F12000.0
G1 X11.1046 Y-37.1532
G1 X10.5732 Y-36.8328
G1 X9.9979 Y-36.6965
G1 X9.8765 Y-38.4983
G1 X9.8166 Y-38.5666
G1 X8.8720 Y-38.5925
G1 Z0.0000 F8000.0
G0 X8.8234 Y-38.4952 F15000.0
G1 Z11.9000 F8000.0
G1 X8.7731 Y-36.8163 F12000.0
G1 X8.6933 Y-36.6236
G1 X8.5315 Y-36.5492
G1 Z0.0000 F8000.0
G0 X6.2009 Y-36.6465 F15000.0
G1 Z11.9000 F8000.0
G1 X6.0898 Y-37.6239 F12000.0
G1 X5.8790 Y-37.4894
G1 X5.5110 Y-36.7424
G1 X4.8497 Y-37.7035
G1 X4.7488 Y-36.7281
G1 X4.7498 Y-37.6241
G1 X3.4042 Y-37.8214
G1 X3.6421 Y-37.9886
G1 X3.9859 Y-37.9138
G1 X4.0303 Y-37.4712
G1 X3.8251 Y-37.3284
G1 X3.9809 Y-37.2372
G1 X4.1049 Y-36.9133
G1 X4.0720 Y-36.8279
G1 X3.6407 Y-36.6337
G1 X2.6675 Y-36.6756
G1 X2.5824 Y-36.8600
G1 X2.4756 Y-38.1133
G1 X2.5614 Y-38.3761
G1 X2.0595 Y-37.8396
G1 X2.2524 Y-38.0924
G1 X1.5503 Y-37.1194
G1 X1.2391 Y-36.8138
G1 X1.1413 Y-38.5439
G1 Z0.0000 F8000.0
G0 X13.3478 Y-36.7438 F15000.0
G1 Z11.9000 F8000.0
G1 X13.3836 Y-36.8067 F12000.0
G1 X12.9832 Y-36.6356
G1 X12.4578 Y-36.9181
G1 X12.3917 Y-37.2728
G1 X12.4959 Y-37.7420
G1 X13.0674 Y-37.9676
G1 X14.8559 Y-38.0087
G1 Z0.0000 F8000.0
G0 X14.3208 Y-38.0087 F15000.0
G1 Z11.9000 F8000.0
G1 X14.3694 Y-36.6465 F12000.0
G1 Z0.0000 F8000.0
G0 X20.9641 Y-36.7456 F15000.0
G1 Z11.9000 F8000.0
G1 X20.9926 Y-38.2501 F12000.0
G1 X21.1507 Y-38.2375
G1 X21.7154 Y-37.6394
G1 X21.8119 Y-37.4009
G1 X21.7843 Y-37.4587
G1 X22.2913 Y-36.9970
G1 X22.0034 Y-37.1237
G1 X22.2419 Y-37.0675
G1 X22.3930 Y-37.1387
G1 X22.4236 Y-38.5943
G1 Z0.0000 F8000.0
G0 X23.1047 Y-38.1078 F15000.0
G1 Z11.9000 F8000.0
G1 X23.3340 Y-38.1746 F12000.0
G1 X23.5004 Y-38.0957
G1 X23.6029 Y-37.9243
G1 X23.6538 Y-37.5259
G1 X23.3721 Y-37.2615
G1 X22.9918 Y-37.3123
G1 X23.4150 Y-37.1794
G1 X23.6467 Y-36.9069
G1 X23.4609 Y-37.2375
G1 X23.5277 Y-37.4053
G1 X22.9717 Y-37.4495
G1 X22.9101 Y-37.9132
G1 Z0.0000 F8000.0
G0 X21.7425 Y-37.5240 F15000.0
G1 Z11.9000 F8000.0
G1 X21.3204 Y-38.1217 F12000.0
G1 X21.0614 Y-38.3024
G1 Z0.0000 F8000.0
G0 X0.0000 Y-24.8078 F15000.0
G1 Z11.9000 F8000.0
G1 X63.2677 Y-24.8078 F12000.0
G1 Z0.0000 F8000.0
G0 X63.2677 Y-5.3662 F15000.0
G1 Z11.9000 F8000.0
G1 X63.2677 Y-58.9131 F12000.0
G1 Z0.0000 F8000.0
G0 X53.5469 Y-58.9131 F15000.0
G1 Z11.9000 F8000.0
G1 X53.5469 Y-5.3662 F12000.0
G1 Z0.0000 F8000.0
G0 X38.9657 Y-5.3662 F15000.0
G1 Z11.9000 F8000.0
G1 X38.9657 Y-58.9131 F12000.0
G1 Z0.0000 F8000.0
G0 X135.8408 Y-54.6373 F15000.0
G1 Z11.9000 F8000.0
G1 X135.7191 Y-54.4296 F12000.0
G1 X135.4448 Y-52.5559
G1 X135.7188 Y-51.3272
G1 Z0.0000 F8000.0
G0 X136.4317 Y-50.8175 F15000.0
G1 Z11.9000 F8000.0
G1 X135.7788 Y-51.2660 F12000.0
G1 X136.0076 Y-50.9931
G1 X136.3402 Y-50.8613
G1 X137.2135 Y-50.9744
G1 X137.5188 Y-51.1812
G1 Z0.0000 F8000.0
G0 X137.2531 Y-50.9311 F15000.0
G1 Z11.9000 F8000.0
G1 X137.5498 Y-51.2585 F12000.0
G1 X137.7541 Y-51.7132
G1 X137.8989 Y-52.9600
G1 X137.7284 Y-54.2014
G1 X137.4578 Y-54.7256
G1 X137.0689 Y-54.9772
G1 X136.7047 Y-55.0604
G1 X136.3359 Y-55.0106
G1 X135.7901 Y-54.5975
G1 X136.2308 Y-54.9650
G1 Z0.0000 F8000.0
G0 X139.3191 Y-51.2891 F15000.0
G1 Z11.9000 F8000.0
G1 X139.7264 Y-50.9267 F12000.0
G1 X140.6294 Y-50.8204
G1 X141.0800 Y-51.0253
G1 X141.3585 Y-51.3533
G1 X141.2166 Y-51.1577
G1 X141.4826 Y-51.6192
G1 X141.5195 Y-51.9820
G1 X141.2072 Y-53.0743
G1 X141.0672 Y-53.2538
G1 X140.3657 Y-53.4923
G1 X139.5047 Y-53.3083
G1 X139.2359 Y-53.1515
G1 X139.4638 Y-53.4379
G1 X141.3622 Y-54.9759
G1 Z0.0000 F8000.0
G0 X163.6102 Y-41.3188 F15000.0
G1 Z11.9000 F8000.0
G1 X163.6952 Y-43.3222 F12000.0
G1 X163.6737 Y-43.2089
G1 X163.8576 Y-43.0211
G1 X164.6877 Y-41.5382
G1 X165.0802 Y-42.2557
G1 X164.8955 Y-41.6902
G1 X164.9769 Y-41.9654
G1 X164.7292 Y-41.4648
G1 Z0.0000 F8000.0
G0 X165.7021 Y-41.2702 F15000.0
G1 Z11.9000 F8000.0
G1 X165.5914 Y-43.1661 F12000.0
G1 X165.2099 Y-42.6209
G1 X165.6048 Y-43.2648
G1 Z0.0000 F8000.0
G0 X166.8211 Y-42.8756 F15000.0
G1 Z11.9000 F8000.0
G1 X166.7289 Y-42.7934 F12000.0
G1 X166.9777 Y-42.8541
G1 X167.6839 Y-42.7022
G1 X167.7380 Y-42.3604
G1 X167.6239 Y-42.1699
G1 X166.6130 Y-41.4878
G1 X167.0521 Y-41.2100
G1 X167.6793 Y-41.4022
G1 X167.7469 Y-42.1444
G1 X167.7454 Y-41.4648
G1 Z0.0000 F8000.0
G0 X169.5941 Y-41.4161 F15000.0
G1 Z11.9000 F8000.0
G1 X169.6481 Y-41.5336 F12000.0
G1 X169.4757 Y-41.3369
G1 X169.1316 Y-41.2105
G1 X168.6910 Y-41.3764
G1 X168.4480 Y-41.9367
G1 X168.5683 Y-42.5466
G1 X168.8039 Y-42.8248
G1 X169.4021 Y-42.8477
G1 X169.6428 Y-42.5837
G1 Z0.0000 F8000.0
G0 X170.3239 Y-42.8269 F15000.0
G1 Z11.9000 F8000.0
G1 X170.3494 Y-41.3948 F12000.0
G1 X170.5251 Y-41.3008
G1 X171.1500 Y-41.2399
G1 X171.3216 Y-41.3261
G1 X171.3455 Y-42.8269
G1 Z0.0000 F8000.0
G0 X172.4158 Y-42.8269 F15000.0
G1 Z11.9000 F8000.0
G1 X171.3941 Y-41.2702 F12000.0
G1 Z0.0000 F8000.0
G0 X173.5834 Y-41.2702 F15000.0
G1 Z11.9000 F8000.0
G1 X173.5347 Y-42.8756 F12000.0
G1 Z0.0000 F8000.0
G0 X172.9509 Y-42.8756 F15000.0
G1 Z11.9000 F8000.0
G1 X174.1672 Y-42.8756 F12000.0
G1 Z0.0000 F8000.0
G0 X174.9942 Y-42.8756 F15000.0
G1 Z11.9000 F8000.0
G1 X174.8989 Y-42.7882 F12000.0
G1 X175.1660 Y-42.8528
G1 X175.8661 Y-42.6926
G1 X175.9075 Y-42.3470
G1 X175.7846 Y-42.1613
G1 X174.7806 Y-41.4797
G1 X175.2391 Y-41.2061
G1 X175.8626 Y-41.3993
G1 X175.9507 Y-41.6158
G1 X175.9186 Y-42.2431
G1 Z0.0000 F8000.0
G0 X176.7456 Y-42.5350 F15000.0
G1 Z11.9000 F8000.0
G1 X177.0472 Y-42.7394 F12000.0
G1 X176.7385 Y-42.4790
G1 X177.0255 Y-41.4061
G1 X177.2979 Y-41.2231
G1 X178.0186 Y-41.8705
G1 X178.0890 Y-42.0874
G1 X178.0533 Y-42.3333
G1 X177.7972 Y-42.7272
G1 X176.7453 Y-42.7015
G1 X176.7468 Y-43.0369
G1 X176.9660 Y-43.3569
G1 X178.0591 Y-43.6540
G1 Z0.0000 F8000.0
G0 X176.8915 Y-41.4648 F15000.0
G1 Z11.9000 F8000.0
G1 X177.0375 Y-41.3188 F12000.0
G1 Z0.0000 F8000.0
G0 X64.5858 Y-199.3859 F15000.0
G1 Z11.9000 F8000.0
G1 X64.5858 Y-200.2616 F12000.0
G1 Z0.0000 F8000.0
G0 X63.9680 Y-199.9733 F15000.0
G1 Z11.9000 F8000.0
G1 X63.9680 Y-199.0976 F12000.0
G1 Z0.0000 F8000.0
G0 X68.1282 Y-271.0412 F15000.0
G1 Z11.9000 F8000.0
G1 X0.0000 Y-271.0412 F12000.0
G1 Z0.0000 F8000.0
G0 X11.7200 Y-276.4038 F15000.0
G1 Z11.9000 F8000.0
G1 X11.7650 Y-279.7772 F12000.0
G1 X11.8307 Y-280.1020
G1 X11.8896 Y-280.1064
G1 X13.6432 Y-276.7866
G1 X13.7647 Y-276.6707
G1 X13.8370 Y-276.7154
G1 X14.9691 Y-279.6468
G1 X15.4383 Y-280.2651
G1 X15.2706 Y-279.9070
G1 X15.5633 Y-276.4038
G1 Z0.0000 F8000.0
G0 X13.7147 Y-276.6471 F15000.0
G1 Z11.9000 F8000.0
G1 X13.6660 Y-276.5984 F12000.0
G1 Z0.0000 F8000.0
G0 X16.8282 Y-279.2255 F15000.0
G1 Z11.9000 F8000.0
G1 X16.9230 Y-278.1629 F12000.0
G1 X17.2221 Y-277.7055
G1 X17.5626 Y-277.5919
G1 X18.9079 Y-277.7256
G1 X18.9676 Y-277.5409
G1 X18.9688 Y-276.4038
G1 Z0.0000 F8000.0
G0 X18.9688 Y-277.7660 F15000.0
G1 Z11.9000 F8000.0
G1 X18.9688 Y-279.1769 F12000.0
G1 Z0.0000 F8000.0
G0 X20.3310 Y-279.3228 F15000.0
G1 Z11.9000 F8000.0
G1 X20.3796 Y-279.4201 F12000.0
G1 Z0.0000 F8000.0
G0 X21.1094 Y-280.4904 F15000.0
G1 Z11.9000 F8000.0
G1 X21.8391 Y-280.4904 F12000.0
G1 X22.4229 Y-280.0525
G1 X22.6175 Y-279.5661
G1 X22.7148 Y-277.7174
G1 X22.3256 Y-276.6471
G1 X21.2553 Y-276.3065
G1 X21.1094 Y-276.3552
G1 X20.5742 Y-276.8417
G1 X20.6229 Y-276.7444
G1 X20.4769 Y-277.0849
G1 X20.5742 Y-276.8417
G1 X20.4283 Y-277.1822
G1 X20.4769 Y-277.0849
G1 X20.3796 Y-277.3768
G1 X20.3310 Y-279.3228
G1 X20.6715 Y-280.1012
G1 X21.1094 Y-280.4904
G1 Z0.0000 F8000.0
G0 X23.9311 Y-279.3228 F15000.0
G1 Z11.9000 F8000.0
G1 X24.7194 Y-280.4496 F12000.0
G1 X25.4469 Y-280.4600
G1 X26.0211 Y-280.0151
G1 X26.2231 Y-279.4325
G1 X26.3040 Y-277.7916
G1 X26.0688 Y-276.9440
G1 X25.9176 Y-276.6737
G1 X24.9928 Y-276.3530
G1 X24.7581 Y-276.3571
G1 X24.1967 Y-276.8092
G1 X24.0547 Y-277.1295
G1 X23.8901 Y-277.9819
G1 X23.9556 Y-279.3676
G1 X24.2065 Y-280.0077
G1 X24.7095 Y-280.4904
G1 Z0.0000 F8000.0
G0 X23.9311 Y-277.4741 F15000.0
G1 Z11.9000 F8000.0
G1 X24.2566 Y-276.7213 F12000.0
G1 Z0.0000 F8000.0
G0 X21.1094 Y-276.3552 F15000.0
G1 Z11.9000 F8000.0
G1 X20.6832 Y-276.6730 F12000.0
G1 X20.3310 Y-277.4741
G1 Z0.0000 F8000.0
G0 X29.3798 Y-277.4741 F15000.0
G1 Z11.9000 F8000.0
G1 X29.7320 Y-276.6730 F12000.0
G1 X30.1582 Y-276.3552
G1 Z0.0000 F8000.0
G0 X29.3798 Y-279.3228 F15000.0
G1 Z11.9000 F8000.0
G1 X29.4285 Y-279.4201 F12000.0
G1 Z0.0000 F8000.0
G0 X30.1582 Y-280.4904 F15000.0
G1 Z11.9000 F8000.0
G1 X30.8879 Y-280.4904 F12000.0
G1 X31.4717 Y-280.0525
G1 X31.6663 Y-279.5661
G1 X31.7636 Y-277.7174
G1 X31.3744 Y-276.6471
G1 X30.3042 Y-276.3065
G1 X30.1582 Y-276.3552
G1 X29.6231 Y-276.8417
G1 X29.6717 Y-276.7444
G1 X29.5258 Y-277.0849
G1 X29.6231 Y-276.8417
G1 X29.4771 Y-277.1822
G1 X29.5258 Y-277.0849
G1 X29.4285 Y-277.3768
G1 X29.3798 Y-279.3228
G1 X29.7204 Y-280.1012
G1 X30.1582 Y-280.4904
G1 Z0.0000 F8000.0
G0 X34.6340 Y-280.5390 F15000.0
G1 Z11.9000 F8000.0
G1 X34.4088 Y-279.9748 F12000.0
G1 X33.2868 Y-279.2918
G1 X34.4535 Y-279.9421
G1 X34.5367 Y-276.4038
G1 Z0.0000 F8000.0
G0 X38.4773 Y-277.4741 F15000.0
G1 Z11.9000 F8000.0
G1 X38.8295 Y-276.6730 F12000.0
G1 X39.2557 Y-276.3552
G1 Z0.0000 F8000.0
G0 X42.0773 Y-277.4741 F15000.0
G1 Z11.9000 F8000.0
G1 X42.4296 Y-276.6730 F12000.0
G1 X42.8557 Y-276.3552
G1 Z0.0000 F8000.0
G0 X42.0773 Y-279.3228 F15000.0
G1 Z11.9000 F8000.0
G1 X42.8657 Y-280.4496 F12000.0
G1 X43.5932 Y-280.4600
G1 X44.1674 Y-280.0151
G1 X44.3694 Y-279.4325
G1 X44.4506 Y-277.7915
G1 X44.1217 Y-276.7237
G1 X43.1512 Y-276.3610
G1 X42.9168 Y-276.3540
G1 X42.3478 Y-276.8018
G1 X42.2010 Y-277.1277
G1 X42.0367 Y-277.9679
G1 X42.0984 Y-279.3541
G1 X42.3457 Y-279.9957
G1 X42.8557 Y-280.4904
G1 Z0.0000 F8000.0
G0 X39.2557 Y-280.4904 F15000.0
G1 Z11.9000 F8000.0
G1 X39.9854 Y-280.4904 F12000.0
G1 X40.5692 Y-280.0525
G1 X40.7638 Y-279.5661
G1 X40.8611 Y-277.7174
G1 X40.4719 Y-276.6471
G1 X39.4016 Y-276.3065
G1 X39.2557 Y-276.3552
G1 X38.7205 Y-276.8417
G1 X38.7692 Y-276.7444
G1 X38.6232 Y-277.0849
G1 X38.7205 Y-276.8417
G1 X38.5746 Y-277.1822
G1 X38.6232 Y-277.0849
G1 X38.4286 Y-277.9606
G1 X38.4773 Y-279.3228
G1 X38.8178 Y-280.1012
G1 X39.2557 Y-280.4904
G1 Z0.0000 F8000.0
G0 X38.5259 Y-279.4201 F15000.0
G1 Z11.9000 F8000.0
G1 X38.4773 Y-279.3228 F12000.0
G1 Z0.0000 F8000.0
G0 X47.5261 Y-279.3228 F15000.0
G1 Z11.9000 F8000.0
G1 X48.3144 Y-280.4496 F12000.0
G1 X49.0420 Y-280.4600
G1 X49.6162 Y-280.0151
G1 X49.8181 Y-279.4325
G1 X49.8990 Y-277.7916
G1 X49.6639 Y-276.9440
G1 X49.5126 Y-276.6737
G1 X48.5879 Y-276.3530
G1 X48.3531 Y-276.3571
G1 X47.7917 Y-276.8092
G1 X47.6498 Y-277.1295
G1 X47.5691 Y-277.6100
G1 X47.5542 Y-279.3755
G1 X47.7574 Y-279.9442
G1 X48.3045 Y-280.4904
G1 Z0.0000 F8000.0
G0 X47.5261 Y-277.4741 F15000.0
G1 Z11.9000 F8000.0
G1 X47.8783 Y-276.6730 F12000.0
G1 X48.3045 Y-276.3552
G1 Z0.0000 F8000.0
G0 X51.3208 Y-276.7444 F15000.0
G1 Z11.9000 F8000.0
G1 X51.2699 Y-276.8544 F12000.0
G1 X51.3751 Y-276.6696
G1 X51.9270 Y-276.3449
G1 X52.7934 Y-276.3845
G1 X53.1098 Y-276.5773
G1 X53.3622 Y-276.9149
G1 X53.5277 Y-277.3807
G1 X53.4424 Y-278.2484
G1 X53.1820 Y-278.6422
G1 X52.9364 Y-278.8149
G1 X52.4606 Y-278.9601
G1 X51.3810 Y-278.8314
G1 X51.5834 Y-280.2598
G1 X51.7007 Y-280.4215
G1 X53.3640 Y-280.4417
G1 Z0.0000 F8000.0
G0 X51.3208 Y-278.7877 F15000.0
G1 Z11.9000 F8000.0
G1 X51.2721 Y-278.6904 F12000.0
G1 Z0.0000 F8000.0
G0 X68.1282 Y-284.6338 F15000.0
G1 Z11.9000 F8000.0
G1 X68.1282 Y-271.0412 F12000.0
G1 Z0.0000 F8000.0

G0 Z0.0000 F800.0
G4 P0.06
G0 X0.0000 Y0.0000 F15000.0
M5
G4 P0.10
$1=0
