$X
$1=255
G21
G90
G92 Z4.0000
G0 Z0.0000 F800.0
G4 P0.06
G92 Z0.0000
G0 Z0.0000 F800.0
G0 X0.0000 Y0.0000 F15000.0
G21
G90
G17
G91.1
G0 Z0.0000
G0 X145.9257 Y-109.8154 F15000.0
G1 Z11.9000 F2500.0
G4 P0.02
G1 X145.4241 Y-110.6932 F12000.0
G1 Z0.0000 F2500.0
G4 P0.02
G0 X145.5913 Y-108.2686 F15000.0
G1 Z11.9000 F2500.0
G4 P0.02
G1 X145.8839 Y-107.8924 F12000.0
G1 X145.7585 Y-106.6384
G1 X145.2569 Y-106.5548
G1 Z0.0000 F2500.0
G4 P0.02
G0 X145.3405 Y-108.4777 F15000.0
G1 Z11.9000 F2500.0
G4 P0.02
G1 X143.2086 Y-109.3137 F12000.0
G1 Z0.0000 F2500.0
G4 P0.02
G0 X144.9643 Y-111.1530 F15000.0
G1 Z11.9000 F2500.0
G4 P0.02
G1 X144.7552 Y-111.3620 F12000.0
G1 X144.0864 Y-111.6964
G1 X143.8774 Y-110.2752
G1 Z0.0000 F2500.0
G4 P0.02
G0 X144.3373 Y-106.8892 F15000.0
G1 Z11.9000 F2500.0
G4 P0.02
G1 X144.2118 Y-106.9310 F12000.0
G1 Z0.0000 F2500.0
G4 P0.02
G0 X144.0446 Y-111.6964 F15000.0
G1 Z11.9000 F2500.0
G4 P0.02
G1 X143.5012 Y-111.9890 F12000.0
G1 Z0.0000 F2500.0
G4 P0.02
G0 X143.7520 Y-110.1498 F15000.0
G1 Z11.9000 F2500.0
G4 P0.02
G1 X143.5012 Y-110.0662 F12000.0
G1 X142.7905 Y-110.2752
G1 X142.1635 Y-110.5677
G1 Z0.0000 F2500.0
G4 P0.02
G0 X143.6266 Y-107.1401 F15000.0
G1 Z11.9000 F2500.0
G4 P0.02
G1 X143.5012 Y-107.1818 F12000.0
G1 Z0.0000 F2500.0
G4 P0.02
G0 X143.0414 Y-107.3490 F15000.0
G1 Z11.9000 F2500.0
G4 P0.02
G1 X142.2890 Y-107.6835 F12000.0
G1 X141.8709 Y-108.1433
G1 X141.7873 Y-108.3941
G1 X141.7873 Y-109.3137
G1 Z0.0000 F2500.0
G4 P0.02
G0 X142.7905 Y-109.4809 F15000.0
G1 Z11.9000 F2500.0
G4 P0.02
G1 X142.1218 Y-109.6063 F12000.0
G1 X141.8709 Y-109.4392
G1 Z0.0000 F2500.0
G4 P0.02
G0 X142.4562 Y-112.3653 F15000.0
G1 Z11.9000 F2500.0
G4 P0.02
G1 X141.8709 Y-112.2398 F12000.0
G1 Z0.0000 F2500.0
G4 P0.02
G0 X141.8709 Y-110.9440 F15000.0
G1 Z11.9000 F2500.0
G4 P0.02
G1 X141.7037 Y-111.8636 F12000.0
G1 X141.7873 Y-112.1145
G1 Z0.0000 F2500.0
G4 P0.02
G0 X111.7654 Y-150.5283 F15000.0
G1 Z11.9000 F2500.0
G4 P0.02
G1 X111.4728 Y-150.3612 F12000.0
G1 Z0.0000 F2500.0
G4 P0.02
G0 X111.1384 Y-146.9335 F15000.0
G1 Z11.9000 F2500.0
G4 P0.02
G1 X111.4310 Y-147.6441 F12000.0
G1 X111.4310 Y-148.3547
G1 Z0.0000 F2500.0
G4 P0.02
G0 X111.3474 Y-148.4383 F15000.0
G1 Z11.9000 F2500.0
G4 P0.02
G1 X109.9680 Y-148.6055 F12000.0
G1 X109.9680 Y-148.9399
G1 X110.3441 Y-149.4415
G1 Z0.0000 F2500.0
G4 P0.02
G0 X110.9293 Y-146.6826 F15000.0
G1 Z11.9000 F2500.0
G4 P0.02
G1 X110.8458 Y-146.5990 F12000.0
G1 Z0.0000 F2500.0
G4 P0.02
G0 X110.7203 Y-149.8596 F15000.0
G1 Z11.9000 F2500.0
G4 P0.02
G1 X110.6367 Y-149.7760 F12000.0
G1 Z0.0000 F2500.0
G4 P0.02
G0 X110.5114 Y-146.3900 F15000.0
G1 Z11.9000 F2500.0
G4 P0.02
G1 X109.5081 Y-146.3482 F12000.0
G1 X109.2573 Y-146.5990
G1 X109.4663 Y-147.6858
G1 X109.7171 Y-148.4383
G1 Z0.0000 F2500.0
G4 P0.02
G0 X109.3409 Y-150.3194 F15000.0
G1 Z11.9000 F2500.0
G4 P0.02
G1 X108.7557 Y-148.2293 F12000.0
G1 X108.3795 Y-147.5186
G1 Z0.0000 F2500.0
G4 P0.02
G0 X109.1737 Y-150.4866 F15000.0
G1 Z11.9000 F2500.0
G4 P0.02
G1 X108.1287 Y-150.4866 F12000.0
G1 Z0.0000 F2500.0
G4 P0.02
G0 X108.7138 Y-148.2293 F15000.0
G1 Z11.9000 F2500.0
G4 P0.02
G1 X107.4180 Y-148.3129 F12000.0
G1 Z0.0000 F2500.0
G4 P0.02
G0 X107.6689 Y-146.8080 F15000.0
G1 Z11.9000 F2500.0
G4 P0.02
G1 X107.5852 Y-146.7244 F12000.0
G1 Z0.0000 F2500.0
G4 P0.02
G0 X107.6689 Y-150.1940 F15000.0
G1 Z11.9000 F2500.0
G4 P0.02
G1 X107.3344 Y-149.4415 F12000.0
G1 X107.1254 Y-148.6891
G1 Z0.0000 F2500.0
G4 P0.02
G0 X107.1254 Y-146.4737 F15000.0
G1 Z11.9000 F2500.0
G4 P0.02
G1 X106.8746 Y-146.3482 F12000.0
G1 Z0.0000 F2500.0
G4 P0.02
G0 X132.5828 Y-176.3799 F15000.0
G1 Z11.9000 F2500.0
G4 P0.02
G1 X132.5411 Y-176.1709 F12000.0
G1 Z0.0000 F2500.0
G4 P0.02
G0 X132.4575 Y-175.9201 F15000.0
G1 Z11.9000 F2500.0
G4 P0.02
G1 X132.4156 Y-175.7110 F12000.0
G1 Z0.0000 F2500.0
G4 P0.02
G0 X132.3321 Y-175.4602 F15000.0
G1 Z11.9000 F2500.0
G4 P0.02
G1 X132.2485 Y-175.0840 F12000.0
G1 Z0.0000 F2500.0
G4 P0.02
G0 X132.1649 Y-174.8332 F15000.0
G1 Z11.9000 F2500.0
G4 P0.02
G1 X132.1230 Y-174.6242 F12000.0
G1 Z0.0000 F2500.0
G4 P0.02
G0 X132.0394 Y-174.3734 F15000.0
G1 Z11.9000 F2500.0
G4 P0.02
G1 X131.9977 Y-174.1644 F12000.0
G1 Z0.0000 F2500.0
G4 P0.02
G0 X129.9494 Y-169.1900 F15000.0
G1 Z11.9000 F2500.0
G4 P0.02
G1 X128.8625 Y-173.8299 F12000.0
G1 X131.8304 Y-173.7882
G1 X131.2452 Y-171.3636
G1 Z0.0000 F2500.0
G4 P0.02
G0 X131.1616 Y-171.1128 F15000.0
G1 Z11.9000 F2500.0
G4 P0.02
G1 X130.7018 Y-169.3572 F12000.0
G1 Z0.0000 F2500.0
G4 P0.02
G0 X130.6182 Y-169.1064 F15000.0
G1 Z11.9000 F2500.0
G4 P0.02
G1 X130.5764 Y-168.9392 F12000.0
G1 Z0.0000 F2500.0
G4 P0.02
G0 X130.3256 Y-168.0613 F15000.0
G1 Z11.9000 F2500.0
G4 P0.02
G1 X130.3256 Y-168.7302 F12000.0
G1 X130.0330 Y-168.9392
G1 Z0.0000 F2500.0
G4 P0.02
G0 X128.8207 Y-173.8299 F15000.0
G1 Z11.9000 F2500.0
G4 P0.02
G1 X128.5699 Y-174.4152 F12000.0
G1 Z0.0000 F2500.0
G4 P0.02
G0 X128.4863 Y-174.6660 F15000.0
G1 Z11.9000 F2500.0
G4 P0.02
G1 X128.4027 Y-175.0422 F12000.0
G1 Z0.0000 F2500.0
G4 P0.02
G0 X128.2773 Y-175.4602 F15000.0
G1 Z11.9000 F2500.0
G4 P0.02
G1 X128.2354 Y-175.6692 F12000.0
G1 Z0.0000 F2500.0
G4 P0.02
G0 X128.1101 Y-176.0873 F15000.0
G1 Z11.9000 F2500.0
G4 P0.02
G1 X127.9847 Y-176.4216 F12000.0
G1 Z0.0000 F2500.0
G4 P0.02
G0 X121.6335 Y-176.3799 F15000.0
G1 Z11.9000 F2500.0
G4 P0.02
G1 X121.5916 Y-176.1709 F12000.0
G1 Z0.0000 F2500.0
G4 P0.02
G0 X121.5080 Y-175.9201 F15000.0
G1 Z11.9000 F2500.0
G4 P0.02
G1 X121.4663 Y-175.7110 F12000.0
G1 Z0.0000 F2500.0
G4 P0.02
G0 X121.3827 Y-175.4602 F15000.0
G1 Z11.9000 F2500.0
G4 P0.02
G1 X121.2990 Y-175.0840 F12000.0
G1 Z0.0000 F2500.0
G4 P0.02
G0 X121.2154 Y-174.8332 F15000.0
G1 Z11.9000 F2500.0
G4 P0.02
G1 X121.1736 Y-174.6242 F12000.0
G1 Z0.0000 F2500.0
G4 P0.02
G0 X121.0900 Y-174.3734 F15000.0
G1 Z11.9000 F2500.0
G4 P0.02
G1 X121.0482 Y-174.1644 F12000.0
G1 Z0.0000 F2500.0
G4 P0.02
G0 X118.9999 Y-169.1900 F15000.0
G1 Z11.9000 F2500.0
G4 P0.02
G1 X117.9131 Y-173.8299 F12000.0
G1 X120.8810 Y-173.7882
G1 X120.2958 Y-171.3636
G1 Z0.0000 F2500.0
G4 P0.02
G0 X120.2122 Y-171.1128 F15000.0
G1 Z11.9000 F2500.0
G4 P0.02
G1 X119.7523 Y-169.3572 F12000.0
G1 Z0.0000 F2500.0
G4 P0.02
G0 X119.6687 Y-169.1064 F15000.0
G1 Z11.9000 F2500.0
G4 P0.02
G1 X119.6270 Y-168.9392 F12000.0
G1 Z0.0000 F2500.0
G4 P0.02
G0 X119.3761 Y-168.0613 F15000.0
G1 Z11.9000 F2500.0
G4 P0.02
G1 X119.3761 Y-168.7302 F12000.0
G1 X119.0836 Y-168.9392
G1 Z0.0000 F2500.0
G4 P0.02
G0 X117.8713 Y-173.8299 F15000.0
G1 Z11.9000 F2500.0
G4 P0.02
G1 X117.6204 Y-174.4152 F12000.0
G1 Z0.0000 F2500.0
G4 P0.02
G0 X117.5368 Y-174.6660 F15000.0
G1 Z11.9000 F2500.0
G4 P0.02
G1 X117.4532 Y-175.0422 F12000.0
G1 Z0.0000 F2500.0
G4 P0.02
G0 X117.3279 Y-175.4602 F15000.0
G1 Z11.9000 F2500.0
G4 P0.02
G1 X117.2861 Y-175.6692 F12000.0
G1 Z0.0000 F2500.0
G4 P0.02
G0 X117.1606 Y-176.0873 F15000.0
G1 Z11.9000 F2500.0
G4 P0.02
G1 X117.0353 Y-176.4216 F12000.0
G1 Z0.0000 F2500.0
G4 P0.02
G0 X170.8160 Y-84.9134 F15000.0
G1 Z11.9000 F2500.0
G4 P0.02
G1 X170.7742 Y-85.8748 F12000.0
G1 Z0.0000 F2500.0
G4 P0.02
G0 X170.6906 Y-84.5790 F15000.0
G1 Z11.9000 F2500.0
G4 P0.02
G1 X170.6488 Y-84.4535 F12000.0
G1 Z0.0000 F2500.0
G4 P0.02
G0 X170.4816 Y-86.1256 F15000.0
G1 Z11.9000 F2500.0
G4 P0.02
G1 X169.3111 Y-86.1674 F12000.0
G1 X169.0603 Y-86.0838
G1 Z0.0000 F2500.0
G4 P0.02
G0 X170.0636 Y-82.9905 F15000.0
G1 Z11.9000 F2500.0
G4 P0.02
G1 X169.9382 Y-82.9069 F12000.0
G1 X169.6873 Y-82.2380
G1 Z0.0000 F2500.0
G4 P0.02
G0 X169.9382 Y-82.9069 F15000.0
G1 Z11.9000 F2500.0
G4 P0.02
G1 X168.0571 Y-83.0741 F12000.0
G1 Z0.0000 F2500.0
G4 P0.02
G0 X169.5201 Y-81.9873 F15000.0
G1 Z11.9000 F2500.0
G4 P0.02
G1 X169.3530 Y-81.7782 F12000.0
G1 Z0.0000 F2500.0
G4 P0.02
G0 X168.8931 Y-81.2766 F15000.0
G1 Z11.9000 F2500.0
G4 P0.02
G1 X168.1407 Y-80.6496 F12000.0
G1 Z0.0000 F2500.0
G4 P0.02
G0 X168.7259 Y-85.9166 F15000.0
G1 Z11.9000 F2500.0
G4 P0.02
G1 X168.2661 Y-85.4568 F12000.0
G1 X167.7645 Y-84.2445
G1 X167.6391 Y-83.7429
G1 X167.7645 Y-83.3249
G1 Z0.0000 F2500.0
G4 P0.02
G0 X167.7227 Y-80.4406 F15000.0
G1 Z11.9000 F2500.0
G4 P0.02
G1 X167.3465 Y-80.2733 F12000.0
G1 Z0.0000 F2500.0
G4 P0.02
G0 X9.8263 Y-250.5058 F15000.0
G1 Z11.9000 F2500.0
G4 P0.02
G1 X8.4469 Y-246.6601 F12000.0
G1 X8.1960 Y-246.3256
G1 Z0.0000 F2500.0
G4 P0.02
G0 X9.6590 Y-247.3289 F15000.0
G1 Z11.9000 F2500.0
G4 P0.02
G1 X9.4918 Y-247.1617 F12000.0
G1 Z0.0000 F2500.0
G4 P0.02
G0 X8.7812 Y-246.7018 F15000.0
G1 Z11.9000 F2500.0
G4 P0.02
G1 X8.4886 Y-246.6182 F12000.0
G1 Z0.0000 F2500.0
G4 P0.02
G0 X8.6558 Y-249.5026 F15000.0
G1 Z11.9000 F2500.0
G4 P0.02
G1 X8.5305 Y-249.3772 F12000.0
G1 Z0.0000 F2500.0
G4 P0.02
G0 X8.0706 Y-247.8305 F15000.0
G1 Z11.9000 F2500.0
G4 P0.02
G1 X7.8616 Y-247.7051 F12000.0
G1 Z0.0000 F2500.0
G4 P0.02
G0 X29.0831 Y-250.4964 F15000.0
G1 Z11.9000 F2500.0
G4 P0.02
G1 X27.7036 Y-246.6506 F12000.0
G1 X27.4528 Y-246.3161
G1 Z0.0000 F2500.0
G4 P0.02
G0 X28.9159 Y-247.3195 F15000.0
G1 Z11.9000 F2500.0
G4 P0.02
G1 X28.7487 Y-247.1522 F12000.0
G1 Z0.0000 F2500.0
G4 P0.02
G0 X28.2470 Y-250.5800 F15000.0
G1 Z11.9000 F2500.0
G4 P0.02
G1 X27.9544 Y-250.4545 F12000.0
G1 X26.5332 Y-248.8661
G1 Z0.0000 F2500.0
G4 P0.02
G0 X28.0381 Y-246.6924 F15000.0
G1 Z11.9000 F2500.0
G4 P0.02
G1 X27.7454 Y-246.6088 F12000.0
G1 Z0.0000 F2500.0
G4 P0.02
G0 X27.9544 Y-250.4545 F15000.0
G1 Z11.9000 F2500.0
G4 P0.02
G1 X26.3660 Y-250.5382 F12000.0
G1 Z0.0000 F2500.0
G4 P0.02
G0 X26.6168 Y-246.6924 F15000.0
G1 Z11.9000 F2500.0
G4 P0.02
G1 X26.4077 Y-246.5252 F12000.0
G1 Z0.0000 F2500.0
G4 P0.02
G0 X26.0734 Y-246.3580 F15000.0
G1 Z11.9000 F2500.0
G4 P0.02
G1 X25.4463 Y-246.3161 F12000.0
G1 X25.2373 Y-246.4416
G1 X24.9865 Y-246.8597
G1 X25.1537 Y-247.4867
G1 Z0.0000 F2500.0
G4 P0.02
G0 X25.9479 Y-251.3324 F15000.0
G1 Z11.9000 F2500.0
G4 P0.02
G1 X25.3628 Y-250.4545 F12000.0
G1 Z0.0000 F2500.0
G4 P0.02
G0 X23.8198 Y-248.9079 F15000.0
G1 Z11.9000 F2500.0
G4 P0.02
G1 X24.1124 Y-249.5767 F12000.0
G1 X24.0288 Y-250.3709
G1 Z0.0000 F2500.0
G4 P0.02
G0 X23.9034 Y-250.4545 F15000.0
G1 Z11.9000 F2500.0
G4 P0.02
G1 X22.8584 Y-250.4545 F12000.0
G1 Z0.0000 F2500.0
G4 P0.02
G0 X23.6108 Y-248.6571 F15000.0
G1 Z11.9000 F2500.0
G4 P0.02
G1 X23.4854 Y-248.5316 F12000.0
G1 Z0.0000 F2500.0
G4 P0.02
G0 X22.9837 Y-246.9850 F15000.0
G1 Z11.9000 F2500.0
G4 P0.02
G1 X23.1928 Y-247.5703 F12000.0
G1 X23.1928 Y-247.8629
G1 X23.0674 Y-248.1554
G1 X22.1478 Y-248.1973
G1 X21.8969 Y-248.6152
G1 X22.1895 Y-249.7858
G1 Z0.0000 F2500.0
G4 P0.02
G0 X22.6912 Y-250.3709 F15000.0
G1 Z11.9000 F2500.0
G4 P0.02
G1 X22.3150 Y-250.0365 F12000.0
G1 Z0.0000 F2500.0
G4 P0.02
G0 X22.1895 Y-246.3161 F15000.0
G1 Z11.9000 F2500.0
G4 P0.02
G1 X21.5625 Y-246.3580 F12000.0
G1 Z0.0000 F2500.0
G4 P0.02
G0 X22.0224 Y-248.0718 F15000.0
G1 Z11.9000 F2500.0
G4 P0.02
G1 X21.7716 Y-247.8629 F12000.0
G1 Z0.0000 F2500.0
G4 P0.02
G0 X21.7716 Y-250.6218 F15000.0
G1 Z11.9000 F2500.0
G4 P0.02
G1 X20.3085 Y-250.3709 F12000.0
G1 Z0.0000 F2500.0
G4 P0.02
G0 X21.6043 Y-247.6539 F15000.0
G1 Z11.9000 F2500.0
G4 P0.02
G1 X21.3118 Y-246.6506 F12000.0
G1 X21.3953 Y-246.5670
G1 Z0.0000 F2500.0
G4 P0.02
G0 X19.6814 Y-248.3227 F15000.0
G1 Z11.9000 F2500.0
G4 P0.02
G1 X20.6847 Y-248.1554 F12000.0
G1 X20.6429 Y-247.8210
G1 Z0.0000 F2500.0
G4 P0.02
G0 X20.4757 Y-247.4031 F15000.0
G1 Z11.9000 F2500.0
G4 P0.02
G1 X20.0995 Y-246.3998 F12000.0
G1 Z0.0000 F2500.0
G4 P0.02
G0 X20.0159 Y-246.3161 F15000.0
G1 Z11.9000 F2500.0
G4 P0.02
G1 X18.5946 Y-246.2744 F12000.0
G1 Z0.0000 F2500.0
G4 P0.02
G0 X19.8905 Y-249.9947 F15000.0
G1 Z11.9000 F2500.0
G4 P0.02
G1 X19.5978 Y-249.3677 F12000.0
G1 X19.4306 Y-248.6152
G1 X19.5142 Y-248.4899
G1 Z0.0000 F2500.0
G4 P0.02
G0 X115.7036 Y-45.0612 F15000.0
G1 Z11.9000 F2500.0
G4 P0.02
G1 X102.8563 Y-45.0612 F12000.0
G1 Z0.0000 F2500.0
G4 P0.02
G0 X113.8349 Y-114.0474 F15000.0
G1 Z11.9000 F2500.0
G4 P0.02
G1 X113.8349 Y-104.8595 F12000.0
G1 Z0.0000 F2500.0
G4 P0.02
G0 X104.6472 Y-114.0474 F15000.0
G1 Z11.9000 F2500.0
G4 P0.02
G1 X104.6472 Y-104.8595 F12000.0
G1 Z0.0000 F2500.0
G4 P0.02
G0 X97.3281 Y-47.3971 F15000.0
G1 Z11.9000 F2500.0
G4 P0.02
G1 X97.3281 Y-56.5848 F12000.0
G1 Z0.0000 F2500.0
G4 P0.02
G0 X121.2319 Y-47.3971 F15000.0
G1 Z11.9000 F2500.0
G4 P0.02
G1 X121.2319 Y-56.5848 F12000.0
G1 Z0.0000 F2500.0
G4 P0.02
G0 X97.3281 Y-47.3971 F15000.0
G1 Z11.9000 F2500.0
G4 P0.02
G1 X121.2319 Y-47.3971 F12000.0
G1 Z0.0000 F2500.0
G4 P0.02
G0 X97.3281 Y-56.5848 F15000.0
G1 Z11.9000 F2500.0
G4 P0.02
G1 X121.2319 Y-56.5848 F12000.0
G1 Z0.0000 F2500.0
G4 P0.02
G0 X131.3540 Y-73.5589 F15000.0
G1 Z11.9000 F2500.0
G4 P0.02
G1 X124.4243 Y-73.5589 F12000.0
G1 X94.1358 Y-73.5589 F12000.0
G1 X87.2059 Y-73.5589 F12000.0
G1 Z0.0000 F2500.0
G4 P0.02
G0 X94.1358 Y-130.5542 F15000.0
G1 Z11.9000 F2500.0
G4 P0.02
G1 X87.2059 Y-130.5542 F12000.0
G1 Z0.0000 F2500.0
G4 P0.02
G0 X124.4243 Y-130.5542 F15000.0
G1 Z11.9000 F2500.0
G4 P0.02
G1 X94.1358 Y-130.5542 F12000.0
G1 Z0.0000 F2500.0
G4 P0.02
G0 X131.3540 Y-130.5542 F15000.0
G1 Z11.9000 F2500.0
G4 P0.02
G1 X124.4243 Y-130.5542 F12000.0
G1 Z0.0000 F2500.0
G4 P0.02
G0 X131.3540 Y-130.5542 F15000.0
G1 Z11.9000 F2500.0
G4 P0.02
G1 X131.3540 Y-73.5589 F12000.0
G1 Z0.0000 F2500.0
G4 P0.02
G0 X87.2059 Y-130.5542 F15000.0
G1 Z11.9000 F2500.0
G4 P0.02
G1 X87.2059 Y-73.5589 F12000.0
G1 Z0.0000 F2500.0
G4 P0.02
G0 X127.6945 Y-131.4886 F15000.0
G1 Z11.9000 F2500.0
G4 P0.02
G1 X127.6945 Y-140.6764 F12000.0
G1 Z0.0000 F2500.0
G4 P0.02
G0 X90.8655 Y-131.4886 F15000.0
G1 Z11.9000 F2500.0
G4 P0.02
G1 X90.8655 Y-140.6764 F12000.0
G1 Z0.0000 F2500.0
G4 P0.02
G0 X127.6945 Y-140.6764 F15000.0
G1 Z11.9000 F2500.0
G4 P0.02
G1 X127.5387 Y-141.2213 F12000.0
G1 X127.0715 Y-141.5328 F12000.0
G1 X126.7602 Y-141.6107 F12000.0
G1 Z0.0000 F2500.0
G4 P0.02
G0 X89.9312 Y-130.5542 F15000.0
G1 Z11.9000 F2500.0
G4 P0.02
G1 X90.4762 Y-130.7099 F12000.0
G1 X90.7876 Y-131.1771 F12000.0
G1 X90.8655 Y-131.4886 F12000.0
G1 Z0.0000 F2500.0
G4 P0.02
G0 X128.5510 Y-130.5542 F15000.0
G1 Z11.9000 F2500.0
G4 P0.02
G1 X128.0838 Y-130.7099 F12000.0
G1 X127.7723 Y-131.1771 F12000.0
G1 X127.6945 Y-131.4886 F12000.0
G1 Z0.0000 F2500.0
G4 P0.02
G0 X90.8655 Y-140.6764 F15000.0
G1 Z11.9000 F2500.0
G4 P0.02
G1 X91.0212 Y-141.2213 F12000.0
G1 X91.4105 Y-141.5328 F12000.0
G1 X91.7999 Y-141.6107 F12000.0
G1 X126.7602 Y-141.6107 F12000.0
G1 Z0.0000 F2500.0
G4 P0.02
G0 X119.5967 Y-95.6718 F15000.0
G1 Z11.9000 F2500.0
G4 P0.02
G1 X119.7525 Y-94.6596 F12000.0
G1 X120.2197 Y-93.7252 F12000.0
G1 X120.9205 Y-92.9466 F12000.0
G1 X121.8548 Y-92.4016 F12000.0
G1 X122.8670 Y-92.1680 F12000.0
G1 X123.8792 Y-92.3237 F12000.0
G1 X124.8136 Y-92.7130 F12000.0
G1 X125.5922 Y-93.3359 F12000.0
G1 X126.2151 Y-94.1924 F12000.0
G1 X126.5266 Y-95.2047 F12000.0
G1 X126.4487 Y-96.2168 F12000.0
G1 X126.1372 Y-97.2290 F12000.0
G1 X125.5143 Y-98.0077 F12000.0
G1 X124.7357 Y-98.7085 F12000.0
G1 X123.7235 Y-99.0199 F12000.0
G1 X122.7113 Y-99.0977 F12000.0
G1 X121.6990 Y-98.7863 F12000.0
G1 X120.8426 Y-98.2413 F12000.0
G1 X120.1418 Y-97.4626 F12000.0
G1 X119.7525 Y-96.5283 F12000.0
G1 X119.5967 Y-95.6718 F12000.0
G1 Z0.0000 F2500.0
G4 P0.02
G0 X89.5418 Y-123.5466 F15000.0
G1 Z11.9000 F2500.0
G4 P0.02
G1 X89.7754 Y-124.9481 F12000.0
G1 X90.2426 Y-126.1939 F12000.0
G1 X91.0991 Y-127.2840 F12000.0
G1 X92.1113 Y-128.1404 F12000.0
G1 X93.2792 Y-128.7634 F12000.0
G1 X94.6029 Y-129.1527 F12000.0
G1 X95.4594 Y-129.2306 F12000.0
G1 Z0.0000 F2500.0
G4 P0.02
G0 X95.4594 Y-89.6763 F15000.0
G1 Z11.9000 F2500.0
G4 P0.02
G1 X94.1358 Y-89.8321 F12000.0
G1 X92.8120 Y-90.2993 F12000.0
G1 X91.7220 Y-91.0001 F12000.0
G1 X90.7876 Y-92.0122 F12000.0
G1 X90.0090 Y-93.1802 F12000.0
G1 X89.9312 Y-93.4916 F12000.0
G1 Z0.0000 F2500.0
G4 P0.02
G0 X95.4594 Y-129.2306 F15000.0
G1 Z11.9000 F2500.0
G4 P0.02
G1 X123.1006 Y-129.2306 F12000.0
G1 Z0.0000 F2500.0
G4 P0.02
G0 X123.1006 Y-89.6763 F15000.0
G1 Z11.9000 F2500.0
G4 P0.02
G1 X95.4594 Y-89.6763 F12000.0
G1 Z0.0000 F2500.0
G4 P0.02
G0 X119.5967 Y-123.2351 F15000.0
G1 Z11.9000 F2500.0
G4 P0.02
G1 X119.7525 Y-122.2229 F12000.0
G1 X120.2197 Y-121.2886 F12000.0
G1 X120.9205 Y-120.5099 F12000.0
G1 X121.8548 Y-120.0428 F12000.0
G1 X122.8670 Y-119.8092 F12000.0
G1 X123.8792 Y-119.8871 F12000.0
G1 X124.8136 Y-120.2763 F12000.0
G1 X125.5922 Y-120.8992 F12000.0
G1 X126.2151 Y-121.7558 F12000.0
G1 X126.5266 Y-122.7679 F12000.0
G1 X126.4487 Y-123.7802 F12000.0
G1 X126.1372 Y-124.7924 F12000.0
G1 X125.5143 Y-125.6489 F12000.0
G1 X124.7357 Y-126.2717 F12000.0
G1 X123.7235 Y-126.5832 F12000.0
G1 X122.7113 Y-126.6611 F12000.0
G1 X121.6990 Y-126.4275 F12000.0
G1 X120.8426 Y-125.8824 F12000.0
G1 X120.1418 Y-125.1038 F12000.0
G1 X119.7525 Y-124.1694 F12000.0
G1 X119.5967 Y-123.2351 F12000.0
G1 Z0.0000 F2500.0
G4 P0.02
G0 X129.0181 Y-95.6718 F15000.0
G1 Z11.9000 F2500.0
G4 P0.02
G1 X128.8624 Y-94.2703 F12000.0
G1 X128.4731 Y-93.0245 F12000.0
G1 X127.6945 Y-91.8565 F12000.0
G1 X126.7602 Y-90.9222 F12000.0
G1 X125.5922 Y-90.2214 F12000.0
G1 X124.2685 Y-89.7542 F12000.0
G1 X123.1006 Y-89.6763 F12000.0
G1 Z0.0000 F2500.0
G4 P0.02
G0 X129.0181 Y-123.2351 F15000.0
G1 Z11.9000 F2500.0
G4 P0.02
G1 X129.0181 Y-95.6718 F12000.0
G1 Z0.0000 F2500.0
G4 P0.02
G0 X123.1006 Y-129.2306 F15000.0
G1 Z11.9000 F2500.0
G4 P0.02
G1 X124.4243 Y-129.0748 F12000.0
G1 X125.6700 Y-128.6076 F12000.0
G1 X126.8380 Y-127.8290 F12000.0
G1 X127.7723 Y-126.8947 F12000.0
G1 X128.4731 Y-125.7268 F12000.0
G1 X128.9402 Y-124.4030 F12000.0
G1 X129.0181 Y-123.2351 F12000.0
G1 Z0.0000 F2500.0
G4 P0.02
G0 X88.6075 Y-69.4321 F15000.0
G1 Z11.9000 F2500.0
G4 P0.02
G1 X88.6075 Y-66.2398 F12000.0
G1 Z0.0000 F2500.0
G4 P0.02
G0 X123.5677 Y-58.3757 F15000.0
G1 Z11.9000 F2500.0
G4 P0.02
G1 X94.9922 Y-58.3757 F12000.0
G1 Z0.0000 F2500.0
G4 P0.02
G0 X124.8136 Y-59.1542 F15000.0
G1 Z11.9000 F2500.0
G4 P0.02
G1 X123.5677 Y-58.3757 F12000.0
G1 Z0.0000 F2500.0
G4 P0.02
G0 X129.9525 Y-66.2398 F15000.0
G1 Z11.9000 F2500.0
G4 P0.02
G1 X88.6075 Y-66.2398 F12000.0
G1 Z0.0000 F2500.0
G4 P0.02
G0 X127.6945 Y-72.1574 F15000.0
G1 Z11.9000 F2500.0
G4 P0.02
G1 X90.8655 Y-72.1574 F12000.0
G1 Z0.0000 F2500.0
G4 P0.02
G0 X126.2930 Y-72.1574 F15000.0
G1 Z11.9000 F2500.0
G4 P0.02
G1 X126.2930 Y-69.4321 F12000.0
G1 Z0.0000 F2500.0
G4 P0.02
G0 X92.2671 Y-72.1574 F15000.0
G1 Z11.9000 F2500.0
G4 P0.02
G1 X92.2671 Y-69.4321 F12000.0
G1 Z0.0000 F2500.0
G4 P0.02
G0 X129.9525 Y-69.4321 F15000.0
G1 Z11.9000 F2500.0
G4 P0.02
G1 X88.6075 Y-69.4321 F12000.0
G1 Z0.0000 F2500.0
G4 P0.02
G0 X129.9525 Y-69.4321 F15000.0
G1 Z11.9000 F2500.0
G4 P0.02
G1 X129.9525 Y-66.2398 F12000.0
G1 Z0.0000 F2500.0
G4 P0.02
G0 X93.7464 Y-59.1542 F15000.0
G1 Z11.9000 F2500.0
G4 P0.02
G1 X94.9922 Y-58.3757 F12000.0
G1 Z0.0000 F2500.0
G4 P0.02
G0 X93.7464 Y-60.5558 F15000.0
G1 Z11.9000 F2500.0
G4 P0.02
G1 X95.0701 Y-60.0886 F12000.0
G1 X97.7174 Y-59.4657 F12000.0
G1 X100.2869 Y-59.1542 F12000.0
G1 X102.6227 Y-59.1542 F12000.0
G1 X104.8808 Y-59.3878 F12000.0
G1 X107.4503 Y-59.9329 F12000.0
G1 X109.2411 Y-60.5558 F12000.0
G1 Z0.0000 F2500.0
G4 P0.02
G0 X124.8136 Y-60.5558 F15000.0
G1 Z11.9000 F2500.0
G4 P0.02
G1 X124.8136 Y-59.1542 F12000.0
G1 Z0.0000 F2500.0
G4 P0.02
G0 X109.2411 Y-60.5558 F15000.0
G1 Z11.9000 F2500.0
G4 P0.02
G1 X110.6426 Y-60.0886 F12000.0
G1 X113.2121 Y-59.4657 F12000.0
G1 X115.8593 Y-59.1542 F12000.0
G1 X118.1174 Y-59.1542 F12000.0
G1 X120.4533 Y-59.3878 F12000.0
G1 X122.9449 Y-59.9329 F12000.0
G1 X124.8136 Y-60.5558 F12000.0
G1 Z0.0000 F2500.0
G4 P0.02
G0 X93.7464 Y-66.2398 F15000.0
G1 Z11.9000 F2500.0
G4 P0.02
G1 X93.7464 Y-60.5558 F12000.0
G1 Z0.0000 F2500.0
G4 P0.02
G0 X124.8136 Y-66.2398 F15000.0
G1 Z11.9000 F2500.0
G4 P0.02
G1 X124.8136 Y-60.5558 F12000.0
G1 Z0.0000 F2500.0
G4 P0.02
G0 X93.7464 Y-59.1542 F15000.0
G1 Z11.9000 F2500.0
G4 P0.02
G1 X93.7464 Y-60.5558 F12000.0
G1 Z0.0000 F2500.0
G4 P0.02
G0 X118.5067 Y-58.3757 F15000.0
G1 Z11.9000 F2500.0
G4 P0.02
G1 X118.5067 Y-56.5848 F12000.0
G1 Z0.0000 F2500.0
G4 P0.02
G0 X100.0533 Y-58.3757 F15000.0
G1 Z11.9000 F2500.0
G4 P0.02
G1 X100.0533 Y-56.5848 F12000.0
G1 Z0.0000 F2500.0
G4 P0.02
G0 X102.8563 Y-47.3971 F15000.0
G1 Z11.9000 F2500.0
G4 P0.02
G1 X102.8563 Y-45.0612 F12000.0
G1 Z0.0000 F2500.0
G4 P0.02
G0 X115.7036 Y-47.3971 F15000.0
G1 Z11.9000 F2500.0
G4 P0.02
G1 X115.7036 Y-45.0612 F12000.0
G1 Z0.0000 F2500.0
G4 P0.02
G0 X113.8349 Y-104.8595 F15000.0
G1 Z11.9000 F2500.0
G4 P0.02
G1 X113.7570 Y-103.6916 F12000.0
G1 Z0.0000 F2500.0
G4 P0.02
G0 X104.8808 Y-103.5359 F15000.0
G1 Z11.9000 F2500.0
G4 P0.02
G1 X104.6472 Y-104.7039 F12000.0
G1 Z0.0000 F2500.0
G4 P0.02
G0 X113.6792 Y-115.2932 F15000.0
G1 Z11.9000 F2500.0
G4 P0.02
G1 X113.8349 Y-114.1253 F12000.0
G1 Z0.0000 F2500.0
G4 P0.02
G0 X104.6472 Y-114.0474 F15000.0
G1 Z11.9000 F2500.0
G4 P0.02
G1 X104.8029 Y-115.2153 F12000.0
G1 Z0.0000 F2500.0
G4 P0.02
G0 X124.4243 Y-130.5542 F15000.0
G1 Z11.9000 F2500.0
G4 P0.02
G1 X124.4243 Y-129.0748 F12000.0
G1 Z0.0000 F2500.0
G4 P0.02
G0 X124.4243 Y-126.4275 F15000.0
G1 Z11.9000 F2500.0
G4 P0.02
G1 X124.4243 Y-120.0428 F12000.0
G1 Z0.0000 F2500.0
G4 P0.02
G0 X94.1358 Y-95.0489 F15000.0
G1 Z11.9000 F2500.0
G4 P0.02
G1 X94.1358 Y-92.4794 F12000.0
G1 Z0.0000 F2500.0
G4 P0.02
G0 X94.1358 Y-89.8321 F15000.0
G1 Z11.9000 F2500.0
G4 P0.02
G1 X94.1358 Y-73.5589 F12000.0
G1 Z0.0000 F2500.0
G4 P0.02
G0 X94.1358 Y-130.5542 F15000.0
G1 Z11.9000 F2500.0
G4 P0.02
G1 X94.1358 Y-129.0748 F12000.0
G1 Z0.0000 F2500.0
G4 P0.02
G0 X94.1358 Y-126.4275 F15000.0
G1 Z11.9000 F2500.0
G4 P0.02
G1 X94.1358 Y-121.7558 F12000.0
G1 Z0.0000 F2500.0
G4 P0.02
G0 X124.4243 Y-98.7863 F15000.0
G1 Z11.9000 F2500.0
G4 P0.02
G1 X124.4243 Y-92.4794 F12000.0
G1 Z0.0000 F2500.0
G4 P0.02
G0 X124.4243 Y-89.8321 F15000.0
G1 Z11.9000 F2500.0
G4 P0.02
G1 X124.4243 Y-73.5589 F12000.0
G1 Z0.0000 F2500.0
G4 P0.02
G0 X127.6945 Y-73.5589 F15000.0
G1 Z11.9000 F2500.0
G4 P0.02
G1 X127.6945 Y-72.1574 F12000.0
G1 Z0.0000 F2500.0
G4 P0.02
G0 X90.8655 Y-73.5589 F15000.0
G1 Z11.9000 F2500.0
G4 P0.02
G1 X90.8655 Y-72.1574 F12000.0
G1 Z0.0000 F2500.0
G4 P0.02
G0 X126.6823 Y-73.5589 F15000.0
G1 Z11.9000 F2500.0
G4 P0.02
G1 X126.6823 Y-72.1574 F12000.0
G1 Z0.0000 F2500.0
G4 P0.02
G0 X91.8777 Y-73.5589 F15000.0
G1 Z11.9000 F2500.0
G4 P0.02
G1 X91.8777 Y-72.1574 F12000.0
G1 Z0.0000 F2500.0
G4 P0.02
G0 X108.5403 Y-100.3436 F15000.0
G1 Z11.9000 F2500.0
G4 P0.02
G1 X107.5281 Y-98.6306 F12000.0
G1 X106.3601 Y-97.1512 F12000.0
G1 X105.8152 Y-96.6062 F12000.0
G1 X104.8808 Y-95.9832 F12000.0
G1 X103.7129 Y-95.5160 F12000.0
G1 X102.2334 Y-95.2825 F12000.0
G1 X100.3647 Y-95.2047 F12000.0
G1 X97.7174 Y-95.2825 F12000.0
G1 X94.7586 Y-95.1268 F12000.0
G1 X93.1235 Y-94.7375 F12000.0
G1 X92.4228 Y-94.5039 F12000.0
G1 X91.1769 Y-94.0367 F12000.0
G1 X88.9968 Y-93.0245 F12000.0
G1 X87.2059 Y-92.0901 F12000.0
G1 Z0.0000 F2500.0
G4 P0.02
G0 X104.8029 Y-115.2153 F15000.0
G1 Z11.9000 F2500.0
G4 P0.02
G1 X105.2701 Y-116.3053 F12000.0
G1 X106.0487 Y-117.2397 F12000.0
G1 X106.9831 Y-118.0184 F12000.0
G1 Z0.0000 F2500.0
G4 P0.02
G0 X97.2502 Y-121.6779 F15000.0
G1 Z11.9000 F2500.0
G4 P0.02
G1 X94.9143 Y-95.1268 F12000.0
G1 Z0.0000 F2500.0
G4 P0.02
G0 X109.2411 Y-102.0565 F15000.0
G1 Z11.9000 F2500.0
G4 P0.02
G1 X107.7617 Y-102.2123 F12000.0
G1 X106.3601 Y-102.6795 F12000.0
G1 X105.0365 Y-103.4580 F12000.0
G1 Z0.0000 F2500.0
G4 P0.02
G0 X104.8808 Y-115.2932 F15000.0
G1 Z11.9000 F2500.0
G4 P0.02
G1 X106.1265 Y-116.0718 F12000.0
G1 X107.6060 Y-116.6168 F12000.0
G1 X108.1510 Y-116.6947 F12000.0
G1 X106.8273 Y-118.4076 F12000.0
G1 X105.4258 Y-119.7313 F12000.0
G1 X103.9465 Y-120.8214 F12000.0
G1 X102.3113 Y-121.6000 F12000.0
G1 Z0.0000 F2500.0
G4 P0.02
G0 X102.0778 Y-121.6779 F15000.0
G1 Z11.9000 F2500.0
G4 P0.02
G1 X100.9876 Y-121.9115 F12000.0
G1 X99.6640 Y-121.9115 F12000.0
G1 X97.7953 Y-121.6779 F12000.0
G1 X95.3037 Y-121.6000 F12000.0
G1 X94.4472 Y-121.6779 F12000.0
G1 X93.2014 Y-121.9893 F12000.0
G1 X91.4105 Y-122.6122 F12000.0
G1 X89.3082 Y-123.7023 F12000.0
G1 X87.2059 Y-125.1038 F12000.0
G1 Z0.0000 F2500.0
G4 P0.02
G0 X108.5403 Y-100.3436 F15000.0
G1 Z11.9000 F2500.0
G4 P0.02
G1 X107.3724 Y-100.6550 F12000.0
G1 X106.3601 Y-101.2779 F12000.0
G1 X105.5816 Y-102.1344 F12000.0
G1 X104.9586 Y-103.2244 F12000.0
G1 X104.7250 Y-104.3924 F12000.0
G1 X104.6472 Y-104.8595 F12000.0
G1 Z0.0000 F2500.0
G4 P0.02
G0 X108.1510 Y-116.6947 F15000.0
G1 Z11.9000 F2500.0
G4 P0.02
G1 X106.6716 Y-116.3053 F12000.0
G1 X105.3480 Y-115.6825 F12000.0
G1 X104.4914 Y-114.9817 F12000.0
G1 Z0.0000 F2500.0
G4 P0.02
G0 X103.1678 Y-113.5802 F15000.0
G1 Z11.9000 F2500.0
G4 P0.02
G1 X102.4670 Y-112.1787 F12000.0
G1 X101.9999 Y-110.7771 F12000.0
G1 X101.9220 Y-109.7649 F12000.0
G1 Z0.0000 F2500.0
G4 P0.02
G0 X102.0778 Y-107.7405 F15000.0
G1 Z11.9000 F2500.0
G4 P0.02
G1 X102.6227 Y-106.3390 F12000.0
G1 X103.4014 Y-105.0153 F12000.0
G1 X104.0243 Y-104.3924 F12000.0
G1 Z0.0000 F2500.0
G4 P0.02
G0 X105.4258 Y-103.2244 F15000.0
G1 Z11.9000 F2500.0
G4 P0.02
G1 X105.6594 Y-103.0687 F12000.0
G1 X107.0609 Y-102.4459 F12000.0
G1 X108.5403 Y-102.1344 F12000.0
G1 Z0.0000 F2500.0
G4 P0.02
G0 X98.6517 Y-121.8336 F15000.0
G1 Z11.9000 F2500.0
G4 P0.02
G1 X98.8853 Y-122.8458 F12000.0
G1 X98.8853 Y-123.8580 F12000.0
G1 X98.5739 Y-124.7924 F12000.0
G1 X97.9510 Y-125.6489 F12000.0
G1 X97.0945 Y-126.2717 F12000.0
G1 X96.1602 Y-126.5832 F12000.0
G1 X95.0701 Y-126.6611 F12000.0
G1 X94.1358 Y-126.4275 F12000.0
G1 X93.2014 Y-125.8046 F12000.0
G1 X92.5785 Y-125.0260 F12000.0
G1 X92.1113 Y-124.0916 F12000.0
G1 X92.0335 Y-123.0794 F12000.0
G1 X92.1113 Y-122.3786 F12000.0
G1 Z0.0000 F2500.0
G4 P0.02
G0 X104.1800 Y-95.6718 F15000.0
G1 Z11.9000 F2500.0
G4 P0.02
G1 X106.2044 Y-95.0489 F12000.0
G1 X108.3067 Y-94.7375 F12000.0
G1 X110.4868 Y-94.7375 F12000.0
G1 X112.5891 Y-95.1268 F12000.0
G1 X114.6136 Y-95.7496 F12000.0
G1 X116.5601 Y-96.6840 F12000.0
G1 X118.3510 Y-97.8519 F12000.0
G1 X119.9082 Y-99.2534 F12000.0
G1 X121.3097 Y-100.9665 F12000.0
G1 X122.3998 Y-102.7573 F12000.0
G1 X123.1784 Y-104.7039 F12000.0
G1 X123.7235 Y-106.8061 F12000.0
G1 X123.9571 Y-108.9084 F12000.0
G1 X123.8792 Y-111.0886 F12000.0
G1 X123.4899 Y-113.1909 F12000.0
G1 X122.7892 Y-115.2153 F12000.0
G1 X121.8548 Y-117.0840 F12000.0
G1 X120.6090 Y-118.8748 F12000.0
G1 X119.1296 Y-120.3542 F12000.0
G1 X117.4166 Y-121.6779 F12000.0
G1 X115.5479 Y-122.7679 F12000.0
G1 X113.6014 Y-123.5466 F12000.0
G1 X111.4991 Y-124.0137 F12000.0
G1 X109.3189 Y-124.1694 F12000.0
G1 X107.2167 Y-124.0137 F12000.0
G1 X105.1144 Y-123.5466 F12000.0
G1 X103.0899 Y-122.7679 F12000.0
G1 X101.3770 Y-121.8336 F12000.0
G1 Z0.0000 F2500.0
G4 P0.02
G0 X92.2671 Y-94.4260 F15000.0
G1 Z11.9000 F2500.0
G4 P0.02
G1 X92.7342 Y-93.5695 F12000.0
G1 X93.5128 Y-92.7909 F12000.0
G1 X94.4472 Y-92.4016 F12000.0
G1 X95.4594 Y-92.1680 F12000.0
G1 X96.4716 Y-92.3237 F12000.0
G1 X97.4060 Y-92.7909 F12000.0
G1 X98.1846 Y-93.4916 F12000.0
G1 X98.6517 Y-94.3481 F12000.0
G1 X98.8853 Y-95.2047 F12000.0
G1 Z0.0000 F2500.0
G4 P0.02
G0 X107.7617 Y-98.9421 F15000.0
G1 Z11.9000 F2500.0
G4 P0.02
G1 X109.5525 Y-98.8642 F12000.0
G1 X111.4212 Y-99.0977 F12000.0
G1 X113.1342 Y-99.5649 F12000.0
G1 X114.7693 Y-100.4214 F12000.0
G1 X116.2487 Y-101.4336 F12000.0
G1 X117.4944 Y-102.7573 F12000.0
G1 X118.5067 Y-104.2367 F12000.0
G1 X119.2075 Y-105.8718 F12000.0
G1 X119.6746 Y-107.6626 F12000.0
G1 X119.8303 Y-109.4535 F12000.0
G1 X119.6746 Y-111.2443 F12000.0
G1 X119.2075 Y-113.0351 F12000.0
G1 X118.4288 Y-114.6702 F12000.0
G1 X117.4166 Y-116.1497 F12000.0
G1 X116.1708 Y-117.4733 F12000.0
G1 X114.6914 Y-118.4855 F12000.0
G1 X113.0563 Y-119.3420 F12000.0
G1 X111.3434 Y-119.8092 F12000.0
G1 X109.5525 Y-120.0428 F12000.0
G1 X107.6839 Y-119.8871 F12000.0
G1 X105.9708 Y-119.4977 F12000.0
G1 Z0.0000 F2500.0
G4 P0.02
G0 X104.8808 Y-103.5359 F15000.0
G1 Z11.9000 F2500.0
G4 P0.02
G1 X106.1265 Y-102.7573 F12000.0
G1 X107.6060 Y-102.2901 F12000.0
G1 X109.0854 Y-102.0565 F12000.0
G1 X110.5647 Y-102.2123 F12000.0
G1 X112.0441 Y-102.6016 F12000.0
G1 X113.3678 Y-103.3023 F12000.0
G1 X114.5357 Y-104.3146 F12000.0
G1 X115.4701 Y-105.4825 F12000.0
G1 X116.1708 Y-106.8061 F12000.0
G1 X116.5601 Y-108.2856 F12000.0
G1 X116.6380 Y-109.8428 F12000.0
G1 X116.4044 Y-111.3222 F12000.0
G1 X115.8593 Y-112.7237 F12000.0
G1 X115.0808 Y-113.9695 F12000.0
G1 X113.9906 Y-115.0596 F12000.0
G1 X112.7449 Y-115.9161 F12000.0
G1 X111.3434 Y-116.4611 F12000.0
G1 X109.8639 Y-116.7725 F12000.0
G1 X108.3846 Y-116.7725 F12000.0
G1 X106.9052 Y-116.3832 F12000.0
G1 X105.5037 Y-115.7604 F12000.0
G1 X104.8808 Y-115.2932 F12000.0
G1 Z0.0000 F2500.0
G4 P0.02
G0 X108.5403 Y-100.3436 F15000.0
G1 Z11.9000 F2500.0
G4 P0.02
G1 X109.2411 Y-102.0565 F12000.0
G1 Z0.0000 F2500.0
G4 P0.02
G0 X109.2411 Y-143.4794 F15000.0
G1 Z11.9000 F2500.0
G4 P0.02
G1 X109.2411 Y-130.2427 F12000.0
G1 Z0.0000 F2500.0
G4 P0.02
G0 X109.2411 Y-128.8412 F15000.0
G1 Z11.9000 F2500.0
G4 P0.02
G1 X109.2411 Y-127.4397 F12000.0
G1 Z0.0000 F2500.0
G4 P0.02
G0 X109.2411 Y-126.0381 F15000.0
G1 Z11.9000 F2500.0
G4 P0.02
G1 X109.2411 Y-112.8794 F12000.0
G1 Z0.0000 F2500.0
G4 P0.02
G0 X109.2411 Y-108.6748 F15000.0
G1 Z11.9000 F2500.0
G4 P0.02
G1 X109.2411 Y-95.4382 F12000.0
G1 Z0.0000 F2500.0
G4 P0.02
G0 X109.2411 Y-94.0367 F15000.0
G1 Z11.9000 F2500.0
G4 P0.02
G1 X109.2411 Y-92.6352 F12000.0
G1 Z0.0000 F2500.0
G4 P0.02
G0 X109.2411 Y-91.2337 F15000.0
G1 Z11.9000 F2500.0
G4 P0.02
G1 X109.2411 Y-78.0749 F12000.0
G1 Z0.0000 F2500.0
G4 P0.02
G0 X109.2411 Y-76.6733 F15000.0
G1 Z11.9000 F2500.0
G4 P0.02
G1 X109.2411 Y-75.1940 F12000.0
G1 Z0.0000 F2500.0
G4 P0.02
G0 X109.2411 Y-73.8703 F15000.0
G1 Z11.9000 F2500.0
G4 P0.02
G1 X109.2411 Y-60.6337 F12000.0
G1 Z0.0000 F2500.0
G4 P0.02
G0 X109.2411 Y-59.2321 F15000.0
G1 Z11.9000 F2500.0
G4 P0.02
G1 X109.2411 Y-57.8306 F12000.0
G1 Z0.0000 F2500.0
G4 P0.02
G0 X109.2411 Y-56.4291 F15000.0
G1 Z11.9000 F2500.0
G4 P0.02
G1 X109.2411 Y-43.1925 F12000.0
G1 Z0.0000 F2500.0
G4 P0.02
G0 X119.8303 Y-207.7160 F15000.0
G1 Z11.9000 F2500.0
G4 P0.02
G1 X119.8303 Y-199.5404 F12000.0
G1 Z0.0000 F2500.0
G4 P0.02
G0 X129.0181 Y-207.2488 F15000.0
G1 Z11.9000 F2500.0
G4 P0.02
G1 X129.0181 Y-199.5404 F12000.0
G1 Z0.0000 F2500.0
G4 P0.02
G0 X146.5372 Y-207.7938 F15000.0
G1 Z11.9000 F2500.0
G4 P0.02
G1 X146.5372 Y-183.5007 F12000.0
G1 Z0.0000 F2500.0
G4 P0.02
G0 X102.3891 Y-208.3388 F15000.0
G1 Z11.9000 F2500.0
G4 P0.02
G1 X102.3891 Y-184.5129 F12000.0
G1 Z0.0000 F2500.0
G4 P0.02
G0 X128.8624 Y-198.2168 F15000.0
G1 Z11.9000 F2500.0
G4 P0.02
G1 X129.0181 Y-199.3847 F12000.0
G1 Z0.0000 F2500.0
G4 P0.02
G0 X119.8303 Y-199.5404 F15000.0
G1 Z11.9000 F2500.0
G4 P0.02
G1 X119.9861 Y-198.2946 F12000.0
G1 Z0.0000 F2500.0
G4 P0.02
G0 X109.2411 Y-193.7007 F15000.0
G1 Z11.9000 F2500.0
G4 P0.02
G1 X109.2411 Y-183.3449 F12000.0
G1 Z0.0000 F2500.0
G4 P0.02
G0 X139.6075 Y-193.7007 F15000.0
G1 Z11.9000 F2500.0
G4 P0.02
G1 X139.6075 Y-184.6687 F12000.0
G1 Z0.0000 F2500.0
G4 P0.02
G0 X106.3601 Y-207.3267 F15000.0
G1 Z11.9000 F2500.0
G4 P0.02
G1 X106.0487 Y-204.9908 F12000.0
G1 X106.1265 Y-202.5770 F12000.0
G1 X106.4380 Y-200.2411 F12000.0
G1 X107.1388 Y-197.9053 F12000.0
G1 X108.0731 Y-195.7251 F12000.0
G1 X109.3189 Y-193.7007 F12000.0
G1 X110.7983 Y-191.8320 F12000.0
G1 X112.5113 Y-190.1190 F12000.0
G1 X114.3800 Y-188.7175 F12000.0
G1 X116.4823 Y-187.5495 F12000.0
G1 X118.7403 Y-186.6152 F12000.0
G1 X121.0762 Y-186.0702 F12000.0
G1 X123.4120 Y-185.7587 F12000.0
G1 X125.8258 Y-185.7587 F12000.0
G1 X128.1617 Y-186.0702 F12000.0
G1 X130.4976 Y-186.7710 F12000.0
G1 X132.6777 Y-187.6274 F12000.0
G1 X134.7799 Y-188.8732 F12000.0
G1 X136.6486 Y-190.3526 F12000.0
G1 X138.3617 Y-192.0656 F12000.0
G1 X139.7632 Y-193.9343 F12000.0
G1 X140.9311 Y-196.0366 F12000.0
G1 X141.8655 Y-198.2168 F12000.0
G1 X142.4883 Y-200.5526 F12000.0
G1 X142.7998 Y-202.8885 F12000.0
G1 X142.7998 Y-205.3022 F12000.0
G1 X142.6440 Y-207.0152 F12000.0
G1 Z0.0000 F2500.0
G4 P0.02
G0 X113.2899 Y-206.8595 F15000.0
G1 Z11.9000 F2500.0
G4 P0.02
G1 X112.9785 Y-204.9908 F12000.0
G1 X112.9785 Y-203.1221 F12000.0
G1 X113.2899 Y-201.2534 F12000.0
G1 X113.9128 Y-199.4625 F12000.0
G1 X114.8472 Y-197.8274 F12000.0
G1 X116.0151 Y-196.3481 F12000.0
G1 X117.4166 Y-195.0243 F12000.0
G1 X118.9739 Y-194.0122 F12000.0
G1 X120.6869 Y-193.2335 F12000.0
G1 X122.5556 Y-192.7663 F12000.0
G1 X124.4243 Y-192.6106 F12000.0
G1 X126.2930 Y-192.7663 F12000.0
G1 X128.1617 Y-193.2335 F12000.0
G1 X129.8746 Y-193.9343 F12000.0
G1 X131.4319 Y-195.0243 F12000.0
G1 X132.8334 Y-196.2702 F12000.0
G1 X134.0014 Y-197.7496 F12000.0
G1 X134.9357 Y-199.3847 F12000.0
G1 X135.5586 Y-201.1755 F12000.0
G1 X135.8701 Y-203.0442 F12000.0
G1 X135.9479 Y-204.9129 F12000.0
G1 X135.6365 Y-206.7816 F12000.0
G1 X135.3250 Y-207.7160 F12000.0
G1 Z0.0000 F2500.0
G4 P0.02
G0 X146.5372 Y-207.7938 F15000.0
G1 Z11.9000 F2500.0
G4 P0.02
G1 X144.5127 Y-207.2488 F12000.0
G1 X142.3326 Y-207.0152 F12000.0
G1 X139.7632 Y-207.0152 F12000.0
G1 X138.1281 Y-207.0931 F12000.0
G1 X136.8044 Y-207.3267 F12000.0
G1 X134.8578 Y-207.8717 F12000.0
G1 X133.3784 Y-207.9495 F12000.0
G1 X132.5220 Y-207.8717 F12000.0
G1 X131.3540 Y-207.4824 F12000.0
G1 X129.9525 Y-207.1709 F12000.0
G1 X128.9402 Y-207.2488 F12000.0
G1 X127.6166 Y-207.6381 F12000.0
G1 X125.7479 Y-208.2610 F12000.0
G1 X125.2807 Y-208.3388 F12000.0
G1 X123.7235 Y-208.3388 F12000.0
G1 X121.8548 Y-208.1052 F12000.0
G1 X119.2075 Y-207.6381 F12000.0
G1 X118.8182 Y-207.5603 F12000.0
G1 X116.4044 Y-207.2488 F12000.0
G1 X112.5113 Y-206.8595 F12000.0
G1 X111.6548 Y-206.8595 F12000.0
G1 X108.7739 Y-207.0152 F12000.0
G1 X105.7373 Y-207.4824 F12000.0
G1 X102.6227 Y-208.2610 F12000.0
G1 Z0.0000 F2500.0
G4 P0.02
G0 X117.8838 Y-207.4824 F15000.0
G1 Z11.9000 F2500.0
G4 P0.02
G1 X117.3388 Y-206.0808 F12000.0
G1 X117.1052 Y-204.6014 F12000.0
G1 X117.1831 Y-203.0442 F12000.0
G1 X117.5723 Y-201.5648 F12000.0
G1 X118.1952 Y-200.2411 F12000.0
G1 X119.1296 Y-199.0732 F12000.0
G1 X120.2975 Y-198.0610 F12000.0
G1 X121.6212 Y-197.3602 F12000.0
G1 X123.0228 Y-196.8930 F12000.0
G1 X124.5800 Y-196.7373 F12000.0
G1 X126.0594 Y-196.8930 F12000.0
G1 X127.4609 Y-197.4381 F12000.0
G1 X128.7846 Y-198.1389 F12000.0
G1 X129.9525 Y-199.1511 F12000.0
G1 X130.8090 Y-200.3968 F12000.0
G1 X131.4319 Y-201.7984 F12000.0
G1 X131.7433 Y-203.2778 F12000.0
G1 X131.7433 Y-204.7572 F12000.0
G1 X131.5097 Y-206.2365 F12000.0
G1 X131.0425 Y-207.4045 F12000.0
G1 Z0.0000 F2500.0
G4 P0.02
G0 X117.6502 Y-207.4045 F15000.0
G1 Z11.9000 F2500.0
G4 P0.02
G1 X117.1052 Y-206.0029 F12000.0
G1 X116.8716 Y-204.4457 F12000.0
G1 X116.9495 Y-202.9663 F12000.0
G1 X117.3388 Y-201.4870 F12000.0
G1 X118.0395 Y-200.0855 F12000.0
G1 X118.9739 Y-198.8396 F12000.0
G1 X120.1418 Y-197.9053 F12000.0
G1 X121.4654 Y-197.1266 F12000.0
G1 X122.9449 Y-196.6594 F12000.0
G1 X124.5021 Y-196.5037 F12000.0
G1 X125.9815 Y-196.6594 F12000.0
G1 X127.4609 Y-197.1266 F12000.0
G1 X128.7846 Y-197.9053 F12000.0
G1 X129.9525 Y-198.9175 F12000.0
G1 X130.8868 Y-200.0855 F12000.0
G1 X131.5876 Y-201.4870 F12000.0
G1 X131.9769 Y-202.9663 F12000.0
G1 X132.0548 Y-204.5236 F12000.0
G1 X131.8212 Y-206.0029 F12000.0
G1 X131.2761 Y-207.4045 F12000.0
G1 Z0.0000 F2500.0
G4 P0.02
G0 X97.7953 Y-121.7558 F15000.0
G1 Z11.9000 F2500.0
G4 P0.02
G1 X97.1724 Y-121.0550 F12000.0
G1 Z0.0000 F2500.0
G4 P0.02
G0 X101.7663 Y-121.7558 F15000.0
G1 Z11.9000 F2500.0
G4 P0.02
G1 X96.7830 Y-116.7725 F12000.0
G1 Z0.0000 F2500.0
G4 P0.02
G0 X104.4136 Y-120.5099 F15000.0
G1 Z11.9000 F2500.0
G4 P0.02
G1 X96.3938 Y-112.4901 F12000.0
G1 Z0.0000 F2500.0
G4 P0.02
G0 X106.5159 Y-118.7191 F15000.0
G1 Z11.9000 F2500.0
G4 P0.02
G1 X96.0045 Y-108.2077 F12000.0
G1 Z0.0000 F2500.0
G4 P0.02
G0 X104.6472 Y-112.9573 F15000.0
G1 Z11.9000 F2500.0
G4 P0.02
G1 X95.6930 Y-103.9252 F12000.0
G1 Z0.0000 F2500.0
G4 P0.02
G0 X104.6472 Y-109.0641 F15000.0
G1 Z11.9000 F2500.0
G4 P0.02
G1 X95.3037 Y-99.6428 F12000.0
G1 Z0.0000 F2500.0
G4 P0.02
G0 X104.6472 Y-105.1710 F15000.0
G1 Z11.9000 F2500.0
G4 P0.02
G1 X94.9143 Y-95.3603 F12000.0
G1 Z0.0000 F2500.0
G4 P0.02
G0 X105.5816 Y-102.1344 F15000.0
G1 Z11.9000 F2500.0
G4 P0.02
G1 X98.6517 Y-95.2047 F12000.0
G1 Z0.0000 F2500.0
G4 P0.02
G0 X107.8396 Y-100.4993 F15000.0
G1 Z11.9000 F2500.0
G4 P0.02
G1 X102.6227 Y-95.2825 F12000.0
G1 Z0.0000 F2500.0
G4 P0.02
G0 X96.9388 Y-118.7969 F15000.0
G1 Z11.9000 F2500.0
G4 P0.02
G1 X93.9800 Y-121.7558 F12000.0
G1 Z0.0000 F2500.0
G4 P0.02
G0 X96.6273 Y-115.2153 F15000.0
G1 Z11.9000 F2500.0
G4 P0.02
G1 X87.2059 Y-124.7145 F12000.0
G1 Z0.0000 F2500.0
G4 P0.02
G0 X96.3159 Y-111.6336 F15000.0
G1 Z11.9000 F2500.0
G4 P0.02
G1 X87.2059 Y-120.8214 F12000.0
G1 Z0.0000 F2500.0
G4 P0.02
G0 X96.0045 Y-108.0520 F15000.0
G1 Z11.9000 F2500.0
G4 P0.02
G1 X87.2059 Y-116.8504 F12000.0
G1 Z0.0000 F2500.0
G4 P0.02
G0 X95.6930 Y-104.4703 F15000.0
G1 Z11.9000 F2500.0
G4 P0.02
G1 X87.2059 Y-112.9573 F12000.0
G1 Z0.0000 F2500.0
G4 P0.02
G0 X95.3815 Y-100.8886 F15000.0
G1 Z11.9000 F2500.0
G4 P0.02
G1 X87.2059 Y-109.0641 F12000.0
G1 Z0.0000 F2500.0
G4 P0.02
G0 X95.0701 Y-97.3069 F15000.0
G1 Z11.9000 F2500.0
G4 P0.02
G1 X87.2059 Y-105.1710 F12000.0
G1 Z0.0000 F2500.0
G4 P0.02
G0 X93.5907 Y-94.8932 F15000.0
G1 Z11.9000 F2500.0
G4 P0.02
G1 X87.2059 Y-101.2779 F12000.0
G1 Z0.0000 F2500.0
G4 P0.02
G0 X90.7098 Y-93.8031 F15000.0
G1 Z11.9000 F2500.0
G4 P0.02
G1 X87.2059 Y-97.3847 F12000.0
G1 Z0.0000 F2500.0
G4 P0.02
G0 X88.1403 Y-92.5573 F15000.0
G1 Z11.9000 F2500.0
G4 P0.02
G1 X87.2059 Y-93.4916 F12000.0
G1 Z0.0000 F2500.0
G4 P0.02
G0 X109.2411 Y-118.6412 F15000.0
G1 Z11.9000 F2500.0
G4 P0.02
G1 X109.2411 Y-109.4535 F12000.0
G1 Z0.0000 F2500.0
G4 P0.02
G0 X118.5067 Y-109.4535 F15000.0
G1 Z11.9000 F2500.0
G4 P0.02
G1 X109.2411 Y-109.4535 F12000.0
G1 Z0.0000 F2500.0
G4 P0.02
G0 X100.0533 Y-109.4535 F15000.0
G1 Z11.9000 F2500.0
G4 P0.02
G1 X109.2411 Y-109.4535 F12000.0
G1 Z0.0000 F2500.0
G4 P0.02
G0 X123.1006 Y-117.9405 F15000.0
G1 Z11.9000 F2500.0
G4 P0.02
G1 X123.1006 Y-123.2351 F12000.0
G1 Z0.0000 F2500.0
G4 P0.02
G0 X123.1006 Y-128.5298 F15000.0
G1 Z11.9000 F2500.0
G4 P0.02
G1 X123.1006 Y-123.2351 F12000.0
G1 Z0.0000 F2500.0
G4 P0.02
G0 X128.3953 Y-123.2351 F15000.0
G1 Z11.9000 F2500.0
G4 P0.02
G1 X123.1006 Y-123.2351 F12000.0
G1 Z0.0000 F2500.0
G4 P0.02
G0 X117.8059 Y-123.2351 F15000.0
G1 Z11.9000 F2500.0
G4 P0.02
G1 X123.1006 Y-123.2351 F12000.0
G1 Z0.0000 F2500.0
G4 P0.02
G0 X95.4594 Y-117.9405 F15000.0
G1 Z11.9000 F2500.0
G4 P0.02
G1 X95.4594 Y-123.2351 F12000.0
G1 Z0.0000 F2500.0
G4 P0.02
G0 X95.4594 Y-128.5298 F15000.0
G1 Z11.9000 F2500.0
G4 P0.02
G1 X95.4594 Y-123.2351 F12000.0
G1 Z0.0000 F2500.0
G4 P0.02
G0 X100.7540 Y-123.2351 F15000.0
G1 Z11.9000 F2500.0
G4 P0.02
G1 X95.4594 Y-123.2351 F12000.0
G1 Z0.0000 F2500.0
G4 P0.02
G0 X90.1648 Y-123.2351 F15000.0
G1 Z11.9000 F2500.0
G4 P0.02
G1 X95.4594 Y-123.2351 F12000.0
G1 Z0.0000 F2500.0
G4 P0.02
G0 X123.1006 Y-90.3771 F15000.0
G1 Z11.9000 F2500.0
G4 P0.02
G1 X123.1006 Y-95.6718 F12000.0
G1 Z0.0000 F2500.0
G4 P0.02
G0 X123.1006 Y-100.9665 F15000.0
G1 Z11.9000 F2500.0
G4 P0.02
G1 X123.1006 Y-95.6718 F12000.0
G1 Z0.0000 F2500.0
G4 P0.02
G0 X128.3953 Y-95.6718 F15000.0
G1 Z11.9000 F2500.0
G4 P0.02
G1 X123.1006 Y-95.6718 F12000.0
G1 Z0.0000 F2500.0
G4 P0.02
G0 X117.8059 Y-95.6718 F15000.0
G1 Z11.9000 F2500.0
G4 P0.02
G1 X123.1006 Y-95.6718 F12000.0
G1 Z0.0000 F2500.0
G4 P0.02
G0 X124.4243 Y-183.8900 F15000.0
G1 Z11.9000 F2500.0
G4 P0.02
G1 X124.4243 Y-197.0488 F12000.0
G1 Z0.0000 F2500.0
G4 P0.02
G0 X124.4243 Y-210.2075 F15000.0
G1 Z11.9000 F2500.0
G4 P0.02
G1 X124.4243 Y-197.0488 F12000.0
G1 Z0.0000 F2500.0
G4 P0.02
G0 X144.6685 Y-204.1342 F15000.0
G1 Z11.9000 F2500.0
G4 P0.02
G1 X133.9235 Y-204.1342 F12000.0
G1 Z0.0000 F2500.0
G4 P0.02
G0 X132.5999 Y-204.1342 F15000.0
G1 Z11.9000 F2500.0
G4 P0.02
G1 X131.1983 Y-204.1342 F12000.0
G1 Z0.0000 F2500.0
G4 P0.02
G0 X129.7968 Y-204.1342 F15000.0
G1 Z11.9000 F2500.0
G4 P0.02
G1 X124.4243 Y-204.1342 F12000.0
G1 Z0.0000 F2500.0
G4 P0.02
G0 X104.1800 Y-204.1342 F15000.0
G1 Z11.9000 F2500.0
G4 P0.02
G1 X114.9250 Y-204.1342 F12000.0
G1 Z0.0000 F2500.0
G4 P0.02
G0 X116.3265 Y-204.1342 F15000.0
G1 Z11.9000 F2500.0
G4 P0.02
G1 X117.7280 Y-204.1342 F12000.0
G1 Z0.0000 F2500.0
G4 P0.02
G0 X119.0518 Y-204.1342 F15000.0
G1 Z11.9000 F2500.0
G4 P0.02
G1 X124.4243 Y-204.1342 F12000.0
G1 Z0.0000 F2500.0
G4 P0.02
G0 X117.1831 Y-207.3267 F15000.0
G1 Z11.9000 F2500.0
G4 P0.02
G1 X112.9785 Y-203.1999 F12000.0
G1 Z0.0000 F2500.0
G4 P0.02
G0 X116.9495 Y-203.1999 F15000.0
G1 Z11.9000 F2500.0
G4 P0.02
G1 X113.6792 Y-200.0076 F12000.0
G1 Z0.0000 F2500.0
G4 P0.02
G0 X117.8838 Y-200.3190 F15000.0
G1 Z11.9000 F2500.0
G4 P0.02
G1 X115.0808 Y-197.4381 F12000.0
G1 Z0.0000 F2500.0
G4 P0.02
G0 X119.6746 Y-198.2168 F15000.0
G1 Z11.9000 F2500.0
G4 P0.02
G1 X116.9495 Y-195.4137 F12000.0
G1 Z0.0000 F2500.0
G4 P0.02
G0 X133.3784 Y-207.9495 F15000.0
G1 Z11.9000 F2500.0
G4 P0.02
G1 X131.7433 Y-206.3144 F12000.0
G1 Z0.0000 F2500.0
G4 P0.02
G0 X122.2441 Y-196.8152 F15000.0
G1 Z11.9000 F2500.0
G4 P0.02
G1 X119.2854 Y-193.8564 F12000.0
G1 Z0.0000 F2500.0
G4 P0.02
G0 X125.9815 Y-196.6594 F15000.0
G1 Z11.9000 F2500.0
G4 P0.02
G1 X122.1662 Y-192.8442 F12000.0
G1 Z0.0000 F2500.0
G4 P0.02
G0 X135.7143 Y-206.3923 F15000.0
G1 Z11.9000 F2500.0
G4 P0.02
G1 X131.8991 Y-202.5770 F12000.0
G1 Z0.0000 F2500.0
G4 P0.02
G0 X135.8701 Y-202.6549 F15000.0
G1 Z11.9000 F2500.0
G4 P0.02
G1 X125.9036 Y-192.6884 F12000.0
G1 Z0.0000 F2500.0
G4 P0.02
G0 X146.5372 Y-183.5007 F15000.0
G1 Z11.9000 F2500.0
G4 P0.02
G1 X144.6685 Y-184.0457 F12000.0
G1 X142.7998 Y-184.5129 F12000.0
G1 X140.9311 Y-184.6687 F12000.0
G1 X139.0624 Y-184.5908 F12000.0
G1 X137.1937 Y-184.2015 F12000.0
G1 X135.3250 Y-183.6564 F12000.0
G1 X133.4563 Y-183.1892 F12000.0
G1 X131.5876 Y-182.8000 F12000.0
G1 X129.7189 Y-182.7221 F12000.0
G1 X127.8502 Y-182.9557 F12000.0
G1 X125.9815 Y-183.5007 F12000.0
G1 X124.1128 Y-184.1236 F12000.0
G1 X122.2441 Y-184.6687 F12000.0
G1 X120.4533 Y-185.0579 F12000.0
G1 X118.5846 Y-185.2136 F12000.0
G1 X116.7159 Y-185.0579 F12000.0
G1 X114.8472 Y-184.6687 F12000.0
G1 X112.9006 Y-184.1236 F12000.0
G1 X111.0319 Y-183.6564 F12000.0
G1 X109.1632 Y-183.3449 F12000.0
G1 X107.2945 Y-183.2671 F12000.0
G1 X105.4258 Y-183.5785 F12000.0
G1 X103.6350 Y-184.1236 F12000.0
G1 X102.3891 Y-184.5129 F12000.0
G1 Z0.0000 F2500.0
G4 P0.02
G0 X126.5266 Y-123.2351 F15000.0
G1 Z11.9000 F2500.0
G4 P0.02
G1 X141.0090 Y-123.2351 F12000.0
G1 Z0.0000 F2500.0
G4 P0.02
G0 X126.5266 Y-95.6718 F15000.0
G1 Z11.9000 F2500.0
G4 P0.02
G1 X141.0090 Y-95.6718 F12000.0
G1 Z0.0000 F2500.0
G4 P0.02
G0 X131.3540 Y-130.5542 F15000.0
G1 Z11.9000 F2500.0
G4 P0.02
G1 X131.3540 Y-154.9251 F12000.0
G1 Z0.0000 F2500.0
G4 P0.02
G0 X87.2059 Y-130.5542 F15000.0
G1 Z11.9000 F2500.0
G4 P0.02
G1 X87.2059 Y-154.9251 F12000.0
G1 Z0.0000 F2500.0
G4 P0.02
G0 X139.2181 Y-123.2351 F15000.0
G1 Z11.9000 F2500.0
G4 P0.02
G1 X139.8411 Y-118.6412 F12000.0
G1 X139.2181 Y-119.1084 F12000.0
G1 X138.5952 Y-118.6412 F12000.0
G1 X139.2181 Y-123.2351 F12000.0
G1 Z0.0000 F2500.0
G4 P0.02
G0 X139.4907 Y-120.2129 F15000.0
G1 Z11.9000 F2500.0
G4 P0.02
G1 X139.4907 Y-121.0406 F12000.0
G1 Z0.0000 F2500.0
G4 P0.02
G0 X138.9067 Y-120.4854 F15000.0
G1 Z11.9000 F2500.0
G4 P0.02
G1 X138.9067 Y-121.3130 F12000.0
G1 Z0.0000 F2500.0
G4 P0.02
G0 X139.2181 Y-95.6718 F15000.0
G1 Z11.9000 F2500.0
G4 P0.02
G1 X138.5952 Y-100.2657 F12000.0
G1 X139.2181 Y-99.7985 F12000.0
G1 X139.8411 Y-100.2657 F12000.0
G1 X139.2181 Y-95.6718 F12000.0
G1 Z0.0000 F2500.0
G4 P0.02
G0 X138.9067 Y-97.5160 F15000.0
G1 Z11.9000 F2500.0
G4 P0.02
G1 X138.9067 Y-98.3436 F12000.0
G1 Z0.0000 F2500.0
G4 P0.02
G0 X139.4907 Y-97.7885 F15000.0
G1 Z11.9000 F2500.0
G4 P0.02
G1 X139.4907 Y-98.6161 F12000.0
G1 Z0.0000 F2500.0
G4 P0.02
G0 X139.2181 Y-123.2351 F15000.0
G1 Z11.9000 F2500.0
G4 P0.02
G1 X139.2181 Y-95.6718 F12000.0
G1 Z0.0000 F2500.0
G4 P0.02
G0 X131.3540 Y-153.0564 F15000.0
G1 Z11.9000 F2500.0
G4 P0.02
G1 X126.7602 Y-152.4336 F12000.0
G1 X127.2273 Y-153.0564 F12000.0
G1 X126.7602 Y-153.6794 F12000.0
G1 X131.3540 Y-153.0564 F12000.0
G1 Z0.0000 F2500.0
G4 P0.02
G0 X129.1595 Y-152.7450 F15000.0
G1 Z11.9000 F2500.0
G4 P0.02
G1 X128.3318 Y-152.7450 F12000.0
G1 Z0.0000 F2500.0
G4 P0.02
G0 X129.4709 Y-153.3290 F15000.0
G1 Z11.9000 F2500.0
G4 P0.02
G1 X128.6432 Y-153.3290 F12000.0
G1 Z0.0000 F2500.0
G4 P0.02
G0 X87.2059 Y-153.0564 F15000.0
G1 Z11.9000 F2500.0
G4 P0.02
G1 X91.7999 Y-153.6794 F12000.0
G1 X91.3327 Y-153.0564 F12000.0
G1 X91.7999 Y-152.4336 F12000.0
G1 X87.2059 Y-153.0564 F12000.0
G1 Z0.0000 F2500.0
G4 P0.02
G0 X89.8778 Y-153.3290 F15000.0
G1 Z11.9000 F2500.0
G4 P0.02
G1 X89.0502 Y-153.3290 F12000.0
G1 Z0.0000 F2500.0
G4 P0.02
G0 X90.1503 Y-152.7450 F15000.0
G1 Z11.9000 F2500.0
G4 P0.02
G1 X89.3227 Y-152.7450 F12000.0
G1 Z0.0000 F2500.0
G4 P0.02
G0 X131.3540 Y-153.0564 F15000.0
G1 Z11.9000 F2500.0
G4 P0.02
G1 X87.2059 Y-153.0564 F12000.0
G1 Z0.0000 F2500.0
G4 P0.02
G0 X126.7233 Y-173.5125 F15000.0
G1 Z11.9000 F2500.0
G4 P0.02
G1 X123.1283 Y-173.5125 F12000.0
G1 Z0.0000 F2500.0
G4 P0.02
G0 X173.8669 Y-87.3405 F15000.0
G1 Z11.9000 F2500.0
G4 P0.02
G1 X180.0000 Y-92.9563 F12000.0
G1 Z0.0000 F2500.0
G4 P0.02
G0 X173.8669 Y-87.3405 F15000.0
G1 Z11.9000 F2500.0
G4 P0.02
G1 X163.7448 Y-87.3405 F12000.0
G1 Z0.0000 F2500.0
G4 P0.02
G0 X0.0000 Y-216.9595 F15000.0
G1 Z11.9000 F2500.0
G4 P0.02
G1 X0.0000 Y-273.9770 F12000.0
G1 X174.7310 Y-273.9770 F12000.0
G1 Z0.0000 F2500.0
G4 P0.02
G0 X170.1296 Y-223.3663 F15000.0
G1 Z11.9000 F2500.0
G4 P0.02
G1 X0.0000 Y-223.3663 F12000.0
G1 Z0.0000 F2500.0
G4 P0.02
G0 X170.1296 Y-232.5541 F15000.0
G1 Z11.9000 F2500.0
G4 P0.02
G1 X110.3311 Y-232.5541 F12000.0
G1 Z0.0000 F2500.0
G4 P0.02
G0 X170.1296 Y-237.1480 F15000.0
G1 Z11.9000 F2500.0
G4 P0.02
G1 X110.3311 Y-237.1480 F12000.0
G1 Z0.0000 F2500.0
G4 P0.02
G0 X170.1296 Y-250.9296 F15000.0
G1 Z11.9000 F2500.0
G4 P0.02
G1 X110.3311 Y-250.9296 F12000.0
G1 Z0.0000 F2500.0
G4 P0.02
G0 X170.1296 Y-255.6014 F15000.0
G1 Z11.9000 F2500.0
G4 P0.02
G1 X110.3311 Y-255.6014 F12000.0
G1 Z0.0000 F2500.0
G4 P0.02
G0 X170.1296 Y-260.1953 F15000.0
G1 Z11.9000 F2500.0
G4 P0.02
G1 X110.3311 Y-260.1953 F12000.0
G1 Z0.0000 F2500.0
G4 P0.02
G0 X170.1296 Y-264.7892 F15000.0
G1 Z11.9000 F2500.0
G4 P0.02
G1 X110.3311 Y-264.7892 F12000.0
G1 Z0.0000 F2500.0
G4 P0.02
G0 X170.1296 Y-269.3830 F15000.0
G1 Z11.9000 F2500.0
G4 P0.02
G1 X110.3311 Y-269.3830 F12000.0
G1 Z0.0000 F2500.0
G4 P0.02
G0 X170.1296 Y-273.9770 F15000.0
G1 Z11.9000 F2500.0
G4 P0.02
G1 X170.1296 Y-223.3663 F12000.0
G1 Z0.0000 F2500.0
G4 P0.02
G0 X170.1296 Y-227.9602 F15000.0
G1 Z11.9000 F2500.0
G4 P0.02
G1 X110.3311 Y-227.9602 F12000.0
G1 Z0.0000 F2500.0
G4 P0.02
G0 X154.4792 Y-273.9770 F15000.0
G1 Z11.9000 F2500.0
G4 P0.02
G1 X154.4792 Y-223.3663 F12000.0
G1 Z0.0000 F2500.0
G4 P0.02
G0 X133.3006 Y-273.9770 F15000.0
G1 Z11.9000 F2500.0
G4 P0.02
G1 X133.3006 Y-223.3663 F12000.0
G1 Z0.0000 F2500.0
G4 P0.02
G0 X119.5189 Y-273.9770 F15000.0
G1 Z11.9000 F2500.0
G4 P0.02
G1 X119.5189 Y-223.3663 F12000.0
G1 Z0.0000 F2500.0
G4 P0.02
G0 X110.3311 Y-273.9770 F15000.0
G1 Z11.9000 F2500.0
G4 P0.02
G1 X110.3311 Y-223.3663 F12000.0
G1 Z0.0000 F2500.0
G4 P0.02
G0 X45.9388 Y-273.9770 F15000.0
G1 Z11.9000 F2500.0
G4 P0.02
G1 X45.9388 Y-237.1480 F12000.0
G1 Z0.0000 F2500.0
G4 P0.02
G0 X32.1572 Y-255.6014 F15000.0
G1 Z11.9000 F2500.0
G4 P0.02
G1 X32.1572 Y-237.1480 F12000.0
G1 Z0.0000 F2500.0
G4 P0.02
G0 X16.5068 Y-255.6014 F15000.0
G1 Z11.9000 F2500.0
G4 P0.02
G1 X16.5068 Y-237.1480 F12000.0
G1 Z0.0000 F2500.0
G4 P0.02
G0 X170.1296 Y-241.7419 F15000.0
G1 Z11.9000 F2500.0
G4 P0.02
G1 X110.3311 Y-241.7419 F12000.0
G1 Z0.0000 F2500.0
G4 P0.02
G0 X170.1296 Y-246.3357 F15000.0
G1 Z11.9000 F2500.0
G4 P0.02
G1 X110.3311 Y-246.3357 F12000.0
G1 Z0.0000 F2500.0
G4 P0.02
G0 X45.9388 Y-260.1953 F15000.0
G1 Z11.9000 F2500.0
G4 P0.02
G1 X0.0000 Y-260.1953 F12000.0
G1 Z0.0000 F2500.0
G4 P0.02
G0 X32.1572 Y-241.7419 F15000.0
G1 Z11.9000 F2500.0
G4 P0.02
G1 X0.0000 Y-241.7419 F12000.0
G1 Z0.0000 F2500.0
G4 P0.02
G0 X45.9388 Y-241.7419 F15000.0
G1 Z11.9000 F2500.0
G4 P0.02
G1 X32.1572 Y-241.7419 F12000.0
G1 Z0.0000 F2500.0
G4 P0.02
G0 X110.3311 Y-237.1480 F15000.0
G1 Z11.9000 F2500.0
G4 P0.02
G1 X0.0000 Y-237.1480 F12000.0
G1 Z0.0000 F2500.0
G4 P0.02
G0 X110.3311 Y-260.1953 F15000.0
G1 Z11.9000 F2500.0
G4 P0.02
G1 X45.9388 Y-260.1953 F12000.0
G1 Z0.0000 F2500.0
G4 P0.02
G0 X45.9388 Y-255.6014 F15000.0
G1 Z11.9000 F2500.0
G4 P0.02
G1 X0.0000 Y-255.6014 F12000.0
G1 Z0.0000 F2500.0
G4 P0.02
G0 X27.0183 Y-260.1953 F15000.0
G1 Z11.9000 F2500.0
G4 P0.02
G1 X27.0183 Y-255.6014 F12000.0
G1 Z0.0000 F2500.0
G4 P0.02
G0 X41.3449 Y-255.6014 F15000.0
G1 Z11.9000 F2500.0
G4 P0.02
G1 X41.3449 Y-241.7419 F12000.0
G1 Z0.0000 F2500.0
G4 P0.02
G0 X36.7511 Y-255.6014 F15000.0
G1 Z11.9000 F2500.0
G4 P0.02
G1 X36.7511 Y-241.7419 F12000.0
G1 Z0.0000 F2500.0
G4 P0.02
G0 X163.6669 Y-246.3357 F15000.0
G1 Z11.9000 F2500.0
G4 P0.02
G1 X163.6669 Y-223.3663 F12000.0
G1 Z0.0000 F2500.0
G4 P0.02
G0 X7.1497 Y-250.5058 F15000.0
G1 Z11.9000 F2500.0
G4 P0.02
G1 X5.7703 Y-246.6601 F12000.0
G1 X5.5195 Y-246.3256
G1 Z0.0000 F2500.0
G4 P0.02
G0 X6.9825 Y-247.3289 F15000.0
G1 Z11.9000 F2500.0
G4 P0.02
G1 X6.8153 Y-247.1617 F12000.0
G1 Z0.0000 F2500.0
G4 P0.02
G0 X6.1047 Y-246.7018 F15000.0
G1 Z11.9000 F2500.0
G4 P0.02
G1 X5.8121 Y-246.6182 F12000.0
G1 Z0.0000 F2500.0
G4 P0.02
G0 X5.4152 Y-259.1276 F15000.0
G1 Z11.9000 F2500.0
G4 P0.02
G1 X5.2480 Y-258.8351 F12000.0
G1 X4.4538 Y-256.6196
G1 Z0.0000 F2500.0
G4 P0.02
G0 X5.0808 Y-256.7449 F15000.0
G1 Z11.9000 F2500.0
G4 P0.02
G1 X4.8718 Y-256.6196 F12000.0
G1 Z0.0000 F2500.0
G4 P0.02
G0 X32.4995 Y-226.9452 F15000.0
G1 Z11.9000 F2500.0
G4 P0.02
G1 X34.0059 Y-227.2555 F12000.0
G1 X34.8350 Y-228.6793
G1 X34.6992 Y-230.1843
G1 X34.5784 Y-230.5151
G1 X33.8088 Y-231.0466
G1 X33.2309 Y-230.9853
G1 X32.6864 Y-230.5921
G1 X32.5120 Y-230.1985
G1 X32.4698 Y-229.8499
G1 X32.5567 Y-229.0234
G1 X33.1099 Y-228.4265
G1 X33.9202 Y-228.3833
G1 X34.6858 Y-228.7912
G1 X33.9821 Y-228.3827
G1 X33.1876 Y-228.3574
G1 X32.7934 Y-228.6087
G1 X32.5455 Y-228.9684
G1 Z0.0000 F2500.0
G4 P0.02
G0 X32.7294 Y-230.6237 F15000.0
G1 Z11.9000 F2500.0
G4 P0.02
G1 X32.7754 Y-230.7157 F12000.0
G1 Z0.0000 F2500.0
G4 P0.02
G0 X36.2700 Y-230.4858 F15000.0
G1 Z11.9000 F2500.0
G4 P0.02
G1 X36.1766 Y-230.3689 F12000.0
G1 X37.0001 Y-230.9818
G1 X37.4705 Y-231.0281
G1 X38.0504 Y-230.9494
G1 X38.8760 Y-230.2925
G1 X39.1121 Y-229.7488
G1 X39.1504 Y-229.3972
G1 X38.9015 Y-227.8703
G1 X38.3208 Y-227.2636
G1 X38.4687 Y-227.3941
G1 X38.1208 Y-227.2077
G1 X37.1766 Y-227.1056
G1 X36.2673 Y-227.6288
G1 X36.2240 Y-227.7269
G1 Z0.0000 F2500.0
G4 P0.02
G0 X36.8218 Y-230.8996 F15000.0
G1 Z11.9000 F2500.0
G4 P0.02
G1 X36.9138 Y-230.9456 F12000.0
G1 Z0.0000 F2500.0
G4 P0.02
G0 X42.1097 Y-229.9340 F15000.0
G1 Z11.9000 F2500.0
G4 P0.02
G1 X42.4182 Y-230.6927 F12000.0
G1 X42.7075 Y-230.9456
G1 Z0.0000 F2500.0
G4 P0.02
G0 X42.1097 Y-228.2327 F15000.0
G1 Z11.9000 F2500.0
G4 P0.02
G1 X42.2342 Y-227.7821 F12000.0
G1 X42.4319 Y-227.4274
G1 X42.1176 Y-228.3776
G1 X42.2525 Y-230.3959
G1 X42.3665 Y-230.6217
G1 X42.7420 Y-230.9509
G1 X43.4081 Y-231.0132
G1 X43.7334 Y-230.8797
G1 X43.9851 Y-230.6528
G1 X44.1052 Y-230.3304
G1 X44.2969 Y-228.7889
G1 X44.1487 Y-227.8574
G1 X43.9125 Y-227.4633
G1 X43.2845 Y-227.1337
G1 X42.5695 Y-227.3130
G1 Z0.0000 F2500.0
G4 P0.02
G0 X45.4664 Y-228.2327 F15000.0
G1 Z11.9000 F2500.0
G4 P0.02
G1 X45.5909 Y-227.7821 F12000.0
G1 X45.7886 Y-227.4274
G1 X45.4743 Y-228.3776
G1 X45.6092 Y-230.3959
G1 X45.7231 Y-230.6217
G1 X46.0986 Y-230.9509
G1 X46.7647 Y-231.0132
G1 X47.0901 Y-230.8797
G1 X47.3418 Y-230.6528
G1 X47.4619 Y-230.3304
G1 X47.6536 Y-228.7889
G1 X47.5054 Y-227.8574
G1 X47.2691 Y-227.4633
G1 X46.6411 Y-227.1337
G1 X45.9262 Y-227.3130
G1 Z0.0000 F2500.0
G4 P0.02
G0 X45.4664 Y-229.9340 F15000.0
G1 Z11.9000 F2500.0
G4 P0.02
G1 X45.7748 Y-230.6927 F12000.0
G1 X46.0641 Y-230.9456
G1 Z0.0000 F2500.0
G4 P0.02
G0 X50.5244 Y-229.9340 F15000.0
G1 Z11.9000 F2500.0
G4 P0.02
G1 X50.8328 Y-230.6927 F12000.0
G1 X51.1221 Y-230.9456
G1 Z0.0000 F2500.0
G4 P0.02
G0 X50.5244 Y-228.2327 F15000.0
G1 Z11.9000 F2500.0
G4 P0.02
G1 X50.6489 Y-227.7821 F12000.0
G1 X50.8466 Y-227.4274
G1 X50.5323 Y-228.3776
G1 X50.6672 Y-230.3959
G1 X50.7811 Y-230.6217
G1 X51.1566 Y-230.9509
G1 X51.8227 Y-231.0132
G1 X52.1481 Y-230.8797
G1 X52.3998 Y-230.6528
G1 X52.5199 Y-230.3304
G1 X52.7116 Y-228.7889
G1 X52.5634 Y-227.8574
G1 X52.4464 Y-227.5808
G1 X52.5130 Y-227.7382
G1 X52.3144 Y-227.4534
G1 X51.6840 Y-227.1296
G1 X50.9842 Y-227.3130
G1 Z0.0000 F2500.0
G4 P0.02
G0 X53.9270 Y-228.2327 F15000.0
G1 Z11.9000 F2500.0
G4 P0.02
G1 X54.0516 Y-227.7821 F12000.0
G1 X54.2493 Y-227.4274
G1 X53.9358 Y-228.2598
G1 X53.8871 Y-229.5724
G1 X53.9837 Y-230.1574
G1 X54.1822 Y-230.6204
G1 X54.5565 Y-230.9524
G1 X55.2107 Y-231.0171
G1 X55.5378 Y-230.8878
G1 X55.7920 Y-230.6616
G1 X55.9204 Y-230.3458
G1 X56.1126 Y-228.8043
G1 X55.9713 Y-227.8720
G1 X55.7416 Y-227.4726
G1 X55.1159 Y-227.1375
G1 X54.8968 Y-227.1340
G1 X54.3869 Y-227.3130
G1 Z0.0000 F2500.0
G4 P0.02
G0 X53.9270 Y-229.9340 F15000.0
G1 Z11.9000 F2500.0
G4 P0.02
G1 X54.0270 Y-230.2638 F12000.0
G1 X54.4670 Y-230.8906
G1 X54.2949 Y-230.8077
G1 Z0.0000 F2500.0
G4 P0.02
G0 X59.5828 Y-228.8764 F15000.0
G1 Z11.9000 F2500.0
G4 P0.02
G1 X59.1727 Y-229.3927 F12000.0
G1 X58.9631 Y-230.1933
G1 X59.3025 Y-230.7879
G1 X59.2277 Y-230.7168
G1 X59.7176 Y-231.0066
G1 X60.6182 Y-230.8992
G1 X61.1137 Y-230.3333
G1 X60.9445 Y-230.6580
G1 X60.5944 Y-230.9456
G1 Z0.0000 F2500.0
G4 P0.02
G0 X60.2725 Y-229.0604 F15000.0
G1 Z11.9000 F2500.0
G4 P0.02
G1 X59.6028 Y-228.8562 F12000.0
G1 X59.3256 Y-228.5161
G1 X59.1492 Y-228.0935
G1 X59.2984 Y-227.5303
G1 X60.1091 Y-227.1138
G1 X60.9069 Y-227.4416
G1 X60.8404 Y-227.3795
G1 X61.0542 Y-227.8188
G1 Z0.0000 F2500.0
G4 P0.02
G0 X62.3417 Y-228.2327 F15000.0
G1 Z11.9000 F2500.0
G4 P0.02
G1 X62.4662 Y-227.7821 F12000.0
G1 X62.6640 Y-227.4274
G1 X62.3505 Y-228.2598
G1 X62.3018 Y-229.5724
G1 X62.3984 Y-230.1574
G1 X62.5969 Y-230.6204
G1 X62.9712 Y-230.9524
G1 X63.6253 Y-231.0171
G1 X63.9525 Y-230.8878
G1 X64.2066 Y-230.6616
G1 X64.3351 Y-230.3458
G1 X64.5273 Y-228.8043
G1 X64.3860 Y-227.8720
G1 X64.1563 Y-227.4726
G1 X63.5305 Y-227.1375
G1 X63.3115 Y-227.1340
G1 X62.8015 Y-227.3130
G1 Z0.0000 F2500.0
G4 P0.02
G0 X62.3417 Y-229.9340 F15000.0
G1 Z11.9000 F2500.0
G4 P0.02
G1 X62.6502 Y-230.6927 F12000.0
G1 X62.9395 Y-230.9456
G1 Z0.0000 F2500.0
G4 P0.02
G0 X67.3997 Y-229.9340 F15000.0
G1 Z11.9000 F2500.0
G4 P0.02
G1 X67.7781 Y-230.7801 F12000.0
G1 X67.9975 Y-230.9456
G1 Z0.0000 F2500.0
G4 P0.02
G0 X67.3997 Y-228.2327 F15000.0
G1 Z11.9000 F2500.0
G4 P0.02
G1 X67.5242 Y-227.7821 F12000.0
G1 X67.7220 Y-227.4274
G1 X67.3965 Y-228.3777
G1 X67.3615 Y-229.6913
G1 X67.5558 Y-230.3678
G1 X68.1275 Y-230.9470
G1 X68.7095 Y-231.0099
G1 X69.0335 Y-230.8733
G1 X69.3380 Y-230.5453
G1 X69.5882 Y-228.7768
G1 X69.4348 Y-227.8461
G1 X69.1934 Y-227.4561
G1 X68.5635 Y-227.1308
G1 X67.8595 Y-227.3130
G1 Z0.0000 F2500.0
G4 P0.02
G0 X70.8024 Y-228.2327 F15000.0
G1 Z11.9000 F2500.0
G4 P0.02
G1 X70.9269 Y-227.7821 F12000.0
G1 X71.1246 Y-227.4274
G1 X70.8103 Y-228.3776
G1 X70.9452 Y-230.3959
G1 X71.0591 Y-230.6217
G1 X71.4346 Y-230.9509
G1 X72.1007 Y-231.0132
G1 X72.4261 Y-230.8797
G1 X72.6778 Y-230.6528
G1 X72.7979 Y-230.3304
G1 X72.9895 Y-228.7889
G1 X72.8414 Y-227.8574
G1 X72.6051 Y-227.4633
G1 X71.9771 Y-227.1337
G1 X71.2622 Y-227.3130
G1 Z0.0000 F2500.0
G4 P0.02
G0 X70.8024 Y-229.9340 F15000.0
G1 Z11.9000 F2500.0
G4 P0.02
G1 X71.1108 Y-230.6927 F12000.0
G1 X71.4001 Y-230.9456
G1 Z0.0000 F2500.0
G4 P0.02
G0 X74.2510 Y-230.9456 F15000.0
G1 Z11.9000 F2500.0
G4 P0.02
G1 X74.2761 Y-229.7790 F12000.0
G1 X74.4441 Y-229.7326
G1 X75.5059 Y-229.8667
G1 X75.9191 Y-229.7014
G1 X76.0960 Y-229.4428
G1 X76.2742 Y-228.3706
G1 Z0.0000 F2500.0
G4 P0.02
G0 X74.2510 Y-228.3706 F15000.0
G1 Z11.9000 F2500.0
G4 P0.02
G1 X74.2510 Y-229.7041 F12000.0
G1 Z0.0000 F2500.0
G4 P0.02
G0 X77.3778 Y-230.9456 F15000.0
G1 Z11.9000 F2500.0
G4 P0.02
G1 X77.5936 Y-227.7257 F12000.0
G1 X77.5008 Y-227.3472
G1 X77.8828 Y-227.8044
G1 X79.0294 Y-230.6733
G1 X79.1050 Y-230.7036
G1 X80.7642 Y-227.4893
G1 X80.8803 Y-227.5684
G1 X80.9644 Y-230.9456
G1 Z0.0000 F2500.0
G4 P0.02
G0 X79.1711 Y-230.9456 F15000.0
G1 Z11.9000 F2500.0
G4 P0.02
G1 X79.1251 Y-230.7157 F12000.0
G1 Z0.0000 F2500.0
G4 P0.02
G0 X38.2775 Y-238.4241 F15000.0
G1 Z11.9000 F2500.0
G4 P0.02
G1 X37.1279 Y-238.4241 F12000.0
G1 Z0.0000 F2500.0
G4 P0.02
G0 X37.7257 Y-238.4241 F15000.0
G1 Z11.9000 F2500.0
G4 P0.02
G1 X37.6797 Y-239.8495 F12000.0
G1 Z0.0000 F2500.0
G4 P0.02
G0 X38.8293 Y-239.8955 F15000.0
G1 Z11.9000 F2500.0
G4 P0.02
G1 X38.8903 Y-238.7437 F12000.0
G1 X39.7869 Y-239.6138
G1 X39.8556 Y-239.4580
G1 X39.9073 Y-238.5533
G1 X39.2715 Y-238.9936
G1 X38.9384 Y-238.6954
G1 X38.8293 Y-238.4701
G1 Z0.0000 F2500.0
G4 P0.02
G0 X39.3811 Y-239.2058 F15000.0
G1 Z11.9000 F2500.0
G4 P0.02
G1 X39.7029 Y-239.6196 F12000.0
G1 Z0.0000 F2500.0
G4 P0.02
G0 X40.6685 Y-239.8495 F15000.0
G1 Z11.9000 F2500.0
G4 P0.02
G1 X40.7274 Y-237.8693 F12000.0
G1 X41.9560 Y-239.8495
G1 Z0.0000 F2500.0
G4 P0.02
G0 X27.7533 Y-238.3431 F15000.0
G1 Z11.9000 F2500.0
G4 P0.02
G1 X27.8256 Y-238.5913 F12000.0
G1 X27.6917 Y-238.2235
G1 X27.3708 Y-237.7959
G1 X27.4299 Y-238.0427
G1 X27.2934 Y-239.4926
G1 Z0.0000 F2500.0
G4 P0.02
G0 X28.1671 Y-239.3087 F15000.0
G1 Z11.9000 F2500.0
G4 P0.02
G1 X28.2164 Y-239.3481 F12000.0
G1 X27.8861 Y-238.7401
G1 X28.1362 Y-239.2754
G1 X28.2914 Y-239.2612
G1 X29.0382 Y-237.8464
G1 X29.1109 Y-237.9458
G1 X29.1787 Y-239.5386
G1 Z0.0000 F2500.0
G4 P0.02
G0 X26.4658 Y-238.2511 F15000.0
G1 Z11.9000 F2500.0
G4 P0.02
G1 X26.2756 Y-238.1628 F12000.0
G1 X25.6217 Y-238.7009
G1 X26.4695 Y-238.9755
G1 X26.6149 Y-239.2721
G1 X26.4538 Y-239.5511
G1 X26.2418 Y-239.5977
G1 X25.5908 Y-239.4085
G1 X25.5150 Y-239.4551
G1 X25.5647 Y-238.8387
G1 X24.8475 Y-238.5025
G1 X24.8791 Y-239.0440
G1 X24.6992 Y-239.4634
G1 X24.4068 Y-239.6022
G1 X23.8908 Y-239.4466
G1 Z0.0000 F2500.0
G4 P0.02
G0 X23.8448 Y-238.3431 F15000.0
G1 Z11.9000 F2500.0
G4 P0.02
G1 X24.0349 Y-238.1689 F12000.0
G1 X24.4844 Y-238.1402
G1 X24.7039 Y-238.2926
G1 X24.3673 Y-238.1484
G1 X23.2839 Y-238.4923
G1 X23.3122 Y-239.0590
G1 X23.1246 Y-239.4715
G1 X22.8286 Y-239.6033
G1 X22.3923 Y-239.4527
G1 X22.2895 Y-239.2711
G1 X22.3103 Y-238.3164
G1 X22.5554 Y-238.1338
G1 X23.0016 Y-238.1848
G1 X23.2011 Y-238.3431
G1 Z0.0000 F2500.0
G4 P0.02
G0 X21.5917 Y-238.2511 F15000.0
G1 Z11.9000 F2500.0
G4 P0.02
G1 X21.4015 Y-238.1628 F12000.0
G1 X20.7476 Y-238.7009
G1 X21.5955 Y-238.9755
G1 X21.7409 Y-239.2721
G1 X21.5797 Y-239.5511
G1 X21.3678 Y-239.5977
G1 X20.7167 Y-239.4085
G1 X20.6409 Y-239.4551
G1 X20.6721 Y-238.8029
G1 Z0.0000 F2500.0
G4 P0.02
G0 X1.8098 Y-237.7661 F15000.0
G1 Z11.9000 F2500.0
G4 P0.02
G1 X2.8430 Y-238.0469 F12000.0
G1 X3.0502 Y-238.3493
G1 X3.0516 Y-238.6663
G1 X2.0574 Y-238.6421
G1 X1.8153 Y-239.0143
G1 X1.7816 Y-239.2467
G1 X1.8481 Y-239.4518
G1 X2.5293 Y-240.0636
G1 X2.7868 Y-239.8906
G1 X3.0581 Y-238.8767
G1 X2.7663 Y-238.6305
G1 X3.0514 Y-238.8237
G1 Z0.0000 F2500.0
G4 P0.02
G0 X3.8330 Y-239.0996 F15000.0
G1 Z11.9000 F2500.0
G4 P0.02
G1 X3.8026 Y-239.6925 F12000.0
G1 X3.8859 Y-239.8972
G1 X4.4752 Y-240.0797
G1 X4.9087 Y-239.8211
G1 X3.9597 Y-239.1769
G1 X3.8434 Y-239.0014
G1 X3.8825 Y-238.6748
G1 X4.5444 Y-238.5233
G1 X4.7967 Y-238.5844
G1 X4.7067 Y-238.5018
G1 Z0.0000 F2500.0
G4 P0.02
G0 X5.4884 Y-238.5018 F15000.0
G1 Z11.9000 F2500.0
G4 P0.02
G1 X6.6379 Y-238.5018 F12000.0
G1 Z0.0000 F2500.0
G4 P0.02
G0 X7.1437 Y-238.5478 F15000.0
G1 Z11.9000 F2500.0
G4 P0.02
G1 X8.1094 Y-240.0192 F12000.0
G1 Z0.0000 F2500.0
G4 P0.02
G0 X8.1553 Y-238.5478 F15000.0
G1 Z11.9000 F2500.0
G4 P0.02
G1 X8.1779 Y-239.9663 F12000.0
G1 X8.3401 Y-240.0478
G1 X8.9307 Y-239.9902
G1 X9.0968 Y-239.9014
G1 X9.1210 Y-238.5478
G1 Z0.0000 F2500.0
G4 P0.02
G0 X9.7647 Y-238.7777 F15000.0
G1 Z11.9000 F2500.0
G4 P0.02
G1 X9.9922 Y-238.5281 F12000.0
G1 X10.5576 Y-238.5498
G1 X10.7803 Y-238.8127
G1 X10.8939 Y-239.3892
G1 X10.6642 Y-239.9187
G1 X10.2478 Y-240.0756
G1 X9.9225 Y-239.9561
G1 X9.7596 Y-239.7702
G1 X9.8107 Y-239.8813
G1 Z0.0000 F2500.0
G4 P0.02
G0 X11.5580 Y-239.8353 F15000.0
G1 Z11.9000 F2500.0
G4 P0.02
G1 X11.5566 Y-239.1929 F12000.0
G1 X11.6205 Y-239.8944
G1 X12.2132 Y-240.0760
G1 X12.6283 Y-239.8135
G1 X11.6729 Y-239.1687
G1 X11.5650 Y-238.9887
G1 X11.6161 Y-238.6657
G1 X12.2837 Y-238.5220
G1 X12.5187 Y-238.5795
G1 X12.4316 Y-238.5018
G1 Z0.0000 F2500.0
G4 P0.02
G0 X13.5812 Y-238.1340 F15000.0
G1 Z11.9000 F2500.0
G4 P0.02
G1 X13.9545 Y-238.7425 F12000.0
G1 X13.5939 Y-238.2271
G1 X13.4892 Y-240.0192
G1 Z0.0000 F2500.0
G4 P0.02
G0 X14.4089 Y-239.8353 F15000.0
G1 Z11.9000 F2500.0
G4 P0.02
G1 X14.1747 Y-239.3621 F12000.0
G1 X14.2516 Y-239.6222
G1 X14.0771 Y-239.0877
G1 X14.4480 Y-239.7658
G1 X15.2327 Y-238.3642
G1 X15.4064 Y-238.1868
G1 X15.3862 Y-238.0797
G1 X15.4665 Y-239.9732
G1 Z0.0000 F2500.0
G4 P0.02
G0 X6.0402 Y-240.0192 F15000.0
G1 Z11.9000 F2500.0
G4 P0.02
G1 X6.0862 Y-238.5018 F12000.0
G1 Z0.0000 F2500.0
G4 P0.02
G0 X2.9134 Y-239.8353 F15000.0
G1 Z11.9000 F2500.0
G4 P0.02
G1 X2.7755 Y-239.9732 F12000.0
G1 Z0.0000 F2500.0
G4 P0.02
G0 X96.3000 Y-240.8102 F15000.0
G1 Z11.9000 F2500.0
G4 P0.02
G1 X96.6307 Y-240.9171 F12000.0
G1 X96.9830 Y-241.2340
G1 X97.4087 Y-242.0817
G1 X97.8102 Y-242.5919
G1 X97.5026 Y-242.2562
G1 X97.8680 Y-242.7668
G1 X96.3794 Y-244.8575
G1 X95.9614 Y-244.9812
G1 X95.1559 Y-244.5215
G1 X93.8929 Y-244.8303
G1 X93.4723 Y-244.6555
G1 X93.1441 Y-244.2601
G1 X93.0024 Y-243.6931
G1 X93.0798 Y-242.7412
G1 X93.2477 Y-242.3594
G1 X93.8548 Y-241.9877
G1 X94.4361 Y-242.0763
G1 X94.6369 Y-242.1773
G1 X95.1881 Y-244.4819
G1 X95.2425 Y-246.0061
G1 Z0.0000 F2500.0
G4 P0.02
G0 X95.1505 Y-242.4196 F15000.0
G1 Z11.9000 F2500.0
G4 P0.02
G1 X94.7690 Y-242.2659 F12000.0
G1 X95.1803 Y-242.3422
G1 X95.1787 Y-242.0854
G1 X94.5987 Y-242.0977
G1 Z0.0000 F2500.0
G4 P0.02
G0 X91.6559 Y-242.4196 F15000.0
G1 Z11.9000 F2500.0
G4 P0.02
G1 X91.2008 Y-242.0550 F12000.0
G1 X90.2643 Y-242.0260
G1 X89.8461 Y-242.2310
G1 X89.6622 Y-243.0200
G1 X89.7148 Y-243.1922
G1 X91.3366 Y-243.4932
G1 X91.7457 Y-243.7870
G1 X91.8609 Y-244.2322
G1 X91.7483 Y-244.5610
G1 X91.5948 Y-244.7136
G1 X91.0263 Y-244.8766
G1 X90.6765 Y-244.8516
G1 X90.1778 Y-244.6282
G1 X90.5173 Y-244.8215
G1 X89.6023 Y-244.7815
G1 X89.5906 Y-243.2422
G1 X86.1840 Y-243.3852
G1 Z0.0000 F2500.0
G4 P0.02
G0 X86.1381 Y-242.0977 F15000.0
G1 Z11.9000 F2500.0
G4 P0.02
G1 X86.1381 Y-244.7646 F12000.0
G1 Z0.0000 F2500.0
G4 P0.02
G0 X88.2532 Y-244.7646 F15000.0
G1 Z11.9000 F2500.0
G4 P0.02
G1 X88.2532 Y-242.0977 F12000.0
G1 Z0.0000 F2500.0
G4 P0.02
G0 X91.3800 Y-243.4771 F15000.0
G1 Z11.9000 F2500.0
G4 P0.02
G1 X91.4719 Y-243.5691 F12000.0
G1 Z0.0000 F2500.0
G4 P0.02
G0 X97.9554 Y-242.7414 F15000.0
G1 Z11.9000 F2500.0
G4 P0.02
G1 X98.7831 Y-242.6954 F12000.0
G1 Z0.0000 F2500.0
G4 P0.02
G0 X98.7831 Y-240.8562 F15000.0
G1 Z11.9000 F2500.0
G4 P0.02
G1 X98.7831 Y-244.7186 F12000.0
G1 Z0.0000 F2500.0
G4 P0.02
G0 X60.6483 Y-240.7642 F15000.0
G1 Z11.9000 F2500.0
G4 P0.02
G1 X60.7940 Y-241.0178 F12000.0
G1 X61.0080 Y-241.1446
G1 X61.5898 Y-241.0997
G1 X61.8633 Y-240.9686
G1 X61.7059 Y-241.0861
G1 Z0.0000 F2500.0
G4 P0.02
G0 X62.4416 Y-242.0977 F15000.0
G1 Z11.9000 F2500.0
G4 P0.02
G1 X62.3368 Y-244.3455 F12000.0
G1 X62.1898 Y-244.3932
G1 X61.9220 Y-244.2740
G1 X61.1141 Y-243.0259
G1 X60.7549 Y-242.6095
G1 X60.9292 Y-242.7701
G1 X60.3264 Y-244.7646
G1 Z0.0000 F2500.0
G4 P0.02
G0 X61.6599 Y-243.8910 F15000.0
G1 Z11.9000 F2500.0
G4 P0.02
G1 X61.8438 Y-244.2588 F12000.0
G1 Z0.0000 F2500.0
G4 P0.02
G0 X62.3956 Y-244.6727 F15000.0
G1 Z11.9000 F2500.0
G4 P0.02
G1 X62.2979 Y-244.4662 F12000.0
G1 X61.5906 Y-243.8373
G1 X60.9197 Y-242.7738
G1 X60.4583 Y-242.4187
G1 X60.3264 Y-242.0977
G1 Z0.0000 F2500.0
G4 P0.02
G0 X65.5224 Y-242.1437 F15000.0
G1 Z11.9000 F2500.0
G4 P0.02
G1 X65.3207 Y-242.0380 F12000.0
G1 X64.6171 Y-242.0127
G1 X64.1996 Y-242.1969
G1 X63.9124 Y-242.5245
G1 X63.7973 Y-242.8526
G1 X63.7020 Y-243.7996
G1 X63.9750 Y-244.4497
G1 X64.2389 Y-244.6809
G1 X65.1710 Y-244.8366
G1 X65.4923 Y-244.7082
G1 X65.8829 Y-244.4215
G1 X66.0403 Y-244.0756
G1 X66.1109 Y-243.1283
G1 X66.0411 Y-242.7906
G1 X65.7757 Y-242.3333
G1 X65.5797 Y-242.1501
G1 X65.9396 Y-242.5152
G1 X66.1201 Y-242.9254
G1 Z0.0000 F2500.0
G4 P0.02
G0 X67.3616 Y-243.3852 F15000.0
G1 Z11.9000 F2500.0
G4 P0.02
G1 X69.4308 Y-243.3392 F12000.0
G1 Z0.0000 F2500.0
G4 P0.02
G0 X69.4308 Y-242.0977 F15000.0
G1 Z11.9000 F2500.0
G4 P0.02
G1 X69.4308 Y-244.7646 F12000.0
G1 Z0.0000 F2500.0
G4 P0.02
G0 X70.7183 Y-244.4428 F15000.0
G1 Z11.9000 F2500.0
G4 P0.02
G1 X70.7835 Y-243.8064 F12000.0
G1 X71.0778 Y-243.3490
G1 X70.9505 Y-243.0966
G1 X71.1660 Y-243.3231
G1 X72.7875 Y-243.3392
G1 Z0.0000 F2500.0
G4 P0.02
G0 X74.2129 Y-242.0977 F15000.0
G1 Z11.9000 F2500.0
G4 P0.02
G1 X74.3447 Y-242.4162 F12000.0
G1 X74.6483 Y-242.6076
G1 X74.2129 Y-244.7646
G1 Z0.0000 F2500.0
G4 P0.02
G0 X75.6844 Y-244.1669 F15000.0
G1 Z11.9000 F2500.0
G4 P0.02
G1 X74.7187 Y-242.6035 F12000.0
G1 Z0.0000 F2500.0
G4 P0.02
G0 X76.3281 Y-242.0977 F15000.0
G1 Z11.9000 F2500.0
G4 P0.02
G1 X76.1721 Y-244.3909 F12000.0
G1 X75.8047 Y-244.2915
G1 X76.1668 Y-244.4627
G1 X76.2821 Y-244.6727
G1 Z0.0000 F2500.0
G4 P0.02
G0 X77.6616 Y-244.7646 F15000.0
G1 Z11.9000 F2500.0
G4 P0.02
G1 X77.7286 Y-242.0790 F12000.0
G1 X79.7767 Y-244.6727
G1 Z0.0000 F2500.0
G4 P0.02
G0 X81.2941 Y-244.5807 F15000.0
G1 Z11.9000 F2500.0
G4 P0.02
G1 X81.5901 Y-244.7588 F12000.0
G1 X81.1154 Y-244.3267
G1 X81.5058 Y-244.7314
G1 X81.7629 Y-244.8264
G1 X82.6929 Y-244.7053
G1 X83.0743 Y-244.3088
G1 X83.2478 Y-243.6231
G1 X82.8779 Y-242.2908
G1 X82.7216 Y-242.1418
G1 X82.3315 Y-242.0100
G1 X81.8616 Y-241.9982
G1 X81.5274 Y-242.1055
G1 X81.1562 Y-242.4655
G1 Z0.0000 F2500.0
G4 P0.02
G0 X71.3621 Y-242.0517 F15000.0
G1 Z11.9000 F2500.0
G4 P0.02
G1 X72.6456 Y-242.0403 F12000.0
G1 X72.7584 Y-243.4066
G1 X71.2711 Y-244.7438
G1 X71.0750 Y-244.7182
G1 X70.7266 Y-244.4247
G1 X70.6961 Y-244.1991
G1 X70.9266 Y-243.1520
G1 X70.8834 Y-242.4494
G1 X70.9965 Y-242.2576
G1 X71.2718 Y-242.0904
G1 X70.8563 Y-242.4196
G1 Z0.0000 F2500.0
G4 P0.02
G0 X67.3157 Y-242.0977 F15000.0
G1 Z11.9000 F2500.0
G4 P0.02
G1 X67.3157 Y-244.7646 F12000.0
G1 Z0.0000 F2500.0
G4 P0.02
G0 X65.9362 Y-244.3508 F15000.0
G1 Z11.9000 F2500.0
G4 P0.02
G1 X65.5224 Y-244.7186 F12000.0
G1 Z0.0000 F2500.0
G4 P0.02
G0 X148.9111 Y-242.5108 F15000.0
G1 Z11.9000 F2500.0
G4 P0.02
G1 X148.9400 Y-243.8867 F12000.0
G1 X149.0828 Y-243.9539
G1 X149.3082 Y-243.9007
G1 X149.0361 Y-244.0205
G1 X149.5153 Y-243.5841
G1 X149.4893 Y-243.6388
G1 X149.5804 Y-243.4133
G1 X150.1141 Y-242.8480
G1 X150.2636 Y-242.8361
G1 X150.2905 Y-244.2581
G1 Z0.0000 F2500.0
G4 P0.02
G0 X149.5548 Y-243.5224 F15000.0
G1 Z11.9000 F2500.0
G4 P0.02
G1 X149.9537 Y-242.9574 F12000.0
G1 X150.1986 Y-242.7867
G1 Z0.0000 F2500.0
G4 P0.02
G0 X148.4513 Y-243.1545 F15000.0
G1 Z11.9000 F2500.0
G4 P0.02
G1 X148.3930 Y-243.5929 F12000.0
G1 X147.8675 Y-243.6347
G1 X147.9307 Y-243.7932
G1 X147.7550 Y-244.1057
G1 X147.9740 Y-243.8481
G1 X148.3739 Y-243.7225
G1 X148.0145 Y-243.7705
G1 X147.7483 Y-243.5206
G1 X147.7964 Y-243.1440
G1 X147.8932 Y-242.9821
G1 X148.0506 Y-242.9075
G1 X148.2673 Y-242.9706
G1 Z0.0000 F2500.0
G4 P0.02
G0 X146.4079 Y-244.2581 F15000.0
G1 Z11.9000 F2500.0
G4 P0.02
G1 X145.4757 Y-244.2719 F12000.0
G1 X145.4193 Y-244.2005
G1 X145.4953 Y-243.0604
G1 X146.5532 Y-244.4179
G1 X146.5548 Y-244.6077
G1 X145.3743 Y-244.2901
G1 X145.1353 Y-244.6694
G1 X144.0273 Y-244.2926
G1 X143.7025 Y-244.1092
G1 X143.0796 Y-244.1892
G1 X142.9974 Y-243.6602
G1 X142.6084 Y-243.4098
G1 X142.2020 Y-242.9991
G1 X141.9787 Y-242.9734
G1 X141.7970 Y-243.0553
G1 X141.4441 Y-243.9038
G1 X141.0520 Y-243.7779
G1 X140.7787 Y-243.0433
G1 X140.7923 Y-243.1635
G1 X140.2982 Y-243.3180
G1 X140.2590 Y-244.1999
G1 X139.6381 Y-244.2211
G1 X139.1926 Y-243.4251
G1 X139.0471 Y-243.3120
G1 X138.9129 Y-244.2581
G1 Z0.0000 F2500.0
G4 P0.02
G0 X139.6026 Y-244.0742 F15000.0
G1 Z11.9000 F2500.0
G4 P0.02
G1 X140.2004 Y-243.2005 F12000.0
G1 Z0.0000 F2500.0
G4 P0.02
G0 X141.1200 Y-243.9822 F15000.0
G1 Z11.9000 F2500.0
G4 P0.02
G1 X141.3643 Y-243.9863 F12000.0
G1 X141.0522 Y-243.7712
G1 X140.9640 Y-243.5597
G1 X141.4141 Y-244.7165
G1 X141.7178 Y-244.9478
G1 Z0.0000 F2500.0
G4 P0.02
G0 X142.3155 Y-244.2581 F15000.0
G1 Z11.9000 F2500.0
G4 P0.02
G1 X142.5966 Y-243.5715 F12000.0
G1 X142.6046 Y-243.7081
G1 X143.0135 Y-243.5353
G1 X143.0512 Y-243.0166
G1 Z0.0000 F2500.0
G4 P0.02
G0 X143.7410 Y-243.1545 F15000.0
G1 Z11.9000 F2500.0
G4 P0.02
G1 X143.9524 Y-243.0130 F12000.0
G1 X143.7572 Y-243.3325
G1 X143.6762 Y-243.8014
G1 X143.7303 Y-244.0068
G1 X144.1110 Y-244.2565
G1 X144.3396 Y-244.2717
G1 X144.5441 Y-244.1766
G1 X144.6771 Y-244.0041
G1 X144.7712 Y-243.6708
G1 X144.6473 Y-243.2203
G1 X144.4813 Y-243.0719
G1 X144.0169 Y-242.9706
G1 Z0.0000 F2500.0
G4 P0.02
G0 X144.5686 Y-243.0626 F15000.0
G1 Z11.9000 F2500.0
G4 P0.02
G1 X144.6146 Y-243.1545 F12000.0
G1 Z0.0000 F2500.0
G4 P0.02
G0 X128.4872 Y-244.1441 F15000.0
G1 Z11.9000 F2500.0
G4 P0.02
G1 X128.5860 Y-242.3962 F12000.0
G1 X129.8667 Y-244.1441
G1 Z0.0000 F2500.0
G4 P0.02
G0 X127.1078 Y-242.8567 F15000.0
G1 Z11.9000 F2500.0
G4 P0.02
G1 X127.6597 Y-242.9957 F12000.0
G1 X127.8652 Y-243.5909
G1 X127.7541 Y-243.9227
G1 X127.6094 Y-244.0852
G1 X127.2826 Y-244.1598
G1 X126.8959 Y-244.0191
G1 X126.9368 Y-244.0880
G1 X126.7701 Y-243.8283
G1 X126.8706 Y-243.1326
G1 X127.0364 Y-242.9058
G1 X126.8319 Y-243.0406
G1 Z0.0000 F2500.0
G4 P0.02
G0 X126.3721 Y-244.1901 F15000.0
G1 Z11.9000 F2500.0
G4 P0.02
G1 X126.3980 Y-244.4795 F12000.0
G1 X126.1536 Y-244.0383
G1 X125.3086 Y-242.9379
G1 X125.2529 Y-244.1071
G1 X125.3225 Y-244.1650
G1 X126.1448 Y-244.1455
G1 X125.1543 Y-244.1935
G1 X125.0076 Y-244.5396
G1 X124.4883 Y-244.1306
G1 X123.5961 Y-242.9318
G1 X123.5212 Y-244.1441
G1 Z0.0000 F2500.0
G4 P0.02
G0 X169.0263 Y-242.5960 F15000.0
G1 Z11.9000 F2500.0
G4 P0.02
G1 X168.9339 Y-244.2312 F12000.0
G1 X168.6398 Y-243.9424
G1 X167.9762 Y-243.0227
G1 X168.1585 Y-243.2617
G1 X167.6841 Y-242.7546
G1 X167.7652 Y-243.0030
G1 X167.6642 Y-244.1876
G1 X167.5838 Y-244.3618
G1 X166.6639 Y-244.4014
G1 X166.2564 Y-244.2179
G1 X166.3424 Y-243.8310
G1 X166.4897 Y-243.7448
G1 X166.2958 Y-243.6098
G1 X166.3376 Y-243.1915
G1 X166.6626 Y-243.1209
G1 X166.8876 Y-243.2788
G1 X165.6156 Y-243.4653
G1 X165.6167 Y-244.3122
G1 X165.5213 Y-243.3902
G1 X164.8963 Y-244.2986
G1 X164.5484 Y-243.5926
G1 X164.3492 Y-243.4655
G1 X164.2442 Y-244.3893
G1 Z0.0000 F2500.0
G4 P0.02
G0 X161.7195 Y-242.5501 F15000.0
G1 Z11.9000 F2500.0
G4 P0.02
G1 X160.8267 Y-242.5745 F12000.0
G1 X160.7702 Y-242.6391
G1 X160.6554 Y-244.3421
G1 X160.1116 Y-244.2132
G1 X159.6093 Y-243.9104
G1 X159.0472 Y-243.2363
G1 X159.1905 Y-243.3777
G1 Z0.0000 F2500.0
G4 P0.02
G0 X160.0182 Y-243.1478 F15000.0
G1 Z11.9000 F2500.0
G4 P0.02
G1 X159.9544 Y-244.0736 F12000.0
G1 X159.7737 Y-244.0932
G1 X159.8662 Y-244.1430
G1 Z0.0000 F2500.0
G4 P0.02
G0 X159.7275 Y-244.0836 F15000.0
G1 Z11.9000 F2500.0
G4 P0.02
G1 X159.3993 Y-243.6138 F12000.0
G1 X159.1734 Y-243.4456
G1 X159.0066 Y-244.3893
G1 Z0.0000 F2500.0
G4 P0.02
G0 X157.4892 Y-244.2974 F15000.0
G1 Z11.9000 F2500.0
G4 P0.02
G1 X157.4553 Y-244.2379 F12000.0
G1 X157.8338 Y-244.3996
G1 X158.3304 Y-244.1326
G1 X158.3929 Y-243.7974
G1 X158.2943 Y-243.3539
G1 X157.7542 Y-243.1407
G1 X156.0637 Y-243.1018
G1 Z0.0000 F2500.0
G4 P0.02
G0 X156.5695 Y-243.1018 F15000.0
G1 Z11.9000 F2500.0
G4 P0.02
G1 X156.5236 Y-244.3893 F12000.0
G1 Z0.0000 F2500.0
G4 P0.02
G0 X162.0414 Y-244.4813 F15000.0
G1 Z11.9000 F2500.0
G4 P0.02
G1 X161.8884 Y-244.4110 F12000.0
G1 X161.8130 Y-244.2288
G1 X161.7655 Y-242.6420
G1 Z0.0000 F2500.0
G4 P0.02
G0 X118.2744 Y-242.4275 F15000.0
G1 Z11.9000 F2500.0
G4 P0.02
G1 X117.2929 Y-242.4834 F12000.0
G1 X117.2026 Y-244.4226
G1 X117.0600 Y-244.5056
G1 X117.0038 Y-244.9058
G1 X117.3248 Y-244.4702
G1 X118.4894 Y-244.4313
G1 X118.7697 Y-244.9136
G1 X118.7664 Y-244.6175
G1 X118.5106 Y-244.2748
G1 X118.4145 Y-243.9334
G1 X118.3204 Y-242.5194
G1 Z0.0000 F2500.0
G4 P0.02
G0 X116.2512 Y-243.1172 F15000.0
G1 Z11.9000 F2500.0
G4 P0.02
G1 X116.2910 Y-243.1741 F12000.0
G1 X116.1281 Y-243.0787
G1 X115.6650 Y-243.0490
G1 X115.4640 Y-243.1588
G1 X115.3454 Y-243.3436
G1 X115.4220 Y-243.6247
G1 X116.1027 Y-243.7926
G1 X116.4425 Y-244.2229
G1 X116.2657 Y-244.4853
G1 X116.0430 Y-244.5163
G1 X115.3254 Y-244.3674
G1 X115.3162 Y-243.6841
G1 X114.8796 Y-243.1452
G1 X114.6719 Y-243.0737
G1 X113.7222 Y-243.0712
G1 Z0.0000 F2500.0
G4 P0.02
G0 X114.3200 Y-243.0712 F15000.0
G1 Z11.9000 F2500.0
G4 P0.02
G1 X114.2740 Y-244.4507 F12000.0
G1 Z0.0000 F2500.0
G4 P0.02
G0 X113.0784 Y-243.1172 F15000.0
G1 Z11.9000 F2500.0
G4 P0.02
G1 X113.1183 Y-243.1741 F12000.0
G1 X112.9554 Y-243.0787
G1 X112.4923 Y-243.0490
G1 X112.2145 Y-243.2410
G1 X112.1841 Y-243.5580
G1 X113.0292 Y-243.8434
G1 X113.2697 Y-244.2229
G1 X113.0929 Y-244.4854
G1 X112.1217 Y-244.4470
G1 X112.1838 Y-243.7424
G1 X112.1831 Y-244.4320
G1 X112.4515 Y-244.4737
G1 X112.3887 Y-244.4047
G1 Z0.0000 F2500.0
G4 P0.02
G0 X160.1018 Y-245.5174 F15000.0
G1 Z11.9000 F2500.0
G4 P0.02
G1 X161.0151 Y-245.6948 F12000.0
G1 X161.1331 Y-245.8280
G1 X161.2212 Y-246.1506
G1 X161.1355 Y-247.1349
G1 X160.9991 Y-247.3170
G1 X160.6812 Y-247.4117
G1 X160.3474 Y-247.2992
G1 X160.1787 Y-247.1525
G1 X160.1274 Y-246.9365
G1 X160.2989 Y-246.2594
G1 X160.4905 Y-246.1531
G1 X160.8373 Y-246.1522
G1 X161.0870 Y-246.2754
G1 X160.4566 Y-246.1894
G1 X160.2707 Y-246.2755
G1 X160.1965 Y-246.4632
G1 X160.2397 Y-247.2648
G1 Z0.0000 F2500.0
G4 P0.02
G0 X161.8491 Y-247.4027 F15000.0
G1 Z11.9000 F2500.0
G4 P0.02
G1 X161.9569 Y-247.2334 F12000.0
G1 X161.9122 Y-246.6577
G1 X162.0417 Y-246.2132
G1 X162.2221 Y-246.1555
G1 X162.7565 Y-246.3567
G1 X162.8572 Y-247.1497
G1 X162.7884 Y-247.3507
G1 X162.5889 Y-247.4261
G1 X161.8581 Y-247.3910
G1 X161.9689 Y-246.7651
G1 X162.5654 Y-246.8326
G1 X162.1347 Y-247.3071
G1 X161.9870 Y-247.3107
G1 Z0.0000 F2500.0
G4 P0.02
G0 X163.4584 Y-247.1268 F15000.0
G1 Z11.9000 F2500.0
G4 P0.02
G1 X163.5044 Y-247.2188 F12000.0
G1 Z0.0000 F2500.0
G4 P0.02
G0 X164.4241 Y-247.2648 F15000.0
G1 Z11.9000 F2500.0
G4 P0.02
G1 X163.8585 Y-247.4184 F12000.0
G1 X163.6540 Y-247.3495
G1 X163.4384 Y-247.0233
G1 X163.5323 Y-246.3288
G1 X163.6861 Y-246.1699
G1 X164.1400 Y-246.1731
G1 X164.4013 Y-246.3588
G1 X164.4700 Y-248.0005
G1 Z0.0000 F2500.0
G4 P0.02
G0 X165.7575 Y-247.4027 F15000.0
G1 Z11.9000 F2500.0
G4 P0.02
G1 X165.4230 Y-247.3779 F12000.0
G1 X165.1342 Y-247.2166
G1 X165.2493 Y-246.8268
G1 X165.3891 Y-246.7608
G1 X165.2224 Y-246.6916
G1 X165.1841 Y-246.2642
G1 X165.4650 Y-246.1391
G1 X165.6789 Y-246.1694
G1 X165.8495 Y-246.3451
G1 Z0.0000 F2500.0
G4 P0.02
G0 X166.5852 Y-246.1612 F15000.0
G1 Z11.9000 F2500.0
G4 P0.02
G1 X166.4697 Y-246.6232 F12000.0
G1 X166.4692 Y-247.3476
G1 X166.7649 Y-247.2553
G1 X167.1152 Y-246.8391
G1 X166.5253 Y-246.7575
G1 X166.4111 Y-247.3851
G1 X167.2321 Y-247.4065
G1 X167.3581 Y-246.9411
G1 X167.2405 Y-246.8615
G1 X167.4159 Y-247.2351
G1 X167.3363 Y-246.3787
G1 X166.6772 Y-246.1152
G1 Z0.0000 F2500.0
G4 P0.02
G0 X167.9187 Y-246.2072 F15000.0
G1 Z11.9000 F2500.0
G4 P0.02
G1 X168.0053 Y-245.8570 F12000.0
G1 X169.1313 Y-245.6032
G1 X169.2122 Y-245.7502
G1 X169.2494 Y-247.3185
G1 X169.1526 Y-246.5938
G1 X167.9647 Y-246.2991
G1 Z0.0000 F2500.0
G4 P0.02
G0 X153.0967 Y-247.1679 F15000.0
G1 Z11.9000 F2500.0
G4 P0.02
G1 X152.2040 Y-247.1925 F12000.0
G1 X152.1475 Y-247.2569
G1 X152.0801 Y-249.1043
G1 X151.8962 Y-249.2660
G1 X151.8747 Y-249.5633
G1 X152.0703 Y-249.2644
G1 X152.2426 Y-249.1481
G1 X153.1926 Y-249.1081
G1 X153.3828 Y-249.1755
G1 X153.5943 Y-249.5494
G1 X153.5717 Y-249.2459
G1 X153.3479 Y-248.8919
G1 X153.1427 Y-247.2599
G1 Z0.0000 F2500.0
G4 P0.02
G0 X151.1655 Y-249.0072 F15000.0
G1 Z11.9000 F2500.0
G4 P0.02
G1 X151.3164 Y-248.4446 F12000.0
G1 X151.1234 Y-247.9059
G1 X150.8877 Y-247.7447
G1 X150.4363 Y-247.7735
G1 X150.2382 Y-248.0090
G1 X150.1406 Y-248.8198
G1 X150.4686 Y-249.1891
G1 X151.0735 Y-249.0992
G1 Z0.0000 F2500.0
G4 P0.02
G0 X149.4642 Y-249.0072 F15000.0
G1 Z11.9000 F2500.0
G4 P0.02
G1 X148.7922 Y-249.2063 F12000.0
G1 X148.6036 Y-249.1244
G1 X148.3866 Y-248.7769
G1 X148.4870 Y-247.9686
G1 X148.6661 Y-247.7716
G1 X149.1181 Y-247.7843
G1 X149.3979 Y-247.9552
G1 X149.5101 Y-249.7889
G1 Z0.0000 F2500.0
G4 P0.02
G0 X147.7168 Y-249.0072 F15000.0
G1 Z11.9000 F2500.0
G4 P0.02
G1 X147.8661 Y-248.4453 F12000.0
G1 X147.6409 Y-247.8401
G1 X147.2411 Y-247.7218
G1 X146.9191 Y-247.8179
G1 X146.7713 Y-248.0902
G1 X146.6838 Y-248.6786
G1 X146.7288 Y-248.8926
G1 X146.9091 Y-249.1283
G1 X147.0984 Y-249.2083
G1 X147.6249 Y-249.0992
G1 Z0.0000 F2500.0
G4 P0.02
G0 X147.5329 Y-247.8117 F15000.0
G1 Z11.9000 F2500.0
G4 P0.02
G1 X147.3297 Y-247.7251 F12000.0
G1 X146.1516 Y-247.7459
G1 X145.7914 Y-248.1617
G1 X145.6024 Y-248.2320
G1 X145.2738 Y-247.9224
G1 X145.6216 Y-248.3421
G1 X145.7503 Y-248.6460
G1 X146.2312 Y-249.1920
G1 X145.8767 Y-248.8190
G1 X145.4423 Y-248.7667
G1 X144.9854 Y-249.2286
G1 X144.5080 Y-248.9998
G1 X144.6040 Y-248.4612
G1 X144.3718 Y-247.8360
G1 X144.1094 Y-247.7311
G1 X143.7643 Y-247.7557
G1 X143.5952 Y-247.8831
G1 X143.4211 Y-248.6620
G1 X143.4569 Y-248.8785
G1 X143.6311 Y-249.1182
G1 X143.9317 Y-249.2102
G1 X144.3602 Y-249.0992
G1 Z0.0000 F2500.0
G4 P0.02
G0 X144.2682 Y-247.8117 F15000.0
G1 Z11.9000 F2500.0
G4 P0.02
G1 X144.1762 Y-247.7197 F12000.0
G1 Z0.0000 F2500.0
G4 P0.02
G0 X142.7508 Y-248.4094 F15000.0
G1 Z11.9000 F2500.0
G4 P0.02
G1 X142.6873 Y-247.8483 F12000.0
G1 X142.6241 Y-247.8207
G1 X141.8397 Y-248.2114
G1 X141.9430 Y-248.3510
G1 X142.6880 Y-248.5093
G1 X142.0730 Y-249.1391
G1 X141.7981 Y-249.0276
G1 X141.8677 Y-248.4442
G1 X141.7852 Y-248.5934
G1 Z0.0000 F2500.0
G4 P0.02
G0 X99.4683 Y-249.9523 F15000.0
G1 Z11.9000 F2500.0
G4 P0.02
G1 X101.4301 Y-250.4357 F12000.0
G1 X101.7447 Y-250.7794
G1 X101.9270 Y-251.7065
G1 X101.8657 Y-251.8903
G1 X101.7351 Y-251.9225
G1 X101.1303 Y-251.5203
G1 X100.4459 Y-251.3523
G1 X100.0006 Y-251.5046
G1 X99.6699 Y-251.8190
G1 X99.4838 Y-252.2394
G1 X99.4434 Y-253.1869
G1 X99.6179 Y-253.6268
G1 X99.9818 Y-254.0497
G1 X100.9055 Y-254.1606
G1 X101.2161 Y-254.0044
G1 X101.5779 Y-253.6760
G1 X101.7035 Y-253.2545
G1 X101.8247 Y-251.9648
G1 X101.1236 Y-251.4697
G1 Z0.0000 F2500.0
G4 P0.02
G0 X103.1928 Y-251.0559 F15000.0
G1 Z11.9000 F2500.0
G4 P0.02
G1 X103.3372 Y-250.6290 F12000.0
G1 X103.8994 Y-250.2184
G1 X104.9615 Y-250.1478
G1 X105.6137 Y-250.4181
G1 X106.1133 Y-251.0719
G1 X106.3035 Y-252.4807
G1 X105.9543 Y-253.4808
G1 X105.5449 Y-253.8925
G1 X105.2335 Y-254.0510
G1 X104.4088 Y-254.1665
G1 X103.9452 Y-254.0677
G1 X103.6054 Y-253.8951
G1 X103.1397 Y-253.2901
G1 X103.4464 Y-253.7732
G1 X103.8179 Y-253.9932
G1 X103.1008 Y-253.2170
G1 Z0.0000 F2500.0
G4 P0.02
G0 X101.5834 Y-253.7228 F15000.0
G1 Z11.9000 F2500.0
G4 P0.02
G1 X101.1236 Y-254.0907 F12000.0
G1 Z0.0000 F2500.0
G4 P0.02
G0 X98.2268 Y-253.4929 F15000.0
G1 Z11.9000 F2500.0
G4 P0.02
G1 X98.3486 Y-252.9119 F12000.0
G1 X98.1482 Y-251.8687
G1 X97.6950 Y-251.4341
G1 X97.0093 Y-251.3080
G1 X96.4579 Y-251.4943
G1 X96.0438 Y-252.0188
G1 X95.9398 Y-253.0828
G1 X96.0424 Y-253.5341
G1 X96.4829 Y-254.0325
G1 X97.2947 Y-254.1667
G1 X97.6285 Y-254.0769
G1 X98.1407 Y-253.6521
G1 X97.8485 Y-253.9707
G1 X97.6591 Y-254.0624
G1 X96.4808 Y-253.9305
G1 X96.2496 Y-253.8148
G1 Z0.0000 F2500.0
G4 P0.02
G0 X94.6402 Y-253.8148 F15000.0
G1 Z11.9000 F2500.0
G4 P0.02
G1 X93.2627 Y-254.1422 F12000.0
G1 X92.8639 Y-253.8978
G1 X92.5764 Y-253.5198
G1 X92.8669 Y-253.9427
G1 X93.0828 Y-254.0822
G1 X92.7830 Y-253.8481
G1 X92.5455 Y-253.4658
G1 X92.4452 Y-253.0052
G1 X92.5328 Y-252.0559
G1 X92.8290 Y-251.5575
G1 X93.2444 Y-251.3328
G1 X94.0486 Y-251.4561
G1 X94.4761 Y-251.6659
G1 X94.6204 Y-251.8158
G1 X94.6862 Y-255.3322
G1 Z0.0000 F2500.0
G4 P0.02
G0 X94.6402 Y-251.6996 F15000.0
G1 Z11.9000 F2500.0
G4 P0.02
G1 X94.6475 Y-251.4582 F12000.0
G1 X94.5027 Y-251.6157
G1 X94.0424 Y-251.4237
G1 Z0.0000 F2500.0
G4 P0.02
G0 X91.2835 Y-252.0215 F15000.0
G1 Z11.9000 F2500.0
G4 P0.02
G1 X91.4029 Y-252.8489 F12000.0
G1 X91.2337 Y-253.5261
G1 X90.7690 Y-254.0451
G1 X91.1954 Y-253.6570
G1 X90.6754 Y-254.0828
G1 X90.3401 Y-254.1670
G1 X89.6345 Y-254.0724
G1 X89.3617 Y-253.8866
G1 X89.1126 Y-253.5531
G1 X88.9961 Y-253.1062
G1 X89.0929 Y-252.0402
G1 X89.3377 Y-251.6512
G1 X89.6975 Y-251.3972
G1 X90.2778 Y-251.3112
G1 X90.8193 Y-251.4714
G1 X91.1916 Y-251.8376
G1 Z0.0000 F2500.0
G4 P0.02
G0 X89.3523 Y-253.8608 F15000.0
G1 Z11.9000 F2500.0
G4 P0.02
G1 X89.4442 Y-253.9987 F12000.0
G1 Z0.0000 F2500.0
G4 P0.02
G0 X88.0648 Y-251.4237 F15000.0
G1 Z11.9000 F2500.0
G4 P0.02
G1 X87.9475 Y-252.4867 F12000.0
G1 X87.6555 Y-252.8478
G1 X87.3349 Y-252.9671
G1 X86.0601 Y-252.8393
G1 X85.9956 Y-254.0907
G1 Z0.0000 F2500.0
G4 P0.02
G0 X85.9956 Y-252.8032 F15000.0
G1 Z11.9000 F2500.0
G4 P0.02
G1 X85.9934 Y-251.6099 F12000.0
G1 X85.9176 Y-251.4465
G1 X84.6610 Y-251.4594
G1 X84.6161 Y-254.0907
G1 Z0.0000 F2500.0
G4 P0.02
G0 X84.6161 Y-252.6652 F15000.0
G1 Z11.9000 F2500.0
G4 P0.02
G1 X82.5929 Y-252.7112 F12000.0
G1 Z0.0000 F2500.0
G4 P0.02
G0 X82.5470 Y-251.4237 F15000.0
G1 Z11.9000 F2500.0
G4 P0.02
G1 X82.5470 Y-254.0907 F12000.0
G1 Z0.0000 F2500.0
G4 P0.02
G0 X81.1675 Y-252.5733 F15000.0
G1 Z11.9000 F2500.0
G4 P0.02
G1 X79.5088 Y-252.7887 F12000.0
G1 X79.1512 Y-253.0485
G1 X79.3125 Y-252.8680
G1 X79.0844 Y-253.2692
G1 X79.1417 Y-253.7201
G1 X79.7005 Y-254.0840
G1 X81.0551 Y-252.7742
G1 X81.1569 Y-252.5773
G1 X81.1675 Y-251.4237
G1 Z0.0000 F2500.0
G4 P0.02
G0 X79.0983 Y-253.6768 F15000.0
G1 Z11.9000 F2500.0
G4 P0.02
G1 X79.0081 Y-253.8059 F12000.0
G1 X78.1321 Y-254.0421
G1 X78.0867 Y-251.4237
G1 Z0.0000 F2500.0
G4 P0.02
G0 X76.6613 Y-251.4237 F15000.0
G1 Z11.9000 F2500.0
G4 P0.02
G1 X76.5879 Y-253.9730 F12000.0
G1 X76.4208 Y-253.7476
G1 X76.0484 Y-253.5083
G1 X75.0600 Y-251.9560
G1 X75.1326 Y-252.0208
G1 X74.6567 Y-251.7849
G1 X74.5461 Y-254.0907
G1 Z0.0000 F2500.0
G4 P0.02
G0 X75.0059 Y-250.4121 F15000.0
G1 Z11.9000 F2500.0
G4 P0.02
G1 X74.9466 Y-250.1884 F12000.0
G1 X75.7813 Y-250.5106
G1 X76.1297 Y-250.2927
G1 X75.9256 Y-250.4581
G1 Z0.0000 F2500.0
G4 P0.02
G0 X62.5707 Y-251.9295 F15000.0
G1 Z11.9000 F2500.0
G4 P0.02
G1 X62.8408 Y-251.5493 F12000.0
G1 X63.3687 Y-251.3120
G1 X63.9504 Y-251.4215
G1 X64.5762 Y-251.7386
G1 X64.6859 Y-255.3322
G1 Z0.0000 F2500.0
G4 P0.02
G0 X64.6399 Y-253.8148 F15000.0
G1 Z11.9000 F2500.0
G4 P0.02
G1 X63.3745 Y-254.1537 F12000.0
G1 X63.1942 Y-254.1281
G1 X62.6572 Y-253.6777
G1 X62.4457 Y-253.0054
G1 X62.5085 Y-252.1737
G1 X62.4440 Y-251.9723
G1 X61.7012 Y-251.3871
G1 X60.6818 Y-251.4124
G1 X60.6395 Y-254.0907
G1 Z0.0000 F2500.0
G4 P0.02
G0 X62.8006 Y-253.8608 F15000.0
G1 Z11.9000 F2500.0
G4 P0.02
G1 X63.1225 Y-254.0907 F12000.0
G1 Z0.0000 F2500.0
G4 P0.02
G0 X64.6859 Y-251.3777 F15000.0
G1 Z11.9000 F2500.0
G4 P0.02
G1 X64.6399 Y-251.6996 F12000.0
G1 Z0.0000 F2500.0
G4 P0.02
G0 X66.0653 Y-253.6308 F15000.0
G1 Z11.9000 F2500.0
G4 P0.02
G1 X66.4017 Y-253.9516 F12000.0
G1 X67.3281 Y-254.1572
G1 X67.7590 Y-254.0225
G1 X68.0774 Y-253.7103
G1 X68.3350 Y-252.9210
G1 X68.2497 Y-252.6433
G1 X66.0319 Y-252.5880
G1 X66.0372 Y-252.0521
G1 X66.2604 Y-251.6629
G1 X66.7583 Y-251.3535
G1 X67.5722 Y-251.3888
G1 X67.7450 Y-251.5379
G1 X68.2837 Y-252.5367
G1 X68.1146 Y-251.8456
G1 X67.9248 Y-251.6187
G1 X67.4908 Y-251.3318
G1 Z0.0000 F2500.0
G4 P0.02
G0 X69.5599 Y-251.4237 F15000.0
G1 Z11.9000 F2500.0
G4 P0.02
G1 X69.5599 Y-252.8032 F12000.0
G1 Z0.0000 F2500.0
G4 P0.02
G0 X69.5599 Y-254.0907 F15000.0
G1 Z11.9000 F2500.0
G4 P0.02
G1 X69.6176 Y-252.8412 F12000.0
G1 X70.8901 Y-252.9676
G1 X71.2123 Y-252.8534
G1 X71.5076 Y-252.4950
G1 X71.6291 Y-251.4237
G1 Z0.0000 F2500.0
G4 P0.02
G0 X60.5935 Y-251.3777 F15000.0
G1 Z11.9000 F2500.0
G4 P0.02
G1 X59.5359 Y-251.3318 F12000.0
G1 Z0.0000 F2500.0
G4 P0.02
G0 X58.0185 Y-251.4237 F15000.0
G1 Z11.9000 F2500.0
G4 P0.02
G1 X57.8806 Y-251.3318 F12000.0
G1 Z0.0000 F2500.0
G4 P0.02
G0 X58.7082 Y-252.6192 F15000.0
G1 Z11.9000 F2500.0
G4 P0.02
G1 X58.4757 Y-251.8204 F12000.0
G1 X58.0939 Y-251.4330
G1 X58.3260 Y-251.6069
G1 X57.7625 Y-251.3346
G1 X57.0631 Y-251.3905
G1 X56.5289 Y-251.8203
G1 X56.4080 Y-252.1448
G1 X56.4052 Y-252.5814
G1 X58.6149 Y-252.6369
G1 X58.6802 Y-252.7866
G1 X58.5247 Y-253.5985
G1 X58.3286 Y-253.8874
G1 X57.8389 Y-254.1504
G1 X56.7975 Y-253.9541
G1 X56.4545 Y-253.6858
G1 X55.6088 Y-254.2251
G1 X55.3165 Y-253.9850
G1 X55.6551 Y-254.2778
G1 X55.2774 Y-253.9091
G1 X54.6558 Y-253.0096
G1 X53.8079 Y-252.6597
G1 X53.7438 Y-252.4676
G1 X53.7422 Y-251.4237
G1 Z0.0000 F2500.0
G4 P0.02
G0 X53.0525 Y-252.7112 F15000.0
G1 Z11.9000 F2500.0
G4 P0.02
G1 X52.4015 Y-251.5824 F12000.0
G1 X51.9949 Y-251.3777
G1 Z0.0000 F2500.0
G4 P0.02
G0 X52.8685 Y-252.9411 F15000.0
G1 Z11.9000 F2500.0
G4 P0.02
G1 X52.1143 Y-254.0866 F12000.0
G1 X51.7190 Y-254.3666
G1 Z0.0000 F2500.0
G4 P0.02
G0 X53.7422 Y-254.0447 F15000.0
G1 Z11.9000 F2500.0
G4 P0.02
G1 X53.1128 Y-252.7565 F12000.0
G1 X52.8367 Y-252.4218
G1 X52.8853 Y-252.9114
G1 X53.1839 Y-252.7241
G1 X53.9680 Y-252.7699
G1 X54.5883 Y-252.9552
G1 X54.4628 Y-252.7390
G1 X55.0999 Y-251.5440
G1 X55.4895 Y-251.3777
G1 Z0.0000 F2500.0
G4 P0.02
G0 X167.9177 Y-251.6872 F15000.0
G1 Z11.9000 F2500.0
G4 P0.02
G1 X168.0165 Y-249.9393 F12000.0
G1 X169.2971 Y-251.6872
G1 Z0.0000 F2500.0
G4 P0.02
G0 X167.1820 Y-251.5492 F15000.0
G1 Z11.9000 F2500.0
G4 P0.02
G1 X166.6163 Y-251.7029 F12000.0
G1 X166.2815 Y-251.5142
G1 X166.1928 Y-251.3139
G1 X166.2883 Y-250.6167
G1 X166.4405 Y-250.4562
G1 X166.8938 Y-250.4568
G1 X167.1581 Y-250.6399
G1 X167.2279 Y-252.2850
G1 Z0.0000 F2500.0
G4 P0.02
G0 X164.8829 Y-250.3997 F15000.0
G1 Z11.9000 F2500.0
G4 P0.02
G1 X165.4348 Y-250.5388 F12000.0
G1 X165.6403 Y-251.1339
G1 X165.5292 Y-251.4658
G1 X165.3845 Y-251.6283
G1 X165.0577 Y-251.7029
G1 X164.6688 Y-251.5633
G1 X164.7105 Y-251.6312
G1 X164.5397 Y-251.2588
G1 X164.6948 Y-250.5754
G1 X164.8113 Y-250.4490
G1 X164.0253 Y-250.9487
G1 X163.1197 Y-251.1405
G1 X163.0004 Y-251.4481
G1 X163.0045 Y-251.3600
G1 X163.0331 Y-251.5852
G1 X163.3027 Y-251.6754
G1 X163.8303 Y-251.2111
G1 X163.9248 Y-251.0337
G1 X163.2444 Y-250.4508
G1 X163.1588 Y-250.4718
G1 X163.0718 Y-250.6654
G1 X163.0896 Y-251.6872
G1 Z0.0000 F2500.0
G4 P0.02
G0 X150.4433 Y-252.1609 F15000.0
G1 Z11.9000 F2500.0
G4 P0.02
G1 X150.8091 Y-253.1724 F12000.0
G1 X151.0440 Y-253.5187
G1 X151.1201 Y-253.9765
G1 X151.3874 Y-254.2279
G1 X151.1927 Y-254.1055
G1 X151.2198 Y-254.1750
G1 X151.0303 Y-253.4915
G1 X151.5469 Y-252.2069
G1 Z0.0000 F2500.0
G4 P0.02
G0 X152.1906 Y-253.5404 F15000.0
G1 Z11.9000 F2500.0
G4 P0.02
G1 X152.2550 Y-251.6876 F12000.0
G1 X153.6620 Y-253.5404
G1 Z0.0000 F2500.0
G4 P0.02
G0 X149.7536 Y-253.6323 F15000.0
G1 Z11.9000 F2500.0
G4 P0.02
G1 X149.9246 Y-253.4675 F12000.0
G1 X149.6914 Y-253.6365
G1 X149.3490 Y-253.6374
G1 X149.1643 Y-253.5190
G1 X149.1044 Y-253.3187
G1 X149.3049 Y-252.9259
G1 X149.4770 Y-252.8892
G1 X149.2234 Y-252.7016
G1 X149.2665 Y-252.2650
G1 X149.5758 Y-252.1868
G1 X149.8915 Y-252.2988
G1 Z0.0000 F2500.0
G4 P0.02
G0 X148.3741 Y-252.2988 F15000.0
G1 Z11.9000 F2500.0
G4 P0.02
G1 X148.1839 Y-252.2107 F12000.0
G1 X147.5302 Y-252.7487
G1 X148.2808 Y-252.9608
G1 X148.4548 Y-253.1074
G1 X148.5018 Y-253.4260
G1 X148.3622 Y-253.5990
G1 X148.1496 Y-253.6476
G1 X147.7141 Y-253.5136
G1 X147.4686 Y-252.9004
G1 X147.3756 Y-253.5395
G1 X146.7521 Y-253.4919
G1 X146.7188 Y-252.3491
G1 X146.6482 Y-252.8284
G1 X145.9587 Y-252.8855
G1 X145.7772 Y-252.8322
G1 X145.7106 Y-252.3350
G1 X145.6887 Y-253.4946
G1 X145.5378 Y-253.5518
G1 X145.0216 Y-253.4058
G1 X145.1199 Y-252.8681
G1 X144.9217 Y-252.3390
G1 X144.5662 Y-252.1640
G1 X144.2309 Y-252.2217
G1 X144.0377 Y-252.4621
G1 X143.9701 Y-253.2679
G1 X144.1781 Y-253.5690
G1 X144.0049 Y-253.3786
G1 X144.4096 Y-253.6433
G1 X144.8795 Y-253.5404
G1 Z0.0000 F2500.0
G4 P0.02
G0 X143.2701 Y-252.9426 F15000.0
G1 Z11.9000 F2500.0
G4 P0.02
G1 X143.2098 Y-252.2958 F12000.0
G1 X143.1505 Y-252.2618
G1 X142.3542 Y-252.6474
G1 X142.3989 Y-252.8623
G1 X143.1913 Y-252.9283
G1 X142.6239 Y-253.5637
G1 X142.4255 Y-253.5597
G1 X142.2932 Y-253.4074
G1 X142.3622 Y-252.7877
G1 X142.3085 Y-252.9818
G1 X141.3464 Y-252.2102
G1 X140.6703 Y-252.7429
G1 X141.4140 Y-252.9537
G1 X141.5951 Y-253.0929
G1 X141.6558 Y-253.4108
G1 X141.5248 Y-253.5896
G1 X141.3155 Y-253.6467
G1 X140.6601 Y-253.4585
G1 X140.5722 Y-253.5118
G1 X140.6032 Y-252.8506
G1 Z0.0000 F2500.0
G4 P0.02
G0 X168.5922 Y-256.3438 F15000.0
G1 Z11.9000 F2500.0
G4 P0.02
G1 X167.2128 Y-256.3438 F12000.0
G1 Z0.0000 F2500.0
G4 P0.02
G0 X167.9945 Y-256.3438 F15000.0
G1 Z11.9000 F2500.0
G4 P0.02
G1 X167.9485 Y-258.2750 F12000.0
G1 Z0.0000 F2500.0
G4 P0.02
G0 X166.2012 Y-258.2750 F15000.0
G1 Z11.9000 F2500.0
G4 P0.02
G1 X166.1781 Y-257.6921 F12000.0
G1 X165.7114 Y-257.3878
G1 X165.3368 Y-256.9964
G1 X164.8650 Y-257.2749
G1 X164.8494 Y-257.8276
G1 X164.6396 Y-258.1784
G1 X164.8243 Y-257.9309
G1 X164.4483 Y-258.2760
G1 X164.0024 Y-258.1883
G1 X163.7575 Y-257.9672
G1 X163.8274 Y-257.2710
G1 X163.9183 Y-257.0787
G1 X164.4711 Y-256.9705
G1 X164.7757 Y-257.1714
G1 Z0.0000 F2500.0
G4 P0.02
G0 X165.3735 Y-258.2750 F15000.0
G1 Z11.9000 F2500.0
G4 P0.02
G1 X165.7460 Y-257.5386 F12000.0
G1 X165.6779 Y-257.7834
G1 X166.1669 Y-257.4967
G1 X166.2012 Y-256.9875
G1 Z0.0000 F2500.0
G4 P0.02
G0 X163.1204 Y-256.9875 F15000.0
G1 Z11.9000 F2500.0
G4 P0.02
G1 X163.1204 Y-258.1864 F12000.0
G1 X163.1002 Y-257.6708
G1 X162.9433 Y-257.5962
G1 X162.1754 Y-257.7004
G1 X162.1116 Y-258.1974
G1 X162.0529 Y-257.0137
G1 X160.5914 Y-256.9415
G1 Z0.0000 F2500.0
G4 P0.02
G0 X161.1432 Y-256.9415 F15000.0
G1 Z11.9000 F2500.0
G4 P0.02
G1 X161.0664 Y-258.2187 F12000.0
G1 X160.0505 Y-258.1533
G1 X159.3785 Y-258.2580
G1 X159.0987 Y-258.0485
G1 X159.0040 Y-257.8493
G1 X159.0929 Y-257.1515
G1 X159.3683 Y-257.0056
G1 X159.9346 Y-257.1005
G1 X160.0682 Y-257.8790
G1 X160.0617 Y-258.7839
G1 X159.0740 Y-258.0451
G1 Z0.0000 F2500.0
G4 P0.02
G0 X42.3541 Y-258.4605 F15000.0
G1 Z11.9000 F2500.0
G4 P0.02
G1 X42.4159 Y-256.2451 F12000.0
G1 X44.0094 Y-258.5525
G1 Z0.0000 F2500.0
G4 P0.02
G0 X41.4344 Y-258.2766 F15000.0
G1 Z11.9000 F2500.0
G4 P0.02
G1 X41.1446 Y-258.1052 F12000.0
G1 X40.2726 Y-257.0133
G1 X40.0879 Y-256.9744
G1 X39.4206 Y-257.1073
G1 X39.5113 Y-257.9965
G1 X39.2039 Y-258.4674
G1 X38.9993 Y-258.5048
G1 X38.2563 Y-258.2319
G1 X37.2484 Y-258.4245
G1 X37.1611 Y-258.2928
G1 X37.2217 Y-256.9209
G1 X37.8019 Y-256.8511
G1 Z0.0000 F2500.0
G4 P0.02
G0 X38.3536 Y-257.0810 F15000.0
G1 Z11.9000 F2500.0
G4 P0.02
G1 X38.7554 Y-256.8444 F12000.0
G1 X39.3193 Y-256.9891
G1 Z0.0000 F2500.0
G4 P0.02
G0 X40.2389 Y-258.4605 F15000.0
G1 Z11.9000 F2500.0
G4 P0.02
G1 X40.3667 Y-257.2452 F12000.0
G1 X40.8986 Y-257.7824
G1 X41.0598 Y-258.0581
G1 X40.7463 Y-257.5340
G1 Z0.0000 F2500.0
G4 P0.02
G0 X41.0061 Y-257.9759 F15000.0
G1 Z11.9000 F2500.0
G4 P0.02
G1 X41.4119 Y-258.1993 F12000.0
G1 X41.4804 Y-256.8971
G1 Z0.0000 F2500.0
G4 P0.02
G0 X37.1581 Y-256.8971 F15000.0
G1 Z11.9000 F2500.0
G4 P0.02
G1 X36.5603 Y-256.8511 F12000.0
G1 Z0.0000 F2500.0
G4 P0.02
G0 X18.7213 Y-256.8671 F15000.0
G1 Z11.9000 F2500.0
G4 P0.02
G1 X17.6487 Y-256.8775 F12000.0
G1 X17.0692 Y-257.1699
G1 X16.8928 Y-256.9784
G1 X17.0655 Y-257.2970
G1 X17.1137 Y-257.8730
G1 X16.6888 Y-258.3975
G1 X16.0143 Y-258.2188
G1 X15.8771 Y-258.0587
G1 X15.7966 Y-257.7161
G1 X15.9158 Y-257.1462
G1 X16.4090 Y-256.8531
G1 X16.8361 Y-256.9131
G1 Z0.0000 F2500.0
G4 P0.02
G0 X17.0660 Y-258.0627 F15000.0
G1 Z11.9000 F2500.0
G4 P0.02
G1 X16.8361 Y-258.3386 F12000.0
G1 Z0.0000 F2500.0
G4 P0.02
G0 X18.1695 Y-258.3845 F15000.0
G1 Z11.9000 F2500.0
G4 P0.02
G1 X18.2155 Y-256.8671 F12000.0
G1 Z0.0000 F2500.0
G4 P0.02
G0 X19.3191 Y-256.9591 F15000.0
G1 Z11.9000 F2500.0
G4 P0.02
G1 X19.7756 Y-256.8474 F12000.0
G1 X20.0923 Y-256.9797
G1 X20.3302 Y-257.3724
G1 X20.3442 Y-257.9592
G1 X20.1826 Y-258.2646
G1 X19.8894 Y-258.4007
G1 X19.3276 Y-258.2613
G1 X19.1352 Y-258.0167
G1 Z0.0000 F2500.0
G4 P0.02
G0 X21.0664 Y-258.3386 F15000.0
G1 Z11.9000 F2500.0
G4 P0.02
G1 X21.4831 Y-257.4934 F12000.0
G1 X21.4605 Y-257.3979
G1 X21.1836 Y-257.1887
G1 X21.4299 Y-257.3454
G1 X21.8199 Y-257.9020
G1 X22.1418 Y-258.0435
G1 X22.1744 Y-256.9729
G1 X21.5397 Y-257.3746
G1 X21.7904 Y-257.8547
G1 X22.1672 Y-258.2288
G1 X22.1700 Y-258.1546
G1 Z0.0000 F2500.0
G4 P0.02
G0 X23.0436 Y-258.3386 F15000.0
G1 Z11.9000 F2500.0
G4 P0.02
G1 X23.1070 Y-256.2530 F12000.0
G1 X24.3867 Y-258.3486
G1 X24.5610 Y-258.4305
G1 Z0.0000 F2500.0
G4 P0.02
G0 X15.0888 Y-257.6488 F15000.0
G1 Z11.9000 F2500.0
G4 P0.02
G1 X15.0133 Y-258.3306 F12000.0
G1 X14.1290 Y-258.3257
G1 X14.0255 Y-258.2102
G1 X14.1376 Y-257.6603
G1 X14.0821 Y-257.2240
G1 X14.3873 Y-256.9263
G1 X15.0154 Y-257.5133
G1 X14.2151 Y-257.6028
G1 Z0.0000 F2500.0
G4 P0.02
G0 X26.7279 Y-264.0563 F15000.0
G1 Z11.9000 F2500.0
G4 P0.02
G1 X25.7132 Y-262.1807 F12000.0
G1 X25.4042 Y-262.1874
G1 X24.5548 Y-263.9570
G1 X24.7330 Y-264.7294
G1 X25.1185 Y-264.9300
G1 Z0.0000 F2500.0
G4 P0.02
G0 X24.4748 Y-263.8264 F15000.0
G1 Z11.9000 F2500.0
G4 P0.02
G1 X24.3289 Y-263.6365 F12000.0
G1 X23.7390 Y-262.1711
G1 Z0.0000 F2500.0
G4 P0.02
G0 X23.0493 Y-264.0563 F15000.0
G1 Z11.9000 F2500.0
G4 P0.02
G1 X21.7375 Y-262.2864 F12000.0
G1 X21.6699 Y-264.0563
G1 Z0.0000 F2500.0
G4 P0.02
G0 X19.5547 Y-264.0103 F15000.0
G1 Z11.9000 F2500.0
G4 P0.02
G1 X19.4138 Y-263.7632 F12000.0
G1 X19.6149 Y-263.9694
G1 X20.0589 Y-264.1158
G1 X20.5897 Y-263.9116
G1 X20.7977 Y-263.4944
G1 X20.7453 Y-262.6735
G1 X20.4551 Y-262.3155
G1 X20.1412 Y-262.1934
G1 X19.5547 Y-262.3090
G1 Z0.0000 F2500.0
G4 P0.02
G0 X27.6935 Y-264.0103 F15000.0
G1 Z11.9000 F2500.0
G4 P0.02
G1 X27.7652 Y-261.4611 F12000.0
G1 X29.6707 Y-264.0103
G1 Z0.0000 F2500.0
G4 P0.02
G0 X169.2729 Y-265.4462 F15000.0
G1 Z11.9000 F2500.0
G4 P0.02
G1 X169.2729 Y-267.1888 F12000.0
G1 X169.2214 Y-266.3088
G1 X167.9763 Y-266.2806
G1 X167.8969 Y-265.5398
G1 X167.8934 Y-267.3315
G1 Z0.0000 F2500.0
G4 P0.02
G0 X166.3300 Y-267.3315 F15000.0
G1 Z11.9000 F2500.0
G4 P0.02
G1 X166.3069 Y-266.7486 F12000.0
G1 X165.8402 Y-266.4443
G1 X165.5023 Y-265.9980
G1 Z0.0000 F2500.0
G4 P0.02
G0 X166.3300 Y-266.0440 F15000.0
G1 Z11.9000 F2500.0
G4 P0.02
G1 X166.2594 Y-266.5805 F12000.0
G1 X165.8216 Y-266.8340
G1 X165.9015 Y-266.6090
G1 X165.9027 Y-266.7109
G1 X165.5287 Y-267.2557
G1 X165.0255 Y-266.9009
G1 X164.9405 Y-266.3301
G1 X164.6958 Y-266.0409
G1 X164.7541 Y-266.0870
G1 X164.3824 Y-265.9993
G1 X164.0668 Y-266.1058
G1 X163.9638 Y-266.2881
G1 X163.8751 Y-266.9879
G1 X163.9940 Y-267.1717
G1 X164.4283 Y-267.3414
G1 X164.6382 Y-267.2961
G1 X164.9539 Y-267.0124
G1 X164.8059 Y-267.2289
G1 X164.6285 Y-267.3177
G1 X163.3494 Y-267.2994
G1 X163.2952 Y-266.1229
G1 X163.2531 Y-266.6071
G1 X162.3687 Y-266.7226
G1 X162.2890 Y-267.2321
G1 X162.2524 Y-266.0975
G1 X161.8318 Y-266.0072
G1 X160.7202 Y-265.9980
G1 Z0.0000 F2500.0
G4 P0.02
G0 X161.2720 Y-265.9980 F15000.0
G1 Z11.9000 F2500.0
G4 P0.02
G1 X161.1952 Y-267.2752 F12000.0
G1 X160.1794 Y-267.2098
G1 X159.5074 Y-267.3146
G1 X159.2277 Y-267.1050
G1 X159.1329 Y-266.9058
G1 X159.2218 Y-266.2080
G1 X159.4972 Y-266.0622
G1 X160.0634 Y-266.1570
G1 X160.1971 Y-266.9356
G1 X160.1905 Y-267.8404
G1 X159.2028 Y-267.1016
G1 Z0.0000 F2500.0
G4 P0.02
G0 X30.7090 Y-267.9611 F15000.0
G1 Z11.9000 F2500.0
G4 P0.02
G1 X29.2376 Y-270.5361 F12000.0
G1 Z0.0000 F2500.0
G4 P0.02
G0 X30.8929 Y-270.5821 F15000.0
G1 Z11.9000 F2500.0
G4 P0.02
G1 X30.8561 Y-270.4671 F12000.0
G1 X31.1022 Y-270.5864
G1 Z0.0000 F2500.0
G4 P0.02
G0 X30.8694 Y-270.4284 F15000.0
G1 Z11.9000 F2500.0
G4 P0.02
G1 X30.7650 Y-270.2372 F12000.0
G1 X30.7550 Y-268.0530
G1 Z0.0000 F2500.0
G4 P0.02
G0 X28.4099 Y-267.9611 F15000.0
G1 Z11.9000 F2500.0
G4 P0.02
G1 X26.4327 Y-267.9611 F12000.0
G1 Z0.0000 F2500.0
G4 P0.02
G0 X27.4902 Y-267.9611 F15000.0
G1 Z11.9000 F2500.0
G4 P0.02
G1 X27.4443 Y-270.5821 F12000.0
G1 Z0.0000 F2500.0
G4 P0.02
G0 X25.8349 Y-269.6624 F15000.0
G1 Z11.9000 F2500.0
G4 P0.02
G1 X25.1298 Y-269.6981 F12000.0
G1 X24.1592 Y-270.3800
G1 X23.5079 Y-270.6426
G1 X23.1287 Y-270.5109
G1 X22.8521 Y-270.0310
G1 X22.8319 Y-269.6819
G1 X22.9745 Y-269.2505
G1 X23.3405 Y-269.0016
G1 X24.2269 Y-269.0614
G1 X22.9179 Y-268.0561
G1 X21.8953 Y-268.6892
G1 X21.1257 Y-268.2507
G1 X21.0663 Y-268.0556
G1 X21.0988 Y-270.5821
G1 Z0.0000 F2500.0
G4 P0.02
G0 X19.3974 Y-270.5821 F15000.0
G1 Z11.9000 F2500.0
G4 P0.02
G1 X19.6094 Y-270.3701 F12000.0
G1 X19.2296 Y-270.6336
G1 X18.7645 Y-270.6076
G1 X18.5062 Y-270.4771
G1 X18.2968 Y-269.9854
G1 X18.5142 Y-269.4830
G1 X18.2909 Y-269.3313
G1 X19.1702 Y-269.5773
G1 X19.4791 Y-269.4155
G1 X19.6790 Y-269.1348
G1 X19.7410 Y-268.7922
G1 X19.6376 Y-268.3547
G1 X19.2177 Y-267.9918
G1 X18.7528 Y-268.0126
G1 X18.4286 Y-268.1823
G1 X18.2057 Y-269.1756
G1 X18.0865 Y-269.3587
G1 X17.4414 Y-269.6488
G1 X16.7487 Y-269.7146
G1 X15.9700 Y-270.4427
G1 X15.4338 Y-270.6282
G1 X15.0083 Y-270.4310
G1 X14.8791 Y-270.2819
G1 X15.0471 Y-269.6375
G1 X15.3600 Y-269.6439
G1 X15.0144 Y-269.4894
G1 X14.9803 Y-269.2816
G1 X15.2388 Y-268.7826
G1 X15.7955 Y-268.8575
G1 X15.9910 Y-269.0509
G1 X15.8443 Y-268.8784
G1 X15.9028 Y-268.9727
G1 Z0.0000 F2500.0
G4 P0.02
G0 X169.0333 Y-268.1729 F15000.0
G1 Z11.9000 F2500.0
G4 P0.02
G1 X168.2486 Y-269.4713 F12000.0
G1 X168.4091 Y-270.0101
G1 X168.5373 Y-270.1125
G1 X168.7278 Y-270.0833
G1 X168.0499 Y-269.3044
G1 X167.4780 Y-268.2597
G1 X167.0405 Y-268.7510
G1 X166.0904 Y-268.7706
G1 Z0.0000 F2500.0
G4 P0.02
G0 X166.6422 Y-268.7706 F15000.0
G1 Z11.9000 F2500.0
G4 P0.02
G1 X166.5709 Y-270.0336 F12000.0
G1 X165.5101 Y-269.4297
G1 X164.9173 Y-269.4537
G1 X164.6249 Y-269.5745
G1 X164.6914 Y-269.4251
G1 X164.6900 Y-268.8840
G1 X164.5742 Y-269.6440
G1 X164.6356 Y-269.8416
G1 X164.8443 Y-270.0862
G1 X165.5309 Y-269.5248
G1 X165.5444 Y-269.4354
G1 X164.7570 Y-268.8166
G1 Z0.0000 F2500.0
G4 P0.02

G0 Z0.0000 F800.0
G4 P0.06
G0 X0.0000 Y0.0000 F15000.0
M5
G4 P0.10
$1=0
