$X
$1=255
G21
G90
G92 Z4.0000
G0 Z0.0000 F800.0
G4 P0.06
G92 Z0.0000
G0 Z0.0000 F800.0
G0 X0.0000 Y0.0000 F15000.0
G21
G90
G17
G91.1
G0 Z0.0000
G0 X110.0476 Y-139.4226 F15000.0
G1 Z11.9000 F2500.0
G4 P0.02
G1 X109.5042 Y-138.6284 F12000.0
G1 Z0.0000 F2500.0
G4 P0.02
G0 X109.0861 Y-138.0432 F15000.0
G1 Z11.9000 F2500.0
G4 P0.02
G1 X108.9189 Y-137.9596 F12000.0
G1 X108.7936 Y-137.5416
G1 Z0.0000 F2500.0
G4 P0.02
G0 X108.9189 Y-137.9596 F15000.0
G1 Z11.9000 F2500.0
G4 P0.02
G1 X106.9125 Y-138.0014 F12000.0
G1 X106.7453 Y-136.8727
G1 X106.5781 Y-134.4483
G1 X106.4109 Y-133.8212
G1 Z0.0000 F2500.0
G4 P0.02
G0 X107.2887 Y-135.1589 F15000.0
G1 Z11.9000 F2500.0
G4 P0.02
G1 X106.8289 Y-134.5319 F12000.0
G1 X106.6198 Y-134.4483
G1 Z0.0000 F2500.0
G4 P0.02
G0 X107.0379 Y-139.7153 F15000.0
G1 Z11.9000 F2500.0
G4 P0.02
G1 X106.8707 Y-138.0432 F12000.0
G1 Z0.0000 F2500.0
G4 P0.02
G0 X105.4389 Y-137.8342 F15000.0
G1 Z11.9000 F2500.0
G4 P0.02
G1 X102.7218 Y-137.6670 F12000.0
G1 Z0.0000 F2500.0
G4 P0.02
G0 X102.6800 Y-139.9243 F15000.0
G1 Z11.9000 F2500.0
G4 P0.02
G1 X102.5127 Y-139.6735 F12000.0
G1 Z0.0000 F2500.0
G4 P0.02
G0 X102.0529 Y-138.9628 F15000.0
G1 Z11.9000 F2500.0
G4 P0.02
G1 X101.8021 Y-138.6284 F12000.0
G1 Z0.0000 F2500.0
G4 P0.02
G0 X101.3842 Y-138.0432 F15000.0
G1 Z11.9000 F2500.0
G4 P0.02
G1 X101.2587 Y-138.0014 F12000.0
G1 X100.0883 Y-135.9114
G1 Z0.0000 F2500.0
G4 P0.02
G0 X101.1751 Y-138.0014 F15000.0
G1 Z11.9000 F2500.0
G4 P0.02
G1 X99.2523 Y-138.0014 F12000.0
G1 X99.0851 Y-136.8727
G1 X98.9178 Y-134.4483
G1 X98.7506 Y-133.7795
G1 Z0.0000 F2500.0
G4 P0.02
G0 X99.8793 Y-135.5769 F15000.0
G1 Z11.9000 F2500.0
G4 P0.02
G1 X99.7957 Y-135.4515 F12000.0
G1 Z0.0000 F2500.0
G4 P0.02
G0 X99.3776 Y-139.7153 F15000.0
G1 Z11.9000 F2500.0
G4 P0.02
G1 X99.2104 Y-138.0432 F12000.0
G1 Z0.0000 F2500.0
G4 P0.02
G0 X42.8448 Y-61.2157 F15000.0
G1 Z11.9000 F2500.0
G4 P0.02
G1 X42.8029 Y-60.5887 F12000.0
G1 Z0.0000 F2500.0
G4 P0.02
G0 X42.5103 Y-59.0839 F15000.0
G1 Z11.9000 F2500.0
G4 P0.02
G1 X42.8029 Y-58.7077 F12000.0
G1 X42.6776 Y-57.4536
G1 X42.1759 Y-57.3700
G1 Z0.0000 F2500.0
G4 P0.02
G0 X42.5521 Y-60.3798 F15000.0
G1 Z11.9000 F2500.0
G4 P0.02
G1 X42.0505 Y-60.3798 F12000.0
G1 X41.5071 Y-60.6305
G1 Z0.0000 F2500.0
G4 P0.02
G0 X42.5521 Y-61.6755 F15000.0
G1 Z11.9000 F2500.0
G4 P0.02
G1 X42.4686 Y-61.7592 F12000.0
G1 Z0.0000 F2500.0
G4 P0.02
G0 X42.2595 Y-59.2928 F15000.0
G1 Z11.9000 F2500.0
G4 P0.02
G1 X40.1276 Y-60.1289 F12000.0
G1 Z0.0000 F2500.0
G4 P0.02
G0 X41.9669 Y-62.0936 F15000.0
G1 Z11.9000 F2500.0
G4 P0.02
G1 X41.0055 Y-62.0936 F12000.0
G1 X40.9219 Y-61.2157
G1 X40.7546 Y-61.0485
G1 Z0.0000 F2500.0
G4 P0.02
G0 X41.2981 Y-60.7977 F15000.0
G1 Z11.9000 F2500.0
G4 P0.02
G1 X40.9637 Y-61.1740 F12000.0
G1 Z0.0000 F2500.0
G4 P0.02
G0 X41.2563 Y-57.7044 F15000.0
G1 Z11.9000 F2500.0
G4 P0.02
G1 X41.1308 Y-57.7462 F12000.0
G1 Z0.0000 F2500.0
G4 P0.02
G0 X40.9637 Y-62.0936 F15000.0
G1 Z11.9000 F2500.0
G4 P0.02
G1 X40.3366 Y-62.8042 F12000.0
G1 X39.6678 Y-63.0968
G1 X38.7900 Y-63.0550
G1 Z0.0000 F2500.0
G4 P0.02
G0 X40.6293 Y-60.9649 F15000.0
G1 Z11.9000 F2500.0
G4 P0.02
G1 X39.1244 Y-61.3411 F12000.0
G1 Z0.0000 F2500.0
G4 P0.02
G0 X40.5457 Y-57.9552 F15000.0
G1 Z11.9000 F2500.0
G4 P0.02
G1 X40.4202 Y-57.9970 F12000.0
G1 Z0.0000 F2500.0
G4 P0.02
G0 X39.9604 Y-58.1643 F15000.0
G1 Z11.9000 F2500.0
G4 P0.02
G1 X39.2080 Y-58.4986 F12000.0
G1 X38.7900 Y-58.9585
G1 X38.7064 Y-59.2092
G1 X38.7064 Y-60.1289
G1 Z0.0000 F2500.0
G4 P0.02
G0 X39.7096 Y-60.2961 F15000.0
G1 Z11.9000 F2500.0
G4 P0.02
G1 X39.0408 Y-60.4215 F12000.0
G1 X38.7900 Y-60.2543
G1 Z0.0000 F2500.0
G4 P0.02
G0 X38.7900 Y-61.7592 F15000.0
G1 Z11.9000 F2500.0
G4 P0.02
G1 X38.6228 Y-62.6788 F12000.0
G1 X38.7064 Y-62.9296
G1 Z0.0000 F2500.0
G4 P0.02
G0 X96.8764 Y-104.3274 F15000.0
G1 Z11.9000 F2500.0
G4 P0.02
G1 X96.7928 Y-104.2020 F12000.0
G1 Z0.0000 F2500.0
G4 P0.02
G0 X96.5002 Y-100.5235 F15000.0
G1 Z11.9000 F2500.0
G4 P0.02
G1 X94.4937 Y-100.1473 F12000.0
G1 X94.6609 Y-100.6071
G1 X95.8313 Y-102.5718
G1 Z0.0000 F2500.0
G4 P0.02
G0 X95.1207 Y-104.4110 F15000.0
G1 Z11.9000 F2500.0
G4 P0.02
G1 X94.8281 Y-104.2857 F12000.0
G1 X92.0274 Y-101.2759
G1 X91.9020 Y-100.6071
G1 Z0.0000 F2500.0
G4 P0.02
G0 X94.8281 Y-104.2857 F15000.0
G1 Z11.9000 F2500.0
G4 P0.02
G1 X93.2814 Y-104.3693 F12000.0
G1 Z0.0000 F2500.0
G4 P0.02
G0 X93.7412 Y-100.7325 F15000.0
G1 Z11.9000 F2500.0
G4 P0.02
G1 X93.4905 Y-100.4817 F12000.0
G1 X93.0306 Y-100.2309
G1 X92.3200 Y-100.1473
G1 Z0.0000 F2500.0
G4 P0.02
G0 X96.9923 Y-113.9726 F15000.0
G1 Z11.9000 F2500.0
G4 P0.02
G1 X96.6997 Y-113.8054 F12000.0
G1 Z0.0000 F2500.0
G4 P0.02
G0 X96.3653 Y-110.3776 F15000.0
G1 Z11.9000 F2500.0
G4 P0.02
G1 X96.6580 Y-111.0882 F12000.0
G1 X96.6580 Y-111.7989
G1 Z0.0000 F2500.0
G4 P0.02
G0 X96.5744 Y-111.8825 F15000.0
G1 Z11.9000 F2500.0
G4 P0.02
G1 X95.1949 Y-112.0497 F12000.0
G1 X95.1949 Y-112.3841
G1 X95.5710 Y-112.8858
G1 Z0.0000 F2500.0
G4 P0.02
G0 X96.1563 Y-110.1269 F15000.0
G1 Z11.9000 F2500.0
G4 P0.02
G1 X96.0727 Y-110.0433 F12000.0
G1 Z0.0000 F2500.0
G4 P0.02
G0 X95.9473 Y-113.3037 F15000.0
G1 Z11.9000 F2500.0
G4 P0.02
G1 X95.8637 Y-113.2202 F12000.0
G1 Z0.0000 F2500.0
G4 P0.02
G0 X95.7383 Y-109.8342 F15000.0
G1 Z11.9000 F2500.0
G4 P0.02
G1 X94.7351 Y-109.7924 F12000.0
G1 X94.4842 Y-110.0433
G1 X94.6933 Y-111.1301
G1 X94.9440 Y-111.8825
G1 Z0.0000 F2500.0
G4 P0.02
G0 X94.8187 Y-114.0143 F15000.0
G1 Z11.9000 F2500.0
G4 P0.02
G1 X93.5228 Y-113.8054 F12000.0
G1 X93.2720 Y-113.5964
G1 X92.9794 Y-113.0947
G1 X92.7285 Y-112.0497
G1 X92.7704 Y-111.9661
G1 Z0.0000 F2500.0
G4 P0.02
G0 X92.8958 Y-111.8407 F15000.0
G1 Z11.9000 F2500.0
G4 P0.02
G1 X93.9826 Y-111.6317 F12000.0
G1 X93.4392 Y-110.0014
G1 X91.8507 Y-109.7506
G1 Z0.0000 F2500.0
G4 P0.02
G0 X9.8263 Y-250.5058 F15000.0
G1 Z11.9000 F2500.0
G4 P0.02
G1 X8.4469 Y-246.6601 F12000.0
G1 X8.1960 Y-246.3256
G1 Z0.0000 F2500.0
G4 P0.02
G0 X9.6590 Y-247.3289 F15000.0
G1 Z11.9000 F2500.0
G4 P0.02
G1 X9.4918 Y-247.1617 F12000.0
G1 Z0.0000 F2500.0
G4 P0.02
G0 X8.7812 Y-246.7018 F15000.0
G1 Z11.9000 F2500.0
G4 P0.02
G1 X8.4886 Y-246.6182 F12000.0
G1 Z0.0000 F2500.0
G4 P0.02
G0 X8.6558 Y-249.5026 F15000.0
G1 Z11.9000 F2500.0
G4 P0.02
G1 X8.5305 Y-249.3772 F12000.0
G1 Z0.0000 F2500.0
G4 P0.02
G0 X8.0706 Y-247.8305 F15000.0
G1 Z11.9000 F2500.0
G4 P0.02
G1 X7.8616 Y-247.7051 F12000.0
G1 Z0.0000 F2500.0
G4 P0.02
G0 X105.5816 Y-88.2748 F15000.0
G1 Z11.9000 F2500.0
G4 P0.02
G1 X116.4823 Y-69.4321 F12000.0
G1 X105.5816 Y-50.5894 F12000.0
G1 X83.7800 Y-50.5894 F12000.0
G1 Z0.0000 F2500.0
G4 P0.02
G0 X83.7800 Y-88.2748 F15000.0
G1 Z11.9000 F2500.0
G4 P0.02
G1 X105.5816 Y-88.2748 F12000.0
G1 Z0.0000 F2500.0
G4 P0.02
G0 X86.4274 Y-75.2718 F15000.0
G1 Z11.9000 F2500.0
G4 P0.02
G1 X87.5953 Y-76.6733 F12000.0
G1 X88.9189 Y-77.7635 F12000.0
G1 X90.4762 Y-78.6199 F12000.0
G1 X92.1113 Y-79.2428 F12000.0
G1 X93.9022 Y-79.5543 F12000.0
G1 X95.6930 Y-79.5543 F12000.0
G1 X97.4060 Y-79.1650 F12000.0
G1 X99.0411 Y-78.5420 F12000.0
G1 X100.5983 Y-77.6856 F12000.0
G1 X101.9220 Y-76.5176 F12000.0
G1 X102.9342 Y-75.2718 F12000.0
G1 Z0.0000 F2500.0
G4 P0.02
G0 X102.9342 Y-63.6703 F15000.0
G1 Z11.9000 F2500.0
G4 P0.02
G1 X101.8442 Y-62.2688 F12000.0
G1 X100.4426 Y-61.1787 F12000.0
G1 X98.8853 Y-60.2444 F12000.0
G1 X97.2502 Y-59.6993 F12000.0
G1 X95.5373 Y-59.3878 F12000.0
G1 X93.7464 Y-59.3878 F12000.0
G1 X91.9556 Y-59.6993 F12000.0
G1 X90.3205 Y-60.3222 F12000.0
G1 X88.7632 Y-61.2565 F12000.0
G1 X87.4395 Y-62.3467 F12000.0
G1 X86.4274 Y-63.5924 F12000.0
G1 Z0.0000 F2500.0
G4 P0.02
G0 X102.9342 Y-75.2718 F15000.0
G1 Z11.9000 F2500.0
G4 P0.02
G1 X102.9342 Y-63.6703 F12000.0
G1 Z0.0000 F2500.0
G4 P0.02
G0 X76.3052 Y-97.0734 F15000.0
G1 Z11.9000 F2500.0
G4 P0.02
G1 X113.0563 Y-97.0734 F12000.0
G1 X135.0914 Y-77.7635 F12000.0
G1 X136.3373 Y-76.4397 F12000.0
G1 X137.4273 Y-74.8825 F12000.0
G1 X138.2060 Y-73.1695 F12000.0
G1 X138.6731 Y-71.3787 F12000.0
G1 X138.8288 Y-69.5879 F12000.0
G1 X138.6731 Y-67.7192 F12000.0
G1 X138.2838 Y-65.9283 F12000.0
G1 X137.5052 Y-64.2154 F12000.0
G1 X136.4929 Y-62.6581 F12000.0
G1 X135.2471 Y-61.3344 F12000.0
G1 Z0.0000 F2500.0
G4 P0.02
G0 X123.1784 Y-69.4321 F15000.0
G1 Z11.9000 F2500.0
G4 P0.02
G1 X123.3341 Y-68.2642 F12000.0
G1 X123.8013 Y-67.1741 F12000.0
G1 X124.5021 Y-66.2398 F12000.0
G1 X125.4364 Y-65.4611 F12000.0
G1 X126.6044 Y-64.9939 F12000.0
G1 X127.7723 Y-64.8382 F12000.0
G1 X128.9402 Y-64.9939 F12000.0
G1 X130.0304 Y-65.4611 F12000.0
G1 X130.9647 Y-66.1619 F12000.0
G1 X131.7433 Y-67.0962 F12000.0
G1 X132.2105 Y-68.1864 F12000.0
G1 X132.3663 Y-69.3543 F12000.0
G1 X132.2884 Y-70.6000 F12000.0
G1 X131.8212 Y-71.6902 F12000.0
G1 X131.1204 Y-72.6245 F12000.0
G1 X130.1861 Y-73.4031 F12000.0
G1 X129.0960 Y-73.8703 F12000.0
G1 X127.9281 Y-74.0261 F12000.0
G1 X126.6823 Y-73.9482 F12000.0
G1 X125.5922 Y-73.4810 F12000.0
G1 X124.6579 Y-72.7802 F12000.0
G1 X123.8792 Y-71.8459 F12000.0
G1 X123.4120 Y-70.7558 F12000.0
G1 X123.1784 Y-69.5879 F12000.0
G1 Z0.0000 F2500.0
G4 P0.02
G0 X113.0563 Y-41.8688 F15000.0
G1 Z11.9000 F2500.0
G4 P0.02
G1 X76.3052 Y-41.8688 F12000.0
G1 Z0.0000 F2500.0
G4 P0.02
G0 X135.0914 Y-61.1787 F15000.0
G1 Z11.9000 F2500.0
G4 P0.02
G1 X113.0563 Y-41.8688 F12000.0
G1 Z0.0000 F2500.0
G4 P0.02
G0 X101.1434 Y-41.8688 F15000.0
G1 Z11.9000 F2500.0
G4 P0.02
G1 X101.1434 Y-38.2092 F12000.0
G1 Z0.0000 F2500.0
G4 P0.02
G0 X103.8686 Y-38.2092 F15000.0
G1 Z11.9000 F2500.0
G4 P0.02
G1 X103.8686 Y-24.4276 F12000.0
G1 Z0.0000 F2500.0
G4 P0.02
G0 X103.8686 Y-38.2092 F15000.0
G1 Z11.9000 F2500.0
G4 P0.02
G1 X85.4930 Y-38.2092 F12000.0
G1 Z0.0000 F2500.0
G4 P0.02
G0 X102.9342 Y-23.4932 F15000.0
G1 Z11.9000 F2500.0
G4 P0.02
G1 X86.4274 Y-23.4932 F12000.0
G1 Z0.0000 F2500.0
G4 P0.02
G0 X83.7800 Y-50.5894 F15000.0
G1 Z11.9000 F2500.0
G4 P0.02
G1 X72.8793 Y-69.4321 F12000.0
G1 Z0.0000 F2500.0
G4 P0.02
G0 X77.7067 Y-69.4321 F15000.0
G1 Z11.9000 F2500.0
G4 P0.02
G1 X77.8624 Y-67.1741 F12000.0
G1 X78.3296 Y-64.9161 F12000.0
G1 X79.1083 Y-62.7360 F12000.0
G1 X80.1205 Y-60.7116 F12000.0
G1 X81.4441 Y-58.8429 F12000.0
G1 X83.0014 Y-57.1298 F12000.0
G1 X84.7923 Y-55.6504 F12000.0
G1 X86.7388 Y-54.4825 F12000.0
G1 X88.8411 Y-53.5481 F12000.0
G1 X91.0212 Y-52.8475 F12000.0
G1 X93.3571 Y-52.5360 F12000.0
G1 X95.6151 Y-52.5360 F12000.0
G1 X97.8732 Y-52.7696 F12000.0
G1 X100.1312 Y-53.3924 F12000.0
G1 X102.2334 Y-54.2489 F12000.0
G1 X104.2578 Y-55.4168 F12000.0
G1 X106.0487 Y-56.8184 F12000.0
G1 X107.6060 Y-58.4535 F12000.0
G1 X109.0075 Y-60.3222 F12000.0
G1 X110.0975 Y-62.3467 F12000.0
G1 X110.8762 Y-64.5268 F12000.0
G1 X111.4212 Y-66.7069 F12000.0
G1 X111.6548 Y-69.0428 F12000.0
G1 X111.5770 Y-71.3008 F12000.0
G1 X111.1098 Y-73.5589 F12000.0
G1 X110.4090 Y-75.7390 F12000.0
G1 X109.3968 Y-77.8413 F12000.0
G1 X108.1510 Y-79.7879 F12000.0
G1 X106.6716 Y-81.5009 F12000.0
G1 X104.8808 Y-82.9802 F12000.0
G1 X103.0121 Y-84.2260 F12000.0
G1 X100.9098 Y-85.2382 F12000.0
G1 X98.7296 Y-85.9389 F12000.0
G1 X96.4716 Y-86.3283 F12000.0
G1 X94.1358 Y-86.4061 F12000.0
G1 X91.8777 Y-86.1725 F12000.0
G1 X89.6197 Y-85.6276 F12000.0
G1 X87.5174 Y-84.8489 F12000.0
G1 X85.4930 Y-83.6810 F12000.0
G1 X83.6243 Y-82.3573 F12000.0
G1 X81.9892 Y-80.7222 F12000.0
G1 X80.5877 Y-78.9314 F12000.0
G1 X79.4197 Y-76.9069 F12000.0
G1 X78.5632 Y-74.8046 F12000.0
G1 X78.0182 Y-72.5466 F12000.0
G1 X77.7067 Y-70.2887 F12000.0
G1 X77.7067 Y-69.4321 F12000.0
G1 Z0.0000 F2500.0
G4 P0.02
G0 X72.8793 Y-69.4321 F15000.0
G1 Z11.9000 F2500.0
G4 P0.02
G1 X83.7800 Y-88.2748 F12000.0
G1 Z0.0000 F2500.0
G4 P0.02
G0 X83.7800 Y-69.4321 F15000.0
G1 Z11.9000 F2500.0
G4 P0.02
G1 X83.9357 Y-67.6413 F12000.0
G1 X84.4029 Y-65.8505 F12000.0
G1 X85.1036 Y-64.1375 F12000.0
G1 X86.1938 Y-62.6581 F12000.0
G1 X87.4395 Y-61.2565 F12000.0
G1 X88.9189 Y-60.1665 F12000.0
G1 X90.5541 Y-59.3100 F12000.0
G1 X92.3449 Y-58.7650 F12000.0
G1 X94.1358 Y-58.5314 F12000.0
G1 X96.0045 Y-58.6093 F12000.0
G1 X97.7953 Y-58.9986 F12000.0
G1 X99.5083 Y-59.6214 F12000.0
G1 X101.0655 Y-60.6337 F12000.0
G1 X102.4670 Y-61.8016 F12000.0
G1 X103.6350 Y-63.2031 F12000.0
G1 X104.5693 Y-64.8382 F12000.0
G1 X105.1922 Y-66.5513 F12000.0
G1 X105.5816 Y-68.3421 F12000.0
G1 X105.5816 Y-70.2108 F12000.0
G1 X105.2701 Y-72.0016 F12000.0
G1 X104.7250 Y-73.7925 F12000.0
G1 X103.8686 Y-75.3497 F12000.0
G1 X102.7006 Y-76.8291 F12000.0
G1 X101.3770 Y-78.0749 F12000.0
G1 X99.8197 Y-79.0871 F12000.0
G1 X98.1068 Y-79.7879 F12000.0
G1 X96.3159 Y-80.2550 F12000.0
G1 X94.5250 Y-80.3329 F12000.0
G1 X92.6563 Y-80.1771 F12000.0
G1 X90.8655 Y-79.7100 F12000.0
G1 X89.2304 Y-78.9314 F12000.0
G1 X87.6731 Y-77.8413 F12000.0
G1 X86.4274 Y-76.5955 F12000.0
G1 X85.3372 Y-75.0382 F12000.0
G1 X84.4808 Y-73.4031 F12000.0
G1 X84.0136 Y-71.6123 F12000.0
G1 X83.7800 Y-69.8215 F12000.0
G1 X83.7800 Y-69.4321 F12000.0
G1 Z0.0000 F2500.0
G4 P0.02
G0 X82.9236 Y-69.4321 F15000.0
G1 Z11.9000 F2500.0
G4 P0.02
G1 X83.0793 Y-67.5634 F12000.0
G1 X83.5464 Y-65.6947 F12000.0
G1 X84.2472 Y-63.9039 F12000.0
G1 X85.3372 Y-62.3467 F12000.0
G1 X86.5831 Y-60.8673 F12000.0
G1 X88.0625 Y-59.6993 F12000.0
G1 X89.7754 Y-58.7650 F12000.0
G1 X91.5663 Y-58.0642 F12000.0
G1 X93.4350 Y-57.7527 F12000.0
G1 X95.3037 Y-57.6749 F12000.0
G1 X97.2502 Y-57.9085 F12000.0
G1 X99.0411 Y-58.5314 F12000.0
G1 X100.7540 Y-59.3878 F12000.0
G1 X102.3113 Y-60.4780 F12000.0
G1 X103.7129 Y-61.8016 F12000.0
G1 X104.8029 Y-63.3588 F12000.0
G1 X105.6594 Y-65.1497 F12000.0
G1 X106.2044 Y-66.9405 F12000.0
G1 X106.4380 Y-68.8092 F12000.0
G1 X106.3601 Y-70.7558 F12000.0
G1 X106.0487 Y-72.6245 F12000.0
G1 X105.3480 Y-74.4153 F12000.0
G1 X104.4136 Y-76.1283 F12000.0
G1 X103.2457 Y-77.6077 F12000.0
G1 X101.7663 Y-78.8535 F12000.0
G1 X100.2090 Y-79.8658 F12000.0
G1 X98.4181 Y-80.6443 F12000.0
G1 X96.5494 Y-81.1115 F12000.0
G1 X94.6807 Y-81.2673 F12000.0
G1 X92.7342 Y-81.1115 F12000.0
G1 X90.8655 Y-80.5665 F12000.0
G1 X89.1525 Y-79.8658 F12000.0
G1 X87.5174 Y-78.7756 F12000.0
G1 X86.1159 Y-77.5299 F12000.0
G1 X84.8701 Y-76.0505 F12000.0
G1 X83.9357 Y-74.3374 F12000.0
G1 X83.3128 Y-72.5466 F12000.0
G1 X83.0014 Y-70.6779 F12000.0
G1 X82.9236 Y-69.4321 F12000.0
G1 Z0.0000 F2500.0
G4 P0.02
G0 X91.0212 Y-69.4321 F15000.0
G1 Z11.9000 F2500.0
G4 P0.02
G1 X91.1769 Y-68.4200 F12000.0
G1 X91.6441 Y-67.4077 F12000.0
G1 X92.3449 Y-66.6291 F12000.0
G1 X93.2014 Y-66.0841 F12000.0
G1 X94.2915 Y-65.7726 F12000.0
G1 X95.3037 Y-65.8505 F12000.0
G1 X96.3159 Y-66.1619 F12000.0
G1 X97.2502 Y-66.7848 F12000.0
G1 X97.8732 Y-67.6413 F12000.0
G1 X98.2625 Y-68.6535 F12000.0
G1 X98.3403 Y-69.6657 F12000.0
G1 X98.1068 Y-70.7558 F12000.0
G1 X97.6396 Y-71.6902 F12000.0
G1 X96.8609 Y-72.3909 F12000.0
G1 X95.9266 Y-72.9359 F12000.0
G1 X94.9143 Y-73.0917 F12000.0
G1 X93.8243 Y-73.0138 F12000.0
G1 X92.8120 Y-72.6245 F12000.0
G1 X91.9556 Y-71.9238 F12000.0
G1 X91.4105 Y-71.0672 F12000.0
G1 X91.0212 Y-70.0551 F12000.0
G1 X91.0212 Y-69.4321 F12000.0
G1 Z0.0000 F2500.0
G4 P0.02
G0 X92.8120 Y-69.4321 F15000.0
G1 Z11.9000 F2500.0
G4 P0.02
G1 X92.9678 Y-68.7313 F12000.0
G1 X93.4350 Y-68.1085 F12000.0
G1 X94.0579 Y-67.7192 F12000.0
G1 X94.8365 Y-67.6413 F12000.0
G1 X95.5373 Y-67.7970 F12000.0
G1 X96.1602 Y-68.3421 F12000.0
G1 X96.4716 Y-68.9649 F12000.0
G1 X96.4716 Y-69.7436 F12000.0
G1 X96.2381 Y-70.4444 F12000.0
G1 X95.6930 Y-70.9894 F12000.0
G1 X94.9922 Y-71.2230 F12000.0
G1 X94.2915 Y-71.2230 F12000.0
G1 X93.5907 Y-70.9115 F12000.0
G1 X93.0456 Y-70.3665 F12000.0
G1 X92.8899 Y-69.6657 F12000.0
G1 Z0.0000 F2500.0
G4 P0.02
G0 X88.2182 Y-69.4321 F15000.0
G1 Z11.9000 F2500.0
G4 P0.02
G1 X88.3739 Y-68.0306 F12000.0
G1 X88.8411 Y-66.7069 F12000.0
G1 X89.6197 Y-65.4611 F12000.0
G1 X90.5541 Y-64.4490 F12000.0
G1 X91.7220 Y-63.6703 F12000.0
G1 X93.0456 Y-63.2031 F12000.0
G1 X94.4472 Y-62.9695 F12000.0
G1 X95.9266 Y-63.1252 F12000.0
G1 X97.2502 Y-63.5146 F12000.0
G1 X98.4960 Y-64.2154 F12000.0
G1 X99.5083 Y-65.1497 F12000.0
G1 X100.3647 Y-66.3177 F12000.0
G1 X100.9098 Y-67.6413 F12000.0
G1 X101.1434 Y-69.0428 F12000.0
G1 X101.0655 Y-70.4444 F12000.0
G1 X100.6762 Y-71.8459 F12000.0
G1 X100.0533 Y-73.0917 F12000.0
G1 X99.1189 Y-74.1818 F12000.0
G1 X97.9510 Y-75.0382 F12000.0
G1 X96.7052 Y-75.5833 F12000.0
G1 X95.3037 Y-75.8948 F12000.0
G1 X93.9022 Y-75.8169 F12000.0
G1 X92.5007 Y-75.5054 F12000.0
G1 X91.2548 Y-74.8825 F12000.0
G1 X90.1648 Y-74.0261 F12000.0
G1 X89.2304 Y-72.9359 F12000.0
G1 X88.6075 Y-71.6123 F12000.0
G1 X88.2961 Y-70.2887 F12000.0
G1 X88.2182 Y-69.4321 F12000.0
G1 Z0.0000 F2500.0
G4 P0.02
G0 X89.1525 Y-69.4321 F15000.0
G1 Z11.9000 F2500.0
G4 P0.02
G1 X89.3082 Y-68.1864 F12000.0
G1 X89.7754 Y-66.9405 F12000.0
G1 X90.4762 Y-65.8505 F12000.0
G1 X91.4884 Y-64.9939 F12000.0
G1 X92.6563 Y-64.2932 F12000.0
G1 X93.9022 Y-63.9818 F12000.0
G1 X95.2258 Y-63.9818 F12000.0
G1 X96.4716 Y-64.2154 F12000.0
G1 X97.6396 Y-64.8382 F12000.0
G1 X98.6517 Y-65.6169 F12000.0
G1 X99.4304 Y-66.7069 F12000.0
G1 X99.9755 Y-67.8749 F12000.0
G1 X100.2090 Y-69.1985 F12000.0
G1 X100.1312 Y-70.4444 F12000.0
G1 X99.7419 Y-71.6902 F12000.0
G1 X99.0411 Y-72.8581 F12000.0
G1 X98.1068 Y-73.7925 F12000.0
G1 X97.0166 Y-74.4932 F12000.0
G1 X95.7709 Y-74.8825 F12000.0
G1 X94.4472 Y-74.9604 F12000.0
G1 X93.2014 Y-74.7268 F12000.0
G1 X91.9556 Y-74.2596 F12000.0
G1 X90.8655 Y-73.4810 F12000.0
G1 X90.0869 Y-72.4687 F12000.0
G1 X89.4640 Y-71.3008 F12000.0
G1 X89.2304 Y-70.0551 F12000.0
G1 X89.1525 Y-69.4321 F12000.0
G1 Z0.0000 F2500.0
G4 P0.02
G0 X86.4274 Y-75.2718 F15000.0
G1 Z11.9000 F2500.0
G4 P0.02
G1 X86.4274 Y-63.5924 F12000.0
G1 Z0.0000 F2500.0
G4 P0.02
G0 X54.2702 Y-61.1787 F15000.0
G1 Z11.9000 F2500.0
G4 P0.02
G1 X53.0243 Y-62.5024 F12000.0
G1 X51.9343 Y-63.9818 F12000.0
G1 X51.2335 Y-65.6947 F12000.0
G1 X50.6884 Y-67.4856 F12000.0
G1 X50.5328 Y-69.3543 F12000.0
G1 X50.6884 Y-71.1451 F12000.0
G1 X51.1556 Y-73.0138 F12000.0
G1 X51.8564 Y-74.6489 F12000.0
G1 X52.8686 Y-76.2062 F12000.0
G1 X54.1144 Y-77.6077 F12000.0
G1 Z0.0000 F2500.0
G4 P0.02
G0 X54.2702 Y-77.7635 F15000.0
G1 Z11.9000 F2500.0
G4 P0.02
G1 X76.3052 Y-97.0734 F12000.0
G1 Z0.0000 F2500.0
G4 P0.02
G0 X76.3052 Y-41.8688 F15000.0
G1 Z11.9000 F2500.0
G4 P0.02
G1 X54.2702 Y-61.1787 F12000.0
G1 Z0.0000 F2500.0
G4 P0.02
G0 X56.9953 Y-69.4321 F15000.0
G1 Z11.9000 F2500.0
G4 P0.02
G1 X57.1510 Y-68.2642 F12000.0
G1 X57.6182 Y-67.1741 F12000.0
G1 X58.3189 Y-66.2398 F12000.0
G1 X59.2533 Y-65.4611 F12000.0
G1 X60.3434 Y-64.9939 F12000.0
G1 X61.5114 Y-64.8382 F12000.0
G1 X62.7571 Y-64.9939 F12000.0
G1 X63.8473 Y-65.4611 F12000.0
G1 X64.7816 Y-66.1619 F12000.0
G1 X65.5602 Y-67.0962 F12000.0
G1 X66.0273 Y-68.1864 F12000.0
G1 X66.1831 Y-69.3543 F12000.0
G1 X66.0273 Y-70.6000 F12000.0
G1 X65.6381 Y-71.6902 F12000.0
G1 X64.8594 Y-72.6245 F12000.0
G1 X63.9251 Y-73.4031 F12000.0
G1 X62.8350 Y-73.8703 F12000.0
G1 X61.6671 Y-74.0261 F12000.0
G1 X60.4991 Y-73.9482 F12000.0
G1 X59.4091 Y-73.4810 F12000.0
G1 X58.3968 Y-72.7802 F12000.0
G1 X57.6961 Y-71.8459 F12000.0
G1 X57.1510 Y-70.7558 F12000.0
G1 X56.9953 Y-69.5879 F12000.0
G1 Z0.0000 F2500.0
G4 P0.02
G0 X88.2182 Y-41.8688 F15000.0
G1 Z11.9000 F2500.0
G4 P0.02
G1 X88.2182 Y-38.2092 F12000.0
G1 Z0.0000 F2500.0
G4 P0.02
G0 X85.4930 Y-38.2092 F15000.0
G1 Z11.9000 F2500.0
G4 P0.02
G1 X85.4930 Y-24.4276 F12000.0
G1 Z0.0000 F2500.0
G4 P0.02
G0 X102.9342 Y-23.4932 F15000.0
G1 Z11.9000 F2500.0
G4 P0.02
G1 X103.8686 Y-24.4276 F12000.0
G1 Z0.0000 F2500.0
G4 P0.02
G0 X86.4274 Y-23.4932 F15000.0
G1 Z11.9000 F2500.0
G4 P0.02
G1 X85.4930 Y-24.4276 F12000.0
G1 Z0.0000 F2500.0
G4 P0.02
G0 X103.8686 Y-24.4276 F15000.0
G1 Z11.9000 F2500.0
G4 P0.02
G1 X85.4930 Y-24.4276 F12000.0
G1 Z0.0000 F2500.0
G4 P0.02
G0 X109.3968 Y-177.4274 F15000.0
G1 Z11.9000 F2500.0
G4 P0.02
G1 X109.3968 Y-186.6152 F12000.0
G1 Z0.0000 F2500.0
G4 P0.02
G0 X98.3403 Y-176.4931 F15000.0
G1 Z11.9000 F2500.0
G4 P0.02
G1 X98.3403 Y-185.6808 F12000.0
G1 Z0.0000 F2500.0
G4 P0.02
G0 X103.8686 Y-141.1435 F15000.0
G1 Z11.9000 F2500.0
G4 P0.02
G1 X103.8686 Y-151.8107 F12000.0
G1 Z0.0000 F2500.0
G4 P0.02
G0 X103.8686 Y-153.2122 F15000.0
G1 Z11.9000 F2500.0
G4 P0.02
G1 X103.8686 Y-154.6137 F12000.0
G1 Z0.0000 F2500.0
G4 P0.02
G0 X103.8686 Y-156.0153 F15000.0
G1 Z11.9000 F2500.0
G4 P0.02
G1 X103.8686 Y-166.6824 F12000.0
G1 Z0.0000 F2500.0
G4 P0.02
G0 X103.8686 Y-168.0060 F15000.0
G1 Z11.9000 F2500.0
G4 P0.02
G1 X103.8686 Y-169.4076 F12000.0
G1 Z0.0000 F2500.0
G4 P0.02
G0 X103.8686 Y-170.8091 F15000.0
G1 Z11.9000 F2500.0
G4 P0.02
G1 X103.8686 Y-181.4763 F12000.0
G1 Z0.0000 F2500.0
G4 P0.02
G0 X103.8686 Y-182.8000 F15000.0
G1 Z11.9000 F2500.0
G4 P0.02
G1 X103.8686 Y-184.2015 F12000.0
G1 Z0.0000 F2500.0
G4 P0.02
G0 X103.8686 Y-185.6030 F15000.0
G1 Z11.9000 F2500.0
G4 P0.02
G1 X103.8686 Y-196.2702 F12000.0
G1 Z0.0000 F2500.0
G4 P0.02
G0 X103.8686 Y-197.6717 F15000.0
G1 Z11.9000 F2500.0
G4 P0.02
G1 X103.8686 Y-198.9953 F12000.0
G1 Z0.0000 F2500.0
G4 P0.02
G0 X103.8686 Y-200.3968 F15000.0
G1 Z11.9000 F2500.0
G4 P0.02
G1 X103.8686 Y-211.0641 F12000.0
G1 Z0.0000 F2500.0
G4 P0.02
G0 X117.3388 Y-190.7419 F15000.0
G1 Z11.9000 F2500.0
G4 P0.02
G1 X105.9708 Y-190.7419 F12000.0
G1 Z0.0000 F2500.0
G4 P0.02
G0 X104.5693 Y-190.7419 F15000.0
G1 Z11.9000 F2500.0
G4 P0.02
G1 X103.1678 Y-190.7419 F12000.0
G1 Z0.0000 F2500.0
G4 P0.02
G0 X101.8442 Y-190.7419 F15000.0
G1 Z11.9000 F2500.0
G4 P0.02
G1 X90.3984 Y-190.7419 F12000.0
G1 Z0.0000 F2500.0
G4 P0.02
G0 X102.7785 Y-23.4932 F15000.0
G1 Z11.9000 F2500.0
G4 P0.02
G1 X102.7785 Y-38.2092 F12000.0
G1 Z0.0000 F2500.0
G4 P0.02
G0 X86.5831 Y-23.4932 F15000.0
G1 Z11.9000 F2500.0
G4 P0.02
G1 X86.5831 Y-38.2092 F12000.0
G1 Z0.0000 F2500.0
G4 P0.02
G0 X112.1998 Y-159.4412 F15000.0
G1 Z11.9000 F2500.0
G4 P0.02
G1 X112.1998 Y-148.3069 F12000.0
G1 Z0.0000 F2500.0
G4 P0.02
G0 X95.6151 Y-159.4412 F15000.0
G1 Z11.9000 F2500.0
G4 P0.02
G1 X95.6151 Y-148.3848 F12000.0
G1 Z0.0000 F2500.0
G4 P0.02
G0 X94.6807 Y-21.0016 F15000.0
G1 Z11.9000 F2500.0
G4 P0.02
G1 X94.6807 Y-33.0703 F12000.0
G1 Z0.0000 F2500.0
G4 P0.02
G0 X94.6807 Y-34.4718 F15000.0
G1 Z11.9000 F2500.0
G4 P0.02
G1 X94.6807 Y-35.8734 F12000.0
G1 Z0.0000 F2500.0
G4 P0.02
G0 X94.6807 Y-37.1971 F15000.0
G1 Z11.9000 F2500.0
G4 P0.02
G1 X94.6807 Y-49.3437 F12000.0
G1 Z0.0000 F2500.0
G4 P0.02
G0 X94.6807 Y-50.6673 F15000.0
G1 Z11.9000 F2500.0
G4 P0.02
G1 X94.6807 Y-52.0688 F12000.0
G1 Z0.0000 F2500.0
G4 P0.02
G0 X94.6807 Y-53.4703 F15000.0
G1 Z11.9000 F2500.0
G4 P0.02
G1 X94.6807 Y-65.5390 F12000.0
G1 Z0.0000 F2500.0
G4 P0.02
G0 X94.6807 Y-66.9405 F15000.0
G1 Z11.9000 F2500.0
G4 P0.02
G1 X94.6807 Y-68.3421 F12000.0
G1 Z0.0000 F2500.0
G4 P0.02
G0 X94.6807 Y-69.6657 F15000.0
G1 Z11.9000 F2500.0
G4 P0.02
G1 X94.6807 Y-81.8123 F12000.0
G1 Z0.0000 F2500.0
G4 P0.02
G0 X94.6807 Y-83.1360 F15000.0
G1 Z11.9000 F2500.0
G4 P0.02
G1 X94.6807 Y-84.5375 F12000.0
G1 Z0.0000 F2500.0
G4 P0.02
G0 X94.6807 Y-85.9389 F15000.0
G1 Z11.9000 F2500.0
G4 P0.02
G1 X94.6807 Y-98.0077 F12000.0
G1 Z0.0000 F2500.0
G4 P0.02
G0 X143.9678 Y-69.4321 F15000.0
G1 Z11.9000 F2500.0
G4 P0.02
G1 X130.7311 Y-69.4321 F12000.0
G1 Z0.0000 F2500.0
G4 P0.02
G0 X129.4074 Y-69.4321 F15000.0
G1 Z11.9000 F2500.0
G4 P0.02
G1 X128.0059 Y-69.4321 F12000.0
G1 Z0.0000 F2500.0
G4 P0.02
G0 X126.6044 Y-69.4321 F15000.0
G1 Z11.9000 F2500.0
G4 P0.02
G1 X113.3678 Y-69.4321 F12000.0
G1 Z0.0000 F2500.0
G4 P0.02
G0 X111.9662 Y-69.4321 F15000.0
G1 Z11.9000 F2500.0
G4 P0.02
G1 X110.5647 Y-69.4321 F12000.0
G1 Z0.0000 F2500.0
G4 P0.02
G0 X109.2411 Y-69.4321 F15000.0
G1 Z11.9000 F2500.0
G4 P0.02
G1 X96.0045 Y-69.4321 F12000.0
G1 Z0.0000 F2500.0
G4 P0.02
G0 X94.6029 Y-69.4321 F15000.0
G1 Z11.9000 F2500.0
G4 P0.02
G1 X93.2014 Y-69.4321 F12000.0
G1 Z0.0000 F2500.0
G4 P0.02
G0 X91.7999 Y-69.4321 F15000.0
G1 Z11.9000 F2500.0
G4 P0.02
G1 X78.5632 Y-69.4321 F12000.0
G1 Z0.0000 F2500.0
G4 P0.02
G0 X77.1617 Y-69.4321 F15000.0
G1 Z11.9000 F2500.0
G4 P0.02
G1 X75.8380 Y-69.4321 F12000.0
G1 Z0.0000 F2500.0
G4 P0.02
G0 X74.4365 Y-69.4321 F15000.0
G1 Z11.9000 F2500.0
G4 P0.02
G1 X61.1999 Y-69.4321 F12000.0
G1 Z0.0000 F2500.0
G4 P0.02
G0 X59.7984 Y-69.4321 F15000.0
G1 Z11.9000 F2500.0
G4 P0.02
G1 X58.3968 Y-69.4321 F12000.0
G1 Z0.0000 F2500.0
G4 P0.02
G0 X57.0732 Y-69.4321 F15000.0
G1 Z11.9000 F2500.0
G4 P0.02
G1 X43.8366 Y-69.4321 F12000.0
G1 Z0.0000 F2500.0
G4 P0.02
G0 X61.5892 Y-61.1787 F15000.0
G1 Z11.9000 F2500.0
G4 P0.02
G1 X61.5892 Y-77.7635 F12000.0
G1 Z0.0000 F2500.0
G4 P0.02
G0 X127.7723 Y-61.1787 F15000.0
G1 Z11.9000 F2500.0
G4 P0.02
G1 X127.7723 Y-77.7635 F12000.0
G1 Z0.0000 F2500.0
G4 P0.02
G0 X85.4930 Y-163.1007 F15000.0
G1 Z11.9000 F2500.0
G4 P0.02
G1 X122.2441 Y-163.1007 F12000.0
G1 Z0.0000 F2500.0
G4 P0.02
G0 X110.3311 Y-163.1007 F15000.0
G1 Z11.9000 F2500.0
G4 P0.02
G1 X110.3311 Y-159.4412 F12000.0
G1 Z0.0000 F2500.0
G4 P0.02
G0 X113.0563 Y-159.4412 F15000.0
G1 Z11.9000 F2500.0
G4 P0.02
G1 X94.6807 Y-159.4412 F12000.0
G1 Z0.0000 F2500.0
G4 P0.02
G0 X100.2090 Y-167.6947 F15000.0
G1 Z11.9000 F2500.0
G4 P0.02
G1 X107.5281 Y-167.6947 F12000.0
G1 Z0.0000 F2500.0
G4 P0.02
G0 X102.0778 Y-170.1862 F15000.0
G1 Z11.9000 F2500.0
G4 P0.02
G1 X101.9220 Y-169.2519 F12000.0
G1 X101.5327 Y-168.4732 F12000.0
G1 X100.9876 Y-167.9282 F12000.0
G1 X100.2869 Y-167.6947 F12000.0
G1 Z0.0000 F2500.0
G4 P0.02
G0 X113.9906 Y-190.7419 F15000.0
G1 Z11.9000 F2500.0
G4 P0.02
G1 X113.8349 Y-192.4549 F12000.0
G1 X113.3678 Y-194.1679 F12000.0
G1 X112.5891 Y-195.8030 F12000.0
G1 X111.5770 Y-197.2824 F12000.0
G1 X110.3311 Y-198.5281 F12000.0
G1 X108.8518 Y-199.5404 F12000.0
G1 X107.2945 Y-200.2411 F12000.0
G1 X105.5816 Y-200.7083 F12000.0
G1 X103.7907 Y-200.8640 F12000.0
G1 X101.9999 Y-200.6304 F12000.0
G1 X100.2869 Y-200.1633 F12000.0
G1 X98.7296 Y-199.3847 F12000.0
G1 X97.2502 Y-198.3724 F12000.0
G1 Z0.0000 F2500.0
G4 P0.02
G0 X96.0045 Y-197.1266 F15000.0
G1 Z11.9000 F2500.0
G4 P0.02
G1 X95.0701 Y-195.6473 F12000.0
G1 X94.2915 Y-194.0122 F12000.0
G1 X93.9022 Y-192.2992 F12000.0
G1 X93.7464 Y-190.7419 F12000.0
G1 Z0.0000 F2500.0
G4 P0.02
G0 X97.0166 Y-184.2793 F15000.0
G1 Z11.9000 F2500.0
G4 P0.02
G1 X99.7419 Y-184.2793 F12000.0
G1 Z0.0000 F2500.0
G4 P0.02
G0 X99.7419 Y-178.7511 F15000.0
G1 Z11.9000 F2500.0
G4 P0.02
G1 X107.9952 Y-178.7511 F12000.0
G1 Z0.0000 F2500.0
G4 P0.02
G0 X97.0166 Y-184.2793 F15000.0
G1 Z11.9000 F2500.0
G4 P0.02
G1 X97.0166 Y-178.7511 F12000.0
G1 Z0.0000 F2500.0
G4 P0.02
G0 X99.7419 Y-184.2793 F15000.0
G1 Z11.9000 F2500.0
G4 P0.02
G1 X99.7419 Y-178.7511 F12000.0
G1 Z0.0000 F2500.0
G4 P0.02
G0 X93.7464 Y-190.7419 F15000.0
G1 Z11.9000 F2500.0
G4 P0.02
G1 X93.7464 Y-178.7511 F12000.0
G1 Z0.0000 F2500.0
G4 P0.02
G0 X110.7983 Y-178.7511 F15000.0
G1 Z11.9000 F2500.0
G4 P0.02
G1 X113.9906 Y-178.7511 F12000.0
G1 Z0.0000 F2500.0
G4 P0.02
G0 X103.8686 Y-187.0045 F15000.0
G1 Z11.9000 F2500.0
G4 P0.02
G1 X104.9586 Y-187.1602 F12000.0
G1 X105.8930 Y-187.6274 F12000.0
G1 X106.6716 Y-188.3282 F12000.0
G1 X107.2945 Y-189.2625 F12000.0
G1 X107.5281 Y-190.2748 F12000.0
G1 X107.5281 Y-191.3648 F12000.0
G1 X107.1388 Y-192.3771 F12000.0
G1 X106.5159 Y-193.2335 F12000.0
G1 X105.7373 Y-193.9343 F12000.0
G1 X104.7250 Y-194.3236 F12000.0
G1 X103.6350 Y-194.4015 F12000.0
G1 X102.6227 Y-194.1679 F12000.0
G1 X101.6884 Y-193.6228 F12000.0
G1 X100.9098 Y-192.9220 F12000.0
G1 X100.4426 Y-191.9877 F12000.0
G1 X100.2090 Y-190.8976 F12000.0
G1 X100.2869 Y-189.8854 F12000.0
G1 X100.6762 Y-188.8732 F12000.0
G1 X101.3770 Y-188.0167 F12000.0
G1 X102.2334 Y-187.3938 F12000.0
G1 X103.2457 Y-187.0823 F12000.0
G1 X103.8686 Y-187.0045 F12000.0
G1 Z0.0000 F2500.0
G4 P0.02
G0 X97.4060 Y-163.1007 F15000.0
G1 Z11.9000 F2500.0
G4 P0.02
G1 X97.4060 Y-159.4412 F12000.0
G1 Z0.0000 F2500.0
G4 P0.02
G0 X105.7373 Y-170.1862 F15000.0
G1 Z11.9000 F2500.0
G4 P0.02
G1 X105.8152 Y-169.2519 F12000.0
G1 X106.2044 Y-168.4732 F12000.0
G1 X106.8273 Y-167.9282 F12000.0
G1 X107.4503 Y-167.6947 F12000.0
G1 Z0.0000 F2500.0
G4 P0.02
G0 X93.7464 Y-178.7511 F15000.0
G1 Z11.9000 F2500.0
G4 P0.02
G1 X97.0166 Y-178.7511 F12000.0
G1 Z0.0000 F2500.0
G4 P0.02
G0 X103.8686 Y-185.2136 F15000.0
G1 Z11.9000 F2500.0
G4 P0.02
G1 X105.1922 Y-185.3694 F12000.0
G1 X106.4380 Y-185.8366 F12000.0
G1 X107.5281 Y-186.5374 F12000.0
G1 X108.3846 Y-187.5495 F12000.0
G1 X109.0075 Y-188.6397 F12000.0
G1 X109.3189 Y-189.9633 F12000.0
G1 X109.3968 Y-191.2091 F12000.0
G1 X109.0854 Y-192.5328 F12000.0
G1 X108.5403 Y-193.7007 F12000.0
G1 X107.6839 Y-194.7129 F12000.0
G1 X106.6716 Y-195.4915 F12000.0
G1 X105.4258 Y-196.0366 F12000.0
G1 X104.1800 Y-196.1923 F12000.0
G1 X102.8563 Y-196.1145 F12000.0
G1 X101.6106 Y-195.7251 F12000.0
G1 X100.5204 Y-195.1022 F12000.0
G1 X99.5861 Y-194.1679 F12000.0
G1 X98.8853 Y-192.9999 F12000.0
G1 X98.4960 Y-191.7541 F12000.0
G1 X98.3403 Y-190.5084 F12000.0
G1 X98.5739 Y-189.1846 F12000.0
G1 X99.1189 Y-188.0167 F12000.0
G1 X99.8976 Y-186.9266 F12000.0
G1 X100.8319 Y-186.0702 F12000.0
G1 X102.0778 Y-185.5251 F12000.0
G1 X103.3235 Y-185.2136 F12000.0
G1 X103.8686 Y-185.2136 F12000.0
G1 Z0.0000 F2500.0
G4 P0.02
G0 X107.9952 Y-184.2793 F15000.0
G1 Z11.9000 F2500.0
G4 P0.02
G1 X110.7983 Y-184.2793 F12000.0
G1 Z0.0000 F2500.0
G4 P0.02
G0 X107.9952 Y-184.2793 F15000.0
G1 Z11.9000 F2500.0
G4 P0.02
G1 X107.9952 Y-178.7511 F12000.0
G1 Z0.0000 F2500.0
G4 P0.02
G0 X110.7983 Y-184.2793 F15000.0
G1 Z11.9000 F2500.0
G4 P0.02
G1 X110.7983 Y-178.7511 F12000.0
G1 Z0.0000 F2500.0
G4 P0.02
G0 X113.9906 Y-178.7511 F15000.0
G1 Z11.9000 F2500.0
G4 P0.02
G1 X113.9906 Y-190.7419 F12000.0
G1 Z0.0000 F2500.0
G4 P0.02
G0 X97.7174 Y-198.7617 F15000.0
G1 Z11.9000 F2500.0
G4 P0.02
G1 X95.8487 Y-196.8930 F12000.0
G1 Z0.0000 F2500.0
G4 P0.02
G0 X103.7129 Y-200.8640 F15000.0
G1 Z11.9000 F2500.0
G4 P0.02
G1 X93.7464 Y-190.8976 F12000.0
G1 Z0.0000 F2500.0
G4 P0.02
G0 X107.0609 Y-200.3190 F15000.0
G1 Z11.9000 F2500.0
G4 P0.02
G1 X102.9342 Y-196.1923 F12000.0
G1 Z0.0000 F2500.0
G4 P0.02
G0 X98.4181 Y-191.6763 F15000.0
G1 Z11.9000 F2500.0
G4 P0.02
G1 X93.7464 Y-187.0045 F12000.0
G1 Z0.0000 F2500.0
G4 P0.02
G0 X98.9632 Y-188.2503 F15000.0
G1 Z11.9000 F2500.0
G4 P0.02
G1 X93.7464 Y-183.1114 F12000.0
G1 Z0.0000 F2500.0
G4 P0.02
G0 X109.7083 Y-198.9953 F15000.0
G1 Z11.9000 F2500.0
G4 P0.02
G1 X106.3601 Y-195.6473 F12000.0
G1 Z0.0000 F2500.0
G4 P0.02
G0 X111.7326 Y-197.1266 F15000.0
G1 Z11.9000 F2500.0
G4 P0.02
G1 X108.4624 Y-193.8564 F12000.0
G1 Z0.0000 F2500.0
G4 P0.02
G0 X100.7540 Y-186.1480 F15000.0
G1 Z11.9000 F2500.0
G4 P0.02
G1 X98.8853 Y-184.2793 F12000.0
G1 Z0.0000 F2500.0
G4 P0.02
G0 X97.0166 Y-182.4106 F15000.0
G1 Z11.9000 F2500.0
G4 P0.02
G1 X93.7464 Y-179.2183 F12000.0
G1 Z0.0000 F2500.0
G4 P0.02
G0 X103.7129 Y-185.2136 F15000.0
G1 Z11.9000 F2500.0
G4 P0.02
G1 X99.7419 Y-181.2427 F12000.0
G1 Z0.0000 F2500.0
G4 P0.02
G0 X113.2121 Y-194.7129 F15000.0
G1 Z11.9000 F2500.0
G4 P0.02
G1 X109.3968 Y-190.8976 F12000.0
G1 Z0.0000 F2500.0
G4 P0.02
G0 X113.9906 Y-191.5984 F15000.0
G1 Z11.9000 F2500.0
G4 P0.02
G1 X101.1434 Y-178.7511 F12000.0
G1 Z0.0000 F2500.0
G4 P0.02
G0 X107.9952 Y-181.7098 F15000.0
G1 Z11.9000 F2500.0
G4 P0.02
G1 X105.0365 Y-178.7511 F12000.0
G1 Z0.0000 F2500.0
G4 P0.02
G0 X113.9906 Y-187.7053 F15000.0
G1 Z11.9000 F2500.0
G4 P0.02
G1 X110.5647 Y-184.2793 F12000.0
G1 Z0.0000 F2500.0
G4 P0.02
G0 X113.9906 Y-183.8121 F15000.0
G1 Z11.9000 F2500.0
G4 P0.02
G1 X110.7983 Y-180.6198 F12000.0
G1 Z0.0000 F2500.0
G4 P0.02
G0 X113.9906 Y-179.9190 F15000.0
G1 Z11.9000 F2500.0
G4 P0.02
G1 X112.8227 Y-178.7511 F12000.0
G1 Z0.0000 F2500.0
G4 P0.02
G0 X113.0563 Y-159.4412 F15000.0
G1 Z11.9000 F2500.0
G4 P0.02
G1 X113.0563 Y-147.6840 F12000.0
G1 Z0.0000 F2500.0
G4 P0.02
G0 X102.0778 Y-178.7511 F15000.0
G1 Z11.9000 F2500.0
G4 P0.02
G1 X102.0778 Y-170.1862 F12000.0
G1 Z0.0000 F2500.0
G4 P0.02
G0 X97.0166 Y-178.7511 F15000.0
G1 Z11.9000 F2500.0
G4 P0.02
G1 X99.7419 Y-178.7511 F12000.0
G1 Z0.0000 F2500.0
G4 P0.02
G0 X94.6807 Y-159.4412 F15000.0
G1 Z11.9000 F2500.0
G4 P0.02
G1 X94.6807 Y-148.2290 F12000.0
G1 Z0.0000 F2500.0
G4 P0.02
G0 X107.9952 Y-178.7511 F15000.0
G1 Z11.9000 F2500.0
G4 P0.02
G1 X110.7983 Y-178.7511 F12000.0
G1 Z0.0000 F2500.0
G4 P0.02
G0 X105.7373 Y-178.7511 F15000.0
G1 Z11.9000 F2500.0
G4 P0.02
G1 X105.7373 Y-170.1862 F12000.0
G1 Z0.0000 F2500.0
G4 P0.02
G0 X113.0563 Y-147.6840 F15000.0
G1 Z11.9000 F2500.0
G4 P0.02
G1 X112.3555 Y-148.1512 F12000.0
G1 X110.9540 Y-149.2412 F12000.0
G1 X110.3311 Y-149.5526 F12000.0
G1 X109.5525 Y-149.6305 F12000.0
G1 X108.5403 Y-149.3969 F12000.0
G1 X107.2945 Y-148.9297 F12000.0
G1 X105.4258 Y-148.2290 F12000.0
G1 X104.1800 Y-147.9954 F12000.0
G1 X103.8686 Y-148.0733 F12000.0
G1 X103.3235 Y-148.2290 F12000.0
G1 X102.4670 Y-148.6962 F12000.0
G1 X101.2991 Y-149.3969 F12000.0
G1 X100.1312 Y-149.9420 F12000.0
G1 X99.7419 Y-150.0198 F12000.0
G1 X98.9632 Y-149.9420 F12000.0
G1 X97.9510 Y-149.5526 F12000.0
G1 X96.7052 Y-148.8519 F12000.0
G1 X95.3815 Y-148.3069 F12000.0
G1 X95.0701 Y-148.2290 F12000.0
G1 Z0.0000 F2500.0
G4 P0.02
G0 X85.4930 Y-163.1007 F15000.0
G1 Z11.9000 F2500.0
G4 P0.02
G1 X84.7923 Y-165.5924 F12000.0
G1 X84.4029 Y-168.3175 F12000.0
G1 X84.1693 Y-171.4321 F12000.0
G1 X84.2472 Y-175.0137 F12000.0
G1 X84.6365 Y-179.2183 F12000.0
G1 X85.3372 Y-184.5908 F12000.0
G1 X85.4930 Y-185.6808 F12000.0
G1 X85.8044 Y-188.3282 F12000.0
G1 X86.1938 Y-192.1435 F12000.0
G1 X86.8167 Y-196.4259 F12000.0
G1 X87.4395 Y-198.9953 F12000.0
G1 X88.2961 Y-200.8640 F12000.0
G1 X89.2304 Y-202.3434 F12000.0
G1 X90.3205 Y-203.3557 F12000.0
G1 X91.0212 Y-203.9007 F12000.0
G1 X92.1892 Y-204.5236 F12000.0
G1 X94.0579 Y-205.3022 F12000.0
G1 X96.3938 Y-205.9251 F12000.0
G1 X99.1189 Y-206.3923 F12000.0
G1 X100.2090 Y-206.5480 F12000.0
G1 X102.4670 Y-206.5480 F12000.0
G1 X104.9586 Y-206.3144 F12000.0
G1 X107.7617 Y-205.7694 F12000.0
G1 X110.4090 Y-204.9129 F12000.0
G1 X112.6670 Y-203.8229 F12000.0
G1 X114.4578 Y-202.7327 F12000.0
G1 X114.7693 Y-202.4991 F12000.0
G1 X116.0151 Y-201.3312 F12000.0
G1 X117.2609 Y-199.7740 F12000.0
G1 X118.3510 Y-197.9053 F12000.0
G1 X119.4410 Y-195.5694 F12000.0
G1 X120.4533 Y-192.6106 F12000.0
G1 X121.5433 Y-188.8732 F12000.0
G1 X122.2441 Y-185.6030 F12000.0
G1 X122.8670 Y-182.5664 F12000.0
G1 X123.1784 Y-179.1405 F12000.0
G1 X123.2563 Y-175.2473 F12000.0
G1 X123.1006 Y-170.8870 F12000.0
G1 X122.5556 Y-165.5145 F12000.0
G1 X122.2441 Y-163.1007 F12000.0
G1 Z0.0000 F2500.0
G4 P0.02
G0 X94.6807 Y-97.0734 F15000.0
G1 Z11.9000 F2500.0
G4 P0.02
G1 X34.2595 Y-97.0734 F12000.0
G1 Z0.0000 F2500.0
G4 P0.02
G0 X94.6807 Y-23.4932 F15000.0
G1 Z11.9000 F2500.0
G4 P0.02
G1 X34.2595 Y-23.4932 F12000.0
G1 Z0.0000 F2500.0
G4 P0.02
G0 X127.7723 Y-74.0261 F15000.0
G1 Z11.9000 F2500.0
G4 P0.02
G1 X127.7723 Y-108.6748 F12000.0
G1 Z0.0000 F2500.0
G4 P0.02
G0 X61.5892 Y-74.0261 F15000.0
G1 Z11.9000 F2500.0
G4 P0.02
G1 X61.5892 Y-108.6748 F12000.0
G1 Z0.0000 F2500.0
G4 P0.02
G0 X138.8288 Y-69.4321 F15000.0
G1 Z11.9000 F2500.0
G4 P0.02
G1 X138.8288 Y-118.3297 F12000.0
G1 Z0.0000 F2500.0
G4 P0.02
G0 X50.5328 Y-69.4321 F15000.0
G1 Z11.9000 F2500.0
G4 P0.02
G1 X50.5328 Y-118.3297 F12000.0
G1 Z0.0000 F2500.0
G4 P0.02
G0 X36.1282 Y-97.0734 F15000.0
G1 Z11.9000 F2500.0
G4 P0.02
G1 X36.7511 Y-92.4794 F12000.0
G1 X36.1282 Y-92.8688 F12000.0
G1 X35.5052 Y-92.4794 F12000.0
G1 X36.1282 Y-97.0734 F12000.0
G1 Z0.0000 F2500.0
G4 P0.02
G0 X36.4007 Y-94.0511 F15000.0
G1 Z11.9000 F2500.0
G4 P0.02
G1 X36.4007 Y-94.8787 F12000.0
G1 Z0.0000 F2500.0
G4 P0.02
G0 X35.8167 Y-94.3236 F15000.0
G1 Z11.9000 F2500.0
G4 P0.02
G1 X35.8167 Y-95.1513 F12000.0
G1 Z0.0000 F2500.0
G4 P0.02
G0 X36.1282 Y-23.4932 F15000.0
G1 Z11.9000 F2500.0
G4 P0.02
G1 X35.5052 Y-28.0872 F12000.0
G1 X36.1282 Y-27.6200 F12000.0
G1 X36.7511 Y-28.0872 F12000.0
G1 X36.1282 Y-23.4932 F12000.0
G1 Z0.0000 F2500.0
G4 P0.02
G0 X35.8167 Y-25.3375 F15000.0
G1 Z11.9000 F2500.0
G4 P0.02
G1 X35.8167 Y-26.1651 F12000.0
G1 Z0.0000 F2500.0
G4 P0.02
G0 X36.4007 Y-25.6099 F15000.0
G1 Z11.9000 F2500.0
G4 P0.02
G1 X36.4007 Y-26.4376 F12000.0
G1 Z0.0000 F2500.0
G4 P0.02
G0 X36.1282 Y-97.0734 F15000.0
G1 Z11.9000 F2500.0
G4 P0.02
G1 X36.1282 Y-23.4932 F12000.0
G1 Z0.0000 F2500.0
G4 P0.02
G0 X127.7723 Y-106.8840 F15000.0
G1 Z11.9000 F2500.0
G4 P0.02
G1 X123.1784 Y-106.2611 F12000.0
G1 X123.6456 Y-106.8840 F12000.0
G1 X123.1784 Y-107.5069 F12000.0
G1 X127.7723 Y-106.8840 F12000.0
G1 Z0.0000 F2500.0
G4 P0.02
G0 X125.5778 Y-106.5726 F15000.0
G1 Z11.9000 F2500.0
G4 P0.02
G1 X124.7501 Y-106.5726 F12000.0
G1 Z0.0000 F2500.0
G4 P0.02
G0 X125.8893 Y-107.1565 F15000.0
G1 Z11.9000 F2500.0
G4 P0.02
G1 X125.0616 Y-107.1565 F12000.0
G1 Z0.0000 F2500.0
G4 P0.02
G0 X61.5892 Y-106.8840 F15000.0
G1 Z11.9000 F2500.0
G4 P0.02
G1 X66.1831 Y-107.5069 F12000.0
G1 X65.7160 Y-106.8840 F12000.0
G1 X66.1831 Y-106.2611 F12000.0
G1 X61.5892 Y-106.8840 F12000.0
G1 Z0.0000 F2500.0
G4 P0.02
G0 X64.2611 Y-107.1565 F15000.0
G1 Z11.9000 F2500.0
G4 P0.02
G1 X63.4334 Y-107.1565 F12000.0
G1 Z0.0000 F2500.0
G4 P0.02
G0 X64.5336 Y-106.5726 F15000.0
G1 Z11.9000 F2500.0
G4 P0.02
G1 X63.7059 Y-106.5726 F12000.0
G1 Z0.0000 F2500.0
G4 P0.02
G0 X127.7723 Y-106.8840 F15000.0
G1 Z11.9000 F2500.0
G4 P0.02
G1 X61.5892 Y-106.8840 F12000.0
G1 Z0.0000 F2500.0
G4 P0.02
G0 X138.8288 Y-116.5389 F15000.0
G1 Z11.9000 F2500.0
G4 P0.02
G1 X134.2350 Y-115.9161 F12000.0
G1 X134.7021 Y-116.5389 F12000.0
G1 X134.2350 Y-117.0840 F12000.0
G1 X138.8288 Y-116.5389 F12000.0
G1 Z0.0000 F2500.0
G4 P0.02
G0 X136.6343 Y-116.2275 F15000.0
G1 Z11.9000 F2500.0
G4 P0.02
G1 X135.8066 Y-116.2275 F12000.0
G1 Z0.0000 F2500.0
G4 P0.02
G0 X136.9457 Y-116.7725 F15000.0
G1 Z11.9000 F2500.0
G4 P0.02
G1 X136.1180 Y-116.7725 F12000.0
G1 Z0.0000 F2500.0
G4 P0.02
G0 X50.5328 Y-116.5389 F15000.0
G1 Z11.9000 F2500.0
G4 P0.02
G1 X55.1266 Y-117.0840 F12000.0
G1 X54.6594 Y-116.5389 F12000.0
G1 X55.1266 Y-115.9161 F12000.0
G1 X50.5328 Y-116.5389 F12000.0
G1 Z0.0000 F2500.0
G4 P0.02
G0 X53.2046 Y-116.7725 F15000.0
G1 Z11.9000 F2500.0
G4 P0.02
G1 X52.3769 Y-116.7725 F12000.0
G1 Z0.0000 F2500.0
G4 P0.02
G0 X53.4771 Y-116.2275 F15000.0
G1 Z11.9000 F2500.0
G4 P0.02
G1 X52.6494 Y-116.2275 F12000.0
G1 Z0.0000 F2500.0
G4 P0.02
G0 X138.8288 Y-116.5389 F15000.0
G1 Z11.9000 F2500.0
G4 P0.02
G1 X50.5328 Y-116.5389 F12000.0
G1 Z0.0000 F2500.0
G4 P0.02
G0 X0.0000 Y-216.9595 F15000.0
G1 Z11.9000 F2500.0
G4 P0.02
G1 X0.0000 Y-273.9770 F12000.0
G1 X174.7310 Y-273.9770 F12000.0
G1 Z0.0000 F2500.0
G4 P0.02
G0 X170.1296 Y-223.3663 F15000.0
G1 Z11.9000 F2500.0
G4 P0.02
G1 X0.0000 Y-223.3663 F12000.0
G1 Z0.0000 F2500.0
G4 P0.02
G0 X170.1296 Y-232.5541 F15000.0
G1 Z11.9000 F2500.0
G4 P0.02
G1 X110.3311 Y-232.5541 F12000.0
G1 Z0.0000 F2500.0
G4 P0.02
G0 X170.1296 Y-237.1480 F15000.0
G1 Z11.9000 F2500.0
G4 P0.02
G1 X110.3311 Y-237.1480 F12000.0
G1 Z0.0000 F2500.0
G4 P0.02
G0 X170.1296 Y-250.9296 F15000.0
G1 Z11.9000 F2500.0
G4 P0.02
G1 X110.3311 Y-250.9296 F12000.0
G1 Z0.0000 F2500.0
G4 P0.02
G0 X170.1296 Y-255.6014 F15000.0
G1 Z11.9000 F2500.0
G4 P0.02
G1 X110.3311 Y-255.6014 F12000.0
G1 Z0.0000 F2500.0
G4 P0.02
G0 X170.1296 Y-260.1953 F15000.0
G1 Z11.9000 F2500.0
G4 P0.02
G1 X110.3311 Y-260.1953 F12000.0
G1 Z0.0000 F2500.0
G4 P0.02
G0 X170.1296 Y-264.7892 F15000.0
G1 Z11.9000 F2500.0
G4 P0.02
G1 X110.3311 Y-264.7892 F12000.0
G1 Z0.0000 F2500.0
G4 P0.02
G0 X170.1296 Y-269.3830 F15000.0
G1 Z11.9000 F2500.0
G4 P0.02
G1 X110.3311 Y-269.3830 F12000.0
G1 Z0.0000 F2500.0
G4 P0.02
G0 X170.1296 Y-273.9770 F15000.0
G1 Z11.9000 F2500.0
G4 P0.02
G1 X170.1296 Y-223.3663 F12000.0
G1 Z0.0000 F2500.0
G4 P0.02
G0 X170.1296 Y-227.9602 F15000.0
G1 Z11.9000 F2500.0
G4 P0.02
G1 X110.3311 Y-227.9602 F12000.0
G1 Z0.0000 F2500.0
G4 P0.02
G0 X154.4792 Y-273.9770 F15000.0
G1 Z11.9000 F2500.0
G4 P0.02
G1 X154.4792 Y-223.3663 F12000.0
G1 Z0.0000 F2500.0
G4 P0.02
G0 X133.3006 Y-273.9770 F15000.0
G1 Z11.9000 F2500.0
G4 P0.02
G1 X133.3006 Y-223.3663 F12000.0
G1 Z0.0000 F2500.0
G4 P0.02
G0 X119.5189 Y-273.9770 F15000.0
G1 Z11.9000 F2500.0
G4 P0.02
G1 X119.5189 Y-223.3663 F12000.0
G1 Z0.0000 F2500.0
G4 P0.02
G0 X110.3311 Y-273.9770 F15000.0
G1 Z11.9000 F2500.0
G4 P0.02
G1 X110.3311 Y-223.3663 F12000.0
G1 Z0.0000 F2500.0
G4 P0.02
G0 X45.9388 Y-273.9770 F15000.0
G1 Z11.9000 F2500.0
G4 P0.02
G1 X45.9388 Y-237.1480 F12000.0
G1 Z0.0000 F2500.0
G4 P0.02
G0 X32.1572 Y-255.6014 F15000.0
G1 Z11.9000 F2500.0
G4 P0.02
G1 X32.1572 Y-237.1480 F12000.0
G1 Z0.0000 F2500.0
G4 P0.02
G0 X16.5068 Y-255.6014 F15000.0
G1 Z11.9000 F2500.0
G4 P0.02
G1 X16.5068 Y-237.1480 F12000.0
G1 Z0.0000 F2500.0
G4 P0.02
G0 X170.1296 Y-241.7419 F15000.0
G1 Z11.9000 F2500.0
G4 P0.02
G1 X110.3311 Y-241.7419 F12000.0
G1 Z0.0000 F2500.0
G4 P0.02
G0 X170.1296 Y-246.3357 F15000.0
G1 Z11.9000 F2500.0
G4 P0.02
G1 X110.3311 Y-246.3357 F12000.0
G1 Z0.0000 F2500.0
G4 P0.02
G0 X45.9388 Y-260.1953 F15000.0
G1 Z11.9000 F2500.0
G4 P0.02
G1 X0.0000 Y-260.1953 F12000.0
G1 Z0.0000 F2500.0
G4 P0.02
G0 X32.1572 Y-241.7419 F15000.0
G1 Z11.9000 F2500.0
G4 P0.02
G1 X0.0000 Y-241.7419 F12000.0
G1 Z0.0000 F2500.0
G4 P0.02
G0 X45.9388 Y-241.7419 F15000.0
G1 Z11.9000 F2500.0
G4 P0.02
G1 X32.1572 Y-241.7419 F12000.0
G1 Z0.0000 F2500.0
G4 P0.02
G0 X110.3311 Y-237.1480 F15000.0
G1 Z11.9000 F2500.0
G4 P0.02
G1 X0.0000 Y-237.1480 F12000.0
G1 Z0.0000 F2500.0
G4 P0.02
G0 X110.3311 Y-260.1953 F15000.0
G1 Z11.9000 F2500.0
G4 P0.02
G1 X45.9388 Y-260.1953 F12000.0
G1 Z0.0000 F2500.0
G4 P0.02
G0 X45.9388 Y-255.6014 F15000.0
G1 Z11.9000 F2500.0
G4 P0.02
G1 X0.0000 Y-255.6014 F12000.0
G1 Z0.0000 F2500.0
G4 P0.02
G0 X27.0183 Y-260.1953 F15000.0
G1 Z11.9000 F2500.0
G4 P0.02
G1 X27.0183 Y-255.6014 F12000.0
G1 Z0.0000 F2500.0
G4 P0.02
G0 X41.3449 Y-255.6014 F15000.0
G1 Z11.9000 F2500.0
G4 P0.02
G1 X41.3449 Y-241.7419 F12000.0
G1 Z0.0000 F2500.0
G4 P0.02
G0 X36.7511 Y-255.6014 F15000.0
G1 Z11.9000 F2500.0
G4 P0.02
G1 X36.7511 Y-241.7419 F12000.0
G1 Z0.0000 F2500.0
G4 P0.02
G0 X163.6669 Y-246.3357 F15000.0
G1 Z11.9000 F2500.0
G4 P0.02
G1 X163.6669 Y-223.3663 F12000.0
G1 Z0.0000 F2500.0
G4 P0.02
G0 X7.1497 Y-250.5058 F15000.0
G1 Z11.9000 F2500.0
G4 P0.02
G1 X5.7703 Y-246.6601 F12000.0
G1 X5.5195 Y-246.3256
G1 Z0.0000 F2500.0
G4 P0.02
G0 X6.9825 Y-247.3289 F15000.0
G1 Z11.9000 F2500.0
G4 P0.02
G1 X6.8153 Y-247.1617 F12000.0
G1 Z0.0000 F2500.0
G4 P0.02
G0 X6.1047 Y-246.7018 F15000.0
G1 Z11.9000 F2500.0
G4 P0.02
G1 X5.8121 Y-246.6182 F12000.0
G1 Z0.0000 F2500.0
G4 P0.02
G0 X5.4152 Y-259.1276 F15000.0
G1 Z11.9000 F2500.0
G4 P0.02
G1 X5.2480 Y-258.8351 F12000.0
G1 X4.4538 Y-256.6196
G1 Z0.0000 F2500.0
G4 P0.02
G0 X5.0808 Y-256.7449 F15000.0
G1 Z11.9000 F2500.0
G4 P0.02
G1 X4.8718 Y-256.6196 F12000.0
G1 Z0.0000 F2500.0
G4 P0.02
G0 X32.9559 Y-226.9438 F15000.0
G1 Z11.9000 F2500.0
G4 P0.02
G1 X34.5951 Y-227.2813 F12000.0
G1 X35.0406 Y-227.5539
G1 X35.2634 Y-227.9497
G1 X35.3455 Y-228.7460
G1 X35.2318 Y-228.8365
G1 X33.8100 Y-228.3652
G1 X33.5951 Y-228.3902
G1 X33.2158 Y-228.6570
G1 X33.0093 Y-229.0655
G1 X32.9230 Y-230.0135
G1 X33.0025 Y-230.3564
G1 X33.3064 Y-230.7935
G1 X34.4283 Y-231.0485
G1 X34.9913 Y-230.6324
G1 X35.0876 Y-230.4313
G1 X35.3010 Y-228.8291
G1 Z0.0000 F2500.0
G4 P0.02
G0 X34.8872 Y-227.4036 F15000.0
G1 Z11.9000 F2500.0
G4 P0.02
G1 X34.7952 Y-227.3117 F12000.0
G1 Z0.0000 F2500.0
G4 P0.02
G0 X36.6345 Y-227.9094 F15000.0
G1 Z11.9000 F2500.0
G4 P0.02
G1 X36.7930 Y-227.5989 F12000.0
G1 X37.0453 Y-227.3521
G1 X37.5889 Y-227.1185
G1 X38.8730 Y-227.3124
G1 X39.1967 Y-227.5372
G1 X39.0098 Y-227.3756
G1 X39.4414 Y-227.8794
G1 X39.6376 Y-228.4322
G1 X39.6813 Y-229.6210
G1 X39.5378 Y-230.0743
G1 X39.3045 Y-230.4777
G1 X38.0074 Y-231.0293
G1 X37.6605 Y-231.0536
G1 X37.0242 Y-230.7538
G1 X36.5805 Y-230.1388
G1 X36.9563 Y-230.7603
G1 Z0.0000 F2500.0
G4 P0.02
G0 X35.1171 Y-230.4844 F15000.0
G1 Z11.9000 F2500.0
G4 P0.02
G1 X34.8283 Y-230.8453 F12000.0
G1 X34.5278 Y-231.0184
G1 X33.5783 Y-230.9811
G1 X33.3853 Y-230.8734
G1 X32.9559 Y-230.2085
G1 Z0.0000 F2500.0
G4 P0.02
G0 X42.4742 Y-231.0362 F15000.0
G1 Z11.9000 F2500.0
G4 P0.02
G1 X42.9022 Y-230.6901 F12000.0
G1 X43.2099 Y-229.9786
G1 Z0.0000 F2500.0
G4 P0.02
G0 X43.2099 Y-228.2313 F15000.0
G1 Z11.9000 F2500.0
G4 P0.02
G1 X42.8960 Y-227.4858 F12000.0
G1 X43.2032 Y-228.3256
G1 X43.1605 Y-229.9972
G1 X42.9525 Y-230.6149
G1 X42.5050 Y-230.9936
G1 X42.2927 Y-231.0519
G1 X41.3107 Y-230.7180
G1 X40.9658 Y-229.6505
G1 X41.1025 Y-227.8703
G1 X41.3193 Y-227.4712
G1 X41.6979 Y-227.1940
G1 X42.4742 Y-227.1277
G1 Z0.0000 F2500.0
G4 P0.02
G0 X45.8768 Y-227.1277 F15000.0
G1 Z11.9000 F2500.0
G4 P0.02
G1 X46.6125 Y-228.2313 F12000.0
G1 X46.2907 Y-227.4956
G1 X45.8768 Y-227.1277
G1 X45.1871 Y-227.1277
G1 X44.6353 Y-227.5416
G1 X44.4514 Y-228.0014
G1 X44.3594 Y-229.7487
G1 X44.7273 Y-230.7603
G1 X45.7389 Y-231.0822
G1 X46.3826 Y-230.5764
G1 X46.3366 Y-230.6683
G1 Z0.0000 F2500.0
G4 P0.02
G0 X46.5206 Y-230.2545
G1 Z11.9000 F2500.0
G4 P0.02
G1 X46.4746 Y-230.3465
G1 X46.5665 Y-230.0706
G1 Z0.0000 F2500.0
G4 P0.02
G0 X46.5665 Y-228.1393 F15000.0
G1 Z11.9000 F2500.0
G4 P0.02
G1 X46.6125 Y-228.2313 F12000.0
G1 Z0.0000 F2500.0
G4 P0.02
G0 X46.6125 Y-229.9786 F15000.0
G1 Z11.9000 F2500.0
G4 P0.02
G1 X46.2796 Y-230.7358 F12000.0
G1 X45.8768 Y-231.0362
G1 Z0.0000 F2500.0
G4 P0.02
G0 X51.4548 Y-230.6901 F15000.0
G1 Z11.9000 F2500.0
G4 P0.02
G1 X51.7625 Y-229.9786 F12000.0
G1 Z0.0000 F2500.0
G4 P0.02
G0 X51.7625 Y-228.2313 F15000.0
G1 Z11.9000 F2500.0
G4 P0.02
G1 X51.0174 Y-227.1663 F12000.0
G1 X50.3298 Y-227.1564
G1 X49.7870 Y-227.5769
G1 X49.5962 Y-228.1277
G1 X49.5197 Y-229.6785
G1 X49.7420 Y-230.4796
G1 X49.8850 Y-230.7352
G1 X50.7590 Y-231.0383
G1 X50.9809 Y-231.0345
G1 X51.5114 Y-230.6071
G1 X51.6456 Y-230.3044
G1 X51.8012 Y-229.4987
G1 X51.7393 Y-228.1890
G1 X51.5022 Y-227.5839
G1 X51.0268 Y-227.1277
G1 Z0.0000 F2500.0
G4 P0.02
G0 X54.4294 Y-227.1277 F15000.0
G1 Z11.9000 F2500.0
G4 P0.02
G1 X55.1651 Y-228.2313 F12000.0
G1 X54.8433 Y-227.4956
G1 X54.4294 Y-227.1277
G1 X53.7397 Y-227.1277
G1 X53.1879 Y-227.5416
G1 X53.0040 Y-228.0014
G1 X52.9120 Y-229.7487
G1 X53.2799 Y-230.7603
G1 X54.2915 Y-231.0822
G1 X54.9352 Y-230.5764
G1 X54.8893 Y-230.6683
G1 Z0.0000 F2500.0
G4 P0.02
G0 X55.0732 Y-230.2545
G1 Z11.9000 F2500.0
G4 P0.02
G1 X55.0272 Y-230.3465
G1 X55.2111 Y-229.5188
G1 Z0.0000 F2500.0
G4 P0.02
G0 X55.1192 Y-228.1393 F15000.0
G1 Z11.9000 F2500.0
G4 P0.02
G1 X55.1651 Y-228.2313 F12000.0
G1 Z0.0000 F2500.0
G4 P0.02
G0 X55.1651 Y-229.9786 F15000.0
G1 Z11.9000 F2500.0
G4 P0.02
G1 X54.8322 Y-230.7358 F12000.0
G1 X54.4294 Y-231.0362
G1 Z0.0000 F2500.0
G4 P0.02
G0 X58.7517 Y-228.8751 F15000.0
G1 Z11.9000 F2500.0
G4 P0.02
G1 X58.2384 Y-229.4279 F12000.0
G1 X58.0879 Y-230.1171
G1 X58.1569 Y-230.4564
G1 X58.4563 Y-230.8426
G1 X58.8280 Y-231.0030
G1 X59.5348 Y-231.0519
G1 X60.0761 Y-230.7209
G1 X59.6254 Y-231.0362
G1 Z0.0000 F2500.0
G4 P0.02
G0 X59.3035 Y-228.9670 F15000.0
G1 Z11.9000 F2500.0
G4 P0.02
G1 X58.7423 Y-228.8266 F12000.0
G1 X58.3795 Y-228.3899
G1 X58.2774 Y-228.0609
G1 X58.5194 Y-227.4208
G1 X59.6487 Y-227.1747
G1 X60.1030 Y-227.5400
G1 X60.2632 Y-227.7912
G1 Z0.0000 F2500.0
G4 P0.02
G0 X60.1214 Y-227.5681 F15000.0
G1 Z11.9000 F2500.0
G4 P0.02
G1 X60.2691 Y-227.8635 F12000.0
G1 Z0.0000 F2500.0
G4 P0.02
G0 X61.9245 Y-227.8635 F15000.0
G1 Z11.9000 F2500.0
G4 P0.02
G1 X62.6602 Y-229.2429 F12000.0
G1 Z0.0000 F2500.0
G4 P0.02
G0 X63.1660 Y-231.0362 F15000.0
G1 Z11.9000 F2500.0
G4 P0.02
G1 X63.0085 Y-230.2153 F12000.0
G1 X62.5959 Y-229.0939
G1 X61.6817 Y-227.3075
G1 X61.7179 Y-227.2222
G1 X63.8097 Y-227.1737
G1 Z0.0000 F2500.0
G4 P0.02
G0 X68.1780 Y-227.1277 F15000.0
G1 Z11.9000 F2500.0
G4 P0.02
G1 X67.0285 Y-230.7603 F12000.0
G1 X66.9365 Y-230.6224
G1 X66.9825 Y-230.7143
G1 X68.0401 Y-231.0822
G1 X68.6838 Y-230.5764
G1 X68.6378 Y-230.6683
G1 Z0.0000 F2500.0
G4 P0.02
G0 X68.8218 Y-230.2545
G1 Z11.9000 F2500.0
G4 P0.02
G1 X68.7758 Y-230.3465
G1 X68.9597 Y-229.5188
G1 X68.9137 Y-228.2313
G1 X68.5918 Y-227.4956
G1 X68.1780 Y-227.1277
G1 X67.4883 Y-227.1277
G1 X66.9365 Y-227.5416
G1 X66.7526 Y-228.0014
G1 X66.6606 Y-229.7487
G1 X66.8905 Y-230.5304
G1 Z0.0000 F2500.0
G4 P0.02
G0 X68.8677 Y-228.1393 F15000.0
G1 Z11.9000 F2500.0
G4 P0.02
G1 X68.9137 Y-228.2313 F12000.0
G1 Z0.0000 F2500.0
G4 P0.02
G0 X68.9137 Y-229.9786 F15000.0
G1 Z11.9000 F2500.0
G4 P0.02
G1 X68.5808 Y-230.7358 F12000.0
G1 X68.1780 Y-231.0362
G1 Z0.0000 F2500.0
G4 P0.02
G0 X71.5807 Y-231.0362 F15000.0
G1 Z11.9000 F2500.0
G4 P0.02
G1 X72.0087 Y-230.6901 F12000.0
G1 X72.3164 Y-229.9786
G1 Z0.0000 F2500.0
G4 P0.02
G0 X73.6039 Y-229.7027 F15000.0
G1 Z11.9000 F2500.0
G4 P0.02
G1 X73.5709 Y-228.4173 F12000.0
G1 X72.3320 Y-228.2024
G1 X71.5700 Y-227.1652
G1 X70.8820 Y-227.1572
G1 X70.4090 Y-227.4948
G1 X70.1663 Y-228.0122
G1 X70.0737 Y-229.6803
G1 X70.3884 Y-230.6740
G1 X70.5234 Y-230.7838
G1 X71.4277 Y-231.0554
G1 X72.0662 Y-230.6055
G1 X72.2757 Y-229.8484
G1 X72.2893 Y-228.1797
G1 X72.0970 Y-227.6424
G1 X71.5807 Y-227.1277
G1 Z0.0000 F2500.0
G4 P0.02
G0 X75.6271 Y-228.3233 F15000.0
G1 Z11.9000 F2500.0
G4 P0.02
G1 X75.5225 Y-229.3898 F12000.0
G1 X75.2886 Y-229.7296
G1 X74.9849 Y-229.8654
G1 X73.8043 Y-229.7310
G1 X73.6312 Y-229.7722
G1 X73.6039 Y-230.9902
G1 Z0.0000 F2500.0
G4 P0.02
G0 X76.8226 Y-230.9902 F15000.0
G1 Z11.9000 F2500.0
G4 P0.02
G1 X77.0993 Y-227.6792 F12000.0
G1 X76.9409 Y-227.3407
G1 X77.3843 Y-227.9251
G1 X78.5225 Y-230.7381
G1 X80.2949 Y-227.4907
G1 X80.3506 Y-227.4949
G1 X80.4127 Y-227.8018
G1 X80.4552 Y-230.9902
G1 Z0.0000 F2500.0
G4 P0.02
G0 X78.6159 Y-230.8063 F15000.0
G1 Z11.9000 F2500.0
G4 P0.02
G1 X78.5699 Y-230.7603 F12000.0
G1 Z0.0000 F2500.0
G4 P0.02
G0 X38.2775 Y-238.4241 F15000.0
G1 Z11.9000 F2500.0
G4 P0.02
G1 X37.1279 Y-238.4241 F12000.0
G1 Z0.0000 F2500.0
G4 P0.02
G0 X37.7257 Y-238.4241 F15000.0
G1 Z11.9000 F2500.0
G4 P0.02
G1 X37.6797 Y-239.8495 F12000.0
G1 Z0.0000 F2500.0
G4 P0.02
G0 X38.8293 Y-239.8955 F15000.0
G1 Z11.9000 F2500.0
G4 P0.02
G1 X38.8903 Y-238.7437 F12000.0
G1 X39.7869 Y-239.6138
G1 X39.8556 Y-239.4580
G1 X39.9073 Y-238.5533
G1 X39.2715 Y-238.9936
G1 X38.9384 Y-238.6954
G1 X38.8293 Y-238.4701
G1 Z0.0000 F2500.0
G4 P0.02
G0 X39.3811 Y-239.2058 F15000.0
G1 Z11.9000 F2500.0
G4 P0.02
G1 X39.7029 Y-239.6196 F12000.0
G1 Z0.0000 F2500.0
G4 P0.02
G0 X40.6685 Y-239.8495 F15000.0
G1 Z11.9000 F2500.0
G4 P0.02
G1 X40.7274 Y-237.8693 F12000.0
G1 X41.9560 Y-239.8495
G1 Z0.0000 F2500.0
G4 P0.02
G0 X27.7533 Y-238.3431 F15000.0
G1 Z11.9000 F2500.0
G4 P0.02
G1 X27.8256 Y-238.5913 F12000.0
G1 X27.6917 Y-238.2235
G1 X27.3708 Y-237.7959
G1 X27.4299 Y-238.0427
G1 X27.2934 Y-239.4926
G1 Z0.0000 F2500.0
G4 P0.02
G0 X28.1671 Y-239.3087 F15000.0
G1 Z11.9000 F2500.0
G4 P0.02
G1 X28.2164 Y-239.3481 F12000.0
G1 X27.8861 Y-238.7401
G1 X28.1362 Y-239.2754
G1 X28.2914 Y-239.2612
G1 X29.0382 Y-237.8464
G1 X29.1109 Y-237.9458
G1 X29.1787 Y-239.5386
G1 Z0.0000 F2500.0
G4 P0.02
G0 X26.4658 Y-238.2511 F15000.0
G1 Z11.9000 F2500.0
G4 P0.02
G1 X26.2756 Y-238.1628 F12000.0
G1 X25.6217 Y-238.7009
G1 X26.4695 Y-238.9755
G1 X26.6149 Y-239.2721
G1 X26.4538 Y-239.5511
G1 X26.2418 Y-239.5977
G1 X25.5908 Y-239.4085
G1 X25.5150 Y-239.4551
G1 X25.5647 Y-238.8387
G1 X24.8475 Y-238.5025
G1 X24.8791 Y-239.0440
G1 X24.6992 Y-239.4634
G1 X24.4068 Y-239.6022
G1 X23.8908 Y-239.4466
G1 Z0.0000 F2500.0
G4 P0.02
G0 X23.8448 Y-238.3431 F15000.0
G1 Z11.9000 F2500.0
G4 P0.02
G1 X24.0349 Y-238.1689 F12000.0
G1 X24.4844 Y-238.1402
G1 X24.7039 Y-238.2926
G1 X24.3673 Y-238.1484
G1 X23.2839 Y-238.4923
G1 X23.3122 Y-239.0590
G1 X23.1246 Y-239.4715
G1 X22.8286 Y-239.6033
G1 X22.3923 Y-239.4527
G1 X22.2895 Y-239.2711
G1 X22.3103 Y-238.3164
G1 X22.5554 Y-238.1338
G1 X23.0016 Y-238.1848
G1 X23.2011 Y-238.3431
G1 Z0.0000 F2500.0
G4 P0.02
G0 X21.5917 Y-238.2511 F15000.0
G1 Z11.9000 F2500.0
G4 P0.02
G1 X21.4015 Y-238.1628 F12000.0
G1 X20.7476 Y-238.7009
G1 X21.5955 Y-238.9755
G1 X21.7409 Y-239.2721
G1 X21.5797 Y-239.5511
G1 X21.3678 Y-239.5977
G1 X20.7167 Y-239.4085
G1 X20.6409 Y-239.4551
G1 X20.6721 Y-238.8029
G1 Z0.0000 F2500.0
G4 P0.02
G0 X1.8098 Y-237.7661 F15000.0
G1 Z11.9000 F2500.0
G4 P0.02
G1 X2.8430 Y-238.0469 F12000.0
G1 X3.0502 Y-238.3493
G1 X3.0516 Y-238.6663
G1 X2.0574 Y-238.6421
G1 X1.8153 Y-239.0143
G1 X1.7816 Y-239.2467
G1 X1.8481 Y-239.4518
G1 X2.5293 Y-240.0636
G1 X2.7868 Y-239.8906
G1 X3.0581 Y-238.8767
G1 X2.7663 Y-238.6305
G1 X3.0514 Y-238.8237
G1 Z0.0000 F2500.0
G4 P0.02
G0 X3.8330 Y-239.0996 F15000.0
G1 Z11.9000 F2500.0
G4 P0.02
G1 X3.8026 Y-239.6925 F12000.0
G1 X3.8859 Y-239.8972
G1 X4.4752 Y-240.0797
G1 X4.9087 Y-239.8211
G1 X3.9597 Y-239.1769
G1 X3.8434 Y-239.0014
G1 X3.8825 Y-238.6748
G1 X4.5444 Y-238.5233
G1 X4.7967 Y-238.5844
G1 X4.7067 Y-238.5018
G1 Z0.0000 F2500.0
G4 P0.02
G0 X5.4884 Y-238.5018 F15000.0
G1 Z11.9000 F2500.0
G4 P0.02
G1 X6.6379 Y-238.5018 F12000.0
G1 Z0.0000 F2500.0
G4 P0.02
G0 X7.1437 Y-238.5478 F15000.0
G1 Z11.9000 F2500.0
G4 P0.02
G1 X8.1094 Y-240.0192 F12000.0
G1 Z0.0000 F2500.0
G4 P0.02
G0 X8.1553 Y-238.5478 F15000.0
G1 Z11.9000 F2500.0
G4 P0.02
G1 X8.1779 Y-239.9663 F12000.0
G1 X8.3401 Y-240.0478
G1 X8.9307 Y-239.9902
G1 X9.0968 Y-239.9014
G1 X9.1210 Y-238.5478
G1 Z0.0000 F2500.0
G4 P0.02
G0 X9.7647 Y-238.7777 F15000.0
G1 Z11.9000 F2500.0
G4 P0.02
G1 X9.9922 Y-238.5281 F12000.0
G1 X10.5576 Y-238.5498
G1 X10.7803 Y-238.8127
G1 X10.8939 Y-239.3892
G1 X10.6642 Y-239.9187
G1 X10.2478 Y-240.0756
G1 X9.9225 Y-239.9561
G1 X9.7596 Y-239.7702
G1 X9.8107 Y-239.8813
G1 Z0.0000 F2500.0
G4 P0.02
G0 X11.5580 Y-239.8353 F15000.0
G1 Z11.9000 F2500.0
G4 P0.02
G1 X11.5566 Y-239.1929 F12000.0
G1 X11.6205 Y-239.8944
G1 X12.2132 Y-240.0760
G1 X12.6283 Y-239.8135
G1 X11.6729 Y-239.1687
G1 X11.5650 Y-238.9887
G1 X11.6161 Y-238.6657
G1 X12.2837 Y-238.5220
G1 X12.5187 Y-238.5795
G1 X12.4316 Y-238.5018
G1 Z0.0000 F2500.0
G4 P0.02
G0 X13.5812 Y-238.1340 F15000.0
G1 Z11.9000 F2500.0
G4 P0.02
G1 X13.9545 Y-238.7425 F12000.0
G1 X13.5939 Y-238.2271
G1 X13.4892 Y-240.0192
G1 Z0.0000 F2500.0
G4 P0.02
G0 X14.4089 Y-239.8353 F15000.0
G1 Z11.9000 F2500.0
G4 P0.02
G1 X14.1747 Y-239.3621 F12000.0
G1 X14.2516 Y-239.6222
G1 X14.0771 Y-239.0877
G1 X14.4480 Y-239.7658
G1 X15.2327 Y-238.3642
G1 X15.4064 Y-238.1868
G1 X15.3862 Y-238.0797
G1 X15.4665 Y-239.9732
G1 Z0.0000 F2500.0
G4 P0.02
G0 X6.0402 Y-240.0192 F15000.0
G1 Z11.9000 F2500.0
G4 P0.02
G1 X6.0862 Y-238.5018 F12000.0
G1 Z0.0000 F2500.0
G4 P0.02
G0 X2.9134 Y-239.8353 F15000.0
G1 Z11.9000 F2500.0
G4 P0.02
G1 X2.7755 Y-239.9732 F12000.0
G1 Z0.0000 F2500.0
G4 P0.02
G0 X102.2914 Y-240.9371 F15000.0
G1 Z11.9000 F2500.0
G4 P0.02
G1 X102.9293 Y-241.2436 F12000.0
G1 X103.4780 Y-242.2573
G1 X103.9296 Y-242.8022
G1 X103.5402 Y-242.3834
G1 X103.8581 Y-242.7454
G1 X103.8937 Y-242.9460
G1 X103.2429 Y-243.7392
G1 X102.5345 Y-244.8780
G1 X101.9231 Y-245.1676
G1 X101.1099 Y-244.8304
G1 X99.0396 Y-242.2276
G1 X98.9807 Y-244.9375
G1 Z0.0000 F2500.0
G4 P0.02
G0 X97.3713 Y-243.7420 F15000.0
G1 Z11.9000 F2500.0
G4 P0.02
G1 X97.2794 Y-243.6500 F12000.0
G1 Z0.0000 F2500.0
G4 P0.02
G0 X97.2334 Y-242.2706 F15000.0
G1 Z11.9000 F2500.0
G4 P0.02
G1 X97.4799 Y-242.6103 F12000.0
G1 X97.3692 Y-242.4250
G1 X97.0749 Y-242.2432
G1 X96.4975 Y-242.1009
G1 X96.0366 Y-242.1758
G1 X95.5531 Y-242.5114
G1 X95.4618 Y-243.1888
G1 X95.5982 Y-243.3113
G1 X97.1165 Y-243.6280
G1 X97.4165 Y-243.7794
G1 X97.5835 Y-244.0178
G1 X97.6664 Y-244.3585
G1 X97.6251 Y-244.5820
G1 X97.4901 Y-244.7535
G1 X96.5842 Y-245.0059
G1 X95.5254 Y-244.6075
G1 X95.9084 Y-244.7988
G1 X95.9030 Y-244.8573
G1 X95.0939 Y-245.1666
G1 X95.4218 Y-244.5092
G1 X95.4401 Y-243.2822
G1 Z0.0000 F2500.0
G4 P0.02
G0 X94.0147 Y-244.9375 F15000.0
G1 Z11.9000 F2500.0
G4 P0.02
G1 X93.8748 Y-242.2212 F12000.0
G1 X91.9455 Y-244.8915
G1 Z0.0000 F2500.0
G4 P0.02
G0 X90.4281 Y-243.7420 F15000.0
G1 Z11.9000 F2500.0
G4 P0.02
G1 X90.3361 Y-243.6500 F12000.0
G1 Z0.0000 F2500.0
G4 P0.02
G0 X90.2901 Y-242.2706 F15000.0
G1 Z11.9000 F2500.0
G4 P0.02
G1 X90.5367 Y-242.6103 F12000.0
G1 X90.2402 Y-242.2875
G1 X89.4363 Y-242.1016
G1 X89.0933 Y-242.1758
G1 X88.6099 Y-242.5114
G1 X88.5118 Y-243.0807
G1 X88.5632 Y-243.2679
G1 X90.3877 Y-243.7180
G1 X90.5679 Y-243.8989
G1 X90.7198 Y-244.4524
G1 X90.6384 Y-244.6647
G1 X90.4637 Y-244.7931
G1 X89.7761 Y-244.9899
G1 X89.4340 Y-244.9583
G1 X88.5919 Y-244.6088
G1 X88.8796 Y-244.7302
G1 X88.9698 Y-244.8479
G1 X88.1466 Y-245.1282
G1 X88.4927 Y-244.4151
G1 X88.4750 Y-243.3650
G1 X88.4150 Y-243.3138
G1 X87.0124 Y-243.4651
G1 X85.0022 Y-243.5121
G1 Z0.0000 F2500.0
G4 P0.02
G0 X84.9562 Y-242.2246 F15000.0
G1 Z11.9000 F2500.0
G4 P0.02
G1 X84.9562 Y-244.9375 F12000.0
G1 Z0.0000 F2500.0
G4 P0.02
G0 X87.0714 Y-244.9375 F15000.0
G1 Z11.9000 F2500.0
G4 P0.02
G1 X87.0714 Y-242.2246 F12000.0
G1 Z0.0000 F2500.0
G4 P0.02
G0 X103.9927 Y-242.8683 F15000.0
G1 Z11.9000 F2500.0
G4 P0.02
G1 X104.8204 Y-242.8224 F12000.0
G1 Z0.0000 F2500.0
G4 P0.02
G0 X104.8204 Y-240.9831 F15000.0
G1 Z11.9000 F2500.0
G4 P0.02
G1 X104.8204 Y-244.8915 F12000.0
G1 Z0.0000 F2500.0
G4 P0.02
G0 X75.9122 Y-240.7532 F15000.0
G1 Z11.9000 F2500.0
G4 P0.02
G1 X77.4387 Y-241.0434 F12000.0
G1 X77.9548 Y-241.2672
G1 X78.2594 Y-241.7450
G1 X78.3356 Y-242.6496
G1 X78.2588 Y-242.6822
G1 X76.9620 Y-242.1669
G1 X76.5110 Y-242.3027
G1 X76.2418 Y-242.4747
G1 X76.1056 Y-242.7803
G1 X75.8912 Y-243.9494
G1 X76.2503 Y-244.6795
G1 X77.2644 Y-244.9932
G1 X77.5828 Y-244.9229
G1 X78.3209 Y-243.1776
G1 X78.2927 Y-242.8361
G1 X78.0602 Y-242.5910
G1 X78.3032 Y-242.7764
G1 Z0.0000 F2500.0
G4 P0.02
G0 X78.0733 Y-244.5237 F15000.0
G1 Z11.9000 F2500.0
G4 P0.02
G1 X77.7835 Y-244.8317 F12000.0
G1 X77.5805 Y-244.9218
G1 X76.5107 Y-244.8884
G1 X76.2340 Y-244.7076
G1 Z0.0000 F2500.0
G4 P0.02
G0 X74.6247 Y-246.1790 F15000.0
G1 Z11.9000 F2500.0
G4 P0.02
G1 X74.5452 Y-242.6131 F12000.0
G1 X73.8316 Y-242.2214
G1 X73.4907 Y-242.1165
G1 X73.1419 Y-242.1370
G1 X72.7359 Y-242.3697
G1 X72.4267 Y-242.8738
G1 X72.3446 Y-243.9361
G1 X72.6134 Y-244.5935
G1 X73.0696 Y-244.9463
G1 X73.6574 Y-245.0079
G1 X74.4889 Y-244.6568
G1 X73.7970 Y-244.9835
G1 Z0.0000 F2500.0
G4 P0.02
G0 X74.3948 Y-242.4545 F15000.0
G1 Z11.9000 F2500.0
G4 P0.02
G1 X74.1559 Y-242.3887 F12000.0
G1 X74.5104 Y-242.4949
G1 X74.6247 Y-242.1786
G1 Z0.0000 F2500.0
G4 P0.02
G0 X71.0381 Y-242.6844 F15000.0
G1 Z11.9000 F2500.0
G4 P0.02
G1 X70.9627 Y-242.5034 F12000.0
G1 X70.7233 Y-242.2947
G1 X70.0394 Y-242.1029
G1 X69.5771 Y-242.1701
G1 X69.0336 Y-242.5987
G1 X69.0261 Y-243.2623
G1 X70.8491 Y-243.7121
G1 X71.1065 Y-244.0068
G1 X71.1915 Y-244.4596
G1 X71.0298 Y-244.7474
G1 X70.1255 Y-245.0071
G1 X69.0323 Y-244.6214
G1 X68.8735 Y-244.7226
G1 X68.5551 Y-245.2134
G1 Z0.0000 F2500.0
G4 P0.02
G0 X69.5207 Y-244.8456 F15000.0
G1 Z11.9000 F2500.0
G4 P0.02
G1 X69.0939 Y-244.5870 F12000.0
G1 X68.9776 Y-244.4173
G1 X68.9689 Y-243.2822
G1 Z0.0000 F2500.0
G4 P0.02
G0 X68.0033 Y-242.1326 F15000.0
G1 Z11.9000 F2500.0
G4 P0.02
G1 X66.9791 Y-242.2279 F12000.0
G1 X66.9457 Y-244.9375
G1 Z0.0000 F2500.0
G4 P0.02
G0 X64.8305 Y-244.9375 F15000.0
G1 Z11.9000 F2500.0
G4 P0.02
G1 X64.8305 Y-242.2246 F12000.0
G1 Z0.0000 F2500.0
G4 P0.02
G0 X65.8421 Y-242.1326 F15000.0
G1 Z11.9000 F2500.0
G4 P0.02
G1 X66.8997 Y-242.1786 F12000.0
G1 Z0.0000 F2500.0
G4 P0.02
G0 X64.8305 Y-243.4661 F15000.0
G1 Z11.9000 F2500.0
G4 P0.02
G1 X62.7613 Y-243.5121 F12000.0
G1 Z0.0000 F2500.0
G4 P0.02
G0 X62.7154 Y-242.2246 F15000.0
G1 Z11.9000 F2500.0
G4 P0.02
G1 X62.7154 Y-244.9375 F12000.0
G1 Z0.0000 F2500.0
G4 P0.02
G0 X61.2439 Y-243.3741 F15000.0
G1 Z11.9000 F2500.0
G4 P0.02
G1 X59.8150 Y-243.4977 F12000.0
G1 X59.4461 Y-243.6242
G1 X59.5644 Y-243.5527
G1 X59.3701 Y-243.7242
G1 X59.1669 Y-244.2732
G1 X59.3157 Y-244.7003
G1 X59.6895 Y-244.9361
G1 X59.8236 Y-244.9416
G1 X61.1968 Y-243.4901
G1 X61.2439 Y-242.2246
G1 Z0.0000 F2500.0
G4 P0.02
G0 X58.1632 Y-242.2246 F15000.0
G1 Z11.9000 F2500.0
G4 P0.02
G1 X58.1632 Y-244.9375 F12000.0
G1 Z0.0000 F2500.0
G4 P0.02
G0 X56.6917 Y-244.8456 F15000.0
G1 Z11.9000 F2500.0
G4 P0.02
G1 X56.5823 Y-244.6455 F12000.0
G1 X56.0959 Y-244.3458
G1 X55.1366 Y-242.8019
G1 X56.1453 Y-244.3610
G1 X56.4452 Y-244.5344
G1 X56.6186 Y-244.5485
G1 X56.7037 Y-242.2136
G1 X56.0573 Y-241.2687
G1 X56.1546 Y-241.1402
G1 X55.7812 Y-241.3298
G1 X55.0999 Y-241.2032
G1 X54.8985 Y-240.8911
G1 Z0.0000 F2500.0
G4 P0.02
G0 X54.5766 Y-242.2706 F15000.0
G1 Z11.9000 F2500.0
G4 P0.02
G1 X54.6842 Y-242.4753 F12000.0
G1 X54.8596 Y-242.5960
G1 X54.7195 Y-242.5569
G1 X54.5766 Y-244.9375
G1 Z0.0000 F2500.0
G4 P0.02
G0 X55.9101 Y-244.0179 F15000.0
G1 Z11.9000 F2500.0
G4 P0.02
G1 X56.0940 Y-244.2938 F12000.0
G1 Z0.0000 F2500.0
G4 P0.02
G0 X69.6126 Y-244.8456 F15000.0
G1 Z11.9000 F2500.0
G4 P0.02
G1 X69.6126 Y-244.8915 F12000.0
G1 Z0.0000 F2500.0
G4 P0.02
G0 X79.5447 Y-244.1558 F15000.0
G1 Z11.9000 F2500.0
G4 P0.02
G1 X79.7681 Y-244.5948 F12000.0
G1 X79.5112 Y-244.0136
G1 X79.5850 Y-242.9507
G1 X80.0002 Y-242.3272
G1 X80.2937 Y-242.1726
G1 X80.7612 Y-242.1048
G1 X81.2268 Y-242.1907
G1 X81.4885 Y-242.3501
G1 X81.4016 Y-242.2775
G1 Z0.0000 F2500.0
G4 P0.02
G0 X81.6966 Y-242.6116 F15000.0
G1 Z11.9000 F2500.0
G4 P0.02
G1 X81.3148 Y-242.2367 F12000.0
G1 X81.7787 Y-242.7684
G1 X81.9414 Y-243.2095
G1 X81.9544 Y-243.9228
G1 X81.6872 Y-244.5804
G1 X81.3788 Y-244.8725
G1 X80.9468 Y-245.0092
G1 X80.2411 Y-244.9022
G1 X79.8803 Y-244.7178
G1 X80.1425 Y-244.9375
G1 Z0.0000 F2500.0
G4 P0.02
G0 X148.9111 Y-242.5108 F15000.0
G1 Z11.9000 F2500.0
G4 P0.02
G1 X148.9400 Y-243.8867 F12000.0
G1 X149.0828 Y-243.9539
G1 X149.3082 Y-243.9007
G1 X149.0361 Y-244.0205
G1 X149.5153 Y-243.5841
G1 X149.4893 Y-243.6388
G1 X149.5804 Y-243.4133
G1 X150.1141 Y-242.8480
G1 X150.2636 Y-242.8361
G1 X150.2905 Y-244.2581
G1 Z0.0000 F2500.0
G4 P0.02
G0 X149.5548 Y-243.5224 F15000.0
G1 Z11.9000 F2500.0
G4 P0.02
G1 X149.9537 Y-242.9574 F12000.0
G1 X150.1986 Y-242.7867
G1 Z0.0000 F2500.0
G4 P0.02
G0 X148.4513 Y-243.1545 F15000.0
G1 Z11.9000 F2500.0
G4 P0.02
G1 X148.3930 Y-243.5929 F12000.0
G1 X147.8675 Y-243.6347
G1 X147.9307 Y-243.7932
G1 X147.7550 Y-244.1057
G1 X147.9740 Y-243.8481
G1 X148.3739 Y-243.7225
G1 X148.0145 Y-243.7705
G1 X147.7483 Y-243.5206
G1 X147.7964 Y-243.1440
G1 X147.8932 Y-242.9821
G1 X148.0506 Y-242.9075
G1 X148.2673 Y-242.9706
G1 Z0.0000 F2500.0
G4 P0.02
G0 X146.4079 Y-244.2581 F15000.0
G1 Z11.9000 F2500.0
G4 P0.02
G1 X145.4757 Y-244.2719 F12000.0
G1 X145.4193 Y-244.2005
G1 X145.4953 Y-243.0604
G1 X146.5532 Y-244.4179
G1 X146.5548 Y-244.6077
G1 X145.3743 Y-244.2901
G1 X145.1353 Y-244.6694
G1 X144.0273 Y-244.2926
G1 X143.7025 Y-244.1092
G1 X143.0796 Y-244.1892
G1 X142.9974 Y-243.6602
G1 X142.6084 Y-243.4098
G1 X142.2020 Y-242.9991
G1 X141.9787 Y-242.9734
G1 X141.7970 Y-243.0553
G1 X141.4441 Y-243.9038
G1 X141.0520 Y-243.7779
G1 X140.7787 Y-243.0433
G1 X140.7923 Y-243.1635
G1 X140.2982 Y-243.3180
G1 X140.2590 Y-244.1999
G1 X139.6381 Y-244.2211
G1 X139.1926 Y-243.4251
G1 X139.0471 Y-243.3120
G1 X138.9129 Y-244.2581
G1 Z0.0000 F2500.0
G4 P0.02
G0 X139.6026 Y-244.0742 F15000.0
G1 Z11.9000 F2500.0
G4 P0.02
G1 X140.2004 Y-243.2005 F12000.0
G1 Z0.0000 F2500.0
G4 P0.02
G0 X141.1200 Y-243.9822 F15000.0
G1 Z11.9000 F2500.0
G4 P0.02
G1 X141.3643 Y-243.9863 F12000.0
G1 X141.0522 Y-243.7712
G1 X140.9640 Y-243.5597
G1 X141.4141 Y-244.7165
G1 X141.7178 Y-244.9478
G1 Z0.0000 F2500.0
G4 P0.02
G0 X142.3155 Y-244.2581 F15000.0
G1 Z11.9000 F2500.0
G4 P0.02
G1 X142.5966 Y-243.5715 F12000.0
G1 X142.6046 Y-243.7081
G1 X143.0135 Y-243.5353
G1 X143.0512 Y-243.0166
G1 Z0.0000 F2500.0
G4 P0.02
G0 X143.7410 Y-243.1545 F15000.0
G1 Z11.9000 F2500.0
G4 P0.02
G1 X143.9524 Y-243.0130 F12000.0
G1 X143.7572 Y-243.3325
G1 X143.6762 Y-243.8014
G1 X143.7303 Y-244.0068
G1 X144.1110 Y-244.2565
G1 X144.3396 Y-244.2717
G1 X144.5441 Y-244.1766
G1 X144.6771 Y-244.0041
G1 X144.7712 Y-243.6708
G1 X144.6473 Y-243.2203
G1 X144.4813 Y-243.0719
G1 X144.0169 Y-242.9706
G1 Z0.0000 F2500.0
G4 P0.02
G0 X144.5686 Y-243.0626 F15000.0
G1 Z11.9000 F2500.0
G4 P0.02
G1 X144.6146 Y-243.1545 F12000.0
G1 Z0.0000 F2500.0
G4 P0.02
G0 X128.4872 Y-244.1441 F15000.0
G1 Z11.9000 F2500.0
G4 P0.02
G1 X128.5860 Y-242.3962 F12000.0
G1 X129.8667 Y-244.1441
G1 Z0.0000 F2500.0
G4 P0.02
G0 X127.1078 Y-242.8567 F15000.0
G1 Z11.9000 F2500.0
G4 P0.02
G1 X127.6597 Y-242.9957 F12000.0
G1 X127.8652 Y-243.5909
G1 X127.7541 Y-243.9227
G1 X127.6094 Y-244.0852
G1 X127.2826 Y-244.1598
G1 X126.8959 Y-244.0191
G1 X126.9368 Y-244.0880
G1 X126.7701 Y-243.8283
G1 X126.8706 Y-243.1326
G1 X127.0364 Y-242.9058
G1 X126.8319 Y-243.0406
G1 Z0.0000 F2500.0
G4 P0.02
G0 X126.3721 Y-244.1901 F15000.0
G1 Z11.9000 F2500.0
G4 P0.02
G1 X126.3980 Y-244.4795 F12000.0
G1 X126.1536 Y-244.0383
G1 X125.3086 Y-242.9379
G1 X125.2529 Y-244.1071
G1 X125.3225 Y-244.1650
G1 X126.1448 Y-244.1455
G1 X125.1543 Y-244.1935
G1 X125.0076 Y-244.5396
G1 X124.4883 Y-244.1306
G1 X123.5961 Y-242.9318
G1 X123.5212 Y-244.1441
G1 Z0.0000 F2500.0
G4 P0.02
G0 X169.0263 Y-242.5960 F15000.0
G1 Z11.9000 F2500.0
G4 P0.02
G1 X168.9339 Y-244.2312 F12000.0
G1 X168.6398 Y-243.9424
G1 X167.9762 Y-243.0227
G1 X168.1585 Y-243.2617
G1 X167.6841 Y-242.7546
G1 X167.7652 Y-243.0030
G1 X167.6642 Y-244.1876
G1 X167.5838 Y-244.3618
G1 X166.6639 Y-244.4014
G1 X166.2564 Y-244.2179
G1 X166.3424 Y-243.8310
G1 X166.4897 Y-243.7448
G1 X166.2958 Y-243.6098
G1 X166.3376 Y-243.1915
G1 X166.6626 Y-243.1209
G1 X166.8876 Y-243.2788
G1 X165.6156 Y-243.4653
G1 X165.6167 Y-244.3122
G1 X165.5213 Y-243.3902
G1 X164.8963 Y-244.2986
G1 X164.5484 Y-243.5926
G1 X164.3492 Y-243.4655
G1 X164.2442 Y-244.3893
G1 Z0.0000 F2500.0
G4 P0.02
G0 X161.7195 Y-242.5501 F15000.0
G1 Z11.9000 F2500.0
G4 P0.02
G1 X160.8267 Y-242.5745 F12000.0
G1 X160.7702 Y-242.6391
G1 X160.6554 Y-244.3421
G1 X160.1116 Y-244.2132
G1 X159.6093 Y-243.9104
G1 X159.0472 Y-243.2363
G1 X159.1905 Y-243.3777
G1 Z0.0000 F2500.0
G4 P0.02
G0 X160.0182 Y-243.1478 F15000.0
G1 Z11.9000 F2500.0
G4 P0.02
G1 X159.9544 Y-244.0736 F12000.0
G1 X159.7737 Y-244.0932
G1 X159.8662 Y-244.1430
G1 Z0.0000 F2500.0
G4 P0.02
G0 X159.7275 Y-244.0836 F15000.0
G1 Z11.9000 F2500.0
G4 P0.02
G1 X159.3993 Y-243.6138 F12000.0
G1 X159.1734 Y-243.4456
G1 X159.0066 Y-244.3893
G1 Z0.0000 F2500.0
G4 P0.02
G0 X157.4892 Y-244.2974 F15000.0
G1 Z11.9000 F2500.0
G4 P0.02
G1 X157.4553 Y-244.2379 F12000.0
G1 X157.8338 Y-244.3996
G1 X158.3304 Y-244.1326
G1 X158.3929 Y-243.7974
G1 X158.2943 Y-243.3539
G1 X157.7542 Y-243.1407
G1 X156.0637 Y-243.1018
G1 Z0.0000 F2500.0
G4 P0.02
G0 X156.5695 Y-243.1018 F15000.0
G1 Z11.9000 F2500.0
G4 P0.02
G1 X156.5236 Y-244.3893 F12000.0
G1 Z0.0000 F2500.0
G4 P0.02
G0 X162.0414 Y-244.4813 F15000.0
G1 Z11.9000 F2500.0
G4 P0.02
G1 X161.8884 Y-244.4110 F12000.0
G1 X161.8130 Y-244.2288
G1 X161.7655 Y-242.6420
G1 Z0.0000 F2500.0
G4 P0.02
G0 X118.2744 Y-242.4275 F15000.0
G1 Z11.9000 F2500.0
G4 P0.02
G1 X117.2929 Y-242.4834 F12000.0
G1 X117.2026 Y-244.4226
G1 X117.0600 Y-244.5056
G1 X117.0038 Y-244.9058
G1 X117.3248 Y-244.4702
G1 X118.4894 Y-244.4313
G1 X118.7697 Y-244.9136
G1 X118.7664 Y-244.6175
G1 X118.5106 Y-244.2748
G1 X118.4145 Y-243.9334
G1 X118.3204 Y-242.5194
G1 Z0.0000 F2500.0
G4 P0.02
G0 X116.2512 Y-243.1172 F15000.0
G1 Z11.9000 F2500.0
G4 P0.02
G1 X116.2910 Y-243.1741 F12000.0
G1 X116.1281 Y-243.0787
G1 X115.6650 Y-243.0490
G1 X115.4640 Y-243.1588
G1 X115.3454 Y-243.3436
G1 X115.4220 Y-243.6247
G1 X116.1027 Y-243.7926
G1 X116.4425 Y-244.2229
G1 X116.2657 Y-244.4853
G1 X116.0430 Y-244.5163
G1 X115.3254 Y-244.3674
G1 X115.3162 Y-243.6841
G1 X114.8796 Y-243.1452
G1 X114.6719 Y-243.0737
G1 X113.7222 Y-243.0712
G1 Z0.0000 F2500.0
G4 P0.02
G0 X114.3200 Y-243.0712 F15000.0
G1 Z11.9000 F2500.0
G4 P0.02
G1 X114.2740 Y-244.4507 F12000.0
G1 Z0.0000 F2500.0
G4 P0.02
G0 X113.0784 Y-243.1172 F15000.0
G1 Z11.9000 F2500.0
G4 P0.02
G1 X113.1183 Y-243.1741 F12000.0
G1 X112.9554 Y-243.0787
G1 X112.4923 Y-243.0490
G1 X112.2145 Y-243.2410
G1 X112.1841 Y-243.5580
G1 X113.0292 Y-243.8434
G1 X113.2697 Y-244.2229
G1 X113.0929 Y-244.4854
G1 X112.1217 Y-244.4470
G1 X112.1838 Y-243.7424
G1 X112.1831 Y-244.4320
G1 X112.4515 Y-244.4737
G1 X112.3887 Y-244.4047
G1 Z0.0000 F2500.0
G4 P0.02
G0 X160.1018 Y-245.5174 F15000.0
G1 Z11.9000 F2500.0
G4 P0.02
G1 X161.0151 Y-245.6948 F12000.0
G1 X161.1331 Y-245.8280
G1 X161.2212 Y-246.1506
G1 X161.1355 Y-247.1349
G1 X160.9991 Y-247.3170
G1 X160.6812 Y-247.4117
G1 X160.3474 Y-247.2992
G1 X160.1787 Y-247.1525
G1 X160.1274 Y-246.9365
G1 X160.2989 Y-246.2594
G1 X160.4905 Y-246.1531
G1 X160.8373 Y-246.1522
G1 X161.0870 Y-246.2754
G1 X160.4566 Y-246.1894
G1 X160.2707 Y-246.2755
G1 X160.1965 Y-246.4632
G1 X160.2397 Y-247.2648
G1 Z0.0000 F2500.0
G4 P0.02
G0 X161.8491 Y-247.4027 F15000.0
G1 Z11.9000 F2500.0
G4 P0.02
G1 X161.9569 Y-247.2334 F12000.0
G1 X161.9122 Y-246.6577
G1 X162.0417 Y-246.2132
G1 X162.2221 Y-246.1555
G1 X162.7565 Y-246.3567
G1 X162.8572 Y-247.1497
G1 X162.7884 Y-247.3507
G1 X162.5889 Y-247.4261
G1 X161.8581 Y-247.3910
G1 X161.9689 Y-246.7651
G1 X162.5654 Y-246.8326
G1 X162.1347 Y-247.3071
G1 X161.9870 Y-247.3107
G1 Z0.0000 F2500.0
G4 P0.02
G0 X163.4584 Y-247.1268 F15000.0
G1 Z11.9000 F2500.0
G4 P0.02
G1 X163.5044 Y-247.2188 F12000.0
G1 Z0.0000 F2500.0
G4 P0.02
G0 X164.4241 Y-247.2648 F15000.0
G1 Z11.9000 F2500.0
G4 P0.02
G1 X163.8585 Y-247.4184 F12000.0
G1 X163.6540 Y-247.3495
G1 X163.4384 Y-247.0233
G1 X163.5323 Y-246.3288
G1 X163.6861 Y-246.1699
G1 X164.1400 Y-246.1731
G1 X164.4013 Y-246.3588
G1 X164.4700 Y-248.0005
G1 Z0.0000 F2500.0
G4 P0.02
G0 X165.7575 Y-247.4027 F15000.0
G1 Z11.9000 F2500.0
G4 P0.02
G1 X165.4230 Y-247.3779 F12000.0
G1 X165.1342 Y-247.2166
G1 X165.2493 Y-246.8268
G1 X165.3891 Y-246.7608
G1 X165.2224 Y-246.6916
G1 X165.1841 Y-246.2642
G1 X165.4650 Y-246.1391
G1 X165.6789 Y-246.1694
G1 X165.8495 Y-246.3451
G1 Z0.0000 F2500.0
G4 P0.02
G0 X166.5852 Y-246.1612 F15000.0
G1 Z11.9000 F2500.0
G4 P0.02
G1 X166.4697 Y-246.6232 F12000.0
G1 X166.4692 Y-247.3476
G1 X166.7649 Y-247.2553
G1 X167.1152 Y-246.8391
G1 X166.5253 Y-246.7575
G1 X166.4111 Y-247.3851
G1 X167.2321 Y-247.4065
G1 X167.3581 Y-246.9411
G1 X167.2405 Y-246.8615
G1 X167.4159 Y-247.2351
G1 X167.3363 Y-246.3787
G1 X166.6772 Y-246.1152
G1 Z0.0000 F2500.0
G4 P0.02
G0 X167.9187 Y-246.2072 F15000.0
G1 Z11.9000 F2500.0
G4 P0.02
G1 X168.0053 Y-245.8570 F12000.0
G1 X169.1313 Y-245.6032
G1 X169.2122 Y-245.7502
G1 X169.2494 Y-247.3185
G1 X169.1526 Y-246.5938
G1 X167.9647 Y-246.2991
G1 Z0.0000 F2500.0
G4 P0.02
G0 X152.8886 Y-247.1867 F15000.0
G1 Z11.9000 F2500.0
G4 P0.02
G1 X152.8380 Y-247.9002 F12000.0
G1 X152.7377 Y-248.1024
G1 X152.4407 Y-248.2632
G1 X151.6420 Y-248.1425
G1 X151.5579 Y-248.2788
G1 X151.5551 Y-248.8978
G1 X151.5189 Y-247.2521
G1 X150.9428 Y-247.7609
G1 X150.5944 Y-248.6226
G1 X150.4185 Y-248.6258
G1 X150.2022 Y-248.5040
G1 X149.9270 Y-247.7674
G1 X149.9401 Y-247.8820
G1 X149.4496 Y-248.0379
G1 X149.4400 Y-248.9800
G1 Z0.0000 F2500.0
G4 P0.02
G0 X150.2676 Y-248.7041 F15000.0
G1 Z11.9000 F2500.0
G4 P0.02
G1 X150.5119 Y-248.7082 F12000.0
G1 X150.1999 Y-248.4932
G1 X150.1117 Y-248.2816
G1 X150.3962 Y-248.8362
G1 X150.5317 Y-249.3825
G1 X150.6661 Y-249.5702
G1 X150.8654 Y-249.6697
G1 Z0.0000 F2500.0
G4 P0.02
G0 X149.3020 Y-247.9684 F15000.0
G1 Z11.9000 F2500.0
G4 P0.02
G1 X148.7705 Y-248.7213 F12000.0
G1 X148.7346 Y-248.8867
G1 X148.3643 Y-248.1845
G1 X148.1657 Y-248.0558
G1 X148.0313 Y-248.9233
G1 X147.3898 Y-248.7634
G1 X147.0018 Y-248.4953
G1 X146.3757 Y-247.7724
G1 X145.8648 Y-247.8130
G1 X145.7001 Y-248.3435
G1 X145.3904 Y-248.4545
G1 X144.9489 Y-248.4753
G1 X144.8878 Y-248.8842
G1 X144.8593 Y-247.8029
G1 X144.2459 Y-248.2577
G1 X143.2317 Y-248.2055
G1 X143.2462 Y-248.0108
G1 X143.3795 Y-247.8387
G1 X143.9362 Y-247.7362
G1 X144.1946 Y-247.9552
G1 X144.2653 Y-248.1754
G1 X144.2007 Y-248.7472
G1 X144.0482 Y-248.8966
G1 X143.4851 Y-248.9863
G1 X142.6367 Y-248.3473
G1 X141.9420 Y-248.3312
G1 X141.6717 Y-248.5086
G1 X141.6297 Y-248.7302
G1 X141.7150 Y-248.9800
G1 Z0.0000 F2500.0
G4 P0.02
G0 X141.7150 Y-247.8304 F15000.0
G1 Z11.9000 F2500.0
G4 P0.02
G1 X141.6042 Y-248.7710 F12000.0
G1 X141.8205 Y-248.9877
G1 X142.4508 Y-248.5087
G1 X142.5503 Y-248.3322
G1 X141.8530 Y-247.6925
G1 Z0.0000 F2500.0
G4 P0.02
G0 X146.4052 Y-248.9800 F15000.0
G1 Z11.9000 F2500.0
G4 P0.02
G1 X146.5984 Y-248.0201 F12000.0
G1 X147.1652 Y-248.6974
G1 X147.3553 Y-248.6595
G1 X147.4168 Y-247.7385
G1 Z0.0000 F2500.0
G4 P0.02
G0 X99.4683 Y-249.9523 F15000.0
G1 Z11.9000 F2500.0
G4 P0.02
G1 X101.4301 Y-250.4357 F12000.0
G1 X101.7447 Y-250.7794
G1 X101.9270 Y-251.7065
G1 X101.8657 Y-251.8903
G1 X101.7351 Y-251.9225
G1 X101.1303 Y-251.5203
G1 X100.4459 Y-251.3523
G1 X100.0006 Y-251.5046
G1 X99.6699 Y-251.8190
G1 X99.4838 Y-252.2394
G1 X99.4434 Y-253.1869
G1 X99.6179 Y-253.6268
G1 X99.9818 Y-254.0497
G1 X100.9055 Y-254.1606
G1 X101.2161 Y-254.0044
G1 X101.5779 Y-253.6760
G1 X101.7035 Y-253.2545
G1 X101.8247 Y-251.9648
G1 X101.1236 Y-251.4697
G1 Z0.0000 F2500.0
G4 P0.02
G0 X103.1928 Y-251.0559 F15000.0
G1 Z11.9000 F2500.0
G4 P0.02
G1 X103.3372 Y-250.6290 F12000.0
G1 X103.8994 Y-250.2184
G1 X104.9615 Y-250.1478
G1 X105.6137 Y-250.4181
G1 X106.1133 Y-251.0719
G1 X106.3035 Y-252.4807
G1 X105.9543 Y-253.4808
G1 X105.5449 Y-253.8925
G1 X105.2335 Y-254.0510
G1 X104.4088 Y-254.1665
G1 X103.9452 Y-254.0677
G1 X103.6054 Y-253.8951
G1 X103.1397 Y-253.2901
G1 X103.4464 Y-253.7732
G1 X103.8179 Y-253.9932
G1 X103.1008 Y-253.2170
G1 Z0.0000 F2500.0
G4 P0.02
G0 X101.5834 Y-253.7228 F15000.0
G1 Z11.9000 F2500.0
G4 P0.02
G1 X101.1236 Y-254.0907 F12000.0
G1 Z0.0000 F2500.0
G4 P0.02
G0 X98.2268 Y-253.4929 F15000.0
G1 Z11.9000 F2500.0
G4 P0.02
G1 X98.3486 Y-252.9119 F12000.0
G1 X98.1482 Y-251.8687
G1 X97.6950 Y-251.4341
G1 X97.0093 Y-251.3080
G1 X96.4579 Y-251.4943
G1 X96.0438 Y-252.0188
G1 X95.9398 Y-253.0828
G1 X96.0424 Y-253.5341
G1 X96.4829 Y-254.0325
G1 X97.2947 Y-254.1667
G1 X97.6285 Y-254.0769
G1 X98.1407 Y-253.6521
G1 X97.8485 Y-253.9707
G1 X97.6591 Y-254.0624
G1 X96.4808 Y-253.9305
G1 X96.2496 Y-253.8148
G1 Z0.0000 F2500.0
G4 P0.02
G0 X94.6402 Y-253.8148 F15000.0
G1 Z11.9000 F2500.0
G4 P0.02
G1 X93.2627 Y-254.1422 F12000.0
G1 X92.8639 Y-253.8978
G1 X92.5764 Y-253.5198
G1 X92.8669 Y-253.9427
G1 X93.0828 Y-254.0822
G1 X92.7830 Y-253.8481
G1 X92.5455 Y-253.4658
G1 X92.4452 Y-253.0052
G1 X92.5328 Y-252.0559
G1 X92.8290 Y-251.5575
G1 X93.2444 Y-251.3328
G1 X94.0486 Y-251.4561
G1 X94.4761 Y-251.6659
G1 X94.6204 Y-251.8158
G1 X94.6862 Y-255.3322
G1 Z0.0000 F2500.0
G4 P0.02
G0 X94.6402 Y-251.6996 F15000.0
G1 Z11.9000 F2500.0
G4 P0.02
G1 X94.6475 Y-251.4582 F12000.0
G1 X94.5027 Y-251.6157
G1 X94.0424 Y-251.4237
G1 Z0.0000 F2500.0
G4 P0.02
G0 X91.2835 Y-252.0215 F15000.0
G1 Z11.9000 F2500.0
G4 P0.02
G1 X91.4029 Y-252.8489 F12000.0
G1 X91.2337 Y-253.5261
G1 X90.7690 Y-254.0451
G1 X91.1954 Y-253.6570
G1 X90.6754 Y-254.0828
G1 X90.3401 Y-254.1670
G1 X89.6345 Y-254.0724
G1 X89.3617 Y-253.8866
G1 X89.1126 Y-253.5531
G1 X88.9961 Y-253.1062
G1 X89.0929 Y-252.0402
G1 X89.3377 Y-251.6512
G1 X89.6975 Y-251.3972
G1 X90.2778 Y-251.3112
G1 X90.8193 Y-251.4714
G1 X91.1916 Y-251.8376
G1 Z0.0000 F2500.0
G4 P0.02
G0 X89.3523 Y-253.8608 F15000.0
G1 Z11.9000 F2500.0
G4 P0.02
G1 X89.4442 Y-253.9987 F12000.0
G1 Z0.0000 F2500.0
G4 P0.02
G0 X88.0648 Y-251.4237 F15000.0
G1 Z11.9000 F2500.0
G4 P0.02
G1 X87.9475 Y-252.4867 F12000.0
G1 X87.6555 Y-252.8478
G1 X87.3349 Y-252.9671
G1 X86.0601 Y-252.8393
G1 X85.9956 Y-254.0907
G1 Z0.0000 F2500.0
G4 P0.02
G0 X85.9956 Y-252.8032 F15000.0
G1 Z11.9000 F2500.0
G4 P0.02
G1 X85.9934 Y-251.6099 F12000.0
G1 X85.9176 Y-251.4465
G1 X84.6610 Y-251.4594
G1 X84.6161 Y-254.0907
G1 Z0.0000 F2500.0
G4 P0.02
G0 X84.6161 Y-252.6652 F15000.0
G1 Z11.9000 F2500.0
G4 P0.02
G1 X82.5929 Y-252.7112 F12000.0
G1 Z0.0000 F2500.0
G4 P0.02
G0 X82.5470 Y-251.4237 F15000.0
G1 Z11.9000 F2500.0
G4 P0.02
G1 X82.5470 Y-254.0907 F12000.0
G1 Z0.0000 F2500.0
G4 P0.02
G0 X81.1675 Y-252.5733 F15000.0
G1 Z11.9000 F2500.0
G4 P0.02
G1 X79.5088 Y-252.7887 F12000.0
G1 X79.1512 Y-253.0485
G1 X79.3125 Y-252.8680
G1 X79.0844 Y-253.2692
G1 X79.1417 Y-253.7201
G1 X79.7005 Y-254.0840
G1 X81.0551 Y-252.7742
G1 X81.1569 Y-252.5773
G1 X81.1675 Y-251.4237
G1 Z0.0000 F2500.0
G4 P0.02
G0 X79.0983 Y-253.6768 F15000.0
G1 Z11.9000 F2500.0
G4 P0.02
G1 X79.0081 Y-253.8059 F12000.0
G1 X78.1321 Y-254.0421
G1 X78.0867 Y-251.4237
G1 Z0.0000 F2500.0
G4 P0.02
G0 X76.6613 Y-251.4237 F15000.0
G1 Z11.9000 F2500.0
G4 P0.02
G1 X76.5879 Y-253.9730 F12000.0
G1 X76.4208 Y-253.7476
G1 X76.0484 Y-253.5083
G1 X75.0600 Y-251.9560
G1 X75.1326 Y-252.0208
G1 X74.6567 Y-251.7849
G1 X74.5461 Y-254.0907
G1 Z0.0000 F2500.0
G4 P0.02
G0 X75.0059 Y-250.4121 F15000.0
G1 Z11.9000 F2500.0
G4 P0.02
G1 X74.9466 Y-250.1884 F12000.0
G1 X75.7813 Y-250.5106
G1 X76.1297 Y-250.2927
G1 X75.9256 Y-250.4581
G1 Z0.0000 F2500.0
G4 P0.02
G0 X62.5707 Y-251.9295 F15000.0
G1 Z11.9000 F2500.0
G4 P0.02
G1 X62.8408 Y-251.5493 F12000.0
G1 X63.3687 Y-251.3120
G1 X63.9504 Y-251.4215
G1 X64.5762 Y-251.7386
G1 X64.6859 Y-255.3322
G1 Z0.0000 F2500.0
G4 P0.02
G0 X64.6399 Y-253.8148 F15000.0
G1 Z11.9000 F2500.0
G4 P0.02
G1 X63.3745 Y-254.1537 F12000.0
G1 X63.1942 Y-254.1281
G1 X62.6572 Y-253.6777
G1 X62.4457 Y-253.0054
G1 X62.5085 Y-252.1737
G1 X62.4440 Y-251.9723
G1 X61.7012 Y-251.3871
G1 X60.6818 Y-251.4124
G1 X60.6395 Y-254.0907
G1 Z0.0000 F2500.0
G4 P0.02
G0 X62.8006 Y-253.8608 F15000.0
G1 Z11.9000 F2500.0
G4 P0.02
G1 X63.1225 Y-254.0907 F12000.0
G1 Z0.0000 F2500.0
G4 P0.02
G0 X64.6859 Y-251.3777 F15000.0
G1 Z11.9000 F2500.0
G4 P0.02
G1 X64.6399 Y-251.6996 F12000.0
G1 Z0.0000 F2500.0
G4 P0.02
G0 X66.0653 Y-253.6308 F15000.0
G1 Z11.9000 F2500.0
G4 P0.02
G1 X66.4017 Y-253.9516 F12000.0
G1 X67.3281 Y-254.1572
G1 X67.7590 Y-254.0225
G1 X68.0774 Y-253.7103
G1 X68.3350 Y-252.9210
G1 X68.2497 Y-252.6433
G1 X66.0319 Y-252.5880
G1 X66.0372 Y-252.0521
G1 X66.2604 Y-251.6629
G1 X66.7583 Y-251.3535
G1 X67.5722 Y-251.3888
G1 X67.7450 Y-251.5379
G1 X68.2837 Y-252.5367
G1 X68.1146 Y-251.8456
G1 X67.9248 Y-251.6187
G1 X67.4908 Y-251.3318
G1 Z0.0000 F2500.0
G4 P0.02
G0 X69.5599 Y-251.4237 F15000.0
G1 Z11.9000 F2500.0
G4 P0.02
G1 X69.5599 Y-252.8032 F12000.0
G1 Z0.0000 F2500.0
G4 P0.02
G0 X69.5599 Y-254.0907 F15000.0
G1 Z11.9000 F2500.0
G4 P0.02
G1 X69.6176 Y-252.8412 F12000.0
G1 X70.8901 Y-252.9676
G1 X71.2123 Y-252.8534
G1 X71.5076 Y-252.4950
G1 X71.6291 Y-251.4237
G1 Z0.0000 F2500.0
G4 P0.02
G0 X60.5935 Y-251.3777 F15000.0
G1 Z11.9000 F2500.0
G4 P0.02
G1 X59.5359 Y-251.3318 F12000.0
G1 Z0.0000 F2500.0
G4 P0.02
G0 X58.0185 Y-251.4237 F15000.0
G1 Z11.9000 F2500.0
G4 P0.02
G1 X57.8806 Y-251.3318 F12000.0
G1 Z0.0000 F2500.0
G4 P0.02
G0 X58.7082 Y-252.6192 F15000.0
G1 Z11.9000 F2500.0
G4 P0.02
G1 X58.4757 Y-251.8204 F12000.0
G1 X58.0939 Y-251.4330
G1 X58.3260 Y-251.6069
G1 X57.7625 Y-251.3346
G1 X57.0631 Y-251.3905
G1 X56.5289 Y-251.8203
G1 X56.4080 Y-252.1448
G1 X56.4052 Y-252.5814
G1 X58.6149 Y-252.6369
G1 X58.6802 Y-252.7866
G1 X58.5247 Y-253.5985
G1 X58.3286 Y-253.8874
G1 X57.8389 Y-254.1504
G1 X56.7975 Y-253.9541
G1 X56.4545 Y-253.6858
G1 X55.6088 Y-254.2251
G1 X55.3165 Y-253.9850
G1 X55.6551 Y-254.2778
G1 X55.2774 Y-253.9091
G1 X54.6558 Y-253.0096
G1 X53.8079 Y-252.6597
G1 X53.7438 Y-252.4676
G1 X53.7422 Y-251.4237
G1 Z0.0000 F2500.0
G4 P0.02
G0 X53.0525 Y-252.7112 F15000.0
G1 Z11.9000 F2500.0
G4 P0.02
G1 X52.4015 Y-251.5824 F12000.0
G1 X51.9949 Y-251.3777
G1 Z0.0000 F2500.0
G4 P0.02
G0 X52.8685 Y-252.9411 F15000.0
G1 Z11.9000 F2500.0
G4 P0.02
G1 X52.1143 Y-254.0866 F12000.0
G1 X51.7190 Y-254.3666
G1 Z0.0000 F2500.0
G4 P0.02
G0 X53.7422 Y-254.0447 F15000.0
G1 Z11.9000 F2500.0
G4 P0.02
G1 X53.1128 Y-252.7565 F12000.0
G1 X52.8367 Y-252.4218
G1 X52.8853 Y-252.9114
G1 X53.1839 Y-252.7241
G1 X53.9680 Y-252.7699
G1 X54.5883 Y-252.9552
G1 X54.4628 Y-252.7390
G1 X55.0999 Y-251.5440
G1 X55.4895 Y-251.3777
G1 Z0.0000 F2500.0
G4 P0.02
G0 X167.9177 Y-251.6872 F15000.0
G1 Z11.9000 F2500.0
G4 P0.02
G1 X168.0165 Y-249.9393 F12000.0
G1 X169.2971 Y-251.6872
G1 Z0.0000 F2500.0
G4 P0.02
G0 X167.1820 Y-251.5492 F15000.0
G1 Z11.9000 F2500.0
G4 P0.02
G1 X166.6163 Y-251.7029 F12000.0
G1 X166.2815 Y-251.5142
G1 X166.1928 Y-251.3139
G1 X166.2883 Y-250.6167
G1 X166.4405 Y-250.4562
G1 X166.8938 Y-250.4568
G1 X167.1581 Y-250.6399
G1 X167.2279 Y-252.2850
G1 Z0.0000 F2500.0
G4 P0.02
G0 X164.8829 Y-250.3997 F15000.0
G1 Z11.9000 F2500.0
G4 P0.02
G1 X165.4348 Y-250.5388 F12000.0
G1 X165.6403 Y-251.1339
G1 X165.5292 Y-251.4658
G1 X165.3845 Y-251.6283
G1 X165.0577 Y-251.7029
G1 X164.6688 Y-251.5633
G1 X164.7105 Y-251.6312
G1 X164.5397 Y-251.2588
G1 X164.6948 Y-250.5754
G1 X164.8113 Y-250.4490
G1 X164.0253 Y-250.9487
G1 X163.1197 Y-251.1405
G1 X163.0004 Y-251.4481
G1 X163.0045 Y-251.3600
G1 X163.0331 Y-251.5852
G1 X163.3027 Y-251.6754
G1 X163.8303 Y-251.2111
G1 X163.9248 Y-251.0337
G1 X163.2444 Y-250.4508
G1 X163.1588 Y-250.4718
G1 X163.0718 Y-250.6654
G1 X163.0896 Y-251.6872
G1 Z0.0000 F2500.0
G4 P0.02
G0 X150.4433 Y-252.1609 F15000.0
G1 Z11.9000 F2500.0
G4 P0.02
G1 X150.8091 Y-253.1724 F12000.0
G1 X151.0440 Y-253.5187
G1 X151.1201 Y-253.9765
G1 X151.3874 Y-254.2279
G1 X151.1927 Y-254.1055
G1 X151.2198 Y-254.1750
G1 X151.0303 Y-253.4915
G1 X151.5469 Y-252.2069
G1 Z0.0000 F2500.0
G4 P0.02
G0 X152.1906 Y-253.5404 F15000.0
G1 Z11.9000 F2500.0
G4 P0.02
G1 X152.2550 Y-251.6876 F12000.0
G1 X153.6620 Y-253.5404
G1 Z0.0000 F2500.0
G4 P0.02
G0 X149.7536 Y-253.6323 F15000.0
G1 Z11.9000 F2500.0
G4 P0.02
G1 X149.9246 Y-253.4675 F12000.0
G1 X149.6914 Y-253.6365
G1 X149.3490 Y-253.6374
G1 X149.1643 Y-253.5190
G1 X149.1044 Y-253.3187
G1 X149.3049 Y-252.9259
G1 X149.4770 Y-252.8892
G1 X149.2234 Y-252.7016
G1 X149.2665 Y-252.2650
G1 X149.5758 Y-252.1868
G1 X149.8915 Y-252.2988
G1 Z0.0000 F2500.0
G4 P0.02
G0 X148.3741 Y-252.2988 F15000.0
G1 Z11.9000 F2500.0
G4 P0.02
G1 X148.1839 Y-252.2107 F12000.0
G1 X147.5302 Y-252.7487
G1 X148.2808 Y-252.9608
G1 X148.4548 Y-253.1074
G1 X148.5018 Y-253.4260
G1 X148.3622 Y-253.5990
G1 X148.1496 Y-253.6476
G1 X147.7141 Y-253.5136
G1 X147.4686 Y-252.9004
G1 X147.3756 Y-253.5395
G1 X146.7521 Y-253.4919
G1 X146.7188 Y-252.3491
G1 X146.6482 Y-252.8284
G1 X145.9587 Y-252.8855
G1 X145.7772 Y-252.8322
G1 X145.7106 Y-252.3350
G1 X145.6887 Y-253.4946
G1 X145.5378 Y-253.5518
G1 X145.0216 Y-253.4058
G1 X145.1199 Y-252.8681
G1 X144.9217 Y-252.3390
G1 X144.5662 Y-252.1640
G1 X144.2309 Y-252.2217
G1 X144.0377 Y-252.4621
G1 X143.9701 Y-253.2679
G1 X144.1781 Y-253.5690
G1 X144.0049 Y-253.3786
G1 X144.4096 Y-253.6433
G1 X144.8795 Y-253.5404
G1 Z0.0000 F2500.0
G4 P0.02
G0 X143.2701 Y-252.9426 F15000.0
G1 Z11.9000 F2500.0
G4 P0.02
G1 X143.2098 Y-252.2958 F12000.0
G1 X143.1505 Y-252.2618
G1 X142.3542 Y-252.6474
G1 X142.3989 Y-252.8623
G1 X143.1913 Y-252.9283
G1 X142.6239 Y-253.5637
G1 X142.4255 Y-253.5597
G1 X142.2932 Y-253.4074
G1 X142.3622 Y-252.7877
G1 X142.3085 Y-252.9818
G1 X141.3464 Y-252.2102
G1 X140.6703 Y-252.7429
G1 X141.4140 Y-252.9537
G1 X141.5951 Y-253.0929
G1 X141.6558 Y-253.4108
G1 X141.5248 Y-253.5896
G1 X141.3155 Y-253.6467
G1 X140.6601 Y-253.4585
G1 X140.5722 Y-253.5118
G1 X140.6032 Y-252.8506
G1 Z0.0000 F2500.0
G4 P0.02
G0 X168.5922 Y-256.3438 F15000.0
G1 Z11.9000 F2500.0
G4 P0.02
G1 X167.2128 Y-256.3438 F12000.0
G1 Z0.0000 F2500.0
G4 P0.02
G0 X167.9945 Y-256.3438 F15000.0
G1 Z11.9000 F2500.0
G4 P0.02
G1 X167.9485 Y-258.2750 F12000.0
G1 Z0.0000 F2500.0
G4 P0.02
G0 X166.2012 Y-258.2750 F15000.0
G1 Z11.9000 F2500.0
G4 P0.02
G1 X166.1781 Y-257.6921 F12000.0
G1 X165.7114 Y-257.3878
G1 X165.3368 Y-256.9964
G1 X164.8650 Y-257.2749
G1 X164.8494 Y-257.8276
G1 X164.6396 Y-258.1784
G1 X164.8243 Y-257.9309
G1 X164.4483 Y-258.2760
G1 X164.0024 Y-258.1883
G1 X163.7575 Y-257.9672
G1 X163.8274 Y-257.2710
G1 X163.9183 Y-257.0787
G1 X164.4711 Y-256.9705
G1 X164.7757 Y-257.1714
G1 Z0.0000 F2500.0
G4 P0.02
G0 X165.3735 Y-258.2750 F15000.0
G1 Z11.9000 F2500.0
G4 P0.02
G1 X165.7460 Y-257.5386 F12000.0
G1 X165.6779 Y-257.7834
G1 X166.1669 Y-257.4967
G1 X166.2012 Y-256.9875
G1 Z0.0000 F2500.0
G4 P0.02
G0 X163.1204 Y-256.9875 F15000.0
G1 Z11.9000 F2500.0
G4 P0.02
G1 X163.1204 Y-258.1864 F12000.0
G1 X163.1002 Y-257.6708
G1 X162.9433 Y-257.5962
G1 X162.1754 Y-257.7004
G1 X162.1116 Y-258.1974
G1 X162.0529 Y-257.0137
G1 X160.5914 Y-256.9415
G1 Z0.0000 F2500.0
G4 P0.02
G0 X161.1432 Y-256.9415 F15000.0
G1 Z11.9000 F2500.0
G4 P0.02
G1 X161.0664 Y-258.2187 F12000.0
G1 X160.0505 Y-258.1533
G1 X159.3785 Y-258.2580
G1 X159.0987 Y-258.0485
G1 X159.0040 Y-257.8493
G1 X159.0929 Y-257.1515
G1 X159.3683 Y-257.0056
G1 X159.9346 Y-257.1005
G1 X160.0682 Y-257.8790
G1 X160.0617 Y-258.7839
G1 X159.0740 Y-258.0451
G1 Z0.0000 F2500.0
G4 P0.02
G0 X42.3541 Y-258.4605 F15000.0
G1 Z11.9000 F2500.0
G4 P0.02
G1 X42.4159 Y-256.2451 F12000.0
G1 X44.0094 Y-258.5525
G1 Z0.0000 F2500.0
G4 P0.02
G0 X41.4344 Y-258.2766 F15000.0
G1 Z11.9000 F2500.0
G4 P0.02
G1 X41.1446 Y-258.1052 F12000.0
G1 X40.2726 Y-257.0133
G1 X40.0879 Y-256.9744
G1 X39.4206 Y-257.1073
G1 X39.5113 Y-257.9965
G1 X39.2039 Y-258.4674
G1 X38.9993 Y-258.5048
G1 X38.2563 Y-258.2319
G1 X37.2484 Y-258.4245
G1 X37.1611 Y-258.2928
G1 X37.2217 Y-256.9209
G1 X37.8019 Y-256.8511
G1 Z0.0000 F2500.0
G4 P0.02
G0 X38.3536 Y-257.0810 F15000.0
G1 Z11.9000 F2500.0
G4 P0.02
G1 X38.7554 Y-256.8444 F12000.0
G1 X39.3193 Y-256.9891
G1 Z0.0000 F2500.0
G4 P0.02
G0 X40.2389 Y-258.4605 F15000.0
G1 Z11.9000 F2500.0
G4 P0.02
G1 X40.3667 Y-257.2452 F12000.0
G1 X40.8986 Y-257.7824
G1 X41.0598 Y-258.0581
G1 X40.7463 Y-257.5340
G1 Z0.0000 F2500.0
G4 P0.02
G0 X41.0061 Y-257.9759 F15000.0
G1 Z11.9000 F2500.0
G4 P0.02
G1 X41.4119 Y-258.1993 F12000.0
G1 X41.4804 Y-256.8971
G1 Z0.0000 F2500.0
G4 P0.02
G0 X37.1581 Y-256.8971 F15000.0
G1 Z11.9000 F2500.0
G4 P0.02
G1 X36.5603 Y-256.8511 F12000.0
G1 Z0.0000 F2500.0
G4 P0.02
G0 X18.7213 Y-256.8671 F15000.0
G1 Z11.9000 F2500.0
G4 P0.02
G1 X17.6487 Y-256.8775 F12000.0
G1 X17.0692 Y-257.1699
G1 X16.8928 Y-256.9784
G1 X17.0655 Y-257.2970
G1 X17.1137 Y-257.8730
G1 X16.6888 Y-258.3975
G1 X16.0143 Y-258.2188
G1 X15.8771 Y-258.0587
G1 X15.7966 Y-257.7161
G1 X15.9158 Y-257.1462
G1 X16.4090 Y-256.8531
G1 X16.8361 Y-256.9131
G1 Z0.0000 F2500.0
G4 P0.02
G0 X17.0660 Y-258.0627 F15000.0
G1 Z11.9000 F2500.0
G4 P0.02
G1 X16.8361 Y-258.3386 F12000.0
G1 Z0.0000 F2500.0
G4 P0.02
G0 X18.1695 Y-258.3845 F15000.0
G1 Z11.9000 F2500.0
G4 P0.02
G1 X18.2155 Y-256.8671 F12000.0
G1 Z0.0000 F2500.0
G4 P0.02
G0 X19.3191 Y-256.9591 F15000.0
G1 Z11.9000 F2500.0
G4 P0.02
G1 X19.7756 Y-256.8474 F12000.0
G1 X20.0923 Y-256.9797
G1 X20.3302 Y-257.3724
G1 X20.3442 Y-257.9592
G1 X20.1826 Y-258.2646
G1 X19.8894 Y-258.4007
G1 X19.3276 Y-258.2613
G1 X19.1352 Y-258.0167
G1 Z0.0000 F2500.0
G4 P0.02
G0 X21.0664 Y-258.3386 F15000.0
G1 Z11.9000 F2500.0
G4 P0.02
G1 X21.4831 Y-257.4934 F12000.0
G1 X21.4605 Y-257.3979
G1 X21.1836 Y-257.1887
G1 X21.4299 Y-257.3454
G1 X21.8199 Y-257.9020
G1 X22.1418 Y-258.0435
G1 X22.1744 Y-256.9729
G1 X21.5397 Y-257.3746
G1 X21.7904 Y-257.8547
G1 X22.1672 Y-258.2288
G1 X22.1700 Y-258.1546
G1 Z0.0000 F2500.0
G4 P0.02
G0 X23.0436 Y-258.3386 F15000.0
G1 Z11.9000 F2500.0
G4 P0.02
G1 X23.1070 Y-256.2530 F12000.0
G1 X24.3867 Y-258.3486
G1 X24.5610 Y-258.4305
G1 Z0.0000 F2500.0
G4 P0.02
G0 X15.0888 Y-257.6488 F15000.0
G1 Z11.9000 F2500.0
G4 P0.02
G1 X15.0133 Y-258.3306 F12000.0
G1 X14.1290 Y-258.3257
G1 X14.0255 Y-258.2102
G1 X14.1376 Y-257.6603
G1 X14.0821 Y-257.2240
G1 X14.3873 Y-256.9263
G1 X15.0154 Y-257.5133
G1 X14.2151 Y-257.6028
G1 Z0.0000 F2500.0
G4 P0.02
G0 X26.7279 Y-264.0563 F15000.0
G1 Z11.9000 F2500.0
G4 P0.02
G1 X25.7132 Y-262.1807 F12000.0
G1 X25.4042 Y-262.1874
G1 X24.5548 Y-263.9570
G1 X24.7330 Y-264.7294
G1 X25.1185 Y-264.9300
G1 Z0.0000 F2500.0
G4 P0.02
G0 X24.4748 Y-263.8264 F15000.0
G1 Z11.9000 F2500.0
G4 P0.02
G1 X24.3289 Y-263.6365 F12000.0
G1 X23.7390 Y-262.1711
G1 Z0.0000 F2500.0
G4 P0.02
G0 X23.0493 Y-264.0563 F15000.0
G1 Z11.9000 F2500.0
G4 P0.02
G1 X21.7375 Y-262.2864 F12000.0
G1 X21.6699 Y-264.0563
G1 Z0.0000 F2500.0
G4 P0.02
G0 X19.5547 Y-264.0103 F15000.0
G1 Z11.9000 F2500.0
G4 P0.02
G1 X19.4138 Y-263.7632 F12000.0
G1 X19.6149 Y-263.9694
G1 X20.0589 Y-264.1158
G1 X20.5897 Y-263.9116
G1 X20.7977 Y-263.4944
G1 X20.7453 Y-262.6735
G1 X20.4551 Y-262.3155
G1 X20.1412 Y-262.1934
G1 X19.5547 Y-262.3090
G1 Z0.0000 F2500.0
G4 P0.02
G0 X27.6935 Y-264.0103 F15000.0
G1 Z11.9000 F2500.0
G4 P0.02
G1 X27.7652 Y-261.4611 F12000.0
G1 X29.6707 Y-264.0103
G1 Z0.0000 F2500.0
G4 P0.02
G0 X169.2729 Y-265.4462 F15000.0
G1 Z11.9000 F2500.0
G4 P0.02
G1 X169.2729 Y-267.1888 F12000.0
G1 X169.2214 Y-266.3088
G1 X167.9763 Y-266.2806
G1 X167.8969 Y-265.5398
G1 X167.8934 Y-267.3315
G1 Z0.0000 F2500.0
G4 P0.02
G0 X166.3300 Y-267.3315 F15000.0
G1 Z11.9000 F2500.0
G4 P0.02
G1 X166.3069 Y-266.7486 F12000.0
G1 X165.8402 Y-266.4443
G1 X165.5023 Y-265.9980
G1 Z0.0000 F2500.0
G4 P0.02
G0 X166.3300 Y-266.0440 F15000.0
G1 Z11.9000 F2500.0
G4 P0.02
G1 X166.2594 Y-266.5805 F12000.0
G1 X165.8216 Y-266.8340
G1 X165.9015 Y-266.6090
G1 X165.9027 Y-266.7109
G1 X165.5287 Y-267.2557
G1 X165.0255 Y-266.9009
G1 X164.9405 Y-266.3301
G1 X164.6958 Y-266.0409
G1 X164.7541 Y-266.0870
G1 X164.3824 Y-265.9993
G1 X164.0668 Y-266.1058
G1 X163.9638 Y-266.2881
G1 X163.8751 Y-266.9879
G1 X163.9940 Y-267.1717
G1 X164.4283 Y-267.3414
G1 X164.6382 Y-267.2961
G1 X164.9539 Y-267.0124
G1 X164.8059 Y-267.2289
G1 X164.6285 Y-267.3177
G1 X163.3494 Y-267.2994
G1 X163.2952 Y-266.1229
G1 X163.2531 Y-266.6071
G1 X162.3687 Y-266.7226
G1 X162.2890 Y-267.2321
G1 X162.2524 Y-266.0975
G1 X161.8318 Y-266.0072
G1 X160.7202 Y-265.9980
G1 Z0.0000 F2500.0
G4 P0.02
G0 X161.2720 Y-265.9980 F15000.0
G1 Z11.9000 F2500.0
G4 P0.02
G1 X161.1952 Y-267.2752 F12000.0
G1 X160.1794 Y-267.2098
G1 X159.5074 Y-267.3146
G1 X159.2277 Y-267.1050
G1 X159.1329 Y-266.9058
G1 X159.2218 Y-266.2080
G1 X159.4972 Y-266.0622
G1 X160.0634 Y-266.1570
G1 X160.1971 Y-266.9356
G1 X160.1905 Y-267.8404
G1 X159.2028 Y-267.1016
G1 Z0.0000 F2500.0
G4 P0.02
G0 X30.7090 Y-267.9611 F15000.0
G1 Z11.9000 F2500.0
G4 P0.02
G1 X29.2376 Y-270.5361 F12000.0
G1 Z0.0000 F2500.0
G4 P0.02
G0 X30.8929 Y-270.5821 F15000.0
G1 Z11.9000 F2500.0
G4 P0.02
G1 X30.8561 Y-270.4671 F12000.0
G1 X31.1022 Y-270.5864
G1 Z0.0000 F2500.0
G4 P0.02
G0 X30.8694 Y-270.4284 F15000.0
G1 Z11.9000 F2500.0
G4 P0.02
G1 X30.7650 Y-270.2372 F12000.0
G1 X30.7550 Y-268.0530
G1 Z0.0000 F2500.0
G4 P0.02
G0 X28.4099 Y-267.9611 F15000.0
G1 Z11.9000 F2500.0
G4 P0.02
G1 X26.4327 Y-267.9611 F12000.0
G1 Z0.0000 F2500.0
G4 P0.02
G0 X27.4902 Y-267.9611 F15000.0
G1 Z11.9000 F2500.0
G4 P0.02
G1 X27.4443 Y-270.5821 F12000.0
G1 Z0.0000 F2500.0
G4 P0.02
G0 X25.8349 Y-269.6624 F15000.0
G1 Z11.9000 F2500.0
G4 P0.02
G1 X25.1298 Y-269.6981 F12000.0
G1 X24.1592 Y-270.3800
G1 X23.5079 Y-270.6426
G1 X23.1287 Y-270.5109
G1 X22.8521 Y-270.0310
G1 X22.8319 Y-269.6819
G1 X22.9745 Y-269.2505
G1 X23.3405 Y-269.0016
G1 X24.2269 Y-269.0614
G1 X22.9179 Y-268.0561
G1 X21.8953 Y-268.6892
G1 X21.1257 Y-268.2507
G1 X21.0663 Y-268.0556
G1 X21.0988 Y-270.5821
G1 Z0.0000 F2500.0
G4 P0.02
G0 X19.3974 Y-270.5821 F15000.0
G1 Z11.9000 F2500.0
G4 P0.02
G1 X19.6094 Y-270.3701 F12000.0
G1 X19.2296 Y-270.6336
G1 X18.7645 Y-270.6076
G1 X18.5062 Y-270.4771
G1 X18.2968 Y-269.9854
G1 X18.5142 Y-269.4830
G1 X18.2909 Y-269.3313
G1 X19.1702 Y-269.5773
G1 X19.4791 Y-269.4155
G1 X19.6790 Y-269.1348
G1 X19.7410 Y-268.7922
G1 X19.6376 Y-268.3547
G1 X19.2177 Y-267.9918
G1 X18.7528 Y-268.0126
G1 X18.4286 Y-268.1823
G1 X18.2057 Y-269.1756
G1 X18.0865 Y-269.3587
G1 X17.4414 Y-269.6488
G1 X16.7487 Y-269.7146
G1 X15.9700 Y-270.4427
G1 X15.4338 Y-270.6282
G1 X15.0083 Y-270.4310
G1 X14.8791 Y-270.2819
G1 X15.0471 Y-269.6375
G1 X15.3600 Y-269.6439
G1 X15.0144 Y-269.4894
G1 X14.9803 Y-269.2816
G1 X15.2388 Y-268.7826
G1 X15.7955 Y-268.8575
G1 X15.9910 Y-269.0509
G1 X15.8443 Y-268.8784
G1 X15.9028 Y-268.9727
G1 Z0.0000 F2500.0
G4 P0.02
G0 X169.0333 Y-268.1729 F15000.0
G1 Z11.9000 F2500.0
G4 P0.02
G1 X168.2486 Y-269.4713 F12000.0
G1 X168.4091 Y-270.0101
G1 X168.5373 Y-270.1125
G1 X168.7278 Y-270.0833
G1 X168.0499 Y-269.3044
G1 X167.4780 Y-268.2597
G1 X167.0405 Y-268.7510
G1 X166.0904 Y-268.7706
G1 Z0.0000 F2500.0
G4 P0.02
G0 X166.6422 Y-268.7706 F15000.0
G1 Z11.9000 F2500.0
G4 P0.02
G1 X166.5709 Y-270.0336 F12000.0
G1 X165.5101 Y-269.4297
G1 X164.9173 Y-269.4537
G1 X164.6249 Y-269.5745
G1 X164.6914 Y-269.4251
G1 X164.6900 Y-268.8840
G1 X164.5742 Y-269.6440
G1 X164.6356 Y-269.8416
G1 X164.8443 Y-270.0862
G1 X165.5309 Y-269.5248
G1 X165.5444 Y-269.4354
G1 X164.7570 Y-268.8166
G1 Z0.0000 F2500.0
G4 P0.02

G0 Z0.0000 F800.0
G4 P0.06
G0 X0.0000 Y0.0000 F15000.0
M5
G4 P0.10
$1=0
