$X
$1=255
G21
G90
G92 Z4.0000
G0 Z0.0000 F800.0
G4 P0.06
G92 Z0.0000
G0 Z0.0000 F800.0
G0 X0.0000 Y0.0000 F15000.0
G21
G90
G17
G91.1
G0 Z0.0000
G0 X33.8662 Y-47.2524 F15000.0
G1 Z11.9000 F8000.0
G1 X33.6843 Y-46.6161 F12000.0
G1 X33.8662 Y-46.2979
G1 X34.0934 Y-46.1161
G1 X34.9571 Y-46.1161
G1 Z0.0000 F8000.0
G0 X35.1843 Y-50.6161 F15000.0
G1 Z11.9000 F8000.0
G1 X36.9571 Y-50.5706 F12000.0
G1 X36.8662 Y-50.2979
G1 Z0.0000 F8000.0
G0 X35.2752 Y-46.2524 F15000.0
G1 Z11.9000 F8000.0
G1 X35.8662 Y-46.8433 F12000.0
G1 Z0.0000 F8000.0
G0 X35.4116 Y-48.7979 F15000.0
G1 Z11.9000 F8000.0
G1 X35.5480 Y-48.9343 F12000.0
G1 Z0.0000 F8000.0
G0 X36.9116 Y-47.2524 F15000.0
G1 Z11.9000 F8000.0
G1 X36.7298 Y-46.6161 F12000.0
G1 X36.9116 Y-46.2979
G1 X37.1389 Y-46.1161
G1 Z0.0000 F8000.0
G0 X37.3662 Y-46.0252 F15000.0
G1 Z11.9000 F8000.0
G1 X38.0025 Y-46.1161 F12000.0
G1 Z0.0000 F8000.0
G0 X38.2298 Y-50.6161 F15000.0
G1 Z11.9000 F8000.0
G1 X40.0025 Y-50.5706 F12000.0
G1 X39.9116 Y-50.2979
G1 Z0.0000 F8000.0
G0 X38.3207 Y-46.2524 F15000.0
G1 Z11.9000 F8000.0
G1 X38.9116 Y-46.8433 F12000.0
G1 Z0.0000 F8000.0
G0 X38.4571 Y-48.7979 F15000.0
G1 Z11.9000 F8000.0
G1 X38.5934 Y-48.9343 F12000.0
G1 Z0.0000 F8000.0
G0 X135.4983 Y-254.6049 F15000.0
G1 Z11.9000 F8000.0
G1 X135.9983 Y-254.6049 F12000.0
G1 X136.1346 Y-254.4231
G1 X138.9528 Y-253.2413
G1 Z0.0000 F8000.0
G0 X138.8619 Y-255.1958 F15000.0
G1 Z11.9000 F8000.0
G1 X136.0892 Y-256.1958 F12000.0
G1 X136.3164 Y-255.8322
G1 X136.8619 Y-255.2413
G1 X137.0437 Y-254.8776
G1 X137.3164 Y-254.7867
G1 Z0.0000 F8000.0
G0 X136.0892 Y-254.6049 F15000.0
G1 Z11.9000 F8000.0
G1 X137.0437 Y-254.8776 F12000.0
G1 Z0.0000 F8000.0
G0 X138.1801 Y-263.0140 F15000.0
G1 Z11.9000 F8000.0
G1 X136.5892 Y-263.4231 F12000.0
G1 X136.6346 Y-262.5595
G1 X137.4073 Y-262.0140
G1 X138.6801 Y-261.6049
G1 X138.8619 Y-262.1504
G1 X138.6801 Y-262.8322
G1 Z0.0000 F8000.0
G0 X137.4528 Y-257.6958 F15000.0
G1 Z11.9000 F8000.0
G1 X136.5892 Y-257.8776 F12000.0
G1 X136.6346 Y-257.0140
G1 X136.7255 Y-256.7867
G1 Z0.0000 F8000.0
G0 X136.6346 Y-261.7867 F15000.0
G1 Z11.9000 F8000.0
G1 X137.1346 Y-260.2867 F12000.0
G1 Z0.0000 F8000.0
G0 X136.6346 Y-259.8776 F15000.0
G1 Z11.9000 F8000.0
G1 X137.1346 Y-258.4231 F12000.0
G1 Z0.0000 F8000.0
G0 X136.9983 Y-256.5595 F15000.0
G1 Z11.9000 F8000.0
G1 X137.4983 Y-256.4231 F12000.0
G1 Z0.0000 F8000.0
G0 X137.4983 Y-260.1504 F15000.0
G1 Z11.9000 F8000.0
G1 X138.2710 Y-259.8776 F12000.0
G1 X138.7255 Y-259.8322
G1 Z0.0000 F8000.0
G0 X137.4983 Y-258.2867 F15000.0
G1 Z11.9000 F8000.0
G1 X138.2710 Y-258.0140 F12000.0
G1 X138.7255 Y-257.9686
G1 X138.8619 Y-259.0595
G1 Z0.0000 F8000.0
G0 X137.8619 Y-256.2867 F15000.0
G1 Z11.9000 F8000.0
G1 X138.4073 Y-256.1049 F12000.0
G1 X138.8619 Y-256.6049
G1 X138.6801 Y-257.2413
G1 X137.9528 Y-257.5140
G1 Z0.0000 F8000.0
G0 X138.8619 Y-260.9231 F15000.0
G1 Z11.9000 F8000.0
G1 X138.8164 Y-259.9231 F12000.0
G1 Z0.0000 F8000.0
G0 X140.5256 Y-102.1786 F15000.0
G1 Z11.9000 F8000.0
G1 X142.7983 Y-101.3604 F12000.0
G1 Z0.0000 F8000.0
G0 X140.5711 Y-103.4513 F15000.0
G1 Z11.9000 F8000.0
G1 X141.2529 Y-103.1331 F12000.0
G1 X143.1620 Y-102.5422
G1 Z0.0000 F8000.0
G0 X141.5256 Y-105.2695 F15000.0
G1 Z11.9000 F8000.0
G1 X141.9801 Y-105.2695 F12000.0
G1 X142.5256 Y-105.4513
G1 X142.7074 Y-105.3604
G1 Z0.0000 F8000.0
G0 X141.6165 Y-104.2695 F15000.0
G1 Z11.9000 F8000.0
G1 X141.7074 Y-103.6786 F12000.0
G1 Z0.0000 F8000.0
G0 X141.7074 Y-106.4968 F15000.0
G1 Z11.9000 F8000.0
G1 X142.0256 Y-106.3150 F12000.0
G1 X142.5256 Y-105.4513
G1 Z0.0000 F8000.0
G0 X141.7074 Y-104.3604 F15000.0
G1 Z11.9000 F8000.0
G1 X141.9801 Y-104.4513 F12000.0
G1 X142.0711 Y-104.4059
G1 Z0.0000 F8000.0
G0 X141.8892 Y-102.4513 F15000.0
G1 Z11.9000 F8000.0
G1 X141.9801 Y-102.3604 F12000.0
G1 Z0.0000 F8000.0
G0 X142.1165 Y-106.2695 F15000.0
G1 Z11.9000 F8000.0
G1 X143.7074 Y-105.8150 F12000.0
G1 Z0.0000 F8000.0
G0 X142.1165 Y-105.0877 F15000.0
G1 Z11.9000 F8000.0
G1 X143.2529 Y-104.5877 F12000.0
G1 Z0.0000 F8000.0
G0 X142.5711 Y-104.1331 F15000.0
G1 Z11.9000 F8000.0
G1 X142.7074 Y-104.0422 F12000.0
G1 X142.7074 Y-103.6331
G1 Z0.0000 F8000.0
G0 X142.7529 Y-104.0422 F15000.0
G1 Z11.9000 F8000.0
G1 X143.0711 Y-104.0877 F12000.0
G1 X143.5256 Y-103.9059
G1 Z0.0000 F8000.0
G0 X143.3438 Y-101.1786 F15000.0
G1 Z11.9000 F8000.0
G1 X143.8438 Y-100.9059 F12000.0
G1 Z0.0000 F8000.0
G0 X143.4801 Y-102.9513 F15000.0
G1 Z11.9000 F8000.0
G1 X143.7529 Y-103.0422 F12000.0
G1 X143.7074 Y-103.7240
G1 Z0.0000 F8000.0
G0 X143.6620 Y-104.4059 F15000.0
G1 Z11.9000 F8000.0
G1 X143.8892 Y-104.3150 F12000.0
G1 Z0.0000 F8000.0
G0 X140.6887 Y-109.9107 F15000.0
G1 Z11.9000 F8000.0
G1 X140.6887 Y-110.5470 F12000.0
G1 X140.9614 Y-110.5016
G1 Z0.0000 F8000.0
G0 X141.2342 Y-109.5470 F15000.0
G1 Z11.9000 F8000.0
G1 X141.7342 Y-109.2289 F12000.0
G1 Z0.0000 F8000.0
G0 X141.5523 Y-112.0016 F15000.0
G1 Z11.9000 F8000.0
G1 X143.3251 Y-111.3652 F12000.0
G1 X143.8251 Y-110.8198
G1 X143.7796 Y-110.2743
G1 X143.5069 Y-110.1834
G1 X141.5523 Y-110.8652
G1 Z0.0000 F8000.0
G0 X143.8705 Y-114.1380 F15000.0
G1 Z11.9000 F8000.0
G1 X141.6433 Y-114.9561 F12000.0
G1 X141.9160 Y-115.7289
G1 X143.8705 Y-115.0470
G1 Z0.0000 F8000.0
G0 X141.6433 Y-114.9561 F15000.0
G1 Z11.9000 F8000.0
G1 X141.7342 Y-114.0925 F12000.0
G1 X143.8705 Y-113.2743
G1 Z0.0000 F8000.0
G0 X141.6433 Y-113.5925 F15000.0
G1 Z11.9000 F8000.0
G1 X141.7342 Y-112.5016 F12000.0
G1 Z0.0000 F8000.0
G0 X141.9614 Y-112.3198 F15000.0
G1 Z11.9000 F8000.0
G1 X142.9160 Y-112.0470 F12000.0
G1 Z0.0000 F8000.0
G0 X142.0069 Y-110.1380 F15000.0
G1 Z11.9000 F8000.0
G1 X143.6887 Y-109.5925 F12000.0
G1 Z0.0000 F8000.0
G0 X142.2342 Y-108.9107 F15000.0
G1 Z11.9000 F8000.0
G1 X142.9160 Y-108.4561 F12000.0
G1 Z0.0000 F8000.0
G0 X143.1433 Y-111.9561 F15000.0
G1 Z11.9000 F8000.0
G1 X143.8705 Y-112.8652 F12000.0
G1 Z0.0000 F8000.0
G0 X143.6433 Y-108.0016 F15000.0
G1 Z11.9000 F8000.0
G1 X143.7796 Y-107.9107 F12000.0
G1 Z0.0000 F8000.0
G0 X140.5599 Y-124.3905 F15000.0
G1 Z11.9000 F8000.0
G1 X141.2871 Y-124.1177 F12000.0
G1 Z0.0000 F8000.0
G0 X140.5599 Y-122.8905 F15000.0
G1 Z11.9000 F8000.0
G1 X141.1962 Y-122.7996 F12000.0
G1 X143.6962 Y-123.1177
G1 Z0.0000 F8000.0
G0 X141.7871 Y-125.0723 F15000.0
G1 Z11.9000 F8000.0
G1 X141.3781 Y-125.2541 F12000.0
G1 X140.6508 Y-125.2996
G1 X140.7417 Y-124.7996
G1 X141.0599 Y-124.6177
G1 X141.9690 Y-124.3450
G1 X141.9235 Y-124.9814
G1 Z0.0000 F8000.0
G0 X141.5144 Y-122.5268 F15000.0
G1 Z11.9000 F8000.0
G1 X141.9690 Y-122.3450 F12000.0
G1 Z0.0000 F8000.0
G0 X141.6053 Y-123.9814 F15000.0
G1 Z11.9000 F8000.0
G1 X142.7417 Y-123.5268 F12000.0
G1 Z0.0000 F8000.0
G0 X142.4690 Y-122.1177 F15000.0
G1 Z11.9000 F8000.0
G1 X143.9690 Y-121.5268 F12000.0
G1 Z0.0000 F8000.0
G0 X143.0599 Y-123.3905 F15000.0
G1 Z11.9000 F8000.0
G1 X143.3326 Y-123.1632 F12000.0
G1 Z0.0000 F8000.0
G0 X143.4852 Y-126.3842 F15000.0
G1 Z11.9000 F8000.0
G1 X143.8034 Y-126.4751 F12000.0
G1 X143.6670 Y-127.4750
G1 X140.8488 Y-128.5205
G1 X140.6216 Y-128.3387
G1 X140.5307 Y-127.7932
G1 X140.5761 Y-127.3387
G1 Z0.0000 F8000.0
G0 X141.5307 Y-134.5660 F15000.0
G1 Z11.9000 F8000.0
G1 X141.9397 Y-134.5660 F12000.0
G1 X142.0761 Y-134.3841
G1 Z0.0000 F8000.0
G0 X141.5307 Y-133.9750 F15000.0
G1 Z11.9000 F8000.0
G1 X144.5307 Y-132.7023 F12000.0
G1 Z0.0000 F8000.0
G0 X141.5307 Y-132.7478 F15000.0
G1 Z11.9000 F8000.0
G1 X143.3488 Y-132.0205 F12000.0
G1 X143.7579 Y-132.0205
G1 X143.8488 Y-132.9296
G1 Z0.0000 F8000.0
G0 X141.5307 Y-130.8841 F15000.0
G1 Z11.9000 F8000.0
G1 X142.6670 Y-130.4750 F12000.0
G1 X143.8488 Y-129.8387
G1 Z0.0000 F8000.0
G0 X141.5761 Y-128.2023 F15000.0
G1 Z11.9000 F8000.0
G1 X141.7579 Y-127.0661 F12000.0
G1 X142.9852 Y-126.5661
G1 Z0.0000 F8000.0
G0 X141.6216 Y-136.0205 F15000.0
G1 Z11.9000 F8000.0
G1 X142.0307 Y-135.7478 F12000.0
G1 X142.3034 Y-135.2478
G1 Z0.0000 F8000.0
G0 X141.6216 Y-129.8841 F15000.0
G1 Z11.9000 F8000.0
G1 X141.6216 Y-129.1569 F12000.0
G1 X141.7579 Y-128.9296
G1 X142.9852 Y-128.4296
G1 Z0.0000 F8000.0
G0 X141.7579 Y-130.0205 F15000.0
G1 Z11.9000 F8000.0
G1 X143.4397 Y-129.4750 F12000.0
G1 Z0.0000 F8000.0
G0 X141.8034 Y-131.8387 F15000.0
G1 Z11.9000 F8000.0
G1 X142.3488 Y-131.1114 F12000.0
G1 Z0.0000 F8000.0
G0 X142.0761 Y-134.6114 F15000.0
G1 Z11.9000 F8000.0
G1 X142.4852 Y-134.7478 F12000.0
G1 X142.7125 Y-134.7023
G1 Z0.0000 F8000.0
G0 X142.1216 Y-135.7478 F15000.0
G1 Z11.9000 F8000.0
G1 X143.7125 Y-135.1569 F12000.0
G1 Z0.0000 F8000.0
G0 X142.4852 Y-134.9750 F15000.0
G1 Z11.9000 F8000.0
G1 X142.5307 Y-134.8387 F12000.0
G1 Z0.0000 F8000.0
G0 X143.3034 Y-131.0205 F15000.0
G1 Z11.9000 F8000.0
G1 X142.6216 Y-130.8387 F12000.0
G1 X142.7125 Y-130.5205
G1 Z0.0000 F8000.0
G0 X142.8488 Y-134.0205 F15000.0
G1 Z11.9000 F8000.0
G1 X142.9852 Y-133.9750 F12000.0
G1 Z0.0000 F8000.0
G0 X143.4852 Y-128.2478 F15000.0
G1 Z11.9000 F8000.0
G1 X143.7125 Y-128.2478 F12000.0
G1 Z0.0000 F8000.0
G0 X143.7125 Y-129.2478 F15000.0
G1 Z11.9000 F8000.0
G1 X143.8488 Y-128.3841 F12000.0
G1 Z0.0000 F8000.0
G0 X144.6670 Y-132.5660 F15000.0
G1 Z11.9000 F8000.0
G1 X144.8034 Y-131.4750 F12000.0
G1 Z0.0000 F8000.0
G0 X143.4852 Y-147.9755 F15000.0
G1 Z11.9000 F8000.0
G1 X143.8034 Y-148.0664 F12000.0
G1 X143.6670 Y-149.0664
G1 X140.8488 Y-150.1118
G1 X140.6216 Y-149.9300
G1 X140.5307 Y-149.3846
G1 X140.5761 Y-148.9300
G1 Z0.0000 F8000.0
G0 X143.7125 Y-145.3846 F15000.0
G1 Z11.9000 F8000.0
G1 X140.6216 Y-146.3846 F12000.0
G1 X140.6216 Y-145.0664
G1 X141.3488 Y-144.7482
G1 Z0.0000 F8000.0
G0 X141.5761 Y-149.7936 F15000.0
G1 Z11.9000 F8000.0
G1 X141.7579 Y-148.6573 F12000.0
G1 X142.9852 Y-148.1573
G1 Z0.0000 F8000.0
G0 X143.7125 Y-150.9755 F15000.0
G1 Z11.9000 F8000.0
G1 X141.9397 Y-151.5664 F12000.0
G1 X141.6216 Y-151.4300
G1 X141.6216 Y-150.5664
G1 Z0.0000 F8000.0
G0 X142.5761 Y-147.6573 F15000.0
G1 Z11.9000 F8000.0
G1 X143.8488 Y-146.2482 F12000.0
G1 X143.7125 Y-146.1118
G1 X141.7579 Y-146.7936
G1 X141.6216 Y-147.0209
G1 X141.9397 Y-147.8846
G1 Z0.0000 F8000.0
G0 X141.6670 Y-144.6118 F15000.0
G1 Z11.9000 F8000.0
G1 X143.7579 Y-143.7936 F12000.0
G1 Z0.0000 F8000.0
G0 X141.7125 Y-150.4755 F15000.0
G1 Z11.9000 F8000.0
G1 X143.7579 Y-149.6573 F12000.0
G1 Z0.0000 F8000.0
G0 X143.8488 Y-157.3936 F15000.0
G1 Z11.9000 F8000.0
G1 X143.7579 Y-156.2118 F12000.0
G1 X141.1216 Y-157.3027
G1 X140.5761 Y-158.3027
G1 X144.0761 Y-157.3936
G1 Z0.0000 F8000.0
G0 X143.7125 Y-162.1663 F15000.0
G1 Z11.9000 F8000.0
G1 X141.7579 Y-162.7573 F12000.0
G1 X141.6216 Y-163.0300
G1 X141.8034 Y-163.8482
G1 Z0.0000 F8000.0
G0 X143.8943 Y-161.3482 F15000.0
G1 Z11.9000 F8000.0
G1 X142.6670 Y-161.8027 F12000.0
G1 X141.6216 Y-161.9391
G1 X141.6216 Y-161.3027
G1 X143.8943 Y-160.4845
G1 Z0.0000 F8000.0
G0 X141.6216 Y-161.2118 F15000.0
G1 Z11.9000 F8000.0
G1 X141.7579 Y-160.3936 F12000.0
G1 Z0.0000 F8000.0
G0 X143.7125 Y-158.1663 F15000.0
G1 Z11.9000 F8000.0
G1 X141.7579 Y-158.7573 F12000.0
G1 X141.6216 Y-159.0300
G1 X141.8034 Y-159.8482
G1 Z0.0000 F8000.0
G0 X141.9852 Y-160.3027 F15000.0
G1 Z11.9000 F8000.0
G1 X143.8943 Y-159.5754 F12000.0
G1 Z0.0000 F8000.0
G0 X142.3488 Y-163.6663 F15000.0
G1 Z11.9000 F8000.0
G1 X143.6670 Y-163.2573 F12000.0
G1 X143.8488 Y-162.3027
G1 Z0.0000 F8000.0
G0 X142.3488 Y-159.6663 F15000.0
G1 Z11.9000 F8000.0
G1 X143.6670 Y-159.2573 F12000.0
G1 X143.8488 Y-158.3027
G1 Z0.0000 F8000.0
G0 X143.8034 Y-156.1663 F15000.0
G1 Z11.9000 F8000.0
G1 X143.9397 Y-155.9391 F12000.0
G1 Z0.0000 F8000.0
G0 X135.6887 Y-241.4250 F15000.0
G1 Z11.9000 F8000.0
G1 X135.6887 Y-242.1522 F12000.0
G1 X136.0524 Y-242.0613
G1 Z0.0000 F8000.0
G0 X136.0524 Y-241.1977 F15000.0
G1 Z11.9000 F8000.0
G1 X136.1433 Y-241.1068 F12000.0
G1 Z0.0000 F8000.0
G0 X136.4160 Y-241.9250 F15000.0
G1 Z11.9000 F8000.0
G1 X136.5524 Y-241.8795 F12000.0
G1 Z0.0000 F8000.0
G0 X136.5524 Y-243.7886 F15000.0
G1 Z11.9000 F8000.0
G1 X137.1433 Y-243.5613 F12000.0
G1 Z0.0000 F8000.0
G0 X136.5524 Y-242.5613 F15000.0
G1 Z11.9000 F8000.0
G1 X138.7342 Y-241.7886 F12000.0
G1 X138.5524 Y-242.9704
G1 Z0.0000 F8000.0
G0 X138.9615 Y-245.3795 F15000.0
G1 Z11.9000 F8000.0
G1 X137.5524 Y-245.8795 F12000.0
G1 X136.6433 Y-246.0159
G1 X136.6433 Y-245.1977
G1 X136.9615 Y-245.1522
G1 X138.9615 Y-244.3795
G1 Z0.0000 F8000.0
G0 X136.6433 Y-245.1977 F15000.0
G1 Z11.9000 F8000.0
G1 X136.8251 Y-244.2432 F12000.0
G1 Z0.0000 F8000.0
G0 X136.7796 Y-240.6977 F15000.0
G1 Z11.9000 F8000.0
G1 X137.2796 Y-240.3341 F12000.0
G1 Z0.0000 F8000.0
G0 X137.1433 Y-244.1068 F15000.0
G1 Z11.9000 F8000.0
G1 X138.9615 Y-243.3795 F12000.0
G1 Z0.0000 F8000.0
G0 X137.4615 Y-243.4250 F15000.0
G1 Z11.9000 F8000.0
G1 X138.3705 Y-243.0613 F12000.0
G1 Z0.0000 F8000.0
G0 X137.6433 Y-240.1068 F15000.0
G1 Z11.9000 F8000.0
G1 X138.7796 Y-239.3341 F12000.0
G1 Z0.0000 F8000.0
G0 X138.1887 Y-241.2886 F15000.0
G1 Z11.9000 F8000.0
G1 X138.3251 Y-241.2432 F12000.0
G1 Z0.0000 F8000.0
G0 X138.7342 Y-246.0159 F15000.0
G1 Z11.9000 F8000.0
G1 X138.9160 Y-245.8795 F12000.0
G1 Z0.0000 F8000.0
G0 X150.6525 Y-108.5056 F15000.0
G1 Z11.9000 F8000.0
G1 X150.7889 Y-107.9601 F12000.0
G1 X153.6525 Y-106.9147
G1 X153.6980 Y-106.9601
G1 Z0.0000 F8000.0
G0 X152.8343 Y-101.2783 F15000.0
G1 Z11.9000 F8000.0
G1 X150.6525 Y-102.1419 F12000.0
G1 X150.6980 Y-103.5510
G1 X151.1980 Y-103.4147
G1 Z0.0000 F8000.0
G0 X150.8343 Y-108.5965 F15000.0
G1 Z11.9000 F8000.0
G1 X151.5161 Y-108.0965 F12000.0
G1 X151.6525 Y-108.6419
G1 X152.4252 Y-108.5510
G1 X153.6071 Y-108.0965
G1 X153.8343 Y-107.0965
G1 Z0.0000 F8000.0
G0 X151.5616 Y-103.2783 F15000.0
G1 Z11.9000 F8000.0
G1 X153.6980 Y-102.5056 F12000.0
G1 Z0.0000 F8000.0
G0 X151.6071 Y-107.9147 F15000.0
G1 Z11.9000 F8000.0
G1 X151.6071 Y-107.7328 F12000.0
G1 Z0.0000 F8000.0
G0 X151.9252 Y-105.0056 F15000.0
G1 Z11.9000 F8000.0
G1 X151.8343 Y-105.0510 F12000.0
G1 X151.6071 Y-104.8692
G1 X152.8343 Y-103.4601
G1 X154.8343 Y-102.6419
G1 Z0.0000 F8000.0
G0 X153.8343 Y-105.2328 F15000.0
G1 Z11.9000 F8000.0
G1 X153.4252 Y-106.3692 F12000.0
G1 X151.6525 Y-106.7783
G1 X151.7434 Y-105.7783
G1 X153.6525 Y-105.0510
G1 X153.6980 Y-105.0965
G1 Z0.0000 F8000.0
G0 X152.4252 Y-104.8238 F15000.0
G1 Z11.9000 F8000.0
G1 X153.2889 Y-104.5510 F12000.0
G1 Z0.0000 F8000.0
G0 X153.1525 Y-101.1419 F15000.0
G1 Z11.9000 F8000.0
G1 X153.9707 Y-100.8692 F12000.0
G1 Z0.0000 F8000.0
G0 X153.7434 Y-104.2328 F15000.0
G1 Z11.9000 F8000.0
G1 X153.8343 Y-103.1874 F12000.0
G1 Z0.0000 F8000.0
G0 X155.6887 Y-239.2116 F15000.0
G1 Z11.9000 F8000.0
G1 X155.6887 Y-239.9388 F12000.0
G1 X156.0523 Y-239.8479
G1 Z0.0000 F8000.0
G0 X156.0523 Y-238.9843 F15000.0
G1 Z11.9000 F8000.0
G1 X156.1432 Y-238.8934 F12000.0
G1 Z0.0000 F8000.0
G0 X156.4160 Y-239.7116 F15000.0
G1 Z11.9000 F8000.0
G1 X156.5523 Y-239.6661 F12000.0
G1 Z0.0000 F8000.0
G0 X156.5523 Y-241.6207 F15000.0
G1 Z11.9000 F8000.0
G1 X158.3705 Y-240.8479 F12000.0
G1 X158.8251 Y-240.2570
G1 X158.7342 Y-239.6207
G1 X156.5523 Y-240.3479
G1 Z0.0000 F8000.0
G0 X158.9614 Y-245.0298 F15000.0
G1 Z11.9000 F8000.0
G1 X157.5523 Y-245.5298 F12000.0
G1 X156.6432 Y-245.6661
G1 X156.6432 Y-244.8479
G1 X156.9614 Y-244.8025
G1 X158.9614 Y-244.0298
G1 Z0.0000 F8000.0
G0 X156.6432 Y-244.8479 F15000.0
G1 Z11.9000 F8000.0
G1 X156.8251 Y-243.8934 F12000.0
G1 Z0.0000 F8000.0
G0 X156.6432 Y-243.4388 F15000.0
G1 Z11.9000 F8000.0
G1 X156.7342 Y-242.1661 F12000.0
G1 Z0.0000 F8000.0
G0 X156.7796 Y-238.4843 F15000.0
G1 Z11.9000 F8000.0
G1 X157.2796 Y-238.1207 F12000.0
G1 Z0.0000 F8000.0
G0 X157.0978 Y-241.9388 F15000.0
G1 Z11.9000 F8000.0
G1 X158.0069 Y-241.6207 F12000.0
G1 Z0.0000 F8000.0
G0 X157.1432 Y-243.7570 F15000.0
G1 Z11.9000 F8000.0
G1 X158.9614 Y-243.0298 F12000.0
G1 Z0.0000 F8000.0
G0 X157.6432 Y-237.8934 F15000.0
G1 Z11.9000 F8000.0
G1 X158.7796 Y-237.1207 F12000.0
G1 Z0.0000 F8000.0
G0 X158.1887 Y-239.0752 F15000.0
G1 Z11.9000 F8000.0
G1 X158.3251 Y-239.0298 F12000.0
G1 Z0.0000 F8000.0
G0 X158.5069 Y-241.4388 F15000.0
G1 Z11.9000 F8000.0
G1 X158.8705 Y-242.6207 F12000.0
G1 Z0.0000 F8000.0
G0 X170.5635 Y-102.2580 F15000.0
G1 Z11.9000 F8000.0
G1 X172.0181 Y-101.7125 F12000.0
G1 Z0.0000 F8000.0
G0 X170.6544 Y-107.3943 F15000.0
G1 Z11.9000 F8000.0
G1 X170.7908 Y-106.8489 F12000.0
G1 X173.6544 Y-105.8034
G1 X173.6999 Y-105.8489
G1 Z0.0000 F8000.0
G0 X170.7453 Y-103.6670 F15000.0
G1 Z11.9000 F8000.0
G1 X172.0181 Y-103.1216 F12000.0
G1 X172.3362 Y-102.8943
G1 X173.2908 Y-102.6216
G1 X173.5635 Y-102.3943
G1 Z0.0000 F8000.0
G0 X170.8362 Y-107.4852 F15000.0
G1 Z11.9000 F8000.0
G1 X171.5181 Y-106.9852 F12000.0
G1 X171.6544 Y-107.5307
G1 X172.4271 Y-107.4398
G1 X173.6090 Y-106.9852
G1 X173.8362 Y-105.9852
G1 Z0.0000 F8000.0
G0 X171.6090 Y-106.8034 F15000.0
G1 Z11.9000 F8000.0
G1 X171.6090 Y-106.6216 F12000.0
G1 Z0.0000 F8000.0
G0 X171.7453 Y-103.8943 F15000.0
G1 Z11.9000 F8000.0
G1 X171.6544 Y-104.8489 F12000.0
G1 X171.9271 Y-105.7125
G1 X173.9726 Y-104.9852
G1 Z0.0000 F8000.0
G0 X171.6999 Y-104.8034 F15000.0
G1 Z11.9000 F8000.0
G1 X172.3362 Y-104.6216 F12000.0
G1 Z0.0000 F8000.0
G0 X172.0635 Y-103.7580 F15000.0
G1 Z11.9000 F8000.0
G1 X173.9726 Y-103.0307 F12000.0
G1 Z0.0000 F8000.0
G0 X172.2453 Y-101.8489 F15000.0
G1 Z11.9000 F8000.0
G1 X172.3362 Y-102.8489 F12000.0
G1 Z0.0000 F8000.0
G0 X172.6544 Y-104.4852 F15000.0
G1 Z11.9000 F8000.0
G1 X173.9726 Y-103.9852 F12000.0
G1 Z0.0000 F8000.0
G0 X173.6999 Y-102.1670 F15000.0
G1 Z11.9000 F8000.0
G1 X173.7908 Y-101.1670 F12000.0
G1 Z0.0000 F8000.0
G0 X144.9642 Y-276.0028 F15000.0
G1 Z11.9000 F8000.0
G1 X145.1915 Y-275.8664 F12000.0
G1 X145.2824 Y-275.4574
G1 Z0.0000 F8000.0
G0 X145.2369 Y-275.8664 F15000.0
G1 Z11.9000 F8000.0
G1 X149.4187 Y-274.3210 F12000.0
G1 Z0.0000 F8000.0
G0 X145.6915 Y-274.8210 F15000.0
G1 Z11.9000 F8000.0
G1 X146.0096 Y-274.4574 F12000.0
G1 Z0.0000 F8000.0
G0 X146.3733 Y-276.4574 F15000.0
G1 Z11.9000 F8000.0
G1 X146.5096 Y-276.2301 F12000.0
G1 Z0.0000 F8000.0
G0 X123.8669 Y-237.1842 F15000.0
G1 Z11.9000 F8000.0
G1 X123.9123 Y-235.5478 F12000.0
G1 Z0.0000 F8000.0
G0 X123.9578 Y-237.3206 F15000.0
G1 Z11.9000 F8000.0
G1 X124.1396 Y-237.5024 F12000.0
G1 X125.1850 Y-237.5024
G1 X125.6850 Y-237.3206
G1 Z0.0000 F8000.0
G0 X124.2760 Y-235.0024 F15000.0
G1 Z11.9000 F8000.0
G1 X124.5487 Y-234.7297 F12000.0
G1 Z0.0000 F8000.0
G0 X124.9578 Y-234.5024 F15000.0
G1 Z11.9000 F8000.0
G1 X125.6850 Y-234.2297 F12000.0
G1 Z0.0000 F8000.0
G0 X126.0487 Y-237.1842 F15000.0
G1 Z11.9000 F8000.0
G1 X126.1850 Y-237.1388 F12000.0
G1 Z0.0000 F8000.0
G0 X126.0487 Y-234.0933 F15000.0
G1 Z11.9000 F8000.0
G1 X126.1850 Y-234.0478 F12000.0
G1 Z0.0000 F8000.0
G0 X126.5487 Y-237.0024 F15000.0
G1 Z11.9000 F8000.0
G1 X126.8214 Y-236.9115 F12000.0
G1 Z0.0000 F8000.0
G0 X126.5487 Y-233.9115 F15000.0
G1 Z11.9000 F8000.0
G1 X126.8214 Y-233.8206 F12000.0
G1 Z0.0000 F8000.0
G0 X127.1850 Y-236.7751 F15000.0
G1 Z11.9000 F8000.0
G1 X127.4577 Y-236.6842 F12000.0
G1 Z0.0000 F8000.0
G0 X127.1850 Y-233.6842 F15000.0
G1 Z11.9000 F8000.0
G1 X127.4577 Y-233.5933 F12000.0
G1 Z0.0000 F8000.0
G0 X127.8213 Y-236.5478 F15000.0
G1 Z11.9000 F8000.0
G1 X127.9577 Y-236.5024 F12000.0
G1 Z0.0000 F8000.0
G0 X127.8213 Y-233.4569 F15000.0
G1 Z11.9000 F8000.0
G1 X127.9577 Y-233.4115 F12000.0
G1 Z0.0000 F8000.0
G0 X128.3213 Y-236.3660 F15000.0
G1 Z11.9000 F8000.0
G1 X129.1849 Y-236.0024 F12000.0
G1 Z0.0000 F8000.0
G0 X128.3213 Y-233.2751 F15000.0
G1 Z11.9000 F8000.0
G1 X129.0031 Y-233.0478 F12000.0
G1 X129.9122 Y-233.0933
G1 Z0.0000 F8000.0
G0 X129.5031 Y-235.8206 F15000.0
G1 Z11.9000 F8000.0
G1 X129.9577 Y-235.3206 F12000.0
G1 Z0.0000 F8000.0
G0 X130.1395 Y-234.9569 F15000.0
G1 Z11.9000 F8000.0
G1 X130.1849 Y-233.4115 F12000.0
G1 Z0.0000 F8000.0
G0 X163.7278 Y-188.3898 F15000.0
G1 Z11.9000 F8000.0
G1 X164.0460 Y-188.2080 F12000.0
G1 X164.8642 Y-188.0262
G1 Z0.0000 F8000.0
G0 X164.3188 Y-189.4353 F15000.0
G1 Z11.9000 F8000.0
G1 X163.9551 Y-189.8443 F12000.0
G1 X163.7278 Y-190.7534
G1 X164.8642 Y-191.5716
G1 X165.5006 Y-191.3898
G1 Z0.0000 F8000.0
G0 X164.2278 Y-188.0716 F15000.0
G1 Z11.9000 F8000.0
G1 X164.3642 Y-187.6625 F12000.0
G1 Z0.0000 F8000.0
G0 X164.5460 Y-187.4353 F15000.0
G1 Z11.9000 F8000.0
G1 X165.2733 Y-186.6625 F12000.0
G1 Z0.0000 F8000.0
G0 X164.9551 Y-189.0716 F15000.0
G1 Z11.9000 F8000.0
G1 X165.5006 Y-188.8898 F12000.0
G1 Z0.0000 F8000.0
G0 X165.4097 Y-187.8443 F15000.0
G1 Z11.9000 F8000.0
G1 X165.6369 Y-187.7989 F12000.0
G1 Z0.0000 F8000.0
G0 X166.1824 Y-187.6171 F15000.0
G1 Z11.9000 F8000.0
G1 X170.1369 Y-186.4353 F12000.0
G1 Z0.0000 F8000.0
G0 X166.3642 Y-191.1171 F15000.0
G1 Z11.9000 F8000.0
G1 X166.5915 Y-191.0716 F12000.0
G1 Z0.0000 F8000.0
G0 X166.3642 Y-188.6171 F15000.0
G1 Z11.9000 F8000.0
G1 X166.5915 Y-188.5716 F12000.0
G1 Z0.0000 F8000.0
G0 X167.4551 Y-190.7989 F15000.0
G1 Z11.9000 F8000.0
G1 X167.6824 Y-190.7534 F12000.0
G1 Z0.0000 F8000.0
G0 X167.4551 Y-188.2989 F15000.0
G1 Z11.9000 F8000.0
G1 X167.6824 Y-188.2534 F12000.0
G1 Z0.0000 F8000.0
G0 X168.5460 Y-190.4807 F15000.0
G1 Z11.9000 F8000.0
G1 X169.1824 Y-190.2989 F12000.0
G1 Z0.0000 F8000.0
G0 X168.5460 Y-187.9807 F15000.0
G1 Z11.9000 F8000.0
G1 X169.9097 Y-187.8898 F12000.0
G1 Z0.0000 F8000.0
G0 X169.4551 Y-190.1625 F15000.0
G1 Z11.9000 F8000.0
G1 X169.8188 Y-189.8443 F12000.0
G1 X170.2733 Y-188.4807
G1 X170.1369 Y-188.1171
G1 Z0.0000 F8000.0
G0 X145.6526 Y-127.3575 F15000.0
G1 Z11.9000 F8000.0
G1 X145.7890 Y-126.8122 F12000.0
G1 X148.6526 Y-125.7667
G1 X148.6981 Y-125.8122
G1 Z0.0000 F8000.0
G0 X145.6526 Y-120.5395 F15000.0
G1 Z11.9000 F8000.0
G1 X147.0162 Y-118.6758 F12000.0
G1 X147.3344 Y-119.8576
G1 X147.8799 Y-119.8122
G1 Z0.0000 F8000.0
G0 X145.8344 Y-127.4484 F15000.0
G1 Z11.9000 F8000.0
G1 X146.5162 Y-126.9485 F12000.0
G1 X146.6526 Y-127.4939
G1 X147.4253 Y-127.4030
G1 X148.6071 Y-126.9485
G1 X148.8344 Y-125.9485
G1 Z0.0000 F8000.0
G0 X146.6071 Y-126.7667 F15000.0
G1 Z11.9000 F8000.0
G1 X146.6071 Y-126.5849 F12000.0
G1 Z0.0000 F8000.0
G0 X147.2435 Y-120.6758 F15000.0
G1 Z11.9000 F8000.0
G1 X147.7435 Y-120.5849 F12000.0
G1 X147.3344 Y-121.9031
G1 X146.8344 Y-122.0395
G1 X146.6071 Y-121.8576
G1 X146.6981 Y-120.9940
G1 Z0.0000 F8000.0
G0 X148.8344 Y-124.0849 F15000.0
G1 Z11.9000 F8000.0
G1 X148.4253 Y-125.2213 F12000.0
G1 X146.6526 Y-125.6304
G1 X146.7435 Y-124.6304
G1 X148.6526 Y-123.9031
G1 X148.6981 Y-123.9485
G1 Z0.0000 F8000.0
G0 X146.7890 Y-123.1758 F15000.0
G1 Z11.9000 F8000.0
G1 X146.6071 Y-123.8576 F12000.0
G1 X148.6981 Y-123.2213
G1 Z0.0000 F8000.0
G0 X147.1526 Y-118.5849 F15000.0
G1 Z11.9000 F8000.0
G1 X148.7890 Y-117.9940 F12000.0
G1 X148.7890 Y-119.1304
G1 Z0.0000 F8000.0
G0 X147.7435 Y-120.5395 F15000.0
G1 Z11.9000 F8000.0
G1 X148.1071 Y-120.4031 F12000.0
G1 Z0.0000 F8000.0
G0 X148.1981 Y-119.6758 F15000.0
G1 Z11.9000 F8000.0
G1 X148.4708 Y-119.5395 F12000.0
G1 Z0.0000 F8000.0
G0 X148.3344 Y-120.3122 F15000.0
G1 Z11.9000 F8000.0
G1 X148.8799 Y-121.4485 F12000.0
G1 Z0.0000 F8000.0
G0 X175.5761 Y-269.3772 F15000.0
G1 Z11.9000 F8000.0
G1 X175.6670 Y-270.1499 F12000.0
G1 X175.9852 Y-270.3772
G1 X176.4397 Y-270.2408
G1 X177.0761 Y-269.7408
G1 X177.6215 Y-269.9681
G1 X178.3488 Y-269.6499
G1 X178.8033 Y-268.1954
G1 Z0.0000 F8000.0
G0 X175.6215 Y-268.0136 F15000.0
G1 Z11.9000 F8000.0
G1 X175.9397 Y-267.9227 F12000.0
G1 X177.4852 Y-267.7863
G1 X177.8488 Y-267.6045
G1 X178.8488 Y-267.5590
G1 Z0.0000 F8000.0
G0 X175.9852 Y-267.8772 F15000.0
G1 Z11.9000 F8000.0
G1 X176.0761 Y-267.6954 F12000.0
G1 Z0.0000 F8000.0
G0 X177.0761 Y-269.7408 F15000.0
G1 Z11.9000 F8000.0
G1 X177.0761 Y-269.2863 F12000.0
G1 Z0.0000 F8000.0
G0 X177.1670 Y-267.0136 F15000.0
G1 Z11.9000 F8000.0
G1 X177.8033 Y-266.6954 F12000.0
G1 X178.7124 Y-265.9681
G1 Z0.0000 F8000.0
G0 X177.8488 Y-267.5590 F15000.0
G1 Z11.9000 F8000.0
G1 X177.8488 Y-266.7408 F12000.0
G1 Z0.0000 F8000.0
G0 X17.6802 Y-18.8932 F15000.0
G1 Z11.9000 F8000.0
G1 X17.6802 Y-38.9591 F12000.0
G1 Z0.0000 F8000.0
G0 X61.6221 Y-18.8932 F15000.0
G1 Z11.9000 F8000.0
G1 X17.6802 Y-18.8932 F12000.0
G1 Z0.0000 F8000.0
G0 X61.6221 Y-18.8932 F15000.0
G1 Z11.9000 F8000.0
G1 X61.6221 Y-38.9591 F12000.0
G1 Z0.0000 F8000.0
G0 X17.6802 Y-5.0000 F15000.0
G1 Z11.9000 F8000.0
G1 X17.6802 Y-18.8932 F12000.0
G1 Z0.0000 F8000.0
G0 X61.6221 Y-5.0000 F15000.0
G1 Z11.9000 F8000.0
G1 X61.6221 Y-18.8932 F12000.0
G1 Z0.0000 F8000.0
G0 X61.6221 Y-38.9591 F15000.0
G1 Z11.9000 F8000.0
G1 X17.6802 Y-38.9591 F12000.0
G1 Z0.0000 F8000.0
G0 X39.6087 Y-6.0239 F15000.0
G1 Z11.9000 F8000.0
G1 X39.6087 Y-21.1792 F12000.0
G1 Z0.0000 F8000.0
G0 X39.6087 Y-22.7031 F15000.0
G1 Z11.9000 F8000.0
G1 X39.6087 Y-24.3118 F12000.0
G1 Z0.0000 F8000.0
G0 X39.6087 Y-25.7511 F15000.0
G1 Z11.9000 F8000.0
G1 X39.6087 Y-40.9064 F12000.0
G1 Z0.0000 F8000.0
G0 X67.7181 Y-243.4287 F15000.0
G1 Z11.9000 F8000.0
G1 X78.7247 Y-224.4635 F12000.0
G1 Z0.0000 F8000.0
G0 X52.8167 Y-243.4287 F15000.0
G1 Z11.9000 F8000.0
G1 X67.7181 Y-243.4287 F12000.0
G1 Z0.0000 F8000.0
G0 X32.8354 Y-183.0615 F15000.0
G1 Z11.9000 F8000.0
G1 X54.7641 Y-145.0462 F12000.0
G1 Z0.0000 F8000.0
G0 X87.6994 Y-260.7007 F15000.0
G1 Z11.9000 F8000.0
G1 X98.6214 Y-241.7354 F12000.0
G1 Z0.0000 F8000.0
G0 X52.8167 Y-243.4287 F15000.0
G1 Z11.9000 F8000.0
G1 X63.7387 Y-224.4635 F12000.0
G1 Z0.0000 F8000.0
G0 X54.7641 Y-145.0462 F15000.0
G1 Z11.9000 F8000.0
G1 X64.7547 Y-162.3182 F12000.0
G1 Z0.0000 F8000.0
G0 X67.7181 Y-243.4287 F15000.0
G1 Z11.9000 F8000.0
G1 X77.7087 Y-260.7007 F12000.0
G1 X87.6994 Y-260.7007 F12000.0
G1 Z0.0000 F8000.0
G0 X64.7547 Y-162.3182 F15000.0
G1 Z11.9000 F8000.0
G1 X49.7687 Y-162.3182 F12000.0
G1 Z0.0000 F8000.0
G0 X64.7547 Y-145.0462 F15000.0
G1 Z11.9000 F8000.0
G1 X54.7641 Y-145.0462 F12000.0
G1 Z0.0000 F8000.0
G0 X49.7687 Y-162.3182 F15000.0
G1 Z11.9000 F8000.0
G1 X62.2994 Y-183.9082 F12000.0
G1 Z0.0000 F8000.0
G0 X27.9248 Y-200.2489 F15000.0
G1 Z11.9000 F8000.0
G1 X52.8167 Y-243.4287 F12000.0
G1 Z0.0000 F8000.0
G0 X77.7087 Y-260.7007 F15000.0
G1 Z11.9000 F8000.0
G1 X88.6307 Y-241.7354 F12000.0
G1 Z0.0000 F8000.0
G0 X87.1914 Y-183.9082 F15000.0
G1 Z11.9000 F8000.0
G1 X64.7547 Y-145.0462 F12000.0
G1 Z0.0000 F8000.0
G0 X27.9248 Y-200.2489 F15000.0
G1 Z11.9000 F8000.0
G1 X49.7687 Y-162.3182 F12000.0
G1 Z0.0000 F8000.0
G0 X56.7961 Y-193.3909 F15000.0
G1 Z11.9000 F8000.0
G1 X51.2927 Y-183.9082 F12000.0
G1 Z0.0000 F8000.0
G0 X35.3754 Y-202.8735 F15000.0
G1 Z11.9000 F8000.0
G1 X46.2974 Y-221.8388 F12000.0
G1 Z0.0000 F8000.0
G0 X51.2927 Y-221.8388 F15000.0
G1 Z11.9000 F8000.0
G1 X56.7961 Y-212.3562 F12000.0
G1 Z0.0000 F8000.0
G0 X51.2927 Y-221.8388 F15000.0
G1 Z11.9000 F8000.0
G1 X46.2974 Y-221.8388 F12000.0
G1 Z0.0000 F8000.0
G0 X46.2974 Y-183.9082 F15000.0
G1 Z11.9000 F8000.0
G1 X35.3754 Y-202.8735 F12000.0
G1 Z0.0000 F8000.0
G0 X46.2974 Y-221.8388 F15000.0
G1 Z11.9000 F8000.0
G1 X51.8007 Y-212.3562 F12000.0
G1 Z0.0000 F8000.0
G0 X51.2927 Y-183.9082 F15000.0
G1 Z11.9000 F8000.0
G1 X46.2974 Y-183.9082 F12000.0
G1 Z0.0000 F8000.0
G0 X51.8007 Y-193.3909 F15000.0
G1 Z11.9000 F8000.0
G1 X46.2974 Y-183.9082 F12000.0
G1 Z0.0000 F8000.0
G0 X51.8007 Y-193.3909 F15000.0
G1 Z11.9000 F8000.0
G1 X49.0914 Y-198.1322 F12000.0
G1 Z0.0000 F8000.0
G0 X88.6307 Y-241.7354 F15000.0
G1 Z11.9000 F8000.0
G1 X98.6214 Y-241.7354 F12000.0
G1 Z0.0000 F8000.0
G0 X78.9787 Y-207.6148 F15000.0
G1 Z11.9000 F8000.0
G1 X49.0914 Y-207.6148 F12000.0
G1 Z0.0000 F8000.0
G0 X62.2994 Y-183.9082 F15000.0
G1 Z11.9000 F8000.0
G1 X56.7961 Y-193.3909 F12000.0
G1 Z0.0000 F8000.0
G0 X51.8007 Y-212.3562 F15000.0
G1 Z11.9000 F8000.0
G1 X56.7961 Y-212.3562 F12000.0
G1 Z0.0000 F8000.0
G0 X78.9787 Y-198.1322 F15000.0
G1 Z11.9000 F8000.0
G1 X87.1914 Y-183.9082 F12000.0
G1 Z0.0000 F8000.0
G0 X78.7247 Y-224.4635 F15000.0
G1 Z11.9000 F8000.0
G1 X88.6307 Y-241.7354 F12000.0
G1 Z0.0000 F8000.0
G0 X49.0914 Y-207.6148 F15000.0
G1 Z11.9000 F8000.0
G1 X51.8007 Y-212.3562 F12000.0
G1 Z0.0000 F8000.0
G0 X56.7961 Y-193.3909 F15000.0
G1 Z11.9000 F8000.0
G1 X51.8007 Y-193.3909 F12000.0
G1 Z0.0000 F8000.0
G0 X78.9787 Y-198.1322 F15000.0
G1 Z11.9000 F8000.0
G1 X49.0914 Y-198.1322 F12000.0
G1 Z0.0000 F8000.0
G0 X56.7961 Y-212.3562 F15000.0
G1 Z11.9000 F8000.0
G1 X63.7387 Y-224.4635 F12000.0
G1 X78.7247 Y-224.4635 F12000.0
G1 Z0.0000 F8000.0
G0 X98.6214 Y-241.7354 F15000.0
G1 Z11.9000 F8000.0
G1 X78.9787 Y-207.6148 F12000.0
G1 Z0.0000 F8000.0
G0 X87.1914 Y-183.9082 F15000.0
G1 Z11.9000 F8000.0
G1 X62.2994 Y-183.9082 F12000.0
G1 Z0.0000 F8000.0
G0 X32.8354 Y-183.0615 F15000.0
G1 Z11.9000 F8000.0
G1 X35.3754 Y-187.3795 F12000.0
G1 Z0.0000 F8000.0
G0 X49.0914 Y-198.1322 F15000.0
G1 Z11.9000 F8000.0
G1 X48.3294 Y-197.1162 F12000.0
G1 X47.4827 Y-196.4389 F12000.0
G1 X46.6361 Y-196.1849 F12000.0
G1 X46.2974 Y-196.1849 F12000.0
G1 X45.4507 Y-196.3542 F12000.0
G1 X44.6041 Y-196.8622 F12000.0
G1 X43.8421 Y-197.7089 F12000.0
G1 X43.2494 Y-198.8095 F12000.0
G1 X42.7414 Y-200.3335 F12000.0
G1 X42.4874 Y-202.1115 F12000.0
G1 X42.4874 Y-204.1435 F12000.0
G1 X42.9107 Y-205.9215 F12000.0
G1 X43.5034 Y-207.4455 F12000.0
G1 X44.2654 Y-208.5462 F12000.0
G1 X45.0274 Y-209.2235 F12000.0
G1 X45.8741 Y-209.5622 F12000.0
G1 X46.2974 Y-209.5622 F12000.0
G1 X47.1441 Y-209.3928 F12000.0
G1 X47.9907 Y-208.8848 F12000.0
G1 X48.7527 Y-208.0382 F12000.0
G1 X49.0914 Y-207.6148 F12000.0
G1 Z0.0000 F8000.0
G0 X73.4754 Y-198.1322 F15000.0
G1 Z11.9000 F8000.0
G1 X72.8827 Y-199.4022 F12000.0
G1 X72.4594 Y-201.0955 F12000.0
G1 X72.3747 Y-202.9582 F12000.0
G1 X72.5441 Y-204.9055 F12000.0
G1 X72.9674 Y-206.5988 F12000.0
G1 X73.4754 Y-207.6148 F12000.0
G1 Z0.0000 F8000.0
G0 X46.2974 Y-202.8735 F15000.0
G1 Z11.9000 F8000.0
G1 X58.9974 Y-202.8735 F12000.0
G1 Z0.0000 F8000.0
G0 X60.5214 Y-202.8735 F15000.0
G1 Z11.9000 F8000.0
G1 X62.0454 Y-202.8735 F12000.0
G1 Z0.0000 F8000.0
G0 X63.4847 Y-202.8735 F15000.0
G1 Z11.9000 F8000.0
G1 X76.1847 Y-202.8735 F12000.0
G1 Z0.0000 F8000.0
G0 X78.9787 Y-198.1322 F15000.0
G1 Z11.9000 F8000.0
G1 X73.4754 Y-207.6148 F12000.0
G1 Z0.0000 F8000.0
G0 X78.9787 Y-207.6148 F15000.0
G1 Z11.9000 F8000.0
G1 X73.4754 Y-198.1322 F12000.0
G1 Z0.0000 F8000.0
G0 X49.0914 Y-207.6148 F15000.0
G1 Z11.9000 F8000.0
G1 X43.0801 Y-197.2855 F12000.0
G1 Z0.0000 F8000.0
G0 X49.0914 Y-198.1322 F15000.0
G1 Z11.9000 F8000.0
G1 X43.1647 Y-208.2922 F12000.0
G1 Z0.0000 F8000.0
G0 X82.0267 Y-192.8829 F15000.0
G1 Z11.9000 F8000.0
G1 X72.8827 Y-198.1322 F12000.0
G1 Z0.0000 F8000.0
G0 X84.9900 Y-187.6335 F15000.0
G1 Z11.9000 F8000.0
G1 X66.8714 Y-198.1322 F12000.0
G1 Z0.0000 F8000.0
G0 X85.4980 Y-183.9082 F15000.0
G1 Z11.9000 F8000.0
G1 X60.8601 Y-198.1322 F12000.0
G1 Z0.0000 F8000.0
G0 X79.4867 Y-183.9082 F15000.0
G1 Z11.9000 F8000.0
G1 X54.8487 Y-198.1322 F12000.0
G1 Z0.0000 F8000.0
G0 X73.5601 Y-183.9082 F15000.0
G1 Z11.9000 F8000.0
G1 X49.1761 Y-197.9629 F12000.0
G1 Z0.0000 F8000.0
G0 X67.5487 Y-183.9082 F15000.0
G1 Z11.9000 F8000.0
G1 X59.5901 Y-188.4802 F12000.0
G1 Z0.0000 F8000.0
G0 X74.8300 Y-207.6148 F15000.0
G1 Z11.9000 F8000.0
G1 X81.0107 Y-211.1708 F12000.0
G1 Z0.0000 F8000.0
G0 X68.8187 Y-207.6148 F15000.0
G1 Z11.9000 F8000.0
G1 X83.9740 Y-216.3355 F12000.0
G1 Z0.0000 F8000.0
G0 X62.8921 Y-207.6148 F15000.0
G1 Z11.9000 F8000.0
G1 X87.0220 Y-221.5848 F12000.0
G1 Z0.0000 F8000.0
G0 X56.8807 Y-207.6148 F15000.0
G1 Z11.9000 F8000.0
G1 X89.9854 Y-226.7495 F12000.0
G1 Z0.0000 F8000.0
G0 X50.8694 Y-207.6148 F15000.0
G1 Z11.9000 F8000.0
G1 X92.9487 Y-231.9142 F12000.0
G1 Z0.0000 F8000.0
G0 X81.0107 Y-228.5275 F15000.0
G1 Z11.9000 F8000.0
G1 X95.9967 Y-237.1634 F12000.0
G1 Z0.0000 F8000.0
G0 X58.6587 Y-215.5735 F15000.0
G1 Z11.9000 F8000.0
G1 X73.9834 Y-224.4635 F12000.0
G1 Z0.0000 F8000.0
G0 X51.1234 Y-211.2555 F15000.0
G1 Z11.9000 F8000.0
G1 X53.0707 Y-212.3562 F12000.0
G1 Z0.0000 F8000.0
G0 X61.6221 Y-220.7382 F15000.0
G1 Z11.9000 F8000.0
G1 X67.9721 Y-224.4635 F12000.0
G1 Z0.0000 F8000.0
G0 X84.0587 Y-233.6921 F15000.0
G1 Z11.9000 F8000.0
G1 X97.8594 Y-241.7354 F12000.0
G1 Z0.0000 F8000.0
G0 X87.0220 Y-238.9414 F15000.0
G1 Z11.9000 F8000.0
G1 X91.8480 Y-241.7354 F12000.0
G1 Z0.0000 F8000.0
G0 X28.6021 Y-5.0000 F15000.0
G1 Z11.9000 F8000.0
G1 X28.6021 Y-55.1304 F12000.0
G1 Z0.0000 F8000.0
G0 X50.6154 Y-5.0000 F15000.0
G1 Z11.9000 F8000.0
G1 X50.6154 Y-55.1304 F12000.0
G1 Z0.0000 F8000.0
G0 X56.4574 Y-18.8932 F15000.0
G1 Z11.9000 F8000.0
G1 X75.5920 Y-18.8932 F12000.0
G1 Z0.0000 F8000.0
G0 X46.5514 Y-50.8124 F15000.0
G1 Z11.9000 F8000.0
G1 X46.5514 Y-45.8171 F12000.0
G1 X41.5561 Y-45.8171 F12000.0
G1 X41.5561 Y-50.8124 F12000.0
G1 X46.5514 Y-50.8124 F12000.0
G1 Z0.0000 F8000.0
G0 X28.6021 Y-53.0984 F15000.0
G1 Z11.9000 F8000.0
G1 X33.6821 Y-53.7758 F12000.0
G1 X33.1741 Y-53.0984 F12000.0
G1 X33.6821 Y-52.4211 F12000.0
G1 X28.6021 Y-53.0984 F12000.0
G1 Z0.0000 F8000.0
G0 X30.6498 Y-53.4371 F15000.0
G1 Z11.9000 F8000.0
G1 X31.5498 Y-53.4371 F12000.0
G1 Z0.0000 F8000.0
G0 X30.9461 Y-52.8021 F15000.0
G1 Z11.9000 F8000.0
G1 X31.8461 Y-52.8021 F12000.0
G1 Z0.0000 F8000.0
G0 X50.6154 Y-53.0984 F15000.0
G1 Z11.9000 F8000.0
G1 X45.6201 Y-52.4211 F12000.0
G1 X46.1281 Y-53.0984 F12000.0
G1 X45.6201 Y-53.7758 F12000.0
G1 X50.6154 Y-53.0984 F12000.0
G1 Z0.0000 F8000.0
G0 X47.3291 Y-52.8021 F15000.0
G1 Z11.9000 F8000.0
G1 X48.2291 Y-52.8021 F12000.0
G1 Z0.0000 F8000.0
G0 X47.6254 Y-53.4371 F15000.0
G1 Z11.9000 F8000.0
G1 X48.5254 Y-53.4371 F12000.0
G1 Z0.0000 F8000.0
G0 X28.6021 Y-53.0984 F15000.0
G1 Z11.9000 F8000.0
G1 X50.6154 Y-53.0984 F12000.0
G1 Z0.0000 F8000.0
G0 X73.6447 Y-18.8932 F15000.0
G1 Z11.9000 F8000.0
G1 X74.2374 Y-13.8979 F12000.0
G1 X73.6447 Y-14.4059 F12000.0
G1 X72.9674 Y-13.8979 F12000.0
G1 X73.6447 Y-18.8932 F12000.0
G1 Z0.0000 F8000.0
G0 X73.8987 Y-16.8879 F15000.0
G1 Z11.9000 F8000.0
G1 X73.8987 Y-15.9879 F12000.0
G1 Z0.0000 F8000.0
G0 X73.3061 Y-16.5916 F15000.0
G1 Z11.9000 F8000.0
G1 X73.3061 Y-15.6916 F12000.0
G1 Z0.0000 F8000.0
G0 X73.6447 Y-5.0000 F15000.0
G1 Z11.9000 F8000.0
G1 X73.6447 Y-18.8932 F12000.0
G1 Z0.0000 F8000.0
G0 X119.8727 Y-100.0037 F15000.0
G1 Z11.9000 F8000.0
G1 X119.8727 Y-285.0000 F12000.0
G1 Z0.0000 F8000.0
G0 X129.8632 Y-100.0037 F15000.0
G1 Z11.9000 F8000.0
G1 X129.8632 Y-165.0276 F12000.0
G1 Z0.0000 F8000.0
G0 X134.8586 Y-100.0037 F15000.0
G1 Z11.9000 F8000.0
G1 X134.8586 Y-165.0276 F12000.0
G1 Z0.0000 F8000.0
G0 X149.8445 Y-100.0037 F15000.0
G1 Z11.9000 F8000.0
G1 X149.8445 Y-165.0276 F12000.0
G1 Z0.0000 F8000.0
G0 X154.9245 Y-100.0037 F15000.0
G1 Z11.9000 F8000.0
G1 X154.9245 Y-165.0276 F12000.0
G1 Z0.0000 F8000.0
G0 X159.9199 Y-100.0037 F15000.0
G1 Z11.9000 F8000.0
G1 X159.9199 Y-165.0276 F12000.0
G1 Z0.0000 F8000.0
G0 X164.9152 Y-100.0037 F15000.0
G1 Z11.9000 F8000.0
G1 X164.9152 Y-165.0276 F12000.0
G1 Z0.0000 F8000.0
G0 X169.9105 Y-100.0037 F15000.0
G1 Z11.9000 F8000.0
G1 X169.9105 Y-165.0276 F12000.0
G1 Z0.0000 F8000.0
G0 X174.9059 Y-100.0037 F15000.0
G1 Z11.9000 F8000.0
G1 X119.8727 Y-100.0037 F12000.0
G1 Z0.0000 F8000.0
G0 X124.8680 Y-100.0037 F15000.0
G1 Z11.9000 F8000.0
G1 X124.8680 Y-165.0276 F12000.0
G1 Z0.0000 F8000.0
G0 X174.9059 Y-117.0217 F15000.0
G1 Z11.9000 F8000.0
G1 X119.8727 Y-117.0217 F12000.0
G1 Z0.0000 F8000.0
G0 X174.9059 Y-140.0509 F15000.0
G1 Z11.9000 F8000.0
G1 X119.8727 Y-140.0509 F12000.0
G1 Z0.0000 F8000.0
G0 X174.9059 Y-155.0369 F15000.0
G1 Z11.9000 F8000.0
G1 X119.8727 Y-155.0369 F12000.0
G1 Z0.0000 F8000.0
G0 X174.9059 Y-165.0276 F15000.0
G1 Z11.9000 F8000.0
G1 X119.8727 Y-165.0276 F12000.0
G1 Z0.0000 F8000.0
G0 X174.9059 Y-235.0467 F15000.0
G1 Z11.9000 F8000.0
G1 X134.8586 Y-235.0467 F12000.0
G1 Z0.0000 F8000.0
G0 X154.9245 Y-250.0327 F15000.0
G1 Z11.9000 F8000.0
G1 X134.8586 Y-250.0327 F12000.0
G1 Z0.0000 F8000.0
G0 X154.9245 Y-267.0507 F15000.0
G1 Z11.9000 F8000.0
G1 X134.8586 Y-267.0507 F12000.0
G1 Z0.0000 F8000.0
G0 X139.8539 Y-100.0037 F15000.0
G1 Z11.9000 F8000.0
G1 X139.8539 Y-165.0276 F12000.0
G1 Z0.0000 F8000.0
G0 X144.8492 Y-100.0037 F15000.0
G1 Z11.9000 F8000.0
G1 X144.8492 Y-165.0276 F12000.0
G1 Z0.0000 F8000.0
G0 X159.9199 Y-235.0467 F15000.0
G1 Z11.9000 F8000.0
G1 X159.9199 Y-285.0000 F12000.0
G1 Z0.0000 F8000.0
G0 X139.8539 Y-250.0327 F15000.0
G1 Z11.9000 F8000.0
G1 X139.8539 Y-285.0000 F12000.0
G1 Z0.0000 F8000.0
G0 X139.8539 Y-235.0467 F15000.0
G1 Z11.9000 F8000.0
G1 X139.8539 Y-250.0327 F12000.0
G1 Z0.0000 F8000.0
G0 X134.8586 Y-165.0276 F15000.0
G1 Z11.9000 F8000.0
G1 X134.8586 Y-285.0000 F12000.0
G1 Z0.0000 F8000.0
G0 X159.9199 Y-165.0276 F15000.0
G1 Z11.9000 F8000.0
G1 X159.9199 Y-235.0467 F12000.0
G1 Z0.0000 F8000.0
G0 X154.9245 Y-235.0467 F15000.0
G1 Z11.9000 F8000.0
G1 X154.9245 Y-285.0000 F12000.0
G1 Z0.0000 F8000.0
G0 X159.9199 Y-255.6207 F15000.0
G1 Z11.9000 F8000.0
G1 X154.9245 Y-255.6207 F12000.0
G1 Z0.0000 F8000.0
G0 X154.9245 Y-240.0420 F15000.0
G1 Z11.9000 F8000.0
G1 X139.8539 Y-240.0420 F12000.0
G1 Z0.0000 F8000.0
G0 X154.9245 Y-245.0374 F15000.0
G1 Z11.9000 F8000.0
G1 X139.8539 Y-245.0374 F12000.0
G1 Z0.0000 F8000.0
G0 X144.8492 Y-107.0310 F15000.0
G1 Z11.9000 F8000.0
G1 X119.8727 Y-107.0310 F12000.0
G1 Z0.0000 F8000.0
G0 X135.4983 Y-269.5247 F15000.0
G1 Z11.9000 F8000.0
G1 X135.9983 Y-269.5247 F12000.0
G1 X136.0892 Y-269.3429
G1 X137.4528 Y-268.7519
G1 Z0.0000 F8000.0
G0 X138.8619 Y-270.1156 F15000.0
G1 Z11.9000 F8000.0
G1 X136.0892 Y-271.1156 F12000.0
G1 X136.3164 Y-270.7519
G1 X136.8619 Y-270.1610
G1 X137.0437 Y-269.7974
G1 X137.2255 Y-269.7065
G1 Z0.0000 F8000.0
G0 X136.0892 Y-269.5247 F15000.0
G1 Z11.9000 F8000.0
G1 X136.4528 Y-269.6156 F12000.0
G1 Z0.0000 F8000.0
G0 X136.7255 Y-269.7065 F15000.0
G1 Z11.9000 F8000.0
G1 X137.0437 Y-269.7974 F12000.0
G1 Z0.0000 F8000.0
G0 X137.8619 Y-268.5701 F15000.0
G1 Z11.9000 F8000.0
G1 X138.9528 Y-268.1610 F12000.0
G1 Z0.0000 F8000.0
G0 X138.1908 Y-272.3649 F15000.0
G1 Z11.9000 F8000.0
G1 X136.5999 Y-272.7740 F12000.0
G1 X136.6908 Y-271.7285
G1 Z0.0000 F8000.0
G0 X137.6453 Y-271.2740 F15000.0
G1 Z11.9000 F8000.0
G1 X138.6908 Y-270.9558 F12000.0
G1 X138.7362 Y-271.0013
G1 Z0.0000 F8000.0
G0 X138.6908 Y-272.1831 F15000.0
G1 Z11.9000 F8000.0
G1 X138.8271 Y-271.0922 F12000.0
G1 Z0.0000 F8000.0
G0 X136.6530 Y-274.7812 F15000.0
G1 Z11.9000 F8000.0
G1 X136.7439 Y-273.5539 F12000.0
G1 Z0.0000 F8000.0
G0 X137.1076 Y-273.3266 F15000.0
G1 Z11.9000 F8000.0
G1 X138.0167 Y-273.0084 F12000.0
G1 Z0.0000 F8000.0
G0 X138.5167 Y-272.8266 F15000.0
G1 Z11.9000 F8000.0
G1 X138.6530 Y-272.8266 F12000.0
G1 X138.8803 Y-273.9630
G1 Z0.0000 F8000.0
G0 X136.5492 Y-277.4564 F15000.0
G1 Z11.9000 F8000.0
G1 X138.5947 Y-276.5927 F12000.0
G1 Z0.0000 F8000.0
G0 X136.5492 Y-276.4564 F15000.0
G1 Z11.9000 F8000.0
G1 X138.7765 Y-275.5927 F12000.0
G1 X138.7765 Y-274.7745
G1 X138.6856 Y-274.6836
G1 X136.5492 Y-275.4564
G1 Z0.0000 F8000.0
G0 X138.7765 Y-276.5018 F15000.0
G1 Z11.9000 F8000.0
G1 X138.7765 Y-275.5927 F12000.0
G1 Z0.0000 F8000.0
G0 X138.9634 Y-279.0297 F15000.0
G1 Z11.9000 F8000.0
G1 X137.5544 Y-279.5297 F12000.0
G1 X136.6453 Y-279.6660
G1 X136.6453 Y-278.8479
G1 X136.9634 Y-278.8024
G1 X138.9634 Y-278.0297
G1 Z0.0000 F8000.0
G0 X136.6453 Y-278.8479 F15000.0
G1 Z11.9000 F8000.0
G1 X136.8271 Y-277.8933 F12000.0
G1 Z0.0000 F8000.0
G0 X137.1453 Y-277.7569 F15000.0
G1 Z11.9000 F8000.0
G1 X138.9634 Y-277.0297 F12000.0
G1 Z0.0000 F8000.0
G0 X138.1908 Y-281.2549 F15000.0
G1 Z11.9000 F8000.0
G1 X136.5999 Y-281.6640 F12000.0
G1 X136.6908 Y-280.6185
G1 Z0.0000 F8000.0
G0 X137.6453 Y-280.1640 F15000.0
G1 Z11.9000 F8000.0
G1 X138.6908 Y-279.8458 F12000.0
G1 X138.7362 Y-279.8912
G1 Z0.0000 F8000.0
G0 X138.6908 Y-281.0730 F15000.0
G1 Z11.9000 F8000.0
G1 X138.8271 Y-279.9821 F12000.0
G1 Z0.0000 F8000.0
G0 X136.6670 Y-283.4416 F15000.0
G1 Z11.9000 F8000.0
G1 X137.9852 Y-283.1234 F12000.0
G1 X138.7125 Y-282.7143
G1 X138.7125 Y-281.7143
G1 X136.7579 Y-282.3961
G1 X136.6216 Y-282.6234
G1 X136.4852 Y-283.2143
G1 X135.9398 Y-282.9870
G1 X135.6216 Y-282.9416
G1 X135.6670 Y-284.0779
G1 Z0.0000 F8000.0
G0 X146.9707 Y-103.0720 F15000.0
G1 Z11.9000 F8000.0
G1 X146.1980 Y-103.4356 F12000.0
G1 X145.6980 Y-103.2538
G1 X147.2889 Y-101.5720
G1 X148.1980 Y-101.1629
G1 Z0.0000 F8000.0
G0 X147.2889 Y-102.6629 F15000.0
G1 Z11.9000 F8000.0
G1 X147.3344 Y-101.6174 F12000.0
G1 Z0.0000 F8000.0
G0 X148.5162 Y-101.0265 F15000.0
G1 Z11.9000 F8000.0
G1 X148.9707 Y-100.8901 F12000.0
G1 Z0.0000 F8000.0
G0 X148.1908 Y-104.6327 F15000.0
G1 Z11.9000 F8000.0
G1 X146.5999 Y-105.0418 F12000.0
G1 X146.6908 Y-103.9964
G1 Z0.0000 F8000.0
G0 X147.6453 Y-103.5418 F15000.0
G1 Z11.9000 F8000.0
G1 X148.6908 Y-103.2236 F12000.0
G1 X148.7362 Y-103.2691
G1 Z0.0000 F8000.0
G0 X148.6908 Y-104.4509 F15000.0
G1 Z11.9000 F8000.0
G1 X148.8271 Y-103.3600 F12000.0
G1 Z0.0000 F8000.0
G0 X147.5012 Y-106.4786 F15000.0
G1 Z11.9000 F8000.0
G1 X146.6830 Y-106.6150 F12000.0
G1 X146.7284 Y-105.9331
G1 X146.8193 Y-105.7059
G1 Z0.0000 F8000.0
G0 X148.5012 Y-106.1604 F15000.0
G1 Z11.9000 F8000.0
G1 X148.1375 Y-106.2513 F12000.0
G1 X147.6830 Y-106.2513
G1 X147.6830 Y-105.7968
G1 Z0.0000 F8000.0
G0 X148.5921 Y-105.0695 F15000.0
G1 Z11.9000 F8000.0
G1 X148.8193 Y-105.5695 F12000.0
G1 X148.6830 Y-105.9786
G1 Z0.0000 F8000.0
G0 X148.8270 Y-106.7766 F15000.0
G1 Z11.9000 F8000.0
G1 X148.5998 Y-108.0039 F12000.0
G1 X147.4179 Y-108.4584
G1 X146.6452 Y-108.5494
G1 X148.7816 Y-106.7312
G1 X149.6907 Y-106.2766
G1 Z0.0000 F8000.0
G0 X148.1908 Y-110.0964 F15000.0
G1 Z11.9000 F8000.0
G1 X146.5999 Y-110.5055 F12000.0
G1 X146.6908 Y-109.4600
G1 Z0.0000 F8000.0
G0 X147.6453 Y-109.0055 F15000.0
G1 Z11.9000 F8000.0
G1 X148.6908 Y-108.6873 F12000.0
G1 X148.7362 Y-108.7327
G1 Z0.0000 F8000.0
G0 X148.6908 Y-109.9146 F15000.0
G1 Z11.9000 F8000.0
G1 X148.8271 Y-108.8237 F12000.0
G1 Z0.0000 F8000.0
G0 X146.6670 Y-112.2831 F15000.0
G1 Z11.9000 F8000.0
G1 X147.9852 Y-111.9649 F12000.0
G1 X148.7125 Y-111.5558
G1 X148.7125 Y-110.5558
G1 X146.7579 Y-111.2376
G1 X146.6216 Y-111.4649
G1 X146.4852 Y-112.0558
G1 X145.9398 Y-111.8285
G1 X145.6216 Y-111.7831
G1 X145.6670 Y-112.9194
G1 Z0.0000 F8000.0
G0 X148.6669 Y-112.2395 F15000.0
G1 Z11.9000 F8000.0
G1 X148.8669 Y-112.2395 F12000.0
G1 Z0.0000 F8000.0
G0 X155.5761 Y-102.0881 F15000.0
G1 Z11.9000 F8000.0
G1 X155.6670 Y-102.7699 F12000.0
G1 X156.1670 Y-102.6790
G1 X158.7579 Y-101.6790
G1 Z0.0000 F8000.0
G0 X155.6670 Y-103.7245 F15000.0
G1 Z11.9000 F8000.0
G1 X155.6670 Y-102.8608 F12000.0
G1 Z0.0000 F8000.0
G0 X158.6669 Y-103.0717 F15000.0
G1 Z11.9000 F8000.0
G1 X158.8669 Y-103.0717 F12000.0
G1 Z0.0000 F8000.0
G0 X156.5492 Y-104.6002 F15000.0
G1 Z11.9000 F8000.0
G1 X157.9583 Y-104.0093 F12000.0
G1 Z0.0000 F8000.0
G0 X156.7765 Y-105.5547 F15000.0
G1 Z11.9000 F8000.0
G1 X156.8674 Y-105.4638 F12000.0
G1 Z0.0000 F8000.0
G0 X157.0492 Y-105.1911 F15000.0
G1 Z11.9000 F8000.0
G1 X157.2310 Y-104.9638 F12000.0
G1 Z0.0000 F8000.0
G0 X157.4128 Y-104.6911 F15000.0
G1 Z11.9000 F8000.0
G1 X157.6401 Y-104.5547 F12000.0
G1 X157.6856 Y-104.2365
G1 Z0.0000 F8000.0
G0 X157.7310 Y-104.6002 F15000.0
G1 Z11.9000 F8000.0
G1 X158.7765 Y-104.8729 F12000.0
G1 Z0.0000 F8000.0
G0 X158.5038 Y-103.7365 F15000.0
G1 Z11.9000 F8000.0
G1 X158.8674 Y-103.5547 F12000.0
G1 Z0.0000 F8000.0
G0 X158.5135 Y-106.8455 F15000.0
G1 Z11.9000 F8000.0
G1 X157.7408 Y-107.1637 F12000.0
G1 X156.6499 Y-107.3455
G1 X156.7408 Y-106.3455
G1 X158.6499 Y-105.6182
G1 X158.7408 Y-106.6637
G1 Z0.0000 F8000.0
G0 X156.5492 Y-108.3080 F15000.0
G1 Z11.9000 F8000.0
G1 X157.6401 Y-107.8990 F12000.0
G1 X158.8674 Y-107.2626
G1 Z0.0000 F8000.0
G0 X156.7310 Y-109.4444 F15000.0
G1 Z11.9000 F8000.0
G1 X157.6856 Y-108.9444 F12000.0
G1 X158.9128 Y-108.5353
G1 Z0.0000 F8000.0
G0 X157.6856 Y-108.8535 F15000.0
G1 Z11.9000 F8000.0
G1 X157.6856 Y-107.9444 F12000.0
G1 Z0.0000 F8000.0
G0 X158.9634 Y-111.1123 F15000.0
G1 Z11.9000 F8000.0
G1 X157.5543 Y-111.6123 F12000.0
G1 X156.6452 Y-111.7487
G1 X156.6452 Y-110.9305
G1 X156.9634 Y-110.8851
G1 X158.9634 Y-110.1123
G1 Z0.0000 F8000.0
G0 X156.6452 Y-110.9305 F15000.0
G1 Z11.9000 F8000.0
G1 X156.8271 Y-109.9760 F12000.0
G1 Z0.0000 F8000.0
G0 X157.1452 Y-109.8396 F15000.0
G1 Z11.9000 F8000.0
G1 X158.9634 Y-109.1123 F12000.0
G1 Z0.0000 F8000.0
G0 X158.8270 Y-111.8699 F15000.0
G1 Z11.9000 F8000.0
G1 X158.5997 Y-113.0971 F12000.0
G1 X157.4179 Y-113.5517
G1 X156.6452 Y-113.6426
G1 X158.7815 Y-111.8244
G1 X159.6906 Y-111.3699
G1 Z0.0000 F8000.0
G0 X158.6669 Y-113.6285 F15000.0
G1 Z11.9000 F8000.0
G1 X158.8669 Y-113.6285 F12000.0
G1 Z0.0000 F8000.0
G0 X155.6887 Y-260.3631 F15000.0
G1 Z11.9000 F8000.0
G1 X155.7796 Y-261.0449 F12000.0
G1 X158.6887 Y-259.9995
G1 Z0.0000 F8000.0
G0 X156.0523 Y-260.1358 F15000.0
G1 Z11.9000 F8000.0
G1 X156.1432 Y-260.0449 F12000.0
G1 Z0.0000 F8000.0
G0 X156.7796 Y-259.6358 F15000.0
G1 Z11.9000 F8000.0
G1 X157.2796 Y-259.2722 F12000.0
G1 Z0.0000 F8000.0
G0 X157.6432 Y-259.0449 F15000.0
G1 Z11.9000 F8000.0
G1 X158.7796 Y-258.2722 F12000.0
G1 Z0.0000 F8000.0
G0 X156.5492 Y-262.7361 F15000.0
G1 Z11.9000 F8000.0
G1 X158.2310 Y-262.0542 F12000.0
G1 X158.8219 Y-260.8270
G1 X158.4583 Y-260.7361
G1 X156.5492 Y-261.5088
G1 Z0.0000 F8000.0
G0 X156.6530 Y-264.5095 F15000.0
G1 Z11.9000 F8000.0
G1 X156.7439 Y-263.2823 F12000.0
G1 Z0.0000 F8000.0
G0 X157.1075 Y-263.0550 F15000.0
G1 Z11.9000 F8000.0
G1 X158.0166 Y-262.7368 F12000.0
G1 Z0.0000 F8000.0
G0 X158.5166 Y-262.5550 F15000.0
G1 Z11.9000 F8000.0
G1 X158.6530 Y-262.5550 F12000.0
G1 X158.8803 Y-263.6914
G1 Z0.0000 F8000.0
G0 X158.9634 Y-266.1651 F15000.0
G1 Z11.9000 F8000.0
G1 X157.5543 Y-266.6651 F12000.0
G1 X156.6452 Y-266.8015
G1 X156.6452 Y-265.9833
G1 X156.9634 Y-265.9379
G1 X158.9634 Y-265.1651
G1 Z0.0000 F8000.0
G0 X156.6452 Y-265.9833 F15000.0
G1 Z11.9000 F8000.0
G1 X156.8271 Y-265.0288 F12000.0
G1 Z0.0000 F8000.0
G0 X157.1452 Y-264.8924 F15000.0
G1 Z11.9000 F8000.0
G1 X158.9634 Y-264.1651 F12000.0
G1 Z0.0000 F8000.0
G0 X158.5135 Y-268.1954 F15000.0
G1 Z11.9000 F8000.0
G1 X157.7408 Y-268.5135 F12000.0
G1 X156.6499 Y-268.6954
G1 X156.7408 Y-267.6954
G1 X158.6499 Y-266.9681
G1 X158.7408 Y-268.0135
G1 Z0.0000 F8000.0
G0 X155.6544 Y-270.4111 F15000.0
G1 Z11.9000 F8000.0
G1 X155.7908 Y-269.8656 F12000.0
G1 X158.6544 Y-268.8202
G1 X158.6999 Y-268.8656
G1 Z0.0000 F8000.0
G0 X155.8363 Y-270.5020 F15000.0
G1 Z11.9000 F8000.0
G1 X156.5181 Y-270.0020 F12000.0
G1 X156.6544 Y-270.5474
G1 X157.4272 Y-270.4565
G1 X158.6090 Y-270.0020
G1 X158.8363 Y-269.0020
G1 Z0.0000 F8000.0
G0 X156.6090 Y-269.8202 F15000.0
G1 Z11.9000 F8000.0
G1 X156.6090 Y-269.6384 F12000.0
G1 Z0.0000 F8000.0
G0 X165.5552 Y-102.2581 F15000.0
G1 Z11.9000 F8000.0
G1 X167.0552 Y-101.7581 F12000.0
G1 X168.9643 Y-100.8945
G1 Z0.0000 F8000.0
G0 X165.7370 Y-103.6672 F15000.0
G1 Z11.9000 F8000.0
G1 X167.1007 Y-102.9399 F12000.0
G1 X167.1007 Y-101.8035
G1 Z0.0000 F8000.0
G0 X167.1461 Y-102.9399 F15000.0
G1 Z11.9000 F8000.0
G1 X167.8734 Y-102.7581 F12000.0
G1 Z0.0000 F8000.0
G0 X168.3280 Y-102.5763 F15000.0
G1 Z11.9000 F8000.0
G1 X168.9643 Y-102.3945 F12000.0
G1 Z0.0000 F8000.0
G0 X168.6669 Y-103.0717 F15000.0
G1 Z11.9000 F8000.0
G1 X168.8669 Y-103.0717 F12000.0
G1 Z0.0000 F8000.0
G0 X166.5492 Y-104.6002 F15000.0
G1 Z11.9000 F8000.0
G1 X167.9583 Y-104.0093 F12000.0
G1 Z0.0000 F8000.0
G0 X166.7765 Y-105.5547 F15000.0
G1 Z11.9000 F8000.0
G1 X166.8674 Y-105.4638 F12000.0
G1 Z0.0000 F8000.0
G0 X167.0492 Y-105.1911 F15000.0
G1 Z11.9000 F8000.0
G1 X167.2310 Y-104.9638 F12000.0
G1 Z0.0000 F8000.0
G0 X167.4128 Y-104.6911 F15000.0
G1 Z11.9000 F8000.0
G1 X167.6401 Y-104.5547 F12000.0
G1 X167.6856 Y-104.2365
G1 Z0.0000 F8000.0
G0 X167.7310 Y-104.6002 F15000.0
G1 Z11.9000 F8000.0
G1 X168.7765 Y-104.8729 F12000.0
G1 Z0.0000 F8000.0
G0 X168.5037 Y-103.7365 F15000.0
G1 Z11.9000 F8000.0
G1 X168.8674 Y-103.5547 F12000.0
G1 Z0.0000 F8000.0
G0 X168.5135 Y-106.8455 F15000.0
G1 Z11.9000 F8000.0
G1 X167.7408 Y-107.1637 F12000.0
G1 X166.6499 Y-107.3455
G1 X166.7408 Y-106.3455
G1 X168.6499 Y-105.6182
G1 X168.7408 Y-106.6637
G1 Z0.0000 F8000.0
G0 X166.5492 Y-108.3080 F15000.0
G1 Z11.9000 F8000.0
G1 X167.6401 Y-107.8990 F12000.0
G1 X168.8674 Y-107.2626
G1 Z0.0000 F8000.0
G0 X166.7310 Y-109.4444 F15000.0
G1 Z11.9000 F8000.0
G1 X167.6856 Y-108.9444 F12000.0
G1 X168.9128 Y-108.5353
G1 Z0.0000 F8000.0
G0 X167.6856 Y-108.8535 F15000.0
G1 Z11.9000 F8000.0
G1 X167.6856 Y-107.9444 F12000.0
G1 Z0.0000 F8000.0
G0 X168.9634 Y-111.1123 F15000.0
G1 Z11.9000 F8000.0
G1 X167.5543 Y-111.6123 F12000.0
G1 X166.6452 Y-111.7487
G1 X166.6452 Y-110.9305
G1 X166.9634 Y-110.8851
G1 X168.9634 Y-110.1123
G1 Z0.0000 F8000.0
G0 X166.6452 Y-110.9305 F15000.0
G1 Z11.9000 F8000.0
G1 X166.8271 Y-109.9760 F12000.0
G1 Z0.0000 F8000.0
G0 X167.1452 Y-109.8396 F15000.0
G1 Z11.9000 F8000.0
G1 X168.9634 Y-109.1123 F12000.0
G1 Z0.0000 F8000.0
G0 X168.8270 Y-111.8699 F15000.0
G1 Z11.9000 F8000.0
G1 X168.5997 Y-113.0971 F12000.0
G1 X167.4179 Y-113.5517
G1 X166.6452 Y-113.6426
G1 X168.7815 Y-111.8244
G1 X169.6906 Y-111.3699
G1 Z0.0000 F8000.0
G0 X168.6669 Y-113.6285 F15000.0
G1 Z11.9000 F8000.0
G1 X168.8669 Y-113.6285 F12000.0
G1 Z0.0000 F8000.0
G0 X144.9642 Y-278.9089 F15000.0
G1 Z11.9000 F8000.0
G1 X145.1915 Y-278.7725 F12000.0
G1 X145.2824 Y-278.3634
G1 Z0.0000 F8000.0
G0 X145.2369 Y-278.7725 F15000.0
G1 Z11.9000 F8000.0
G1 X149.3733 Y-277.2725 F12000.0
G1 Z0.0000 F8000.0
G0 X145.6915 Y-277.7271 F15000.0
G1 Z11.9000 F8000.0
G1 X146.0096 Y-277.3634 F12000.0
G1 Z0.0000 F8000.0
G0 X155.6017 Y-280.4171 F15000.0
G1 Z11.9000 F8000.0
G1 X155.8290 Y-280.2352 F12000.0
G1 X158.6926 Y-279.1898
G1 Z0.0000 F8000.0
G0 X156.0108 Y-279.7807 F15000.0
G1 Z11.9000 F8000.0
G1 X156.2380 Y-279.4171 F12000.0
G1 Z0.0000 F8000.0
G0 X123.8353 Y-214.9233 F15000.0
G1 Z11.9000 F8000.0
G1 X123.9716 Y-214.7869 F12000.0
G1 Z0.0000 F8000.0
G0 X124.0625 Y-211.8778 F15000.0
G1 Z11.9000 F8000.0
G1 X127.1080 Y-210.8778 F12000.0
G1 X130.2897 Y-209.6051
G1 Z0.0000 F8000.0
G0 X124.2444 Y-214.4687 F15000.0
G1 Z11.9000 F8000.0
G1 X124.3807 Y-214.3324 F12000.0
G1 Z0.0000 F8000.0
G0 X124.6080 Y-214.0596 F15000.0
G1 Z11.9000 F8000.0
G1 X124.7898 Y-213.8778 F12000.0
G1 Z0.0000 F8000.0
G0 X125.0171 Y-213.6051 F15000.0
G1 Z11.9000 F8000.0
G1 X125.1534 Y-213.4687 F12000.0
G1 Z0.0000 F8000.0
G0 X125.3807 Y-213.1960 F15000.0
G1 Z11.9000 F8000.0
G1 X125.5625 Y-213.0142 F12000.0
G1 Z0.0000 F8000.0
G0 X125.7898 Y-212.7415 F15000.0
G1 Z11.9000 F8000.0
G1 X126.5171 Y-212.2415 F12000.0
G1 X130.0624 Y-212.6051
G1 Z0.0000 F8000.0
G0 X126.5625 Y-212.1960 F15000.0
G1 Z11.9000 F8000.0
G1 X126.7444 Y-211.6960 F12000.0
G1 Z0.0000 F8000.0
G0 X127.0625 Y-211.2869 F15000.0
G1 Z11.9000 F8000.0
G1 X127.1534 Y-210.9233 F12000.0
G1 Z0.0000 F8000.0
G0 X123.8352 Y-216.2192 F15000.0
G1 Z11.9000 F8000.0
G1 X126.6989 Y-215.2646 F12000.0
G1 X128.8351 Y-214.4010
G1 Z0.0000 F8000.0
G0 X123.9261 Y-219.2192 F15000.0
G1 Z11.9000 F8000.0
G1 X126.7443 Y-218.0828 F12000.0
G1 X126.7443 Y-215.3101
G1 Z0.0000 F8000.0
G0 X126.7898 Y-218.0374 F15000.0
G1 Z11.9000 F8000.0
G1 X128.1988 Y-217.6283 F12000.0
G1 Z0.0000 F8000.0
G0 X128.9260 Y-217.3555 F15000.0
G1 Z11.9000 F8000.0
G1 X130.2897 Y-216.8555 F12000.0
G1 Z0.0000 F8000.0
G0 X129.4260 Y-214.1737 F15000.0
G1 Z11.9000 F8000.0
G1 X130.2897 Y-213.8555 F12000.0
G1 Z0.0000 F8000.0
G0 X123.6850 Y-222.9063 F15000.0
G1 Z11.9000 F8000.0
G1 X126.5487 Y-219.4973 F12000.0
G1 X130.2759 Y-218.0882
G1 Z0.0000 F8000.0
G0 X130.0466 Y-221.7403 F15000.0
G1 Z11.9000 F8000.0
G1 X130.2466 Y-221.7403 F12000.0
G1 Z0.0000 F8000.0
G0 X123.8669 Y-227.5535 F15000.0
G1 Z11.9000 F8000.0
G1 X123.9123 Y-225.9171 F12000.0
G1 Z0.0000 F8000.0
G0 X123.9578 Y-227.6898 F15000.0
G1 Z11.9000 F8000.0
G1 X124.1396 Y-227.8716 F12000.0
G1 X125.1850 Y-227.8716
G1 X125.6850 Y-227.6898
G1 Z0.0000 F8000.0
G0 X124.2760 Y-225.3716 F15000.0
G1 Z11.9000 F8000.0
G1 X124.5487 Y-225.0989 F12000.0
G1 Z0.0000 F8000.0
G0 X124.9578 Y-224.8716 F15000.0
G1 Z11.9000 F8000.0
G1 X125.6850 Y-224.5989 F12000.0
G1 Z0.0000 F8000.0
G0 X126.0487 Y-227.5535 F15000.0
G1 Z11.9000 F8000.0
G1 X126.1850 Y-227.5080 F12000.0
G1 Z0.0000 F8000.0
G0 X126.0487 Y-224.4626 F15000.0
G1 Z11.9000 F8000.0
G1 X126.1850 Y-224.4171 F12000.0
G1 Z0.0000 F8000.0
G0 X126.5487 Y-227.3716 F15000.0
G1 Z11.9000 F8000.0
G1 X126.8214 Y-227.2807 F12000.0
G1 Z0.0000 F8000.0
G0 X126.5487 Y-224.2807 F15000.0
G1 Z11.9000 F8000.0
G1 X126.8214 Y-224.1898 F12000.0
G1 Z0.0000 F8000.0
G0 X127.1850 Y-227.1444 F15000.0
G1 Z11.9000 F8000.0
G1 X127.4577 Y-227.0535 F12000.0
G1 Z0.0000 F8000.0
G0 X127.1850 Y-224.0535 F15000.0
G1 Z11.9000 F8000.0
G1 X127.4577 Y-223.9626 F12000.0
G1 Z0.0000 F8000.0
G0 X127.8213 Y-226.9171 F15000.0
G1 Z11.9000 F8000.0
G1 X127.9577 Y-226.8716 F12000.0
G1 Z0.0000 F8000.0
G0 X127.8213 Y-223.8262 F15000.0
G1 Z11.9000 F8000.0
G1 X127.9577 Y-223.7807 F12000.0
G1 Z0.0000 F8000.0
G0 X128.3213 Y-226.7353 F15000.0
G1 Z11.9000 F8000.0
G1 X129.1849 Y-226.3716 F12000.0
G1 Z0.0000 F8000.0
G0 X128.3213 Y-223.6444 F15000.0
G1 Z11.9000 F8000.0
G1 X129.0031 Y-223.4171 F12000.0
G1 X129.9122 Y-223.4626
G1 Z0.0000 F8000.0
G0 X129.5031 Y-226.1898 F15000.0
G1 Z11.9000 F8000.0
G1 X129.9577 Y-225.6898 F12000.0
G1 Z0.0000 F8000.0
G0 X130.1395 Y-225.3262 F15000.0
G1 Z11.9000 F8000.0
G1 X130.1849 Y-223.7807 F12000.0
G1 Z0.0000 F8000.0
G0 X125.6850 Y-231.8091 F15000.0
G1 Z11.9000 F8000.0
G1 X125.0487 Y-232.1272 F12000.0
G1 X124.7760 Y-232.1727
G1 X124.1396 Y-231.9000
G1 X123.8214 Y-231.4454
G1 X124.0941 Y-229.9909
G1 X124.4123 Y-229.5818
G1 Z0.0000 F8000.0
G0 X127.8213 Y-229.6727 F15000.0
G1 Z11.9000 F8000.0
G1 X130.1849 Y-227.5363 F12000.0
G1 X130.1849 Y-230.1727
G1 Z0.0000 F8000.0
G0 X130.0466 Y-231.3711 F15000.0
G1 Z11.9000 F8000.0
G1 X130.2466 Y-231.3711 F12000.0
G1 Z0.0000 F8000.0
G0 X123.9098 Y-240.6726 F15000.0
G1 Z11.9000 F8000.0
G1 X124.0916 Y-240.5362 F12000.0
G1 X124.3189 Y-239.9907
G1 X125.2734 Y-238.6271
G1 Z0.0000 F8000.0
G0 X124.2280 Y-240.4453 F15000.0
G1 Z11.9000 F8000.0
G1 X124.6825 Y-240.3998 F12000.0
G1 X130.0915 Y-238.3998
G1 Z0.0000 F8000.0
G0 X142.2980 Y-189.4042 F15000.0
G1 Z11.9000 F8000.0
G1 X142.7525 Y-192.8588 F12000.0
G1 Z0.0000 F8000.0
G0 X143.1162 Y-192.9951 F15000.0
G1 Z11.9000 F8000.0
G1 X146.5253 Y-191.9042 F12000.0
G1 X146.5707 Y-189.3588
G1 Z0.0000 F8000.0
G0 X146.5707 Y-191.8588 F15000.0
G1 Z11.9000 F8000.0
G1 X149.5253 Y-190.9497 F12000.0
G1 X150.3434 Y-190.5406
G1 X150.9798 Y-189.9042
G1 X151.3889 Y-189.0406
G1 X151.5707 Y-186.0860
G1 Z0.0000 F8000.0
G0 X145.0640 Y-197.8444 F15000.0
G1 Z11.9000 F8000.0
G1 X145.2913 Y-194.7990 F12000.0
G1 Z0.0000 F8000.0
G0 X145.4731 Y-194.5262 F15000.0
G1 Z11.9000 F8000.0
G1 X145.6550 Y-194.2990 F12000.0
G1 Z0.0000 F8000.0
G0 X146.0640 Y-194.0717 F15000.0
G1 Z11.9000 F8000.0
G1 X149.2004 Y-192.8899 F12000.0
G1 X151.1095 Y-192.3899
G1 X151.4731 Y-195.4808
G1 Z0.0000 F8000.0
G0 X145.1095 Y-203.2477 F15000.0
G1 Z11.9000 F8000.0
G1 X147.2913 Y-200.4750 F12000.0
G1 X147.9731 Y-199.9295
G1 X148.4277 Y-198.6568
G1 X148.8368 Y-198.3386
G1 Z0.0000 F8000.0
G0 X145.2004 Y-199.6568 F15000.0
G1 Z11.9000 F8000.0
G1 X148.3822 Y-198.6113 F12000.0
G1 Z0.0000 F8000.0
G0 X148.0640 Y-199.9750 F15000.0
G1 Z11.9000 F8000.0
G1 X148.3368 Y-200.0204 F12000.0
G1 Z0.0000 F8000.0
G0 X148.6095 Y-200.1113 F15000.0
G1 Z11.9000 F8000.0
G1 X151.2913 Y-200.8841 F12000.0
G1 Z0.0000 F8000.0
G0 X149.1550 Y-198.2022 F15000.0
G1 Z11.9000 F8000.0
G1 X149.7913 Y-197.9750 F12000.0
G1 Z0.0000 F8000.0
G0 X150.1550 Y-197.8386 F15000.0
G1 Z11.9000 F8000.0
G1 X150.2913 Y-197.7931 F12000.0
G1 Z0.0000 F8000.0
G0 X151.3822 Y-197.3841 F15000.0
G1 Z11.9000 F8000.0
G1 X151.4731 Y-197.2931 F12000.0
G1 Z0.0000 F8000.0
G0 X145.0640 Y-205.0017 F15000.0
G1 Z11.9000 F8000.0
G1 X145.4731 Y-204.8199 F12000.0
G1 Z0.0000 F8000.0
G0 X145.2004 Y-208.5017 F15000.0
G1 Z11.9000 F8000.0
G1 X145.8368 Y-208.2745 F12000.0
G1 Z0.0000 F8000.0
G0 X145.8368 Y-204.6835 F15000.0
G1 Z11.9000 F8000.0
G1 X145.9731 Y-204.6381 F12000.0
G1 Z0.0000 F8000.0
G0 X146.2004 Y-208.1381 F15000.0
G1 Z11.9000 F8000.0
G1 X146.3368 Y-208.0926 F12000.0
G1 Z0.0000 F8000.0
G0 X146.4731 Y-204.4563 F15000.0
G1 Z11.9000 F8000.0
G1 X146.6095 Y-204.4108 F12000.0
G1 Z0.0000 F8000.0
G0 X146.7004 Y-207.9563 F15000.0
G1 Z11.9000 F8000.0
G1 X146.8368 Y-207.9108 F12000.0
G1 Z0.0000 F8000.0
G0 X146.9731 Y-204.2745 F15000.0
G1 Z11.9000 F8000.0
G1 X151.0640 Y-202.9563 F12000.0
G1 X151.2004 Y-203.0472
G1 Z0.0000 F8000.0
G0 X148.0640 Y-207.4563 F15000.0
G1 Z11.9000 F8000.0
G1 X151.3368 Y-206.2290 F12000.0
G1 X151.3822 Y-203.2290
G1 Z0.0000 F8000.0
G0 X145.2459 Y-212.7659 F15000.0
G1 Z11.9000 F8000.0
G1 X145.3368 Y-210.8568 F12000.0
G1 Z0.0000 F8000.0
G0 X145.4277 Y-212.9477 F15000.0
G1 Z11.9000 F8000.0
G1 X145.8368 Y-213.0841 F12000.0
G1 X147.6095 Y-212.4022
G1 X147.8822 Y-212.1750
G1 Z0.0000 F8000.0
G0 X145.4731 Y-210.6295 F15000.0
G1 Z11.9000 F8000.0
G1 X145.7913 Y-210.3568 F12000.0
G1 Z0.0000 F8000.0
G0 X148.1095 Y-211.9022 F15000.0
G1 Z11.9000 F8000.0
G1 X148.3368 Y-211.7204 F12000.0
G1 X148.3822 Y-210.5841
G1 Z0.0000 F8000.0
G0 X148.4277 Y-211.7659 F15000.0
G1 Z11.9000 F8000.0
G1 X149.0640 Y-211.9022 F12000.0
G1 X149.6550 Y-211.8113
G1 X150.8368 Y-211.2659
G1 X151.1095 Y-210.9477
G1 X151.5186 Y-209.4932
G1 X151.4731 Y-208.6295
G1 X151.3368 Y-208.3568
G1 X151.0186 Y-208.2204
G1 Z0.0000 F8000.0
G0 X163.6849 Y-170.3596 F15000.0
G1 Z11.9000 F8000.0
G1 X163.8213 Y-169.1323 F12000.0
G1 X164.1849 Y-168.5414
G1 X169.6849 Y-166.8141
G1 X170.1395 Y-167.0868
G1 Z0.0000 F8000.0
G0 X170.2304 Y-168.4050 F15000.0
G1 Z11.9000 F8000.0
G1 X170.2304 Y-167.3141 F12000.0
G1 Z0.0000 F8000.0
G0 X165.9672 Y-173.8736 F15000.0
G1 Z11.9000 F8000.0
G1 X165.7399 Y-173.3281 F12000.0
G1 X165.8763 Y-170.8736
G1 X170.3308 Y-169.5099
G1 Z0.0000 F8000.0
G0 X165.7854 Y-172.4190 F15000.0
G1 Z11.9000 F8000.0
G1 X170.3308 Y-171.1463 F12000.0
G1 Z0.0000 F8000.0
G0 X166.1490 Y-173.9645 F15000.0
G1 Z11.9000 F8000.0
G1 X167.6490 Y-173.6008 F12000.0
G1 Z0.0000 F8000.0
G0 X168.1945 Y-173.4190 F15000.0
G1 Z11.9000 F8000.0
G1 X170.3308 Y-172.7827 F12000.0
G1 Z0.0000 F8000.0
G0 X168.4672 Y-176.3426 F15000.0
G1 Z11.9000 F8000.0
G1 X166.6490 Y-176.8426 F12000.0
G1 X165.7399 Y-176.9790
G1 X166.1036 Y-175.0244
G1 X166.6490 Y-174.7972
G1 Z0.0000 F8000.0
G0 X167.0126 Y-174.6608 F15000.0
G1 Z11.9000 F8000.0
G1 X169.9672 Y-173.8881 F12000.0
G1 X170.2854 Y-175.0699
G1 X170.0126 Y-175.8881
G1 X168.7399 Y-176.2517
G1 Z0.0000 F8000.0
G0 X165.8763 Y-178.9417 F15000.0
G1 Z11.9000 F8000.0
G1 X165.8763 Y-180.0326 F12000.0
G1 X170.1036 Y-178.8508
G1 Z0.0000 F8000.0
G0 X167.2399 Y-178.2144 F15000.0
G1 Z11.9000 F8000.0
G1 X168.1036 Y-177.8053 F12000.0
G1 Z0.0000 F8000.0
G0 X168.7399 Y-177.4871 F15000.0
G1 Z11.9000 F8000.0
G1 X170.3308 Y-176.7144 F12000.0
G1 Z0.0000 F8000.0
G0 X165.8017 Y-181.1961 F15000.0
G1 Z11.9000 F8000.0
G1 X170.1653 Y-179.8779 F12000.0
G1 X170.1653 Y-181.6052
G1 Z0.0000 F8000.0
G0 X167.9835 Y-180.6961 F15000.0
G1 Z11.9000 F8000.0
G1 X168.2108 Y-182.2416 F12000.0
G1 Z0.0000 F8000.0
G0 X168.3926 Y-182.3325 F15000.0
G1 Z11.9000 F8000.0
G1 X169.8017 Y-181.9689 F12000.0
G1 X170.0290 Y-181.7870
G1 Z0.0000 F8000.0
G0 X163.6849 Y-199.4137 F15000.0
G1 Z11.9000 F8000.0
G1 X163.8667 Y-197.4591 F12000.0
G1 X164.6395 Y-197.2318
G1 Z0.0000 F8000.0
G0 X165.4576 Y-196.9591 F15000.0
G1 Z11.9000 F8000.0
G1 X165.6849 Y-196.9137 F12000.0
G1 Z0.0000 F8000.0
G0 X168.4576 Y-196.0500 F15000.0
G1 Z11.9000 F8000.0
G1 X168.6849 Y-196.0046 F12000.0
G1 Z0.0000 F8000.0
G0 X169.5031 Y-195.7318 F15000.0
G1 Z11.9000 F8000.0
G1 X170.1849 Y-195.5500 F12000.0
G1 Z0.0000 F8000.0
G0 X164.3213 Y-200.5383 F15000.0
G1 Z11.9000 F8000.0
G1 X163.7758 Y-201.2656 F12000.0
G1 X164.8667 Y-202.6747
G1 X165.5031 Y-202.4929
G1 Z0.0000 F8000.0
G0 X164.9576 Y-200.1747 F15000.0
G1 Z11.9000 F8000.0
G1 X165.5031 Y-199.9929 F12000.0
G1 Z0.0000 F8000.0
G0 X166.3667 Y-202.2201 F15000.0
G1 Z11.9000 F8000.0
G1 X166.5940 Y-202.1747 F12000.0
G1 Z0.0000 F8000.0
G0 X166.3667 Y-199.7201 F15000.0
G1 Z11.9000 F8000.0
G1 X166.5940 Y-199.6747 F12000.0
G1 Z0.0000 F8000.0
G0 X167.4576 Y-201.9020 F15000.0
G1 Z11.9000 F8000.0
G1 X167.6849 Y-201.8565 F12000.0
G1 Z0.0000 F8000.0
G0 X167.4576 Y-199.4020 F15000.0
G1 Z11.9000 F8000.0
G1 X167.6849 Y-199.3565 F12000.0
G1 Z0.0000 F8000.0
G0 X168.5485 Y-201.5838 F15000.0
G1 Z11.9000 F8000.0
G1 X169.1849 Y-201.4020 F12000.0
G1 Z0.0000 F8000.0
G0 X168.5485 Y-199.0838 F15000.0
G1 Z11.9000 F8000.0
G1 X169.9122 Y-198.9929 F12000.0
G1 Z0.0000 F8000.0
G0 X169.4576 Y-201.2656 F15000.0
G1 Z11.9000 F8000.0
G1 X169.8213 Y-200.9474 F12000.0
G1 X170.2758 Y-199.5838
G1 X170.1395 Y-199.2201
G1 Z0.0000 F8000.0
G0 X163.6849 Y-205.8912 F15000.0
G1 Z11.9000 F8000.0
G1 X163.8213 Y-204.6640 F12000.0
G1 X164.1849 Y-204.0731
G1 X169.6849 Y-202.3458
G1 X170.1395 Y-202.6185
G1 Z0.0000 F8000.0
G0 X170.2304 Y-203.9367 F15000.0
G1 Z11.9000 F8000.0
G1 X170.2304 Y-202.8458 F12000.0
G1 Z0.0000 F8000.0
G0 X163.7050 Y-209.3594 F15000.0
G1 Z11.9000 F8000.0
G1 X163.7505 Y-208.1776 F12000.0
G1 X170.3414 Y-206.2685
G1 Z0.0000 F8000.0
G0 X163.7050 Y-207.2231 F15000.0
G1 Z11.9000 F8000.0
G1 X163.7505 Y-208.0867 F12000.0
G1 Z0.0000 F8000.0
G0 X168.9097 Y-212.4615 F15000.0
G1 Z11.9000 F8000.0
G1 X164.7278 Y-213.6888 F12000.0
G1 X164.2278 Y-213.6888
G1 X164.3188 Y-213.3706
G1 Z0.0000 F8000.0
G0 X169.4551 Y-212.2797 F15000.0
G1 Z11.9000 F8000.0
G1 X169.6824 Y-212.2342 F12000.0
G1 Z0.0000 F8000.0
G0 X170.0915 Y-212.0979 F15000.0
G1 Z11.9000 F8000.0
G1 X170.2733 Y-212.0070 F12000.0
G1 Z0.0000 F8000.0
G0 X164.3213 Y-215.0654 F15000.0
G1 Z11.9000 F8000.0
G1 X163.7758 Y-215.7926 F12000.0
G1 X164.8667 Y-217.2017
G1 X165.5031 Y-217.0199
G1 Z0.0000 F8000.0
G0 X164.9576 Y-214.7017 F15000.0
G1 Z11.9000 F8000.0
G1 X165.5031 Y-214.5199 F12000.0
G1 Z0.0000 F8000.0
G0 X166.3667 Y-216.7472 F15000.0
G1 Z11.9000 F8000.0
G1 X166.5940 Y-216.7017 F12000.0
G1 Z0.0000 F8000.0
G0 X166.3667 Y-214.2472 F15000.0
G1 Z11.9000 F8000.0
G1 X166.5940 Y-214.2017 F12000.0
G1 Z0.0000 F8000.0
G0 X167.4576 Y-216.4290 F15000.0
G1 Z11.9000 F8000.0
G1 X167.6849 Y-216.3836 F12000.0
G1 Z0.0000 F8000.0
G0 X167.4576 Y-213.9290 F15000.0
G1 Z11.9000 F8000.0
G1 X167.6849 Y-213.8836 F12000.0
G1 Z0.0000 F8000.0
G0 X168.5485 Y-216.1108 F15000.0
G1 Z11.9000 F8000.0
G1 X169.1849 Y-215.9290 F12000.0
G1 Z0.0000 F8000.0
G0 X168.5485 Y-213.6108 F15000.0
G1 Z11.9000 F8000.0
G1 X169.9122 Y-213.5199 F12000.0
G1 Z0.0000 F8000.0
G0 X169.4576 Y-215.7926 F15000.0
G1 Z11.9000 F8000.0
G1 X169.8213 Y-215.4745 F12000.0
G1 X170.2758 Y-214.1108
G1 X170.1395 Y-213.7472
G1 Z0.0000 F8000.0
G0 X163.6849 Y-220.4183 F15000.0
G1 Z11.9000 F8000.0
G1 X164.0485 Y-218.4183 F12000.0
G1 Z0.0000 F8000.0
G0 X164.5940 Y-218.2365 F15000.0
G1 Z11.9000 F8000.0
G1 X164.8213 Y-218.1910 F12000.0
G1 Z0.0000 F8000.0
G0 X165.6849 Y-217.9183 F15000.0
G1 Z11.9000 F8000.0
G1 X165.9122 Y-217.8729 F12000.0
G1 Z0.0000 F8000.0
G0 X166.3213 Y-217.7365 F15000.0
G1 Z11.9000 F8000.0
G1 X166.6849 Y-217.7365 F12000.0
G1 X166.7758 Y-218.7365
G1 Z0.0000 F8000.0
G0 X166.9122 Y-219.0092 F15000.0
G1 Z11.9000 F8000.0
G1 X167.6395 Y-219.3274 F12000.0
G1 X168.9576 Y-218.9638
G1 Z0.0000 F8000.0
G0 X169.2758 Y-218.8274 F15000.0
G1 Z11.9000 F8000.0
G1 X169.9122 Y-218.3729 F12000.0
G1 Z0.0000 F8000.0
G0 X170.1395 Y-218.0092 F15000.0
G1 Z11.9000 F8000.0
G1 X170.2304 Y-216.7365 F12000.0
G1 Z0.0000 F8000.0
G0 X164.3213 Y-221.5429 F15000.0
G1 Z11.9000 F8000.0
G1 X163.7758 Y-222.2702 F12000.0
G1 X164.8667 Y-223.6793
G1 X165.5031 Y-223.4975
G1 Z0.0000 F8000.0
G0 X164.9576 Y-221.1793 F15000.0
G1 Z11.9000 F8000.0
G1 X165.5031 Y-220.9975 F12000.0
G1 Z0.0000 F8000.0
G0 X166.3667 Y-223.2248 F15000.0
G1 Z11.9000 F8000.0
G1 X166.5940 Y-223.1793 F12000.0
G1 Z0.0000 F8000.0
G0 X166.3667 Y-220.7248 F15000.0
G1 Z11.9000 F8000.0
G1 X166.5940 Y-220.6793 F12000.0
G1 Z0.0000 F8000.0
G0 X167.4576 Y-222.9066 F15000.0
G1 Z11.9000 F8000.0
G1 X167.6849 Y-222.8611 F12000.0
G1 Z0.0000 F8000.0
G0 X167.4576 Y-220.4066 F15000.0
G1 Z11.9000 F8000.0
G1 X167.6849 Y-220.3611 F12000.0
G1 Z0.0000 F8000.0
G0 X168.5485 Y-222.5884 F15000.0
G1 Z11.9000 F8000.0
G1 X169.1849 Y-222.4066 F12000.0
G1 Z0.0000 F8000.0
G0 X168.5485 Y-220.0884 F15000.0
G1 Z11.9000 F8000.0
G1 X169.9122 Y-219.9975 F12000.0
G1 Z0.0000 F8000.0
G0 X169.4576 Y-222.2702 F15000.0
G1 Z11.9000 F8000.0
G1 X169.8213 Y-221.9520 F12000.0
G1 X170.2758 Y-220.5884
G1 X170.1395 Y-220.2248
G1 Z0.0000 F8000.0
G0 X167.9552 Y-225.8310 F15000.0
G1 Z11.9000 F8000.0
G1 X168.0916 Y-223.6037 F12000.0
G1 Z0.0000 F8000.0
G0 X166.0940 Y-229.4506 F15000.0
G1 Z11.9000 F8000.0
G1 X165.8213 Y-229.6324 F12000.0
G1 X164.6849 Y-229.9506
G1 X163.8213 Y-229.5415
G1 X163.7304 Y-229.3142
G1 X163.9122 Y-228.6779
G1 X164.0940 Y-228.4506
G1 Z0.0000 F8000.0
G0 X164.6849 Y-227.9960 F15000.0
G1 Z11.9000 F8000.0
G1 X166.1849 Y-227.6324 F12000.0
G1 X166.6849 Y-227.8142
G1 X166.7758 Y-228.8597
G1 X166.4576 Y-229.0870
G1 Z0.0000 F8000.0
G0 X166.7304 Y-227.8142 F15000.0
G1 Z11.9000 F8000.0
G1 X167.5031 Y-226.9960 F12000.0
G1 X169.6395 Y-226.3597
G1 X170.0485 Y-226.5870
G1 X170.2758 Y-227.0415
G1 X170.0485 Y-228.1324
G1 X169.9122 Y-228.3142
G1 Z0.0000 F8000.0
G0 X166.8667 Y-228.9506 F15000.0
G1 Z11.9000 F8000.0
G1 X167.7758 Y-229.2688 F12000.0
G1 X169.4576 Y-228.7233
G1 Z0.0000 F8000.0
G0 X166.0940 Y-232.8745 F15000.0
G1 Z11.9000 F8000.0
G1 X165.8213 Y-233.0563 F12000.0
G1 X164.6849 Y-233.3745
G1 X163.8213 Y-232.9654
G1 X163.7304 Y-232.7381
G1 X163.9122 Y-232.1019
G1 X164.0940 Y-231.8746
G1 Z0.0000 F8000.0
G0 X164.6849 Y-231.4200 F15000.0
G1 Z11.9000 F8000.0
G1 X166.1849 Y-231.0564 F12000.0
G1 X166.6849 Y-231.2382
G1 X166.7758 Y-232.2837
G1 X166.4576 Y-232.5108
G1 Z0.0000 F8000.0
G0 X166.7304 Y-231.2382 F15000.0
G1 Z11.9000 F8000.0
G1 X167.5031 Y-230.4200 F12000.0
G1 X169.6395 Y-229.7837
G1 X170.0485 Y-230.0109
G1 X170.2758 Y-230.4655
G1 X170.0485 Y-231.5564
G1 X169.9122 Y-231.7382
G1 Z0.0000 F8000.0
G0 X166.8667 Y-232.3746 F15000.0
G1 Z11.9000 F8000.0
G1 X167.7758 Y-232.6927 F12000.0
G1 X169.4576 Y-232.1473
G1 Z0.0000 F8000.0
G0 X150.9707 Y-119.0239 F15000.0
G1 Z11.9000 F8000.0
G1 X150.7434 Y-119.1148 F12000.0
G1 X150.7889 Y-120.5239
G1 X153.6980 Y-119.4785
G1 Z0.0000 F8000.0
G0 X151.2889 Y-118.8876 F15000.0
G1 Z11.9000 F8000.0
G1 X153.9707 Y-117.8876 F12000.0
G1 Z0.0000 F8000.0
G0 X151.5479 Y-122.2760 F15000.0
G1 Z11.9000 F8000.0
G1 X154.4115 Y-121.0942 F12000.0
G1 X154.7751 Y-120.3669
G1 X154.7751 Y-119.7760
G1 Z0.0000 F8000.0
G0 X151.5479 Y-121.0487 F15000.0
G1 Z11.9000 F8000.0
G1 X153.6388 Y-120.2305 F12000.0
G1 X153.8660 Y-121.2305
G1 Z0.0000 F8000.0
G0 X152.5011 Y-123.4786 F15000.0
G1 Z11.9000 F8000.0
G1 X151.6829 Y-123.6149 F12000.0
G1 X151.7284 Y-122.9331
G1 X151.8193 Y-122.7058
G1 Z0.0000 F8000.0
G0 X153.5011 Y-123.1604 F15000.0
G1 Z11.9000 F8000.0
G1 X153.1375 Y-123.2513 F12000.0
G1 X152.6829 Y-123.2513
G1 X152.6829 Y-122.7968
G1 Z0.0000 F8000.0
G0 X153.5920 Y-122.0695 F15000.0
G1 Z11.9000 F8000.0
G1 X153.8193 Y-122.5695 F12000.0
G1 X153.6829 Y-122.9786
G1 Z0.0000 F8000.0
G0 X153.1907 Y-125.2443 F15000.0
G1 Z11.9000 F8000.0
G1 X151.5998 Y-125.6534 F12000.0
G1 X151.6907 Y-124.6079
G1 Z0.0000 F8000.0
G0 X152.6453 Y-124.1534 F15000.0
G1 Z11.9000 F8000.0
G1 X153.6907 Y-123.8352 F12000.0
G1 X153.7362 Y-123.8806
G1 Z0.0000 F8000.0
G0 X153.6907 Y-125.0625 F15000.0
G1 Z11.9000 F8000.0
G1 X153.8271 Y-123.9716 F12000.0
G1 Z0.0000 F8000.0
G0 X151.5492 Y-126.5119 F15000.0
G1 Z11.9000 F8000.0
G1 X152.6401 Y-126.1028 F12000.0
G1 X153.8674 Y-125.4664
G1 Z0.0000 F8000.0
G0 X151.7310 Y-127.6481 F15000.0
G1 Z11.9000 F8000.0
G1 X152.6855 Y-127.1482 F12000.0
G1 X153.9128 Y-126.7392
G1 Z0.0000 F8000.0
G0 X152.6855 Y-127.0573 F15000.0
G1 Z11.9000 F8000.0
G1 X152.6855 Y-126.1482 F12000.0
G1 Z0.0000 F8000.0
G0 X153.5135 Y-128.7534 F15000.0
G1 Z11.9000 F8000.0
G1 X152.7408 Y-129.0716 F12000.0
G1 X151.6499 Y-129.2534
G1 X151.7408 Y-128.2534
G1 X153.6499 Y-127.5261
G1 X153.7408 Y-128.5716
G1 Z0.0000 F8000.0
G0 X150.6544 Y-130.9691 F15000.0
G1 Z11.9000 F8000.0
G1 X150.7908 Y-130.4236 F12000.0
G1 X153.6544 Y-129.3782
G1 X153.6999 Y-129.4236
G1 Z0.0000 F8000.0
G0 X150.8362 Y-131.0600 F15000.0
G1 Z11.9000 F8000.0
G1 X151.5180 Y-130.5600 F12000.0
G1 X151.6544 Y-131.1055
G1 X152.4271 Y-131.0145
G1 X153.6090 Y-130.5600
G1 X153.8362 Y-129.5600
G1 Z0.0000 F8000.0
G0 X151.6090 Y-130.3782 F15000.0
G1 Z11.9000 F8000.0
G1 X151.6090 Y-130.1964 F12000.0
G1 Z0.0000 F8000.0
G0 X153.1907 Y-132.6525 F15000.0
G1 Z11.9000 F8000.0
G1 X151.5998 Y-133.0616 F12000.0
G1 X151.6907 Y-132.0161
G1 Z0.0000 F8000.0
G0 X152.6453 Y-131.5616 F15000.0
G1 Z11.9000 F8000.0
G1 X153.6907 Y-131.2434 F12000.0
G1 X153.7362 Y-131.2889
G1 Z0.0000 F8000.0
G0 X153.6907 Y-132.4707 F15000.0
G1 Z11.9000 F8000.0
G1 X153.8271 Y-131.3798 F12000.0
G1 Z0.0000 F8000.0
G0 X164.4576 Y-254.6715 F15000.0
G1 Z11.9000 F8000.0
G1 X163.7758 Y-254.8079 F12000.0
G1 X166.5940 Y-250.8533
G1 X167.8213 Y-250.3988
G1 Z0.0000 F8000.0
G0 X164.8213 Y-254.5352 F15000.0
G1 Z11.9000 F8000.0
G1 X164.9576 Y-254.4897 F12000.0
G1 Z0.0000 F8000.0
G0 X165.3213 Y-254.3533 F15000.0
G1 Z11.9000 F8000.0
G1 X165.4576 Y-254.3079 F12000.0
G1 Z0.0000 F8000.0
G0 X165.8213 Y-254.1715 F15000.0
G1 Z11.9000 F8000.0
G1 X170.0940 Y-252.6261 F12000.0
G1 X170.2758 Y-252.4897
G1 X170.2304 Y-252.5352
G1 Z0.0000 F8000.0
G0 X168.5485 Y-250.1261 F15000.0
G1 Z11.9000 F8000.0
G1 X170.2758 Y-249.4897 F12000.0
G1 Z0.0000 F8000.0
G0 X163.6849 Y-258.5544 F15000.0
G1 Z11.9000 F8000.0
G1 X166.5485 Y-255.1454 F12000.0
G1 X170.2758 Y-253.7363
G1 Z0.0000 F8000.0
G0 X163.8351 Y-259.8311 F15000.0
G1 Z11.9000 F8000.0
G1 X165.4714 Y-259.2402 F12000.0
G1 X166.6987 Y-259.0130
G1 X167.1078 Y-259.3766
G1 X167.2896 Y-261.4675
G1 X169.0624 Y-260.9221
G1 Z0.0000 F8000.0
G0 X163.9260 Y-262.8311 F15000.0
G1 Z11.9000 F8000.0
G1 X167.1533 Y-261.6039 F12000.0
G1 X167.2896 Y-261.4675
G1 Z0.0000 F8000.0
G0 X169.4260 Y-260.7402 F15000.0
G1 Z11.9000 F8000.0
G1 X169.5169 Y-260.6493 F12000.0
G1 Z0.0000 F8000.0
G0 X169.9260 Y-260.2402 F15000.0
G1 Z11.9000 F8000.0
G1 X170.2896 Y-258.0584 F12000.0
G1 Z0.0000 F8000.0
G0 X164.4576 Y-266.8953 F15000.0
G1 Z11.9000 F8000.0
G1 X163.7758 Y-267.0316 F12000.0
G1 X166.5940 Y-263.0771
G1 X167.8213 Y-262.6226
G1 Z0.0000 F8000.0
G0 X164.8213 Y-266.7589 F15000.0
G1 Z11.9000 F8000.0
G1 X164.9576 Y-266.7135 F12000.0
G1 Z0.0000 F8000.0
G0 X165.3213 Y-266.5771 F15000.0
G1 Z11.9000 F8000.0
G1 X165.4576 Y-266.5316 F12000.0
G1 Z0.0000 F8000.0
G0 X165.8213 Y-266.3953 F15000.0
G1 Z11.9000 F8000.0
G1 X170.0940 Y-264.8498 F12000.0
G1 X170.2758 Y-264.7135
G1 X170.2304 Y-264.7589
G1 Z0.0000 F8000.0
G0 X168.5485 Y-262.3498 F15000.0
G1 Z11.9000 F8000.0
G1 X170.2758 Y-261.7135 F12000.0
G1 Z0.0000 F8000.0
G0 X163.6849 Y-270.7782 F15000.0
G1 Z11.9000 F8000.0
G1 X164.0940 Y-268.6873 F12000.0
G1 X164.5031 Y-268.2327
G1 X167.7758 Y-266.9146
G1 X169.6395 Y-266.4146
G1 X169.8667 Y-266.5055
G1 X170.2758 Y-268.3236
G1 X170.2304 Y-268.3691
G1 Z0.0000 F8000.0
G0 X175.5553 Y-177.2869 F15000.0
G1 Z11.9000 F8000.0
G1 X176.6008 Y-176.8778 F12000.0
G1 Z0.0000 F8000.0
G0 X176.0553 Y-178.2414 F15000.0
G1 Z11.9000 F8000.0
G1 X176.7826 Y-177.3778 F12000.0
G1 X177.0099 Y-177.2414
G1 X178.7826 Y-177.4232
G1 Z0.0000 F8000.0
G0 X176.9190 Y-176.7414 F15000.0
G1 Z11.9000 F8000.0
G1 X177.1917 Y-176.6505 F12000.0
G1 X177.0099 Y-177.2414
G1 Z0.0000 F8000.0
G0 X177.4644 Y-176.5596 F15000.0
G1 Z11.9000 F8000.0
G1 X177.6917 Y-176.4232 F12000.0
G1 Z0.0000 F8000.0
G0 X178.0553 Y-176.2414 F15000.0
G1 Z11.9000 F8000.0
G1 X178.9644 Y-175.8778 F12000.0
G1 Z0.0000 F8000.0
G0 X178.5135 Y-179.4376 F15000.0
G1 Z11.9000 F8000.0
G1 X177.7408 Y-179.7558 F12000.0
G1 X176.6499 Y-179.9376
G1 X176.7408 Y-178.9376
G1 X178.6499 Y-178.2103
G1 X178.7408 Y-179.2558
G1 Z0.0000 F8000.0
G0 X177.0543 Y-181.7897 F15000.0
G1 Z11.9000 F8000.0
G1 X176.6452 Y-181.7442 F12000.0
G1 X176.7361 Y-180.7442
G1 Z0.0000 F8000.0
G0 X177.0543 Y-180.6079 F15000.0
G1 Z11.9000 F8000.0
G1 X178.9634 Y-179.8806 F12000.0
G1 Z0.0000 F8000.0
G0 X177.6907 Y-181.5624 F15000.0
G1 Z11.9000 F8000.0
G1 X178.6907 Y-181.2442 F12000.0
G1 Z0.0000 F8000.0
G0 X176.5492 Y-183.9795 F15000.0
G1 Z11.9000 F8000.0
G1 X178.2310 Y-183.2977 F12000.0
G1 X178.8219 Y-182.0704
G1 X178.4583 Y-181.9795
G1 X176.5492 Y-182.7523
G1 Z0.0000 F8000.0
G0 X178.8270 Y-183.7212 F15000.0
G1 Z11.9000 F8000.0
G1 X178.5997 Y-184.9484 F12000.0
G1 X177.4179 Y-185.4030
G1 X176.6452 Y-185.4939
G1 X178.7815 Y-183.6757
G1 X179.6906 Y-183.2212
G1 Z0.0000 F8000.0
G0 X178.5135 Y-186.8459 F15000.0
G1 Z11.9000 F8000.0
G1 X177.7408 Y-187.1641 F12000.0
G1 X176.6499 Y-187.3459
G1 X176.7408 Y-186.3459
G1 X178.6499 Y-185.6187
G1 X178.7408 Y-186.6641
G1 Z0.0000 F8000.0
G0 X175.6544 Y-189.0617 F15000.0
G1 Z11.9000 F8000.0
G1 X175.7908 Y-188.5162 F12000.0
G1 X178.6544 Y-187.4707
G1 X178.6999 Y-187.5162
G1 Z0.0000 F8000.0
G0 X175.8362 Y-189.1526 F15000.0
G1 Z11.9000 F8000.0
G1 X176.5180 Y-188.6526 F12000.0
G1 X176.6544 Y-189.1980
G1 X177.4271 Y-189.1071
G1 X178.6090 Y-188.6526
G1 X178.8362 Y-187.6526
G1 Z0.0000 F8000.0
G0 X176.6090 Y-188.4707 F15000.0
G1 Z11.9000 F8000.0
G1 X176.6090 Y-188.2889 F12000.0
G1 Z0.0000 F8000.0
G0 X178.1907 Y-190.7450 F15000.0
G1 Z11.9000 F8000.0
G1 X176.5998 Y-191.1541 F12000.0
G1 X176.6907 Y-190.1087
G1 Z0.0000 F8000.0
G0 X177.6453 Y-189.6541 F15000.0
G1 Z11.9000 F8000.0
G1 X178.6907 Y-189.3360 F12000.0
G1 X178.7362 Y-189.3814
G1 Z0.0000 F8000.0
G0 X178.6907 Y-190.5632 F15000.0
G1 Z11.9000 F8000.0
G1 X178.8271 Y-189.4723 F12000.0
G1 Z0.0000 F8000.0
G0 X178.8202 Y-191.0971 F15000.0
G1 Z11.9000 F8000.0
G1 X176.7748 Y-192.2790 F12000.0
G1 X176.5929 Y-192.9608
G1 X178.8657 Y-192.1881
G1 Z0.0000 F8000.0
G0 X175.7366 Y-248.4010 F15000.0
G1 Z11.9000 F8000.0
G1 X176.0093 Y-248.3101 F12000.0
G1 X176.1457 Y-248.8556
G1 Z0.0000 F8000.0
G0 X176.9184 Y-247.9010 F15000.0
G1 Z11.9000 F8000.0
G1 X176.3275 Y-248.1283 F12000.0
G1 X176.0547 Y-248.1283
G1 X176.2366 Y-247.4465
G1 X176.7366 Y-246.7647
G1 X177.6002 Y-246.4919
G1 X177.7820 Y-246.5828
G1 X178.1002 Y-247.3556
G1 X178.8729 Y-247.1283
G1 Z0.0000 F8000.0
G0 X176.3729 Y-249.0828 F15000.0
G1 Z11.9000 F8000.0
G1 X177.3275 Y-248.9919 F12000.0
G1 X177.6002 Y-248.8101
G1 X177.8275 Y-248.4465
G1 X178.1002 Y-247.5828
G1 X177.8729 Y-247.5374
G1 X177.2820 Y-247.7647
G1 Z0.0000 F8000.0
G0 X178.5135 Y-250.3635 F15000.0
G1 Z11.9000 F8000.0
G1 X177.7408 Y-250.6817 F12000.0
G1 X176.6499 Y-250.8635
G1 X176.7408 Y-249.8635
G1 X178.6499 Y-249.1362
G1 X178.7408 Y-250.1817
G1 Z0.0000 F8000.0
G0 X178.8270 Y-250.9429 F15000.0
G1 Z11.9000 F8000.0
G1 X178.5997 Y-252.1701 F12000.0
G1 X177.4179 Y-252.6247
G1 X176.6452 Y-252.7156
G1 X178.7815 Y-250.8974
G1 X179.6906 Y-250.4429
G1 Z0.0000 F8000.0
G0 X176.5346 Y-253.6493 F15000.0
G1 Z11.9000 F8000.0
G1 X176.9437 Y-253.6493 F12000.0
G1 X177.4891 Y-253.8311
G1 X177.7164 Y-253.7857
G1 Z0.0000 F8000.0
G0 X176.5801 Y-255.1039 F15000.0
G1 Z11.9000 F8000.0
G1 X177.0801 Y-254.7857 F12000.0
G1 X178.7164 Y-254.2402
G1 Z0.0000 F8000.0
G0 X176.9891 Y-253.6039 F15000.0
G1 Z11.9000 F8000.0
G1 X177.0801 Y-253.4675 F12000.0
G1 Z0.0000 F8000.0
G0 X177.0801 Y-254.7402 F15000.0
G1 Z11.9000 F8000.0
G1 X177.2619 Y-254.3766 F12000.0
G1 Z0.0000 F8000.0
G0 X177.4891 Y-254.0584 F15000.0
G1 Z11.9000 F8000.0
G1 X177.5346 Y-253.9220 F12000.0
G1 Z0.0000 F8000.0
G0 X177.8528 Y-253.1039 F15000.0
G1 Z11.9000 F8000.0
G1 X177.9891 Y-253.0584 F12000.0
G1 Z0.0000 F8000.0
G0 X178.1907 Y-256.3925 F15000.0
G1 Z11.9000 F8000.0
G1 X176.5998 Y-256.8016 F12000.0
G1 X176.6907 Y-255.7561
G1 Z0.0000 F8000.0
G0 X177.6453 Y-255.3016 F15000.0
G1 Z11.9000 F8000.0
G1 X178.6907 Y-254.9834 F12000.0
G1 X178.7362 Y-255.0289
G1 Z0.0000 F8000.0
G0 X178.6907 Y-256.2107 F15000.0
G1 Z11.9000 F8000.0
G1 X178.8271 Y-255.1198 F12000.0
G1 Z0.0000 F8000.0
G0 X178.9634 Y-258.6123 F15000.0
G1 Z11.9000 F8000.0
G1 X177.5543 Y-259.1123 F12000.0
G1 X176.6452 Y-259.2487
G1 X176.6452 Y-258.4305
G1 X176.9634 Y-258.3850
G1 X178.9634 Y-257.6123
G1 Z0.0000 F8000.0
G0 X176.6452 Y-258.4305 F15000.0
G1 Z11.9000 F8000.0
G1 X176.8270 Y-257.4759 F12000.0
G1 Z0.0000 F8000.0
G0 X177.1452 Y-257.3396 F15000.0
G1 Z11.9000 F8000.0
G1 X178.9634 Y-256.6123 F12000.0
G1 Z0.0000 F8000.0

G0 Z0.0000 F800.0
G4 P0.06
G0 X0.0000 Y0.0000 F15000.0
M5
G4 P0.10
$1=0
