$X
$1=255
G21
G90
G92 Z4.0000
G0 Z0.0000 F800.0
G4 P0.06
G92 Z0.0000
G0 Z0.0000 F800.0
G0 X0.0000 Y0.0000 F15000.0
G21
G90
G17
G91.1
G0 Z0.0000
G0 X53.8035 Y-44.0062 F15000.0
G1 Z11.9000 F8000.0
G1 X53.8490 Y-43.5517 F12000.0
G1 X54.8035 Y-43.2335
G1 X55.2581 Y-43.3244
G1 X55.6672 Y-43.6426
G1 Z0.0000 F8000.0
G0 X54.1672 Y-45.0062 F15000.0
G1 Z11.9000 F8000.0
G1 X54.2126 Y-45.1426 F12000.0
G1 Z0.0000 F8000.0
G0 X54.4399 Y-45.7789 F15000.0
G1 Z11.9000 F8000.0
G1 X54.4853 Y-45.9153 F12000.0
G1 Z0.0000 F8000.0
G0 X54.6672 Y-46.4153 F15000.0
G1 Z11.9000 F8000.0
G1 X55.0308 Y-47.2335 F12000.0
G1 X55.5308 Y-47.6880
G1 X55.8490 Y-47.8244
G1 X56.7581 Y-47.8244
G1 X57.1217 Y-47.0517
G1 X56.9853 Y-46.6880
G1 Z0.0000 F8000.0
G0 X55.8944 Y-43.9153 F15000.0
G1 Z11.9000 F8000.0
G1 X56.8035 Y-46.2335 F12000.0
G1 Z0.0000 F8000.0
G0 X56.5308 Y-43.1880 F15000.0
G1 Z11.9000 F8000.0
G1 X56.6217 Y-43.3244 F12000.0
G1 Z0.0000 F8000.0
G0 X57.1217 Y-43.6426 F15000.0
G1 Z11.9000 F8000.0
G1 X56.8035 Y-43.5971 F12000.0
G1 X58.2581 Y-47.7789
G1 Z0.0000 F8000.0
G0 X45.8319 Y-54.5629 F15000.0
G1 Z11.9000 F8000.0
G1 X47.4682 Y-54.6539 F12000.0
G1 X48.1501 Y-56.6084
G1 X46.9228 Y-56.8357
G1 Z0.0000 F8000.0
G0 X46.8319 Y-56.9266 F15000.0
G1 Z11.9000 F8000.0
G1 X46.7410 Y-57.2902 F12000.0
G1 X47.1046 Y-58.3357
G1 Z0.0000 F8000.0
G0 X47.4682 Y-58.7902 F15000.0
G1 Z11.9000 F8000.0
G1 X47.6046 Y-58.9266 F12000.0
G1 X49.1046 Y-59.1993
G1 Z0.0000 F8000.0
G0 X48.8319 Y-55.7902 F15000.0
G1 Z11.9000 F8000.0
G1 X48.7410 Y-55.4720 F12000.0
G1 X48.8773 Y-54.7902
G1 Z0.0000 F8000.0
G0 X49.1501 Y-54.6084 F15000.0
G1 Z11.9000 F8000.0
G1 X49.9228 Y-54.6539 F12000.0
G1 Z0.0000 F8000.0
G0 X50.1501 Y-59.1539 F15000.0
G1 Z11.9000 F8000.0
G1 X51.9228 Y-59.1084 F12000.0
G1 X52.1955 Y-59.1993
G1 Z0.0000 F8000.0
G0 X50.2410 Y-54.7902 F15000.0
G1 Z11.9000 F8000.0
G1 X50.4682 Y-54.9720 F12000.0
G1 Z0.0000 F8000.0
G0 X50.3773 Y-57.3357 F15000.0
G1 Z11.9000 F8000.0
G1 X51.9228 Y-59.0629 F12000.0
G1 Z0.0000 F8000.0
G0 X127.6343 Y-47.2524 F15000.0
G1 Z11.9000 F8000.0
G1 X127.4524 Y-46.6161 F12000.0
G1 X127.6343 Y-46.2979
G1 X127.8615 Y-46.1161
G1 X128.7252 Y-46.1161
G1 Z0.0000 F8000.0
G0 X128.9524 Y-50.6161 F15000.0
G1 Z11.9000 F8000.0
G1 X130.7252 Y-50.5706 F12000.0
G1 X130.6343 Y-50.2979
G1 Z0.0000 F8000.0
G0 X129.0433 Y-46.2524 F15000.0
G1 Z11.9000 F8000.0
G1 X129.6343 Y-46.8433 F12000.0
G1 Z0.0000 F8000.0
G0 X129.1797 Y-48.7979 F15000.0
G1 Z11.9000 F8000.0
G1 X129.3161 Y-48.9343 F12000.0
G1 Z0.0000 F8000.0
G0 X130.6797 Y-47.2524 F15000.0
G1 Z11.9000 F8000.0
G1 X130.4979 Y-46.6161 F12000.0
G1 X130.6797 Y-46.2979
G1 X130.9070 Y-46.1161
G1 Z0.0000 F8000.0
G0 X131.1343 Y-46.0252 F15000.0
G1 Z11.9000 F8000.0
G1 X131.7706 Y-46.1161 F12000.0
G1 Z0.0000 F8000.0
G0 X131.9979 Y-50.6161 F15000.0
G1 Z11.9000 F8000.0
G1 X133.7706 Y-50.5706 F12000.0
G1 X133.6797 Y-50.2979
G1 Z0.0000 F8000.0
G0 X132.0888 Y-46.2524 F15000.0
G1 Z11.9000 F8000.0
G1 X132.6797 Y-46.8433 F12000.0
G1 Z0.0000 F8000.0
G0 X132.2252 Y-48.7979 F15000.0
G1 Z11.9000 F8000.0
G1 X132.3615 Y-48.9343 F12000.0
G1 Z0.0000 F8000.0
G0 X43.4729 Y-136.5633 F15000.0
G1 Z11.9000 F8000.0
G1 X43.5184 Y-136.1088 F12000.0
G1 X44.4729 Y-135.7906
G1 X44.9274 Y-135.8815
G1 X45.3365 Y-136.1997
G1 Z0.0000 F8000.0
G0 X43.8365 Y-137.5633 F15000.0
G1 Z11.9000 F8000.0
G1 X43.8820 Y-137.6997 F12000.0
G1 Z0.0000 F8000.0
G0 X44.1093 Y-138.3361 F15000.0
G1 Z11.9000 F8000.0
G1 X44.1547 Y-138.4724 F12000.0
G1 Z0.0000 F8000.0
G0 X44.3365 Y-138.9724 F15000.0
G1 Z11.9000 F8000.0
G1 X44.7002 Y-139.7906 F12000.0
G1 X45.2002 Y-140.2452
G1 X45.5184 Y-140.3815
G1 X46.4274 Y-140.3815
G1 X46.7911 Y-139.6088
G1 X46.6547 Y-139.2452
G1 Z0.0000 F8000.0
G0 X45.5638 Y-136.4724 F15000.0
G1 Z11.9000 F8000.0
G1 X46.4729 Y-138.7906 F12000.0
G1 Z0.0000 F8000.0
G0 X46.7911 Y-136.0179 F15000.0
G1 Z11.9000 F8000.0
G1 X46.6547 Y-136.2452 F12000.0
G1 X46.8365 Y-136.8815
G1 Z0.0000 F8000.0
G0 X46.9729 Y-135.8815 F15000.0
G1 Z11.9000 F8000.0
G1 X47.8820 Y-135.7906 F12000.0
G1 Z0.0000 F8000.0
G0 X47.0638 Y-137.4270 F15000.0
G1 Z11.9000 F8000.0
G1 X47.3365 Y-137.6542 F12000.0
G1 Z0.0000 F8000.0
G0 X47.8365 Y-139.9270 F15000.0
G1 Z11.9000 F8000.0
G1 X47.3820 Y-138.8815 F12000.0
G1 X47.4274 Y-138.1542
G1 Z0.0000 F8000.0
G0 X47.6093 Y-137.9270 F15000.0
G1 Z11.9000 F8000.0
G1 X48.1547 Y-138.0179 F12000.0
G1 Z0.0000 F8000.0
G0 X48.0638 Y-140.1088 F15000.0
G1 Z11.9000 F8000.0
G1 X49.7911 Y-140.5179 F12000.0
G1 Z0.0000 F8000.0
G0 X42.2812 Y-245.3409 F15000.0
G1 Z11.9000 F8000.0
G1 X41.9630 Y-244.7954 F12000.0
G1 X42.0085 Y-244.4318
G1 X42.2812 Y-243.8409
G1 X42.8267 Y-243.2954
G1 Z0.0000 F8000.0
G0 X42.3721 Y-246.7045 F15000.0
G1 Z11.9000 F8000.0
G1 X42.0539 Y-247.1136 F12000.0
G1 X42.1903 Y-248.4772
G1 X42.7358 Y-248.5681
G1 Z0.0000 F8000.0
G0 X42.0994 Y-242.6590 F15000.0
G1 Z11.9000 F8000.0
G1 X42.3267 Y-242.5227 F12000.0
G1 X42.4176 Y-242.1136
G1 Z0.0000 F8000.0
G0 X42.3721 Y-242.5227 F15000.0
G1 Z11.9000 F8000.0
G1 X46.4630 Y-241.0681 F12000.0
G1 Z0.0000 F8000.0
G0 X42.4630 Y-245.4318 F15000.0
G1 Z11.9000 F8000.0
G1 X43.2358 Y-245.2954 F12000.0
G1 Z0.0000 F8000.0
G0 X42.6449 Y-246.4772 F15000.0
G1 Z11.9000 F8000.0
G1 X44.9630 Y-245.5681 F12000.0
G1 Z0.0000 F8000.0
G0 X43.7358 Y-248.2045 F15000.0
G1 Z11.9000 F8000.0
G1 X43.8721 Y-248.1590 F12000.0
G1 Z0.0000 F8000.0
G0 X44.5085 Y-247.9318 F15000.0
G1 Z11.9000 F8000.0
G1 X44.6449 Y-247.8863 F12000.0
G1 Z0.0000 F8000.0
G0 X44.7358 Y-243.7954 F15000.0
G1 Z11.9000 F8000.0
G1 X44.9176 Y-243.6136 F12000.0
G1 Z0.0000 F8000.0
G0 X45.1449 Y-247.7045 F15000.0
G1 Z11.9000 F8000.0
G1 X45.9630 Y-247.3409 F12000.0
G1 X46.4176 Y-246.8409
G1 X46.5085 Y-246.5681
G1 X46.5085 Y-245.5681
G1 Z0.0000 F8000.0
G0 X45.4176 Y-245.3863 F15000.0
G1 Z11.9000 F8000.0
G1 X46.1449 Y-245.2499 F12000.0
G1 X46.4176 Y-245.4318
G1 Z0.0000 F8000.0
G0 X46.2812 Y-242.2954 F15000.0
G1 Z11.9000 F8000.0
G1 X46.5085 Y-242.2045 F12000.0
G1 X46.5994 Y-243.9318
G1 Z0.0000 F8000.0
G0 X41.9639 Y-250.3658 F15000.0
G1 Z11.9000 F8000.0
G1 X42.1457 Y-249.8203 F12000.0
G1 X42.4184 Y-249.5930
G1 X43.0093 Y-249.9567
G1 X42.1457 Y-250.5930
G1 Z0.0000 F8000.0
G0 X26.0489 Y-265.4184 F15000.0
G1 Z11.9000 F8000.0
G1 X26.4126 Y-264.5548 F12000.0
G1 X27.3671 Y-264.4639
G1 X27.9126 Y-264.6912
G1 X29.8217 Y-267.2821
G1 X30.0944 Y-268.0093
G1 X29.9126 Y-268.3275
G1 X29.3671 Y-268.6002
G1 X28.1398 Y-268.3275
G1 Z0.0000 F8000.0
G0 X27.5489 Y-267.6457 F15000.0
G1 Z11.9000 F8000.0
G1 X27.8671 Y-268.0548 F12000.0
G1 Z0.0000 F8000.0
G0 X29.1853 Y-263.9184 F15000.0
G1 Z11.9000 F8000.0
G1 X29.4126 Y-264.8730 F12000.0
G1 Z0.0000 F8000.0
G0 X29.4126 Y-263.7821 F15000.0
G1 Z11.9000 F8000.0
G1 X30.2308 Y-263.6002 F12000.0
G1 Z0.0000 F8000.0
G0 X29.7308 Y-265.3275 F15000.0
G1 Z11.9000 F8000.0
G1 X30.0944 Y-265.5093 F12000.0
G1 Z0.0000 F8000.0
G0 X30.7762 Y-265.6457 F15000.0
G1 Z11.9000 F8000.0
G1 X30.7308 Y-265.6002 F12000.0
G1 X30.3217 Y-265.7366
G1 X30.5944 Y-266.9184
G1 X30.7308 Y-267.1002
G1 Z0.0000 F8000.0
G0 X31.0035 Y-267.5093 F15000.0
G1 Z11.9000 F8000.0
G1 X31.4580 Y-267.7366 F12000.0
G1 X32.4126 Y-267.7366
G1 X33.0489 Y-267.6457
G1 Z0.0000 F8000.0
G0 X23.9471 Y-265.3469 F15000.0
G1 Z11.9000 F8000.0
G1 X24.0835 Y-265.8469 F12000.0
G1 X24.8108 Y-266.0742
G1 X25.0380 Y-265.9833
G1 Z0.0000 F8000.0
G0 X24.0835 Y-265.2106 F15000.0
G1 Z11.9000 F8000.0
G1 X24.3108 Y-265.1196 F12000.0
G1 X25.1289 Y-265.8015
G1 Z0.0000 F8000.0
G0 X0.0058 Y-266.8609 F15000.0
G1 Z11.9000 F8000.0
G1 X0.0967 Y-266.6337 F12000.0
G1 Z0.0000 F8000.0
G0 X0.3240 Y-266.1791 F15000.0
G1 Z11.9000 F8000.0
G1 X0.5058 Y-265.9519 F12000.0
G1 X1.0512 Y-265.8155
G1 X1.6876 Y-266.3155
G1 Z0.0000 F8000.0
G0 X1.0512 Y-269.4519 F15000.0
G1 Z11.9000 F8000.0
G1 X1.1421 Y-269.2246 F12000.0
G1 Z0.0000 F8000.0
G0 X1.0967 Y-272.2700 F15000.0
G1 Z11.9000 F8000.0
G1 X0.9603 Y-271.6791 F12000.0
G1 X1.1421 Y-271.3155
G1 X1.7331 Y-271.4519
G1 Z0.0000 F8000.0
G0 X1.3240 Y-272.4519 F15000.0
G1 Z11.9000 F8000.0
G1 X1.6876 Y-272.4064 F12000.0
G1 X1.8240 Y-271.6337
G1 Z0.0000 F8000.0
G0 X1.3240 Y-268.8609 F15000.0
G1 Z11.9000 F8000.0
G1 X1.9149 Y-267.5428 F12000.0
G1 X1.8694 Y-266.6791
G1 Z0.0000 F8000.0
G0 X15.8034 Y-242.1670 F15000.0
G1 Z11.9000 F8000.0
G1 X15.4852 Y-242.5761 F12000.0
G1 X15.6215 Y-243.9397
G1 X16.1670 Y-244.0306
G1 Z0.0000 F8000.0
G0 X16.0761 Y-241.9397 F15000.0
G1 Z11.9000 F8000.0
G1 X18.3943 Y-241.0306 F12000.0
G1 Z0.0000 F8000.0
G0 X17.1670 Y-243.6670 F15000.0
G1 Z11.9000 F8000.0
G1 X17.3034 Y-243.6215 F12000.0
G1 Z0.0000 F8000.0
G0 X17.9397 Y-243.3942 F15000.0
G1 Z11.9000 F8000.0
G1 X18.0761 Y-243.3488 F12000.0
G1 Z0.0000 F8000.0
G0 X18.5761 Y-243.1670 F15000.0
G1 Z11.9000 F8000.0
G1 X19.3943 Y-242.8033 F12000.0
G1 X19.8488 Y-242.3033
G1 X19.9397 Y-242.0306
G1 X19.9397 Y-241.0306
G1 Z0.0000 F8000.0
G0 X18.8488 Y-240.8488 F15000.0
G1 Z11.9000 F8000.0
G1 X19.5761 Y-240.7124 F12000.0
G1 X19.8488 Y-240.8942
G1 Z0.0000 F8000.0
G0 X111.4482 Y-18.8932 F15000.0
G1 Z11.9000 F8000.0
G1 X111.4482 Y-38.9591 F12000.0
G1 Z0.0000 F8000.0
G0 X155.3902 Y-18.8932 F15000.0
G1 Z11.9000 F8000.0
G1 X111.4482 Y-18.8932 F12000.0
G1 Z0.0000 F8000.0
G0 X155.3902 Y-18.8932 F15000.0
G1 Z11.9000 F8000.0
G1 X155.3902 Y-38.9591 F12000.0
G1 Z0.0000 F8000.0
G0 X111.4482 Y-5.0000 F15000.0
G1 Z11.9000 F8000.0
G1 X111.4482 Y-18.8932 F12000.0
G1 Z0.0000 F8000.0
G0 X155.3902 Y-5.0000 F15000.0
G1 Z11.9000 F8000.0
G1 X155.3902 Y-18.8932 F12000.0
G1 Z0.0000 F8000.0
G0 X155.3902 Y-38.9591 F15000.0
G1 Z11.9000 F8000.0
G1 X111.4482 Y-38.9591 F12000.0
G1 Z0.0000 F8000.0
G0 X36.4337 Y-18.8932 F15000.0
G1 Z11.9000 F8000.0
G1 X51.4197 Y-18.8932 F12000.0
G1 Z0.0000 F8000.0
G0 X61.4103 Y-38.9591 F15000.0
G1 Z11.9000 F8000.0
G1 X61.4103 Y-5.0000 F12000.0
G1 Z0.0000 F8000.0
G0 X51.4197 Y-18.8932 F15000.0
G1 Z11.9000 F8000.0
G1 X51.4197 Y-38.9591 F12000.0
G1 X61.4103 Y-38.9591 F12000.0
G1 Z0.0000 F8000.0
G0 X133.3768 Y-6.0239 F15000.0
G1 Z11.9000 F8000.0
G1 X133.3768 Y-21.1792 F12000.0
G1 Z0.0000 F8000.0
G0 X133.3768 Y-22.7031 F15000.0
G1 Z11.9000 F8000.0
G1 X133.3768 Y-24.3118 F12000.0
G1 Z0.0000 F8000.0
G0 X133.3768 Y-25.7511 F15000.0
G1 Z11.9000 F8000.0
G1 X133.3768 Y-40.9064 F12000.0
G1 Z0.0000 F8000.0
G0 X61.4103 Y-88.9124 F15000.0
G1 Z11.9000 F8000.0
G1 X61.4103 Y-110.9257 F12000.0
G1 Z0.0000 F8000.0
G0 X61.4103 Y-88.9124 F15000.0
G1 Z11.9000 F8000.0
G1 X36.4337 Y-88.9124 F12000.0
G1 Z0.0000 F8000.0
G0 X36.4337 Y-110.9257 F15000.0
G1 Z11.9000 F8000.0
G1 X36.4337 Y-88.9124 F12000.0
G1 Z0.0000 F8000.0
G0 X36.4337 Y-99.9190 F15000.0
G1 Z11.9000 F8000.0
G1 X31.4384 Y-99.9190 F12000.0
G1 X31.4384 Y-110.9257 F12000.0
G1 Z0.0000 F8000.0
G0 X51.4197 Y-88.9124 F15000.0
G1 Z11.9000 F8000.0
G1 X51.4197 Y-110.9257 F12000.0
G1 Z0.0000 F8000.0
G0 X28.9830 Y-110.9257 F15000.0
G1 Z11.9000 F8000.0
G1 X37.5344 Y-110.9257 F12000.0
G1 Z0.0000 F8000.0
G0 X39.0584 Y-110.9257 F15000.0
G1 Z11.9000 F8000.0
G1 X40.5824 Y-110.9257 F12000.0
G1 Z0.0000 F8000.0
G0 X42.0217 Y-110.9257 F15000.0
G1 Z11.9000 F8000.0
G1 X50.5730 Y-110.9257 F12000.0
G1 Z0.0000 F8000.0
G0 X52.0970 Y-110.9257 F15000.0
G1 Z11.9000 F8000.0
G1 X53.6209 Y-110.9257 F12000.0
G1 Z0.0000 F8000.0
G0 X55.1449 Y-110.9257 F15000.0
G1 Z11.9000 F8000.0
G1 X63.6962 Y-110.9257 F12000.0
G1 Z0.0000 F8000.0
G0 X61.4103 Y-132.9389 F15000.0
G1 Z11.9000 F8000.0
G1 X61.4103 Y-110.9257 F12000.0
G1 Z0.0000 F8000.0
G0 X61.4103 Y-132.9389 F15000.0
G1 Z11.9000 F8000.0
G1 X36.4337 Y-132.9389 F12000.0
G1 Z0.0000 F8000.0
G0 X36.4337 Y-110.9257 F15000.0
G1 Z11.9000 F8000.0
G1 X36.4337 Y-132.9389 F12000.0
G1 Z0.0000 F8000.0
G0 X36.4337 Y-121.9324 F15000.0
G1 Z11.9000 F8000.0
G1 X31.4384 Y-121.9324 F12000.0
G1 X31.4384 Y-110.9257 F12000.0
G1 Z0.0000 F8000.0
G0 X51.4197 Y-132.9389 F15000.0
G1 Z11.9000 F8000.0
G1 X51.4197 Y-110.9257 F12000.0
G1 Z0.0000 F8000.0
G0 X36.4337 Y-5.0000 F15000.0
G1 Z11.9000 F8000.0
G1 X36.4337 Y-18.8932 F12000.0
G1 Z0.0000 F8000.0
G0 X161.4861 Y-243.4287 F15000.0
G1 Z11.9000 F8000.0
G1 X172.4927 Y-224.4635 F12000.0
G1 Z0.0000 F8000.0
G0 X146.5848 Y-243.4287 F15000.0
G1 Z11.9000 F8000.0
G1 X161.4861 Y-243.4287 F12000.0
G1 Z0.0000 F8000.0
G0 X126.6035 Y-183.0615 F15000.0
G1 Z11.9000 F8000.0
G1 X148.5322 Y-145.0462 F12000.0
G1 Z0.0000 F8000.0
G0 X146.5848 Y-243.4287 F15000.0
G1 Z11.9000 F8000.0
G1 X157.5068 Y-224.4635 F12000.0
G1 Z0.0000 F8000.0
G0 X148.5322 Y-145.0462 F15000.0
G1 Z11.9000 F8000.0
G1 X158.5227 Y-162.3182 F12000.0
G1 Z0.0000 F8000.0
G0 X161.4861 Y-243.4287 F15000.0
G1 Z11.9000 F8000.0
G1 X171.4767 Y-260.7007 F12000.0
G1 X180.0000 Y-260.7007 F12000.0
G1 Z0.0000 F8000.0
G0 X158.5227 Y-162.3182 F15000.0
G1 Z11.9000 F8000.0
G1 X143.5368 Y-162.3182 F12000.0
G1 Z0.0000 F8000.0
G0 X158.5227 Y-145.0462 F15000.0
G1 Z11.9000 F8000.0
G1 X148.5322 Y-145.0462 F12000.0
G1 Z0.0000 F8000.0
G0 X143.5368 Y-162.3182 F15000.0
G1 Z11.9000 F8000.0
G1 X156.0675 Y-183.9082 F12000.0
G1 Z0.0000 F8000.0
G0 X121.6929 Y-200.2489 F15000.0
G1 Z11.9000 F8000.0
G1 X146.5848 Y-243.4287 F12000.0
G1 Z0.0000 F8000.0
G0 X171.4767 Y-260.7007 F15000.0
G1 Z11.9000 F8000.0
G1 X180.0000 Y-245.9007 F12000.0
G1 Z0.0000 F8000.0
G0 X180.0000 Y-182.2464 F15000.0
G1 Z11.9000 F8000.0
G1 X158.5227 Y-145.0462 F12000.0
G1 Z0.0000 F8000.0
G0 X121.6929 Y-200.2489 F15000.0
G1 Z11.9000 F8000.0
G1 X143.5368 Y-162.3182 F12000.0
G1 Z0.0000 F8000.0
G0 X150.5642 Y-193.3909 F15000.0
G1 Z11.9000 F8000.0
G1 X145.0608 Y-183.9082 F12000.0
G1 Z0.0000 F8000.0
G0 X129.1435 Y-202.8735 F15000.0
G1 Z11.9000 F8000.0
G1 X140.0655 Y-221.8388 F12000.0
G1 Z0.0000 F8000.0
G0 X145.0608 Y-221.8388 F15000.0
G1 Z11.9000 F8000.0
G1 X150.5642 Y-212.3562 F12000.0
G1 Z0.0000 F8000.0
G0 X145.0608 Y-221.8388 F15000.0
G1 Z11.9000 F8000.0
G1 X140.0655 Y-221.8388 F12000.0
G1 Z0.0000 F8000.0
G0 X140.0655 Y-183.9082 F15000.0
G1 Z11.9000 F8000.0
G1 X129.1435 Y-202.8735 F12000.0
G1 Z0.0000 F8000.0
G0 X140.0655 Y-221.8388 F15000.0
G1 Z11.9000 F8000.0
G1 X145.5688 Y-212.3562 F12000.0
G1 Z0.0000 F8000.0
G0 X145.0608 Y-183.9082 F15000.0
G1 Z11.9000 F8000.0
G1 X140.0655 Y-183.9082 F12000.0
G1 Z0.0000 F8000.0
G0 X145.5688 Y-193.3909 F15000.0
G1 Z11.9000 F8000.0
G1 X140.0655 Y-183.9082 F12000.0
G1 Z0.0000 F8000.0
G0 X145.5688 Y-193.3909 F15000.0
G1 Z11.9000 F8000.0
G1 X142.8595 Y-198.1322 F12000.0
G1 Z0.0000 F8000.0
G0 X172.7467 Y-207.6148 F15000.0
G1 Z11.9000 F8000.0
G1 X142.8595 Y-207.6148 F12000.0
G1 Z0.0000 F8000.0
G0 X156.0675 Y-183.9082 F15000.0
G1 Z11.9000 F8000.0
G1 X150.5642 Y-193.3909 F12000.0
G1 Z0.0000 F8000.0
G0 X145.5688 Y-212.3562 F15000.0
G1 Z11.9000 F8000.0
G1 X150.5642 Y-212.3562 F12000.0
G1 Z0.0000 F8000.0
G0 X172.7467 Y-198.1322 F15000.0
G1 Z11.9000 F8000.0
G1 X180.0000 Y-185.5699 F12000.0
G1 Z0.0000 F8000.0
G0 X172.4927 Y-224.4635 F15000.0
G1 Z11.9000 F8000.0
G1 X180.0000 Y-237.5530 F12000.0
G1 Z0.0000 F8000.0
G0 X142.8595 Y-207.6148 F15000.0
G1 Z11.9000 F8000.0
G1 X145.5688 Y-212.3562 F12000.0
G1 Z0.0000 F8000.0
G0 X150.5642 Y-193.3909 F15000.0
G1 Z11.9000 F8000.0
G1 X145.5688 Y-193.3909 F12000.0
G1 Z0.0000 F8000.0
G0 X172.7467 Y-198.1322 F15000.0
G1 Z11.9000 F8000.0
G1 X142.8595 Y-198.1322 F12000.0
G1 Z0.0000 F8000.0
G0 X150.5642 Y-212.3562 F15000.0
G1 Z11.9000 F8000.0
G1 X157.5068 Y-224.4635 F12000.0
G1 X172.4927 Y-224.4635 F12000.0
G1 Z0.0000 F8000.0
G0 X180.0000 Y-220.2142 F15000.0
G1 Z11.9000 F8000.0
G1 X172.7467 Y-207.6148 F12000.0
G1 Z0.0000 F8000.0
G0 X180.0000 Y-183.9082 F15000.0
G1 Z11.9000 F8000.0
G1 X156.0675 Y-183.9082 F12000.0
G1 Z0.0000 F8000.0
G0 X126.6035 Y-183.0615 F15000.0
G1 Z11.9000 F8000.0
G1 X129.1435 Y-187.3795 F12000.0
G1 Z0.0000 F8000.0
G0 X142.8595 Y-198.1322 F15000.0
G1 Z11.9000 F8000.0
G1 X142.0975 Y-197.1162 F12000.0
G1 X141.2508 Y-196.4389 F12000.0
G1 X140.4042 Y-196.1849 F12000.0
G1 X140.0655 Y-196.1849 F12000.0
G1 X139.2188 Y-196.3542 F12000.0
G1 X138.3722 Y-196.8622 F12000.0
G1 X137.6102 Y-197.7089 F12000.0
G1 X137.0175 Y-198.8095 F12000.0
G1 X136.5095 Y-200.3335 F12000.0
G1 X136.2555 Y-202.1115 F12000.0
G1 X136.2555 Y-204.1435 F12000.0
G1 X136.6788 Y-205.9215 F12000.0
G1 X137.2715 Y-207.4455 F12000.0
G1 X138.0335 Y-208.5462 F12000.0
G1 X138.7955 Y-209.2235 F12000.0
G1 X139.6422 Y-209.5622 F12000.0
G1 X140.0655 Y-209.5622 F12000.0
G1 X140.9122 Y-209.3928 F12000.0
G1 X141.7588 Y-208.8848 F12000.0
G1 X142.5208 Y-208.0382 F12000.0
G1 X142.8595 Y-207.6148 F12000.0
G1 Z0.0000 F8000.0
G0 X167.2434 Y-198.1322 F15000.0
G1 Z11.9000 F8000.0
G1 X166.6507 Y-199.4022 F12000.0
G1 X166.2274 Y-201.0955 F12000.0
G1 X166.1427 Y-202.9582 F12000.0
G1 X166.3121 Y-204.9055 F12000.0
G1 X166.7354 Y-206.5988 F12000.0
G1 X167.2434 Y-207.6148 F12000.0
G1 Z0.0000 F8000.0
G0 X140.0655 Y-202.8735 F15000.0
G1 Z11.9000 F8000.0
G1 X152.7655 Y-202.8735 F12000.0
G1 Z0.0000 F8000.0
G0 X154.2895 Y-202.8735 F15000.0
G1 Z11.9000 F8000.0
G1 X155.8135 Y-202.8735 F12000.0
G1 Z0.0000 F8000.0
G0 X157.2528 Y-202.8735 F15000.0
G1 Z11.9000 F8000.0
G1 X169.9527 Y-202.8735 F12000.0
G1 Z0.0000 F8000.0
G0 X172.7467 Y-198.1322 F15000.0
G1 Z11.9000 F8000.0
G1 X167.2434 Y-207.6148 F12000.0
G1 Z0.0000 F8000.0
G0 X172.7467 Y-207.6148 F15000.0
G1 Z11.9000 F8000.0
G1 X167.2434 Y-198.1322 F12000.0
G1 Z0.0000 F8000.0
G0 X142.8595 Y-207.6148 F15000.0
G1 Z11.9000 F8000.0
G1 X136.8482 Y-197.2855 F12000.0
G1 Z0.0000 F8000.0
G0 X142.8595 Y-198.1322 F15000.0
G1 Z11.9000 F8000.0
G1 X136.9328 Y-208.2922 F12000.0
G1 Z0.0000 F8000.0
G0 X22.6331 Y-245.5454 F15000.0
G1 Z11.9000 F8000.0
G1 X38.9737 Y-217.2668 F12000.0
G1 Z0.0000 F8000.0
G0 X22.6331 Y-245.5454 F15000.0
G1 Z11.9000 F8000.0
G1 X38.9737 Y-273.8240 F12000.0
G1 Z0.0000 F8000.0
G0 X22.6331 Y-245.5454 F15000.0
G1 Z11.9000 F8000.0
G1 X22.6331 Y-278.2267 F12000.0
G1 Z0.0000 F8000.0
G0 X22.6331 Y-245.5454 F15000.0
G1 Z11.9000 F8000.0
G1 X22.6331 Y-212.9488 F12000.0
G1 Z0.0000 F8000.0
G0 X2.6517 Y-245.5454 F15000.0
G1 Z11.9000 F8000.0
G1 X32.6237 Y-262.9020 F12000.0
G1 X32.6237 Y-228.2735 F12000.0
G1 X2.6517 Y-245.5454 F12000.0
G1 Z0.0000 F8000.0
G0 X175.7947 Y-192.8829 F15000.0
G1 Z11.9000 F8000.0
G1 X166.6507 Y-198.1322 F12000.0
G1 Z0.0000 F8000.0
G0 X178.7580 Y-187.6335 F15000.0
G1 Z11.9000 F8000.0
G1 X160.6394 Y-198.1322 F12000.0
G1 Z0.0000 F8000.0
G0 X179.2660 Y-183.9082 F15000.0
G1 Z11.9000 F8000.0
G1 X154.6282 Y-198.1322 F12000.0
G1 Z0.0000 F8000.0
G0 X173.2547 Y-183.9082 F15000.0
G1 Z11.9000 F8000.0
G1 X148.6168 Y-198.1322 F12000.0
G1 Z0.0000 F8000.0
G0 X167.3281 Y-183.9082 F15000.0
G1 Z11.9000 F8000.0
G1 X142.9442 Y-197.9629 F12000.0
G1 Z0.0000 F8000.0
G0 X161.3167 Y-183.9082 F15000.0
G1 Z11.9000 F8000.0
G1 X153.3582 Y-188.4802 F12000.0
G1 Z0.0000 F8000.0
G0 X168.5980 Y-207.6148 F15000.0
G1 Z11.9000 F8000.0
G1 X174.7787 Y-211.1708 F12000.0
G1 Z0.0000 F8000.0
G0 X162.5867 Y-207.6148 F15000.0
G1 Z11.9000 F8000.0
G1 X177.7420 Y-216.3355 F12000.0
G1 Z0.0000 F8000.0
G0 X156.6602 Y-207.6148 F15000.0
G1 Z11.9000 F8000.0
G1 X180.0000 Y-221.1274 F12000.0
G1 Z0.0000 F8000.0
G0 X150.6488 Y-207.6148 F15000.0
G1 Z11.9000 F8000.0
G1 X180.0000 Y-224.5800 F12000.0
G1 Z0.0000 F8000.0
G0 X144.6375 Y-207.6148 F15000.0
G1 Z11.9000 F8000.0
G1 X180.0000 Y-228.0355 F12000.0
G1 Z0.0000 F8000.0
G0 X174.7787 Y-228.5275 F15000.0
G1 Z11.9000 F8000.0
G1 X180.0000 Y-231.5363 F12000.0
G1 Z0.0000 F8000.0
G0 X152.4268 Y-215.5735 F15000.0
G1 Z11.9000 F8000.0
G1 X167.7514 Y-224.4635 F12000.0
G1 Z0.0000 F8000.0
G0 X144.8915 Y-211.2555 F15000.0
G1 Z11.9000 F8000.0
G1 X146.8388 Y-212.3562 F12000.0
G1 Z0.0000 F8000.0
G0 X155.3902 Y-220.7382 F15000.0
G1 Z11.9000 F8000.0
G1 X161.7401 Y-224.4635 F12000.0
G1 Z0.0000 F8000.0
G0 X177.8267 Y-233.6921 F15000.0
G1 Z11.9000 F8000.0
G1 X180.0000 Y-234.9588 F12000.0
G1 Z0.0000 F8000.0
G0 X59.5398 Y-5.0000 F15000.0
G1 Z11.9000 F8000.0
G1 X61.4103 Y-6.8706 F12000.0
G1 Z0.0000 F8000.0
G0 X55.3065 Y-5.0000 F15000.0
G1 Z11.9000 F8000.0
G1 X61.4103 Y-11.1039 F12000.0
G1 Z0.0000 F8000.0
G0 X51.0731 Y-5.0000 F15000.0
G1 Z11.9000 F8000.0
G1 X61.4103 Y-15.3372 F12000.0
G1 Z0.0000 F8000.0
G0 X46.7551 Y-5.0000 F15000.0
G1 Z11.9000 F8000.0
G1 X61.4103 Y-19.6552 F12000.0
G1 Z0.0000 F8000.0
G0 X42.5218 Y-5.0000 F15000.0
G1 Z11.9000 F8000.0
G1 X61.4103 Y-23.8885 F12000.0
G1 Z0.0000 F8000.0
G0 X38.2885 Y-5.0000 F15000.0
G1 Z11.9000 F8000.0
G1 X61.4103 Y-28.1218 F12000.0
G1 Z0.0000 F8000.0
G0 X51.4197 Y-22.3645 F15000.0
G1 Z11.9000 F8000.0
G1 X61.4103 Y-32.3551 F12000.0
G1 Z0.0000 F8000.0
G0 X36.4337 Y-7.3786 F15000.0
G1 Z11.9000 F8000.0
G1 X47.9484 Y-18.8932 F12000.0
G1 Z0.0000 F8000.0
G0 X36.4337 Y-11.6119 F15000.0
G1 Z11.9000 F8000.0
G1 X43.7150 Y-18.8932 F12000.0
G1 Z0.0000 F8000.0
G0 X51.4197 Y-26.5978 F15000.0
G1 Z11.9000 F8000.0
G1 X61.4103 Y-36.5884 F12000.0
G1 Z0.0000 F8000.0
G0 X51.4197 Y-30.8311 F15000.0
G1 Z11.9000 F8000.0
G1 X59.4629 Y-38.9591 F12000.0
G1 Z0.0000 F8000.0
G0 X36.4337 Y-15.8452 F15000.0
G1 Z11.9000 F8000.0
G1 X39.4817 Y-18.8932 F12000.0
G1 Z0.0000 F8000.0
G0 X51.4197 Y-35.0644 F15000.0
G1 Z11.9000 F8000.0
G1 X55.2296 Y-38.9591 F12000.0
G1 Z0.0000 F8000.0
G0 X61.4103 Y-38.9591 F15000.0
G1 Z11.9000 F8000.0
G1 X74.9569 Y-38.9591 F12000.0
G1 Z0.0000 F8000.0
G0 X51.4197 Y-32.6938 F15000.0
G1 Z11.9000 F8000.0
G1 X51.4197 Y-52.5904 F12000.0
G1 Z0.0000 F8000.0
G0 X61.4103 Y-38.9591 F15000.0
G1 Z11.9000 F8000.0
G1 X61.4103 Y-63.8511 F12000.0
G1 Z0.0000 F8000.0
G0 X36.4337 Y-18.8932 F15000.0
G1 Z11.9000 F8000.0
G1 X36.4337 Y-63.8511 F12000.0
G1 Z0.0000 F8000.0
G0 X122.3702 Y-5.0000 F15000.0
G1 Z11.9000 F8000.0
G1 X122.3702 Y-55.1304 F12000.0
G1 Z0.0000 F8000.0
G0 X144.3835 Y-5.0000 F15000.0
G1 Z11.9000 F8000.0
G1 X144.3835 Y-55.1304 F12000.0
G1 Z0.0000 F8000.0
G0 X150.2255 Y-18.8932 F15000.0
G1 Z11.9000 F8000.0
G1 X169.3600 Y-18.8932 F12000.0
G1 Z0.0000 F8000.0
G0 X61.4103 Y-88.9124 F15000.0
G1 Z11.9000 F8000.0
G1 X74.9569 Y-88.9124 F12000.0
G1 Z0.0000 F8000.0
G0 X61.4103 Y-132.9389 F15000.0
G1 Z11.9000 F8000.0
G1 X74.9569 Y-132.9389 F12000.0
G1 Z0.0000 F8000.0
G0 X31.4384 Y-121.9324 F15000.0
G1 Z11.9000 F8000.0
G1 X31.4384 Y-144.9616 F12000.0
G1 Z0.0000 F8000.0
G0 X61.4103 Y-132.9389 F15000.0
G1 Z11.9000 F8000.0
G1 X61.4103 Y-144.9616 F12000.0
G1 Z0.0000 F8000.0
G0 X36.0104 Y-222.4315 F15000.0
G1 Z11.9000 F8000.0
G1 X38.5504 Y-224.0402 F12000.0
G1 X40.8364 Y-225.9875 F12000.0
G1 X42.9530 Y-228.1888 F12000.0
G1 X44.7310 Y-230.5595 F12000.0
G1 X46.2550 Y-233.0994 F12000.0
G1 X47.5250 Y-235.8934 F12000.0
G1 X48.4564 Y-238.6874 F12000.0
G1 X49.0490 Y-241.6507 F12000.0
G1 X49.3877 Y-244.6987 F12000.0
G1 X49.3030 Y-247.6620 F12000.0
G1 X48.8797 Y-250.6254 F12000.0
G1 X48.1177 Y-253.5887 F12000.0
G1 X47.1017 Y-256.3827 F12000.0
G1 X45.7470 Y-259.0920 F12000.0
G1 X44.0537 Y-261.5474 F12000.0
G1 X42.1064 Y-263.8334 F12000.0
G1 X39.9050 Y-265.9500 F12000.0
G1 X37.5344 Y-267.7280 F12000.0
G1 X36.0104 Y-268.7440 F12000.0
G1 X33.3010 Y-270.0987 F12000.0
G1 X30.5070 Y-271.1147 F12000.0
G1 X27.5437 Y-271.7920 F12000.0
G1 X24.5804 Y-272.2154 F12000.0
G1 X22.6331 Y-272.3000 F12000.0
G1 Z0.0000 F8000.0
G0 X0.0271 Y-259.8540 F15000.0
G1 Z11.9000 F8000.0
G1 X1.8051 Y-262.3094 F12000.0
G1 X3.8371 Y-264.5107 F12000.0
G1 X6.0384 Y-266.5427 F12000.0
G1 X8.4937 Y-268.2360 F12000.0
G1 X11.1184 Y-269.6754 F12000.0
G1 X13.9124 Y-270.8607 F12000.0
G1 X16.7911 Y-271.6227 F12000.0
G1 X19.7544 Y-272.1307 F12000.0
G1 X22.6331 Y-272.3000 F12000.0
G1 Z0.0000 F8000.0
G0 X73.0096 Y-38.9591 F15000.0
G1 Z11.9000 F8000.0
G1 X73.6022 Y-33.8791 F12000.0
G1 X73.0096 Y-34.3871 F12000.0
G1 X72.3322 Y-33.8791 F12000.0
G1 X73.0096 Y-38.9591 F12000.0
G1 Z0.0000 F8000.0
G0 X73.2636 Y-36.9114 F15000.0
G1 Z11.9000 F8000.0
G1 X73.2636 Y-36.0114 F12000.0
G1 Z0.0000 F8000.0
G0 X72.6709 Y-36.6151 F15000.0
G1 Z11.9000 F8000.0
G1 X72.6709 Y-35.7151 F12000.0
G1 Z0.0000 F8000.0
G0 X73.0096 Y-5.0000 F15000.0
G1 Z11.9000 F8000.0
G1 X73.0096 Y-38.9591 F12000.0
G1 Z0.0000 F8000.0
G0 X61.4103 Y-50.5584 F15000.0
G1 Z11.9000 F8000.0
G1 X66.4056 Y-49.9658 F12000.0
G1 X65.8976 Y-50.5584 F12000.0
G1 X66.4056 Y-51.2358 F12000.0
G1 X61.4103 Y-50.5584 F12000.0
G1 X68.4376 Y-50.5584 F12000.0
G1 Z0.0000 F8000.0
G0 X63.7542 Y-50.3044 F15000.0
G1 Z11.9000 F8000.0
G1 X64.6542 Y-50.3044 F12000.0
G1 Z0.0000 F8000.0
G0 X63.4156 Y-50.8971 F15000.0
G1 Z11.9000 F8000.0
G1 X64.3156 Y-50.8971 F12000.0
G1 Z0.0000 F8000.0
G0 X51.4197 Y-50.5584 F15000.0
G1 Z11.9000 F8000.0
G1 X46.4244 Y-51.2358 F12000.0
G1 X46.9324 Y-50.5584 F12000.0
G1 X46.4244 Y-49.9658 F12000.0
G1 X51.4197 Y-50.5584 F12000.0
G1 X44.3924 Y-50.5584 F12000.0
G1 Z0.0000 F8000.0
G0 X48.4297 Y-50.8971 F15000.0
G1 Z11.9000 F8000.0
G1 X49.3297 Y-50.8971 F12000.0
G1 Z0.0000 F8000.0
G0 X48.0910 Y-50.3044 F15000.0
G1 Z11.9000 F8000.0
G1 X48.9910 Y-50.3044 F12000.0
G1 Z0.0000 F8000.0
G0 X61.4103 Y-50.5584 F15000.0
G1 Z11.9000 F8000.0
G1 X51.4197 Y-50.5584 F12000.0
G1 Z0.0000 F8000.0
G0 X61.4103 Y-61.9038 F15000.0
G1 Z11.9000 F8000.0
G1 X56.4149 Y-61.2264 F12000.0
G1 X56.9229 Y-61.9038 F12000.0
G1 X56.4149 Y-62.4964 F12000.0
G1 X61.4103 Y-61.9038 F12000.0
G1 Z0.0000 F8000.0
G0 X58.1239 Y-61.6074 F15000.0
G1 Z11.9000 F8000.0
G1 X59.0239 Y-61.6074 F12000.0
G1 Z0.0000 F8000.0
G0 X58.4203 Y-62.2001 F15000.0
G1 Z11.9000 F8000.0
G1 X59.3203 Y-62.2001 F12000.0
G1 Z0.0000 F8000.0
G0 X36.4337 Y-61.9038 F15000.0
G1 Z11.9000 F8000.0
G1 X41.4290 Y-62.4964 F12000.0
G1 X40.9210 Y-61.9038 F12000.0
G1 X41.4290 Y-61.2264 F12000.0
G1 X36.4337 Y-61.9038 F12000.0
G1 Z0.0000 F8000.0
G0 X38.4390 Y-62.2001 F15000.0
G1 Z11.9000 F8000.0
G1 X39.3390 Y-62.2001 F12000.0
G1 Z0.0000 F8000.0
G0 X38.7354 Y-61.6074 F15000.0
G1 Z11.9000 F8000.0
G1 X39.6354 Y-61.6074 F12000.0
G1 Z0.0000 F8000.0
G0 X61.4103 Y-61.9038 F15000.0
G1 Z11.9000 F8000.0
G1 X36.4337 Y-61.9038 F12000.0
G1 Z0.0000 F8000.0
G0 X140.3195 Y-50.8124 F15000.0
G1 Z11.9000 F8000.0
G1 X140.3195 Y-45.8171 F12000.0
G1 X135.3242 Y-45.8171 F12000.0
G1 X135.3242 Y-50.8124 F12000.0
G1 X140.3195 Y-50.8124 F12000.0
G1 Z0.0000 F8000.0
G0 X122.3702 Y-53.0984 F15000.0
G1 Z11.9000 F8000.0
G1 X127.4502 Y-53.7758 F12000.0
G1 X126.9422 Y-53.0984 F12000.0
G1 X127.4502 Y-52.4211 F12000.0
G1 X122.3702 Y-53.0984 F12000.0
G1 Z0.0000 F8000.0
G0 X124.4179 Y-53.4371 F15000.0
G1 Z11.9000 F8000.0
G1 X125.3179 Y-53.4371 F12000.0
G1 Z0.0000 F8000.0
G0 X124.7142 Y-52.8021 F15000.0
G1 Z11.9000 F8000.0
G1 X125.6142 Y-52.8021 F12000.0
G1 Z0.0000 F8000.0
G0 X144.3835 Y-53.0984 F15000.0
G1 Z11.9000 F8000.0
G1 X139.3882 Y-52.4211 F12000.0
G1 X139.8962 Y-53.0984 F12000.0
G1 X139.3882 Y-53.7758 F12000.0
G1 X144.3835 Y-53.0984 F12000.0
G1 Z0.0000 F8000.0
G0 X141.0972 Y-52.8021 F15000.0
G1 Z11.9000 F8000.0
G1 X141.9972 Y-52.8021 F12000.0
G1 Z0.0000 F8000.0
G0 X141.3935 Y-53.4371 F15000.0
G1 Z11.9000 F8000.0
G1 X142.2935 Y-53.4371 F12000.0
G1 Z0.0000 F8000.0
G0 X122.3702 Y-53.0984 F15000.0
G1 Z11.9000 F8000.0
G1 X144.3835 Y-53.0984 F12000.0
G1 Z0.0000 F8000.0
G0 X167.4127 Y-18.8932 F15000.0
G1 Z11.9000 F8000.0
G1 X168.0054 Y-13.8979 F12000.0
G1 X167.4127 Y-14.4059 F12000.0
G1 X166.7354 Y-13.8979 F12000.0
G1 X167.4127 Y-18.8932 F12000.0
G1 Z0.0000 F8000.0
G0 X167.6667 Y-16.8879 F15000.0
G1 Z11.9000 F8000.0
G1 X167.6667 Y-15.9879 F12000.0
G1 Z0.0000 F8000.0
G0 X167.0741 Y-16.5916 F15000.0
G1 Z11.9000 F8000.0
G1 X167.0741 Y-15.6916 F12000.0
G1 Z0.0000 F8000.0
G0 X167.4127 Y-5.0000 F15000.0
G1 Z11.9000 F8000.0
G1 X167.4127 Y-18.8932 F12000.0
G1 Z0.0000 F8000.0
G0 X66.1512 Y-109.6811 F15000.0
G1 Z11.9000 F8000.0
G1 X68.7876 Y-108.1811 F12000.0
G1 X69.3330 Y-107.9993
G1 X69.4239 Y-109.0902
G1 X70.1512 Y-108.9538
G1 X70.4694 Y-108.8174
G1 Z0.0000 F8000.0
G0 X68.3330 Y-109.6811 F15000.0
G1 Z11.9000 F8000.0
G1 X69.3785 Y-109.3629 F12000.0
G1 X69.4239 Y-109.1811
G1 Z0.0000 F8000.0
G0 X69.4239 Y-109.8629 F15000.0
G1 Z11.9000 F8000.0
G1 X69.4239 Y-109.4083 F12000.0
G1 Z0.0000 F8000.0
G0 X66.1512 Y-112.7238 F15000.0
G1 Z11.9000 F8000.0
G1 X68.7876 Y-111.2238 F12000.0
G1 X69.3330 Y-111.0420
G1 X69.4239 Y-112.1329
G1 X70.1512 Y-111.9965
G1 X70.4694 Y-111.8601
G1 Z0.0000 F8000.0
G0 X68.3330 Y-112.7238 F15000.0
G1 Z11.9000 F8000.0
G1 X69.3785 Y-112.4056 F12000.0
G1 X69.4239 Y-112.2238
G1 Z0.0000 F8000.0
G0 X69.4239 Y-112.9056 F15000.0
G1 Z11.9000 F8000.0
G1 X69.4239 Y-112.4511 F12000.0
G1 Z0.0000 F8000.0
G0 X73.0096 Y-88.9124 F15000.0
G1 Z11.9000 F8000.0
G1 X72.3322 Y-93.9077 F12000.0
G1 X73.0096 Y-93.3997 F12000.0
G1 X73.6022 Y-93.9077 F12000.0
G1 X73.0096 Y-88.9124 F12000.0
G1 Z0.0000 F8000.0
G0 X72.6709 Y-92.1987 F15000.0
G1 Z11.9000 F8000.0
G1 X72.6709 Y-91.2987 F12000.0
G1 Z0.0000 F8000.0
G0 X73.2636 Y-91.8601 F15000.0
G1 Z11.9000 F8000.0
G1 X73.2636 Y-90.9601 F12000.0
G1 Z0.0000 F8000.0
G0 X73.0096 Y-132.9389 F15000.0
G1 Z11.9000 F8000.0
G1 X73.6022 Y-127.9436 F12000.0
G1 X73.0096 Y-128.4516 F12000.0
G1 X72.3322 Y-127.9436 F12000.0
G1 X73.0096 Y-132.9389 F12000.0
G1 Z0.0000 F8000.0
G0 X73.2636 Y-130.9336 F15000.0
G1 Z11.9000 F8000.0
G1 X73.2636 Y-130.0336 F12000.0
G1 Z0.0000 F8000.0
G0 X72.6709 Y-130.6373 F15000.0
G1 Z11.9000 F8000.0
G1 X72.6709 Y-129.7373 F12000.0
G1 Z0.0000 F8000.0
G0 X73.0096 Y-88.9124 F15000.0
G1 Z11.9000 F8000.0
G1 X73.0096 Y-132.9389 F12000.0
G1 Z0.0000 F8000.0
G0 X31.4384 Y-142.9296 F15000.0
G1 Z11.9000 F8000.0
G1 X36.4337 Y-143.6069 F12000.0
G1 X35.9257 Y-142.9296 F12000.0
G1 X36.4337 Y-142.2522 F12000.0
G1 X31.4384 Y-142.9296 F12000.0
G1 Z0.0000 F8000.0
G0 X33.4437 Y-143.2682 F15000.0
G1 Z11.9000 F8000.0
G1 X34.3437 Y-143.2682 F12000.0
G1 Z0.0000 F8000.0
G0 X33.7400 Y-142.6332 F15000.0
G1 Z11.9000 F8000.0
G1 X34.6400 Y-142.6332 F12000.0
G1 Z0.0000 F8000.0
G0 X61.4103 Y-142.9296 F15000.0
G1 Z11.9000 F8000.0
G1 X56.4149 Y-142.2522 F12000.0
G1 X56.9229 Y-142.9296 F12000.0
G1 X56.4149 Y-143.6069 F12000.0
G1 X61.4103 Y-142.9296 F12000.0
G1 Z0.0000 F8000.0
G0 X58.1239 Y-142.6332 F15000.0
G1 Z11.9000 F8000.0
G1 X59.0239 Y-142.6332 F12000.0
G1 Z0.0000 F8000.0
G0 X58.4203 Y-143.2682 F15000.0
G1 Z11.9000 F8000.0
G1 X59.3203 Y-143.2682 F12000.0
G1 Z0.0000 F8000.0
G0 X31.4384 Y-142.9296 F15000.0
G1 Z11.9000 F8000.0
G1 X61.4103 Y-142.9296 F12000.0
G1 Z0.0000 F8000.0
G0 X36.0104 Y-222.4315 F15000.0
G1 Z11.9000 F8000.0
G1 X39.7357 Y-225.8182 F12000.0
G1 X39.7357 Y-224.9715 F12000.0
G1 X40.4977 Y-224.7175 F12000.0
G1 X36.0104 Y-222.4315 F12000.0
G1 Z0.0000 F8000.0
G0 X37.6500 Y-224.6018 F15000.0
G1 Z11.9000 F8000.0
G1 X38.3500 Y-223.9018 F12000.0
G1 Z0.0000 F8000.0
G0 X37.8464 Y-223.7862 F15000.0
G1 Z11.9000 F8000.0
G1 X38.7464 Y-223.7862 F12000.0
G1 Z0.0000 F8000.0
G0 X36.0104 Y-268.7440 F15000.0
G1 Z11.9000 F8000.0
G1 X40.4977 Y-266.3734 F12000.0
G1 X39.7357 Y-266.1194 F12000.0
G1 X39.7357 Y-265.2727 F12000.0
G1 X36.0104 Y-268.7440 F12000.0
G1 Z0.0000 F8000.0
G0 X37.9464 Y-267.7394 F15000.0
G1 Z11.9000 F8000.0
G1 X38.6464 Y-267.0394 F12000.0
G1 Z0.0000 F8000.0
G0 X37.6500 Y-267.3160 F15000.0
G1 Z11.9000 F8000.0
G1 X38.3500 Y-266.6160 F12000.0
G1 Z0.0000 F8000.0
G0 X36.0104 Y-268.7440 F15000.0
G1 Z11.9000 F8000.0
G1 X31.1844 Y-270.2680 F12000.0
G1 X31.9464 Y-270.6067 F12000.0
G1 X31.7770 Y-271.4534 F12000.0
G1 X36.0104 Y-268.7440 F12000.0
G1 Z0.0000 F8000.0
G0 X32.9780 Y-269.7600 F15000.0
G1 Z11.9000 F8000.0
G1 X33.8780 Y-269.7600 F12000.0
G1 Z0.0000 F8000.0
G0 X33.4167 Y-270.5334 F15000.0
G1 Z11.9000 F8000.0
G1 X34.1167 Y-269.8334 F12000.0
G1 Z0.0000 F8000.0
G0 X22.6331 Y-272.3000 F15000.0
G1 Z11.9000 F8000.0
G1 X27.7131 Y-272.5540 F12000.0
G1 X27.1204 Y-271.8767 F12000.0
G1 X27.5437 Y-271.1994 F12000.0
G1 X22.6331 Y-272.3000 F12000.0
G1 Z0.0000 F8000.0
G0 X24.6807 Y-272.2154 F15000.0
G1 Z11.9000 F8000.0
G1 X25.5807 Y-272.2154 F12000.0
G1 Z0.0000 F8000.0
G0 X24.7654 Y-271.7920 F15000.0
G1 Z11.9000 F8000.0
G1 X25.6654 Y-271.7920 F12000.0
G1 Z0.0000 F8000.0
G0 X22.6331 Y-272.3000 F15000.0
G1 Z11.9000 F8000.0
G1 X17.7224 Y-271.1994 F12000.0
G1 X18.1457 Y-271.8767 F12000.0
G1 X17.6377 Y-272.5540 F12000.0
G1 X22.6331 Y-272.3000 F12000.0
G1 Z0.0000 F8000.0
G0 X19.5161 Y-271.7920 F15000.0
G1 Z11.9000 F8000.0
G1 X20.4161 Y-271.7920 F12000.0
G1 Z0.0000 F8000.0
G0 X19.6431 Y-272.2154 F15000.0
G1 Z11.9000 F8000.0
G1 X20.5431 Y-272.2154 F12000.0
G1 Z0.0000 F8000.0
G0 X32.2514 Y-217.6195 F15000.0
G1 Z11.9000 F8000.0
G1 X32.7969 Y-217.1195 F12000.0
G1 Z0.0000 F8000.0
G0 X32.3878 Y-215.8468 F15000.0
G1 Z11.9000 F8000.0
G1 X34.0696 Y-216.1650 F12000.0
G1 X34.2514 Y-215.8013
G1 X34.4787 Y-215.5741
G1 Z0.0000 F8000.0
G0 X33.2060 Y-216.7559 F15000.0
G1 Z11.9000 F8000.0
G1 X33.2969 Y-216.6650 F12000.0
G1 Z0.0000 F8000.0
G0 X33.5696 Y-216.3922 F15000.0
G1 Z11.9000 F8000.0
G1 X33.6605 Y-216.2104 F12000.0
G1 Z0.0000 F8000.0
G0 X34.1605 Y-216.1650 F15000.0
G1 Z11.9000 F8000.0
G1 X35.3878 Y-216.3922 F12000.0
G1 Z0.0000 F8000.0
G0 X35.1151 Y-214.9832 F15000.0
G1 Z11.9000 F8000.0
G1 X35.2514 Y-214.8922 F12000.0
G1 Z0.0000 F8000.0
G0 X33.0817 Y-275.2319 F15000.0
G1 Z11.9000 F8000.0
G1 X35.6271 Y-275.0956 F12000.0
G1 X37.2181 Y-274.3228
G1 X37.7635 Y-273.4137
G1 Z0.0000 F8000.0
G0 X33.1515 Y-277.0073 F15000.0
G1 Z11.9000 F8000.0
G1 X32.8781 Y-276.7713 F12000.0
G1 X32.9621 Y-276.7730
G1 X32.8600 Y-276.7521
G1 X32.9191 Y-276.5455
G1 X33.1545 Y-276.5288
G1 X32.8605 Y-276.8104
G1 X32.8557 Y-276.9960
G1 Z0.0000 F8000.0
G0 X33.2652 Y-276.8594 F15000.0
G1 Z11.9000 F8000.0
G1 X33.2652 Y-276.5762 F12000.0
G1 X33.2927 Y-276.7191
G1 X33.4855 Y-276.7245
G1 X33.5035 Y-276.8389
G1 X33.5227 Y-276.5582
G1 X33.6807 Y-276.5736
G1 X33.8227 Y-276.8708
G1 Z0.0000 F8000.0
G0 X34.3005 Y-276.8708 F15000.0
G1 Z11.9000 F8000.0
G1 X34.1206 Y-276.9923 F12000.0
G1 X34.1723 Y-276.5362
G1 X34.3028 Y-276.6675
G1 X34.2566 Y-276.5652
G1 X34.3261 Y-276.8494
G1 X34.6792 Y-276.9751
G1 X34.6638 Y-276.7752
G1 X34.5298 Y-276.5495
G1 X34.7101 Y-276.5409
G1 Z0.0000 F8000.0
G0 X35.2675 Y-276.5523 F15000.0
G1 Z11.9000 F8000.0
G1 X35.3142 Y-276.6672 F12000.0
G1 X35.0839 Y-276.6045
G1 X35.1504 Y-277.0003
G1 X35.2760 Y-276.9601
G1 X35.3373 Y-276.7090
G1 X35.6275 Y-276.9264
G1 X35.6316 Y-276.5523
G1 Z0.0000 F8000.0
G0 X35.0969 Y-276.9618 F15000.0
G1 Z11.9000 F8000.0
G1 X35.1083 Y-276.9846 F12000.0
G1 Z0.0000 F8000.0

G0 Z0.0000 F800.0
G4 P0.06
G0 X0.0000 Y0.0000 F15000.0
M5
G4 P0.10
$1=0
