$X
$1=255
G21
G90
G92 Z4.0000
G0 Z0.0000 F800.0
G4 P0.06
G92 Z0.0000
G0 Z0.0000 F800.0
G0 X0.0000 Y0.0000 F15000.0
G21
G90
G17
G91.1
G0 Z0.0000
G0 X66.0402 Y-126.5140 F15000.0
G1 Z11.9000 F8000.0
G1 X65.7220 Y-126.9231 F12000.0
G1 X65.8584 Y-128.2867
G1 X66.4038 Y-128.3776
G1 Z0.0000 F8000.0
G0 X65.7220 Y-125.0594 F15000.0
G1 Z11.9000 F8000.0
G1 X65.7220 Y-123.8776 F12000.0
G1 Z0.0000 F8000.0
G0 X65.8129 Y-123.6958 F15000.0
G1 Z11.9000 F8000.0
G1 X66.1311 Y-123.3322 F12000.0
G1 Z0.0000 F8000.0
G0 X66.0857 Y-125.3322 F15000.0
G1 Z11.9000 F8000.0
G1 X66.4038 Y-125.3322 F12000.0
G1 Z0.0000 F8000.0
G0 X66.3129 Y-126.2867 F15000.0
G1 Z11.9000 F8000.0
G1 X68.6311 Y-125.3776 F12000.0
G1 Z0.0000 F8000.0
G0 X66.4948 Y-123.1503 F15000.0
G1 Z11.9000 F8000.0
G1 X67.1766 Y-122.9231 F12000.0
G1 X67.8584 Y-122.8776
G1 Z0.0000 F8000.0
G0 X67.4038 Y-128.0140 F15000.0
G1 Z11.9000 F8000.0
G1 X67.5402 Y-127.9685 F12000.0
G1 Z0.0000 F8000.0
G0 X67.5402 Y-124.9231 F15000.0
G1 Z11.9000 F8000.0
G1 X67.6766 Y-124.8776 F12000.0
G1 Z0.0000 F8000.0
G0 X67.9493 Y-122.9685 F15000.0
G1 Z11.9000 F8000.0
G1 X68.1766 Y-124.5594 F12000.0
G1 X68.8129 Y-124.2867
G1 X69.1311 Y-124.0140
G1 Z0.0000 F8000.0
G0 X68.0857 Y-124.6958 F15000.0
G1 Z11.9000 F8000.0
G1 X68.1766 Y-124.5594 F12000.0
G1 Z0.0000 F8000.0
G0 X68.1766 Y-127.7413 F15000.0
G1 Z11.9000 F8000.0
G1 X68.3129 Y-127.6958 F12000.0
G1 Z0.0000 F8000.0
G0 X68.8129 Y-127.5140 F15000.0
G1 Z11.9000 F8000.0
G1 X69.6311 Y-127.1503 F12000.0
G1 X70.0857 Y-126.6503
G1 X70.1766 Y-126.3776
G1 X70.1766 Y-125.3776
G1 Z0.0000 F8000.0
G0 X69.0857 Y-125.1958 F15000.0
G1 Z11.9000 F8000.0
G1 X69.8129 Y-125.0594 F12000.0
G1 X70.0857 Y-125.2413
G1 Z0.0000 F8000.0
G0 X69.4038 Y-123.7867 F15000.0
G1 Z11.9000 F8000.0
G1 X69.4948 Y-123.6958 F12000.0
G1 Z0.0000 F8000.0
G0 X69.8584 Y-123.1958 F15000.0
G1 Z11.9000 F8000.0
G1 X70.2220 Y-122.5140 F12000.0
G1 Z0.0000 F8000.0
G0 X53.8035 Y-175.3284 F15000.0
G1 Z11.9000 F8000.0
G1 X53.8490 Y-174.8739 F12000.0
G1 X54.8035 Y-174.5557
G1 X55.2581 Y-174.6466
G1 X55.6672 Y-174.9648
G1 Z0.0000 F8000.0
G0 X54.1672 Y-176.3284 F15000.0
G1 Z11.9000 F8000.0
G1 X54.2126 Y-176.4648 F12000.0
G1 Z0.0000 F8000.0
G0 X54.4399 Y-177.1011 F15000.0
G1 Z11.9000 F8000.0
G1 X54.4853 Y-177.2375 F12000.0
G1 Z0.0000 F8000.0
G0 X54.6672 Y-177.7375 F15000.0
G1 Z11.9000 F8000.0
G1 X55.0308 Y-178.5557 F12000.0
G1 X55.5308 Y-179.0102
G1 X55.8490 Y-179.1466
G1 X56.7581 Y-179.1466
G1 X57.1217 Y-178.3739
G1 X56.9853 Y-178.0102
G1 Z0.0000 F8000.0
G0 X55.8944 Y-175.2375 F15000.0
G1 Z11.9000 F8000.0
G1 X56.8035 Y-177.5557 F12000.0
G1 Z0.0000 F8000.0
G0 X56.5308 Y-174.5102 F15000.0
G1 Z11.9000 F8000.0
G1 X56.6217 Y-174.6466 F12000.0
G1 Z0.0000 F8000.0
G0 X57.1217 Y-174.9648 F15000.0
G1 Z11.9000 F8000.0
G1 X56.8035 Y-174.9193 F12000.0
G1 X58.2581 Y-179.1011
G1 Z0.0000 F8000.0
G0 X45.8319 Y-185.8851 F15000.0
G1 Z11.9000 F8000.0
G1 X47.4682 Y-185.9761 F12000.0
G1 X48.1501 Y-187.9306
G1 X46.9228 Y-188.1579
G1 Z0.0000 F8000.0
G0 X46.8319 Y-188.2488 F15000.0
G1 Z11.9000 F8000.0
G1 X46.7410 Y-188.6124 F12000.0
G1 X47.1046 Y-189.6579
G1 Z0.0000 F8000.0
G0 X47.4682 Y-190.1124 F15000.0
G1 Z11.9000 F8000.0
G1 X47.6046 Y-190.2488 F12000.0
G1 X49.1046 Y-190.5215
G1 Z0.0000 F8000.0
G0 X48.8319 Y-187.1124 F15000.0
G1 Z11.9000 F8000.0
G1 X48.7410 Y-186.7942 F12000.0
G1 X48.8773 Y-186.1124
G1 Z0.0000 F8000.0
G0 X49.1501 Y-185.9306 F15000.0
G1 Z11.9000 F8000.0
G1 X49.9228 Y-185.9761 F12000.0
G1 Z0.0000 F8000.0
G0 X50.1501 Y-190.4761 F15000.0
G1 Z11.9000 F8000.0
G1 X51.9228 Y-190.4306 F12000.0
G1 X52.1955 Y-190.5215
G1 Z0.0000 F8000.0
G0 X50.2410 Y-186.1124 F15000.0
G1 Z11.9000 F8000.0
G1 X50.4682 Y-186.2942 F12000.0
G1 Z0.0000 F8000.0
G0 X50.3773 Y-188.6579 F15000.0
G1 Z11.9000 F8000.0
G1 X51.9228 Y-190.3851 F12000.0
G1 Z0.0000 F8000.0
G0 X127.6343 Y-178.5746 F15000.0
G1 Z11.9000 F8000.0
G1 X127.4524 Y-177.9383 F12000.0
G1 X127.6343 Y-177.6201
G1 X127.8615 Y-177.4383
G1 X128.7252 Y-177.4383
G1 Z0.0000 F8000.0
G0 X128.9524 Y-181.9383 F15000.0
G1 Z11.9000 F8000.0
G1 X130.7252 Y-181.8928 F12000.0
G1 X130.6343 Y-181.6201
G1 Z0.0000 F8000.0
G0 X129.0433 Y-177.5746 F15000.0
G1 Z11.9000 F8000.0
G1 X129.6343 Y-178.1655 F12000.0
G1 Z0.0000 F8000.0
G0 X129.1797 Y-180.1201 F15000.0
G1 Z11.9000 F8000.0
G1 X129.3161 Y-180.2565 F12000.0
G1 Z0.0000 F8000.0
G0 X130.6797 Y-178.5746 F15000.0
G1 Z11.9000 F8000.0
G1 X130.4979 Y-177.9383 F12000.0
G1 X130.6797 Y-177.6201
G1 X130.9070 Y-177.4383
G1 Z0.0000 F8000.0
G0 X131.1343 Y-177.3474 F15000.0
G1 Z11.9000 F8000.0
G1 X131.7706 Y-177.4383 F12000.0
G1 Z0.0000 F8000.0
G0 X131.9979 Y-181.9383 F15000.0
G1 Z11.9000 F8000.0
G1 X133.7706 Y-181.8928 F12000.0
G1 X133.6797 Y-181.6201
G1 Z0.0000 F8000.0
G0 X132.0888 Y-177.5746 F15000.0
G1 Z11.9000 F8000.0
G1 X132.6797 Y-178.1655 F12000.0
G1 Z0.0000 F8000.0
G0 X132.2252 Y-180.1201 F15000.0
G1 Z11.9000 F8000.0
G1 X132.3615 Y-180.2565 F12000.0
G1 Z0.0000 F8000.0
G0 X160.2458 Y-125.2701 F15000.0
G1 Z11.9000 F8000.0
G1 X160.3821 Y-123.6337 F12000.0
G1 X162.2912 Y-122.9519
G1 X162.4731 Y-124.0883
G1 Z0.0000 F8000.0
G0 X160.6549 Y-126.3155 F15000.0
G1 Z11.9000 F8000.0
G1 X160.3367 Y-126.7246 F12000.0
G1 X160.4731 Y-128.0883
G1 X161.0185 Y-128.1792
G1 Z0.0000 F8000.0
G0 X160.9276 Y-126.0883 F15000.0
G1 Z11.9000 F8000.0
G1 X163.2458 Y-125.1792 F12000.0
G1 Z0.0000 F8000.0
G0 X162.0185 Y-127.8155 F15000.0
G1 Z11.9000 F8000.0
G1 X162.1549 Y-127.7701 F12000.0
G1 Z0.0000 F8000.0
G0 X162.6549 Y-124.2701 F15000.0
G1 Z11.9000 F8000.0
G1 X163.0185 Y-124.3610 F12000.0
G1 X163.4276 Y-124.2246
G1 Z0.0000 F8000.0
G0 X162.7912 Y-127.5428 F15000.0
G1 Z11.9000 F8000.0
G1 X162.9276 Y-127.4974 F12000.0
G1 Z0.0000 F8000.0
G0 X163.4276 Y-127.3155 F15000.0
G1 Z11.9000 F8000.0
G1 X164.2458 Y-126.9519 F12000.0
G1 X164.7003 Y-126.4519
G1 X164.7912 Y-126.1792
G1 X164.7912 Y-125.1792
G1 Z0.0000 F8000.0
G0 X163.7003 Y-124.9974 F15000.0
G1 Z11.9000 F8000.0
G1 X164.4276 Y-124.8610 F12000.0
G1 X164.7003 Y-125.0428
G1 Z0.0000 F8000.0
G0 X163.8821 Y-124.0428 F15000.0
G1 Z11.9000 F8000.0
G1 X164.3367 Y-123.8155 F12000.0
G1 Z0.0000 F8000.0
G0 X164.4276 Y-123.7246 F15000.0
G1 Z11.9000 F8000.0
G1 X165.0185 Y-121.8155 F12000.0
G1 Z0.0000 F8000.0
G0 X43.4729 Y-267.8856 F15000.0
G1 Z11.9000 F8000.0
G1 X43.5184 Y-267.4311 F12000.0
G1 X44.4729 Y-267.1129
G1 X44.9274 Y-267.2038
G1 X45.3365 Y-267.5220
G1 Z0.0000 F8000.0
G0 X43.8365 Y-268.8855 F15000.0
G1 Z11.9000 F8000.0
G1 X43.8820 Y-269.0219 F12000.0
G1 Z0.0000 F8000.0
G0 X44.1093 Y-269.6583 F15000.0
G1 Z11.9000 F8000.0
G1 X44.1547 Y-269.7946 F12000.0
G1 Z0.0000 F8000.0
G0 X44.3365 Y-270.2946 F15000.0
G1 Z11.9000 F8000.0
G1 X44.7002 Y-271.1128 F12000.0
G1 X45.2002 Y-271.5674
G1 X45.5184 Y-271.7037
G1 X46.4274 Y-271.7037
G1 X46.7911 Y-270.9310
G1 X46.6547 Y-270.5674
G1 Z0.0000 F8000.0
G0 X45.5638 Y-267.7947 F15000.0
G1 Z11.9000 F8000.0
G1 X46.4729 Y-270.1128 F12000.0
G1 Z0.0000 F8000.0
G0 X46.7911 Y-267.3402 F15000.0
G1 Z11.9000 F8000.0
G1 X46.6547 Y-267.5675 F12000.0
G1 X46.8365 Y-268.2037
G1 Z0.0000 F8000.0
G0 X46.9729 Y-267.2038 F15000.0
G1 Z11.9000 F8000.0
G1 X47.8820 Y-267.1129 F12000.0
G1 Z0.0000 F8000.0
G0 X47.0638 Y-268.7492 F15000.0
G1 Z11.9000 F8000.0
G1 X47.3365 Y-268.9764 F12000.0
G1 Z0.0000 F8000.0
G0 X47.8365 Y-271.2492 F15000.0
G1 Z11.9000 F8000.0
G1 X47.3820 Y-270.2037 F12000.0
G1 X47.4274 Y-269.4764
G1 Z0.0000 F8000.0
G0 X47.6093 Y-269.2492 F15000.0
G1 Z11.9000 F8000.0
G1 X48.1547 Y-269.3401 F12000.0
G1 Z0.0000 F8000.0
G0 X48.0638 Y-271.4310 F15000.0
G1 Z11.9000 F8000.0
G1 X49.7911 Y-271.8401 F12000.0
G1 Z0.0000 F8000.0
G0 X100.6358 Y-105.3493 F15000.0
G1 Z11.9000 F8000.0
G1 X100.9540 Y-105.1220 F12000.0
G1 Z0.0000 F8000.0
G0 X101.3176 Y-104.8948 F15000.0
G1 Z11.9000 F8000.0
G1 X103.5903 Y-103.3493 F12000.0
G1 Z0.0000 F8000.0
G0 X101.7267 Y-104.4857 F15000.0
G1 Z11.9000 F8000.0
G1 X101.9085 Y-103.4857 F12000.0
G1 X102.4540 Y-102.8493
G1 Z0.0000 F8000.0
G0 X101.9085 Y-104.8493 F15000.0
G1 Z11.9000 F8000.0
G1 X102.1812 Y-105.0311 F12000.0
G1 X103.1358 Y-104.9402
G1 Z0.0000 F8000.0
G0 X102.8630 Y-102.5766 F15000.0
G1 Z11.9000 F8000.0
G1 X103.0449 Y-102.5311 F12000.0
G1 X104.0903 Y-102.8038
G1 X104.4540 Y-102.7584
G1 Z0.0000 F8000.0
G0 X103.4085 Y-104.8038 F15000.0
G1 Z11.9000 F8000.0
G1 X104.1812 Y-103.0766 F12000.0
G1 X104.1358 Y-103.0311
G1 Z0.0000 F8000.0
G0 X104.9994 Y-102.3948 F15000.0
G1 Z11.9000 F8000.0
G1 X105.2721 Y-102.2129 F12000.0
G1 Z0.0000 F8000.0
G0 X100.7949 Y-109.6933 F15000.0
G1 Z11.9000 F8000.0
G1 X101.0222 Y-109.5570 F12000.0
G1 X101.1131 Y-109.1479
G1 Z0.0000 F8000.0
G0 X100.7949 Y-107.6933 F15000.0
G1 Z11.9000 F8000.0
G1 X101.0222 Y-107.5570 F12000.0
G1 X101.1131 Y-107.1479
G1 Z0.0000 F8000.0
G0 X101.0677 Y-109.5570 F15000.0
G1 Z11.9000 F8000.0
G1 X105.2040 Y-108.0570 F12000.0
G1 Z0.0000 F8000.0
G0 X101.0677 Y-107.5570 F15000.0
G1 Z11.9000 F8000.0
G1 X105.2040 Y-106.0570 F12000.0
G1 Z0.0000 F8000.0
G0 X101.5222 Y-108.5115 F15000.0
G1 Z11.9000 F8000.0
G1 X101.8404 Y-108.1479 F12000.0
G1 Z0.0000 F8000.0
G0 X174.9974 Y-11.3877 F15000.0
G1 Z11.9000 F8000.0
G1 X174.9974 Y-11.2514 F12000.0
G1 Z0.0000 F8000.0
G0 X175.0883 Y-13.2059 F15000.0
G1 Z11.9000 F8000.0
G1 X175.1792 Y-13.3423 F12000.0
G1 Z0.0000 F8000.0
G0 X175.1338 Y-11.1150 F15000.0
G1 Z11.9000 F8000.0
G1 X175.9974 Y-11.1150 F12000.0
G1 X175.2702 Y-10.1150
G1 Z0.0000 F8000.0
G0 X175.1338 Y-10.4787 F15000.0
G1 Z11.9000 F8000.0
G1 X175.1338 Y-10.2968 F12000.0
G1 Z0.0000 F8000.0
G0 X175.1792 Y-11.8877 F15000.0
G1 Z11.9000 F8000.0
G1 X175.6338 Y-13.0696 F12000.0
G1 X176.6338 Y-13.3423
G1 X176.8156 Y-13.1150
G1 X176.1792 Y-11.2968
G1 Z0.0000 F8000.0
G0 X175.5429 Y-10.8423 F15000.0
G1 Z11.9000 F8000.0
G1 X175.6338 Y-11.0241 F12000.0
G1 Z0.0000 F8000.0
G0 X176.7247 Y-11.2968 F15000.0
G1 Z11.9000 F8000.0
G1 X177.2702 Y-12.2059 F12000.0
G1 X177.6338 Y-13.4332
G1 Z0.0000 F8000.0
G0 X177.3156 Y-12.2059 F15000.0
G1 Z11.9000 F8000.0
G1 X178.2702 Y-12.1605 F12000.0
G1 X177.8611 Y-11.0241
G1 Z0.0000 F8000.0
G0 X178.1792 Y-10.2059 F15000.0
G1 Z11.9000 F8000.0
G1 X178.5429 Y-10.8877 F12000.0
G1 X179.0429 Y-11.0696
G1 X179.9974 Y-12.1150
G1 Z0.0000 F8000.0
G0 X178.5429 Y-10.7059 F15000.0
G1 Z11.9000 F8000.0
G1 X178.6792 Y-10.7059 F12000.0
G1 Z0.0000 F8000.0
G0 X178.5883 Y-12.7514 F15000.0
G1 Z11.9000 F8000.0
G1 X178.8611 Y-13.3423 F12000.0
G1 Z0.0000 F8000.0
G0 X178.8156 Y-11.6150 F15000.0
G1 Z11.9000 F8000.0
G1 X179.3611 Y-13.2059 F12000.0
G1 Z0.0000 F8000.0
G0 X179.5883 Y-10.0241 F15000.0
G1 Z11.9000 F8000.0
G1 X179.9974 Y-11.0696 F12000.0
G1 Z0.0000 F8000.0
G0 X169.7561 Y-11.3877 F15000.0
G1 Z11.9000 F8000.0
G1 X170.2106 Y-11.5696 F12000.0
G1 X170.3924 Y-11.2059
G1 X169.9833 Y-10.2514
G1 X169.6197 Y-10.1150
G1 X169.3470 Y-10.2514
G1 X169.3924 Y-10.5696
G1 Z0.0000 F8000.0
G0 X169.5288 Y-10.9332 F15000.0
G1 Z11.9000 F8000.0
G1 X169.6652 Y-11.2514 F12000.0
G1 Z0.0000 F8000.0
G0 X170.3470 Y-10.0241 F15000.0
G1 Z11.9000 F8000.0
G1 X170.6197 Y-10.7514 F12000.0
G1 Z0.0000 F8000.0
G0 X170.7561 Y-11.0696 F15000.0
G1 Z11.9000 F8000.0
G1 X171.2106 Y-12.2059 F12000.0
G1 Z0.0000 F8000.0
G0 X171.3470 Y-12.5241 F15000.0
G1 Z11.9000 F8000.0
G1 X171.6652 Y-13.2514 F12000.0
G1 Z0.0000 F8000.0
G0 X171.6197 Y-12.7514 F15000.0
G1 Z11.9000 F8000.0
G1 X171.8924 Y-10.7514 F12000.0
G1 X171.8470 Y-10.0241
G1 Z0.0000 F8000.0
G0 X172.1652 Y-10.8877 F15000.0
G1 Z11.9000 F8000.0
G1 X173.2106 Y-13.4332 F12000.0
G1 Z0.0000 F8000.0
G0 X161.5920 Y-11.1191 F15000.0
G1 Z11.9000 F8000.0
G1 X161.0011 Y-11.1645 F12000.0
G1 X161.6829 Y-13.2100
G1 Z0.0000 F8000.0
G0 X161.1374 Y-13.2554 F15000.0
G1 Z11.9000 F8000.0
G1 X161.2283 Y-13.3918 F12000.0
G1 Z0.0000 F8000.0
G0 X161.7738 Y-11.3463 F15000.0
G1 Z11.9000 F8000.0
G1 X162.9102 Y-13.3009 F12000.0
G1 Z0.0000 F8000.0
G0 X162.2738 Y-10.1191 F15000.0
G1 Z11.9000 F8000.0
G1 X163.4102 Y-10.1645 F12000.0
G1 X163.1374 Y-10.9827
G1 X162.8647 Y-11.4372
G1 X163.0011 Y-11.8009
G1 Z0.0000 F8000.0
G0 X163.1374 Y-12.1645 F15000.0
G1 Z11.9000 F8000.0
G1 X163.5011 Y-13.0736 F12000.0
G1 X164.5011 Y-13.3463
G1 X164.6829 Y-13.1191
G1 X164.4556 Y-12.4372
G1 X163.1374 Y-11.0281
G1 Z0.0000 F8000.0
G0 X164.4556 Y-11.0281 F15000.0
G1 Z11.9000 F8000.0
G1 X165.3193 Y-13.0736 F12000.0
G1 X165.5011 Y-13.3463
G1 X165.7738 Y-14.0736
G1 X166.9556 Y-14.2554
G1 Z0.0000 F8000.0
G0 X165.5465 Y-13.3463 F15000.0
G1 Z11.9000 F8000.0
G1 X166.4556 Y-13.2100 F12000.0
G1 X166.4556 Y-12.8918
G1 X165.7283 Y-11.0281
G1 Z0.0000 F8000.0
G0 X166.2738 Y-10.2100 F15000.0
G1 Z11.9000 F8000.0
G1 X166.9102 Y-12.3009 F12000.0
G1 X167.2283 Y-13.0736
G1 X168.1829 Y-13.3463
G1 X168.3647 Y-12.9827
G1 X168.0465 Y-12.0736
G1 X166.5465 Y-11.0736
G1 Z0.0000 F8000.0
G0 X166.3647 Y-10.1191 F15000.0
G1 Z11.9000 F8000.0
G1 X167.4102 Y-10.0736 F12000.0
G1 Z0.0000 F8000.0
G0 X144.1975 Y-13.2134 F15000.0
G1 Z11.9000 F8000.0
G1 X144.3339 Y-13.3952 F12000.0
G1 Z0.0000 F8000.0
G0 X144.1975 Y-11.5316 F15000.0
G1 Z11.9000 F8000.0
G1 X145.1975 Y-11.1225 F12000.0
G1 X145.2430 Y-11.2134
G1 Z0.0000 F8000.0
G0 X144.4248 Y-12.1679 F15000.0
G1 Z11.9000 F8000.0
G1 X144.7430 Y-13.2134 F12000.0
G1 Z0.0000 F8000.0
G0 X145.3793 Y-11.5316 F15000.0
G1 Z11.9000 F8000.0
G1 X146.1066 Y-13.4406 F12000.0
G1 Z0.0000 F8000.0
G0 X145.6975 Y-10.2134 F15000.0
G1 Z11.9000 F8000.0
G1 X145.7884 Y-10.8952 F12000.0
G1 X146.6066 Y-13.0770
G1 X147.6066 Y-13.3497
G1 X147.7884 Y-13.1225
G1 X147.1066 Y-11.2588
G1 X145.9248 Y-11.0770
G1 Z0.0000 F8000.0
G0 X145.7884 Y-10.1225 F15000.0
G1 Z11.9000 F8000.0
G1 X146.7884 Y-10.0770 F12000.0
G1 Z0.0000 F8000.0
G0 X147.8793 Y-11.5316 F15000.0
G1 Z11.9000 F8000.0
G1 X147.7884 Y-11.3043 F12000.0
G1 X147.8793 Y-11.1225
G1 X148.9248 Y-11.2134
G1 X149.5611 Y-12.8952
G1 X149.4248 Y-13.3497
G1 X148.3793 Y-12.9861
G1 X148.1066 Y-12.1679
G1 Z0.0000 F8000.0
G0 X150.6520 Y-10.1225 F15000.0
G1 Z11.9000 F8000.0
G1 X149.2884 Y-10.1679 F12000.0
G1 X149.4248 Y-10.6679
G1 Z0.0000 F8000.0
G0 X149.5611 Y-11.0316 F15000.0
G1 Z11.9000 F8000.0
G1 X150.4248 Y-13.2588 F12000.0
G1 Z0.0000 F8000.0
G0 X150.7430 Y-10.2134 F15000.0
G1 Z11.9000 F8000.0
G1 X151.5611 Y-12.3043 F12000.0
G1 Z0.0000 F8000.0
G0 X151.6975 Y-12.6225 F15000.0
G1 Z11.9000 F8000.0
G1 X151.9702 Y-13.4406 F12000.0
G1 Z0.0000 F8000.0
G0 X131.8039 Y-11.1679 F15000.0
G1 Z11.9000 F8000.0
G1 X130.7130 Y-11.1225 F12000.0
G1 X131.1675 Y-12.6679
G1 Z0.0000 F8000.0
G0 X131.3494 Y-13.1679 F15000.0
G1 Z11.9000 F8000.0
G1 X131.6675 Y-13.2588 F12000.0
G1 X132.4403 Y-13.3043
G1 Z0.0000 F8000.0
G0 X132.2585 Y-12.1225 F15000.0
G1 Z11.9000 F8000.0
G1 X132.5766 Y-13.1225 F12000.0
G1 X132.5312 Y-13.2134
G1 Z0.0000 F8000.0
G0 X133.3948 Y-13.4406 F15000.0
G1 Z11.9000 F8000.0
G1 X132.6675 Y-11.2588 F12000.0
G1 X133.5312 Y-11.1225
G1 X134.3948 Y-13.4406
G1 Z0.0000 F8000.0
G0 X133.6221 Y-11.1225 F15000.0
G1 Z11.9000 F8000.0
G1 X134.5312 Y-11.3043 F12000.0
G1 Z0.0000 F8000.0
G0 X134.6675 Y-11.6225 F15000.0
G1 Z11.9000 F8000.0
G1 X135.3948 Y-13.4406 F12000.0
G1 Z0.0000 F8000.0
G0 X136.9857 Y-13.2134 F15000.0
G1 Z11.9000 F8000.0
G1 X137.0312 Y-13.1225 F12000.0
G1 X136.3039 Y-11.2134
G1 X135.1221 Y-11.1225
G1 X135.7585 Y-13.1225
G1 X136.1221 Y-13.2588
G1 X136.8948 Y-13.3043
G1 Z0.0000 F8000.0
G0 X136.8039 Y-10.2134 F15000.0
G1 Z11.9000 F8000.0
G1 X136.8948 Y-10.8952 F12000.0
G1 X137.7130 Y-13.0770
G1 X138.7130 Y-13.3497
G1 X138.8948 Y-13.1225
G1 X138.2130 Y-11.2588
G1 X137.0312 Y-11.0770
G1 Z0.0000 F8000.0
G0 X136.8948 Y-10.1225 F15000.0
G1 Z11.9000 F8000.0
G1 X137.8948 Y-10.0770 F12000.0
G1 Z0.0000 F8000.0
G0 X69.8359 Y-13.2195 F15000.0
G1 Z11.9000 F8000.0
G1 X69.9722 Y-13.4013 F12000.0
G1 Z0.0000 F8000.0
G0 X69.8813 Y-10.3104 F15000.0
G1 Z11.9000 F8000.0
G1 X70.3813 Y-11.0377 F12000.0
G1 X69.8359 Y-11.1286
G1 X69.7449 Y-11.4013
G1 X70.3813 Y-13.0831
G1 X71.4268 Y-13.3104
G1 X71.5631 Y-13.0377
G1 X70.9268 Y-11.3104
G1 Z0.0000 F8000.0
G0 X69.9722 Y-10.1286 F15000.0
G1 Z11.9000 F8000.0
G1 X70.7904 Y-11.0377 F12000.0
G1 X70.4268 Y-11.0377
G1 Z0.0000 F8000.0
G0 X71.9268 Y-12.4468 F15000.0
G1 Z11.9000 F8000.0
G1 X72.1995 Y-13.1740 F12000.0
G1 X72.6995 Y-13.3104
G1 X73.4268 Y-13.0377
G1 X72.6995 Y-11.2195
G1 X71.5177 Y-11.1286
G1 X71.7449 Y-11.9468
G1 Z0.0000 F8000.0
G0 X73.4722 Y-11.4013 F15000.0
G1 Z11.9000 F8000.0
G1 X73.5177 Y-11.1286 F12000.0
G1 X74.5631 Y-11.1286
G1 X75.3359 Y-13.3104
G1 X75.8359 Y-14.3104
G1 Z0.0000 F8000.0
G0 X73.6540 Y-11.9013 F15000.0
G1 Z11.9000 F8000.0
G1 X73.9268 Y-12.7650 F12000.0
G1 Z0.0000 F8000.0
G0 X74.2449 Y-13.2195 F15000.0
G1 Z11.9000 F8000.0
G1 X75.2904 Y-13.3559 F12000.0
G1 Z0.0000 F8000.0
G0 X75.8359 Y-12.8104 F15000.0
G1 Z11.9000 F8000.0
G1 X75.3813 Y-11.1740 F12000.0
G1 X76.4722 Y-11.3104
G1 Z0.0000 F8000.0
G0 X75.9722 Y-13.1740 F15000.0
G1 Z11.9000 F8000.0
G1 X76.0631 Y-13.2650 F12000.0
G1 Z0.0000 F8000.0
G0 X76.5631 Y-10.1286 F15000.0
G1 Z11.9000 F8000.0
G1 X77.8359 Y-10.3104 F12000.0
G1 Z0.0000 F8000.0
G0 X76.6086 Y-11.6286 F15000.0
G1 Z11.9000 F8000.0
G1 X77.3359 Y-13.4468 F12000.0
G1 Z0.0000 F8000.0
G0 X77.7904 Y-13.3559 F15000.0
G1 Z11.9000 F8000.0
G1 X78.6995 Y-13.2650 F12000.0
G1 X78.8813 Y-12.9013
G1 X78.4722 Y-11.6740
G1 X77.9268 Y-10.4013
G1 Z0.0000 F8000.0
G0 X64.5036 Y-11.3877 F15000.0
G1 Z11.9000 F8000.0
G1 X64.9581 Y-11.5696 F12000.0
G1 X65.1399 Y-11.2059
G1 X64.7308 Y-10.2514
G1 X64.3672 Y-10.1150
G1 X64.0945 Y-10.2514
G1 X64.1399 Y-10.5696
G1 Z0.0000 F8000.0
G0 X64.2763 Y-10.9332 F15000.0
G1 Z11.9000 F8000.0
G1 X64.4127 Y-11.2514 F12000.0
G1 Z0.0000 F8000.0
G0 X65.0945 Y-10.0241 F15000.0
G1 Z11.9000 F8000.0
G1 X65.3672 Y-10.7514 F12000.0
G1 Z0.0000 F8000.0
G0 X65.5036 Y-11.0696 F15000.0
G1 Z11.9000 F8000.0
G1 X65.9581 Y-12.2059 F12000.0
G1 Z0.0000 F8000.0
G0 X66.0945 Y-12.5241 F15000.0
G1 Z11.9000 F8000.0
G1 X66.4127 Y-13.2514 F12000.0
G1 Z0.0000 F8000.0
G0 X66.3672 Y-12.7514 F15000.0
G1 Z11.9000 F8000.0
G1 X66.6399 Y-10.7514 F12000.0
G1 X66.5945 Y-10.0241
G1 Z0.0000 F8000.0
G0 X66.9127 Y-10.8877 F15000.0
G1 Z11.9000 F8000.0
G1 X67.9581 Y-13.4332 F12000.0
G1 Z0.0000 F8000.0
G0 X14.3385 Y-13.2195 F15000.0
G1 Z11.9000 F8000.0
G1 X14.4749 Y-13.4013 F12000.0
G1 Z0.0000 F8000.0
G0 X14.3840 Y-10.3104 F15000.0
G1 Z11.9000 F8000.0
G1 X14.8840 Y-11.0377 F12000.0
G1 X14.3385 Y-11.1286
G1 X14.2476 Y-11.4013
G1 X14.8840 Y-13.0831
G1 X15.9295 Y-13.3104
G1 X16.0658 Y-13.0377
G1 X15.4295 Y-11.3104
G1 Z0.0000 F8000.0
G0 X14.4749 Y-10.1286 F15000.0
G1 Z11.9000 F8000.0
G1 X15.2931 Y-11.0377 F12000.0
G1 X14.9295 Y-11.0377
G1 Z0.0000 F8000.0
G0 X17.9749 Y-13.3559 F15000.0
G1 Z11.9000 F8000.0
G1 X16.7476 Y-13.0831 F12000.0
G1 X16.1113 Y-11.2195
G1 X17.2022 Y-11.1286
G1 X18.4749 Y-14.3104
G1 Z0.0000 F8000.0
G0 X19.4295 Y-12.2195 F15000.0
G1 Z11.9000 F8000.0
G1 X18.2476 Y-12.1740 F12000.0
G1 X17.9749 Y-11.4013
G1 X18.0204 Y-11.1286
G1 X19.0658 Y-11.2195
G1 X19.7476 Y-13.0831
G1 X18.6113 Y-13.3559
G1 Z0.0000 F8000.0
G0 X20.7931 Y-10.1286 F15000.0
G1 Z11.9000 F8000.0
G1 X19.4295 Y-10.1740 F12000.0
G1 X19.5658 Y-10.6740
G1 Z0.0000 F8000.0
G0 X19.7022 Y-11.0377 F15000.0
G1 Z11.9000 F8000.0
G1 X20.5658 Y-13.2650 F12000.0
G1 Z0.0000 F8000.0
G0 X20.8840 Y-10.2195 F15000.0
G1 Z11.9000 F8000.0
G1 X21.7022 Y-12.3104 F12000.0
G1 Z0.0000 F8000.0
G0 X21.8385 Y-12.6286 F15000.0
G1 Z11.9000 F8000.0
G1 X22.1113 Y-13.4468 F12000.0
G1 Z0.0000 F8000.0
G0 X0.7567 Y-11.2195 F15000.0
G1 Z11.9000 F8000.0
G1 X1.5749 Y-13.0377 F12000.0
G1 X1.6658 Y-13.4013
G1 Z0.0000 F8000.0
G0 X1.0294 Y-13.2650 F15000.0
G1 Z11.9000 F8000.0
G1 X1.1203 Y-13.4013 F12000.0
G1 Z0.0000 F8000.0
G0 X1.3476 Y-12.2195 F15000.0
G1 Z11.9000 F8000.0
G1 X2.2567 Y-12.2195 F12000.0
G1 X1.8931 Y-11.0377
G1 Z0.0000 F8000.0
G0 X2.4385 Y-12.3559 F15000.0
G1 Z11.9000 F8000.0
G1 X2.9385 Y-13.3559 F12000.0
G1 Z0.0000 F8000.0
G0 X4.2112 Y-12.2195 F15000.0
G1 Z11.9000 F8000.0
G1 X3.0294 Y-12.1740 F12000.0
G1 X2.8022 Y-11.4468
G1 X2.8476 Y-11.1286
G1 X3.8476 Y-11.2195
G1 X4.5294 Y-13.1740
G1 X3.3476 Y-13.3559
G1 Z0.0000 F8000.0
G0 X4.4840 Y-11.1740 F15000.0
G1 Z11.9000 F8000.0
G1 X4.7112 Y-11.4922 F12000.0
G1 X5.1203 Y-12.7195
G1 X5.3931 Y-13.2650
G1 Z0.0000 F8000.0
G0 X4.7567 Y-11.5377 F15000.0
G1 Z11.9000 F8000.0
G1 X4.9840 Y-11.5831 F12000.0
G1 X5.7112 Y-12.0377
G1 X5.8931 Y-11.4922
G1 X6.0749 Y-11.5377
G1 X6.2112 Y-11.8559
G1 Z0.0000 F8000.0
G0 X5.8931 Y-11.4013 F15000.0
G1 Z11.9000 F8000.0
G1 X5.8931 Y-11.0377 F12000.0
G1 Z0.0000 F8000.0
G0 X6.3476 Y-12.1286 F15000.0
G1 Z11.9000 F8000.0
G1 X6.3931 Y-12.2650 F12000.0
G1 Z0.0000 F8000.0
G0 X6.4840 Y-11.0377 F15000.0
G1 Z11.9000 F8000.0
G1 X7.3476 Y-13.0831 F12000.0
G1 Z0.0000 F8000.0
G0 X6.5294 Y-12.5377 F15000.0
G1 Z11.9000 F8000.0
G1 X6.8931 Y-13.4468 F12000.0
G1 Z0.0000 F8000.0
G0 X7.4840 Y-13.2650 F15000.0
G1 Z11.9000 F8000.0
G1 X8.4385 Y-13.2650 F12000.0
G1 X8.5294 Y-13.1740
G1 X7.7567 Y-11.0377
G1 Z0.0000 F8000.0
G0 X8.6658 Y-11.1286 F15000.0
G1 Z11.9000 F8000.0
G1 X8.8022 Y-11.9013 F12000.0
G1 X9.2567 Y-13.0831
G1 X10.4385 Y-13.3559
G1 X10.4385 Y-13.0377
G1 X9.7567 Y-11.1740
G1 X8.7567 Y-11.0831
G1 Z0.0000 F8000.0
G0 X10.6203 Y-13.5377 F15000.0
G1 Z11.9000 F8000.0
G1 X10.9840 Y-14.3104 F12000.0
G1 Z0.0000 F8000.0
G0 X10.9840 Y-12.8104 F15000.0
G1 Z11.9000 F8000.0
G1 X10.5294 Y-11.1740 F12000.0
G1 X11.6203 Y-11.3104
G1 Z0.0000 F8000.0
G0 X11.1203 Y-13.1740 F15000.0
G1 Z11.9000 F8000.0
G1 X11.2112 Y-13.2650 F12000.0
G1 Z0.0000 F8000.0
G0 X11.7567 Y-11.6286 F15000.0
G1 Z11.9000 F8000.0
G1 X12.4840 Y-13.4468 F12000.0
G1 Z0.0000 F8000.0
G0 X144.1040 Y-6.4091 F15000.0
G1 Z11.9000 F8000.0
G1 X143.8767 Y-6.0910 F12000.0
G1 X142.8313 Y-6.0455
G1 X143.5131 Y-8.0910
G1 Z0.0000 F8000.0
G0 X143.2858 Y-7.1819 F15000.0
G1 Z11.9000 F8000.0
G1 X143.9676 Y-7.1819 F12000.0
G1 X144.5131 Y-7.9091
G1 Z0.0000 F8000.0
G0 X143.9676 Y-7.1819 F15000.0
G1 Z11.9000 F8000.0
G1 X144.2404 Y-6.7728 F12000.0
G1 Z0.0000 F8000.0
G0 X144.6949 Y-6.9546 F15000.0
G1 Z11.9000 F8000.0
G1 X144.7404 Y-7.0910 F12000.0
G1 Z0.0000 F8000.0
G0 X144.9222 Y-7.5910 F15000.0
G1 Z11.9000 F8000.0
G1 X145.1040 Y-8.0910 F12000.0
G1 Z0.0000 F8000.0
G0 X145.2404 Y-8.2273 F15000.0
G1 Z11.9000 F8000.0
G1 X146.1040 Y-8.1819 F12000.0
G1 X146.1949 Y-8.0000
G1 X145.9676 Y-7.2728
G1 Z0.0000 F8000.0
G0 X145.6040 Y-6.2273 F15000.0
G1 Z11.9000 F8000.0
G1 X145.8313 Y-6.9091 F12000.0
G1 Z0.0000 F8000.0
G0 X146.6949 Y-8.2273 F15000.0
G1 Z11.9000 F8000.0
G1 X147.6040 Y-8.2273 F12000.0
G1 Z0.0000 F8000.0
G0 X147.2404 Y-6.3637 F15000.0
G1 Z11.9000 F8000.0
G1 X147.5585 Y-7.3637 F12000.0
G1 Z0.0000 F8000.0
G0 X147.6949 Y-8.1364 F15000.0
G1 Z11.9000 F8000.0
G1 X147.6949 Y-7.7273 F12000.0
G1 Z0.0000 F8000.0
G0 X148.3313 Y-8.2273 F15000.0
G1 Z11.9000 F8000.0
G1 X149.2404 Y-8.1819 F12000.0
G1 X149.3313 Y-8.0000
G1 X148.7858 Y-6.3637
G1 Z0.0000 F8000.0
G0 X149.5131 Y-7.3637 F15000.0
G1 Z11.9000 F8000.0
G1 X149.1949 Y-6.1364 F12000.0
G1 X149.9222 Y-6.0000
G1 X150.2404 Y-6.1364
G1 X150.9222 Y-8.0455
G1 X150.8313 Y-8.1819
G1 X150.1040 Y-8.2273
G1 Z0.0000 F8000.0
G0 X149.6495 Y-7.7273 F15000.0
G1 Z11.9000 F8000.0
G1 X149.7404 Y-7.9091 F12000.0
G1 Z0.0000 F8000.0
G0 X152.3313 Y-6.8182 F15000.0
G1 Z11.9000 F8000.0
G1 X152.5131 Y-7.3637 F12000.0
G1 Z0.0000 F8000.0
G0 X152.6495 Y-7.7273 F15000.0
G1 Z11.9000 F8000.0
G1 X152.8313 Y-8.2273 F12000.0
G1 Z0.0000 F8000.0
G0 X137.3250 Y-6.2728 F15000.0
G1 Z11.9000 F8000.0
G1 X137.5522 Y-7.1364 F12000.0
G1 X136.4613 Y-7.0910
G1 X136.1886 Y-6.1364
G1 X136.9159 Y-6.0000
G1 X137.1431 Y-6.0910
G1 Z0.0000 F8000.0
G0 X136.8250 Y-8.2273 F15000.0
G1 Z11.9000 F8000.0
G1 X137.7341 Y-8.2273 F12000.0
G1 Z0.0000 F8000.0
G0 X137.5977 Y-7.1364 F15000.0
G1 Z11.9000 F8000.0
G1 X137.7341 Y-7.5000 F12000.0
G1 X137.8250 Y-8.1364
G1 Z0.0000 F8000.0
G0 X138.4613 Y-8.2273 F15000.0
G1 Z11.9000 F8000.0
G1 X139.4159 Y-7.8637 F12000.0
G1 X139.3704 Y-7.7273
G1 Z0.0000 F8000.0
G0 X138.9159 Y-6.3637 F15000.0
G1 Z11.9000 F8000.0
G1 X139.2341 Y-7.3637 F12000.0
G1 Z0.0000 F8000.0
G0 X139.8704 Y-7.8637 F15000.0
G1 Z11.9000 F8000.0
G1 X139.5522 Y-7.0455 F12000.0
G1 X139.7795 Y-6.5455
G1 X140.7341 Y-6.4546
G1 X140.6431 Y-6.0455
G1 X140.1886 Y-5.0000
G1 X139.1431 Y-5.3637
G1 X139.2341 Y-5.8182
G1 X139.4159 Y-6.1364
G1 Z0.0000 F8000.0
G0 X140.2795 Y-8.1819 F15000.0
G1 Z11.9000 F8000.0
G1 X141.3250 Y-8.2728 F12000.0
G1 X140.8704 Y-6.6819
G1 X140.7341 Y-6.5000
G1 Z0.0000 F8000.0
G0 X127.6888 Y-7.9163 F15000.0
G1 Z11.9000 F8000.0
G1 X127.7797 Y-8.0981 F12000.0
G1 X128.2342 Y-8.2345
G1 X128.9160 Y-7.9618
G1 X128.2342 Y-6.1436
G1 X127.0978 Y-6.0527
G1 X127.5069 Y-7.4163
G1 Z0.0000 F8000.0
G0 X129.0524 Y-7.3709 F15000.0
G1 Z11.9000 F8000.0
G1 X128.7342 Y-6.1436 F12000.0
G1 X129.3706 Y-5.9618
G1 Z0.0000 F8000.0
G0 X129.1888 Y-7.7345 F15000.0
G1 Z11.9000 F8000.0
G1 X129.2797 Y-7.9163 F12000.0
G1 Z0.0000 F8000.0
G0 X129.4615 Y-8.1436 F15000.0
G1 Z11.9000 F8000.0
G1 X129.6888 Y-8.1890 F12000.0
G1 X130.4615 Y-7.9618
G1 X129.8251 Y-6.1436
G1 Z0.0000 F8000.0
G0 X130.8251 Y-7.9163 F15000.0
G1 Z11.9000 F8000.0
G1 X130.9160 Y-8.0981 F12000.0
G1 X131.3706 Y-8.2345
G1 X132.0524 Y-7.9618
G1 X131.3706 Y-6.1436
G1 X130.2342 Y-6.0527
G1 X130.6433 Y-7.4163
G1 Z0.0000 F8000.0
G0 X132.0524 Y-6.9163 F15000.0
G1 Z11.9000 F8000.0
G1 X131.8706 Y-6.1436 F12000.0
G1 X132.9160 Y-6.0527
G1 X133.6888 Y-8.2345
G1 X132.5069 Y-8.0527
G1 X132.0978 Y-7.0072
G1 Z0.0000 F8000.0
G0 X133.8251 Y-7.4163 F15000.0
G1 Z11.9000 F8000.0
G1 X133.5069 Y-6.0981 F12000.0
G1 X134.6888 Y-6.6436
G1 Z0.0000 F8000.0
G0 X133.8706 Y-8.7345 F15000.0
G1 Z11.9000 F8000.0
G1 X134.0524 Y-9.2345 F12000.0
G1 Z0.0000 F8000.0
G0 X134.0524 Y-8.0981 F15000.0
G1 Z11.9000 F8000.0
G1 X134.0978 Y-8.2345 F12000.0
G1 Z0.0000 F8000.0
G0 X134.7797 Y-6.8709 F15000.0
G1 Z11.9000 F8000.0
G1 X134.8251 Y-7.0072 F12000.0
G1 Z0.0000 F8000.0
G0 X134.9615 Y-7.3709 F15000.0
G1 Z11.9000 F8000.0
G1 X135.2797 Y-8.2345 F12000.0
G1 Z0.0000 F8000.0
G0 X155.3902 Y-80.2808 F15000.0
G1 Z11.9000 F8000.0
G1 X155.3902 Y-100.2621 F12000.0
G1 Z0.0000 F8000.0
G0 X111.4482 Y-150.2154 F15000.0
G1 Z11.9000 F8000.0
G1 X111.4482 Y-170.2813 F12000.0
G1 Z0.0000 F8000.0
G0 X155.3902 Y-80.2808 F15000.0
G1 Z11.9000 F8000.0
G1 X111.4482 Y-80.2808 F12000.0
G1 Z0.0000 F8000.0
G0 X155.3902 Y-150.2154 F15000.0
G1 Z11.9000 F8000.0
G1 X111.4482 Y-150.2154 F12000.0
G1 Z0.0000 F8000.0
G0 X111.4482 Y-80.2808 F15000.0
G1 Z11.9000 F8000.0
G1 X111.4482 Y-100.2621 F12000.0
G1 Z0.0000 F8000.0
G0 X155.3902 Y-150.2154 F15000.0
G1 Z11.9000 F8000.0
G1 X155.3902 Y-170.2813 F12000.0
G1 Z0.0000 F8000.0
G0 X111.4482 Y-100.2621 F15000.0
G1 Z11.9000 F8000.0
G1 X111.4482 Y-150.2154 F12000.0
G1 Z0.0000 F8000.0
G0 X155.3902 Y-100.2621 F15000.0
G1 Z11.9000 F8000.0
G1 X155.3902 Y-150.2154 F12000.0
G1 Z0.0000 F8000.0
G0 X155.3902 Y-170.2813 F15000.0
G1 Z11.9000 F8000.0
G1 X111.4482 Y-170.2813 F12000.0
G1 Z0.0000 F8000.0
G0 X155.3902 Y-100.2621 F15000.0
G1 Z11.9000 F8000.0
G1 X111.4482 Y-100.2621 F12000.0
G1 Z0.0000 F8000.0
G0 X144.3835 Y-114.2321 F15000.0
G1 Z11.9000 F8000.0
G1 X144.3835 Y-136.2454 F12000.0
G1 Z0.0000 F8000.0
G0 X122.3702 Y-114.2321 F15000.0
G1 Z11.9000 F8000.0
G1 X144.3835 Y-114.2321 F12000.0
G1 Z0.0000 F8000.0
G0 X144.3835 Y-136.2454 F15000.0
G1 Z11.9000 F8000.0
G1 X122.3702 Y-136.2454 F12000.0
G1 X122.3702 Y-114.2321 F12000.0
G1 Z0.0000 F8000.0
G0 X133.3768 Y-130.7421 F15000.0
G1 Z11.9000 F8000.0
G1 X132.0222 Y-130.5728 F12000.0
G1 X130.7522 Y-130.0648 F12000.0
G1 X129.6515 Y-129.3028 F12000.0
G1 X128.8049 Y-128.2021 F12000.0
G1 X128.2122 Y-127.0168 F12000.0
G1 X127.9582 Y-125.6621 F12000.0
G1 X127.9582 Y-124.3075 F12000.0
G1 X128.3815 Y-123.0375 F12000.0
G1 X129.0589 Y-121.8521 F12000.0
G1 X130.0749 Y-120.9208 F12000.0
G1 X131.1755 Y-120.1588 F12000.0
G1 X132.5302 Y-119.8201 F12000.0
G1 X133.8848 Y-119.7355 F12000.0
G1 X135.2395 Y-120.0741 F12000.0
G1 X136.4248 Y-120.6668 F12000.0
G1 X137.4408 Y-121.5135 F12000.0
G1 X138.2875 Y-122.6141 F12000.0
G1 X138.7108 Y-123.8841 F12000.0
G1 X138.8802 Y-125.2388 F12000.0
G1 X138.7108 Y-126.5934 F12000.0
G1 X138.2028 Y-127.8634 F12000.0
G1 X137.4408 Y-128.9641 F12000.0
G1 X136.4248 Y-129.8954 F12000.0
G1 X135.1548 Y-130.4881 F12000.0
G1 X133.8002 Y-130.7421 F12000.0
G1 X133.3768 Y-130.7421 F12000.0
G1 Z0.0000 F8000.0
G0 X51.4197 Y-80.2808 F15000.0
G1 Z11.9000 F8000.0
G1 X51.4197 Y-100.2621 F12000.0
G1 Z0.0000 F8000.0
G0 X36.4337 Y-150.2154 F15000.0
G1 Z11.9000 F8000.0
G1 X51.4197 Y-150.2154 F12000.0
G1 Z0.0000 F8000.0
G0 X51.4197 Y-100.2621 F15000.0
G1 Z11.9000 F8000.0
G1 X36.4337 Y-100.2621 F12000.0
G1 Z0.0000 F8000.0
G0 X61.4103 Y-170.2813 F15000.0
G1 Z11.9000 F8000.0
G1 X61.4103 Y-80.2808 F12000.0
G1 Z0.0000 F8000.0
G0 X51.4197 Y-150.2154 F15000.0
G1 Z11.9000 F8000.0
G1 X51.4197 Y-170.2813 F12000.0
G1 X61.4103 Y-170.2813 F12000.0
G1 Z0.0000 F8000.0
G0 X61.4103 Y-80.2808 F15000.0
G1 Z11.9000 F8000.0
G1 X51.4197 Y-80.2808 F12000.0
G1 Z0.0000 F8000.0
G0 X36.4337 Y-100.2621 F15000.0
G1 Z11.9000 F8000.0
G1 X36.4337 Y-125.2388 F12000.0
G1 Z0.0000 F8000.0
G0 X31.4384 Y-114.2321 F15000.0
G1 Z11.9000 F8000.0
G1 X31.4384 Y-136.2454 F12000.0
G1 Z0.0000 F8000.0
G0 X36.4337 Y-114.2321 F15000.0
G1 Z11.9000 F8000.0
G1 X31.4384 Y-114.2321 F12000.0
G1 Z0.0000 F8000.0
G0 X36.4337 Y-136.2454 F15000.0
G1 Z11.9000 F8000.0
G1 X31.4384 Y-136.2454 F12000.0
G1 Z0.0000 F8000.0
G0 X61.4103 Y-130.7421 F15000.0
G1 Z11.9000 F8000.0
G1 X31.4384 Y-130.7421 F12000.0
G1 Z0.0000 F8000.0
G0 X45.5777 Y-125.2388 F15000.0
G1 Z11.9000 F8000.0
G1 X47.2710 Y-125.2388 F12000.0
G1 Z0.0000 F8000.0
G0 X48.7950 Y-125.2388 F15000.0
G1 Z11.9000 F8000.0
G1 X63.4422 Y-125.2388 F12000.0
G1 Z0.0000 F8000.0
G0 X133.3768 Y-78.2488 F15000.0
G1 Z11.9000 F8000.0
G1 X133.3768 Y-93.4041 F12000.0
G1 Z0.0000 F8000.0
G0 X133.3768 Y-94.8435 F15000.0
G1 Z11.9000 F8000.0
G1 X133.3768 Y-96.4521 F12000.0
G1 Z0.0000 F8000.0
G0 X133.3768 Y-97.9761 F15000.0
G1 Z11.9000 F8000.0
G1 X133.3768 Y-113.1315 F12000.0
G1 Z0.0000 F8000.0
G0 X133.3768 Y-114.5708 F15000.0
G1 Z11.9000 F8000.0
G1 X133.3768 Y-116.1795 F12000.0
G1 Z0.0000 F8000.0
G0 X133.3768 Y-117.7035 F15000.0
G1 Z11.9000 F8000.0
G1 X133.3768 Y-132.7741 F12000.0
G1 Z0.0000 F8000.0
G0 X133.3768 Y-134.2981 F15000.0
G1 Z11.9000 F8000.0
G1 X133.3768 Y-135.9068 F12000.0
G1 Z0.0000 F8000.0
G0 X133.3768 Y-137.3461 F15000.0
G1 Z11.9000 F8000.0
G1 X133.3768 Y-152.5014 F12000.0
G1 Z0.0000 F8000.0
G0 X133.3768 Y-154.0254 F15000.0
G1 Z11.9000 F8000.0
G1 X133.3768 Y-155.6341 F12000.0
G1 Z0.0000 F8000.0
G0 X133.3768 Y-157.0734 F15000.0
G1 Z11.9000 F8000.0
G1 X133.3768 Y-172.2286 F12000.0
G1 Z0.0000 F8000.0
G0 X109.4162 Y-125.2388 F15000.0
G1 Z11.9000 F8000.0
G1 X117.8829 Y-125.2388 F12000.0
G1 Z0.0000 F8000.0
G0 X119.4069 Y-125.2388 F15000.0
G1 Z11.9000 F8000.0
G1 X121.1002 Y-125.2388 F12000.0
G1 Z0.0000 F8000.0
G0 X122.5395 Y-125.2388 F15000.0
G1 Z11.9000 F8000.0
G1 X131.0909 Y-125.2388 F12000.0
G1 Z0.0000 F8000.0
G0 X132.6149 Y-125.2388 F15000.0
G1 Z11.9000 F8000.0
G1 X134.2235 Y-125.2388 F12000.0
G1 Z0.0000 F8000.0
G0 X135.7475 Y-125.2388 F15000.0
G1 Z11.9000 F8000.0
G1 X144.2142 Y-125.2388 F12000.0
G1 Z0.0000 F8000.0
G0 X145.7382 Y-125.2388 F15000.0
G1 Z11.9000 F8000.0
G1 X147.4315 Y-125.2388 F12000.0
G1 Z0.0000 F8000.0
G0 X148.9555 Y-125.2388 F15000.0
G1 Z11.9000 F8000.0
G1 X157.4222 Y-125.2388 F12000.0
G1 Z0.0000 F8000.0
G0 X61.4103 Y-220.2346 F15000.0
G1 Z11.9000 F8000.0
G1 X61.4103 Y-242.2479 F12000.0
G1 Z0.0000 F8000.0
G0 X61.4103 Y-220.2346 F15000.0
G1 Z11.9000 F8000.0
G1 X36.4337 Y-220.2346 F12000.0
G1 Z0.0000 F8000.0
G0 X36.4337 Y-242.2479 F15000.0
G1 Z11.9000 F8000.0
G1 X36.4337 Y-220.2346 F12000.0
G1 Z0.0000 F8000.0
G0 X36.4337 Y-231.2412 F15000.0
G1 Z11.9000 F8000.0
G1 X31.4384 Y-231.2412 F12000.0
G1 X31.4384 Y-242.2479 F12000.0
G1 Z0.0000 F8000.0
G0 X51.4197 Y-220.2346 F15000.0
G1 Z11.9000 F8000.0
G1 X51.4197 Y-242.2479 F12000.0
G1 Z0.0000 F8000.0
G0 X28.9830 Y-242.2479 F15000.0
G1 Z11.9000 F8000.0
G1 X37.5344 Y-242.2479 F12000.0
G1 Z0.0000 F8000.0
G0 X39.0584 Y-242.2479 F15000.0
G1 Z11.9000 F8000.0
G1 X40.5824 Y-242.2479 F12000.0
G1 Z0.0000 F8000.0
G0 X42.0217 Y-242.2479 F15000.0
G1 Z11.9000 F8000.0
G1 X50.5730 Y-242.2479 F12000.0
G1 Z0.0000 F8000.0
G0 X52.0970 Y-242.2479 F15000.0
G1 Z11.9000 F8000.0
G1 X53.6209 Y-242.2479 F12000.0
G1 Z0.0000 F8000.0
G0 X55.1449 Y-242.2479 F15000.0
G1 Z11.9000 F8000.0
G1 X63.6962 Y-242.2479 F12000.0
G1 Z0.0000 F8000.0
G0 X61.4103 Y-264.2612 F15000.0
G1 Z11.9000 F8000.0
G1 X61.4103 Y-242.2479 F12000.0
G1 Z0.0000 F8000.0
G0 X61.4103 Y-264.2612 F15000.0
G1 Z11.9000 F8000.0
G1 X36.4337 Y-264.2612 F12000.0
G1 Z0.0000 F8000.0
G0 X36.4337 Y-242.2479 F15000.0
G1 Z11.9000 F8000.0
G1 X36.4337 Y-264.2612 F12000.0
G1 Z0.0000 F8000.0
G0 X36.4337 Y-253.2546 F15000.0
G1 Z11.9000 F8000.0
G1 X31.4384 Y-253.2546 F12000.0
G1 X31.4384 Y-242.2479 F12000.0
G1 Z0.0000 F8000.0
G0 X51.4197 Y-264.2612 F15000.0
G1 Z11.9000 F8000.0
G1 X51.4197 Y-242.2479 F12000.0
G1 Z0.0000 F8000.0
G0 X36.4337 Y-136.2454 F15000.0
G1 Z11.9000 F8000.0
G1 X36.4337 Y-150.2154 F12000.0
G1 Z0.0000 F8000.0
G0 X143.5531 Y-285.0000 F15000.0
G1 Z11.9000 F8000.0
G1 X148.5322 Y-276.3684 F12000.0
G1 X153.5249 Y-285.0000 F12000.0
G1 Z0.0000 F8000.0
G0 X158.5227 Y-276.3684 F15000.0
G1 Z11.9000 F8000.0
G1 X148.5322 Y-276.3684 F12000.0
G1 Z0.0000 F8000.0
G0 X163.5061 Y-285.0000 F15000.0
G1 Z11.9000 F8000.0
G1 X158.5227 Y-276.3684 F12000.0
G1 Z0.0000 F8000.0
G0 X58.1929 Y-130.7421 F15000.0
G1 Z11.9000 F8000.0
G1 X61.4103 Y-133.9594 F12000.0
G1 Z0.0000 F8000.0
G0 X53.9596 Y-130.7421 F15000.0
G1 Z11.9000 F8000.0
G1 X61.4103 Y-138.1928 F12000.0
G1 Z0.0000 F8000.0
G0 X49.7264 Y-130.7421 F15000.0
G1 Z11.9000 F8000.0
G1 X61.4103 Y-142.4261 F12000.0
G1 Z0.0000 F8000.0
G0 X45.4930 Y-130.7421 F15000.0
G1 Z11.9000 F8000.0
G1 X61.4103 Y-146.6594 F12000.0
G1 Z0.0000 F8000.0
G0 X41.1750 Y-130.7421 F15000.0
G1 Z11.9000 F8000.0
G1 X61.4103 Y-150.9774 F12000.0
G1 Z0.0000 F8000.0
G0 X36.9417 Y-130.7421 F15000.0
G1 Z11.9000 F8000.0
G1 X61.4103 Y-155.2108 F12000.0
G1 Z0.0000 F8000.0
G0 X32.7084 Y-130.7421 F15000.0
G1 Z11.9000 F8000.0
G1 X61.4103 Y-159.4441 F12000.0
G1 Z0.0000 F8000.0
G0 X51.4197 Y-153.6868 F15000.0
G1 Z11.9000 F8000.0
G1 X61.4103 Y-163.6773 F12000.0
G1 Z0.0000 F8000.0
G0 X36.4337 Y-138.7008 F15000.0
G1 Z11.9000 F8000.0
G1 X47.9484 Y-150.2154 F12000.0
G1 Z0.0000 F8000.0
G0 X31.4384 Y-133.7054 F15000.0
G1 Z11.9000 F8000.0
G1 X33.9784 Y-136.2454 F12000.0
G1 Z0.0000 F8000.0
G0 X36.4337 Y-142.9341 F15000.0
G1 Z11.9000 F8000.0
G1 X43.7150 Y-150.2154 F12000.0
G1 Z0.0000 F8000.0
G0 X51.4197 Y-157.9201 F15000.0
G1 Z11.9000 F8000.0
G1 X61.4103 Y-167.9106 F12000.0
G1 Z0.0000 F8000.0
G0 X51.4197 Y-162.1534 F15000.0
G1 Z11.9000 F8000.0
G1 X59.4629 Y-170.2813 F12000.0
G1 Z0.0000 F8000.0
G0 X36.4337 Y-147.1674 F15000.0
G1 Z11.9000 F8000.0
G1 X39.4817 Y-150.2154 F12000.0
G1 Z0.0000 F8000.0
G0 X51.4197 Y-166.3866 F15000.0
G1 Z11.9000 F8000.0
G1 X55.2296 Y-170.2813 F12000.0
G1 Z0.0000 F8000.0
G0 X61.4103 Y-80.2808 F15000.0
G1 Z11.9000 F8000.0
G1 X74.9569 Y-80.2808 F12000.0
G1 Z0.0000 F8000.0
G0 X61.4103 Y-170.2813 F15000.0
G1 Z11.9000 F8000.0
G1 X74.9569 Y-170.2813 F12000.0
G1 Z0.0000 F8000.0
G0 X51.4197 Y-164.0160 F15000.0
G1 Z11.9000 F8000.0
G1 X51.4197 Y-183.9126 F12000.0
G1 Z0.0000 F8000.0
G0 X61.4103 Y-170.2813 F15000.0
G1 Z11.9000 F8000.0
G1 X61.4103 Y-195.1733 F12000.0
G1 Z0.0000 F8000.0
G0 X36.4337 Y-150.2154 F15000.0
G1 Z11.9000 F8000.0
G1 X36.4337 Y-195.1733 F12000.0
G1 Z0.0000 F8000.0
G0 X122.3702 Y-136.2454 F15000.0
G1 Z11.9000 F8000.0
G1 X122.3702 Y-186.4526 F12000.0
G1 Z0.0000 F8000.0
G0 X144.3835 Y-136.2454 F15000.0
G1 Z11.9000 F8000.0
G1 X144.3835 Y-186.4526 F12000.0
G1 Z0.0000 F8000.0
G0 X155.3902 Y-100.2621 F15000.0
G1 Z11.9000 F8000.0
G1 X169.3600 Y-100.2621 F12000.0
G1 Z0.0000 F8000.0
G0 X150.2255 Y-150.2154 F15000.0
G1 Z11.9000 F8000.0
G1 X169.3600 Y-150.2154 F12000.0
G1 Z0.0000 F8000.0
G0 X61.4103 Y-220.2346 F15000.0
G1 Z11.9000 F8000.0
G1 X74.9569 Y-220.2346 F12000.0
G1 Z0.0000 F8000.0
G0 X61.4103 Y-264.2612 F15000.0
G1 Z11.9000 F8000.0
G1 X74.9569 Y-264.2612 F12000.0
G1 Z0.0000 F8000.0
G0 X31.4384 Y-253.2546 F15000.0
G1 Z11.9000 F8000.0
G1 X31.4384 Y-276.2838 F12000.0
G1 Z0.0000 F8000.0
G0 X61.4103 Y-264.2612 F15000.0
G1 Z11.9000 F8000.0
G1 X61.4103 Y-276.2838 F12000.0
G1 Z0.0000 F8000.0
G0 X128.4662 Y-122.7835 F15000.0
G1 Z11.9000 F8000.0
G1 X108.0615 Y-112.5388 F12000.0
G1 X108.0615 Y-99.0768 F12000.0
G1 Z0.0000 F8000.0
G0 X73.0096 Y-80.2808 F15000.0
G1 Z11.9000 F8000.0
G1 X72.3322 Y-85.2762 F12000.0
G1 X73.0096 Y-84.7682 F12000.0
G1 X73.6022 Y-85.2762 F12000.0
G1 X73.0096 Y-80.2808 F12000.0
G1 Z0.0000 F8000.0
G0 X72.6709 Y-83.5672 F15000.0
G1 Z11.9000 F8000.0
G1 X72.6709 Y-82.6672 F12000.0
G1 Z0.0000 F8000.0
G0 X73.2636 Y-83.2285 F15000.0
G1 Z11.9000 F8000.0
G1 X73.2636 Y-82.3285 F12000.0
G1 Z0.0000 F8000.0
G0 X73.0096 Y-170.2813 F15000.0
G1 Z11.9000 F8000.0
G1 X73.6022 Y-165.2013 F12000.0
G1 X73.0096 Y-165.7093 F12000.0
G1 X72.3322 Y-165.2013 F12000.0
G1 X73.0096 Y-170.2813 F12000.0
G1 Z0.0000 F8000.0
G0 X73.2636 Y-168.2336 F15000.0
G1 Z11.9000 F8000.0
G1 X73.2636 Y-167.3336 F12000.0
G1 Z0.0000 F8000.0
G0 X72.6709 Y-167.9373 F15000.0
G1 Z11.9000 F8000.0
G1 X72.6709 Y-167.0373 F12000.0
G1 Z0.0000 F8000.0
G0 X73.0096 Y-80.2808 F15000.0
G1 Z11.9000 F8000.0
G1 X73.0096 Y-170.2813 F12000.0
G1 Z0.0000 F8000.0
G0 X61.4103 Y-181.8806 F15000.0
G1 Z11.9000 F8000.0
G1 X66.4056 Y-181.2880 F12000.0
G1 X65.8976 Y-181.8806 F12000.0
G1 X66.4056 Y-182.5580 F12000.0
G1 X61.4103 Y-181.8806 F12000.0
G1 X68.4376 Y-181.8806 F12000.0
G1 Z0.0000 F8000.0
G0 X63.7542 Y-181.6266 F15000.0
G1 Z11.9000 F8000.0
G1 X64.6542 Y-181.6266 F12000.0
G1 Z0.0000 F8000.0
G0 X63.4156 Y-182.2193 F15000.0
G1 Z11.9000 F8000.0
G1 X64.3156 Y-182.2193 F12000.0
G1 Z0.0000 F8000.0
G0 X51.4197 Y-181.8806 F15000.0
G1 Z11.9000 F8000.0
G1 X46.4244 Y-182.5580 F12000.0
G1 X46.9324 Y-181.8806 F12000.0
G1 X46.4244 Y-181.2880 F12000.0
G1 X51.4197 Y-181.8806 F12000.0
G1 X44.3924 Y-181.8806 F12000.0
G1 Z0.0000 F8000.0
G0 X48.4297 Y-182.2193 F15000.0
G1 Z11.9000 F8000.0
G1 X49.3297 Y-182.2193 F12000.0
G1 Z0.0000 F8000.0
G0 X48.0910 Y-181.6266 F15000.0
G1 Z11.9000 F8000.0
G1 X48.9910 Y-181.6266 F12000.0
G1 Z0.0000 F8000.0
G0 X61.4103 Y-181.8806 F15000.0
G1 Z11.9000 F8000.0
G1 X51.4197 Y-181.8806 F12000.0
G1 Z0.0000 F8000.0
G0 X61.4103 Y-193.2260 F15000.0
G1 Z11.9000 F8000.0
G1 X56.4149 Y-192.5486 F12000.0
G1 X56.9229 Y-193.2260 F12000.0
G1 X56.4149 Y-193.8186 F12000.0
G1 X61.4103 Y-193.2260 F12000.0
G1 Z0.0000 F8000.0
G0 X58.1239 Y-192.9296 F15000.0
G1 Z11.9000 F8000.0
G1 X59.0239 Y-192.9296 F12000.0
G1 Z0.0000 F8000.0
G0 X58.4203 Y-193.5223 F15000.0
G1 Z11.9000 F8000.0
G1 X59.3203 Y-193.5223 F12000.0
G1 Z0.0000 F8000.0
G0 X36.4337 Y-193.2260 F15000.0
G1 Z11.9000 F8000.0
G1 X41.4290 Y-193.8186 F12000.0
G1 X40.9210 Y-193.2260 F12000.0
G1 X41.4290 Y-192.5486 F12000.0
G1 X36.4337 Y-193.2260 F12000.0
G1 Z0.0000 F8000.0
G0 X38.4390 Y-193.5223 F15000.0
G1 Z11.9000 F8000.0
G1 X39.3390 Y-193.5223 F12000.0
G1 Z0.0000 F8000.0
G0 X38.7354 Y-192.9296 F15000.0
G1 Z11.9000 F8000.0
G1 X39.6354 Y-192.9296 F12000.0
G1 Z0.0000 F8000.0
G0 X61.4103 Y-193.2260 F15000.0
G1 Z11.9000 F8000.0
G1 X36.4337 Y-193.2260 F12000.0
G1 Z0.0000 F8000.0
G0 X140.3195 Y-182.1346 F15000.0
G1 Z11.9000 F8000.0
G1 X140.3195 Y-177.1393 F12000.0
G1 X135.3242 Y-177.1393 F12000.0
G1 X135.3242 Y-182.1346 F12000.0
G1 X140.3195 Y-182.1346 F12000.0
G1 Z0.0000 F8000.0
G0 X122.3702 Y-184.4206 F15000.0
G1 Z11.9000 F8000.0
G1 X127.4502 Y-185.0980 F12000.0
G1 X126.9422 Y-184.4206 F12000.0
G1 X127.4502 Y-183.7433 F12000.0
G1 X122.3702 Y-184.4206 F12000.0
G1 Z0.0000 F8000.0
G0 X124.4179 Y-184.7593 F15000.0
G1 Z11.9000 F8000.0
G1 X125.3179 Y-184.7593 F12000.0
G1 Z0.0000 F8000.0
G0 X124.7142 Y-184.1243 F15000.0
G1 Z11.9000 F8000.0
G1 X125.6142 Y-184.1243 F12000.0
G1 Z0.0000 F8000.0
G0 X144.3835 Y-184.4206 F15000.0
G1 Z11.9000 F8000.0
G1 X139.3882 Y-183.7433 F12000.0
G1 X139.8962 Y-184.4206 F12000.0
G1 X139.3882 Y-185.0980 F12000.0
G1 X144.3835 Y-184.4206 F12000.0
G1 Z0.0000 F8000.0
G0 X141.0972 Y-184.1243 F15000.0
G1 Z11.9000 F8000.0
G1 X141.9972 Y-184.1243 F12000.0
G1 Z0.0000 F8000.0
G0 X141.3935 Y-184.7593 F15000.0
G1 Z11.9000 F8000.0
G1 X142.2935 Y-184.7593 F12000.0
G1 Z0.0000 F8000.0
G0 X122.3702 Y-184.4206 F15000.0
G1 Z11.9000 F8000.0
G1 X144.3835 Y-184.4206 F12000.0
G1 Z0.0000 F8000.0
G0 X167.4127 Y-100.2621 F15000.0
G1 Z11.9000 F8000.0
G1 X166.7354 Y-105.2575 F12000.0
G1 X167.4127 Y-104.7495 F12000.0
G1 X168.0054 Y-105.2575 F12000.0
G1 X167.4127 Y-100.2621 F12000.0
G1 Z0.0000 F8000.0
G0 X167.0741 Y-103.5485 F15000.0
G1 Z11.9000 F8000.0
G1 X167.0741 Y-102.6485 F12000.0
G1 Z0.0000 F8000.0
G0 X167.6667 Y-103.2098 F15000.0
G1 Z11.9000 F8000.0
G1 X167.6667 Y-102.3098 F12000.0
G1 Z0.0000 F8000.0
G0 X167.4127 Y-150.2154 F15000.0
G1 Z11.9000 F8000.0
G1 X168.0054 Y-145.2201 F12000.0
G1 X167.4127 Y-145.7281 F12000.0
G1 X166.7354 Y-145.2201 F12000.0
G1 X167.4127 Y-150.2154 F12000.0
G1 Z0.0000 F8000.0
G0 X167.6667 Y-148.2101 F15000.0
G1 Z11.9000 F8000.0
G1 X167.6667 Y-147.3101 F12000.0
G1 Z0.0000 F8000.0
G0 X167.0741 Y-147.9138 F15000.0
G1 Z11.9000 F8000.0
G1 X167.0741 Y-147.0138 F12000.0
G1 Z0.0000 F8000.0
G0 X167.4127 Y-100.2621 F15000.0
G1 Z11.9000 F8000.0
G1 X167.4127 Y-150.2154 F12000.0
G1 Z0.0000 F8000.0
G0 X66.1512 Y-241.0033 F15000.0
G1 Z11.9000 F8000.0
G1 X68.7876 Y-239.5033 F12000.0
G1 X69.3330 Y-239.3215
G1 X69.4239 Y-240.4124
G1 X70.1512 Y-240.2760
G1 X70.4694 Y-240.1396
G1 Z0.0000 F8000.0
G0 X68.3330 Y-241.0033 F15000.0
G1 Z11.9000 F8000.0
G1 X69.3785 Y-240.6851 F12000.0
G1 X69.4239 Y-240.5033
G1 Z0.0000 F8000.0
G0 X69.4239 Y-241.1851 F15000.0
G1 Z11.9000 F8000.0
G1 X69.4239 Y-240.7305 F12000.0
G1 Z0.0000 F8000.0
G0 X66.1512 Y-244.0460 F15000.0
G1 Z11.9000 F8000.0
G1 X68.7876 Y-242.5460 F12000.0
G1 X69.3330 Y-242.3642
G1 X69.4239 Y-243.4551
G1 X70.1512 Y-243.3187
G1 X70.4694 Y-243.1823
G1 Z0.0000 F8000.0
G0 X68.3330 Y-244.0460 F15000.0
G1 Z11.9000 F8000.0
G1 X69.3785 Y-243.7278 F12000.0
G1 X69.4239 Y-243.5460
G1 Z0.0000 F8000.0
G0 X69.4239 Y-244.2278 F15000.0
G1 Z11.9000 F8000.0
G1 X69.4239 Y-243.7733 F12000.0
G1 Z0.0000 F8000.0
G0 X73.0096 Y-220.2346 F15000.0
G1 Z11.9000 F8000.0
G1 X72.3322 Y-225.2299 F12000.0
G1 X73.0096 Y-224.7219 F12000.0
G1 X73.6022 Y-225.2299 F12000.0
G1 X73.0096 Y-220.2346 F12000.0
G1 Z0.0000 F8000.0
G0 X72.6709 Y-223.5209 F15000.0
G1 Z11.9000 F8000.0
G1 X72.6709 Y-222.6209 F12000.0
G1 Z0.0000 F8000.0
G0 X73.2636 Y-223.1823 F15000.0
G1 Z11.9000 F8000.0
G1 X73.2636 Y-222.2823 F12000.0
G1 Z0.0000 F8000.0
G0 X73.0096 Y-264.2612 F15000.0
G1 Z11.9000 F8000.0
G1 X73.6022 Y-259.2659 F12000.0
G1 X73.0096 Y-259.7739 F12000.0
G1 X72.3322 Y-259.2659 F12000.0
G1 X73.0096 Y-264.2612 F12000.0
G1 Z0.0000 F8000.0
G0 X73.2636 Y-262.2559 F15000.0
G1 Z11.9000 F8000.0
G1 X73.2636 Y-261.3559 F12000.0
G1 Z0.0000 F8000.0
G0 X72.6709 Y-261.9596 F15000.0
G1 Z11.9000 F8000.0
G1 X72.6709 Y-261.0596 F12000.0
G1 Z0.0000 F8000.0
G0 X73.0096 Y-220.2346 F15000.0
G1 Z11.9000 F8000.0
G1 X73.0096 Y-264.2612 F12000.0
G1 Z0.0000 F8000.0
G0 X31.4384 Y-274.2518 F15000.0
G1 Z11.9000 F8000.0
G1 X36.4337 Y-274.9291 F12000.0
G1 X35.9257 Y-274.2518 F12000.0
G1 X36.4337 Y-273.5744 F12000.0
G1 X31.4384 Y-274.2518 F12000.0
G1 Z0.0000 F8000.0
G0 X33.4437 Y-274.5904 F15000.0
G1 Z11.9000 F8000.0
G1 X34.3437 Y-274.5904 F12000.0
G1 Z0.0000 F8000.0
G0 X33.7400 Y-273.9554 F15000.0
G1 Z11.9000 F8000.0
G1 X34.6400 Y-273.9554 F12000.0
G1 Z0.0000 F8000.0
G0 X61.4103 Y-274.2518 F15000.0
G1 Z11.9000 F8000.0
G1 X56.4149 Y-273.5744 F12000.0
G1 X56.9229 Y-274.2518 F12000.0
G1 X56.4149 Y-274.9291 F12000.0
G1 X61.4103 Y-274.2518 F12000.0
G1 Z0.0000 F8000.0
G0 X58.1239 Y-273.9554 F15000.0
G1 Z11.9000 F8000.0
G1 X59.0239 Y-273.9554 F12000.0
G1 Z0.0000 F8000.0
G0 X58.4203 Y-274.5904 F15000.0
G1 Z11.9000 F8000.0
G1 X59.3203 Y-274.5904 F12000.0
G1 Z0.0000 F8000.0
G0 X31.4384 Y-274.2518 F15000.0
G1 Z11.9000 F8000.0
G1 X61.4103 Y-274.2518 F12000.0
G1 Z0.0000 F8000.0
G0 X138.3722 Y-127.6941 F15000.0
G1 Z11.9000 F8000.0
G1 X134.1388 Y-124.9001 F12000.0
G1 X134.3082 Y-125.6621 F12000.0
G1 X133.5462 Y-126.0854 F12000.0
G1 X138.3722 Y-127.6941 F12000.0
G1 Z0.0000 F8000.0
G0 X135.6515 Y-126.5624 F15000.0
G1 Z11.9000 F8000.0
G1 X136.3515 Y-125.8624 F12000.0
G1 Z0.0000 F8000.0
G0 X135.3822 Y-126.6358 F15000.0
G1 Z11.9000 F8000.0
G1 X136.2822 Y-126.6358 F12000.0
G1 Z0.0000 F8000.0
G0 X128.4662 Y-122.7835 F15000.0
G1 Z11.9000 F8000.0
G1 X132.6995 Y-125.5774 F12000.0
G1 X132.5302 Y-124.8155 F12000.0
G1 X133.2922 Y-124.3921 F12000.0
G1 X128.4662 Y-122.7835 F12000.0
G1 Z0.0000 F8000.0
G0 X130.2752 Y-124.5728 F15000.0
G1 Z11.9000 F8000.0
G1 X130.9752 Y-123.8728 F12000.0
G1 Z0.0000 F8000.0
G0 X130.4715 Y-123.8418 F15000.0
G1 Z11.9000 F8000.0
G1 X131.3715 Y-123.8418 F12000.0
G1 Z0.0000 F8000.0
G0 X138.3722 Y-127.6941 F15000.0
G1 Z11.9000 F8000.0
G1 X128.4662 Y-122.7835 F12000.0
G1 Z0.0000 F8000.0
G0 X180.0000 Y-21.3530 F15000.0
G1 Z11.9000 F8000.0
G1 X0.0000 Y-21.3530 F12000.0
G1 Z0.0000 F8000.0
G0 X180.0000 Y-9.3303 F15000.0
G1 Z11.9000 F8000.0
G1 X123.6402 Y-9.3303 F12000.0
G1 Z0.0000 F8000.0
G0 X180.0000 Y-14.3257 F15000.0
G1 Z11.9000 F8000.0
G1 X123.6402 Y-14.3257 F12000.0
G1 Z0.0000 F8000.0
G0 X123.6402 Y-21.3530 F15000.0
G1 Z11.9000 F8000.0
G1 X123.6402 Y-9.3303 F12000.0
G1 Z0.0000 F8000.0
G0 X158.6921 Y-21.3530 F15000.0
G1 Z11.9000 F8000.0
G1 X158.6921 Y-9.3303 F12000.0
G1 Z0.0000 F8000.0
G0 X140.0630 Y-11.0316 F15000.0
G1 Z11.9000 F8000.0
G1 X140.7448 Y-12.7134 F12000.0
G1 X141.4266 Y-13.3497
G1 X142.0175 Y-13.2588
G1 X142.0175 Y-12.8497
G1 X141.2902 Y-11.0316
G1 Z0.0000 F8000.0
G0 X101.6269 Y-9.3303 F15000.0
G1 Z11.9000 F8000.0
G1 X78.6741 Y-9.3303 F12000.0
G1 Z0.0000 F8000.0
G0 X101.6269 Y-14.3257 F15000.0
G1 Z11.9000 F8000.0
G1 X0.0000 Y-14.3257 F12000.0
G1 Z0.0000 F8000.0
G0 X101.6269 Y-21.3530 F15000.0
G1 Z11.9000 F8000.0
G1 X101.6269 Y-9.3303 F12000.0
G1 Z0.0000 F8000.0
G0 X41.6830 Y-21.3530 F15000.0
G1 Z11.9000 F8000.0
G1 X41.6830 Y-9.3303 F12000.0
G1 Z0.0000 F8000.0
G0 X179.0082 Y-6.0000 F15000.0
G1 Z11.9000 F8000.0
G1 X179.4173 Y-7.1819 F12000.0
G1 Z0.0000 F8000.0
G0 X179.7355 Y-8.0910 F15000.0
G1 Z11.9000 F8000.0
G1 X179.8264 Y-8.2728 F12000.0
G1 Z0.0000 F8000.0
G0 X176.6381 Y-6.8637 F15000.0
G1 Z11.9000 F8000.0
G1 X177.0017 Y-8.0910 F12000.0
G1 Z0.0000 F8000.0
G0 X178.0926 Y-7.8182 F15000.0
G1 Z11.9000 F8000.0
G1 X178.2290 Y-8.2273 F12000.0
G1 Z0.0000 F8000.0
G0 X175.0236 Y-6.9163 F15000.0
G1 Z11.9000 F8000.0
G1 X174.8418 Y-6.1436 F12000.0
G1 X175.8872 Y-6.0527
G1 X176.6599 Y-8.2345
G1 X175.4781 Y-8.0527
G1 X175.0690 Y-7.0072
G1 Z0.0000 F8000.0
G0 X176.8418 Y-8.7345 F15000.0
G1 Z11.9000 F8000.0
G1 X177.0236 Y-9.2345 F12000.0
G1 Z0.0000 F8000.0
G0 X173.5928 Y-7.3637 F15000.0
G1 Z11.9000 F8000.0
G1 X173.2746 Y-6.1364 F12000.0
G1 X174.0018 Y-6.0000
G1 X174.3200 Y-6.1364
G1 X175.0018 Y-8.0455
G1 X174.9109 Y-8.1819
G1 X174.1837 Y-8.2273
G1 Z0.0000 F8000.0
G0 X173.7291 Y-7.7273 F15000.0
G1 Z11.9000 F8000.0
G1 X173.8200 Y-7.9091 F12000.0
G1 Z0.0000 F8000.0
G0 X172.8422 Y-6.2872 F15000.0
G1 Z11.9000 F8000.0
G1 X173.0695 Y-7.1508 F12000.0
G1 X171.7513 Y-6.4690
G1 X172.4332 Y-6.0145
G1 X172.6604 Y-6.1054
G1 Z0.0000 F8000.0
G0 X172.3422 Y-8.2418 F15000.0
G1 Z11.9000 F8000.0
G1 X173.2968 Y-8.1963 F12000.0
G1 X173.3422 Y-7.7418
G1 X173.1150 Y-7.1508
G1 Z0.0000 F8000.0
G0 X170.8086 Y-6.6963 F15000.0
G1 Z11.9000 F8000.0
G1 X171.0814 Y-7.0145 F12000.0
G1 X171.4450 Y-7.1054
G1 X171.6268 Y-7.3327
G1 Z0.0000 F8000.0
G0 X170.8541 Y-8.2418 F15000.0
G1 Z11.9000 F8000.0
G1 X171.0814 Y-7.1054 F12000.0
G1 Z0.0000 F8000.0
G0 X171.4450 Y-6.7872 F15000.0
G1 Z11.9000 F8000.0
G1 X171.4904 Y-7.0599 F12000.0
G1 Z0.0000 F8000.0
G0 X171.8086 Y-7.8327 F15000.0
G1 Z11.9000 F8000.0
G1 X171.9450 Y-8.2418 F12000.0
G1 Z0.0000 F8000.0
G0 X167.9539 Y-6.5145 F15000.0
G1 Z11.9000 F8000.0
G1 X167.9539 Y-6.1054 F12000.0
G1 X168.7267 Y-6.0599
G1 X169.0903 Y-7.1963
G1 Z0.0000 F8000.0
G0 X168.0903 Y-6.8781 F15000.0
G1 Z11.9000 F8000.0
G1 X168.3630 Y-7.8327 F12000.0
G1 Z0.0000 F8000.0
G0 X168.8176 Y-6.0599 F15000.0
G1 Z11.9000 F8000.0
G1 X169.8176 Y-6.6508 F12000.0
G1 X169.9539 Y-7.0145
G1 Z0.0000 F8000.0
G0 X169.3176 Y-7.8327 F15000.0
G1 Z11.9000 F8000.0
G1 X169.4539 Y-8.2418 F12000.0
G1 Z0.0000 F8000.0
G0 X170.0903 Y-7.3781 F15000.0
G1 Z11.9000 F8000.0
G1 X170.4085 Y-8.2418 F12000.0
G1 Z0.0000 F8000.0
G0 X166.8197 Y-7.6819 F15000.0
G1 Z11.9000 F8000.0
G1 X166.9560 Y-8.0910 F12000.0
G1 Z0.0000 F8000.0
G0 X167.0924 Y-8.2273 F15000.0
G1 Z11.9000 F8000.0
G1 X167.9106 Y-8.2273 F12000.0
G1 Z0.0000 F8000.0
G0 X167.5469 Y-6.3637 F15000.0
G1 Z11.9000 F8000.0
G1 X167.8651 Y-7.3637 F12000.0
G1 Z0.0000 F8000.0
G0 X168.0015 Y-8.1364 F15000.0
G1 Z11.9000 F8000.0
G1 X168.0015 Y-7.7273 F12000.0
G1 Z0.0000 F8000.0
G0 X164.9878 Y-6.9163 F15000.0
G1 Z11.9000 F8000.0
G1 X164.8059 Y-6.1436 F12000.0
G1 X165.8514 Y-6.0527
G1 X166.6241 Y-8.2345
G1 X165.4423 Y-8.0527
G1 X165.0332 Y-7.0072
G1 Z0.0000 F8000.0
G0 X166.8059 Y-8.7345 F15000.0
G1 Z11.9000 F8000.0
G1 X166.9878 Y-9.2345 F12000.0
G1 Z0.0000 F8000.0
G0 X163.5570 Y-7.3637 F15000.0
G1 Z11.9000 F8000.0
G1 X163.2388 Y-6.1364 F12000.0
G1 X163.9661 Y-6.0000
G1 X164.2842 Y-6.1364
G1 X164.9661 Y-8.0455
G1 X164.8752 Y-8.1819
G1 X164.1479 Y-8.2273
G1 Z0.0000 F8000.0
G0 X163.6933 Y-7.7273 F15000.0
G1 Z11.9000 F8000.0
G1 X163.7842 Y-7.9091 F12000.0
G1 Z0.0000 F8000.0
G0 X161.8062 Y-5.4091 F15000.0
G1 Z11.9000 F8000.0
G1 X161.8062 Y-5.1819 F12000.0
G1 X162.0789 Y-5.0000
G1 X162.6244 Y-5.6819
G1 X163.3971 Y-8.0455
G1 X163.3062 Y-8.1819
G1 X162.5789 Y-8.2273
G1 Z0.0000 F8000.0
G0 X161.9880 Y-7.3637 F15000.0
G1 Z11.9000 F8000.0
G1 X161.6698 Y-6.1364 F12000.0
G1 X162.2607 Y-5.9546
G1 X162.6244 Y-6.0000
G1 Z0.0000 F8000.0
G0 X162.1244 Y-7.7273 F15000.0
G1 Z11.9000 F8000.0
G1 X162.2153 Y-7.9091 F12000.0
G1 Z0.0000 F8000.0
G0 X160.0278 Y-6.0554 F15000.0
G1 Z11.9000 F8000.0
G1 X160.6641 Y-8.0554 F12000.0
G1 X161.0732 Y-8.1918
G1 X161.8460 Y-7.9645
G1 X161.2096 Y-6.1918
G1 X160.0732 Y-6.0100
G1 Z0.0000 F8000.0
G0 X158.6155 Y-6.5910 F15000.0
G1 Z11.9000 F8000.0
G1 X159.1155 Y-8.0910 F12000.0
G1 Z0.0000 F8000.0
G0 X158.9337 Y-7.1364 F15000.0
G1 Z11.9000 F8000.0
G1 X159.8883 Y-7.1364 F12000.0
G1 X160.1610 Y-7.7273
G1 Z0.0000 F8000.0
G0 X159.5701 Y-6.0000 F15000.0
G1 Z11.9000 F8000.0
G1 X159.9337 Y-7.0910 F12000.0
G1 Z0.0000 F8000.0
G0 X160.2974 Y-8.0910 F15000.0
G1 Z11.9000 F8000.0
G1 X160.3428 Y-8.2273 F12000.0
G1 Z0.0000 F8000.0
G0 X157.4112 Y-7.6819 F15000.0
G1 Z11.9000 F8000.0
G1 X157.5475 Y-8.0910 F12000.0
G1 Z0.0000 F8000.0
G0 X157.6839 Y-8.2273 F15000.0
G1 Z11.9000 F8000.0
G1 X158.5020 Y-8.2273 F12000.0
G1 Z0.0000 F8000.0
G0 X158.1384 Y-6.3637 F15000.0
G1 Z11.9000 F8000.0
G1 X158.4565 Y-7.3637 F12000.0
G1 Z0.0000 F8000.0
G0 X158.5929 Y-8.1364 F15000.0
G1 Z11.9000 F8000.0
G1 X158.5929 Y-7.7273 F12000.0
G1 Z0.0000 F8000.0
G0 X156.5704 Y-6.4091 F15000.0
G1 Z11.9000 F8000.0
G1 X156.3431 Y-6.0910 F12000.0
G1 X155.2976 Y-6.0455
G1 X155.9794 Y-8.0910
G1 Z0.0000 F8000.0
G0 X155.7522 Y-7.1819 F15000.0
G1 Z11.9000 F8000.0
G1 X156.4340 Y-7.1819 F12000.0
G1 X156.9794 Y-7.9091
G1 Z0.0000 F8000.0
G0 X156.4340 Y-7.1819 F15000.0
G1 Z11.9000 F8000.0
G1 X156.7067 Y-6.7728 F12000.0
G1 Z0.0000 F8000.0
G0 X154.7162 Y-8.4061 F15000.0
G1 Z11.9000 F8000.0
G1 X154.9435 Y-8.8152 F12000.0
G1 Z0.0000 F8000.0
G0 X124.5771 Y-6.1819 F15000.0
G1 Z11.9000 F8000.0
G1 X124.7134 Y-6.7273 F12000.0
G1 X124.8952 Y-7.0000
G1 X124.9407 Y-7.5000
G1 X125.1225 Y-7.9091
G1 X125.9862 Y-8.2273
G1 X126.0771 Y-8.1819
G1 X126.1225 Y-8.0000
G1 Z0.0000 F8000.0
G0 X125.0316 Y-7.1364 F15000.0
G1 Z11.9000 F8000.0
G1 X125.2589 Y-7.1364 F12000.0
G1 Z0.0000 F8000.0
G0 X122.8640 Y-6.0554 F15000.0
G1 Z11.9000 F8000.0
G1 X123.5004 Y-8.0554 F12000.0
G1 X123.9095 Y-8.1918
G1 X124.6822 Y-7.9645
G1 X124.0458 Y-6.1918
G1 X122.9095 Y-6.0100
G1 Z0.0000 F8000.0
G0 X120.8313 Y-6.8600 F15000.0
G1 Z11.9000 F8000.0
G1 X121.2404 Y-8.2237 F12000.0
G1 X121.2859 Y-8.7237
G1 Z0.0000 F8000.0
G0 X121.2859 Y-8.2691 F15000.0
G1 Z11.9000 F8000.0
G1 X122.9223 Y-8.2237 F12000.0
G1 Z0.0000 F8000.0
G0 X121.7859 Y-6.8600 F15000.0
G1 Z11.9000 F8000.0
G1 X122.1950 Y-8.1782 F12000.0
G1 Z0.0000 F8000.0
G0 X122.4223 Y-6.0418 F15000.0
G1 Z11.9000 F8000.0
G1 X123.0132 Y-7.8146 F12000.0
G1 X123.0132 Y-8.1327
G1 Z0.0000 F8000.0
G0 X119.4633 Y-7.6819 F15000.0
G1 Z11.9000 F8000.0
G1 X119.5996 Y-8.0910 F12000.0
G1 Z0.0000 F8000.0
G0 X119.7360 Y-8.2273 F15000.0
G1 Z11.9000 F8000.0
G1 X120.5542 Y-8.2273 F12000.0
G1 Z0.0000 F8000.0
G0 X120.1905 Y-6.3637 F15000.0
G1 Z11.9000 F8000.0
G1 X120.5087 Y-7.3637 F12000.0
G1 Z0.0000 F8000.0
G0 X120.6451 Y-8.1364 F15000.0
G1 Z11.9000 F8000.0
G1 X120.6451 Y-7.7273 F12000.0
G1 Z0.0000 F8000.0
G0 X116.9111 Y-6.8600 F15000.0
G1 Z11.9000 F8000.0
G1 X117.3202 Y-8.2237 F12000.0
G1 X117.3657 Y-8.7237
G1 Z0.0000 F8000.0
G0 X117.3657 Y-8.2691 F15000.0
G1 Z11.9000 F8000.0
G1 X119.0020 Y-8.2237 F12000.0
G1 Z0.0000 F8000.0
G0 X117.8657 Y-6.8600 F15000.0
G1 Z11.9000 F8000.0
G1 X118.2747 Y-8.1782 F12000.0
G1 Z0.0000 F8000.0
G0 X118.5020 Y-6.0418 F15000.0
G1 Z11.9000 F8000.0
G1 X119.0929 Y-7.8146 F12000.0
G1 X119.0929 Y-8.1327
G1 Z0.0000 F8000.0
G0 X116.2341 Y-6.2872 F15000.0
G1 Z11.9000 F8000.0
G1 X116.4614 Y-7.1508 F12000.0
G1 X115.1432 Y-6.4690
G1 X115.8250 Y-6.0145
G1 X116.0523 Y-6.1054
G1 Z0.0000 F8000.0
G0 X115.7341 Y-8.2418 F15000.0
G1 Z11.9000 F8000.0
G1 X116.6886 Y-8.1963 F12000.0
G1 X116.7341 Y-7.7418
G1 X116.5068 Y-7.1508
G1 Z0.0000 F8000.0
G0 X113.6113 Y-6.5910 F15000.0
G1 Z11.9000 F8000.0
G1 X114.1113 Y-8.0910 F12000.0
G1 Z0.0000 F8000.0
G0 X113.9295 Y-7.1364 F15000.0
G1 Z11.9000 F8000.0
G1 X114.8840 Y-7.1364 F12000.0
G1 X115.1567 Y-7.7273
G1 Z0.0000 F8000.0
G0 X114.5658 Y-6.0000 F15000.0
G1 Z11.9000 F8000.0
G1 X114.9295 Y-7.0910 F12000.0
G1 Z0.0000 F8000.0
G0 X115.2931 Y-8.0910 F15000.0
G1 Z11.9000 F8000.0
G1 X115.3386 Y-8.2273 F12000.0
G1 Z0.0000 F8000.0
G0 X111.5802 Y-6.0000 F15000.0
G1 Z11.9000 F8000.0
G1 X111.9893 Y-7.1819 F12000.0
G1 Z0.0000 F8000.0
G0 X112.3074 Y-8.0910 F15000.0
G1 Z11.9000 F8000.0
G1 X112.3984 Y-8.2728 F12000.0
G1 Z0.0000 F8000.0
G0 X113.4893 Y-7.2728 F15000.0
G1 Z11.9000 F8000.0
G1 X113.7165 Y-8.2728 F12000.0
G1 X112.8074 Y-8.0000
G1 X112.6256 Y-7.6364
G1 X112.6256 Y-7.2273
G1 X113.3074 Y-7.0910
G1 X112.9893 Y-6.0000
G1 Z0.0000 F8000.0
G0 X111.8934 Y-8.2241 F15000.0
G1 Z11.9000 F8000.0
G1 X112.0934 Y-8.2241 F12000.0
G1 Z0.0000 F8000.0

G0 Z0.0000 F800.0
G4 P0.06
G0 X0.0000 Y0.0000 F15000.0
M5
G4 P0.10
$1=0
