$X
$1=255
G21
G90
G92 Z4.0000
G0 Z0.0000 F800.0
G4 P0.06
G92 Z0.0000
G0 Z0.0000 F800.0
G0 X0.0000 Y0.0000 F15000.0
G21
G90
G17
G91.1
G0 Z0.0000
G0 X0.0000 Y-5.0000 F15000.0
G1 Z11.9000 F8000.0
G1 X180.0000 Y-5.0000 F12000.0
G1 X180.0000 Y-285.0000
G1 X0.0000 Y-285.0000
G1 X0.0000 Y-5.0000
G1 Z0.0000 F8000.0
G0 X54.0549 Y-229.4975 F15000.0
G1 Z11.9000 F8000.0
G1 X54.0991 Y-229.7186 F12000.0
G1 Z0.0000 F8000.0
G0 X54.1876 Y-229.9840 F15000.0
G1 Z11.9000 F8000.0
G1 X54.2318 Y-230.2051 F12000.0
G1 Z0.0000 F8000.0
G0 X54.3202 Y-230.4705 F15000.0
G1 Z11.9000 F8000.0
G1 X54.4087 Y-230.8685 F12000.0
G1 Z0.0000 F8000.0
G0 X54.4971 Y-231.1339 F15000.0
G1 Z11.9000 F8000.0
G1 X54.5414 Y-231.3550 F12000.0
G1 Z0.0000 F8000.0
G0 X54.6298 Y-231.6204 F15000.0
G1 Z11.9000 F8000.0
G1 X54.6740 Y-231.8415 F12000.0
G1 Z0.0000 F8000.0
G0 X55.4701 Y-234.8047 F15000.0
G1 Z11.9000 F8000.0
G1 X54.8510 Y-232.2396 F12000.0
G1 X57.9911 Y-232.1953
G1 X56.8412 Y-237.1045
G1 Z0.0000 F8000.0
G0 X56.7527 Y-237.3699 F15000.0
G1 Z11.9000 F8000.0
G1 X56.4431 Y-237.5910 F12000.0
G1 X56.4431 Y-238.2986
G1 Z0.0000 F8000.0
G0 X56.1778 Y-237.3699 F15000.0
G1 Z11.9000 F8000.0
G1 X56.1335 Y-237.1930 F12000.0
G1 Z0.0000 F8000.0
G0 X56.0451 Y-236.9276 F15000.0
G1 Z11.9000 F8000.0
G1 X55.5586 Y-235.0701 F12000.0
G1 Z0.0000 F8000.0
G0 X58.0353 Y-232.1953 F15000.0
G1 Z11.9000 F8000.0
G1 X58.3006 Y-231.5762 F12000.0
G1 Z0.0000 F8000.0
G0 X58.3891 Y-231.3108 F15000.0
G1 Z11.9000 F8000.0
G1 X58.4776 Y-230.9128 F12000.0
G1 Z0.0000 F8000.0
G0 X58.6102 Y-230.4705 F15000.0
G1 Z11.9000 F8000.0
G1 X58.6545 Y-230.2494 F12000.0
G1 Z0.0000 F8000.0
G0 X58.7871 Y-229.8071 F15000.0
G1 Z11.9000 F8000.0
G1 X58.9198 Y-229.4533 F12000.0
G1 Z0.0000 F8000.0
G0 X60.1373 Y-227.0503 F15000.0
G1 Z11.9000 F8000.0
G1 X60.8787 Y-226.0618 F12000.0
G1 X60.1373 Y-225.1556 F12000.0
G1 X67.3867 Y-226.0618 F12000.0
G1 X60.1373 Y-227.0503 F12000.0
G1 Z0.0000 F8000.0
G0 X60.2197 Y-226.9679 F15000.0
G1 Z11.9000 F8000.0
G1 X60.7963 Y-226.9679 F12000.0
G1 Z0.0000 F8000.0
G0 X60.3844 Y-226.7208 F15000.0
G1 Z11.9000 F8000.0
G1 X62.6087 Y-226.7208 F12000.0
G1 Z0.0000 F8000.0
G0 X63.7620 Y-226.5560 F15000.0
G1 Z11.9000 F8000.0
G1 X60.5492 Y-226.5560 F12000.0
G1 Z0.0000 F8000.0
G0 X60.6316 Y-226.3913 F15000.0
G1 Z11.9000 F8000.0
G1 X64.9977 Y-226.3913 F12000.0
G1 Z0.0000 F8000.0
G0 X64.7506 Y-225.7322 F15000.0
G1 Z11.9000 F8000.0
G1 X60.6316 Y-225.7322 F12000.0
G1 Z0.0000 F8000.0
G0 X60.5492 Y-225.5675 F15000.0
G1 Z11.9000 F8000.0
G1 X63.4325 Y-225.5675 F12000.0
G1 Z0.0000 F8000.0
G0 X62.1144 Y-225.4027 F15000.0
G1 Z11.9000 F8000.0
G1 X60.3844 Y-225.4027 F12000.0
G1 Z0.0000 F8000.0
G0 X60.2197 Y-225.2380 F15000.0
G1 Z11.9000 F8000.0
G1 X60.7963 Y-225.2380 F12000.0
G1 Z0.0000 F8000.0
G0 X60.7963 Y-225.8970 F15000.0
G1 Z11.9000 F8000.0
G1 X66.0687 Y-225.8970 F12000.0
G1 Z0.0000 F8000.0
G0 X66.2334 Y-226.2265 F15000.0
G1 Z11.9000 F8000.0
G1 X60.7963 Y-226.2265 F12000.0
G1 Z0.0000 F8000.0
G0 X60.3021 Y-226.8856 F15000.0
G1 Z11.9000 F8000.0
G1 X61.3730 Y-226.8856 F12000.0
G1 Z0.0000 F8000.0
G0 X67.3867 Y-226.0618 F15000.0
G1 Z11.9000 F8000.0
G1 X52.8055 Y-226.0618 F12000.0
G1 Z0.0000 F8000.0
G0 X47.5332 Y-218.3181 F15000.0
G1 Z11.9000 F8000.0
G1 X47.5332 Y-203.4897 F12000.0
G1 X47.5332 Y-188.0023 F12000.0
G1 X48.1922 Y-183.1419 F12000.0
G1 X47.5332 Y-183.6361 F12000.0
G1 X46.9565 Y-183.1419 F12000.0
G1 X47.5332 Y-188.0023 F12000.0
G1 X47.5332 Y-158.8398 F12000.0
G1 X46.9565 Y-163.7002 F12000.0
G1 X47.5332 Y-163.2059 F12000.0
G1 X48.1922 Y-163.7002 F12000.0
G1 X47.5332 Y-158.8398 F12000.0
G1 Z0.0000 F8000.0
G0 X45.6385 Y-158.8398 F15000.0
G1 Z11.9000 F8000.0
G1 X52.5584 Y-158.8398 F12000.0
G1 X56.4302 Y-158.8398 F12000.0
G1 X56.4302 Y-128.3593 F12000.0
G1 Z0.0000 F8000.0
G0 X56.4302 Y-130.3364 F15000.0
G1 Z11.9000 F8000.0
G1 X51.5698 Y-129.6773 F12000.0
G1 X52.0641 Y-130.3364 F12000.0
G1 X51.5698 Y-130.9954 F12000.0
G1 X56.4302 Y-130.3364 F12000.0
G1 X14.5813 Y-130.3364 F12000.0
G1 X19.4417 Y-130.9954 F12000.0
G1 X18.9474 Y-130.3364 F12000.0
G1 X19.4417 Y-129.6773 F12000.0
G1 X14.5813 Y-130.3364 F12000.0
G1 Z0.0000 F8000.0
G0 X16.5736 Y-130.0481 F15000.0
G1 Z11.9000 F8000.0
G1 X17.4493 Y-130.0481 F12000.0
G1 Z0.0000 F8000.0
G0 X17.7788 Y-130.6659 F15000.0
G1 Z11.9000 F8000.0
G1 X16.9031 Y-130.6659 F12000.0
G1 Z0.0000 F8000.0
G0 X19.4417 Y-116.2494 F15000.0
G1 Z11.9000 F8000.0
G1 X14.5813 Y-115.6728 F12000.0
G1 X19.4417 Y-115.0137 F12000.0
G1 X18.9474 Y-115.6728 F12000.0
G1 X19.4417 Y-116.2494 F12000.0
G1 Z0.0000 F8000.0
G0 X17.8200 Y-115.9611 F15000.0
G1 Z11.9000 F8000.0
G1 X16.9443 Y-115.9611 F12000.0
G1 Z0.0000 F8000.0
G0 X16.5736 Y-115.3844 F15000.0
G1 Z11.9000 F8000.0
G1 X17.4493 Y-115.3844 F12000.0
G1 Z0.0000 F8000.0
G0 X14.5813 Y-115.6728 F15000.0
G1 Z11.9000 F8000.0
G1 X102.1510 Y-115.6728 F12000.0
G1 X97.2906 Y-115.0137 F12000.0
G1 X97.7849 Y-115.6728 F12000.0
G1 X97.2906 Y-116.2494 F12000.0
G1 X102.1510 Y-115.6728 F12000.0
G1 Z0.0000 F8000.0
G0 X100.1999 Y-115.3844 F15000.0
G1 Z11.9000 F8000.0
G1 X99.3242 Y-115.3844 F12000.0
G1 Z0.0000 F8000.0
G0 X98.9946 Y-115.9611 F15000.0
G1 Z11.9000 F8000.0
G1 X99.8703 Y-115.9611 F12000.0
G1 Z0.0000 F8000.0
G0 X102.1510 Y-113.6957 F15000.0
G1 Z11.9000 F8000.0
G1 X102.1510 Y-151.0137 F12000.0
G1 X77.8490 Y-151.0137 F12000.0
G1 X77.8490 Y-149.1190 F12000.0
G1 X56.4302 Y-149.1190 F12000.0
G1 Z0.0000 F8000.0
G0 X56.4302 Y-150.6842 F15000.0
G1 Z11.9000 F8000.0
G1 X75.2128 Y-169.5492 F12000.0
G1 Z0.0000 F8000.0
G0 X71.0938 Y-169.5492 F15000.0
G1 Z11.9000 F8000.0
G1 X56.4302 Y-154.8032 F12000.0
G1 Z0.0000 F8000.0
G0 X52.5584 Y-155.8741 F15000.0
G1 Z11.9000 F8000.0
G1 X52.5584 Y-158.8398 F12000.0
G1 Z0.0000 F8000.0
G0 X52.5584 Y-157.8513 F15000.0
G1 Z11.9000 F8000.0
G1 X14.5813 Y-157.8513 F12000.0
G1 X16.5584 Y-155.8741 F12000.0
G1 X52.5584 Y-155.8741 F12000.0
G1 X52.5584 Y-137.8330 F12000.0
G1 Z0.0000 F8000.0
G0 X52.5584 Y-139.8101 F15000.0
G1 Z11.9000 F8000.0
G1 X47.6156 Y-140.4691 F12000.0
G1 X48.1099 Y-139.8101 F12000.0
G1 X47.6156 Y-139.1510 F12000.0
G1 X52.5584 Y-139.8101 F12000.0
G1 X45.7208 Y-139.8101 F12000.0
G1 Z0.0000 F8000.0
G0 X47.6156 Y-139.8101 F15000.0
G1 Z11.9000 F8000.0
G1 X38.8833 Y-139.8101 F12000.0
G1 Z0.0000 F8000.0
G0 X37.8984 Y-137.4109 F15000.0
G1 Z11.9000 F8000.0
G1 X36.9697 Y-137.4993 F12000.0
G1 Z0.0000 F8000.0
G0 X38.1638 Y-137.1013 F15000.0
G1 Z11.9000 F8000.0
G1 X37.8984 Y-136.1725 F12000.0
G1 Z0.0000 F8000.0
G0 X37.7215 Y-135.8629 F15000.0
G1 Z11.9000 F8000.0
G1 X37.3235 Y-135.4207 F12000.0
G1 X36.7043 Y-135.3322
G1 Z0.0000 F8000.0
G0 X37.3235 Y-135.4207 F15000.0
G1 Z11.9000 F8000.0
G1 X37.5004 Y-135.1553 F12000.0
G1 Z0.0000 F8000.0
G0 X37.5888 Y-134.9784 F15000.0
G1 Z11.9000 F8000.0
G1 X36.9697 Y-133.3862 F12000.0
G1 X36.7485 Y-133.2093
G1 X35.1121 Y-132.8997
G1 Z0.0000 F8000.0
G0 X34.8468 Y-134.0939 F15000.0
G1 Z11.9000 F8000.0
G1 X34.2276 Y-134.0496 F12000.0
G1 Z0.0000 F8000.0
G0 X34.0065 Y-134.0054 F15000.0
G1 Z11.9000 F8000.0
G1 X33.6969 Y-133.1209 F12000.0
G1 Z0.0000 F8000.0
G0 X34.4930 Y-135.0668 F15000.0
G1 Z11.9000 F8000.0
G1 X34.1392 Y-134.0496 F12000.0
G1 X34.0065 Y-134.0054
G1 X32.8566 Y-134.3592
G1 X33.5642 Y-135.5976
G1 Z0.0000 F8000.0
G0 X34.0507 Y-136.4821 F15000.0
G1 Z11.9000 F8000.0
G1 X34.6256 Y-137.4993 F12000.0
G1 Z0.0000 F8000.0
G0 X42.8348 Y-142.5833 F15000.0
G1 Z11.9000 F8000.0
G1 X43.0559 Y-143.1141 F12000.0
G1 X43.1001 Y-143.4679
G1 X41.9502 Y-143.5563
G1 X41.9945 Y-143.8217
G1 X43.0117 Y-145.5908
G1 Z0.0000 F8000.0
G0 X43.3213 Y-146.1657 F15000.0
G1 Z11.9000 F8000.0
G1 X43.7635 Y-146.9618 F12000.0
G1 Z0.0000 F8000.0
G0 X43.6309 Y-144.5293 F15000.0
G1 Z11.9000 F8000.0
G1 X43.3213 Y-143.5121 F12000.0
G1 X43.9847 Y-143.5563
G1 Z0.0000 F8000.0
G0 X49.4020 Y-140.1396 F15000.0
G1 Z11.9000 F8000.0
G1 X50.2777 Y-140.1396 F12000.0
G1 Z0.0000 F8000.0
G0 X50.5660 Y-139.5217 F15000.0
G1 Z11.9000 F8000.0
G1 X49.6903 Y-139.5217 F12000.0
G1 Z0.0000 F8000.0
G0 X52.5584 Y-139.8101 F15000.0
G1 Z11.9000 F8000.0
G1 X56.4302 Y-139.8101 F12000.0
G1 X61.2906 Y-139.1510 F12000.0
G1 X60.7963 Y-139.8101 F12000.0
G1 X61.2906 Y-140.4691 F12000.0
G1 X56.4302 Y-139.8101 F12000.0
G1 X63.1854 Y-139.8101 F12000.0
G1 Z0.0000 F8000.0
G0 X59.6278 Y-140.1396 F15000.0
G1 Z11.9000 F8000.0
G1 X58.7521 Y-140.1396 F12000.0
G1 Z0.0000 F8000.0
G0 X58.4226 Y-139.5217 F15000.0
G1 Z11.9000 F8000.0
G1 X59.2983 Y-139.5217 F12000.0
G1 Z0.0000 F8000.0
G0 X58.9840 Y-149.1190 F15000.0
G1 Z11.9000 F8000.0
G1 X79.4142 Y-169.5492 F12000.0
G1 Z0.0000 F8000.0
G0 X79.7437 Y-169.5492 F15000.0
G1 Z11.9000 F8000.0
G1 X14.5813 Y-169.5492 F12000.0
G1 Z0.0000 F8000.0
G0 X14.5813 Y-166.6659 F15000.0
G1 Z11.9000 F8000.0
G1 X17.4645 Y-169.5492 F12000.0
G1 Z0.0000 F8000.0
G0 X16.5584 Y-173.4210 F15000.0
G1 Z11.9000 F8000.0
G1 X16.5584 Y-190.9680 F12000.0
G1 X52.5584 Y-190.9680 F12000.0
G1 X52.5584 Y-188.0023 F12000.0
G1 X56.4302 Y-188.0023 F12000.0
G1 X56.4302 Y-197.7231 F12000.0
G1 X77.8490 Y-197.7231 F12000.0
G1 Z0.0000 F8000.0
G0 X77.8490 Y-195.8284 F15000.0
G1 Z11.9000 F8000.0
G1 X102.1510 Y-195.8284 F12000.0
G1 X124.8055 Y-195.8284 F12000.0
G1 Z0.0000 F8000.0
G0 X122.8284 Y-195.8284 F15000.0
G1 Z11.9000 F8000.0
G1 X123.4874 Y-190.9680 F12000.0
G1 X122.8284 Y-191.4622 F12000.0
G1 X122.1693 Y-190.9680 F12000.0
G1 X122.8284 Y-195.8284 F12000.0
G1 X122.8284 Y-151.0137 F12000.0
G1 X122.1693 Y-155.8741 F12000.0
G1 X122.8284 Y-155.3799 F12000.0
G1 X123.4874 Y-155.8741 F12000.0
G1 X122.8284 Y-151.0137 F12000.0
G1 Z0.0000 F8000.0
G0 X124.8055 Y-151.0137 F15000.0
G1 Z11.9000 F8000.0
G1 X102.1510 Y-151.0137 F12000.0
G1 Z0.0000 F8000.0
G0 X98.0320 Y-151.0137 F15000.0
G1 Z11.9000 F8000.0
G1 X102.1510 Y-155.1327 F12000.0
G1 Z0.0000 F8000.0
G0 X102.1510 Y-155.8741 F15000.0
G1 Z11.9000 F8000.0
G1 X81.7208 Y-155.8741 F12000.0
G1 X79.7437 Y-155.8741 F12000.0
G1 X79.7437 Y-137.8330 F12000.0
G1 Z0.0000 F8000.0
G0 X79.7437 Y-139.8101 F15000.0
G1 Z11.9000 F8000.0
G1 X74.8833 Y-140.4691 F12000.0
G1 X75.3776 Y-139.8101 F12000.0
G1 X74.8833 Y-139.1510 F12000.0
G1 X79.7437 Y-139.8101 F12000.0
G1 X72.9886 Y-139.8101 F12000.0
G1 Z0.0000 F8000.0
G0 X76.6285 Y-140.1396 F15000.0
G1 Z11.9000 F8000.0
G1 X77.5042 Y-140.1396 F12000.0
G1 Z0.0000 F8000.0
G0 X77.7925 Y-139.5217 F15000.0
G1 Z11.9000 F8000.0
G1 X76.9169 Y-139.5217 F12000.0
G1 Z0.0000 F8000.0
G0 X79.7437 Y-139.8101 F15000.0
G1 Z11.9000 F8000.0
G1 X81.7208 Y-139.8101 F12000.0
G1 X86.5812 Y-139.1510 F12000.0
G1 X86.0870 Y-139.8101 F12000.0
G1 X86.5812 Y-140.4691 F12000.0
G1 X81.7208 Y-139.8101 F12000.0
G1 X88.5584 Y-139.8101 F12000.0
G1 Z0.0000 F8000.0
G0 X87.7094 Y-142.4412 F15000.0
G1 Z11.9000 F8000.0
G1 X86.0730 Y-142.5296 F12000.0
G1 Z0.0000 F8000.0
G0 X85.7634 Y-142.3970 F15000.0
G1 Z11.9000 F8000.0
G1 X86.0730 Y-142.5296 F12000.0
G1 X89.0362 Y-145.7140
G1 X89.1689 Y-146.4216
G1 Z0.0000 F8000.0
G0 X88.7266 Y-146.9081 F15000.0
G1 Z11.9000 F8000.0
G1 X87.9747 Y-146.8196 F12000.0
G1 X87.4882 Y-146.5543
G1 X87.2229 Y-146.2889
G1 Z0.0000 F8000.0
G0 X85.6751 Y-151.0137 F15000.0
G1 Z11.9000 F8000.0
G1 X92.5126 Y-157.8513 F12000.0
G1 Z0.0000 F8000.0
G0 X96.6316 Y-157.8513 F15000.0
G1 Z11.9000 F8000.0
G1 X89.7941 Y-151.0137 F12000.0
G1 Z0.0000 F8000.0
G0 X93.9130 Y-151.0137 F15000.0
G1 Z11.9000 F8000.0
G1 X100.4211 Y-157.6041 F12000.0
G1 Z0.0000 F8000.0
G0 X100.1739 Y-157.8513 F15000.0
G1 Z11.9000 F8000.0
G1 X102.1510 Y-155.8741 F12000.0
G1 X115.4966 Y-155.8741 F12000.0
G1 Z0.0000 F8000.0
G0 X113.5194 Y-155.8741 F15000.0
G1 Z11.9000 F8000.0
G1 X112.8604 Y-160.7346 F12000.0
G1 X113.5194 Y-160.3227 F12000.0
G1 X114.1785 Y-160.7346 F12000.0
G1 X113.5194 Y-155.8741 F12000.0
G1 X113.5194 Y-180.7529 F12000.0
G1 Z0.0000 F8000.0
G0 X115.6778 Y-177.5260 F15000.0
G1 Z11.9000 F8000.0
G1 X115.8105 Y-177.2164 F12000.0
G1 Z0.0000 F8000.0
G0 X115.9874 Y-176.8626 F15000.0
G1 Z11.9000 F8000.0
G1 X116.1201 Y-176.6857 F12000.0
G1 Z0.0000 F8000.0
G0 X116.8277 Y-175.9781 F15000.0
G1 Z11.9000 F8000.0
G1 X117.6238 Y-175.5358 F12000.0
G1 X117.9334 Y-177.1722
G1 Z0.0000 F8000.0
G0 X118.1103 Y-177.2606 F15000.0
G1 Z11.9000 F8000.0
G1 X118.5083 Y-177.2164 F12000.0
G1 X119.4371 Y-176.8626
G1 X119.9236 Y-176.4203
G1 Z0.0000 F8000.0
G0 X120.0120 Y-176.2434 F15000.0
G1 Z11.9000 F8000.0
G1 X120.0563 Y-175.0935 F12000.0
G1 Z0.0000 F8000.0
G0 X119.9678 Y-174.9608 F15000.0
G1 Z11.9000 F8000.0
G1 X119.7467 Y-174.8282 F12000.0
G1 X117.8449 Y-175.3589
G1 Z0.0000 F8000.0
G0 X118.0400 Y-173.7624 F15000.0
G1 Z11.9000 F8000.0
G1 X119.0572 Y-173.4528 F12000.0
G1 X119.1014 Y-173.2759
G1 Z0.0000 F8000.0
G0 X119.1014 Y-173.4970 F15000.0
G1 Z11.9000 F8000.0
G1 X119.1014 Y-173.9393 F12000.0
G1 Z0.0000 F8000.0
G0 X120.1186 Y-172.9221 F15000.0
G1 Z11.9000 F8000.0
G1 X119.8091 Y-173.0548 F12000.0
G1 X119.1014 Y-173.1875
G1 X119.0130 Y-172.1260
G1 X118.4823 Y-172.3029
G1 X115.9171 Y-173.7624
G1 Z0.0000 F8000.0
G0 X115.6075 Y-171.9049 F15000.0
G1 Z11.9000 F8000.0
G1 X115.9171 Y-171.6837 F12000.0
G1 Z0.0000 F8000.0
G0 X116.2709 Y-171.4626 F15000.0
G1 Z11.9000 F8000.0
G1 X118.4823 Y-169.9589 F12000.0
G1 Z0.0000 F8000.0
G0 X118.8361 Y-169.7378 F15000.0
G1 Z11.9000 F8000.0
G1 X119.0572 Y-169.6935 F12000.0
G1 X118.7034 Y-170.9761
G1 Z0.0000 F8000.0
G0 X118.5265 Y-171.1972 F15000.0
G1 Z11.9000 F8000.0
G1 X118.3053 Y-171.4184 F12000.0
G1 Z0.0000 F8000.0
G0 X118.0400 Y-171.5511 F15000.0
G1 Z11.9000 F8000.0
G1 X117.1112 Y-171.5953 F12000.0
G1 X116.8459 Y-171.4184
G1 Z0.0000 F8000.0
G0 X116.6690 Y-171.0646 F15000.0
G1 Z11.9000 F8000.0
G1 X116.6690 Y-170.5338 F12000.0
G1 X116.8459 Y-170.1358
G1 Z0.0000 F8000.0
G0 X117.0228 Y-169.8262 F15000.0
G1 Z11.9000 F8000.0
G1 X117.3766 Y-169.4724 F12000.0
G1 Z0.0000 F8000.0
G0 X117.6419 Y-169.2955 F15000.0
G1 Z11.9000 F8000.0
G1 X118.5265 Y-169.1186 F12000.0
G1 Z0.0000 F8000.0
G0 X118.8803 Y-169.3397 F15000.0
G1 Z11.9000 F8000.0
G1 X118.9688 Y-169.4282 F12000.0
G1 X119.4552 Y-169.2955
G1 Z0.0000 F8000.0
G0 X119.9860 Y-168.9417 F15000.0
G1 Z11.9000 F8000.0
G1 X120.1186 Y-168.8532 F12000.0
G1 Z0.0000 F8000.0
G0 X126.9474 Y-173.4210 F15000.0
G1 Z11.9000 F8000.0
G1 X133.9497 Y-173.4210 F12000.0
G1 Z0.0000 F8000.0
G0 X135.4325 Y-173.4210 F15000.0
G1 Z11.9000 F8000.0
G1 X136.8329 Y-173.4210 F12000.0
G1 Z0.0000 F8000.0
G0 X138.3158 Y-173.4210 F15000.0
G1 Z11.9000 F8000.0
G1 X145.3181 Y-173.4210 F12000.0
G1 Z0.0000 F8000.0
G0 X146.8009 Y-173.4210 F15000.0
G1 Z11.9000 F8000.0
G1 X148.2014 Y-173.4210 F12000.0
G1 Z0.0000 F8000.0
G0 X149.2723 Y-173.4210 F15000.0
G1 Z11.9000 F8000.0
G1 X134.1968 Y-158.2632 F12000.0
G1 Z0.0000 F8000.0
G0 X133.6201 Y-159.0046 F15000.0
G1 Z11.9000 F8000.0
G1 X132.0549 Y-161.3936 F12000.0
G1 X130.8192 Y-163.8650 F12000.0
G1 X130.8192 Y-182.9771 F12000.0
G1 Z0.0000 F8000.0
G0 X130.9016 Y-183.1419 F15000.0
G1 Z11.9000 F8000.0
G1 X132.1373 Y-185.6956 F12000.0
G1 X133.7025 Y-188.0023 F12000.0
G1 X135.5972 Y-190.1442 F12000.0
G1 X137.6567 Y-192.1213 F12000.0
G1 X139.8810 Y-193.7689 F12000.0
G1 X142.3524 Y-195.1693 F12000.0
G1 X144.9886 Y-196.3226 F12000.0
G1 X147.7071 Y-197.1464 F12000.0
G1 X150.5080 Y-197.5583 F12000.0
G1 X153.3089 Y-197.7231 F12000.0
G1 X156.1098 Y-197.5583 F12000.0
G1 X158.9107 Y-197.0641 F12000.0
G1 X161.6293 Y-196.2403 F12000.0
G1 X164.1831 Y-195.0869 F12000.0
G1 X166.6545 Y-193.6865 F12000.0
G1 X168.8787 Y-191.9565 F12000.0
G1 X170.9382 Y-190.0618 F12000.0
G1 X172.7506 Y-187.8375 F12000.0
G1 X174.3158 Y-185.4485 F12000.0
G1 X175.5515 Y-182.9771 F12000.0
G1 X175.5515 Y-163.8650 F12000.0
G1 X175.5515 Y-136.8444 F12000.0
G1 Z0.0000 F8000.0
G0 X175.5515 Y-138.8215 F15000.0
G1 Z11.9000 F8000.0
G1 X170.6911 Y-138.1625 F12000.0
G1 X171.1853 Y-138.8215 F12000.0
G1 X170.6911 Y-139.3982 F12000.0
G1 X175.5515 Y-138.8215 F12000.0
G1 X149.2723 Y-138.8215 F12000.0
G1 Z0.0000 F8000.0
G0 X153.2265 Y-147.1419 F15000.0
G1 Z11.9000 F8000.0
G1 X153.2265 Y-154.1442 F12000.0
G1 Z0.0000 F8000.0
G0 X153.2265 Y-155.6270 F15000.0
G1 Z11.9000 F8000.0
G1 X153.2265 Y-157.1098 F12000.0
G1 Z0.0000 F8000.0
G0 X153.2265 Y-158.5103 F15000.0
G1 Z11.9000 F8000.0
G1 X153.2265 Y-165.5126 F12000.0
G1 Z0.0000 F8000.0
G0 X153.2265 Y-166.9954 F15000.0
G1 Z11.9000 F8000.0
G1 X153.2265 Y-168.4783 F12000.0
G1 Z0.0000 F8000.0
G0 X152.9794 Y-169.5492 F15000.0
G1 Z11.9000 F8000.0
G1 X151.9085 Y-169.7963 F12000.0
G1 X150.9199 Y-170.2906 F12000.0
G1 X150.0961 Y-171.1144 F12000.0
G1 X149.5194 Y-172.1030 F12000.0
G1 X149.3547 Y-173.1739 F12000.0
G1 X149.4371 Y-174.3272 F12000.0
G1 X149.8490 Y-175.3158 F12000.0
G1 X150.5080 Y-176.2220 F12000.0
G1 X151.4142 Y-176.8810 F12000.0
G1 X152.4851 Y-177.2929 F12000.0
G1 X153.6384 Y-177.2929 F12000.0
G1 X154.7094 Y-176.9634 F12000.0
G1 X155.6979 Y-176.3867 F12000.0
G1 X156.4393 Y-175.5629 F12000.0
G1 X156.9336 Y-174.5744 F12000.0
G1 X157.0984 Y-173.4210 F12000.0
G1 X157.0160 Y-172.7620 F12000.0
G1 X156.6865 Y-171.6911 F12000.0
G1 X156.0275 Y-170.7849 F12000.0
G1 X155.2037 Y-170.0435 F12000.0
G1 X154.1327 Y-169.6316 F12000.0
G1 X152.9794 Y-169.5492 F12000.0
G1 Z0.0000 F8000.0
G0 X153.2265 Y-169.8787 F15000.0
G1 Z11.9000 F8000.0
G1 X153.2265 Y-173.4210 F12000.0
G1 X153.2265 Y-176.9634 F12000.0
G1 Z0.0000 F8000.0
G0 X153.2265 Y-177.2929 F15000.0
G1 Z11.9000 F8000.0
G1 X168.3844 Y-192.4508 F12000.0
G1 Z0.0000 F8000.0
G0 X170.5263 Y-190.4737 F15000.0
G1 Z11.9000 F8000.0
G1 X156.1098 Y-176.0572 F12000.0
G1 Z0.0000 F8000.0
G0 X154.9565 Y-176.8810 F15000.0
G1 Z11.9000 F8000.0
G1 X157.6750 Y-181.0000 F12000.0
G1 X156.8512 Y-180.8352 F12000.0
G1 X156.5217 Y-181.5767 F12000.0
G1 X154.9565 Y-176.8810 F12000.0
G1 X157.9222 Y-183.0595 F12000.0
G1 Z0.0000 F8000.0
G0 X155.9863 Y-179.8314 F15000.0
G1 Z11.9000 F8000.0
G1 X155.9863 Y-178.9557 F12000.0
G1 Z0.0000 F8000.0
G0 X156.0576 Y-179.4046 F15000.0
G1 Z11.9000 F8000.0
G1 X156.7387 Y-178.7235 F12000.0
G1 Z0.0000 F8000.0
G0 X154.9565 Y-176.8810 F15000.0
G1 Z11.9000 F8000.0
G1 X151.4966 Y-169.9611 F12000.0
G1 X136.0915 Y-138.8215 F12000.0
G1 X124.0641 Y-138.8215 F12000.0
G1 Z0.0000 F8000.0
G0 X126.9761 Y-141.4383 F15000.0
G1 Z11.9000 F8000.0
G1 X127.1530 Y-141.6152 F12000.0
G1 Z0.0000 F8000.0
G0 X127.3741 Y-141.9690 F15000.0
G1 Z11.9000 F8000.0
G1 X127.6837 Y-142.4997 F12000.0
G1 X127.2857 Y-143.1189
G1 X127.4626 Y-143.9150
G1 X127.9048 Y-144.4899
G1 X128.3029 Y-144.7553
G1 X128.8336 Y-144.9322
G1 X129.3201 Y-144.9322
G1 X129.5855 Y-144.7995
G1 X129.8066 Y-144.4899
G1 X129.8508 Y-143.9150
G1 X129.5855 Y-143.2958
G1 Z0.0000 F8000.0
G0 X129.3643 Y-143.0747 F15000.0
G1 Z11.9000 F8000.0
G1 X127.9491 Y-142.5440 F12000.0
G1 Z0.0000 F8000.0
G0 X127.9491 Y-142.6766 F15000.0
G1 Z11.9000 F8000.0
G1 X129.0105 Y-144.3573 F12000.0
G1 Z0.0000 F8000.0
G0 X129.4970 Y-144.9764 F15000.0
G1 Z11.9000 F8000.0
G1 X129.6297 Y-145.2860 F12000.0
G1 Z0.0000 F8000.0
G0 X129.8066 Y-145.5514 F15000.0
G1 Z11.9000 F8000.0
G1 X130.0277 Y-145.8610 F12000.0
G1 Z0.0000 F8000.0
G0 X131.3103 Y-145.2418 F15000.0
G1 Z11.9000 F8000.0
G1 X131.0892 Y-144.6226 F12000.0
G1 X131.2661 Y-144.0034
G1 Z0.0000 F8000.0
G0 X131.0449 Y-143.7823 F15000.0
G1 Z11.9000 F8000.0
G1 X131.2218 Y-143.9150 F12000.0
G1 X132.1948 Y-143.9592
G1 X132.5929 Y-144.3130
G1 Z0.0000 F8000.0
G0 X132.7698 Y-144.5342 F15000.0
G1 Z11.9000 F8000.0
G1 X132.9467 Y-144.9764 F12000.0
G1 X132.9909 Y-145.6841
G1 Z0.0000 F8000.0
G0 X132.8140 Y-145.9052 F15000.0
G1 Z11.9000 F8000.0
G1 X132.1506 Y-145.9494 F12000.0
G1 Z0.0000 F8000.0
G0 X132.2391 Y-143.9150 F15000.0
G1 Z11.9000 F8000.0
G1 X132.4602 Y-143.5169 F12000.0
G1 X132.1948 Y-142.4113
G1 X132.0179 Y-142.0132
G1 Z0.0000 F8000.0
G0 X131.7083 Y-141.7479 F15000.0
G1 Z11.9000 F8000.0
G1 X131.6199 Y-141.6594 F12000.0
G1 Z0.0000 F8000.0
G0 X131.4430 Y-141.5710 F15000.0
G1 Z11.9000 F8000.0
G1 X130.3373 Y-141.5710 F12000.0
G1 Z0.0000 F8000.0
G0 X130.2046 Y-141.6594 F15000.0
G1 Z11.9000 F8000.0
G1 X130.1162 Y-142.4997 F12000.0
G1 X130.4258 Y-143.2074
G1 Z0.0000 F8000.0
G0 X130.6469 Y-143.4727 F15000.0
G1 Z11.9000 F8000.0
G1 X130.7796 Y-143.6054 F12000.0
G1 Z0.0000 F8000.0
G0 X123.1579 Y-153.0473 F15000.0
G1 Z11.9000 F8000.0
G1 X123.1579 Y-153.9230 F12000.0
G1 Z0.0000 F8000.0
G0 X122.5400 Y-154.2113 F15000.0
G1 Z11.9000 F8000.0
G1 X122.5400 Y-153.3356 F12000.0
G1 Z0.0000 F8000.0
G0 X113.8490 Y-157.9077 F15000.0
G1 Z11.9000 F8000.0
G1 X113.8490 Y-158.7834 F12000.0
G1 Z0.0000 F8000.0
G0 X113.2311 Y-159.0717 F15000.0
G1 Z11.9000 F8000.0
G1 X113.2311 Y-158.1960 F12000.0
G1 Z0.0000 F8000.0
G0 X110.7372 Y-163.3020 F15000.0
G1 Z11.9000 F8000.0
G1 X108.3047 Y-164.1865 F12000.0
G1 Z0.0000 F8000.0
G0 X107.9509 Y-164.3192 F15000.0
G1 Z11.9000 F8000.0
G1 X107.8182 Y-164.3635 F12000.0
G1 Z0.0000 F8000.0
G0 X107.3317 Y-164.5404 F15000.0
G1 Z11.9000 F8000.0
G1 X106.9337 Y-164.5404 F12000.0
G1 X107.0221 Y-164.2750
G1 Z0.0000 F8000.0
G0 X107.3317 Y-163.9654 F15000.0
G1 Z11.9000 F8000.0
G1 X107.8182 Y-163.4789 F12000.0
G1 Z0.0000 F8000.0
G0 X108.3047 Y-162.9482 F15000.0
G1 Z11.9000 F8000.0
G1 X108.3932 Y-162.6828 F12000.0
G1 Z0.0000 F8000.0
G0 X108.6143 Y-162.5944 F15000.0
G1 Z11.9000 F8000.0
G1 X108.3489 Y-162.6386 F12000.0
G1 X106.8010 Y-162.1963
G1 X106.4030 Y-162.1963
G1 Z0.0000 F8000.0
G0 X106.8452 Y-162.1521 F15000.0
G1 Z11.9000 F8000.0
G1 X107.0221 Y-161.9310 F12000.0
G1 Z0.0000 F8000.0
G0 X106.4472 Y-164.8500 F15000.0
G1 Z11.9000 F8000.0
G1 X106.3145 Y-164.9384 F12000.0
G1 Z0.0000 F8000.0
G0 X106.4914 Y-165.6018 F15000.0
G1 Z11.9000 F8000.0
G1 X106.4472 Y-166.7517 F12000.0
G1 Z0.0000 F8000.0
G0 X106.6241 Y-166.9286 F15000.0
G1 Z11.9000 F8000.0
G1 X106.9337 Y-167.0171 F12000.0
G1 X107.9509 Y-166.6190
G1 X108.3932 Y-166.1768
G1 X108.5701 Y-165.5576
G1 Z0.0000 F8000.0
G0 X108.7028 Y-166.3094 F15000.0
G1 Z11.9000 F8000.0
G1 X109.1892 Y-166.4421 F12000.0
G1 X110.3834 Y-165.9114
G1 X110.6045 Y-165.6460
G1 X111.0025 Y-163.9654
G1 Z0.0000 F8000.0
G0 X110.6487 Y-167.0171 F15000.0
G1 Z11.9000 F8000.0
G1 X110.5161 Y-166.9286 F12000.0
G1 X109.5431 Y-167.1497
G1 Z0.0000 F8000.0
G0 X109.1892 Y-167.2824 F15000.0
G1 Z11.9000 F8000.0
G1 X108.4816 Y-167.5478 F12000.0
G1 X108.3932 Y-167.6805
G1 Z0.0000 F8000.0
G0 X107.5529 Y-168.1227 F15000.0
G1 Z11.9000 F8000.0
G1 X108.3932 Y-167.6805 F12000.0
G1 X109.1450 Y-169.3611
G1 X110.2949 Y-168.9188
G1 X110.5603 Y-168.6535
G1 Z0.0000 F8000.0
G0 X110.7372 Y-168.3881 F15000.0
G1 Z11.9000 F8000.0
G1 X110.8699 Y-167.5036 F12000.0
G1 X110.8256 Y-167.2382
G1 Z0.0000 F8000.0
G0 X110.9141 Y-170.9090 F15000.0
G1 Z11.9000 F8000.0
G1 X110.7814 Y-169.7149 F12000.0
G1 X106.3145 Y-171.3513
G1 Z0.0000 F8000.0
G0 X106.3587 Y-169.7149 F15000.0
G1 Z11.9000 F8000.0
G1 X106.5799 Y-169.2726 F12000.0
G1 Z0.0000 F8000.0
G0 X106.8010 Y-168.8746 F15000.0
G1 Z11.9000 F8000.0
G1 X106.8895 Y-168.7861 F12000.0
G1 Z0.0000 F8000.0
G0 X108.4526 Y-172.9703 F15000.0
G1 Z11.9000 F8000.0
G1 X108.4526 Y-174.7836 F12000.0
G1 Z0.0000 F8000.0
G0 X106.6836 Y-175.5797 F15000.0
G1 Z11.9000 F8000.0
G1 X110.9293 Y-174.0318 F12000.0
G1 Z0.0000 F8000.0
G0 X110.0006 Y-172.2627 F15000.0
G1 Z11.9000 F8000.0
G1 X110.8851 Y-171.9531 F12000.0
G1 Z0.0000 F8000.0
G0 X109.4256 Y-172.4838 F15000.0
G1 Z11.9000 F8000.0
G1 X108.4084 Y-172.9261 F12000.0
G1 X106.4624 Y-173.5895
G1 Z0.0000 F8000.0
G0 X105.0343 Y-173.4210 F15000.0
G1 Z11.9000 F8000.0
G1 X90.0412 Y-173.4210 F12000.0
G1 Z0.0000 F8000.0
G0 X88.5584 Y-173.4210 F15000.0
G1 Z11.9000 F8000.0
G1 X87.0755 Y-173.4210 F12000.0
G1 Z0.0000 F8000.0
G0 X85.5927 Y-173.4210 F15000.0
G1 Z11.9000 F8000.0
G1 X70.6819 Y-173.4210 F12000.0
G1 Z0.0000 F8000.0
G0 X69.1991 Y-173.4210 F15000.0
G1 Z11.9000 F8000.0
G1 X67.7163 Y-173.4210 F12000.0
G1 Z0.0000 F8000.0
G0 X67.3867 Y-173.4210 F15000.0
G1 Z11.9000 F8000.0
G1 X77.8490 Y-182.9771 F12000.0
G1 X56.4302 Y-182.9771 F12000.0
G1 X67.3867 Y-173.4210 F12000.0
G1 Z0.0000 F8000.0
G0 X66.2334 Y-173.4210 F15000.0
G1 Z11.9000 F8000.0
G1 X51.3227 Y-173.4210 F12000.0
G1 Z0.0000 F8000.0
G0 X52.5584 Y-173.4210 F15000.0
G1 Z11.9000 F8000.0
G1 X52.5584 Y-188.0023 F12000.0
G1 X45.6385 Y-188.0023 F12000.0
G1 Z0.0000 F8000.0
G0 X47.2861 Y-185.7216 F15000.0
G1 Z11.9000 F8000.0
G1 X47.2861 Y-184.8459 F12000.0
G1 Z0.0000 F8000.0
G0 X47.8627 Y-185.1754 F15000.0
G1 Z11.9000 F8000.0
G1 X47.8627 Y-186.0511 F12000.0
G1 Z0.0000 F8000.0
G0 X52.5584 Y-188.9908 F15000.0
G1 Z11.9000 F8000.0
G1 X14.5813 Y-188.9908 F12000.0
G1 X14.5813 Y-157.8513 F12000.0
G1 X14.5813 Y-113.6957 F12000.0
G1 Z0.0000 F8000.0
G0 X52.8055 Y-100.7620 F15000.0
G1 Z11.9000 F8000.0
G1 X67.3867 Y-100.7620 F12000.0
G1 X60.1373 Y-99.7735 F12000.0
G1 X60.8787 Y-100.7620 F12000.0
G1 X60.1373 Y-101.7506 F12000.0
G1 X67.3867 Y-100.7620 F12000.0
G1 Z0.0000 F8000.0
G0 X66.2334 Y-100.5973 F15000.0
G1 Z11.9000 F8000.0
G1 X60.7963 Y-100.5973 F12000.0
G1 Z0.0000 F8000.0
G0 X60.6316 Y-100.4325 F15000.0
G1 Z11.9000 F8000.0
G1 X64.9977 Y-100.4325 F12000.0
G1 Z0.0000 F8000.0
G0 X64.9977 Y-101.0915 F15000.0
G1 Z11.9000 F8000.0
G1 X60.6316 Y-101.0915 F12000.0
G1 Z0.0000 F8000.0
G0 X60.5492 Y-101.2563 F15000.0
G1 Z11.9000 F8000.0
G1 X63.7620 Y-101.2563 F12000.0
G1 Z0.0000 F8000.0
G0 X63.7620 Y-100.2677 F15000.0
G1 Z11.9000 F8000.0
G1 X60.5492 Y-100.2677 F12000.0
G1 Z0.0000 F8000.0
G0 X60.3844 Y-100.1030 F15000.0
G1 Z11.9000 F8000.0
G1 X62.6087 Y-100.1030 F12000.0
G1 Z0.0000 F8000.0
G0 X61.3730 Y-99.9382 F15000.0
G1 Z11.9000 F8000.0
G1 X60.3021 Y-99.9382 F12000.0
G1 Z0.0000 F8000.0
G0 X60.2197 Y-99.8558 F15000.0
G1 Z11.9000 F8000.0
G1 X60.7963 Y-99.8558 F12000.0
G1 Z0.0000 F8000.0
G0 X60.7963 Y-100.9268 F15000.0
G1 Z11.9000 F8000.0
G1 X66.2334 Y-100.9268 F12000.0
G1 Z0.0000 F8000.0
G0 X67.3867 Y-97.8787 F15000.0
G1 Z11.9000 F8000.0
G1 X67.3867 Y-109.4943 F12000.0
G1 Z0.0000 F8000.0
G0 X62.6087 Y-101.4211 F15000.0
G1 Z11.9000 F8000.0
G1 X60.3844 Y-101.4211 F12000.0
G1 Z0.0000 F8000.0
G0 X60.3021 Y-101.5858 F15000.0
G1 Z11.9000 F8000.0
G1 X61.3730 Y-101.5858 F12000.0
G1 Z0.0000 F8000.0
G0 X60.7963 Y-101.6682 F15000.0
G1 Z11.9000 F8000.0
G1 X60.2197 Y-101.6682 F12000.0
G1 Z0.0000 F8000.0
G0 X56.4431 Y-99.1082 F15000.0
G1 Z11.9000 F8000.0
G1 X56.4431 Y-98.4005 F12000.0
G1 X56.7527 Y-98.1794
G1 Z0.0000 F8000.0
G0 X56.8412 Y-97.9140 F15000.0
G1 Z11.9000 F8000.0
G1 X57.9911 Y-93.0049 F12000.0
G1 X54.8510 Y-93.0491
G1 X55.4701 Y-95.6142
G1 Z0.0000 F8000.0
G0 X55.5586 Y-95.8796 F15000.0
G1 Z11.9000 F8000.0
G1 X56.0451 Y-97.7371 F12000.0
G1 Z0.0000 F8000.0
G0 X56.1335 Y-98.0025 F15000.0
G1 Z11.9000 F8000.0
G1 X56.1778 Y-98.1794 F12000.0
G1 Z0.0000 F8000.0
G0 X58.0353 Y-93.0049 F15000.0
G1 Z11.9000 F8000.0
G1 X58.3006 Y-92.3857 F12000.0
G1 Z0.0000 F8000.0
G0 X58.3891 Y-92.1203 F15000.0
G1 Z11.9000 F8000.0
G1 X58.4776 Y-91.7223 F12000.0
G1 Z0.0000 F8000.0
G0 X58.6102 Y-91.2800 F15000.0
G1 Z11.9000 F8000.0
G1 X58.6545 Y-91.0589 F12000.0
G1 Z0.0000 F8000.0
G0 X58.7871 Y-90.6166 F15000.0
G1 Z11.9000 F8000.0
G1 X58.9198 Y-90.2628 F12000.0
G1 Z0.0000 F8000.0
G0 X54.3202 Y-91.2800 F15000.0
G1 Z11.9000 F8000.0
G1 X54.4087 Y-91.6781 F12000.0
G1 Z0.0000 F8000.0
G0 X54.4971 Y-91.9434 F15000.0
G1 Z11.9000 F8000.0
G1 X54.5414 Y-92.1646 F12000.0
G1 Z0.0000 F8000.0
G0 X54.6298 Y-92.4299 F15000.0
G1 Z11.9000 F8000.0
G1 X54.6740 Y-92.6510 F12000.0
G1 Z0.0000 F8000.0
G0 X54.2318 Y-91.0147 F15000.0
G1 Z11.9000 F8000.0
G1 X54.1876 Y-90.7935 F12000.0
G1 Z0.0000 F8000.0
G0 X54.0991 Y-90.5282 F15000.0
G1 Z11.9000 F8000.0
G1 X54.0549 Y-90.3070 F12000.0
G1 Z0.0000 F8000.0
G0 X55.7222 Y-118.3360 F15000.0
G1 Z11.9000 F8000.0
G1 X56.0317 Y-118.5129 F12000.0
G1 Z0.0000 F8000.0
G0 X56.8278 Y-119.0436 F15000.0
G1 Z11.9000 F8000.0
G1 X56.9163 Y-119.1321 F12000.0
G1 Z0.0000 F8000.0
G0 X57.2259 Y-119.4859 F15000.0
G1 Z11.9000 F8000.0
G1 X57.6239 Y-120.0166 F12000.0
G1 X57.6239 Y-120.3704
G1 X56.1644 Y-120.5473
G1 Z0.0000 F8000.0
G0 X56.0760 Y-120.6358 F15000.0
G1 Z11.9000 F8000.0
G1 X56.0760 Y-121.3877 F12000.0
G1 X56.3856 Y-122.1395
G1 Z0.0000 F8000.0
G0 X56.6067 Y-122.4049 F15000.0
G1 Z11.9000 F8000.0
G1 X56.6951 Y-122.4933 F12000.0
G1 Z0.0000 F8000.0
G0 X57.0490 Y-122.7145 F15000.0
G1 Z11.9000 F8000.0
G1 X58.1104 Y-122.7587 F12000.0
G1 X58.3758 Y-122.4933
G1 X58.1546 Y-121.3434
G1 X57.8893 Y-120.5473
G1 Z0.0000 F8000.0
G0 X58.2873 Y-118.5571 F15000.0
G1 Z11.9000 F8000.0
G1 X58.2873 Y-119.3975 F12000.0
G1 X59.3930 Y-122.1837
G1 X59.9237 Y-122.6702
G1 X61.0736 Y-122.7587
G1 Z0.0000 F8000.0
G0 X61.3832 Y-122.4049 F15000.0
G1 Z11.9000 F8000.0
G1 X60.5871 Y-119.8839 F12000.0
G1 Z0.0000 F8000.0
G0 X60.4544 Y-119.5301 F15000.0
G1 Z11.9000 F8000.0
G1 X60.1891 Y-118.8667 F12000.0
G1 X59.7468 Y-118.4687
G1 X59.3930 Y-118.3360
G1 X58.4642 Y-118.3802
G1 Z0.0000 F8000.0
G0 X54.4790 Y-130.0481 F15000.0
G1 Z11.9000 F8000.0
G1 X53.6034 Y-130.0481 F12000.0
G1 Z0.0000 F8000.0
G0 X53.3150 Y-130.6659 F15000.0
G1 Z11.9000 F8000.0
G1 X54.1907 Y-130.6659 F12000.0
G1 Z0.0000 F8000.0
G0 X63.1030 Y-149.1190 F15000.0
G1 Z11.9000 F8000.0
G1 X79.7437 Y-165.7597 F12000.0
G1 Z0.0000 F8000.0
G0 X79.7437 Y-161.6407 F15000.0
G1 Z11.9000 F8000.0
G1 X67.2220 Y-149.1190 F12000.0
G1 Z0.0000 F8000.0
G0 X71.3410 Y-149.1190 F15000.0
G1 Z11.9000 F8000.0
G1 X79.7437 Y-157.5217 F12000.0
G1 Z0.0000 F8000.0
G0 X79.7437 Y-155.8741 F15000.0
G1 Z11.9000 F8000.0
G1 X79.7437 Y-205.5492 F12000.0
G1 Z0.0000 F8000.0
G0 X79.7437 Y-203.5721 F15000.0
G1 Z11.9000 F8000.0
G1 X84.6041 Y-204.2311 F12000.0
G1 X84.1098 Y-203.5721 F12000.0
G1 X84.6041 Y-202.9130 F12000.0
G1 X79.7437 Y-203.5721 F12000.0
G1 X102.1510 Y-203.5721 F12000.0
G1 X97.2906 Y-202.9130 F12000.0
G1 X97.7849 Y-203.5721 F12000.0
G1 X97.2906 Y-204.2311 F12000.0
G1 X102.1510 Y-203.5721 F12000.0
G1 Z0.0000 F8000.0
G0 X100.1999 Y-203.2837 F15000.0
G1 Z11.9000 F8000.0
G1 X99.3242 Y-203.2837 F12000.0
G1 Z0.0000 F8000.0
G0 X99.0358 Y-203.9016 F15000.0
G1 Z11.9000 F8000.0
G1 X99.9115 Y-203.9016 F12000.0
G1 Z0.0000 F8000.0
G0 X102.1510 Y-205.5492 F15000.0
G1 Z11.9000 F8000.0
G1 X102.1510 Y-155.8741 F12000.0
G1 X102.1510 Y-128.3593 F12000.0
G1 Z0.0000 F8000.0
G0 X102.1510 Y-130.3364 F15000.0
G1 Z11.9000 F8000.0
G1 X107.0114 Y-129.6773 F12000.0
G1 X106.5172 Y-130.3364 F12000.0
G1 X107.0114 Y-130.9954 F12000.0
G1 X102.1510 Y-130.3364 F12000.0
G1 X108.9886 Y-130.3364 F12000.0
G1 Z0.0000 F8000.0
G0 X108.2200 Y-133.0397 F15000.0
G1 Z11.9000 F8000.0
G1 X106.5836 Y-133.1281 F12000.0
G1 Z0.0000 F8000.0
G0 X106.2740 Y-132.9954 F15000.0
G1 Z11.9000 F8000.0
G1 X106.5836 Y-133.1281 F12000.0
G1 X109.5468 Y-136.3125
G1 X109.6795 Y-137.0201
G1 Z0.0000 F8000.0
G0 X109.2372 Y-137.5066 F15000.0
G1 Z11.9000 F8000.0
G1 X108.4854 Y-137.4181 F12000.0
G1 X107.9989 Y-137.1528
G1 X107.7335 Y-136.8874
G1 Z0.0000 F8000.0
G0 X110.1218 Y-135.2068 F15000.0
G1 Z11.9000 F8000.0
G1 X110.8294 Y-134.1011 F12000.0
G1 Z0.0000 F8000.0
G0 X110.3871 Y-134.4107 F15000.0
G1 Z11.9000 F8000.0
G1 X110.2545 Y-134.3665 F12000.0
G1 Z0.0000 F8000.0
G0 X109.8564 Y-134.1011 F15000.0
G1 Z11.9000 F8000.0
G1 X109.5026 Y-133.8358 F12000.0
G1 Z0.0000 F8000.0
G0 X111.0063 Y-134.8972 F15000.0
G1 Z11.9000 F8000.0
G1 X111.7582 Y-135.4279 F12000.0
G1 X111.8024 Y-135.5606
G1 Z0.0000 F8000.0
G0 X112.8638 Y-135.6491 F15000.0
G1 Z11.9000 F8000.0
G1 X112.1562 Y-134.4107 F12000.0
G1 X113.3061 Y-134.0569
G1 X113.9695 Y-134.1011
G1 Z0.0000 F8000.0
G0 X113.7926 Y-135.1183 F15000.0
G1 Z11.9000 F8000.0
G1 X112.9965 Y-133.1724 F12000.0
G1 Z0.0000 F8000.0
G0 X114.4141 Y-132.9521 F15000.0
G1 Z11.9000 F8000.0
G1 X115.6082 Y-133.0847 F12000.0
G1 X116.1389 Y-133.3501
G1 X116.4485 Y-133.7039
G1 X116.7581 Y-134.4558
G1 X116.8023 Y-135.2076
G1 X116.6697 Y-135.3403
G1 X115.5198 Y-135.5615
G1 X116.0947 Y-137.2863
G1 X117.7753 Y-137.5517
G1 Z0.0000 F8000.0
G0 X118.5785 Y-137.0193 F15000.0
G1 Z11.9000 F8000.0
G1 X118.6227 Y-136.6213 F12000.0
G1 X119.0650 Y-136.5770
G1 X119.5957 Y-137.3731
G1 X119.4188 Y-137.5500
G1 X118.8881 Y-137.3731
G1 Z0.0000 F8000.0
G0 X113.9253 Y-137.5508 F15000.0
G1 Z11.9000 F8000.0
G1 X113.3503 Y-136.5336 F12000.0
G1 Z0.0000 F8000.0
G0 X105.3486 Y-130.6659 F15000.0
G1 Z11.9000 F8000.0
G1 X104.4729 Y-130.6659 F12000.0
G1 Z0.0000 F8000.0
G0 X104.1434 Y-130.0481 F15000.0
G1 Z11.9000 F8000.0
G1 X105.0191 Y-130.0481 F12000.0
G1 Z0.0000 F8000.0
G0 X103.7986 Y-130.3364 F15000.0
G1 Z11.9000 F8000.0
G1 X122.8284 Y-130.3364 F12000.0
G1 Z0.0000 F8000.0
G0 X102.1510 Y-130.3364 F15000.0
G1 Z11.9000 F8000.0
G1 X100.1739 Y-130.3364 F12000.0
G1 X95.3135 Y-130.9954 F12000.0
G1 X95.8078 Y-130.3364 F12000.0
G1 X95.3135 Y-129.6773 F12000.0
G1 X100.1739 Y-130.3364 F12000.0
G1 X93.4188 Y-130.3364 F12000.0
G1 Z0.0000 F8000.0
G0 X97.0587 Y-130.6659 F15000.0
G1 Z11.9000 F8000.0
G1 X97.9344 Y-130.6659 F12000.0
G1 Z0.0000 F8000.0
G0 X98.2227 Y-130.0481 F15000.0
G1 Z11.9000 F8000.0
G1 X97.3471 Y-130.0481 F12000.0
G1 Z0.0000 F8000.0
G0 X100.1739 Y-128.3593 F15000.0
G1 Z11.9000 F8000.0
G1 X100.1739 Y-157.8513 F12000.0
G1 X81.7208 Y-157.8513 F12000.0
G1 Z0.0000 F8000.0
G0 X81.7208 Y-157.3570 F15000.0
G1 Z11.9000 F8000.0
G1 X81.7208 Y-173.4210 F12000.0
G1 Z0.0000 F8000.0
G0 X77.8490 Y-173.4210 F15000.0
G1 Z11.9000 F8000.0
G1 X77.8490 Y-195.8284 F12000.0
G1 X77.8490 Y-214.3638 F12000.0
G1 Z0.0000 F8000.0
G0 X77.8490 Y-212.4691 F15000.0
G1 Z11.9000 F8000.0
G1 X82.7094 Y-213.1281 F12000.0
G1 X82.2151 Y-212.4691 F12000.0
G1 X82.7094 Y-211.8101 F12000.0
G1 X77.8490 Y-212.4691 F12000.0
G1 X102.1510 Y-212.4691 F12000.0
G1 X97.2906 Y-211.8101 F12000.0
G1 X97.7849 Y-212.4691 F12000.0
G1 X97.2906 Y-213.1281 F12000.0
G1 X102.1510 Y-212.4691 F12000.0
G1 Z0.0000 F8000.0
G0 X102.1510 Y-214.3638 F15000.0
G1 Z11.9000 F8000.0
G1 X102.1510 Y-195.8284 F12000.0
G1 Z0.0000 F8000.0
G0 X92.8528 Y-207.4233 F15000.0
G1 Z11.9000 F8000.0
G1 X92.5874 Y-206.8042 F12000.0
G1 X92.1894 Y-206.4503
G1 X90.8183 Y-206.2292
G1 Z0.0000 F8000.0
G0 X89.6684 Y-206.2292 F15000.0
G1 Z11.9000 F8000.0
G1 X88.0320 Y-206.3177 F12000.0
G1 Z0.0000 F8000.0
G0 X87.7224 Y-206.1850 F15000.0
G1 Z11.9000 F8000.0
G1 X88.0320 Y-206.3177 F12000.0
G1 X90.9952 Y-209.5020
G1 X91.1279 Y-210.2096
G1 Z0.0000 F8000.0
G0 X90.6856 Y-210.6961 F15000.0
G1 Z11.9000 F8000.0
G1 X89.9338 Y-210.6077 F12000.0
G1 X89.4473 Y-210.3423
G1 X89.1819 Y-210.0769
G1 Z0.0000 F8000.0
G0 X92.1451 Y-208.5732 F15000.0
G1 Z11.9000 F8000.0
G1 X92.7643 Y-208.6617 F12000.0
G1 X92.8970 Y-208.4848
G1 X92.9854 Y-207.7329
G1 Z0.0000 F8000.0
G0 X92.9854 Y-208.9270 F15000.0
G1 Z11.9000 F8000.0
G1 X93.4277 Y-209.5905 F12000.0
G1 X93.6046 Y-210.0769
G1 X92.4989 Y-210.7846
G1 Z0.0000 F8000.0
G0 X89.8453 Y-215.1002 F15000.0
G1 Z11.9000 F8000.0
G1 X91.2164 Y-215.3213 F12000.0
G1 X91.4817 Y-215.5424
G1 X91.7913 Y-216.0732
G1 X92.0567 Y-217.1346
G1 X92.0124 Y-217.2231
G1 X90.7741 Y-217.5769
G1 X91.3490 Y-219.4786
G1 Z0.0000 F8000.0
G0 X91.4375 Y-219.5671 F15000.0
G1 Z11.9000 F8000.0
G1 X92.9854 Y-219.6113 F12000.0
G1 Z0.0000 F8000.0
G0 X90.1549 Y-219.0806 F15000.0
G1 Z11.9000 F8000.0
G1 X90.0222 Y-218.3730 F12000.0
G1 X87.0590 Y-215.1886
G1 X86.7495 Y-215.0559
G1 Z0.0000 F8000.0
G0 X87.0590 Y-215.1886 F15000.0
G1 Z11.9000 F8000.0
G1 X88.6954 Y-215.1002 F12000.0
G1 Z0.0000 F8000.0
G0 X88.2089 Y-218.9479 F15000.0
G1 Z11.9000 F8000.0
G1 X88.4743 Y-219.2133 F12000.0
G1 X88.9608 Y-219.4786
G1 X89.7127 Y-219.5671
G1 Z0.0000 F8000.0
G0 X81.0465 Y-212.7986 F15000.0
G1 Z11.9000 F8000.0
G1 X80.1709 Y-212.7986 F12000.0
G1 Z0.0000 F8000.0
G0 X79.8413 Y-212.1808 F15000.0
G1 Z11.9000 F8000.0
G1 X80.7170 Y-212.1808 F12000.0
G1 Z0.0000 F8000.0
G0 X82.0656 Y-203.9016 F15000.0
G1 Z11.9000 F8000.0
G1 X82.9413 Y-203.9016 F12000.0
G1 Z0.0000 F8000.0
G0 X82.6118 Y-203.2837 F15000.0
G1 Z11.9000 F8000.0
G1 X81.7361 Y-203.2837 F12000.0
G1 Z0.0000 F8000.0
G0 X99.3242 Y-212.1808 F15000.0
G1 Z11.9000 F8000.0
G1 X100.1999 Y-212.1808 F12000.0
G1 Z0.0000 F8000.0
G0 X99.9115 Y-212.7986 F15000.0
G1 Z11.9000 F8000.0
G1 X99.0358 Y-212.7986 F12000.0
G1 Z0.0000 F8000.0
G0 X124.7231 Y-202.1716 F15000.0
G1 Z11.9000 F8000.0
G1 X139.4691 Y-202.1716 F12000.0
G1 X142.7643 Y-195.4165 F12000.0
G1 X145.4005 Y-191.2975 F12000.0
G1 X144.6590 Y-191.4622 F12000.0
G1 X144.2471 Y-190.7208 F12000.0
G1 X142.7643 Y-195.4165 F12000.0
G1 X163.6888 Y-151.4256 F12000.0
G1 X160.9702 Y-155.5446 F12000.0
G1 X161.7940 Y-155.3799 F12000.0
G1 X162.1236 Y-156.1213 F12000.0
G1 X163.6888 Y-151.4256 F12000.0
G1 Z0.0000 F8000.0
G0 X164.0183 Y-151.6728 F15000.0
G1 Z11.9000 F8000.0
G1 X161.4645 Y-150.5194 F12000.0
G1 X158.7460 Y-149.6957 F12000.0
G1 X155.9451 Y-149.2838 F12000.0
G1 X153.0618 Y-149.1190 F12000.0
G1 X150.2609 Y-149.2838 F12000.0
G1 X147.4599 Y-149.7780 F12000.0
G1 X144.8238 Y-150.6018 F12000.0
G1 X142.1876 Y-151.7551 F12000.0
G1 X139.7162 Y-153.1556 F12000.0
G1 X137.4920 Y-154.8856 F12000.0
G1 X135.4325 Y-156.7803 F12000.0
G1 X133.6201 Y-159.0046 F12000.0
G1 Z0.0000 F8000.0
G0 X132.4668 Y-160.7346 F15000.0
G1 Z11.9000 F8000.0
G1 X165.9130 Y-194.1808 F12000.0
G1 Z0.0000 F8000.0
G0 X163.1945 Y-195.5812 F15000.0
G1 Z11.9000 F8000.0
G1 X131.0664 Y-163.3707 F12000.0
G1 Z0.0000 F8000.0
G0 X130.8192 Y-167.3249 F15000.0
G1 Z11.9000 F8000.0
G1 X160.2288 Y-196.7345 F12000.0
G1 Z0.0000 F8000.0
G0 X156.8512 Y-197.4760 F15000.0
G1 Z11.9000 F8000.0
G1 X130.8192 Y-171.4439 F12000.0
G1 Z0.0000 F8000.0
G0 X130.8192 Y-175.5629 F15000.0
G1 Z11.9000 F8000.0
G1 X152.9794 Y-197.7231 F12000.0
G1 Z0.0000 F8000.0
G0 X153.2265 Y-199.7002 F15000.0
G1 Z11.9000 F8000.0
G1 X153.2265 Y-192.6979 F12000.0
G1 Z0.0000 F8000.0
G0 X153.2265 Y-191.2151 F15000.0
G1 Z11.9000 F8000.0
G1 X153.2265 Y-189.7323 F12000.0
G1 Z0.0000 F8000.0
G0 X153.2265 Y-188.3318 F15000.0
G1 Z11.9000 F8000.0
G1 X153.2265 Y-181.3295 F12000.0
G1 Z0.0000 F8000.0
G0 X153.2265 Y-179.8467 F15000.0
G1 Z11.9000 F8000.0
G1 X153.2265 Y-178.3638 F12000.0
G1 Z0.0000 F8000.0
G0 X153.2265 Y-173.4210 F15000.0
G1 Z11.9000 F8000.0
G1 X156.6865 Y-173.4210 F12000.0
G1 Z0.0000 F8000.0
G0 X157.0160 Y-172.9268 F15000.0
G1 Z11.9000 F8000.0
G1 X172.4210 Y-188.3318 F12000.0
G1 Z0.0000 F8000.0
G0 X174.1510 Y-185.8604 F15000.0
G1 Z11.9000 F8000.0
G1 X140.7872 Y-152.4966 F12000.0
G1 Z0.0000 F8000.0
G0 X138.3158 Y-154.1442 F15000.0
G1 Z11.9000 F8000.0
G1 X153.7208 Y-169.5492 F12000.0
G1 Z0.0000 F8000.0
G0 X151.4966 Y-169.9611 F15000.0
G1 Z11.9000 F8000.0
G1 X148.7780 Y-165.8421 F12000.0
G1 X149.5194 Y-166.0069 F12000.0
G1 X149.9313 Y-165.2654 F12000.0
G1 X151.4966 Y-169.9611 F12000.0
G1 Z0.0000 F8000.0
G0 X150.5904 Y-170.5378 F15000.0
G1 Z11.9000 F8000.0
G1 X136.0915 Y-156.1213 F12000.0
G1 Z0.0000 F8000.0
G0 X143.5057 Y-151.0961 F15000.0
G1 Z11.9000 F8000.0
G1 X175.5515 Y-183.1419 F12000.0
G1 Z0.0000 F8000.0
G0 X175.5515 Y-179.0229 F15000.0
G1 Z11.9000 F8000.0
G1 X146.5538 Y-150.0252 F12000.0
G1 Z0.0000 F8000.0
G0 X150.0137 Y-149.2838 F15000.0
G1 Z11.9000 F8000.0
G1 X175.5515 Y-174.9039 F12000.0
G1 Z0.0000 F8000.0
G0 X172.5034 Y-173.4210 F15000.0
G1 Z11.9000 F8000.0
G1 X179.5057 Y-173.4210 F12000.0
G1 Z0.0000 F8000.0
G0 X175.5515 Y-170.7849 F15000.0
G1 Z11.9000 F8000.0
G1 X153.8856 Y-149.1190 F12000.0
G1 Z0.0000 F8000.0
G0 X158.6636 Y-149.6957 F15000.0
G1 Z11.9000 F8000.0
G1 X175.5515 Y-166.6659 F12000.0
G1 Z0.0000 F8000.0
G0 X175.4691 Y-163.7002 F15000.0
G1 Z11.9000 F8000.0
G1 X174.2334 Y-161.1464 F12000.0
G1 X172.6682 Y-158.8398 F12000.0
G1 X170.8558 Y-156.6979 F12000.0
G1 X168.7963 Y-154.7208 F12000.0
G1 X166.4897 Y-153.0732 F12000.0
G1 X164.0183 Y-151.6728 F12000.0
G1 Z0.0000 F8000.0
G0 X165.5011 Y-152.4142 F15000.0
G1 Z11.9000 F8000.0
G1 X174.2334 Y-161.1464 F12000.0
G1 Z0.0000 F8000.0
G0 X171.0206 Y-173.4210 F15000.0
G1 Z11.9000 F8000.0
G1 X169.5377 Y-173.4210 F12000.0
G1 Z0.0000 F8000.0
G0 X168.0549 Y-173.4210 F15000.0
G1 Z11.9000 F8000.0
G1 X161.0526 Y-173.4210 F12000.0
G1 Z0.0000 F8000.0
G0 X159.6522 Y-173.4210 F15000.0
G1 Z11.9000 F8000.0
G1 X158.1693 Y-173.4210 F12000.0
G1 Z0.0000 F8000.0
G0 X153.2265 Y-173.4210 F15000.0
G1 Z11.9000 F8000.0
G1 X149.6842 Y-173.4210 F12000.0
G1 Z0.0000 F8000.0
G0 X149.7556 Y-168.0774 F15000.0
G1 Z11.9000 F8000.0
G1 X150.4366 Y-167.3963 F12000.0
G1 Z0.0000 F8000.0
G0 X150.5080 Y-167.1754 F15000.0
G1 Z11.9000 F8000.0
G1 X150.5080 Y-168.0511 F12000.0
G1 Z0.0000 F8000.0
G0 X161.9890 Y-153.9492 F15000.0
G1 Z11.9000 F8000.0
G1 X162.6701 Y-153.2681 F12000.0
G1 Z0.0000 F8000.0
G0 X162.6590 Y-153.5827 F15000.0
G1 Z11.9000 F8000.0
G1 X162.6590 Y-154.4584 F12000.0
G1 Z0.0000 F8000.0
G0 X161.3833 Y-145.9516 F15000.0
G1 Z11.9000 F8000.0
G1 X160.9410 Y-145.1556 F12000.0
G1 Z0.0000 F8000.0
G0 X160.6314 Y-144.5806 F15000.0
G1 Z11.9000 F8000.0
G1 X159.6142 Y-142.8115 F12000.0
G1 X159.5700 Y-142.5462
G1 X160.7199 Y-142.4577
G1 X160.6757 Y-142.1039
G1 X160.4545 Y-141.5732
G1 Z0.0000 F8000.0
G0 X161.6044 Y-142.5462 F15000.0
G1 Z11.9000 F8000.0
G1 X160.9410 Y-142.5020 F12000.0
G1 X161.2506 Y-143.5192
G1 Z0.0000 F8000.0
G0 X162.5300 Y-142.9209 F15000.0
G1 Z11.9000 F8000.0
G1 X162.3973 Y-142.5228 F12000.0
G1 Z0.0000 F8000.0
G0 X162.2646 Y-142.1690 F15000.0
G1 Z11.9000 F8000.0
G1 X162.4415 Y-141.5941 F12000.0
G1 Z0.0000 F8000.0
G0 X162.5742 Y-141.5056 F15000.0
G1 Z11.9000 F8000.0
G1 X163.6799 Y-141.5056 F12000.0
G1 X164.2106 Y-141.9479
G1 X164.5202 Y-142.6555
G1 X164.6086 Y-143.6285
G1 Z0.0000 F8000.0
G0 X164.4760 Y-143.7612 F15000.0
G1 Z11.9000 F8000.0
G1 X163.0165 Y-143.9381 F12000.0
G1 X163.4145 Y-144.6899
G1 Z0.0000 F8000.0
G0 X164.1664 Y-145.4418 F15000.0
G1 Z11.9000 F8000.0
G1 X164.9625 Y-145.8841 F12000.0
G1 Z0.0000 F8000.0
G0 X162.7953 Y-143.6727 F15000.0
G1 Z11.9000 F8000.0
G1 X162.7069 Y-143.4074 F12000.0
G1 Z0.0000 F8000.0
G0 X172.3951 Y-139.1098 F15000.0
G1 Z11.9000 F8000.0
G1 X173.2708 Y-139.1098 F12000.0
G1 Z0.0000 F8000.0
G0 X173.6003 Y-138.5332 F15000.0
G1 Z11.9000 F8000.0
G1 X172.7246 Y-138.5332 F12000.0
G1 Z0.0000 F8000.0
G0 X130.8192 Y-179.6819 F15000.0
G1 Z11.9000 F8000.0
G1 X148.3661 Y-197.2288 F12000.0
G1 Z0.0000 F8000.0
G0 X144.4641 Y-192.9752 F15000.0
G1 Z11.9000 F8000.0
G1 X143.7830 Y-193.6563 F12000.0
G1 Z0.0000 F8000.0
G0 X143.7529 Y-193.4653 F15000.0
G1 Z11.9000 F8000.0
G1 X143.7529 Y-192.5896 F12000.0
G1 Z0.0000 F8000.0
G0 X142.0229 Y-195.0046 F15000.0
G1 Z11.9000 F8000.0
G1 X131.5606 Y-184.6247 F12000.0
G1 Z0.0000 F8000.0
G0 X123.1579 Y-193.0015 F15000.0
G1 Z11.9000 F8000.0
G1 X123.1579 Y-193.8772 F12000.0
G1 Z0.0000 F8000.0
G0 X122.5400 Y-193.5889 F15000.0
G1 Z11.9000 F8000.0
G1 X122.5400 Y-192.7132 F12000.0
G1 Z0.0000 F8000.0
G0 X127.6492 Y-204.8343 F15000.0
G1 Z11.9000 F8000.0
G1 X127.8261 Y-205.0112 F12000.0
G1 Z0.0000 F8000.0
G0 X128.0473 Y-205.3650 F15000.0
G1 Z11.9000 F8000.0
G1 X128.3569 Y-205.8957 F12000.0
G1 X127.9588 Y-206.5149
G1 X128.1357 Y-207.3110
G1 X128.5780 Y-207.8859
G1 X128.9760 Y-208.1513
G1 X129.5068 Y-208.3282
G1 X129.9933 Y-208.3282
G1 X130.2586 Y-208.1955
G1 X130.4798 Y-207.8859
G1 X130.5240 Y-207.3110
G1 X130.2586 Y-206.6918
G1 Z0.0000 F8000.0
G0 X130.0375 Y-206.4707 F15000.0
G1 Z11.9000 F8000.0
G1 X128.6222 Y-205.9400 F12000.0
G1 Z0.0000 F8000.0
G0 X128.6222 Y-206.0726 F15000.0
G1 Z11.9000 F8000.0
G1 X129.6837 Y-207.7533 F12000.0
G1 Z0.0000 F8000.0
G0 X130.1702 Y-208.3724 F15000.0
G1 Z11.9000 F8000.0
G1 X130.3029 Y-208.6820 F12000.0
G1 Z0.0000 F8000.0
G0 X130.4798 Y-208.9474 F15000.0
G1 Z11.9000 F8000.0
G1 X130.7009 Y-209.2570 F12000.0
G1 Z0.0000 F8000.0
G0 X132.0719 Y-209.2570 F15000.0
G1 Z11.9000 F8000.0
G1 X131.6739 Y-208.1955 F12000.0
G1 Z0.0000 F8000.0
G0 X131.4970 Y-207.7533 F15000.0
G1 Z11.9000 F8000.0
G1 X131.4528 Y-207.3994 F12000.0
G1 X132.5142 Y-207.2225
G1 X132.7796 Y-206.9129
G1 X132.6469 Y-206.2053
G1 X132.2931 Y-205.4535
G1 Z0.0000 F8000.0
G0 X131.8508 Y-205.0554 F15000.0
G1 Z11.9000 F8000.0
G1 X130.3029 Y-204.7901 F12000.0
G1 Z0.0000 F8000.0
G0 X133.4430 Y-205.0554 F15000.0
G1 Z11.9000 F8000.0
G1 X133.3103 Y-205.2766 F12000.0
G1 X133.3987 Y-205.9842
G1 X134.5044 Y-208.7705
G1 X134.8582 Y-209.1685
G1 Z0.0000 F8000.0
G0 X135.0351 Y-209.2570 F15000.0
G1 Z11.9000 F8000.0
G1 X136.4062 Y-209.1685 F12000.0
G1 X136.4946 Y-208.9916
G1 X135.6985 Y-206.4707
G1 Z0.0000 F8000.0
G0 X135.5658 Y-206.1169 F15000.0
G1 Z11.9000 F8000.0
G1 X135.3005 Y-205.4535 F12000.0
G1 X134.8582 Y-205.0554
G1 X134.5929 Y-204.9670
G1 X133.5756 Y-204.9670
G1 Z0.0000 F8000.0
G0 X133.6641 Y-209.3897 F15000.0
G1 Z11.9000 F8000.0
G1 X132.1604 Y-209.3454 F12000.0
G1 Z0.0000 F8000.0
G0 X145.5280 Y-207.9780 F15000.0
G1 Z11.9000 F8000.0
G1 X145.5722 Y-208.1991 F12000.0
G1 Z0.0000 F8000.0
G0 X145.6607 Y-208.4645 F15000.0
G1 Z11.9000 F8000.0
G1 X145.7049 Y-208.6856 F12000.0
G1 Z0.0000 F8000.0
G0 X145.7934 Y-208.9510 F15000.0
G1 Z11.9000 F8000.0
G1 X145.8818 Y-209.3490 F12000.0
G1 Z0.0000 F8000.0
G0 X145.9703 Y-209.6144 F15000.0
G1 Z11.9000 F8000.0
G1 X146.0145 Y-209.8355 F12000.0
G1 Z0.0000 F8000.0
G0 X146.1030 Y-210.1009 F15000.0
G1 Z11.9000 F8000.0
G1 X146.1472 Y-210.3220 F12000.0
G1 Z0.0000 F8000.0
G0 X146.9433 Y-213.2852 F15000.0
G1 Z11.9000 F8000.0
G1 X146.3241 Y-210.7201 F12000.0
G1 X149.4642 Y-210.6758
G1 X148.3143 Y-215.5850
G1 Z0.0000 F8000.0
G0 X148.2259 Y-215.8504 F15000.0
G1 Z11.9000 F8000.0
G1 X147.9163 Y-216.0715 F12000.0
G1 X147.9163 Y-216.7792
G1 Z0.0000 F8000.0
G0 X147.6509 Y-215.8504 F15000.0
G1 Z11.9000 F8000.0
G1 X147.6067 Y-215.6735 F12000.0
G1 Z0.0000 F8000.0
G0 X147.5182 Y-215.4081 F15000.0
G1 Z11.9000 F8000.0
G1 X147.0317 Y-213.5506 F12000.0
G1 Z0.0000 F8000.0
G0 X149.5084 Y-210.6758 F15000.0
G1 Z11.9000 F8000.0
G1 X149.7738 Y-210.0567 F12000.0
G1 Z0.0000 F8000.0
G0 X149.8623 Y-209.7913 F15000.0
G1 Z11.9000 F8000.0
G1 X149.9507 Y-209.3933 F12000.0
G1 Z0.0000 F8000.0
G0 X150.0834 Y-208.9510 F15000.0
G1 Z11.9000 F8000.0
G1 X150.1276 Y-208.7299 F12000.0
G1 Z0.0000 F8000.0
G0 X150.2603 Y-208.2876 F15000.0
G1 Z11.9000 F8000.0
G1 X150.3930 Y-207.9338 F12000.0
G1 Z0.0000 F8000.0
G0 X151.7275 Y-211.0117 F15000.0
G1 Z11.9000 F8000.0
G1 X155.5310 Y-211.0117 F12000.0
G1 Z0.0000 F8000.0
G0 X157.7318 Y-210.3220 F15000.0
G1 Z11.9000 F8000.0
G1 X157.6876 Y-210.1009 F12000.0
G1 Z0.0000 F8000.0
G0 X157.5992 Y-209.8355 F15000.0
G1 Z11.9000 F8000.0
G1 X157.5549 Y-209.6144 F12000.0
G1 Z0.0000 F8000.0
G0 X157.4665 Y-209.3490 F15000.0
G1 Z11.9000 F8000.0
G1 X157.3780 Y-208.9510 F12000.0
G1 Z0.0000 F8000.0
G0 X157.2896 Y-208.6856 F15000.0
G1 Z11.9000 F8000.0
G1 X157.2453 Y-208.4645 F12000.0
G1 Z0.0000 F8000.0
G0 X157.1569 Y-208.1991 F15000.0
G1 Z11.9000 F8000.0
G1 X157.1127 Y-207.9780 F12000.0
G1 Z0.0000 F8000.0
G0 X161.5354 Y-209.3933 F15000.0
G1 Z11.9000 F8000.0
G1 X161.4469 Y-209.7913 F12000.0
G1 Z0.0000 F8000.0
G0 X161.3584 Y-210.0567 F15000.0
G1 Z11.9000 F8000.0
G1 X161.0931 Y-210.6758 F12000.0
G1 Z0.0000 F8000.0
G0 X161.6680 Y-208.9510 F15000.0
G1 Z11.9000 F8000.0
G1 X161.7123 Y-208.7299 F12000.0
G1 Z0.0000 F8000.0
G0 X161.8449 Y-208.2876 F15000.0
G1 Z11.9000 F8000.0
G1 X161.9776 Y-207.9338 F12000.0
G1 Z0.0000 F8000.0
G0 X158.5279 Y-213.2852 F15000.0
G1 Z11.9000 F8000.0
G1 X157.9088 Y-210.7201 F12000.0
G1 X161.0489 Y-210.6758
G1 X159.8990 Y-215.5850
G1 Z0.0000 F8000.0
G0 X159.8105 Y-215.8504 F15000.0
G1 Z11.9000 F8000.0
G1 X159.5009 Y-216.0715 F12000.0
G1 X159.5009 Y-216.7792
G1 Z0.0000 F8000.0
G0 X159.2356 Y-215.8504 F15000.0
G1 Z11.9000 F8000.0
G1 X159.1913 Y-215.6735 F12000.0
G1 Z0.0000 F8000.0
G0 X159.1029 Y-215.4081 F15000.0
G1 Z11.9000 F8000.0
G1 X158.6164 Y-213.5506 F12000.0
G1 Z0.0000 F8000.0
G0 X100.1739 Y-173.4210 F15000.0
G1 Z11.9000 F8000.0
G1 X100.1739 Y-157.8513 F12000.0
G1 Z0.0000 F8000.0
G0 X88.3112 Y-157.8513 F15000.0
G1 Z11.9000 F8000.0
G1 X81.5561 Y-151.0137 F12000.0
G1 Z0.0000 F8000.0
G0 X81.7208 Y-155.8741 F15000.0
G1 Z11.9000 F8000.0
G1 X81.7208 Y-169.5492 F12000.0
G1 Z0.0000 F8000.0
G0 X84.1922 Y-157.8513 F15000.0
G1 Z11.9000 F8000.0
G1 X75.4600 Y-149.1190 F12000.0
G1 Z0.0000 F8000.0
G0 X81.7208 Y-155.8741 F15000.0
G1 Z11.9000 F8000.0
G1 X81.7208 Y-137.8330 F12000.0
G1 Z0.0000 F8000.0
G0 X83.2860 Y-139.8101 F15000.0
G1 Z11.9000 F8000.0
G1 X92.0183 Y-139.8101 F12000.0
G1 Z0.0000 F8000.0
G0 X84.9184 Y-140.1396 F15000.0
G1 Z11.9000 F8000.0
G1 X84.0427 Y-140.1396 F12000.0
G1 Z0.0000 F8000.0
G0 X83.7132 Y-139.5217 F15000.0
G1 Z11.9000 F8000.0
G1 X84.5889 Y-139.5217 F12000.0
G1 Z0.0000 F8000.0
G0 X56.2655 Y-158.8398 F15000.0
G1 Z11.9000 F8000.0
G1 X66.9748 Y-169.5492 F12000.0
G1 Z0.0000 F8000.0
G0 X62.8558 Y-169.5492 F15000.0
G1 Z11.9000 F8000.0
G1 X49.2632 Y-155.8741 F12000.0
G1 Z0.0000 F8000.0
G0 X45.1442 Y-155.8741 F15000.0
G1 Z11.9000 F8000.0
G1 X58.7369 Y-169.5492 F12000.0
G1 Z0.0000 F8000.0
G0 X54.6179 Y-169.5492 F15000.0
G1 Z11.9000 F8000.0
G1 X41.0252 Y-155.8741 F12000.0
G1 Z0.0000 F8000.0
G0 X36.8238 Y-155.8741 F15000.0
G1 Z11.9000 F8000.0
G1 X50.4989 Y-169.5492 F12000.0
G1 Z0.0000 F8000.0
G0 X49.8398 Y-173.4210 F15000.0
G1 Z11.9000 F8000.0
G1 X48.3570 Y-173.4210 F12000.0
G1 Z0.0000 F8000.0
G0 X46.8742 Y-173.4210 F15000.0
G1 Z11.9000 F8000.0
G1 X31.8810 Y-173.4210 F12000.0
G1 Z0.0000 F8000.0
G0 X30.4806 Y-173.4210 F15000.0
G1 Z11.9000 F8000.0
G1 X28.9977 Y-173.4210 F12000.0
G1 Z0.0000 F8000.0
G0 X27.5149 Y-173.4210 F15000.0
G1 Z11.9000 F8000.0
G1 X12.5218 Y-173.4210 F12000.0
G1 Z0.0000 F8000.0
G0 X6.8130 Y-173.1627 F15000.0
G1 Z11.9000 F8000.0
G1 X6.7688 Y-174.3126 F12000.0
G1 Z0.0000 F8000.0
G0 X6.6803 Y-174.4895 F15000.0
G1 Z11.9000 F8000.0
G1 X6.1938 Y-174.9318 F12000.0
G1 X5.2651 Y-175.2856
G1 X4.8670 Y-175.3299
G1 Z0.0000 F8000.0
G0 X4.6901 Y-175.2414 F15000.0
G1 Z11.9000 F8000.0
G1 X4.3805 Y-173.6050 F12000.0
G1 X3.5845 Y-174.0473
G1 Z0.0000 F8000.0
G0 X2.8768 Y-174.7549 F15000.0
G1 Z11.9000 F8000.0
G1 X2.7441 Y-174.9318 F12000.0
G1 Z0.0000 F8000.0
G0 X2.5672 Y-175.2856 F15000.0
G1 Z11.9000 F8000.0
G1 X2.4346 Y-175.5952 F12000.0
G1 Z0.0000 F8000.0
G0 X3.8772 Y-176.7299 F15000.0
G1 Z11.9000 F8000.0
G1 X5.5136 Y-177.0394 F12000.0
G1 X5.6905 Y-176.6856
G1 X5.9117 Y-176.4645
G1 Z0.0000 F8000.0
G0 X5.6021 Y-177.0394 F15000.0
G1 Z11.9000 F8000.0
G1 X6.7962 Y-177.2606 F12000.0
G1 Z0.0000 F8000.0
G0 X7.0203 Y-178.0045 F15000.0
G1 Z11.9000 F8000.0
G1 X6.5780 Y-179.7293 F12000.0
G1 Z0.0000 F8000.0
G0 X6.4011 Y-179.9505 F15000.0
G1 Z11.9000 F8000.0
G1 X5.2070 Y-180.4812 F12000.0
G1 X4.6320 Y-180.3043
G1 Z0.0000 F8000.0
G0 X4.5878 Y-179.5967 F15000.0
G1 Z11.9000 F8000.0
G1 X4.4109 Y-180.2158 F12000.0
G1 X3.9686 Y-180.7023
G1 Z0.0000 F8000.0
G0 X3.4379 Y-180.9235 F15000.0
G1 Z11.9000 F8000.0
G1 X2.7303 Y-181.0561 F12000.0
G1 X2.5976 Y-180.9677
G1 Z0.0000 F8000.0
G0 X2.4649 Y-180.7908 F15000.0
G1 Z11.9000 F8000.0
G1 X2.5091 Y-179.6409 F12000.0
G1 Z0.0000 F8000.0
G0 X3.7446 Y-178.4547 F15000.0
G1 Z11.9000 F8000.0
G1 X4.2753 Y-177.9682 F12000.0
G1 Z0.0000 F8000.0
G0 X4.6733 Y-177.6144 F15000.0
G1 Z11.9000 F8000.0
G1 X4.7618 Y-177.5259 F12000.0
G1 Z0.0000 F8000.0
G0 X5.0271 Y-177.2606 F15000.0
G1 Z11.9000 F8000.0
G1 X5.1156 Y-177.0837 F12000.0
G1 Z0.0000 F8000.0
G0 X6.5308 Y-175.8895 F15000.0
G1 Z11.9000 F8000.0
G1 X6.6635 Y-175.8011 F12000.0
G1 Z0.0000 F8000.0
G0 X6.7246 Y-173.0301 F15000.0
G1 Z11.9000 F8000.0
G1 X6.5034 Y-172.8974 F12000.0
G1 X4.6017 Y-173.4281
G1 Z0.0000 F8000.0
G0 X3.9686 Y-172.5931 F15000.0
G1 Z11.9000 F8000.0
G1 X4.4109 Y-172.1066 F12000.0
G1 X4.5878 Y-171.4874
G1 Z0.0000 F8000.0
G0 X4.6320 Y-172.1950 F15000.0
G1 Z11.9000 F8000.0
G1 X5.2070 Y-172.3719 F12000.0
G1 X6.4011 Y-171.8412
G1 Z0.0000 F8000.0
G0 X6.5780 Y-171.6201 F15000.0
G1 Z11.9000 F8000.0
G1 X7.0203 Y-169.8952 F12000.0
G1 Z0.0000 F8000.0
G0 X6.6741 Y-167.8108 F15000.0
G1 Z11.9000 F8000.0
G1 X3.7994 Y-168.9165 F12000.0
G1 X3.8878 Y-169.9337
G1 Z0.0000 F8000.0
G0 X2.5091 Y-171.5316 F15000.0
G1 Z11.9000 F8000.0
G1 X2.4649 Y-172.6815 F12000.0
G1 Z0.0000 F8000.0
G0 X2.5976 Y-172.8584 F15000.0
G1 Z11.9000 F8000.0
G1 X2.7303 Y-172.9469 F12000.0
G1 X3.4379 Y-172.8142
G1 Z0.0000 F8000.0
G0 X2.3934 Y-168.3820 F15000.0
G1 Z11.9000 F8000.0
G1 X2.4819 Y-166.2591 F12000.0
G1 Z0.0000 F8000.0
G0 X2.4376 Y-167.3206 F15000.0
G1 Z11.9000 F8000.0
G1 X3.6760 Y-166.9668 F12000.0
G1 Z0.0000 F8000.0
G0 X4.0298 Y-166.8341 F15000.0
G1 Z11.9000 F8000.0
G1 X5.6220 Y-166.2591 F12000.0
G1 Z0.0000 F8000.0
G0 X5.9758 Y-166.1265 F15000.0
G1 Z11.9000 F8000.0
G1 X6.9045 Y-165.8169 F12000.0
G1 Z0.0000 F8000.0
G0 X8.8970 Y-160.7346 F15000.0
G1 Z11.9000 F8000.0
G1 X9.5561 Y-155.8741 F12000.0
G1 X10.1327 Y-160.7346 F12000.0
G1 X9.5561 Y-160.3227 F12000.0
G1 X8.8970 Y-160.7346 F12000.0
G1 Z0.0000 F8000.0
G0 X9.2678 Y-159.0717 F15000.0
G1 Z11.9000 F8000.0
G1 X9.2678 Y-158.1960 F12000.0
G1 Z0.0000 F8000.0
G0 X9.8444 Y-157.9077 F15000.0
G1 Z11.9000 F8000.0
G1 X9.8444 Y-158.7834 F12000.0
G1 Z0.0000 F8000.0
G0 X9.5561 Y-155.8741 F15000.0
G1 Z11.9000 F8000.0
G1 X9.5561 Y-190.9680 F12000.0
G1 X10.1327 Y-186.1075 F12000.0
G1 X9.5561 Y-186.5194 F12000.0
G1 X8.8970 Y-186.1075 F12000.0
G1 X9.5561 Y-190.9680 F12000.0
G1 Z0.0000 F8000.0
G0 X9.8444 Y-189.0168 F15000.0
G1 Z11.9000 F8000.0
G1 X9.8444 Y-188.1411 F12000.0
G1 Z0.0000 F8000.0
G0 X9.2678 Y-187.8528 F15000.0
G1 Z11.9000 F8000.0
G1 X9.2678 Y-188.7285 F12000.0
G1 Z0.0000 F8000.0
G0 X7.5790 Y-190.9680 F15000.0
G1 Z11.9000 F8000.0
G1 X16.5584 Y-190.9680 F12000.0
G1 X14.5813 Y-188.9908 F12000.0
G1 X14.5813 Y-197.7231 F12000.0
G1 Z0.0000 F8000.0
G0 X14.5813 Y-195.8284 F15000.0
G1 Z11.9000 F8000.0
G1 X9.7208 Y-196.4050 F12000.0
G1 X10.2151 Y-195.8284 F12000.0
G1 X9.7208 Y-195.1693 F12000.0
G1 X14.5813 Y-195.8284 F12000.0
G1 X7.7437 Y-195.8284 F12000.0
G1 Z0.0000 F8000.0
G0 X11.4249 Y-196.1167 F15000.0
G1 Z11.9000 F8000.0
G1 X12.3006 Y-196.1167 F12000.0
G1 Z0.0000 F8000.0
G0 X12.6301 Y-195.5400 F15000.0
G1 Z11.9000 F8000.0
G1 X11.7544 Y-195.5400 F12000.0
G1 Z0.0000 F8000.0
G0 X14.5813 Y-195.8284 F15000.0
G1 Z11.9000 F8000.0
G1 X16.5584 Y-195.8284 F12000.0
G1 X24.3021 Y-195.8284 F12000.0
G1 X43.3318 Y-195.8284 F12000.0
G1 Z0.0000 F8000.0
G0 X39.1046 Y-202.4740 F15000.0
G1 Z11.9000 F8000.0
G1 X39.1489 Y-202.0759 F12000.0
G1 X39.5911 Y-202.0317
G1 X40.1218 Y-202.8278
G1 X39.9449 Y-203.0047
G1 X39.4142 Y-202.8278
G1 Z0.0000 F8000.0
G0 X38.3015 Y-203.0063 F15000.0
G1 Z11.9000 F8000.0
G1 X36.6209 Y-202.7410 F12000.0
G1 X36.0459 Y-201.0161
G1 X37.1958 Y-200.7950
G1 X37.3285 Y-200.6623
G1 X37.2843 Y-199.9104
G1 X36.9747 Y-199.1586
G1 X36.6651 Y-198.8048
G1 X36.1344 Y-198.5394
G1 X34.9402 Y-198.4067
G1 Z0.0000 F8000.0
G0 X34.4957 Y-199.5558 F15000.0
G1 Z11.9000 F8000.0
G1 X33.8323 Y-199.5116 F12000.0
G1 X32.6824 Y-199.8654
G1 X33.3900 Y-201.1037
G1 Z0.0000 F8000.0
G0 X33.8765 Y-201.9883 F15000.0
G1 Z11.9000 F8000.0
G1 X34.4514 Y-203.0055 F12000.0
G1 Z0.0000 F8000.0
G0 X34.3188 Y-200.5730 F15000.0
G1 Z11.9000 F8000.0
G1 X33.5227 Y-198.6270 F12000.0
G1 Z0.0000 F8000.0
G0 X31.3556 Y-199.5558 F15000.0
G1 Z11.9000 F8000.0
G1 X30.6479 Y-200.6615 F12000.0
G1 Z0.0000 F8000.0
G0 X30.9133 Y-199.8654 F15000.0
G1 Z11.9000 F8000.0
G1 X30.7806 Y-199.8211 F12000.0
G1 Z0.0000 F8000.0
G0 X30.3826 Y-199.5558 F15000.0
G1 Z11.9000 F8000.0
G1 X30.0287 Y-199.2904 F12000.0
G1 Z0.0000 F8000.0
G0 X28.7462 Y-198.4943 F15000.0
G1 Z11.9000 F8000.0
G1 X27.1098 Y-198.5828 F12000.0
G1 Z0.0000 F8000.0
G0 X26.8002 Y-198.4501 F15000.0
G1 Z11.9000 F8000.0
G1 X27.1098 Y-198.5828 F12000.0
G1 X30.0730 Y-201.7671
G1 X30.2057 Y-202.4748
G1 Z0.0000 F8000.0
G0 X29.7634 Y-202.9613 F15000.0
G1 Z11.9000 F8000.0
G1 X29.0115 Y-202.8728 F12000.0
G1 X28.5250 Y-202.6074
G1 X28.2597 Y-202.3421
G1 Z0.0000 F8000.0
G0 X31.5325 Y-200.3519 F15000.0
G1 Z11.9000 F8000.0
G1 X32.2843 Y-200.8826 F12000.0
G1 X32.3285 Y-201.0153
G1 Z0.0000 F8000.0
G0 X21.4188 Y-196.4050 F15000.0
G1 Z11.9000 F8000.0
G1 X20.9245 Y-195.8284 F12000.0
G1 X21.4188 Y-195.1693 F12000.0
G1 X16.5584 Y-195.8284 F12000.0
G1 X21.4188 Y-196.4050 F12000.0
G1 Z0.0000 F8000.0
G0 X19.7971 Y-196.1167 F15000.0
G1 Z11.9000 F8000.0
G1 X18.9214 Y-196.1167 F12000.0
G1 Z0.0000 F8000.0
G0 X18.5507 Y-195.5400 F15000.0
G1 Z11.9000 F8000.0
G1 X19.4264 Y-195.5400 F12000.0
G1 Z0.0000 F8000.0
G0 X16.5584 Y-197.7231 F15000.0
G1 Z11.9000 F8000.0
G1 X16.5584 Y-190.9680 F12000.0
G1 Z0.0000 F8000.0
G0 X21.5835 Y-169.5492 F15000.0
G1 Z11.9000 F8000.0
G1 X14.5813 Y-162.5469 F12000.0
G1 Z0.0000 F8000.0
G0 X14.5813 Y-158.3455 F15000.0
G1 Z11.9000 F8000.0
G1 X25.7025 Y-169.5492 F12000.0
G1 Z0.0000 F8000.0
G0 X29.8215 Y-169.5492 F15000.0
G1 Z11.9000 F8000.0
G1 X16.3936 Y-156.0389 F12000.0
G1 Z0.0000 F8000.0
G0 X16.5584 Y-155.8741 F15000.0
G1 Z11.9000 F8000.0
G1 X7.5790 Y-155.8741 F12000.0
G1 Z0.0000 F8000.0
G0 X20.3478 Y-155.8741 F15000.0
G1 Z11.9000 F8000.0
G1 X33.9405 Y-169.5492 F12000.0
G1 Z0.0000 F8000.0
G0 X38.0595 Y-169.5492 F15000.0
G1 Z11.9000 F8000.0
G1 X24.4668 Y-155.8741 F12000.0
G1 Z0.0000 F8000.0
G0 X28.5858 Y-155.8741 F15000.0
G1 Z11.9000 F8000.0
G1 X42.2609 Y-169.5492 F12000.0
G1 Z0.0000 F8000.0
G0 X46.3799 Y-169.5492 F15000.0
G1 Z11.9000 F8000.0
G1 X32.7048 Y-155.8741 F12000.0
G1 Z0.0000 F8000.0
G0 X47.2861 Y-161.2029 F15000.0
G1 Z11.9000 F8000.0
G1 X47.2861 Y-162.0786 F12000.0
G1 Z0.0000 F8000.0
G0 X47.8627 Y-161.7491 F15000.0
G1 Z11.9000 F8000.0
G1 X47.8627 Y-160.8734 F12000.0
G1 Z0.0000 F8000.0
G0 X56.4302 Y-173.4210 F15000.0
G1 Z11.9000 F8000.0
G1 X56.4302 Y-188.0023 F12000.0
G1 Z0.0000 F8000.0
G0 X44.6059 Y-206.6674 F15000.0
G1 Z11.9000 F8000.0
G1 X44.5175 Y-206.7559 F12000.0
G1 Z0.0000 F8000.0
G0 X44.1636 Y-206.9770 F15000.0
G1 Z11.9000 F8000.0
G1 X43.7214 Y-207.1097 F12000.0
G1 X43.5887 Y-206.9770
G1 X42.7042 Y-206.8443
G1 X42.3503 Y-206.9770
G1 X41.9965 Y-207.2424
G1 X41.5985 Y-207.7731
G1 X41.4216 Y-208.7461
G1 X42.6157 Y-208.0384
G1 Z0.0000 F8000.0
G0 X43.0580 Y-209.0557 F15000.0
G1 Z11.9000 F8000.0
G1 X43.8098 Y-207.3308 F12000.0
G1 X43.5445 Y-207.4193
G1 Z0.0000 F8000.0
G0 X42.7926 Y-209.1883 F15000.0
G1 Z11.9000 F8000.0
G1 X42.2619 Y-209.3653 F12000.0
G1 X41.5985 Y-209.0999
G1 X41.4216 Y-208.9230
G1 X40.9351 Y-209.1883
G1 Z0.0000 F8000.0
G0 X40.4928 Y-210.7363 F15000.0
G1 Z11.9000 F8000.0
G1 X40.4486 Y-211.8862 F12000.0
G1 Z0.0000 F8000.0
G0 X40.5813 Y-212.0631 F15000.0
G1 Z11.9000 F8000.0
G1 X40.7139 Y-212.1515 F12000.0
G1 X41.4216 Y-212.0189
G1 Z0.0000 F8000.0
G0 X41.9523 Y-211.7977 F15000.0
G1 Z11.9000 F8000.0
G1 X42.3946 Y-211.3112 F12000.0
G1 X42.5715 Y-210.6921
G1 Z0.0000 F8000.0
G0 X42.6157 Y-211.3997 F15000.0
G1 Z11.9000 F8000.0
G1 X43.1907 Y-211.5766 F12000.0
G1 X44.3848 Y-211.0459
G1 Z0.0000 F8000.0
G0 X44.5617 Y-210.8247 F15000.0
G1 Z11.9000 F8000.0
G1 X45.0040 Y-209.0999 F12000.0
G1 Z0.0000 F8000.0
G0 X44.6944 Y-212.2400 F15000.0
G1 Z11.9000 F8000.0
G1 X44.4290 Y-212.0631 F12000.0
G1 X43.7214 Y-212.1958
G1 Z0.0000 F8000.0
G0 X43.2791 Y-212.3727 F15000.0
G1 Z11.9000 F8000.0
G1 X41.0235 Y-213.2572 F12000.0
G1 Z0.0000 F8000.0
G0 X40.7582 Y-213.4784 F15000.0
G1 Z11.9000 F8000.0
G1 X40.4486 Y-213.8764 F12000.0
G1 X40.5813 Y-215.2032
G1 X41.1120 Y-215.2917
G1 Z0.0000 F8000.0
G0 X42.0850 Y-214.9378 F15000.0
G1 Z11.9000 F8000.0
G1 X42.2177 Y-214.8936 F12000.0
G1 Z0.0000 F8000.0
G0 X42.8368 Y-214.6725 F15000.0
G1 Z11.9000 F8000.0
G1 X42.9695 Y-214.6282 F12000.0
G1 Z0.0000 F8000.0
G0 X43.4560 Y-214.4513 F15000.0
G1 Z11.9000 F8000.0
G1 X44.2521 Y-214.0975 F12000.0
G1 X44.6944 Y-213.6110
G1 X44.7828 Y-213.3457
G1 X44.7828 Y-212.3727
G1 Z0.0000 F8000.0
G0 X67.3867 Y-217.3295 F15000.0
G1 Z11.9000 F8000.0
G1 X67.3867 Y-229.0274 F12000.0
G1 Z0.0000 F8000.0
G0 X68.1282 Y-271.0412 F15000.0
G1 Z11.9000 F8000.0
G1 X0.0000 Y-271.0412 F12000.0
G1 Z0.0000 F8000.0
G0 X17.6758 Y-276.6210 F15000.0
G1 Z11.9000 F8000.0
G1 X17.6758 Y-280.4156 F12000.0
G1 Z0.0000 F8000.0
G0 X17.6758 Y-278.6156 F15000.0
G1 Z11.9000 F8000.0
G1 X18.5029 Y-278.5670 F12000.0
G1 Z0.0000 F8000.0
G0 X20.2056 Y-280.5129 F15000.0
G1 Z11.9000 F8000.0
G1 X19.7315 Y-280.3597 F12000.0
G1 X19.5208 Y-280.1882
G1 X18.9146 Y-279.0173
G1 X18.5660 Y-278.5645
G1 X19.1794 Y-277.8465
G1 X19.9621 Y-276.6050
G1 X20.2740 Y-276.4190
G1 X20.9963 Y-276.5730
G1 X21.1575 Y-276.7035
G1 X21.1786 Y-279.1994
G1 Z0.0000 F8000.0
G0 X21.1786 Y-278.0318 F15000.0
G1 Z11.9000 F8000.0
G1 X23.2219 Y-277.9832 F12000.0
G1 Z0.0000 F8000.0
G0 X23.2705 Y-279.2481 F15000.0
G1 Z11.9000 F8000.0
G1 X23.3320 Y-276.6533 F12000.0
G1 X24.5308 Y-276.6560
G1 X24.7079 Y-279.2270
G1 X24.8952 Y-279.2951
G1 X25.8976 Y-279.2967
G1 Z0.0000 F8000.0
G0 X27.8436 Y-279.7832 F15000.0
G1 Z11.9000 F8000.0
G1 X28.0529 Y-280.1485 F12000.0
G1 X27.8269 Y-279.6540
G1 X27.6768 Y-278.2782
G1 X27.9000 Y-277.1706
G1 X28.9284 Y-276.5041
G1 X29.4178 Y-276.6730
G1 X29.7838 Y-277.1702
G1 X29.9649 Y-278.1558
G1 X29.7803 Y-279.7860
G1 X29.4376 Y-280.3016
G1 X29.1096 Y-280.4717
G1 X28.1841 Y-280.3183
G1 Z0.0000 F8000.0
G0 X27.8436 Y-277.2048 F15000.0
G1 Z11.9000 F8000.0
G1 X28.0279 Y-277.0553 F12000.0
G1 X29.1950 Y-276.6066
G1 X29.4004 Y-276.6696
G1 Z0.0000 F8000.0
G0 X32.6112 Y-276.6210 F15000.0
G1 Z11.9000 F8000.0
G1 X32.5666 Y-279.9090 F12000.0
G1 X32.6843 Y-280.4323
G1 X32.4467 Y-279.9607
G1 X31.3464 Y-279.2967
G1 Z0.0000 F8000.0
G0 X36.4546 Y-279.7832 F15000.0
G1 Z11.9000 F8000.0
G1 X36.6639 Y-280.1485 F12000.0
G1 X36.4379 Y-279.6540
G1 X36.2878 Y-278.2782
G1 X36.5110 Y-277.1706
G1 X37.4278 Y-276.5417
G1 X37.6586 Y-276.5089
G1 X38.0918 Y-276.7194
G1 X38.4185 Y-277.2473
G1 X38.5800 Y-278.1108
G1 X38.4019 Y-279.7432
G1 X38.0786 Y-280.2692
G1 X37.7622 Y-280.4594
G1 X37.5233 Y-280.4828
G1 X36.7951 Y-280.3183
G1 Z0.0000 F8000.0
G0 X39.8600 Y-279.7832 F15000.0
G1 Z11.9000 F8000.0
G1 X40.2365 Y-280.3072 F12000.0
G1 X39.8664 Y-279.7333
G1 X39.7003 Y-278.2373
G1 X39.9318 Y-277.1350
G1 X40.8702 Y-276.5282
G1 X41.3302 Y-276.6065
G1 X41.7486 Y-277.0521
G1 X41.9817 Y-278.1522
G1 X41.7976 Y-279.7825
G1 X41.5399 Y-280.2080
G1 X41.2443 Y-280.4270
G1 X41.0106 Y-280.4869
G1 X40.2979 Y-280.3670
G1 Z0.0000 F8000.0
G0 X39.8600 Y-277.2048 F15000.0
G1 Z11.9000 F8000.0
G1 X39.9087 Y-277.1075 F12000.0
G1 Z0.0000 F8000.0
G0 X36.5032 Y-277.1075 F15000.0
G1 Z11.9000 F8000.0
G1 X36.4546 Y-277.2048 F12000.0
G1 Z0.0000 F8000.0
G0 X43.3628 Y-279.2967 F15000.0
G1 Z11.9000 F8000.0
G1 X44.4452 Y-279.9492 F12000.0
G1 X44.6004 Y-280.1273
G1 X44.6981 Y-280.4232
G1 X44.5845 Y-279.9303
G1 X44.6277 Y-276.6210
G1 Z0.0000 F8000.0
G0 X68.1282 Y-271.0412 F15000.0
G1 Z11.9000 F8000.0
G1 X68.1282 Y-284.6338 F12000.0
G1 Z0.0000 F8000.0
G0 X63.2677 Y-58.9131 F15000.0
G1 Z11.9000 F8000.0
G1 X63.2677 Y-5.3662 F12000.0
G1 Z0.0000 F8000.0
G0 X63.2677 Y-10.2266 F15000.0
G1 Z11.9000 F8000.0
G1 X0.0000 Y-10.2266 F12000.0
G1 Z0.0000 F8000.0
G0 X1.6976 Y-11.4880 F15000.0
G1 Z11.9000 F8000.0
G1 X2.3541 Y-10.4213 F12000.0
G1 X2.6934 Y-10.5047
G1 X2.5338 Y-10.3295
G1 X2.7057 Y-10.4926
G1 X2.6180 Y-10.3408
G1 Z0.0000 F8000.0
G0 X3.1495 Y-11.3740 F15000.0
G1 Z11.9000 F8000.0
G1 X2.2465 Y-9.6013 F12000.0
G1 X1.9708 Y-9.5506
G1 X2.7968 Y-10.5511
G1 X3.4736 Y-10.8761
G1 X4.5593 Y-10.9528
G1 X4.1650 Y-10.8924
G1 X4.2436 Y-9.6624
G1 X5.2698 Y-10.3024
G1 X5.8956 Y-10.2762
G1 X6.2002 Y-10.1321
G1 X6.1367 Y-10.7114
G1 X6.2159 Y-9.7106
G1 X5.8958 Y-9.6049
G1 X5.3379 Y-10.0975
G1 X5.2411 Y-10.2857
G1 X5.9788 Y-10.9528
G1 Z0.0000 F8000.0
G0 X3.9940 Y-12.3733 F15000.0
G1 Z11.9000 F8000.0
G1 X4.0185 Y-12.9900 F12000.0
G1 X4.5122 Y-13.3119
G1 X4.8697 Y-13.7841
G1 Z0.0000 F8000.0
G0 X3.9940 Y-13.7354 F15000.0
G1 Z11.9000 F8000.0
G1 X4.0688 Y-13.1678 F12000.0
G1 X4.5320 Y-12.8997
G1 X4.4475 Y-13.1377
G1 X4.4462 Y-13.0299
G1 X4.8419 Y-12.4534
G1 X5.3742 Y-12.8288
G1 X5.4642 Y-13.4328
G1 X5.7231 Y-13.7387
G1 X5.6613 Y-13.6899
G1 X6.0546 Y-13.7827
G1 X6.3885 Y-13.6701
G1 X6.4976 Y-13.4772
G1 X6.5914 Y-12.7367
G1 X6.4655 Y-12.5424
G1 X6.0061 Y-12.3628
G1 X5.7840 Y-12.4107
G1 X5.4501 Y-12.7109
G1 X5.6066 Y-12.4818
G1 X5.7943 Y-12.3878
G1 X7.1476 Y-12.4072
G1 X7.2049 Y-13.6519
G1 X7.2495 Y-13.1397
G1 X8.1852 Y-13.0175
G1 X8.2694 Y-12.4784
G1 X8.3082 Y-13.6788
G1 X8.7533 Y-13.7744
G1 X9.9293 Y-13.7841
G1 Z0.0000 F8000.0
G0 X9.3455 Y-13.7841 F15000.0
G1 Z11.9000 F8000.0
G1 X9.4267 Y-12.4328 F12000.0
G1 X10.5015 Y-12.5020
G1 X11.2125 Y-12.3912
G1 X11.5085 Y-12.6129
G1 X11.6087 Y-12.8236
G1 X11.5147 Y-13.5620
G1 X11.2233 Y-13.7162
G1 X10.6242 Y-13.6159
G1 X10.4828 Y-12.7922
G1 X10.5400 Y-11.8173
G1 X11.5347 Y-12.6165
G1 Z0.0000 F8000.0
G0 X16.5584 Y-5.3662 F15000.0
G1 Z11.9000 F8000.0
G1 X16.5584 Y-58.9131 F12000.0
G1 Z0.0000 F8000.0
G0 X6.8375 Y-58.9131 F15000.0
G1 Z11.9000 F8000.0
G1 X6.8375 Y-34.6110 F12000.0
G1 Z0.0000 F8000.0
G0 X7.0322 Y-33.7502 F15000.0
G1 Z11.9000 F8000.0
G1 X6.9835 Y-33.6529 F12000.0
G1 Z0.0000 F8000.0
G0 X6.0105 Y-33.6042 F15000.0
G1 Z11.9000 F8000.0
G1 X6.6090 Y-33.4417 F12000.0
G1 X6.9537 Y-33.6499
G1 X7.0534 Y-33.8596
G1 X6.9541 Y-34.5945
G1 X6.7913 Y-34.7626
G1 X6.3112 Y-34.7592
G1 X6.0347 Y-34.5627
G1 X5.9619 Y-32.8258
G1 Z0.0000 F8000.0
G0 X4.5997 Y-33.4583 F15000.0
G1 Z11.9000 F8000.0
G1 X4.9537 Y-33.4846 F12000.0
G1 X5.2593 Y-33.6552
G1 X5.1374 Y-34.0676
G1 X4.9895 Y-34.1375
G1 X5.1659 Y-34.2107
G1 X5.2064 Y-34.6629
G1 X4.9093 Y-34.7952
G1 X4.6829 Y-34.7632
G1 X4.5024 Y-34.5772
G1 Z0.0000 F8000.0
G0 X3.7240 Y-34.7718 F15000.0
G1 Z11.9000 F8000.0
G1 X3.8463 Y-34.2830 F12000.0
G1 X3.8469 Y-33.5166
G1 X3.5339 Y-33.6143
G1 X3.1633 Y-34.0547
G1 X3.7874 Y-34.1410
G1 X3.9082 Y-33.4769
G1 X3.0396 Y-33.4543
G1 X2.9063 Y-33.9466
G1 X3.0307 Y-34.0309
G1 X2.8451 Y-33.6356
G1 X2.9294 Y-34.5417
G1 X3.6267 Y-34.8205
G1 Z0.0000 F8000.0
G0 X2.3132 Y-34.7232 F15000.0
G1 Z11.9000 F8000.0
G1 X2.2216 Y-35.0937 F12000.0
G1 X1.0302 Y-35.3622
G1 X0.9447 Y-35.2067
G1 X0.9053 Y-33.5474
G1 X1.0077 Y-34.3142
G1 X2.2645 Y-34.6259
G1 Z0.0000 F8000.0
G0 X0.0000 Y-34.6110 F15000.0
G1 Z11.9000 F8000.0
G1 X63.2677 Y-34.6110 F12000.0
G1 Z0.0000 F8000.0
G0 X61.3329 Y-36.6785 F15000.0
G1 Z11.9000 F8000.0
G1 X61.2824 Y-36.6013 F12000.0
G1 X60.9984 Y-36.5573
G1 X61.0648 Y-36.6303
G1 Z0.0000 F8000.0
G0 X61.2816 Y-37.3310 F15000.0
G1 Z11.9000 F8000.0
G1 X61.3474 Y-36.5855 F12000.0
G1 X60.3198 Y-36.5448
G1 X60.1327 Y-36.8226
G1 X60.3872 Y-37.2241
G1 X61.2813 Y-37.5261
G1 X61.2491 Y-37.8615
G1 X60.9553 Y-38.0645
G1 X60.4653 Y-38.0331
G1 X60.2930 Y-37.9322
G1 X60.3350 Y-37.9925
G1 Z0.0000 F8000.0
G0 X59.6540 Y-38.0411 F15000.0
G1 Z11.9000 F8000.0
G1 X58.6492 Y-38.0384 F12000.0
G1 X58.4294 Y-37.9628
G1 X57.9675 Y-37.3926
G1 X57.9578 Y-36.6697
G1 X57.1985 Y-36.5121
G1 X56.9629 Y-36.5449
G1 X56.7759 Y-36.8226
G1 X57.1354 Y-37.2779
G1 X57.8557 Y-37.4554
G1 X57.9366 Y-37.7529
G1 X57.8111 Y-37.9485
G1 X57.5985 Y-38.0645
G1 X57.1085 Y-38.0331
G1 X56.9361 Y-37.9322
G1 X56.9782 Y-37.9925
G1 Z0.0000 F8000.0
G0 X59.0215 Y-38.0411 F15000.0
G1 Z11.9000 F8000.0
G1 X59.0702 Y-36.5816 F12000.0
G1 Z0.0000 F8000.0
G0 X54.8377 Y-38.7222 F15000.0
G1 Z11.9000 F8000.0
G1 X55.8761 Y-38.6630 F12000.0
G1 X55.9716 Y-36.6112
G1 X56.1225 Y-36.5235
G1 X56.1820 Y-36.1001
G1 X55.8424 Y-36.5610
G1 X54.6102 Y-36.6021
G1 X54.3136 Y-36.0918
G1 X54.3171 Y-36.4051
G1 X54.5878 Y-36.7676
G1 X54.6894 Y-37.1289
G1 X54.7890 Y-38.6249
G1 Z0.0000 F8000.0
G0 X49.2865 Y-36.9059 F15000.0
G1 Z11.9000 F8000.0
G1 X49.2072 Y-38.1886 F12000.0
G1 X48.2633 Y-36.9202
G1 X47.7139 Y-36.4875
G1 X47.5586 Y-36.8536
G1 X46.5107 Y-36.9044
G1 X47.3807 Y-36.8838
G1 X47.4543 Y-36.9451
G1 X47.3954 Y-38.1822
G1 X46.5014 Y-37.0179
G1 X46.2428 Y-36.5511
G1 X46.2703 Y-36.8573
G1 Z0.0000 F8000.0
G0 X45.7838 Y-38.0735 F15000.0
G1 Z11.9000 F8000.0
G1 X45.5674 Y-38.2162 F12000.0
G1 X45.7428 Y-37.9761
G1 X45.8491 Y-37.2402
G1 X45.6728 Y-36.9653
G1 X45.7160 Y-37.0382
G1 X45.3069 Y-36.8894
G1 X44.9611 Y-36.9683
G1 X44.8081 Y-37.1402
G1 X44.6905 Y-37.4913
G1 X44.9079 Y-38.1210
G1 X45.4919 Y-38.2681
G1 Z0.0000 F8000.0
G0 X44.0324 Y-36.9059 F15000.0
G1 Z11.9000 F8000.0
G1 X43.9278 Y-38.7553 F12000.0
G1 X42.5729 Y-36.9059
G1 Z0.0000 F8000.0
G0 X33.0018 Y-36.7456 F15000.0
G1 Z11.9000 F8000.0
G1 X32.8599 Y-37.7467 F12000.0
G1 X32.7058 Y-37.6270
G1 X32.2345 Y-36.7848
G1 X31.5775 Y-36.8072
G1 X31.5361 Y-37.7402
G1 X31.0134 Y-37.9037
G1 X31.0278 Y-38.0310
G1 X30.7386 Y-37.2538
G1 X30.4063 Y-37.0942
G1 X30.3238 Y-37.1206
G1 X29.9503 Y-38.0182
G1 X29.7581 Y-38.1050
G1 X29.5219 Y-38.0777
G1 X29.0918 Y-37.6431
G1 X28.6804 Y-37.3782
G1 X28.5934 Y-36.8185
G1 X27.9343 Y-36.9032
G1 X27.5907 Y-36.7092
G1 X26.4184 Y-36.3105
G1 X26.2550 Y-36.6654
G1 X26.1656 Y-36.7118
G1 X24.9165 Y-36.3758
G1 X24.9182 Y-36.5766
G1 X26.0375 Y-38.0127
G1 X26.1179 Y-36.8065
G1 X26.0583 Y-36.7311
G1 X25.0719 Y-36.7456
G1 Z0.0000 F8000.0
G0 X26.9693 Y-37.9132 F15000.0
G1 Z11.9000 F8000.0
G1 X27.0179 Y-38.0105 F12000.0
G1 Z0.0000 F8000.0
G0 X27.6017 Y-38.1078 F15000.0
G1 Z11.9000 F8000.0
G1 X27.1103 Y-38.0007 F12000.0
G1 X26.9348 Y-37.8437
G1 X26.8036 Y-37.3670
G1 X26.9032 Y-37.0144
G1 X27.0439 Y-36.8319
G1 X27.2603 Y-36.7313
G1 X27.5021 Y-36.7473
G1 X27.9049 Y-37.0116
G1 X27.9621 Y-37.2288
G1 X27.8765 Y-37.7250
G1 X27.6699 Y-38.0629
G1 X27.8936 Y-37.9132
G1 Z0.0000 F8000.0
G0 X28.6234 Y-38.0592 F15000.0
G1 Z11.9000 F8000.0
G1 X28.6633 Y-37.5104 F12000.0
G1 X29.0959 Y-37.3276
G1 X29.1044 Y-37.4721
G1 X29.1307 Y-37.2690
G1 X29.4018 Y-36.7456
G1 Z0.0000 F8000.0
G0 X30.0342 Y-36.0159 F15000.0
G1 Z11.9000 F8000.0
G1 X30.3555 Y-36.2606 F12000.0
G1 X30.8317 Y-37.4846
G1 X30.7383 Y-37.2607
G1 X30.4082 Y-37.0332
G1 X30.6666 Y-37.0375
G1 Z0.0000 F8000.0
G0 X31.6396 Y-37.8646 F15000.0
G1 Z11.9000 F8000.0
G1 X32.2721 Y-36.9402 F12000.0
G1 Z0.0000 F8000.0
G0 X25.7447 Y-31.6079 F15000.0
G1 Z11.9000 F8000.0
G1 X25.8143 Y-31.7403 F12000.0
G1 X25.7064 Y-32.2287
G1 X25.8022 Y-32.1211
G1 X25.7529 Y-31.7159
G1 X25.6000 Y-31.5989
G1 X25.4008 Y-31.7009
G1 X24.8718 Y-32.2249
G1 X24.8614 Y-32.3227
G1 X25.6013 Y-32.9207
G1 X25.7918 Y-32.6700
G1 X25.6766 Y-32.3725
G1 X25.0639 Y-32.3379
G1 X24.7061 Y-32.4128
G1 X23.8379 Y-32.9159
G1 X23.3591 Y-32.9091
G1 X23.1722 Y-32.7543
G1 X23.0086 Y-32.1757
G1 X23.1292 Y-31.8232
G1 X23.2969 Y-31.6737
G1 X23.6589 Y-31.5886
G1 X23.8892 Y-31.6484
G1 X24.1526 Y-31.9067
G1 X24.2141 Y-32.1288
G1 X24.1625 Y-32.5025
G1 X23.9635 Y-32.8676
G1 X24.1371 Y-32.5772
G1 X24.1309 Y-31.9514
G1 X23.9933 Y-31.6566
G1 Z0.0000 F8000.0
G0 X22.3879 Y-31.6079 F15000.0
G1 Z11.9000 F8000.0
G1 X22.3243 Y-32.8764 F12000.0
G1 X21.3471 Y-31.7254
G1 X20.1347 Y-31.5938
G1 X19.7924 Y-31.6697
G1 X19.6493 Y-31.8355
G1 X19.6068 Y-32.2857
G1 X20.6380 Y-32.4244
G1 X20.5772 Y-32.7306
G1 X20.0072 Y-32.9304
G1 X19.7112 Y-32.7728
G1 X19.5109 Y-32.3550
G1 X18.9822 Y-32.2599
G1 X18.9338 Y-31.9903
G1 X18.9306 Y-32.1944
G1 X18.8544 Y-31.8462
G1 X17.6675 Y-31.5941
G1 X17.5806 Y-31.6440
G1 X17.5229 Y-33.5052
G1 Z0.0000 F8000.0
G0 X17.5716 Y-33.6025 F15000.0
G1 Z11.9000 F8000.0
G1 X18.7392 Y-33.6025 F12000.0
G1 Z0.0000 F8000.0
G0 X18.8851 Y-32.3863 F15000.0
G1 Z11.9000 F8000.0
G1 X17.5229 Y-32.6782 F12000.0
G1 Z0.0000 F8000.0
G0 X19.6349 Y-28.3754 F15000.0
G1 Z11.9000 F8000.0
G1 X20.1814 Y-27.0162 F12000.0
G1 X19.9809 Y-26.2931
G1 X20.0096 Y-26.3666
G1 X19.8036 Y-26.2372
G1 X20.0864 Y-26.5031
G1 X20.1670 Y-26.9874
G1 X20.4154 Y-27.3538
G1 X20.8024 Y-28.4240
G1 Z0.0000 F8000.0
G0 X21.3862 Y-28.2781 F15000.0
G1 Z11.9000 F8000.0
G1 X21.7203 Y-28.3966 F12000.0
G1 X22.0475 Y-28.3139
G1 X22.0932 Y-27.8520
G1 X21.8248 Y-27.6535
G1 X22.0069 Y-27.6146
G1 X22.2191 Y-27.1991
G1 X22.1556 Y-26.9871
G1 X21.9602 Y-26.8619
G1 X21.5980 Y-26.8629
G1 X21.3512 Y-27.0417
G1 X21.5322 Y-26.8672
G1 Z0.0000 F8000.0
G0 X22.9917 Y-28.2781 F15000.0
G1 Z11.9000 F8000.0
G1 X23.1929 Y-28.3714 F12000.0
G1 X23.8847 Y-27.8021
G1 X23.0904 Y-27.5777
G1 X22.9064 Y-27.4226
G1 X22.8565 Y-27.0855
G1 X23.0043 Y-26.9025
G1 X23.2292 Y-26.8511
G1 X23.6900 Y-26.9929
G1 X23.9497 Y-27.6417
G1 X24.0482 Y-26.9654
G1 X24.5082 Y-26.9496
G1 X24.7078 Y-27.0159
G1 X24.7431 Y-28.2248
G1 X24.8177 Y-27.7179
G1 X25.5473 Y-27.6574
G1 X25.7393 Y-27.7138
G1 X25.8098 Y-28.2399
G1 X25.8329 Y-27.0129
G1 X25.9926 Y-26.9524
G1 X26.5387 Y-27.1070
G1 X26.4347 Y-27.6759
G1 X26.6445 Y-28.2356
G1 X27.0206 Y-28.4207
G1 X27.3753 Y-28.3598
G1 X27.5796 Y-28.1054
G1 X27.6511 Y-27.2529
G1 X27.4312 Y-26.9343
G1 X27.6143 Y-27.1357
G1 X27.1863 Y-26.8557
G1 X26.6890 Y-26.9645
G1 Z0.0000 F8000.0
G0 X28.3918 Y-27.5970 F15000.0
G1 Z11.9000 F8000.0
G1 X28.4556 Y-28.2813 F12000.0
G1 X28.5184 Y-28.3173
G1 X29.3609 Y-27.9093
G1 X29.3136 Y-27.6820
G1 X28.4752 Y-27.6121
G1 X29.0755 Y-26.9398
G1 X29.2854 Y-26.9441
G1 X29.4254 Y-27.1052
G1 X29.3524 Y-27.7608
G1 X29.4091 Y-27.5555
G1 X30.4271 Y-28.3719
G1 X31.1425 Y-27.8083
G1 X30.3556 Y-27.5852
G1 X30.1640 Y-27.4380
G1 X30.0998 Y-27.1017
G1 X30.2383 Y-26.9125
G1 X30.4598 Y-26.8521
G1 X31.1532 Y-27.0511
G1 X31.2462 Y-26.9949
G1 X31.2134 Y-27.6943
G1 Z0.0000 F8000.0
G0 X18.9538 Y-26.9645 F15000.0
G1 Z11.9000 F8000.0
G1 X18.8857 Y-28.9249 F12000.0
G1 X17.3970 Y-26.9645
G1 Z0.0000 F8000.0
G0 X11.6710 Y-22.1985 F15000.0
G1 Z11.9000 F8000.0
G1 X10.6763 Y-21.3992 F12000.0
G1 X10.6191 Y-22.3741
G1 X10.7605 Y-23.1978
G1 X11.3597 Y-23.2982
G1 X11.6510 Y-23.1439
G1 X11.7451 Y-22.4056
G1 X11.6449 Y-22.1948
G1 X11.3489 Y-21.9731
G1 X10.6378 Y-22.0839
G1 X9.5631 Y-22.0148
G1 X9.4818 Y-23.3660
G1 Z0.0000 F8000.0
G0 X10.0656 Y-23.3660 F15000.0
G1 Z11.9000 F8000.0
G1 X8.5193 Y-23.2897 F12000.0
G1 X8.4571 Y-22.0373
G1 X8.3897 Y-22.5631
G1 X7.5773 Y-22.6733
G1 X7.4113 Y-22.5944
G1 X7.3899 Y-22.0490
G1 X7.3899 Y-23.3174
G1 Z0.0000 F8000.0
G0 X5.6385 Y-23.1228 F15000.0
G1 Z11.9000 F8000.0
G1 X5.9608 Y-23.3354 F12000.0
G1 X6.5458 Y-23.2208
G1 X6.6419 Y-23.0175
G1 X6.7158 Y-22.2809
G1 X6.4567 Y-22.0470
G1 X5.9849 Y-21.9541
G1 X5.5872 Y-22.3193
G1 X5.7825 Y-22.0573
G1 X5.5606 Y-22.4285
G1 X5.5440 Y-23.0133
G1 X5.0449 Y-23.3079
G1 X4.6486 Y-22.8938
G1 X4.1548 Y-22.5719
G1 X4.1304 Y-21.9552
G1 Z0.0000 F8000.0
G0 X5.0061 Y-21.9552 F15000.0
G1 Z11.9000 F8000.0
G1 X4.6119 Y-22.7343 F12000.0
G1 X4.6840 Y-22.4753
G1 X4.1667 Y-22.7787
G1 X4.1304 Y-23.3174
G1 Z0.0000 F8000.0
G0 X3.0601 Y-23.9985 F15000.0
G1 Z11.9000 F8000.0
G1 X1.6006 Y-23.9985 F12000.0
G1 Z0.0000 F8000.0
G0 X2.2330 Y-23.9985 F15000.0
G1 Z11.9000 F8000.0
G1 X2.2817 Y-21.9552 F12000.0
G1 Z0.0000 F8000.0
G0 X0.0000 Y-19.9474 F15000.0
G1 Z11.9000 F8000.0
G1 X63.2677 Y-19.9474 F12000.0
G1 X131.3959 Y-19.9474 F12000.0
G1 X180.0000 Y-19.9474 F12000.0
G1 Z0.0000 F8000.0
G0 X180.0000 Y-24.8078 F15000.0
G1 Z11.9000 F8000.0
G1 X131.3959 Y-24.8078 F12000.0
G1 Z0.0000 F8000.0
G0 X133.4113 Y-21.6616 F15000.0
G1 Z11.9000 F8000.0
G1 X135.0973 Y-24.1028 F12000.0
G1 X135.1627 Y-21.7589
G1 Z0.0000 F8000.0
G0 X136.1357 Y-21.9535 F15000.0
G1 Z11.9000 F8000.0
G1 X136.4423 Y-22.1348 F12000.0
G1 X137.3648 Y-23.2902
G1 X137.5604 Y-23.3313
G1 X138.2664 Y-23.1907
G1 X138.1704 Y-22.2499
G1 X138.3273 Y-21.9141
G1 X138.4955 Y-21.7517
G1 X138.7120 Y-21.7120
G1 X139.4981 Y-22.0008
G1 X140.5645 Y-21.7971
G1 X140.6570 Y-21.9364
G1 X140.5928 Y-23.3878
G1 X139.9790 Y-23.4616
G1 Z0.0000 F8000.0
G0 X139.3952 Y-23.2184 F15000.0
G1 Z11.9000 F8000.0
G1 X138.9701 Y-23.4687 F12000.0
G1 X138.3735 Y-23.3157
G1 Z0.0000 F8000.0
G0 X136.8638 Y-22.7392 F15000.0
G1 Z11.9000 F8000.0
G1 X136.5321 Y-22.1847 F12000.0
G1 X136.7025 Y-22.4764
G1 X137.2654 Y-23.0448
G1 X137.4006 Y-21.7589
G1 Z0.0000 F8000.0
G0 X136.5888 Y-22.2717 F15000.0
G1 Z11.9000 F8000.0
G1 X136.1595 Y-22.0353 F12000.0
G1 X136.0870 Y-23.4130
G1 Z0.0000 F8000.0
G0 X136.1739 Y-24.8078 F15000.0
G1 Z11.9000 F8000.0
G1 X136.1739 Y-39.4714 F12000.0
G1 Z0.0000 F8000.0
G0 X135.5838 Y-41.4497 F15000.0
G1 Z11.9000 F8000.0
G1 X136.8838 Y-43.5448 F12000.0
G1 X136.9460 Y-41.4497
G1 Z0.0000 F8000.0
G0 X137.9677 Y-41.6929 F15000.0
G1 Z11.9000 F8000.0
G1 X138.3082 Y-42.1308 F12000.0
G1 Z0.0000 F8000.0
G0 X138.8920 Y-41.4010 F15000.0
G1 Z11.9000 F8000.0
G1 X138.8274 Y-42.6196 F12000.0
G1 X138.4344 Y-42.2996
G1 X138.0462 Y-41.8021
G1 X137.8788 Y-41.6991
G1 X137.8062 Y-41.8639
G1 X137.7514 Y-42.8211
G1 X138.4241 Y-42.3552
G1 X138.7765 Y-42.6707
G1 X138.8920 Y-42.9092
G1 Z0.0000 F8000.0
G0 X139.4758 Y-42.9578 F15000.0
G1 Z11.9000 F8000.0
G1 X140.6920 Y-42.9578 F12000.0
G1 Z0.0000 F8000.0
G0 X140.0596 Y-42.9578 F15000.0
G1 Z11.9000 F8000.0
G1 X140.1082 Y-41.4497 F12000.0
G1 Z0.0000 F8000.0
G0 X141.1167 Y-39.4714 F15000.0
G1 Z11.9000 F8000.0
G1 X141.1167 Y-24.8078 F12000.0
G1 Z0.0000 F8000.0
G0 X141.2925 Y-23.4616 F15000.0
G1 Z11.9000 F8000.0
G1 X140.6601 Y-23.4130 F12000.0
G1 Z0.0000 F8000.0
G0 X145.9771 Y-24.8078 F15000.0
G1 Z11.9000 F8000.0
G1 X145.9771 Y-44.3318 F12000.0
G1 Z0.0000 F8000.0
G0 X149.1025 Y-41.7786 F15000.0
G1 Z11.9000 F8000.0
G1 X149.1742 Y-43.4638 F12000.0
G1 X149.2512 Y-43.5690
G1 X150.0412 Y-42.0722
G1 X150.2055 Y-42.0571
G1 X150.4701 Y-42.6235
G1 X150.1206 Y-41.9802
G1 X150.1728 Y-42.0219
G1 Z0.0000 F8000.0
G0 X151.0971 Y-41.8273 F15000.0
G1 Z11.9000 F8000.0
G1 X150.9527 Y-43.3613 F12000.0
G1 X151.0153 Y-43.6225
G1 X150.6757 Y-43.1700
G1 X150.5340 Y-42.7809
G1 X150.6106 Y-43.0435
G1 Z0.0000 F8000.0
G0 X151.9728 Y-43.1408 F15000.0
G1 Z11.9000 F8000.0
G1 X152.1740 Y-43.2342 F12000.0
G1 X152.8658 Y-42.6649
G1 X151.9688 Y-42.3744
G1 X151.8150 Y-42.0606
G1 X151.9854 Y-41.7654
G1 X152.2098 Y-41.7161
G1 X152.8986 Y-41.9163
G1 X152.9788 Y-41.8669
G1 X152.9261 Y-42.5191
G1 X153.6850 Y-42.8749
G1 X153.6515 Y-42.3019
G1 X153.8419 Y-41.8582
G1 X154.1513 Y-41.7113
G1 X154.6972 Y-41.8759
G1 Z0.0000 F8000.0
G0 X154.7458 Y-43.0435 F15000.0
G1 Z11.9000 F8000.0
G1 X154.5447 Y-43.2278 F12000.0
G1 X154.0692 Y-43.2581
G1 X153.8369 Y-43.0969
G1 X154.1929 Y-43.2495
G1 X155.3393 Y-42.8856
G1 X155.3093 Y-42.2860
G1 X155.5078 Y-41.8497
G1 X155.8210 Y-41.7102
G1 X156.2826 Y-41.8695
G1 X156.3913 Y-42.0616
G1 X156.3694 Y-43.0717
G1 X156.1100 Y-43.2650
G1 X155.6380 Y-43.2110
G1 X155.4269 Y-43.0435
G1 Z0.0000 F8000.0
G0 X157.1296 Y-43.1408 F15000.0
G1 Z11.9000 F8000.0
G1 X157.3309 Y-43.2342 F12000.0
G1 X158.0226 Y-42.6649
G1 X157.1257 Y-42.3744
G1 X156.9718 Y-42.0606
G1 X157.1423 Y-41.7654
G1 X157.3666 Y-41.7161
G1 X158.0554 Y-41.9163
G1 X158.1356 Y-41.8669
G1 X158.1026 Y-42.5570
G1 Z0.0000 F8000.0
G0 X162.5355 Y-44.3318 F15000.0
G1 Z11.9000 F8000.0
G1 X162.5355 Y-24.8078 F12000.0
G1 Z0.0000 F8000.0
G0 X162.1612 Y-23.3961 F15000.0
G1 Z11.9000 F8000.0
G1 X162.6130 Y-23.4596 F12000.0
G1 X163.1348 Y-23.1495
G1 X163.2609 Y-22.5465
G1 X163.1758 Y-22.1841
G1 X163.0306 Y-22.0146
G1 X162.3170 Y-21.8256
G1 X162.2137 Y-21.8712
G1 X161.8674 Y-22.3804
G1 X161.9184 Y-22.9899
G1 X162.1011 Y-23.3270
G1 X161.9145 Y-23.1245
G1 X161.3014 Y-23.4338
G1 X160.1666 Y-23.4448
G1 Z0.0000 F8000.0
G0 X160.7017 Y-23.4448 F15000.0
G1 Z11.9000 F8000.0
G1 X160.7504 Y-21.8393 F12000.0
G1 Z0.0000 F8000.0
G0 X159.7287 Y-22.2285 F15000.0
G1 Z11.9000 F8000.0
G1 X159.5250 Y-21.9696 F12000.0
G1 X158.9307 Y-21.8221
G1 X158.6205 Y-21.9661
G1 X158.4495 Y-22.2893
G1 X158.4643 Y-22.9101
G1 X158.7160 Y-23.3256
G1 X159.0511 Y-23.4657
G1 X159.5341 Y-23.3475
G1 Z0.0000 F8000.0
G0 X157.6854 Y-21.8880 F15000.0
G1 Z11.9000 F8000.0
G1 X157.2445 Y-22.7821 F12000.0
G1 X157.2684 Y-22.8832
G1 X157.5614 Y-23.1045
G1 X157.3008 Y-22.9388
G1 X156.8882 Y-22.3498
G1 X156.5475 Y-22.2001
G1 X156.5131 Y-23.3329
G1 X157.1846 Y-22.9079
G1 X156.9194 Y-22.3998
G1 X156.5207 Y-22.0040
G1 X156.5179 Y-22.0826
G1 Z0.0000 F8000.0
G0 X155.5935 Y-21.8880 F15000.0
G1 Z11.9000 F8000.0
G1 X155.5264 Y-24.0945 F12000.0
G1 X154.1724 Y-21.8774
G1 X153.9881 Y-21.7907
G1 Z0.0000 F8000.0
G0 X151.4142 Y-19.9474 F15000.0
G1 Z11.9000 F8000.0
G1 X151.4142 Y-24.8078 F12000.0
G1 Z0.0000 F8000.0
G0 X154.0841 Y-14.8373 F15000.0
G1 Z11.9000 F8000.0
G1 X153.2839 Y-12.7937 F12000.0
G1 X153.1026 Y-12.6868
G1 X152.9077 Y-12.7938
G1 X152.7694 Y-12.9899
G1 X151.9581 Y-15.0847
G1 X150.0181 Y-15.0723
G1 X149.8883 Y-12.4523
G1 Z0.0000 F8000.0
G0 X148.4288 Y-12.4523 F15000.0
G1 Z11.9000 F8000.0
G1 X148.3234 Y-16.1992 F12000.0
G1 X145.5585 Y-12.4523
G1 Z0.0000 F8000.0
G0 X152.1748 Y-11.1874 F15000.0
G1 Z11.9000 F8000.0
G1 X152.6258 Y-11.3194 F12000.0
G1 X152.7653 Y-11.4375
G1 X153.1051 Y-12.6221
G1 X153.4458 Y-13.1410
G1 Z0.0000 F8000.0
G0 X153.5857 Y-13.5225 F15000.0
G1 Z11.9000 F8000.0
G1 X153.5857 Y-13.5712 F12000.0
G1 Z0.0000 F8000.0
G0 X155.2398 Y-12.4523 F15000.0
G1 Z11.9000 F8000.0
G1 X155.3550 Y-15.0441 F12000.0
G1 X157.2344 Y-12.4523
G1 Z0.0000 F8000.0
G0 X158.6939 Y-14.6901 F15000.0
G1 Z11.9000 F8000.0
G1 X158.4698 Y-13.9722 F12000.0
G1 X158.5768 Y-13.0970
G1 X158.7259 Y-12.7604
G1 X158.9760 Y-12.5106
G1 X159.6959 Y-12.3306
G1 X160.2841 Y-12.5186
G1 X160.5507 Y-12.8637
G1 X160.2993 Y-12.5009
G1 Z0.0000 F8000.0
G0 X160.4453 Y-14.7874 F15000.0
G1 Z11.9000 F8000.0
G1 X159.8963 Y-15.1447 F12000.0
G1 X159.0414 Y-14.9677
G1 X158.7425 Y-14.7874
G1 Z0.0000 F8000.0
G0 X162.1612 Y-21.8880 F15000.0
G1 Z11.9000 F8000.0
G1 X161.9180 Y-22.1799 F12000.0
G1 Z0.0000 F8000.0
G0 X164.0099 Y-22.6177 F15000.0
G1 Z11.9000 F8000.0
G1 X164.0896 Y-21.8965 F12000.0
G1 X165.0252 Y-21.9015
G1 X165.1348 Y-22.0237
G1 X165.0162 Y-22.6055
G1 X165.0749 Y-23.0672
G1 X164.7519 Y-23.3821
G1 X164.0875 Y-22.7611
G1 X164.9342 Y-22.6664
G1 Z0.0000 F8000.0
G0 X169.5776 Y-30.1649 F15000.0
G1 Z11.9000 F8000.0
G1 X171.0371 Y-34.2338 F12000.0
G1 X171.3025 Y-34.5876
G1 Z0.0000 F8000.0
G0 X170.9929 Y-34.2780 F15000.0
G1 Z11.9000 F8000.0
G1 X170.6833 Y-34.1896 F12000.0
G1 Z0.0000 F8000.0
G0 X169.9314 Y-33.7031 F15000.0
G1 Z11.9000 F8000.0
G1 X169.7545 Y-33.5262 F12000.0
G1 Z0.0000 F8000.0
G0 X171.4352 Y-32.9954 F15000.0
G1 Z11.9000 F8000.0
G1 X171.6563 Y-33.1281 F12000.0
G1 Z0.0000 F8000.0
G0 X172.5863 Y-33.5262 F15000.0
G1 Z11.9000 F8000.0
G1 X172.7632 Y-33.7031 F12000.0
G1 Z0.0000 F8000.0
G0 X173.5151 Y-34.1896 F15000.0
G1 Z11.9000 F8000.0
G1 X173.8247 Y-34.2780 F12000.0
G1 Z0.0000 F8000.0
G0 X174.1343 Y-34.5876 F15000.0
G1 Z11.9000 F8000.0
G1 X173.8689 Y-34.2338 F12000.0
G1 X172.4094 Y-30.1649
G1 Z0.0000 F8000.0
G0 X170.9487 Y-31.3590 F15000.0
G1 Z11.9000 F8000.0
G1 X170.8160 Y-31.2264 F12000.0
G1 Z0.0000 F8000.0
G0 X174.8195 Y-23.7067 F15000.0
G1 Z11.9000 F8000.0
G1 X174.5984 Y-23.5740 F12000.0
G1 Z0.0000 F8000.0
G0 X175.2618 Y-23.7067 F15000.0
G1 Z11.9000 F8000.0
G1 X174.4215 Y-21.3627 F12000.0
G1 X174.2446 Y-21.0531
G1 Z0.0000 F8000.0
G0 X180.0000 Y-39.4714 F15000.0
G1 Z11.9000 F8000.0
G1 X145.9771 Y-39.4714 F12000.0
G1 X131.3959 Y-39.4714 F12000.0
G1 Z0.0000 F8000.0
G0 X131.3959 Y-44.3318 F15000.0
G1 Z11.9000 F8000.0
G1 X131.3959 Y-5.3662 F12000.0
G1 Z0.0000 F8000.0
G0 X121.3416 Y-30.6178 F15000.0
G1 Z11.9000 F8000.0
G1 X120.6369 Y-31.1514 F12000.0
G1 X119.8293 Y-32.4265
G1 X119.2680 Y-33.0535
G1 X119.3301 Y-33.2480
G1 X119.6826 Y-33.6703
G1 X119.3325 Y-33.2846
G1 X119.6284 Y-33.5736
G1 X120.3140 Y-34.8552
G1 X120.8551 Y-35.0936
G1 Z0.0000 F8000.0
G0 X118.2767 Y-35.0449 F15000.0
G1 Z11.9000 F8000.0
G1 X118.2940 Y-33.1511 F12000.0
G1 X118.3488 Y-33.0822
G1 X119.1185 Y-33.0946
G1 X118.3432 Y-33.0235
G1 X118.2382 Y-31.1013
G1 X116.3880 Y-31.0577
G1 X116.1899 Y-31.1302
G1 X115.3524 Y-34.0268
G1 X115.3829 Y-34.2490
G1 X115.5762 Y-34.4056
G1 X115.2981 Y-34.1600
G1 X113.8312 Y-31.8508
G1 X113.1917 Y-31.4419
G1 X113.1160 Y-31.6529
G1 X113.0281 Y-34.8107
G1 X112.9690 Y-35.0099
G1 X111.0197 Y-35.0045
G1 X110.9792 Y-33.1476
G1 Z0.0000 F8000.0
G0 X110.9792 Y-31.0557 F15000.0
G1 Z11.9000 F8000.0
G1 X110.9773 Y-32.8657 F12000.0
G1 X110.9035 Y-33.0636
G1 X107.9271 Y-33.0836
G1 X107.8668 Y-33.2753
G1 X107.8657 Y-35.0449
G1 Z0.0000 F8000.0
G0 X107.8657 Y-33.0990 F15000.0
G1 Z11.9000 F8000.0
G1 X107.8657 Y-31.0557 F12000.0
G1 Z0.0000 F8000.0
G0 X113.0712 Y-31.1530 F15000.0
G1 Z11.9000 F8000.0
G1 X113.1442 Y-31.4039 F12000.0
G1 X113.6849 Y-31.6743
G1 X113.8530 Y-31.8359
G1 Z0.0000 F8000.0
G0 X115.1144 Y-33.9260 F15000.0
G1 Z11.9000 F8000.0
G1 X115.2604 Y-34.1206 F12000.0
G1 Z0.0000 F8000.0
G0 X115.2262 Y-34.0376 F15000.0
G1 Z11.9000 F8000.0
G1 X116.0000 Y-34.6540 F12000.0
G1 X116.1361 Y-34.9963
G1 Z0.0000 F8000.0
G0 X101.6385 Y-29.5962 F15000.0
G1 Z11.9000 F8000.0
G1 X101.7188 Y-30.9042 F12000.0
G1 X102.0902 Y-30.9987
G1 X101.7003 Y-30.9112
G1 X102.1615 Y-31.0562
G1 X102.5228 Y-32.0479
G1 X102.8833 Y-33.8829
G1 X102.9432 Y-35.0816
G1 X105.3931 Y-31.3451
G1 X105.5591 Y-30.9827
G1 X106.0827 Y-30.9005
G1 X106.1507 Y-29.7075
G1 X105.4193 Y-30.9352
G1 X102.2742 Y-31.0118
G1 X100.7277 Y-31.8427
G1 X100.6039 Y-32.0122
G1 X100.7464 Y-32.8711
G1 X100.6839 Y-33.7168
G1 X100.5427 Y-34.1461
G1 X100.1896 Y-34.6671
G1 X99.8057 Y-34.9700
G1 X98.9651 Y-35.2112
G1 X97.9993 Y-34.9562
G1 X97.7984 Y-34.8194
G1 X97.1034 Y-32.6686
G1 X97.1156 Y-32.4283
G1 X97.4146 Y-31.5985
G1 X97.6593 Y-31.3693
G1 X99.2158 Y-30.8888
G1 X99.8574 Y-31.0912
G1 X100.4754 Y-31.7607
G1 X100.0702 Y-31.2456
G1 X99.4764 Y-30.9470
G1 X99.9458 Y-31.1484
G1 X99.8871 Y-31.1043
G1 Z0.0000 F8000.0
G0 X96.2871 Y-30.6178 F15000.0
G1 Z11.9000 F8000.0
G1 X95.5645 Y-31.0369 F12000.0
G1 X94.3771 Y-32.6492
G1 X92.0847 Y-30.7114
G1 X92.5611 Y-30.9699
G1 X93.7479 Y-32.6686
G1 X94.0879 Y-32.8588
G1 X94.3095 Y-32.7463
G1 X94.0484 Y-32.8450
G1 X94.1309 Y-33.4318
G1 Z0.0000 F8000.0
G0 X94.4671 Y-33.7132 F15000.0
G1 Z11.9000 F8000.0
G1 X94.1015 Y-33.4170 F12000.0
G1 X93.6486 Y-33.7240
G1 X92.8697 Y-34.8396
G1 X92.0546 Y-35.4341
G1 Z0.0000 F8000.0
G0 X94.6453 Y-33.9584 F15000.0
G1 Z11.9000 F8000.0
G1 X95.6060 Y-35.2395 F12000.0
G1 Z0.0000 F8000.0
G0 X95.8492 Y-35.3368 F15000.0
G1 Z11.9000 F8000.0
G1 X95.6859 Y-35.2679 F12000.0
G1 X96.0101 Y-35.3620
G1 X95.3679 Y-34.9278
G1 Z0.0000 F8000.0
G0 X97.2601 Y-34.1693 F15000.0
G1 Z11.9000 F8000.0
G1 X97.6979 Y-34.8017 F12000.0
G1 Z0.0000 F8000.0
G0 X90.5951 Y-31.2989 F15000.0
G1 Z11.9000 F8000.0
G1 X91.1937 Y-31.9238 F12000.0
G1 X90.7588 Y-31.5230
G1 X90.9819 Y-31.8193
G1 X90.5361 Y-31.3119
G1 X89.6375 Y-30.8943
G1 X87.9759 Y-31.4244
G1 X87.8505 Y-31.6090
G1 X87.5264 Y-33.1801
G1 X87.7008 Y-33.2405
G1 X90.9468 Y-33.2172
G1 X90.9923 Y-33.4868
G1 X90.8010 Y-34.3471
G1 X90.6145 Y-34.6467
G1 X90.3390 Y-34.8949
G1 X89.7673 Y-35.1573
G1 X88.8915 Y-35.1800
G1 X88.1800 Y-34.8450
G1 X87.7066 Y-34.2353
G1 X87.4815 Y-33.2449
G1 Z0.0000 F8000.0
G0 X85.3896 Y-31.4449 F15000.0
G1 Z11.9000 F8000.0
G1 X85.1691 Y-31.2025 F12000.0
G1 X84.7004 Y-30.9531
G1 X85.0732 Y-31.1154
G1 X84.6598 Y-30.9584
G1 Z0.0000 F8000.0
G0 X83.2976 Y-31.1530 F15000.0
G1 Z11.9000 F8000.0
G1 X84.5013 Y-30.8911 F12000.0
G1 X85.3073 Y-31.3573
G1 X85.6994 Y-31.9895
G1 X85.8514 Y-32.7289
G1 X85.8002 Y-33.0948
G1 X85.2535 Y-34.7738
G1 X84.7568 Y-35.1245
G1 X84.1365 Y-35.2200
G1 X83.8952 Y-35.1821
G1 X82.7594 Y-34.6316
G1 X82.5959 Y-34.4652
G1 X82.4772 Y-32.0754
G1 X82.5603 Y-31.4728
G1 X82.6989 Y-31.3430
G1 X83.2214 Y-31.1812
G1 X82.6465 Y-31.3769
G1 X82.5192 Y-29.2070
G1 Z0.0000 F8000.0
G0 X80.2814 Y-31.4449 F15000.0
G1 Z11.9000 F8000.0
G1 X80.2409 Y-31.3842 F12000.0
G1 X80.4438 Y-31.6728
G1 X80.7891 Y-31.9355
G1 X80.1447 Y-31.3235
G1 X79.2473 Y-30.8923
G1 X77.4994 Y-31.4879
G1 X77.1126 Y-33.1646
G1 X77.1652 Y-33.2230
G1 X80.5698 Y-33.2601
G1 X80.3972 Y-34.3262
G1 X80.1395 Y-34.7251
G1 X79.8370 Y-34.9446
G1 X79.2569 Y-35.1797
G1 X78.3792 Y-35.1618
G1 X77.9351 Y-34.9421
G1 X77.3107 Y-34.2918
G1 X77.5742 Y-34.6714
G1 X77.9716 Y-34.9935
G1 X77.7132 Y-34.6570
G1 X77.0705 Y-33.2449
G1 Z0.0000 F8000.0
G0 X75.0759 Y-31.1043 F15000.0
G1 Z11.9000 F8000.0
G1 X70.7574 Y-36.8356 F12000.0
G1 X70.6488 Y-31.0557
G1 Z0.0000 F8000.0
G0 X73.9046 Y-37.0491 F15000.0
G1 Z11.9000 F8000.0
G1 X77.8408 Y-37.1375 F12000.0
G1 X78.0620 Y-37.2260
G1 Z0.0000 F8000.0
G0 X82.5192 Y-34.5585 F15000.0
G1 Z11.9000 F8000.0
G1 X82.5011 Y-35.0110 F12000.0
G1 X82.9177 Y-34.7495
G1 X83.3563 Y-34.9461
G1 X83.2976 Y-34.8990
G1 Z0.0000 F8000.0
G0 X63.2677 Y-39.4714 F15000.0
G1 Z11.9000 F8000.0
G1 X0.0000 Y-39.4714 F12000.0
G1 Z0.0000 F8000.0
G0 X1.1413 Y-38.5439 F15000.0
G1 Z11.9000 F8000.0
G1 X1.2391 Y-36.8138 F12000.0
G1 X1.5503 Y-37.1194
G1 X2.2524 Y-38.0924
G1 X2.0595 Y-37.8396
G1 X2.5614 Y-38.3761
G1 X2.4756 Y-38.1133
G1 X2.5824 Y-36.8600
G1 X2.6675 Y-36.6756
G1 X3.6407 Y-36.6337
G1 X4.0720 Y-36.8279
G1 X4.1049 Y-36.9133
G1 X3.9809 Y-37.2372
G1 X3.8251 Y-37.3284
G1 X4.0303 Y-37.4712
G1 X3.9859 Y-37.9138
G1 X3.6421 Y-37.9886
G1 X3.4042 Y-37.8214
G1 X4.7498 Y-37.6241
G1 X4.7488 Y-36.7281
G1 X4.8497 Y-37.7035
G1 X5.5110 Y-36.7424
G1 X5.8790 Y-37.4894
G1 X6.0898 Y-37.6239
G1 X6.2009 Y-36.6465
G1 Z0.0000 F8000.0
G0 X8.5315 Y-36.5492 F15000.0
G1 Z11.9000 F8000.0
G1 X8.6933 Y-36.6236 F12000.0
G1 X8.7731 Y-36.8163
G1 X8.8234 Y-38.4952
G1 Z0.0000 F8000.0
G0 X8.8720 Y-38.5925 F15000.0
G1 Z11.9000 F8000.0
G1 X9.8166 Y-38.5666 F12000.0
G1 X9.8765 Y-38.4983
G1 X9.9979 Y-36.6965
G1 X10.5732 Y-36.8328
G1 X11.1046 Y-37.1532
G1 X11.6994 Y-37.8664
G1 X11.5478 Y-37.7168
G1 Z0.0000 F8000.0
G0 X10.6721 Y-37.9601 F15000.0
G1 Z11.9000 F8000.0
G1 X10.7395 Y-36.9805 F12000.0
G1 X10.9307 Y-36.9598
G1 X10.8329 Y-36.9072
G1 X10.9797 Y-36.9699
G1 X11.3268 Y-37.4670
G1 X11.5659 Y-37.6450
G1 X11.7424 Y-36.6465
G1 Z0.0000 F8000.0
G0 X13.3478 Y-36.7438 F15000.0
G1 Z11.9000 F8000.0
G1 X13.3836 Y-36.8067 F12000.0
G1 X12.9832 Y-36.6356
G1 X12.4578 Y-36.9181
G1 X12.3917 Y-37.2728
G1 X12.4959 Y-37.7420
G1 X13.0674 Y-37.9676
G1 X14.8559 Y-38.0087
G1 Z0.0000 F8000.0
G0 X14.3208 Y-38.0087 F15000.0
G1 Z11.9000 F8000.0
G1 X14.3694 Y-36.6465 F12000.0
G1 Z0.0000 F8000.0
G0 X10.5836 Y-35.4529 F15000.0
G1 Z11.9000 F8000.0
G1 X9.6173 Y-35.2652 F12000.0
G1 X9.4924 Y-35.1243
G1 X9.3992 Y-34.7830
G1 X9.4899 Y-33.7416
G1 X9.6343 Y-33.5490
G1 X9.9705 Y-33.4487
G1 X10.3237 Y-33.5678
G1 X10.5022 Y-33.7230
G1 X10.5565 Y-33.9515
G1 X10.3751 Y-34.6679
G1 X10.1723 Y-34.7804
G1 X9.8054 Y-34.7813
G1 X9.5413 Y-34.6510
G1 X10.2082 Y-34.7420
G1 X10.4049 Y-34.6509
G1 X10.4834 Y-34.4523
G1 X10.4376 Y-33.6042
G1 Z0.0000 F8000.0
G0 X8.7349 Y-33.4583 F15000.0
G1 Z11.9000 F8000.0
G1 X8.6209 Y-33.6374 F12000.0
G1 X8.6682 Y-34.2465
G1 X8.5311 Y-34.7168
G1 X8.3403 Y-34.7779
G1 X7.7749 Y-34.5650
G1 X7.6683 Y-33.7260
G1 X7.7411 Y-33.5133
G1 X7.9521 Y-33.4335
G1 X8.7254 Y-33.4706
G1 X8.6082 Y-34.1329
G1 X7.9771 Y-34.0614
G1 X8.4327 Y-33.5595
G1 X8.5890 Y-33.5556
G1 Z0.0000 F8000.0
G0 X5.5252 Y-30.2874 F15000.0
G1 Z11.9000 F8000.0
G1 X4.9412 Y-30.1402 F12000.0
G1 X4.7238 Y-29.5105
G1 X4.8414 Y-29.1594
G1 X4.9944 Y-28.9875
G1 X5.3401 Y-28.9086
G1 X5.7517 Y-29.0562
G1 X5.7075 Y-28.9844
G1 X5.8883 Y-29.3784
G1 X5.7242 Y-30.1016
G1 X5.6009 Y-30.2352
G1 X6.4325 Y-29.7065
G1 X7.3906 Y-29.5036
G1 X7.4835 Y-29.4063
G1 X7.5169 Y-29.1781
G1 X7.5125 Y-29.2714
G1 X7.4823 Y-29.0331
G1 X7.1970 Y-28.9376
G1 X6.6388 Y-29.4289
G1 X6.5388 Y-29.6166
G1 X7.2588 Y-30.2333
G1 X7.3492 Y-30.2111
G1 X7.4412 Y-30.0063
G1 X7.4225 Y-28.9252
G1 Z0.0000 F8000.0
G0 X3.0927 Y-29.0711 F15000.0
G1 Z11.9000 F8000.0
G1 X3.6911 Y-28.9086 F12000.0
G1 X4.0455 Y-29.1082
G1 X4.1392 Y-29.3202
G1 X4.0382 Y-30.0577
G1 X3.8772 Y-30.2277
G1 X3.3975 Y-30.2270
G1 X3.1179 Y-30.0333
G1 X3.0440 Y-28.2927
G1 Z0.0000 F8000.0
G0 X2.3143 Y-28.9252 F15000.0
G1 Z11.9000 F8000.0
G1 X2.2097 Y-30.7745 F12000.0
G1 X0.8548 Y-28.9252
G1 Z0.0000 F8000.0
G0 X0.0000 Y-29.7506 F15000.0
G1 Z11.9000 F8000.0
G1 X63.2677 Y-29.7506 F12000.0
G1 Z0.0000 F8000.0
G0 X63.2677 Y-24.8078 F15000.0
G1 Z11.9000 F8000.0
G1 X0.0000 Y-24.8078 F12000.0
G1 Z0.0000 F8000.0
G0 X0.0000 Y-15.0870 F15000.0
G1 Z11.9000 F8000.0
G1 X63.2677 Y-15.0870 F12000.0
G1 Z0.0000 F8000.0
G0 X53.5469 Y-5.3662 F15000.0
G1 Z11.9000 F8000.0
G1 X53.5469 Y-58.9131 F12000.0
G1 Z0.0000 F8000.0
G0 X63.2677 Y-54.0526 F15000.0
G1 Z11.9000 F8000.0
G1 X0.0000 Y-54.0526 F12000.0
G1 Z0.0000 F8000.0
G0 X0.0000 Y-58.9131 F15000.0
G1 Z11.9000 F8000.0
G1 X180.0000 Y-58.9131 F12000.0
G1 Z0.0000 F8000.0
G0 X180.0000 Y-44.3318 F15000.0
G1 Z11.9000 F8000.0
G1 X63.2677 Y-44.3318 F12000.0
G1 X0.0000 Y-44.3318 F12000.0
G1 Z0.0000 F8000.0
G0 X0.0000 Y-49.1922 F15000.0
G1 Z11.9000 F8000.0
G1 X63.2677 Y-49.1922 F12000.0
G1 Z0.0000 F8000.0
G0 X38.9657 Y-58.9131 F15000.0
G1 Z11.9000 F8000.0
G1 X38.9657 Y-5.3662 F12000.0
G1 Z0.0000 F8000.0
G0 X20.9641 Y-36.7456 F15000.0
G1 Z11.9000 F8000.0
G1 X20.9926 Y-38.2501 F12000.0
G1 X21.1507 Y-38.2375
G1 X21.7154 Y-37.6394
G1 X21.8119 Y-37.4009
G1 X21.7843 Y-37.4587
G1 X22.2913 Y-36.9970
G1 X22.0034 Y-37.1237
G1 X22.2419 Y-37.0675
G1 X22.3930 Y-37.1387
G1 X22.4236 Y-38.5943
G1 Z0.0000 F8000.0
G0 X23.1047 Y-38.1078 F15000.0
G1 Z11.9000 F8000.0
G1 X23.3340 Y-38.1746 F12000.0
G1 X23.5004 Y-38.0957
G1 X23.6029 Y-37.9243
G1 X23.6538 Y-37.5259
G1 X23.3721 Y-37.2615
G1 X22.9918 Y-37.3123
G1 X23.4150 Y-37.1794
G1 X23.6467 Y-36.9069
G1 X23.4609 Y-37.2375
G1 X23.5277 Y-37.4053
G1 X22.9717 Y-37.4495
G1 X22.9101 Y-37.9132
G1 Z0.0000 F8000.0
G0 X21.7425 Y-37.5240 F15000.0
G1 Z11.9000 F8000.0
G1 X21.3204 Y-38.1217 F12000.0
G1 X21.0614 Y-38.3024
G1 Z0.0000 F8000.0
G0 X2.3399 Y-12.3733 F15000.0
G1 Z11.9000 F8000.0
G1 X2.3362 Y-14.2690 F12000.0
G1 X2.2523 Y-13.4852
G1 X0.9349 Y-13.4553
G1 X0.8804 Y-12.5243
G1 X0.8804 Y-14.3679
G1 Z0.0000 F8000.0
G0 X105.3479 Y-51.0858 F15000.0
G1 Z11.9000 F8000.0
G1 X105.3479 Y-55.0264 F12000.0
G1 Z0.0000 F8000.0
G0 X105.3479 Y-53.1290 F15000.0
G1 Z11.9000 F8000.0
G1 X106.2236 Y-53.0804 F12000.0
G1 Z0.0000 F8000.0
G0 X107.9263 Y-55.0750 F15000.0
G1 Z11.9000 F8000.0
G1 X107.3661 Y-54.8621 F12000.0
G1 X106.8699 Y-53.9196
G1 X106.3760 Y-53.2731
G1 X106.7497 Y-53.7224
G1 X106.3119 Y-53.0449
G1 X108.0918 Y-50.9029
G1 X108.2750 Y-50.7926
G1 X108.9452 Y-51.0527
G1 X108.9966 Y-53.7615
G1 Z0.0000 F8000.0
G0 X108.9966 Y-52.4966 F15000.0
G1 Z11.9000 F8000.0
G1 X111.0885 Y-52.4479 F12000.0
G1 Z0.0000 F8000.0
G0 X111.1372 Y-53.7615 F15000.0
G1 Z11.9000 F8000.0
G1 X111.1586 Y-51.1266 F12000.0
G1 X111.2197 Y-51.0612
G1 X112.5661 Y-51.0709
G1 X114.0075 Y-53.8588
G1 Z0.0000 F8000.0
G0 X116.6346 Y-55.0750 F15000.0
G1 Z11.9000 F8000.0
G1 X117.3643 Y-55.0750 F12000.0
G1 X117.8995 Y-54.6858
G1 X118.0941 Y-54.2480
G1 X118.2400 Y-52.4966
G1 X118.0941 Y-51.7668
G1 X117.8508 Y-51.2804
G1 X117.4616 Y-50.9885
G1 X116.6346 Y-50.9885
G1 X116.0994 Y-51.4263
G1 X116.1967 Y-51.3290
G1 X116.0021 Y-51.6695
G1 X115.8075 Y-52.5939
G1 X116.0508 Y-54.4912
G1 X116.6346 Y-55.0750
G1 Z0.0000 F8000.0
G0 X119.7481 Y-54.0047 F15000.0
G1 Z11.9000 F8000.0
G1 X120.8618 Y-54.5853 F12000.0
G1 X121.0331 Y-54.9796
G1 X120.9191 Y-54.3799
G1 X120.9644 Y-51.0371
G1 Z0.0000 F8000.0
G0 X117.8508 Y-51.3290 F15000.0
G1 Z11.9000 F8000.0
G1 X117.5103 Y-51.0371 F12000.0
G1 Z0.0000 F8000.0
G0 X125.0996 Y-51.4263 F15000.0
G1 Z11.9000 F8000.0
G1 X125.3816 Y-51.1355 F12000.0
G1 X125.6832 Y-51.0063
G1 X126.4340 Y-51.0430
G1 X126.8510 Y-51.3290
G1 Z0.0000 F8000.0
G0 X128.6997 Y-51.4263 F15000.0
G1 Z11.9000 F8000.0
G1 X129.2348 Y-50.9885 F12000.0
G1 X130.0619 Y-50.9885 F12000.0
G1 X130.4510 Y-51.2804
G1 X130.6943 Y-51.7668
G1 X130.8402 Y-52.4966
G1 X130.6943 Y-54.2480
G1 X130.4997 Y-54.6858
G1 X129.9646 Y-55.0750
G1 X129.2348 Y-55.0750
G1 X128.6510 Y-54.4912 F12000.0
G1 X128.4078 Y-52.5939
G1 X128.6024 Y-51.6695
G1 X128.7970 Y-51.3290
G1 X128.6997 Y-51.4263
G1 Z0.0000 F8000.0
G0 X132.3484 Y-54.0047 F15000.0
G1 Z11.9000 F8000.0
G1 X133.4620 Y-54.5853 F12000.0
G1 X133.6333 Y-54.9796
G1 X133.5194 Y-54.3799
G1 X133.5646 Y-51.0371
G1 Z0.0000 F8000.0
G0 X125.6347 Y-55.0750 F15000.0
G1 Z11.9000 F8000.0
G1 X126.3645 Y-55.0750 F12000.0
G1 X126.8996 Y-54.6858
G1 X127.0942 Y-54.2480
G1 X127.2402 Y-52.4966
G1 X127.0942 Y-51.7668
G1 X126.8510 Y-51.2804
G1 X126.4618 Y-50.9885
G1 X125.6347 Y-50.9885
G1 X125.0996 Y-51.4263
G1 X125.1969 Y-51.3290
G1 X125.0023 Y-51.6695
G1 X124.8077 Y-52.5939
G1 X125.0509 Y-54.4912
G1 X125.6347 Y-55.0750
G1 Z0.0000 F8000.0
G0 X163.6102 Y-41.3188 F15000.0
G1 Z11.9000 F8000.0
G1 X163.6952 Y-43.3222 F12000.0
G1 X163.6737 Y-43.2089
G1 X163.8576 Y-43.0211
G1 X164.6877 Y-41.5382
G1 X165.0802 Y-42.2557
G1 X164.8955 Y-41.6902
G1 X164.9769 Y-41.9654
G1 X164.7292 Y-41.4648
G1 Z0.0000 F8000.0
G0 X165.7021 Y-41.2702 F15000.0
G1 Z11.9000 F8000.0
G1 X165.5914 Y-43.1661 F12000.0
G1 X165.2099 Y-42.6209
G1 X165.6048 Y-43.2648
G1 Z0.0000 F8000.0
G0 X166.8211 Y-42.8756 F15000.0
G1 Z11.9000 F8000.0
G1 X166.7289 Y-42.7934 F12000.0
G1 X166.9777 Y-42.8541
G1 X167.6839 Y-42.7022
G1 X167.7380 Y-42.3604
G1 X167.6239 Y-42.1699
G1 X166.6130 Y-41.4878
G1 X167.0521 Y-41.2100
G1 X167.6793 Y-41.4022
G1 X167.7469 Y-42.1444
G1 X167.7454 Y-41.4648
G1 Z0.0000 F8000.0
G0 X169.5941 Y-41.4161 F15000.0
G1 Z11.9000 F8000.0
G1 X169.6481 Y-41.5336 F12000.0
G1 X169.4757 Y-41.3369
G1 X169.1316 Y-41.2105
G1 X168.6910 Y-41.3764
G1 X168.4480 Y-41.9367
G1 X168.5683 Y-42.5466
G1 X168.8039 Y-42.8248
G1 X169.4021 Y-42.8477
G1 X169.6428 Y-42.5837
G1 Z0.0000 F8000.0
G0 X170.3239 Y-42.8269 F15000.0
G1 Z11.9000 F8000.0
G1 X170.3494 Y-41.3948 F12000.0
G1 X170.5251 Y-41.3008
G1 X171.1500 Y-41.2399
G1 X171.3216 Y-41.3261
G1 X171.3455 Y-42.8269
G1 Z0.0000 F8000.0
G0 X172.4158 Y-42.8269 F15000.0
G1 Z11.9000 F8000.0
G1 X171.3941 Y-41.2702 F12000.0
G1 Z0.0000 F8000.0
G0 X173.5834 Y-41.2702 F15000.0
G1 Z11.9000 F8000.0
G1 X173.5347 Y-42.8756 F12000.0
G1 Z0.0000 F8000.0
G0 X172.9509 Y-42.8756 F15000.0
G1 Z11.9000 F8000.0
G1 X174.1672 Y-42.8756 F12000.0
G1 Z0.0000 F8000.0
G0 X174.9942 Y-42.8756 F15000.0
G1 Z11.9000 F8000.0
G1 X174.8989 Y-42.7882 F12000.0
G1 X175.1660 Y-42.8528
G1 X175.8661 Y-42.6926
G1 X175.9075 Y-42.3470
G1 X175.7846 Y-42.1613
G1 X174.7806 Y-41.4797
G1 X175.2391 Y-41.2061
G1 X175.8626 Y-41.3993
G1 X175.9507 Y-41.6158
G1 X175.9186 Y-42.2431
G1 Z0.0000 F8000.0
G0 X176.7456 Y-42.5350 F15000.0
G1 Z11.9000 F8000.0
G1 X177.0472 Y-42.7394 F12000.0
G1 X176.7385 Y-42.4790
G1 X177.0255 Y-41.4061
G1 X177.2979 Y-41.2231
G1 X178.0186 Y-41.8705
G1 X178.0890 Y-42.0874
G1 X178.0533 Y-42.3333
G1 X177.7972 Y-42.7272
G1 X176.7453 Y-42.7015
G1 X176.7468 Y-43.0369
G1 X176.9660 Y-43.3569
G1 X178.0591 Y-43.6540
G1 Z0.0000 F8000.0
G0 X176.8915 Y-41.4648 F15000.0
G1 Z11.9000 F8000.0
G1 X177.0375 Y-41.3188 F12000.0
G1 Z0.0000 F8000.0

G0 Z0.0000 F800.0
G4 P0.06
G0 X0.0000 Y0.0000 F15000.0
M5
G4 P0.10
$1=0
