$X
$1=255
G21
G90
G92 Z4.0000
G0 Z0.0000 F800.0
G4 P0.06
G92 Z0.0000
G0 Z0.0000 F800.0
G0 X0.0000 Y0.0000 F15000.0
G21
G90
G17
G91.1
G0 Z0.0000
G0 X0.0000 Y-15.0000 F15000.0
G1 Z11.9000 F8000.0
G1 X180.0000 Y-15.0000 F12000.0
G1 X180.0000 Y-295.0000
G1 X0.0000 Y-295.0000
G1 X0.0000 Y-15.0000
G1 Z0.0000 F8000.0
G0 X127.4653 Y-185.0562 F15000.0
G1 Z11.9000 F8000.0
G1 X129.4555 Y-182.8006 F12000.0
G1 X129.6324 Y-183.8620
G1 X130.1632 Y-184.1274
G1 X131.1804 Y-183.7736
G1 Z0.0000 F8000.0
G0 X131.4457 Y-183.6409 F15000.0
G1 Z11.9000 F8000.0
G1 X131.5342 Y-183.5524 F12000.0
G1 Z0.0000 F8000.0
G0 X131.7111 Y-183.3313 F15000.0
G1 Z11.9000 F8000.0
G1 X132.1091 Y-181.6507 F12000.0
G1 Z0.0000 F8000.0
G0 X131.7995 Y-184.7908 F15000.0
G1 Z11.9000 F8000.0
G1 X131.5784 Y-184.6581 F12000.0
G1 X129.6767 Y-185.1888
G1 Z0.0000 F8000.0
G0 X128.6594 Y-185.8080 F15000.0
G1 Z11.9000 F8000.0
G1 X129.4555 Y-185.3657 F12000.0
G1 X129.7651 Y-187.0021
G1 Z0.0000 F8000.0
G0 X129.9420 Y-187.0906 F15000.0
G1 Z11.9000 F8000.0
G1 X130.3401 Y-187.0464 F12000.0
G1 X131.2688 Y-186.6926
G1 X131.7553 Y-186.2503
G1 Z0.0000 F8000.0
G0 X131.8438 Y-186.0734 F15000.0
G1 Z11.9000 F8000.0
G1 X131.8880 Y-184.9235 F12000.0
G1 Z0.0000 F8000.0
G0 X127.9518 Y-186.5156 F15000.0
G1 Z11.9000 F8000.0
G1 X127.8191 Y-186.6926 F12000.0
G1 Z0.0000 F8000.0
G0 X127.6422 Y-187.0464 F15000.0
G1 Z11.9000 F8000.0
G1 X127.5095 Y-187.3560 F12000.0
G1 Z0.0000 F8000.0
G0 X133.7849 Y-207.3936 F15000.0
G1 Z11.9000 F8000.0
G1 X134.3616 Y-207.8879 F12000.0
G1 X135.0206 Y-207.3936 F12000.0
G1 X134.3616 Y-212.2540 F12000.0
G1 X133.7849 Y-207.3936 F12000.0
G1 Z0.0000 F8000.0
G0 X134.1144 Y-209.0976 F15000.0
G1 Z11.9000 F8000.0
G1 X134.1144 Y-209.9733 F12000.0
G1 Z0.0000 F8000.0
G0 X134.6911 Y-210.3028 F15000.0
G1 Z11.9000 F8000.0
G1 X134.6911 Y-209.4271 F12000.0
G1 Z0.0000 F8000.0
G0 X134.3616 Y-212.2540 F15000.0
G1 Z11.9000 F8000.0
G1 X134.3616 Y-157.7185 F12000.0
G1 X133.7849 Y-162.5789 F12000.0
G1 X134.3616 Y-162.0847 F12000.0
G1 X135.0206 Y-162.5789 F12000.0
G1 X134.3616 Y-157.7185 F12000.0
G1 Z0.0000 F8000.0
G0 X136.3387 Y-157.7185 F15000.0
G1 Z11.9000 F8000.0
G1 X100.9153 Y-157.7185 F12000.0
G1 X100.9153 Y-173.2883 F12000.0
G1 X100.9153 Y-184.9863 F12000.0
G1 X100.9153 Y-212.2540 F12000.0
G1 X90.2060 Y-212.2540 F12000.0
G1 X90.2060 Y-157.7185 F12000.0
G1 X100.9153 Y-157.7185 F12000.0
G1 X100.9153 Y-131.4394 F12000.0
G1 Z0.0000 F8000.0
G0 X100.9153 Y-133.3341 F15000.0
G1 Z11.9000 F8000.0
G1 X96.0549 Y-132.7574 F12000.0
G1 X96.5492 Y-133.3341 F12000.0
G1 X96.0549 Y-133.9931 F12000.0
G1 X100.9153 Y-133.3341 F12000.0
G1 X90.2060 Y-133.3341 F12000.0
G1 X85.3455 Y-133.3341 F12000.0
G1 X75.6247 Y-133.3341 F12000.0
G1 Z0.0000 F8000.0
G0 X79.1253 Y-135.8365 F15000.0
G1 Z11.9000 F8000.0
G1 X80.5848 Y-139.9054 F12000.0
G1 X80.8501 Y-140.2592
G1 Z0.0000 F8000.0
G0 X80.5406 Y-139.9496 F15000.0
G1 Z11.9000 F8000.0
G1 X80.2310 Y-139.8611 F12000.0
G1 Z0.0000 F8000.0
G0 X79.4791 Y-139.3746 F15000.0
G1 Z11.9000 F8000.0
G1 X79.3022 Y-139.1977 F12000.0
G1 Z0.0000 F8000.0
G0 X82.0000 Y-138.2690 F15000.0
G1 Z11.9000 F8000.0
G1 X81.9116 Y-138.0036 F12000.0
G1 Z0.0000 F8000.0
G0 X81.7789 Y-137.6498 F15000.0
G1 Z11.9000 F8000.0
G1 X81.1155 Y-135.9250 F12000.0
G1 Z0.0000 F8000.0
G0 X82.3539 Y-139.2420 F15000.0
G1 Z11.9000 F8000.0
G1 X82.4865 Y-139.5958 F12000.0
G1 X82.4865 Y-139.9496
G1 X82.1327 Y-139.8611
G1 Z0.0000 F8000.0
G0 X82.6192 Y-140.0823 F15000.0
G1 Z11.9000 F8000.0
G1 X82.7077 Y-140.2150 F12000.0
G1 Z0.0000 F8000.0
G0 X90.2060 Y-133.3341 F15000.0
G1 Z11.9000 F8000.0
G1 X95.0664 Y-133.9931 F12000.0
G1 X94.5721 Y-133.3341 F12000.0
G1 X95.0664 Y-132.7574 F12000.0
G1 X90.2060 Y-133.3341 F12000.0
G1 Z0.0000 F8000.0
G0 X90.2060 Y-131.4394 F15000.0
G1 Z11.9000 F8000.0
G1 X90.2060 Y-157.7185 F12000.0
G1 Z0.0000 F8000.0
G0 X90.4531 Y-157.7185 F15000.0
G1 Z11.9000 F8000.0
G1 X100.9153 Y-168.1808 F12000.0
G1 Z0.0000 F8000.0
G0 X100.9153 Y-170.8993 F15000.0
G1 Z11.9000 F8000.0
G1 X90.2060 Y-160.1899 F12000.0
G1 Z0.0000 F8000.0
G0 X90.2060 Y-162.9908 F15000.0
G1 Z11.9000 F8000.0
G1 X100.5034 Y-173.2883 F12000.0
G1 Z0.0000 F8000.0
G0 X100.9153 Y-173.2883 F15000.0
G1 Z11.9000 F8000.0
G1 X90.2060 Y-173.2883 F12000.0
G1 X75.6247 Y-173.2883 F12000.0
G1 Z0.0000 F8000.0
G0 X77.5195 Y-173.2883 F15000.0
G1 Z11.9000 F8000.0
G1 X76.8604 Y-178.1487 F12000.0
G1 X77.5195 Y-177.6545 F12000.0
G1 X78.1785 Y-178.1487 F12000.0
G1 X77.5195 Y-173.2883 F12000.0
G1 X77.5195 Y-191.9062 F12000.0
G1 Z0.0000 F8000.0
G0 X73.9035 Y-185.8753 F15000.0
G1 Z11.9000 F8000.0
G1 X73.8150 Y-184.0620 F12000.0
G1 X73.1958 Y-184.2832
G1 X72.3555 Y-184.7697
G1 Z0.0000 F8000.0
G0 X72.8420 Y-185.6984 F15000.0
G1 Z11.9000 F8000.0
G1 X73.8150 Y-185.3888 F12000.0
G1 X73.9035 Y-185.2119
G1 X74.9207 Y-184.8581
G1 Z0.0000 F8000.0
G0 X74.9207 Y-182.4699 F15000.0
G1 Z11.9000 F8000.0
G1 X74.8322 Y-180.7892 F12000.0
G1 X74.6111 Y-180.8777
G1 Z0.0000 F8000.0
G0 X73.2401 Y-180.2143 F15000.0
G1 Z11.9000 F8000.0
G1 X72.6651 Y-180.4796 F12000.0
G1 X72.0459 Y-180.3470
G1 Z0.0000 F8000.0
G0 X71.6037 Y-180.1258 F15000.0
G1 Z11.9000 F8000.0
G1 X72.3998 Y-179.5951 F12000.0
G1 Z0.0000 F8000.0
G0 X71.7363 Y-179.9047 F15000.0
G1 Z11.9000 F8000.0
G1 X72.0017 Y-178.8433 F12000.0
G1 Z0.0000 F8000.0
G0 X72.1786 Y-178.6221 F15000.0
G1 Z11.9000 F8000.0
G1 X72.4440 Y-178.3568 F12000.0
G1 X73.4612 Y-178.0914
G1 X73.7708 Y-178.3125
G1 Z0.0000 F8000.0
G0 X73.9477 Y-178.6663 F15000.0
G1 Z11.9000 F8000.0
G1 X73.8592 Y-179.4182 F12000.0
G1 Z0.0000 F8000.0
G0 X73.3727 Y-178.9317 F15000.0
G1 Z11.9000 F8000.0
G1 X73.2843 Y-179.0202 F12000.0
G1 Z0.0000 F8000.0
G0 X73.7266 Y-178.7106 F15000.0
G1 Z11.9000 F8000.0
G1 X74.9207 Y-177.8703 F12000.0
G1 Z0.0000 F8000.0
G0 X77.2311 Y-176.4859 F15000.0
G1 Z11.9000 F8000.0
G1 X77.2311 Y-175.6102 F12000.0
G1 Z0.0000 F8000.0
G0 X77.8490 Y-175.3219 F15000.0
G1 Z11.9000 F8000.0
G1 X77.8490 Y-176.1976 F12000.0
G1 Z0.0000 F8000.0
G0 X73.1516 Y-182.3372 F15000.0
G1 Z11.9000 F8000.0
G1 X71.5152 Y-183.8851 F12000.0
G1 X70.9845 Y-183.9736
G1 Z0.0000 F8000.0
G0 X70.7191 Y-183.8409 F15000.0
G1 Z11.9000 F8000.0
G1 X70.4095 Y-183.3102 F12000.0
G1 X70.4538 Y-182.9564
G1 X70.8960 Y-182.1603
G1 Z0.0000 F8000.0
G0 X70.7634 Y-180.7008 F15000.0
G1 Z11.9000 F8000.0
G1 X71.2499 Y-180.3470 F12000.0
G1 Z0.0000 F8000.0
G0 X88.2288 Y-184.9863 F15000.0
G1 Z11.9000 F8000.0
G1 X102.8101 Y-184.9863 F12000.0
G1 Z0.0000 F8000.0
G0 X97.7849 Y-173.2883 F15000.0
G1 Z11.9000 F8000.0
G1 X90.2060 Y-165.7094 F12000.0
G1 Z0.0000 F8000.0
G0 X90.2060 Y-168.5103 F15000.0
G1 Z11.9000 F8000.0
G1 X95.0664 Y-173.2883 F12000.0
G1 Z0.0000 F8000.0
G0 X92.2654 Y-173.2883 F15000.0
G1 Z11.9000 F8000.0
G1 X90.2060 Y-171.2288 F12000.0
G1 Z0.0000 F8000.0
G0 X100.9153 Y-165.3799 F15000.0
G1 Z11.9000 F8000.0
G1 X93.2540 Y-157.7185 F12000.0
G1 Z0.0000 F8000.0
G0 X95.9725 Y-157.7185 F15000.0
G1 Z11.9000 F8000.0
G1 X100.9153 Y-162.6613 F12000.0
G1 Z0.0000 F8000.0
G0 X100.9153 Y-159.9428 F15000.0
G1 Z11.9000 F8000.0
G1 X98.6911 Y-157.7185 F12000.0
G1 Z0.0000 F8000.0
G0 X98.6758 Y-133.6636 F15000.0
G1 Z11.9000 F8000.0
G1 X97.8001 Y-133.6636 F12000.0
G1 Z0.0000 F8000.0
G0 X98.0885 Y-133.0870 F15000.0
G1 Z11.9000 F8000.0
G1 X98.9642 Y-133.0870 F12000.0
G1 Z0.0000 F8000.0
G0 X93.4035 Y-133.6636 F15000.0
G1 Z11.9000 F8000.0
G1 X92.5278 Y-133.6636 F12000.0
G1 Z0.0000 F8000.0
G0 X92.1983 Y-133.0870 F15000.0
G1 Z11.9000 F8000.0
G1 X93.0740 Y-133.0870 F12000.0
G1 Z0.0000 F8000.0
G0 X134.1144 Y-160.0816 F15000.0
G1 Z11.9000 F8000.0
G1 X134.1144 Y-160.9573 F12000.0
G1 Z0.0000 F8000.0
G0 X134.6911 Y-160.6278 F15000.0
G1 Z11.9000 F8000.0
G1 X134.6911 Y-159.7521 F12000.0
G1 Z0.0000 F8000.0
G0 X136.3387 Y-212.2540 F15000.0
G1 Z11.9000 F8000.0
G1 X100.9153 Y-212.2540 F12000.0
G1 Z0.0000 F8000.0
G0 X68.1282 Y-281.0412 F15000.0
G1 Z11.9000 F8000.0
G1 X0.0000 Y-281.0412 F12000.0
G1 Z0.0000 F8000.0
G0 X12.1677 Y-286.8668 F15000.0
G1 Z11.9000 F8000.0
G1 X11.6812 Y-286.3803 F12000.0
G1 X11.2389 Y-285.3631
G1 X11.2389 Y-284.6997
G1 X11.3716 Y-284.5228
G1 X12.1234 Y-284.2574
G1 X12.7426 Y-284.4343
G1 X13.2291 Y-284.7881
G1 Z0.0000 F8000.0
G0 X13.4945 Y-285.0535 F15000.0
G1 Z11.9000 F8000.0
G1 X13.9810 Y-286.5130 F12000.0
G1 X13.7598 Y-287.0879
G1 Z0.0000 F8000.0
G0 X14.3348 Y-287.5302 F15000.0
G1 Z11.9000 F8000.0
G1 X13.7156 Y-287.1322 F12000.0
G1 X12.3888 Y-287.2206
G1 X11.9908 Y-287.7956
G1 X12.3446 Y-289.1666
G1 X12.6984 Y-289.8300
G1 Z0.0000 F8000.0
G0 X13.1407 Y-290.2723 F15000.0
G1 Z11.9000 F8000.0
G1 X14.4232 Y-290.6261 F12000.0
G1 X15.0424 Y-290.4934
G1 X15.3078 Y-290.2723
G1 Z0.0000 F8000.0
G0 X15.3962 Y-290.0954 F15000.0
G1 Z11.9000 F8000.0
G1 X15.2193 Y-288.9897 F12000.0
G1 X14.6886 Y-287.8840
G1 Z0.0000 F8000.0
G0 X15.8899 Y-287.5744 F15000.0
G1 Z11.9000 F8000.0
G1 X15.9783 Y-287.8398 F12000.0
G1 Z0.0000 F8000.0
G0 X16.1110 Y-288.1936 F15000.0
G1 Z11.9000 F8000.0
G1 X16.1552 Y-288.3263 F12000.0
G1 Z0.0000 F8000.0
G0 X16.2879 Y-288.6801 F15000.0
G1 Z11.9000 F8000.0
G1 X16.6417 Y-289.5204 F12000.0
G1 Z0.0000 F8000.0
G0 X17.3051 Y-290.2723 F15000.0
G1 Z11.9000 F8000.0
G1 X17.5263 Y-290.4050 F12000.0
G1 Z0.0000 F8000.0
G0 X17.7916 Y-290.5376 F15000.0
G1 Z11.9000 F8000.0
G1 X19.2953 Y-290.4050 F12000.0
G1 Z0.0000 F8000.0
G0 X19.4722 Y-290.2280 F15000.0
G1 Z11.9000 F8000.0
G1 X19.5607 Y-290.0069 F12000.0
G1 X19.5165 Y-289.3435
G1 X19.2953 Y-288.6801
G1 Z0.0000 F8000.0
G0 X19.1627 Y-288.3263 F15000.0
G1 Z11.9000 F8000.0
G1 X19.1184 Y-288.1936 F12000.0
G1 Z0.0000 F8000.0
G0 X18.9857 Y-287.8398 F15000.0
G1 Z11.9000 F8000.0
G1 X18.8973 Y-287.5744 F12000.0
G1 Z0.0000 F8000.0
G0 X18.7646 Y-287.2206 F15000.0
G1 Z11.9000 F8000.0
G1 X18.6762 Y-286.9553 F12000.0
G1 Z0.0000 F8000.0
G0 X18.5435 Y-286.6014 F15000.0
G1 Z11.9000 F8000.0
G1 X18.4993 Y-286.4688 F12000.0
G1 Z0.0000 F8000.0
G0 X18.3666 Y-286.1149 F15000.0
G1 Z11.9000 F8000.0
G1 X18.1012 Y-285.4073 F12000.0
G1 Z0.0000 F8000.0
G0 X17.8801 Y-285.0093 F15000.0
G1 Z11.9000 F8000.0
G1 X17.6147 Y-284.7439 F12000.0
G1 Z0.0000 F8000.0
G0 X17.0840 Y-284.3901 F15000.0
G1 Z11.9000 F8000.0
G1 X15.5803 Y-284.3459 F12000.0
G1 X15.2707 Y-284.5228
G1 X15.1380 Y-284.6997
G1 X15.1822 Y-285.6285
G1 X15.3591 Y-286.1149
G1 Z0.0000 F8000.0
G0 X15.4918 Y-286.4688 F15000.0
G1 Z11.9000 F8000.0
G1 X15.5361 Y-286.6014 F12000.0
G1 Z0.0000 F8000.0
G0 X15.6687 Y-286.9553 F15000.0
G1 Z11.9000 F8000.0
G1 X15.7572 Y-287.2206 F12000.0
G1 Z0.0000 F8000.0
G0 X20.5851 Y-286.1149 F15000.0
G1 Z11.9000 F8000.0
G1 X20.4082 Y-285.6285 F12000.0
G1 X20.3640 Y-284.6997
G1 X20.4967 Y-284.5228
G1 X20.8063 Y-284.3459
G1 X22.3100 Y-284.3901
G1 Z0.0000 F8000.0
G0 X22.8407 Y-284.7439 F15000.0
G1 Z11.9000 F8000.0
G1 X23.1061 Y-285.0093 F12000.0
G1 Z0.0000 F8000.0
G0 X23.3272 Y-285.4073 F15000.0
G1 Z11.9000 F8000.0
G1 X23.5925 Y-286.1149 F12000.0
G1 Z0.0000 F8000.0
G0 X23.7252 Y-286.4688 F15000.0
G1 Z11.9000 F8000.0
G1 X23.7695 Y-286.6014 F12000.0
G1 Z0.0000 F8000.0
G0 X23.9021 Y-286.9553 F15000.0
G1 Z11.9000 F8000.0
G1 X23.9906 Y-287.2206 F12000.0
G1 Z0.0000 F8000.0
G0 X24.1233 Y-287.5744 F15000.0
G1 Z11.9000 F8000.0
G1 X24.2117 Y-287.8398 F12000.0
G1 Z0.0000 F8000.0
G0 X24.3444 Y-288.1936 F15000.0
G1 Z11.9000 F8000.0
G1 X24.3886 Y-288.3263 F12000.0
G1 Z0.0000 F8000.0
G0 X24.5213 Y-288.6801 F15000.0
G1 Z11.9000 F8000.0
G1 X24.7424 Y-289.3435 F12000.0
G1 X24.7867 Y-290.0069
G1 X24.6982 Y-290.2280
G1 Z0.0000 F8000.0
G0 X24.5213 Y-290.4050 F15000.0
G1 Z11.9000 F8000.0
G1 X23.0176 Y-290.5376 F12000.0
G1 Z0.0000 F8000.0
G0 X22.7522 Y-290.4050 F15000.0
G1 Z11.9000 F8000.0
G1 X22.5311 Y-290.2723 F12000.0
G1 Z0.0000 F8000.0
G0 X21.8677 Y-289.5204 F15000.0
G1 Z11.9000 F8000.0
G1 X21.5139 Y-288.6801 F12000.0
G1 Z0.0000 F8000.0
G0 X21.3812 Y-288.3263 F15000.0
G1 Z11.9000 F8000.0
G1 X21.3370 Y-288.1936 F12000.0
G1 Z0.0000 F8000.0
G0 X21.2043 Y-287.8398 F15000.0
G1 Z11.9000 F8000.0
G1 X21.1158 Y-287.5744 F12000.0
G1 Z0.0000 F8000.0
G0 X20.9832 Y-287.2206 F15000.0
G1 Z11.9000 F8000.0
G1 X20.8947 Y-286.9553 F12000.0
G1 Z0.0000 F8000.0
G0 X20.7620 Y-286.6014 F15000.0
G1 Z11.9000 F8000.0
G1 X20.7178 Y-286.4688 F12000.0
G1 Z0.0000 F8000.0
G0 X21.0507 Y-290.4678 F15000.0
G1 Z11.9000 F8000.0
G1 X21.2453 Y-290.4678 F12000.0
G1 Z0.0000 F8000.0
G0 X25.6586 Y-288.6801 F15000.0
G1 Z11.9000 F8000.0
G1 X26.0124 Y-289.5204 F12000.0
G1 Z0.0000 F8000.0
G0 X26.6758 Y-290.2723 F15000.0
G1 Z11.9000 F8000.0
G1 X26.8970 Y-290.4050 F12000.0
G1 Z0.0000 F8000.0
G0 X27.1623 Y-290.5376 F15000.0
G1 Z11.9000 F8000.0
G1 X28.6660 Y-290.4050 F12000.0
G1 Z0.0000 F8000.0
G0 X28.8430 Y-290.2280 F15000.0
G1 Z11.9000 F8000.0
G1 X28.9314 Y-290.0069 F12000.0
G1 X28.8872 Y-289.3435
G1 X28.6660 Y-288.6801
G1 Z0.0000 F8000.0
G0 X28.5334 Y-288.3263 F15000.0
G1 Z11.9000 F8000.0
G1 X28.4891 Y-288.1936 F12000.0
G1 Z0.0000 F8000.0
G0 X28.3565 Y-287.8398 F15000.0
G1 Z11.9000 F8000.0
G1 X28.2680 Y-287.5744 F12000.0
G1 Z0.0000 F8000.0
G0 X28.1353 Y-287.2206 F15000.0
G1 Z11.9000 F8000.0
G1 X28.0469 Y-286.9553 F12000.0
G1 Z0.0000 F8000.0
G0 X27.9142 Y-286.6014 F15000.0
G1 Z11.9000 F8000.0
G1 X27.8700 Y-286.4688 F12000.0
G1 Z0.0000 F8000.0
G0 X27.7373 Y-286.1149 F15000.0
G1 Z11.9000 F8000.0
G1 X27.4719 Y-285.4073 F12000.0
G1 Z0.0000 F8000.0
G0 X27.2508 Y-285.0093 F15000.0
G1 Z11.9000 F8000.0
G1 X26.9854 Y-284.7439 F12000.0
G1 Z0.0000 F8000.0
G0 X26.4547 Y-284.3901 F15000.0
G1 Z11.9000 F8000.0
G1 X24.9510 Y-284.3459 F12000.0
G1 X24.6414 Y-284.5228
G1 X24.5087 Y-284.6997
G1 X24.5529 Y-285.6285
G1 X24.7299 Y-286.1149
G1 Z0.0000 F8000.0
G0 X24.8625 Y-286.4688 F15000.0
G1 Z11.9000 F8000.0
G1 X24.9068 Y-286.6014 F12000.0
G1 Z0.0000 F8000.0
G0 X25.0394 Y-286.9553 F15000.0
G1 Z11.9000 F8000.0
G1 X25.1279 Y-287.2206 F12000.0
G1 Z0.0000 F8000.0
G0 X25.2606 Y-287.5744 F15000.0
G1 Z11.9000 F8000.0
G1 X25.3490 Y-287.8398 F12000.0
G1 Z0.0000 F8000.0
G0 X25.4817 Y-288.1936 F15000.0
G1 Z11.9000 F8000.0
G1 X25.5259 Y-288.3263 F12000.0
G1 Z0.0000 F8000.0
G0 X30.1327 Y-286.6014 F15000.0
G1 Z11.9000 F8000.0
G1 X30.0885 Y-286.4688 F12000.0
G1 Z0.0000 F8000.0
G0 X29.9558 Y-286.1149 F15000.0
G1 Z11.9000 F8000.0
G1 X29.7789 Y-285.6285 F12000.0
G1 X29.7347 Y-284.6997
G1 X29.8674 Y-284.5228
G1 X30.1770 Y-284.3459
G1 X31.6807 Y-284.3901
G1 Z0.0000 F8000.0
G0 X32.2114 Y-284.7439 F15000.0
G1 Z11.9000 F8000.0
G1 X32.4768 Y-285.0093 F12000.0
G1 Z0.0000 F8000.0
G0 X32.6979 Y-285.4073 F15000.0
G1 Z11.9000 F8000.0
G1 X32.9632 Y-286.1149 F12000.0
G1 Z0.0000 F8000.0
G0 X33.0959 Y-286.4688 F15000.0
G1 Z11.9000 F8000.0
G1 X33.1402 Y-286.6014 F12000.0
G1 Z0.0000 F8000.0
G0 X33.2728 Y-286.9553 F15000.0
G1 Z11.9000 F8000.0
G1 X33.3613 Y-287.2206 F12000.0
G1 Z0.0000 F8000.0
G0 X33.4940 Y-287.5744 F15000.0
G1 Z11.9000 F8000.0
G1 X33.5824 Y-287.8398 F12000.0
G1 Z0.0000 F8000.0
G0 X33.7151 Y-288.1936 F15000.0
G1 Z11.9000 F8000.0
G1 X33.7593 Y-288.3263 F12000.0
G1 Z0.0000 F8000.0
G0 X33.8920 Y-288.6801 F15000.0
G1 Z11.9000 F8000.0
G1 X34.1131 Y-289.3435 F12000.0
G1 X34.1574 Y-290.0069
G1 X34.0689 Y-290.2280
G1 Z0.0000 F8000.0
G0 X33.8920 Y-290.4050 F15000.0
G1 Z11.9000 F8000.0
G1 X32.3883 Y-290.5376 F12000.0
G1 Z0.0000 F8000.0
G0 X32.1229 Y-290.4050 F15000.0
G1 Z11.9000 F8000.0
G1 X31.9018 Y-290.2723 F12000.0
G1 Z0.0000 F8000.0
G0 X31.2384 Y-289.5204 F15000.0
G1 Z11.9000 F8000.0
G1 X30.8846 Y-288.6801 F12000.0
G1 Z0.0000 F8000.0
G0 X30.7519 Y-288.3263 F15000.0
G1 Z11.9000 F8000.0
G1 X30.7077 Y-288.1936 F12000.0
G1 Z0.0000 F8000.0
G0 X30.5750 Y-287.8398 F15000.0
G1 Z11.9000 F8000.0
G1 X30.4865 Y-287.5744 F12000.0
G1 Z0.0000 F8000.0
G0 X30.3539 Y-287.2206 F15000.0
G1 Z11.9000 F8000.0
G1 X30.2654 Y-286.9553 F12000.0
G1 Z0.0000 F8000.0
G0 X30.4214 Y-290.4678 F15000.0
G1 Z11.9000 F8000.0
G1 X30.6160 Y-290.4678 F12000.0
G1 Z0.0000 F8000.0
G0 X35.8270 Y-290.0954 F15000.0
G1 Z11.9000 F8000.0
G1 X35.3405 Y-289.3877 F12000.0
G1 X34.9425 Y-288.3705
G1 X34.9425 Y-287.6187
G1 X35.0752 Y-287.4418
G1 Z0.0000 F8000.0
G0 X35.2521 Y-287.3091 F15000.0
G1 Z11.9000 F8000.0
G1 X37.2423 Y-287.1764 F12000.0
G1 X37.1981 Y-286.6899
G1 X36.4904 Y-285.6284
G1 X36.0039 Y-285.1862
G1 Z0.0000 F8000.0
G0 X35.4290 Y-284.7439 F15000.0
G1 Z11.9000 F8000.0
G1 X34.7214 Y-284.3901 F12000.0
G1 Z0.0000 F8000.0
G0 X37.5961 Y-287.4860 F15000.0
G1 Z11.9000 F8000.0
G1 X37.6403 Y-287.6187 F12000.0
G1 Z0.0000 F8000.0
G0 X38.2153 Y-289.1666 F15000.0
G1 Z11.9000 F8000.0
G1 X38.3037 Y-289.4320 F12000.0
G1 X38.2153 Y-290.2280
G1 Z0.0000 F8000.0
G0 X38.0384 Y-290.4050 F15000.0
G1 Z11.9000 F8000.0
G1 X36.5347 Y-290.5376 F12000.0
G1 Z0.0000 F8000.0
G0 X36.2693 Y-290.4050 F15000.0
G1 Z11.9000 F8000.0
G1 X36.0482 Y-290.2723 F12000.0
G1 Z0.0000 F8000.0
G0 X39.7921 Y-290.4678 F15000.0
G1 Z11.9000 F8000.0
G1 X39.9867 Y-290.4678 F12000.0
G1 Z0.0000 F8000.0
G0 X40.6091 Y-289.5204 F15000.0
G1 Z11.9000 F8000.0
G1 X40.2553 Y-288.6801 F12000.0
G1 Z0.0000 F8000.0
G0 X40.1226 Y-288.3263 F15000.0
G1 Z11.9000 F8000.0
G1 X40.0784 Y-288.1936 F12000.0
G1 Z0.0000 F8000.0
G0 X39.9457 Y-287.8398 F15000.0
G1 Z11.9000 F8000.0
G1 X39.8572 Y-287.5744 F12000.0
G1 Z0.0000 F8000.0
G0 X39.7246 Y-287.2206 F15000.0
G1 Z11.9000 F8000.0
G1 X39.6361 Y-286.9553 F12000.0
G1 Z0.0000 F8000.0
G0 X39.5034 Y-286.6014 F15000.0
G1 Z11.9000 F8000.0
G1 X39.4592 Y-286.4688 F12000.0
G1 Z0.0000 F8000.0
G0 X39.3265 Y-286.1149 F15000.0
G1 Z11.9000 F8000.0
G1 X39.1496 Y-285.6284 F12000.0
G1 X39.1054 Y-284.6997
G1 X39.2381 Y-284.5228
G1 X39.5477 Y-284.3459
G1 X41.0514 Y-284.3901
G1 Z0.0000 F8000.0
G0 X41.5821 Y-284.7439 F15000.0
G1 Z11.9000 F8000.0
G1 X41.8475 Y-285.0093 F12000.0
G1 Z0.0000 F8000.0
G0 X42.0686 Y-285.4073 F15000.0
G1 Z11.9000 F8000.0
G1 X42.3340 Y-286.1149 F12000.0
G1 Z0.0000 F8000.0
G0 X42.4666 Y-286.4688 F15000.0
G1 Z11.9000 F8000.0
G1 X42.5109 Y-286.6014 F12000.0
G1 Z0.0000 F8000.0
G0 X42.6435 Y-286.9553 F15000.0
G1 Z11.9000 F8000.0
G1 X42.7320 Y-287.2206 F12000.0
G1 Z0.0000 F8000.0
G0 X42.8647 Y-287.5744 F15000.0
G1 Z11.9000 F8000.0
G1 X42.9531 Y-287.8398 F12000.0
G1 Z0.0000 F8000.0
G0 X43.0858 Y-288.1936 F15000.0
G1 Z11.9000 F8000.0
G1 X43.1300 Y-288.3263 F12000.0
G1 Z0.0000 F8000.0
G0 X43.2627 Y-288.6801 F15000.0
G1 Z11.9000 F8000.0
G1 X43.4839 Y-289.3435 F12000.0
G1 X43.5281 Y-290.0069
G1 X43.4396 Y-290.2280
G1 Z0.0000 F8000.0
G0 X43.2627 Y-290.4050 F15000.0
G1 Z11.9000 F8000.0
G1 X41.7590 Y-290.5376 F12000.0
G1 Z0.0000 F8000.0
G0 X41.4936 Y-290.4050 F15000.0
G1 Z11.9000 F8000.0
G1 X41.2725 Y-290.2723 F12000.0
G1 Z0.0000 F8000.0
G0 X44.4000 Y-288.6801 F15000.0
G1 Z11.9000 F8000.0
G1 X44.7538 Y-289.5204 F12000.0
G1 Z0.0000 F8000.0
G0 X45.4172 Y-290.2723 F15000.0
G1 Z11.9000 F8000.0
G1 X45.6384 Y-290.4049 F12000.0
G1 Z0.0000 F8000.0
G0 X45.9037 Y-290.5376 F15000.0
G1 Z11.9000 F8000.0
G1 X47.4075 Y-290.4049 F12000.0
G1 Z0.0000 F8000.0
G0 X47.5844 Y-290.2280 F15000.0
G1 Z11.9000 F8000.0
G1 X47.6728 Y-290.0069 F12000.0
G1 X47.6286 Y-289.3435
G1 X47.4075 Y-288.6801
G1 Z0.0000 F8000.0
G0 X47.2748 Y-288.3263 F15000.0
G1 Z11.9000 F8000.0
G1 X47.2305 Y-288.1936 F12000.0
G1 Z0.0000 F8000.0
G0 X47.0979 Y-287.8398 F15000.0
G1 Z11.9000 F8000.0
G1 X47.0094 Y-287.5744 F12000.0
G1 Z0.0000 F8000.0
G0 X46.8767 Y-287.2206 F15000.0
G1 Z11.9000 F8000.0
G1 X46.7883 Y-286.9553 F12000.0
G1 Z0.0000 F8000.0
G0 X46.6556 Y-286.6014 F15000.0
G1 Z11.9000 F8000.0
G1 X46.6114 Y-286.4688 F12000.0
G1 Z0.0000 F8000.0
G0 X46.4787 Y-286.1149 F15000.0
G1 Z11.9000 F8000.0
G1 X46.2133 Y-285.4073 F12000.0
G1 Z0.0000 F8000.0
G0 X45.9922 Y-285.0093 F15000.0
G1 Z11.9000 F8000.0
G1 X45.7268 Y-284.7439 F12000.0
G1 Z0.0000 F8000.0
G0 X45.1961 Y-284.3901 F15000.0
G1 Z11.9000 F8000.0
G1 X43.6924 Y-284.3459 F12000.0
G1 X43.3828 Y-284.5228
G1 X43.2501 Y-284.6997
G1 X43.2944 Y-285.6284
G1 X43.4713 Y-286.1149
G1 Z0.0000 F8000.0
G0 X43.6039 Y-286.4688 F15000.0
G1 Z11.9000 F8000.0
G1 X43.6482 Y-286.6014 F12000.0
G1 Z0.0000 F8000.0
G0 X43.7809 Y-286.9553 F15000.0
G1 Z11.9000 F8000.0
G1 X43.8693 Y-287.2206 F12000.0
G1 Z0.0000 F8000.0
G0 X44.0020 Y-287.5744 F15000.0
G1 Z11.9000 F8000.0
G1 X44.0904 Y-287.8398 F12000.0
G1 Z0.0000 F8000.0
G0 X44.2231 Y-288.1936 F15000.0
G1 Z11.9000 F8000.0
G1 X44.2673 Y-288.3263 F12000.0
G1 Z0.0000 F8000.0
G0 X48.3989 Y-287.6853 F15000.0
G1 Z11.9000 F8000.0
G1 X50.3006 Y-287.5969 F12000.0
G1 X50.7429 Y-287.1104
G1 X50.5660 Y-286.0047
G1 X49.9026 Y-284.3241
G1 Z0.0000 F8000.0
G0 X50.9422 Y-284.1470 F15000.0
G1 Z11.9000 F8000.0
G1 X51.0306 Y-284.2796 F12000.0
G1 Z0.0000 F8000.0
G0 X51.3402 Y-284.8104 F15000.0
G1 Z11.9000 F8000.0
G1 X51.4287 Y-284.8988 F12000.0
G1 X53.2862 Y-290.4272
G1 Z0.0000 F8000.0
G0 X54.2592 Y-287.3755 F15000.0
G1 Z11.9000 F8000.0
G1 X54.1707 Y-287.1986 F12000.0
G1 X52.4017 Y-285.6507
G1 Z0.0000 F8000.0
G0 X51.8267 Y-285.0757 F15000.0
G1 Z11.9000 F8000.0
G1 X51.4729 Y-284.9430 F12000.0
G1 Z0.0000 F8000.0
G0 X54.8784 Y-284.2796 F15000.0
G1 Z11.9000 F8000.0
G1 X54.9226 Y-284.8546 F12000.0
G1 X54.2150 Y-287.1986
G1 Z0.0000 F8000.0
G0 X55.2322 Y-285.0757 F15000.0
G1 Z11.9000 F8000.0
G1 X57.3108 Y-290.6041 F12000.0
G1 Z0.0000 F8000.0
G0 X49.3276 Y-290.6043 F15000.0
G1 Z11.9000 F8000.0
G1 X48.8411 Y-289.2775 F12000.0
G1 Z0.0000 F8000.0
G0 X48.5758 Y-288.5699 F15000.0
G1 Z11.9000 F8000.0
G1 X47.0278 Y-284.4126 F12000.0
G1 Z0.0000 F8000.0
G0 X68.1282 Y-281.0412 F15000.0
G1 Z11.9000 F8000.0
G1 X68.1282 Y-294.6338 F12000.0
G1 Z0.0000 F8000.0
G0 X63.2677 Y-68.9131 F15000.0
G1 Z11.9000 F8000.0
G1 X63.2677 Y-15.3662 F12000.0
G1 Z0.0000 F8000.0
G0 X63.2677 Y-20.2266 F15000.0
G1 Z11.9000 F8000.0
G1 X0.0000 Y-20.2266 F12000.0
G1 Z0.0000 F8000.0
G0 X0.8278 Y-21.1711 F15000.0
G1 Z11.9000 F8000.0
G1 X1.4912 Y-22.8075 F12000.0
G1 X1.6681 Y-22.9844
G1 X2.8180 Y-22.9844
G1 X2.8623 Y-22.7633
G1 X2.2873 Y-21.1711
G1 Z0.0000 F8000.0
G0 X2.8003 Y-21.2726 F15000.0
G1 Z11.9000 F8000.0
G1 X2.8887 Y-21.3610 F12000.0
G1 Z0.0000 F8000.0
G0 X3.4419 Y-21.2212 F15000.0
G1 Z11.9000 F8000.0
G1 X3.6631 Y-21.7077 F12000.0
G1 Z0.0000 F8000.0
G0 X4.6361 Y-21.3981 F15000.0
G1 Z11.9000 F8000.0
G1 X4.4149 Y-22.4153 F12000.0
G1 Z0.0000 F8000.0
G0 X4.5476 Y-22.6807 F15000.0
G1 Z11.9000 F8000.0
G1 X4.3707 Y-22.4595 F12000.0
G1 X4.0611 Y-22.4595
G1 X4.0611 Y-22.6365
G1 X4.4592 Y-23.5210
G1 Z0.0000 F8000.0
G0 X4.8130 Y-22.8576 F15000.0
G1 Z11.9000 F8000.0
G1 X5.0341 Y-23.0345 F12000.0
G1 Z0.0000 F8000.0
G0 X5.2995 Y-23.2114 F15000.0
G1 Z11.9000 F8000.0
G1 X5.3879 Y-23.2999 F12000.0
G1 Z0.0000 F8000.0
G0 X5.5172 Y-21.3444 F15000.0
G1 Z11.9000 F8000.0
G1 X5.4288 Y-21.6097 F12000.0
G1 X6.0479 Y-23.2461
G1 X6.4460 Y-23.4672
G1 X7.1978 Y-23.2903
G1 X5.6057 Y-21.3001
G1 Z0.0000 F8000.0
G0 X7.0436 Y-21.1770 F15000.0
G1 Z11.9000 F8000.0
G1 X8.0609 Y-23.5210 F12000.0
G1 Z0.0000 F8000.0
G0 X9.1223 Y-23.2556 F15000.0
G1 Z11.9000 F8000.0
G1 X8.7685 Y-22.5922 F12000.0
G1 X8.5474 Y-22.4153
G1 X7.7070 Y-22.4153
G1 Z0.0000 F8000.0
G0 X8.5916 Y-22.3711 F15000.0
G1 Z11.9000 F8000.0
G1 X8.2378 Y-21.1770 F12000.0
G1 Z0.0000 F8000.0
G0 X8.8457 Y-21.1720 F15000.0
G1 Z11.9000 F8000.0
G1 X9.5091 Y-22.9853 F12000.0
G1 Z0.0000 F8000.0
G0 X9.6418 Y-23.2949 F15000.0
G1 Z11.9000 F8000.0
G1 X10.5705 Y-23.4718 F12000.0
G1 X11.4551 Y-23.1180
G1 X10.7917 Y-21.1720
G1 Z0.0000 F8000.0
G0 X11.4966 Y-21.3489 F15000.0
G1 Z11.9000 F8000.0
G1 X11.4966 Y-21.5258 F12000.0
G1 Z0.0000 F8000.0
G0 X11.6293 Y-21.8797 F15000.0
G1 Z11.9000 F8000.0
G1 X12.2043 Y-23.4276 F12000.0
G1 X13.1773 Y-23.4718
G1 Z0.0000 F8000.0
G0 X13.2657 Y-23.3834 F15000.0
G1 Z11.9000 F8000.0
G1 X13.3099 Y-23.1622 F12000.0
G1 Z0.0000 F8000.0
G0 X13.1330 Y-22.6757 F15000.0
G1 Z11.9000 F8000.0
G1 X12.8235 Y-21.7912 F12000.0
G1 Z0.0000 F8000.0
G0 X12.5581 Y-21.3932 F15000.0
G1 Z11.9000 F8000.0
G1 X11.4524 Y-21.2605 F12000.0
G1 X11.0102 Y-20.3317
G1 Z0.0000 F8000.0
G0 X9.8187 Y-21.1720 F15000.0
G1 Z11.9000 F8000.0
G1 X10.4379 Y-22.8968 F12000.0
G1 Z0.0000 F8000.0
G0 X10.5705 Y-23.2064 F15000.0
G1 Z11.9000 F8000.0
G1 X10.6148 Y-23.4275 F12000.0
G1 Z0.0000 F8000.0
G0 X13.0720 Y-21.2726 F15000.0
G1 Z11.9000 F8000.0
G1 X13.1604 Y-21.3610 F12000.0
G1 Z0.0000 F8000.0
G0 X7.3231 Y-18.5094 F15000.0
G1 Z11.9000 F8000.0
G1 X7.3673 Y-18.4210 F12000.0
G1 X6.6597 Y-16.5635
G1 X5.6867 Y-16.4750
G1 X5.6424 Y-16.7404
G1 X6.4828 Y-19.1728
G1 Z0.0000 F8000.0
G0 X6.5712 Y-19.3497 F15000.0
G1 Z11.9000 F8000.0
G1 X7.1462 Y-19.5709 F12000.0
G1 X7.1904 Y-19.4824
G1 X6.9693 Y-18.9517
G1 Z0.0000 F8000.0
G0 X7.2346 Y-18.5979 F15000.0
G1 Z11.9000 F8000.0
G1 X6.3501 Y-18.5979 F12000.0
G1 Z0.0000 F8000.0
G0 X4.6695 Y-18.5537 F15000.0
G1 Z11.9000 F8000.0
G1 X4.6252 Y-18.3325 F12000.0
G1 Z0.0000 F8000.0
G0 X3.5638 Y-19.5709 F15000.0
G1 Z11.9000 F8000.0
G1 X2.9446 Y-18.1114 F12000.0
G1 Z0.0000 F8000.0
G0 X1.6620 Y-18.1998 F15000.0
G1 Z11.9000 F8000.0
G1 X1.6620 Y-18.3768 F12000.0
G1 X2.1485 Y-19.5709
G1 Z0.0000 F8000.0
G0 X1.6681 Y-23.0286 F15000.0
G1 Z11.9000 F8000.0
G1 X1.6681 Y-23.2940 F12000.0
G1 X2.1546 Y-24.4881
G1 Z0.0000 F8000.0
G0 X3.5257 Y-24.3112 F15000.0
G1 Z11.9000 F8000.0
G1 X3.0392 Y-23.2055 F12000.0
G1 Z0.0000 F8000.0
G0 X0.0000 Y-25.0870 F15000.0
G1 Z11.9000 F8000.0
G1 X63.2677 Y-25.0870 F12000.0
G1 Z0.0000 F8000.0
G0 X65.8592 Y-24.1647 F15000.0
G1 Z11.9000 F8000.0
G1 X66.3456 Y-25.5799 F12000.0
G1 Z0.0000 F8000.0
G0 X66.8764 Y-26.0664 F15000.0
G1 Z11.9000 F8000.0
G1 X68.1147 Y-26.3318 F12000.0
G1 Z0.0000 F8000.0
G0 X68.8021 Y-24.2881 F15000.0
G1 Z11.9000 F8000.0
G1 X70.0404 Y-24.3323 F12000.0
G1 X71.2788 Y-24.1996
G1 Z0.0000 F8000.0
G0 X71.3673 Y-24.1112 F15000.0
G1 Z11.9000 F8000.0
G1 X71.4557 Y-23.9785 F12000.0
G1 X70.3500 Y-19.9096
G1 Z0.0000 F8000.0
G0 X71.4329 Y-20.2634 F15000.0
G1 Z11.9000 F8000.0
G1 X72.1848 Y-23.1382 F12000.0
G1 Z0.0000 F8000.0
G0 X72.2732 Y-23.4035 F15000.0
G1 Z11.9000 F8000.0
G1 X72.3617 Y-23.7573 F12000.0
G1 X72.4944 Y-23.9342
G1 Z0.0000 F8000.0
G0 X72.7597 Y-24.1996 F15000.0
G1 Z11.9000 F8000.0
G1 X74.3077 Y-24.0669 F12000.0
G1 X74.2634 Y-23.8900
G1 Z0.0000 F8000.0
G0 X74.1750 Y-23.6247 F15000.0
G1 Z11.9000 F8000.0
G1 X73.7769 Y-22.0325 F12000.0
G1 Z0.0000 F8000.0
G0 X73.6885 Y-21.7671 F15000.0
G1 Z11.9000 F8000.0
G1 X73.2462 Y-20.1750 F12000.0
G1 X72.9366 Y-20.0423
G1 X71.6098 Y-19.9981
G1 Z0.0000 F8000.0
G0 X74.0131 Y-19.8654 F15000.0
G1 Z11.9000 F8000.0
G1 X74.9861 Y-22.0325 F12000.0
G1 Z0.0000 F8000.0
G0 X75.1188 Y-22.2978 F15000.0
G1 Z11.9000 F8000.0
G1 X75.1630 Y-22.4305 F12000.0
G1 Z0.0000 F8000.0
G0 X75.3399 Y-22.7843 F15000.0
G1 Z11.9000 F8000.0
G1 X75.3841 Y-22.9170 F12000.0
G1 Z0.0000 F8000.0
G0 X75.5610 Y-23.2708 F15000.0
G1 Z11.9000 F8000.0
G1 X75.6053 Y-23.4035 F12000.0
G1 Z0.0000 F8000.0
G0 X75.7822 Y-23.7573 F15000.0
G1 Z11.9000 F8000.0
G1 X75.8264 Y-23.8900 F12000.0
G1 Z0.0000 F8000.0
G0 X76.1802 Y-24.2881 F15000.0
G1 Z11.9000 F8000.0
G1 X77.0205 Y-24.2881 F12000.0
G1 X75.8706 Y-19.8654
G1 Z0.0000 F8000.0
G0 X77.3881 Y-21.9724 F15000.0
G1 Z11.9000 F8000.0
G1 X76.9017 Y-19.9822 F12000.0
G1 X77.9189 Y-19.8937
G1 X78.6707 Y-20.2033
G1 Z0.0000 F8000.0
G0 X78.7592 Y-20.3360 F15000.0
G1 Z11.9000 F8000.0
G1 X79.1130 Y-21.7955 F12000.0
G1 X79.0245 Y-21.9281
G1 Z0.0000 F8000.0
G0 X78.9361 Y-22.0608 F15000.0
G1 Z11.9000 F8000.0
G1 X77.5651 Y-22.1935 F12000.0
G1 X78.0516 Y-24.3164
G1 Z0.0000 F8000.0
G0 X83.0010 Y-24.7863 F15000.0
G1 Z11.9000 F8000.0
G1 X83.1337 Y-24.9632 F12000.0
G1 Z0.0000 F8000.0
G0 X83.3549 Y-25.1401 F15000.0
G1 Z11.9000 F8000.0
G1 X83.7529 Y-25.5382 F12000.0
G1 X84.2394 Y-25.7593
G1 Z0.0000 F8000.0
G0 X84.5932 Y-26.2900 F15000.0
G1 Z11.9000 F8000.0
G1 X84.2836 Y-25.7151 F12000.0
G1 X82.8241 Y-20.0982
G1 Z0.0000 F8000.0
G0 X83.8856 Y-19.9656 F15000.0
G1 Z11.9000 F8000.0
G1 X84.9028 Y-20.0098 F12000.0
G1 Z0.0000 F8000.0
G0 X85.6989 Y-20.7174 F15000.0
G1 Z11.9000 F8000.0
G1 X86.0085 Y-21.6462 F12000.0
G1 Z0.0000 F8000.0
G0 X86.0969 Y-21.9115 F15000.0
G1 Z11.9000 F8000.0
G1 X86.1412 Y-22.8845 F12000.0
G1 X85.8758 Y-23.2384
G1 X84.7701 Y-23.4153
G1 X85.4335 Y-26.1573
G1 Z0.0000 F8000.0
G0 X85.5662 Y-26.2458 F15000.0
G1 Z11.9000 F8000.0
G1 X87.1584 Y-26.3342 F12000.0
G1 Z0.0000 F8000.0
G0 X92.3155 Y-26.1549 F15000.0
G1 Z11.9000 F8000.0
G1 X90.5022 Y-19.9189 F12000.0
G1 Z0.0000 F8000.0
G0 X93.5802 Y-20.5823 F15000.0
G1 Z11.9000 F8000.0
G1 X94.1552 Y-22.9705 F12000.0
G1 Z0.0000 F8000.0
G0 X94.3321 Y-23.5455 F15000.0
G1 Z11.9000 F8000.0
G1 X94.8628 Y-25.4030 F12000.0
G1 Z0.0000 F8000.0
G0 X95.0397 Y-25.6684 F15000.0
G1 Z11.9000 F8000.0
G1 X95.5262 Y-26.1107 F12000.0
G1 Z0.0000 F8000.0
G0 X95.7916 Y-26.2433 F15000.0
G1 Z11.9000 F8000.0
G1 X96.5877 Y-26.2433 F12000.0
G1 Z0.0000 F8000.0
G0 X97.0299 Y-25.6242 F15000.0
G1 Z11.9000 F8000.0
G1 X96.8530 Y-24.6069 F12000.0
G1 X96.2781 Y-22.3956
G1 Z0.0000 F8000.0
G0 X96.1896 Y-22.1302 F15000.0
G1 Z11.9000 F8000.0
G1 X95.8358 Y-20.9803 F12000.0
G1 X95.2166 Y-20.1400
G1 X93.8898 Y-20.0516
G1 Z0.0000 F8000.0
G0 X98.2131 Y-19.9631 F15000.0
G1 Z11.9000 F8000.0
G1 X97.0190 Y-20.0516 F12000.0
G1 X96.8863 Y-21.4668
G1 X97.5497 Y-23.8993
G1 Z0.0000 F8000.0
G0 X97.6382 Y-24.1647 F15000.0
G1 Z11.9000 F8000.0
G1 X98.1247 Y-25.5799 F12000.0
G1 Z0.0000 F8000.0
G0 X98.6554 Y-26.0664 F15000.0
G1 Z11.9000 F8000.0
G1 X99.8938 Y-26.3318 F12000.0
G1 Z0.0000 F8000.0
G0 X101.0365 Y-26.2238 F15000.0
G1 Z11.9000 F8000.0
G1 X101.2576 Y-26.3122 F12000.0
G1 X103.1152 Y-26.3122
G1 Z0.0000 F8000.0
G0 X102.0095 Y-26.2238 F15000.0
G1 Z11.9000 F8000.0
G1 X101.2134 Y-23.0837 F12000.0
G1 Z0.0000 F8000.0
G0 X101.0365 Y-22.5087 F15000.0
G1 Z11.9000 F8000.0
G1 X100.2846 Y-19.8993 F12000.0
G1 Z0.0000 F8000.0
G0 X105.5772 Y-20.0982 F15000.0
G1 Z11.9000 F8000.0
G1 X107.0367 Y-25.7151 F12000.0
G1 X107.3463 Y-26.2900
G1 Z0.0000 F8000.0
G0 X106.9924 Y-25.7593 F15000.0
G1 Z11.9000 F8000.0
G1 X106.5059 Y-25.5382 F12000.0
G1 X106.1079 Y-25.1401
G1 Z0.0000 F8000.0
G0 X105.8868 Y-24.9632 F15000.0
G1 Z11.9000 F8000.0
G1 X105.7541 Y-24.7863 F12000.0
G1 Z0.0000 F8000.0
G0 X107.4532 Y-23.5455 F15000.0
G1 Z11.9000 F8000.0
G1 X107.9839 Y-25.4030 F12000.0
G1 Z0.0000 F8000.0
G0 X108.1608 Y-25.6684 F15000.0
G1 Z11.9000 F8000.0
G1 X108.6473 Y-26.1107 F12000.0
G1 Z0.0000 F8000.0
G0 X108.9127 Y-26.2433 F15000.0
G1 Z11.9000 F8000.0
G1 X109.7088 Y-26.2433 F12000.0
G1 Z0.0000 F8000.0
G0 X110.1511 Y-25.6242 F15000.0
G1 Z11.9000 F8000.0
G1 X109.9741 Y-24.6069 F12000.0
G1 X109.3992 Y-22.3956
G1 Z0.0000 F8000.0
G0 X109.3107 Y-22.1302 F15000.0
G1 Z11.9000 F8000.0
G1 X108.9569 Y-20.9803 F12000.0
G1 X108.3378 Y-20.1400
G1 X107.0109 Y-20.0516
G1 Z0.0000 F8000.0
G0 X106.7014 Y-20.5823 F15000.0
G1 Z11.9000 F8000.0
G1 X107.2763 Y-22.9705 F12000.0
G1 Z0.0000 F8000.0
G0 X109.7836 Y-19.9631 F15000.0
G1 Z11.9000 F8000.0
G1 X110.8008 Y-20.0074 F12000.0
G1 X111.3315 Y-20.3612
G1 X111.5969 Y-20.7592
G1 X112.0834 Y-22.4841
G1 X111.8180 Y-23.1917
G1 X110.6239 Y-23.4128
G1 X111.3315 Y-26.1549
G1 Z0.0000 F8000.0
G0 X111.4642 Y-26.2433 F15000.0
G1 Z11.9000 F8000.0
G1 X113.1006 Y-26.3318 F12000.0
G1 Z0.0000 F8000.0
G0 X114.0580 Y-25.6684 F15000.0
G1 Z11.9000 F8000.0
G1 X114.5445 Y-26.1107 F12000.0
G1 Z0.0000 F8000.0
G0 X114.8099 Y-26.2433 F15000.0
G1 Z11.9000 F8000.0
G1 X115.6060 Y-26.2433 F12000.0
G1 Z0.0000 F8000.0
G0 X116.0482 Y-25.6242 F15000.0
G1 Z11.9000 F8000.0
G1 X115.8713 Y-24.6069 F12000.0
G1 X115.2964 Y-22.3956
G1 Z0.0000 F8000.0
G0 X115.2079 Y-22.1302 F15000.0
G1 Z11.9000 F8000.0
G1 X114.8541 Y-20.9803 F12000.0
G1 X114.2349 Y-20.1400
G1 X112.9081 Y-20.0516
G1 Z0.0000 F8000.0
G0 X112.5986 Y-20.5823 F15000.0
G1 Z11.9000 F8000.0
G1 X113.1735 Y-22.9705 F12000.0
G1 Z0.0000 F8000.0
G0 X113.3504 Y-23.5455 F15000.0
G1 Z11.9000 F8000.0
G1 X113.8811 Y-25.4030 F12000.0
G1 Z0.0000 F8000.0
G0 X116.0015 Y-22.0441 F15000.0
G1 Z11.9000 F8000.0
G1 X117.9475 Y-22.1768 F12000.0
G1 Z0.0000 F8000.0
G0 X119.3034 Y-21.2899 F15000.0
G1 Z11.9000 F8000.0
G1 X118.4630 Y-19.9631 F12000.0
G1 X118.3304 Y-19.8747
G1 Z0.0000 F8000.0
G0 X118.4630 Y-19.9631 F15000.0
G1 Z11.9000 F8000.0
G1 X120.3648 Y-19.9631 F12000.0
G1 Z0.0000 F8000.0
G0 X121.6246 Y-20.5823 F15000.0
G1 Z11.9000 F8000.0
G1 X122.1995 Y-22.9705 F12000.0
G1 Z0.0000 F8000.0
G0 X122.3764 Y-23.5455 F15000.0
G1 Z11.9000 F8000.0
G1 X122.9071 Y-25.4030 F12000.0
G1 Z0.0000 F8000.0
G0 X123.0840 Y-25.6684 F15000.0
G1 Z11.9000 F8000.0
G1 X123.5705 Y-26.1107 F12000.0
G1 Z0.0000 F8000.0
G0 X123.8359 Y-26.2433 F15000.0
G1 Z11.9000 F8000.0
G1 X124.6320 Y-26.2433 F12000.0
G1 Z0.0000 F8000.0
G0 X125.0742 Y-25.6242 F15000.0
G1 Z11.9000 F8000.0
G1 X124.8973 Y-24.6069 F12000.0
G1 X124.3224 Y-22.3956
G1 Z0.0000 F8000.0
G0 X124.2339 Y-22.1302 F15000.0
G1 Z11.9000 F8000.0
G1 X123.8801 Y-20.9803 F12000.0
G1 X123.2609 Y-20.1400
G1 X121.9341 Y-20.0516
G1 Z0.0000 F8000.0
G0 X120.2764 Y-22.5725 F15000.0
G1 Z11.9000 F8000.0
G1 X121.4705 Y-24.1204 F12000.0
G1 X121.9127 Y-25.4473
G1 X121.6916 Y-25.8895
G1 X121.4262 Y-26.1549
G1 Z0.0000 F8000.0
G0 X121.2493 Y-26.2433 F15000.0
G1 Z11.9000 F8000.0
G1 X120.5859 Y-26.1107 F12000.0
G1 Z0.0000 F8000.0
G0 X120.1879 Y-25.8011 F15000.0
G1 Z11.9000 F8000.0
G1 X119.7456 Y-25.2261 F12000.0
G1 Z0.0000 F8000.0
G0 X125.8536 Y-24.7863 F15000.0
G1 Z11.9000 F8000.0
G1 X125.9863 Y-24.9632 F12000.0
G1 Z0.0000 F8000.0
G0 X126.2075 Y-25.1401 F15000.0
G1 Z11.9000 F8000.0
G1 X126.6055 Y-25.5382 F12000.0
G1 X127.0920 Y-25.7593
G1 Z0.0000 F8000.0
G0 X127.4458 Y-26.2900 F15000.0
G1 Z11.9000 F8000.0
G1 X127.1362 Y-25.7151 F12000.0
G1 X125.6767 Y-20.0982
G1 Z0.0000 F8000.0
G0 X126.7543 Y-19.9631 F15000.0
G1 Z11.9000 F8000.0
G1 X127.7715 Y-20.0074 F12000.0
G1 X128.3023 Y-20.3612
G1 X128.5676 Y-20.7592
G1 X128.9214 Y-21.8649
G1 X128.9657 Y-22.9705
G1 Z0.0000 F8000.0
G0 X128.8330 Y-23.1917 F15000.0
G1 Z11.9000 F8000.0
G1 X128.7003 Y-23.3244 F12000.0
G1 X128.3907 Y-23.3244
G1 Z0.0000 F8000.0
G0 X129.0984 Y-23.8551 F15000.0
G1 Z11.9000 F8000.0
G1 X129.4079 Y-24.4300 F12000.0
G1 X129.6733 Y-25.7126
G1 X129.5406 Y-25.9780
G1 Z0.0000 F8000.0
G0 X129.3195 Y-26.1991 F15000.0
G1 Z11.9000 F8000.0
G1 X128.5234 Y-26.2876 F12000.0
G1 Z0.0000 F8000.0
G0 X131.3959 Y-29.9474 F15000.0
G1 Z11.9000 F8000.0
G1 X180.0000 Y-29.9474 F12000.0
G1 Z0.0000 F8000.0
G0 X180.0000 Y-34.8078 F15000.0
G1 Z11.9000 F8000.0
G1 X131.3959 Y-34.8078 F12000.0
G1 Z0.0000 F8000.0
G0 X134.4142 Y-32.6287 F15000.0
G1 Z11.9000 F8000.0
G1 X134.6795 Y-32.9825 F12000.0
G1 Z0.0000 F8000.0
G0 X135.0776 Y-33.6017 F15000.0
G1 Z11.9000 F8000.0
G1 X135.1660 Y-33.6901 F12000.0
G1 Z0.0000 F8000.0
G0 X135.4756 Y-34.1324 F15000.0
G1 Z11.9000 F8000.0
G1 X136.0948 Y-34.1766 F12000.0
G1 X136.0063 Y-33.6901
G1 Z0.0000 F8000.0
G0 X135.8737 Y-33.3363 F15000.0
G1 Z11.9000 F8000.0
G1 X135.8294 Y-33.2036 F12000.0
G1 Z0.0000 F8000.0
G0 X136.5371 Y-33.2479 F15000.0
G1 Z11.9000 F8000.0
G1 X135.9179 Y-31.6999 F12000.0
G1 X135.7852 Y-31.1250
G1 X136.8909 Y-31.2577
G1 Z0.0000 F8000.0
G0 X136.9793 Y-31.4346 F15000.0
G1 Z11.9000 F8000.0
G1 X137.3331 Y-32.3191 F12000.0
G1 Z0.0000 F8000.0
G0 X137.4658 Y-32.6287 F15000.0
G1 Z11.9000 F8000.0
G1 X137.7312 Y-33.2479 F12000.0
G1 Z0.0000 F8000.0
G0 X138.0408 Y-32.6729 F15000.0
G1 Z11.9000 F8000.0
G1 X138.1735 Y-32.9825 F12000.0
G1 X139.4560 Y-33.1594
G1 Z0.0000 F8000.0
G0 X139.9425 Y-33.0267 F15000.0
G1 Z11.9000 F8000.0
G1 X140.8713 Y-33.2036 F12000.0
G1 X141.7558 Y-32.8498
G1 X141.0924 Y-30.9038
G1 Z0.0000 F8000.0
G0 X140.1194 Y-30.9038 F15000.0
G1 Z11.9000 F8000.0
G1 X140.7386 Y-32.6287 F12000.0
G1 Z0.0000 F8000.0
G0 X140.8713 Y-32.9383 F15000.0
G1 Z11.9000 F8000.0
G1 X140.9155 Y-33.1594 F12000.0
G1 Z0.0000 F8000.0
G0 X139.8099 Y-32.7171 F15000.0
G1 Z11.9000 F8000.0
G1 X139.1465 Y-30.9038 F12000.0
G1 Z0.0000 F8000.0
G0 X138.6600 Y-30.9923 F15000.0
G1 Z11.9000 F8000.0
G1 X137.5985 Y-31.1250 F12000.0
G1 X137.8639 Y-32.1864
G1 Z0.0000 F8000.0
G0 X135.2545 Y-31.6115 F15000.0
G1 Z11.9000 F8000.0
G1 X135.2103 Y-31.4788 F12000.0
G1 Z0.0000 F8000.0
G0 X134.1046 Y-32.1422 F15000.0
G1 Z11.9000 F8000.0
G1 X133.3970 Y-31.0807 F12000.0
G1 Z0.0000 F8000.0
G0 X131.3959 Y-29.9474 F15000.0
G1 Z11.9000 F8000.0
G1 X63.2677 Y-29.9474 F12000.0
G1 X0.0000 Y-29.9474 F12000.0
G1 Z0.0000 F8000.0
G0 X1.5522 Y-31.0134 F15000.0
G1 Z11.9000 F8000.0
G1 X2.7021 Y-34.0651 F12000.0
G1 X3.5866 Y-34.1093
G1 Z0.0000 F8000.0
G0 X2.7021 Y-34.1093 F15000.0
G1 Z11.9000 F8000.0
G1 X1.9945 Y-34.1977 F12000.0
G1 Z0.0000 F8000.0
G0 X2.5526 Y-34.9194 F15000.0
G1 Z11.9000 F8000.0
G1 X3.7468 Y-38.0153 F12000.0
G1 X4.8524 Y-37.7942
G1 X4.1890 Y-36.0693
G1 X3.0391 Y-35.8924
G1 Z0.0000 F8000.0
G0 X2.5084 Y-36.3347 F15000.0
G1 Z11.9000 F8000.0
G1 X2.5526 Y-36.4674 F12000.0
G1 Z0.0000 F8000.0
G0 X3.1276 Y-38.0595 F15000.0
G1 Z11.9000 F8000.0
G1 X3.1718 Y-38.1922 F12000.0
G1 Z0.0000 F8000.0
G0 X3.3045 Y-38.5460 F15000.0
G1 Z11.9000 F8000.0
G1 X3.3930 Y-39.0325 F12000.0
G1 X1.9335 Y-38.7672
G1 X1.8892 Y-38.6345
G1 Z0.0000 F8000.0
G0 X1.7566 Y-38.3249 F15000.0
G1 Z11.9000 F8000.0
G1 X0.8278 Y-35.7597 F12000.0
G1 Z0.0000 F8000.0
G0 X0.0000 Y-34.8078 F15000.0
G1 Z11.9000 F8000.0
G1 X63.2677 Y-34.8078 F12000.0
G1 Z0.0000 F8000.0
G0 X63.2677 Y-39.7506 F15000.0
G1 Z11.9000 F8000.0
G1 X0.0000 Y-39.7506 F12000.0
G1 Z0.0000 F8000.0
G0 X0.8278 Y-40.6247 F15000.0
G1 Z11.9000 F8000.0
G1 X0.9605 Y-41.0670 F12000.0
G1 Z0.0000 F8000.0
G0 X1.0932 Y-41.3765 F15000.0
G1 Z11.9000 F8000.0
G1 X1.4470 Y-42.1726 F12000.0
G1 X2.0219 Y-43.8532
G1 X3.1718 Y-43.8090
G1 X3.3045 Y-43.4552
G1 X2.9949 Y-42.6149
G1 X2.7296 Y-42.3495
G1 X1.4912 Y-42.2169
G1 Z0.0000 F8000.0
G0 X3.1745 Y-40.8086 F15000.0
G1 Z11.9000 F8000.0
G1 X3.0861 Y-41.0740 F12000.0
G1 X3.7053 Y-42.7104
G1 X4.8994 Y-42.9315
G1 X4.3244 Y-40.9856
G1 X3.8822 Y-40.8086
G1 X3.2630 Y-40.7644
G1 Z0.0000 F8000.0
G0 X4.8939 Y-40.9489 F15000.0
G1 Z11.9000 F8000.0
G1 X5.3804 Y-40.7720 F12000.0
G1 X5.8669 Y-40.9931
G1 X6.0438 Y-41.4354
G1 X6.0880 Y-41.8334
G1 X6.3534 Y-42.3199
G1 X6.4860 Y-42.7622
G1 X6.3091 Y-42.8949
G1 X5.5130 Y-42.6738
G1 Z0.0000 F8000.0
G0 X5.5130 Y-41.8777 F15000.0
G1 Z11.9000 F8000.0
G1 X6.0438 Y-41.8777 F12000.0
G1 Z0.0000 F8000.0
G0 X6.6737 Y-41.3395 F15000.0
G1 Z11.9000 F8000.0
G1 X7.2486 Y-42.8874 F12000.0
G1 X8.2216 Y-42.9316
G1 Z0.0000 F8000.0
G0 X8.3101 Y-42.8432 F15000.0
G1 Z11.9000 F8000.0
G1 X8.3543 Y-42.6220 F12000.0
G1 Z0.0000 F8000.0
G0 X8.1774 Y-42.1355 F15000.0
G1 Z11.9000 F8000.0
G1 X7.8678 Y-41.2510 F12000.0
G1 Z0.0000 F8000.0
G0 X7.6024 Y-40.8530 F15000.0
G1 Z11.9000 F8000.0
G1 X6.4968 Y-40.7203 F12000.0
G1 X6.0545 Y-39.7915
G1 Z0.0000 F8000.0
G0 X6.5410 Y-40.8087 F15000.0
G1 Z11.9000 F8000.0
G1 X6.5410 Y-40.9857 F12000.0
G1 Z0.0000 F8000.0
G0 X8.4906 Y-40.8086 F15000.0
G1 Z11.9000 F8000.0
G1 X8.4022 Y-41.0740 F12000.0
G1 X9.0213 Y-42.7104
G1 X10.2155 Y-42.9315
G1 X9.6405 Y-40.9856
G1 X9.1982 Y-40.8086
G1 X8.5791 Y-40.7644
G1 Z0.0000 F8000.0
G0 X10.2059 Y-40.9202 F15000.0
G1 Z11.9000 F8000.0
G1 X10.2059 Y-41.0529 F12000.0
G1 Z0.0000 F8000.0
G0 X10.3386 Y-40.7875 F15000.0
G1 Z11.9000 F8000.0
G1 X11.9750 Y-42.8219 F12000.0
G1 X11.7539 Y-42.9989
G1 X10.8693 Y-42.7335
G1 X10.3828 Y-41.5394
G1 Z0.0000 F8000.0
G0 X11.7204 Y-40.7324 F15000.0
G1 Z11.9000 F8000.0
G1 X11.8089 Y-40.8209 F12000.0
G1 Z0.0000 F8000.0
G0 X11.7096 Y-43.0431 F15000.0
G1 Z11.9000 F8000.0
G1 X11.4001 Y-43.8392 F12000.0
G1 X12.5500 Y-43.8392
G1 Z0.0000 F8000.0
G0 X12.4231 Y-45.5871 F15000.0
G1 Z11.9000 F8000.0
G1 X11.5386 Y-45.7198 F12000.0
G1 X11.9366 Y-47.4004
G1 X12.0693 Y-47.6216
G1 X13.1308 Y-47.7542
G1 Z0.0000 F8000.0
G0 X13.6173 Y-47.5331 F15000.0
G1 Z11.9000 F8000.0
G1 X13.6615 Y-47.6658 F12000.0
G1 Z0.0000 F8000.0
G0 X13.7499 Y-47.7542 F15000.0
G1 Z11.9000 F8000.0
G1 X14.4576 Y-47.7985 F12000.0
G1 X15.2979 Y-47.5773
G1 X14.5902 Y-45.5871
G1 Z0.0000 F8000.0
G0 X13.7499 Y-45.5871 F15000.0
G1 Z11.9000 F8000.0
G1 X14.5018 Y-47.7542 F12000.0
G1 Z0.0000 F8000.0
G0 X13.4846 Y-47.2235 F15000.0
G1 Z11.9000 F8000.0
G1 X12.8654 Y-45.5871 F12000.0
G1 Z0.0000 F8000.0
G0 X10.9636 Y-46.0736 F15000.0
G1 Z11.9000 F8000.0
G1 X11.6270 Y-47.8427 F12000.0
G1 Z0.0000 F8000.0
G0 X10.5656 Y-47.8427 F15000.0
G1 Z11.9000 F8000.0
G1 X9.9022 Y-46.0294 F12000.0
G1 X9.9022 Y-45.7198
G1 X10.8752 Y-45.8525
G1 Z0.0000 F8000.0
G0 X9.2830 Y-45.7640 F15000.0
G1 Z11.9000 F8000.0
G1 X10.2118 Y-48.7272 F12000.0
G1 X9.6368 Y-48.7272
G1 X9.3272 Y-48.2850
G1 Z0.0000 F8000.0
G0 X8.8850 Y-47.5773 F15000.0
G1 Z11.9000 F8000.0
G1 X8.6638 Y-47.2677 F12000.0
G1 Z0.0000 F8000.0
G0 X8.3543 Y-46.7812 F15000.0
G1 Z11.9000 F8000.0
G1 X8.0447 Y-46.2948 F12000.0
G1 Z0.0000 F8000.0
G0 X7.7351 Y-45.8083 F15000.0
G1 Z11.9000 F8000.0
G1 X7.6466 Y-45.6756 F12000.0
G1 Z0.0000 F8000.0
G0 X6.8375 Y-44.6110 F15000.0
G1 Z11.9000 F8000.0
G1 X6.8375 Y-68.9131 F12000.0
G1 Z0.0000 F8000.0
G0 X0.0000 Y-68.9131 F15000.0
G1 Z11.9000 F8000.0
G1 X180.0000 Y-68.9131 F12000.0
G1 Z0.0000 F8000.0
G0 X180.0000 Y-54.3318 F15000.0
G1 Z11.9000 F8000.0
G1 X63.2677 Y-54.3318 F12000.0
G1 X0.0000 Y-54.3318 F12000.0
G1 Z0.0000 F8000.0
G0 X0.0000 Y-59.1922 F15000.0
G1 Z11.9000 F8000.0
G1 X63.2677 Y-59.1922 F12000.0
G1 Z0.0000 F8000.0
G0 X63.2677 Y-64.0526 F15000.0
G1 Z11.9000 F8000.0
G1 X0.0000 Y-64.0526 F12000.0
G1 Z0.0000 F8000.0
G0 X0.0000 Y-68.9131 F15000.0
G1 Z11.9000 F8000.0
G1 X0.0000 Y-15.3662 F12000.0
G1 Z0.0000 F8000.0
G0 X2.8003 Y-31.0025 F15000.0
G1 Z11.9000 F8000.0
G1 X2.8887 Y-31.0910 F12000.0
G1 Z0.0000 F8000.0
G0 X3.4419 Y-30.9511 F15000.0
G1 Z11.9000 F8000.0
G1 X3.6631 Y-31.4376 F12000.0
G1 Z0.0000 F8000.0
G0 X4.6361 Y-31.1280 F15000.0
G1 Z11.9000 F8000.0
G1 X4.4149 Y-32.1452 F12000.0
G1 Z0.0000 F8000.0
G0 X4.5476 Y-32.4106 F15000.0
G1 Z11.9000 F8000.0
G1 X4.3707 Y-32.1895 F12000.0
G1 X4.0611 Y-32.1895
G1 X4.0611 Y-32.3664
G1 X4.4592 Y-33.2509
G1 Z0.0000 F8000.0
G0 X4.8130 Y-32.5875 F15000.0
G1 Z11.9000 F8000.0
G1 X5.0341 Y-32.7644 F12000.0
G1 Z0.0000 F8000.0
G0 X5.2995 Y-32.9413 F15000.0
G1 Z11.9000 F8000.0
G1 X5.3879 Y-33.0298 F12000.0
G1 Z0.0000 F8000.0
G0 X5.5172 Y-31.0743 F15000.0
G1 Z11.9000 F8000.0
G1 X5.4288 Y-31.3396 F12000.0
G1 X6.0479 Y-32.9760
G1 X6.4460 Y-33.1972
G1 X7.1978 Y-33.0203
G1 X5.6057 Y-31.0300
G1 Z0.0000 F8000.0
G0 X7.0436 Y-30.9069 F15000.0
G1 Z11.9000 F8000.0
G1 X8.0609 Y-33.2509 F12000.0
G1 Z0.0000 F8000.0
G0 X9.1223 Y-32.9855 F15000.0
G1 Z11.9000 F8000.0
G1 X8.7685 Y-32.3221 F12000.0
G1 X8.5474 Y-32.1452
G1 X7.7070 Y-32.1452
G1 Z0.0000 F8000.0
G0 X8.5916 Y-32.1010 F15000.0
G1 Z11.9000 F8000.0
G1 X8.2378 Y-30.9069 F12000.0
G1 Z0.0000 F8000.0
G0 X8.8457 Y-30.9019 F15000.0
G1 Z11.9000 F8000.0
G1 X9.5091 Y-32.7152 F12000.0
G1 Z0.0000 F8000.0
G0 X9.6418 Y-33.0248 F15000.0
G1 Z11.9000 F8000.0
G1 X10.5705 Y-33.2017 F12000.0
G1 X11.4551 Y-32.8479
G1 X10.7917 Y-30.9019
G1 Z0.0000 F8000.0
G0 X11.4966 Y-31.0789 F15000.0
G1 Z11.9000 F8000.0
G1 X11.4966 Y-31.2558 F12000.0
G1 Z0.0000 F8000.0
G0 X11.6293 Y-31.6096 F15000.0
G1 Z11.9000 F8000.0
G1 X12.2043 Y-33.1575 F12000.0
G1 X13.1773 Y-33.2017
G1 Z0.0000 F8000.0
G0 X13.2657 Y-33.1133 F15000.0
G1 Z11.9000 F8000.0
G1 X13.3099 Y-32.8922 F12000.0
G1 Z0.0000 F8000.0
G0 X13.1330 Y-32.4057 F15000.0
G1 Z11.9000 F8000.0
G1 X12.8235 Y-31.5211 F12000.0
G1 Z0.0000 F8000.0
G0 X12.5581 Y-31.1231 F15000.0
G1 Z11.9000 F8000.0
G1 X11.4524 Y-30.9904 F12000.0
G1 X11.0102 Y-30.0616
G1 Z0.0000 F8000.0
G0 X9.8187 Y-30.9019 F15000.0
G1 Z11.9000 F8000.0
G1 X10.4379 Y-32.6267 F12000.0
G1 Z0.0000 F8000.0
G0 X10.5705 Y-32.9363 F15000.0
G1 Z11.9000 F8000.0
G1 X10.6148 Y-33.1575 F12000.0
G1 Z0.0000 F8000.0
G0 X13.0720 Y-31.0025 F15000.0
G1 Z11.9000 F8000.0
G1 X13.1604 Y-31.0910 F12000.0
G1 Z0.0000 F8000.0
G0 X17.3686 Y-35.7597 F15000.0
G1 Z11.9000 F8000.0
G1 X18.2974 Y-38.3249 F12000.0
G1 Z0.0000 F8000.0
G0 X18.4301 Y-38.6345 F15000.0
G1 Z11.9000 F8000.0
G1 X18.4743 Y-38.7672 F12000.0
G1 X19.9338 Y-39.0325
G1 X19.8453 Y-38.5460
G1 Z0.0000 F8000.0
G0 X19.7127 Y-38.1922 F15000.0
G1 Z11.9000 F8000.0
G1 X19.6684 Y-38.0595 F12000.0
G1 Z0.0000 F8000.0
G0 X20.4237 Y-38.1171 F15000.0
G1 Z11.9000 F8000.0
G1 X19.6718 Y-36.2596 F12000.0
G1 X19.6718 Y-36.0827
G1 X20.6006 Y-35.9058
G1 Z0.0000 F8000.0
G0 X21.4347 Y-36.0840 F15000.0
G1 Z11.9000 F8000.0
G1 X21.9212 Y-35.9071 F12000.0
G1 X22.4077 Y-36.1282
G1 X22.5846 Y-36.5705
G1 X22.6288 Y-36.9685
G1 X22.8942 Y-37.4550
G1 X23.0269 Y-37.8973
G1 X22.8500 Y-38.0300
G1 X22.0539 Y-37.8088
G1 Z0.0000 F8000.0
G0 X21.6620 Y-38.1171 F15000.0
G1 Z11.9000 F8000.0
G1 X20.5564 Y-35.5520 F12000.0
G1 X19.2295 Y-34.9770
G1 Z0.0000 F8000.0
G0 X19.0493 Y-36.3347 F15000.0
G1 Z11.9000 F8000.0
G1 X19.0935 Y-36.4674 F12000.0
G1 Z0.0000 F8000.0
G0 X22.0539 Y-37.0127 F15000.0
G1 Z11.9000 F8000.0
G1 X22.5846 Y-37.0127 F12000.0
G1 Z0.0000 F8000.0
G0 X23.2294 Y-35.9437 F15000.0
G1 Z11.9000 F8000.0
G1 X23.1409 Y-36.2091 F12000.0
G1 X23.7601 Y-37.8455
G1 X24.9542 Y-38.0666
G1 X24.3793 Y-36.1206
G1 X23.9370 Y-35.9437
G1 X23.3179 Y-35.8995
G1 Z0.0000 F8000.0
G0 X24.7558 Y-35.7718 F15000.0
G1 Z11.9000 F8000.0
G1 X25.7730 Y-38.1158 F12000.0
G1 Z0.0000 F8000.0
G0 X26.8345 Y-37.8505 F15000.0
G1 Z11.9000 F8000.0
G1 X26.4807 Y-37.1871 F12000.0
G1 X26.2595 Y-37.0102
G1 X25.4192 Y-37.0102
G1 Z0.0000 F8000.0
G0 X26.3037 Y-36.9660 F15000.0
G1 Z11.9000 F8000.0
G1 X25.9499 Y-35.7718 F12000.0
G1 Z0.0000 F8000.0
G0 X26.8335 Y-35.9392 F15000.0
G1 Z11.9000 F8000.0
G1 X26.7451 Y-36.2046 F12000.0
G1 X27.3642 Y-37.8410
G1 X27.7623 Y-38.0621
G1 X28.5141 Y-37.8852
G1 X26.9220 Y-35.8950
G1 Z0.0000 F8000.0
G0 X29.3007 Y-38.0577 F15000.0
G1 Z11.9000 F8000.0
G1 X29.7872 Y-38.1019 F12000.0
G1 X30.3179 Y-37.7923
G1 X29.6103 Y-36.0233
G1 X28.6373 Y-35.9348
G1 X28.5488 Y-36.2002
G1 X29.5218 Y-38.8095
G1 Z0.0000 F8000.0
G0 X29.8756 Y-39.0307 F15000.0
G1 Z11.9000 F8000.0
G1 X30.0968 Y-38.9865 F12000.0
G1 Z0.0000 F8000.0
G0 X30.1852 Y-38.8095 F15000.0
G1 Z11.9000 F8000.0
G1 X29.9199 Y-38.4115 F12000.0
G1 Z0.0000 F8000.0
G0 X30.4376 Y-35.9437 F15000.0
G1 Z11.9000 F8000.0
G1 X30.3492 Y-36.2091 F12000.0
G1 X30.9684 Y-37.8455
G1 X32.1625 Y-38.0666
G1 X31.5875 Y-36.1206
G1 X31.1453 Y-35.9437
G1 X30.5261 Y-35.8995
G1 Z0.0000 F8000.0
G0 X32.5060 Y-40.6246 F15000.0
G1 Z11.9000 F8000.0
G1 X32.7713 Y-41.3323 F12000.0
G1 Z0.0000 F8000.0
G0 X32.9040 Y-41.5976 F15000.0
G1 Z11.9000 F8000.0
G1 X33.2578 Y-42.2610 F12000.0
G1 X33.7885 Y-42.5264
G1 X34.2308 Y-43.0129
G1 Z0.0000 F8000.0
G0 X34.5846 Y-43.2783 F15000.0
G1 Z11.9000 F8000.0
G1 X34.8500 Y-43.4994 F12000.0
G1 Z0.0000 F8000.0
G0 X33.7885 Y-43.8090 F15000.0
G1 Z11.9000 F8000.0
G1 X33.8328 Y-43.9417 F12000.0
G1 Z0.0000 F8000.0
G0 X33.6559 Y-43.4994 F15000.0
G1 Z11.9000 F8000.0
G1 X33.2578 Y-42.5264 F12000.0
G1 X33.2578 Y-42.3495
G1 Z0.0000 F8000.0
G0 X33.8328 Y-42.4822 F15000.0
G1 Z11.9000 F8000.0
G1 X34.0097 Y-40.8016 F12000.0
G1 Z0.0000 F8000.0
G0 X36.3095 Y-40.8016 F15000.0
G1 Z11.9000 F8000.0
G1 X35.2480 Y-40.8016 F12000.0
G1 X36.3095 Y-43.8532
G1 X37.3267 Y-43.8090
G1 X37.5036 Y-43.5436
G1 X37.2825 Y-42.9244
G1 Z0.0000 F8000.0
G0 X37.1055 Y-42.7033 F15000.0
G1 Z11.9000 F8000.0
G1 X36.8844 Y-42.4822 F12000.0
G1 X35.8672 Y-42.4380
G1 Z0.0000 F8000.0
G0 X36.9286 Y-42.4380 F15000.0
G1 Z11.9000 F8000.0
G1 X37.0613 Y-42.1726 F12000.0
G1 X36.7517 Y-41.1554
G1 Z0.0000 F8000.0
G0 X34.0927 Y-45.6525 F15000.0
G1 Z11.9000 F8000.0
G1 X34.8445 Y-47.5100 F12000.0
G1 Z0.0000 F8000.0
G0 X34.6676 Y-47.3331 F15000.0
G1 Z11.9000 F8000.0
G1 X34.2696 Y-47.1119 F12000.0
G1 Z0.0000 F8000.0
G0 X34.0042 Y-46.9350 F15000.0
G1 Z11.9000 F8000.0
G1 X33.7831 Y-46.8908 F12000.0
G1 X33.6062 Y-47.3773
G1 Z0.0000 F8000.0
G0 X33.4293 Y-47.3331 F15000.0
G1 Z11.9000 F8000.0
G1 X33.5620 Y-47.4215 F12000.0
G1 X33.6062 Y-47.8638
G1 Z0.0000 F8000.0
G0 X33.0312 Y-47.8638 F15000.0
G1 Z11.9000 F8000.0
G1 X31.9256 Y-45.2986 F12000.0
G1 X31.4833 Y-44.7237
G1 X30.5545 Y-44.6795
G1 Z0.0000 F8000.0
G0 X30.8668 Y-43.8956 F15000.0
G1 Z11.9000 F8000.0
G1 X31.0879 Y-43.8514 F12000.0
G1 Z0.0000 F8000.0
G0 X31.1763 Y-43.6745 F15000.0
G1 Z11.9000 F8000.0
G1 X30.9110 Y-43.2764 F12000.0
G1 Z0.0000 F8000.0
G0 X30.5129 Y-43.6745 F15000.0
G1 Z11.9000 F8000.0
G1 X29.5400 Y-41.0651 F12000.0
G1 X29.6284 Y-40.7997
G1 X30.6014 Y-40.8882
G1 X31.3090 Y-42.6573
G1 X30.7783 Y-42.9669
G1 X30.2918 Y-42.9226
G1 Z0.0000 F8000.0
G0 X27.6883 Y-42.6220 F15000.0
G1 Z11.9000 F8000.0
G1 X27.6441 Y-42.8432 F12000.0
G1 Z0.0000 F8000.0
G0 X27.5556 Y-42.9316 F15000.0
G1 Z11.9000 F8000.0
G1 X26.5826 Y-42.8874 F12000.0
G1 X26.0077 Y-41.3395
G1 Z0.0000 F8000.0
G0 X25.8750 Y-40.9857 F15000.0
G1 Z11.9000 F8000.0
G1 X25.8750 Y-40.8087 F12000.0
G1 Z0.0000 F8000.0
G0 X26.9365 Y-40.8530 F15000.0
G1 Z11.9000 F8000.0
G1 X25.8308 Y-40.7203 F12000.0
G1 X25.3885 Y-39.7915
G1 Z0.0000 F8000.0
G0 X24.3090 Y-40.7599 F15000.0
G1 Z11.9000 F8000.0
G1 X25.9011 Y-42.7501 F12000.0
G1 X25.1493 Y-42.9270
G1 X24.7513 Y-42.7059
G1 X24.1321 Y-41.0695
G1 X24.2205 Y-40.8042
G1 Z0.0000 F8000.0
G0 X22.4644 Y-40.7875 F15000.0
G1 Z11.9000 F8000.0
G1 X24.1892 Y-42.9104 F12000.0
G1 X24.3662 Y-43.4854
G1 X24.3662 Y-43.7949
G1 Z0.0000 F8000.0
G0 X24.2777 Y-43.8834 F15000.0
G1 Z11.9000 F8000.0
G1 X23.7470 Y-43.9718 F12000.0
G1 X23.3047 Y-43.9276
G1 Z0.0000 F8000.0
G0 X24.1450 Y-42.9546 F15000.0
G1 Z11.9000 F8000.0
G1 X22.9509 Y-42.6893 F12000.0
G1 X22.5086 Y-41.5394
G1 Z0.0000 F8000.0
G0 X22.3317 Y-41.0529 F15000.0
G1 Z11.9000 F8000.0
G1 X22.3317 Y-40.9202 F12000.0
G1 Z0.0000 F8000.0
G0 X21.6779 Y-40.7157 F15000.0
G1 Z11.9000 F8000.0
G1 X20.5722 Y-40.9368 F12000.0
G1 X20.7491 Y-41.6887
G1 X21.1471 Y-42.7059
G1 X22.1644 Y-42.9270
G1 X22.2970 Y-42.6617
G1 X22.0317 Y-41.9098
G1 X20.8818 Y-41.8214
G1 Z0.0000 F8000.0
G0 X20.1325 Y-41.9139 F15000.0
G1 Z11.9000 F8000.0
G1 X19.7786 Y-41.6928 F12000.0
G1 X18.8056 Y-41.4717
G1 X18.1865 Y-41.6043
G1 X18.0538 Y-41.7813
G1 X18.0538 Y-42.5331
G1 Z0.0000 F8000.0
G0 X18.1865 Y-42.7542 F15000.0
G1 Z11.9000 F8000.0
G1 X18.7172 Y-43.1965 F12000.0
G1 X19.5133 Y-43.4619
G1 X19.5575 Y-43.1965
G1 X19.3364 Y-42.6216
G1 Z0.0000 F8000.0
G0 X19.2037 Y-42.2677 F15000.0
G1 Z11.9000 F8000.0
G1 X18.5845 Y-40.6756 F12000.0
G1 Z0.0000 F8000.0
G0 X20.5305 Y-42.6658 F15000.0
G1 Z11.9000 F8000.0
G1 X20.5747 Y-42.7985 F12000.0
G1 X20.4863 Y-43.1523
G1 Z0.0000 F8000.0
G0 X20.3536 Y-43.2850 F15000.0
G1 Z11.9000 F8000.0
G1 X19.7344 Y-43.5061 F12000.0
G1 X19.7786 Y-43.7272
G1 Z0.0000 F8000.0
G0 X20.9071 Y-45.4913 F15000.0
G1 Z11.9000 F8000.0
G1 X22.2339 Y-48.8084 F12000.0
G1 Z0.0000 F8000.0
G0 X22.1455 Y-48.1450 F15000.0
G1 Z11.9000 F8000.0
G1 X22.4550 Y-46.1105 F12000.0
G1 X22.4108 Y-45.8009
G1 Z0.0000 F8000.0
G0 X22.8089 Y-46.6412 F15000.0
G1 Z11.9000 F8000.0
G1 X23.6934 Y-48.8084 F12000.0
G1 Z0.0000 F8000.0
G0 X24.4895 Y-47.9681 F15000.0
G1 Z11.9000 F8000.0
G1 X24.6664 Y-48.4988 F12000.0
G1 X24.4895 Y-48.7641
G1 X24.0030 Y-48.5430
G1 X23.6492 Y-47.4373
G1 X24.1799 Y-47.3931
G1 Z0.0000 F8000.0
G0 X25.7780 Y-46.4043 F15000.0
G1 Z11.9000 F8000.0
G1 X26.2203 Y-47.5542 F12000.0
G1 X27.4144 Y-47.8196
G1 Z0.0000 F8000.0
G0 X27.6356 Y-48.6599 F15000.0
G1 Z11.9000 F8000.0
G1 X27.6356 Y-48.3503 F12000.0
G1 X27.4586 Y-47.7753
G1 X25.7338 Y-45.6525
G1 Z0.0000 F8000.0
G0 X25.6011 Y-45.7851 F15000.0
G1 Z11.9000 F8000.0
G1 X25.6011 Y-45.9178 F12000.0
G1 Z0.0000 F8000.0
G0 X27.4144 Y-45.9178 F15000.0
G1 Z11.9000 F8000.0
G1 X27.4586 Y-45.6967 F12000.0
G1 X28.2990 Y-45.6967
G1 Z0.0000 F8000.0
G0 X28.6528 Y-46.0063 F15000.0
G1 Z11.9000 F8000.0
G1 X29.1835 Y-47.5984 F12000.0
G1 X29.0066 Y-47.8196
G1 X28.0336 Y-47.5542
G1 X27.5913 Y-46.4043
G1 Z0.0000 F8000.0
G0 X29.0066 Y-45.6082 F15000.0
G1 Z11.9000 F8000.0
G1 X29.3604 Y-46.3159 F12000.0
G1 Z0.0000 F8000.0
G0 X29.9796 Y-46.7581 F15000.0
G1 Z11.9000 F8000.0
G1 X30.2007 Y-45.8294 F12000.0
G1 Z0.0000 F8000.0
G0 X31.0410 Y-45.7851 F15000.0
G1 Z11.9000 F8000.0
G1 X31.0410 Y-45.9620 F12000.0
G1 X31.8371 Y-47.8638
G1 Z0.0000 F8000.0
G0 X30.9526 Y-47.5984 F15000.0
G1 Z11.9000 F8000.0
G1 X30.7314 Y-47.4215 F12000.0
G1 Z0.0000 F8000.0
G0 X30.4661 Y-47.2446 F15000.0
G1 Z11.9000 F8000.0
G1 X29.9353 Y-46.7581 F12000.0
G1 X29.6258 Y-46.7581
G1 X29.6258 Y-46.9350
G1 X30.0238 Y-47.8638
G1 Z0.0000 F8000.0
G0 X31.1737 Y-45.6525 F15000.0
G1 Z11.9000 F8000.0
G1 X31.9698 Y-45.6525 F12000.0
G1 Z0.0000 F8000.0
G0 X27.5471 Y-48.7483 F15000.0
G1 Z11.9000 F8000.0
G1 X27.0164 Y-48.8368 F12000.0
G1 X26.5741 Y-48.7926
G1 Z0.0000 F8000.0
G0 X27.5114 Y-42.1355 F15000.0
G1 Z11.9000 F8000.0
G1 X27.2018 Y-41.2510 F12000.0
G1 Z0.0000 F8000.0
G0 X27.8246 Y-40.8042 F15000.0
G1 Z11.9000 F8000.0
G1 X27.7362 Y-41.0695 F12000.0
G1 X28.3554 Y-42.7059
G1 X28.7534 Y-42.9270
G1 X29.5053 Y-42.7501
G1 X27.9131 Y-40.7599
G1 Z0.0000 F8000.0
G0 X42.5488 Y-45.6082 F15000.0
G1 Z11.9000 F8000.0
G1 X43.6987 Y-48.6157 F12000.0
G1 X45.1139 Y-48.7483
G1 X45.1139 Y-48.5272
G1 X44.2294 Y-46.0505
G1 Z0.0000 F8000.0
G0 X44.8043 Y-45.9178 F15000.0
G1 Z11.9000 F8000.0
G1 X44.8043 Y-45.7851 F12000.0
G1 Z0.0000 F8000.0
G0 X44.9370 Y-45.6525 F15000.0
G1 Z11.9000 F8000.0
G1 X46.5734 Y-47.5984 F12000.0
G1 X46.5292 Y-47.6869
G1 Z0.0000 F8000.0
G0 X46.4407 Y-47.7753 F15000.0
G1 Z11.9000 F8000.0
G1 X45.6889 Y-47.7311 F12000.0
G1 X45.4235 Y-47.5542
G1 X44.9812 Y-46.4043
G1 Z0.0000 F8000.0
G0 X46.6176 Y-45.9178 F15000.0
G1 Z11.9000 F8000.0
G1 X46.6176 Y-45.7851 F12000.0
G1 Z0.0000 F8000.0
G0 X46.7503 Y-45.6525 F15000.0
G1 Z11.9000 F8000.0
G1 X48.4752 Y-47.7753 F12000.0
G1 X48.6521 Y-48.3503
G1 X48.6521 Y-48.6599
G1 Z0.0000 F8000.0
G0 X48.5636 Y-48.7483 F15000.0
G1 Z11.9000 F8000.0
G1 X48.0329 Y-48.8368 F12000.0
G1 X47.5906 Y-48.7926
G1 Z0.0000 F8000.0
G0 X48.4309 Y-47.8196 F15000.0
G1 Z11.9000 F8000.0
G1 X47.2368 Y-47.5542 F12000.0
G1 X46.7945 Y-46.4043
G1 Z0.0000 F8000.0
G0 X48.2540 Y-45.7409 F15000.0
G1 Z11.9000 F8000.0
G1 X49.0059 Y-47.5542 F12000.0
G1 Z0.0000 F8000.0
G0 X49.0943 Y-47.7311 F15000.0
G1 Z11.9000 F8000.0
G1 X50.0673 Y-47.7311 F12000.0
G1 X49.7135 Y-46.2274
G1 Z0.0000 F8000.0
G0 X50.0231 Y-45.6967 F15000.0
G1 Z11.9000 F8000.0
G1 X49.9346 Y-45.6082 F12000.0
G1 Z0.0000 F8000.0
G0 X54.2924 Y-45.3871 F15000.0
G1 Z11.9000 F8000.0
G1 X54.4251 Y-45.5640 F12000.0
G1 X54.6462 Y-45.6525
G1 X55.0443 Y-46.6254
G1 Z0.0000 F8000.0
G0 X55.2212 Y-47.0235 F15000.0
G1 Z11.9000 F8000.0
G1 X55.9288 Y-48.7483 F12000.0
G1 X56.6807 Y-48.7926
G1 X56.6807 Y-48.4388
G1 Z0.0000 F8000.0
G0 X56.4595 Y-47.8196 F15000.0
G1 Z11.9000 F8000.0
G1 X55.7961 Y-45.6525 F12000.0
G1 X54.7347 Y-45.6082
G1 Z0.0000 F8000.0
G0 X55.7519 Y-45.3871 F15000.0
G1 Z11.9000 F8000.0
G1 X55.8403 Y-45.6082 F12000.0
G1 Z0.0000 F8000.0
G0 X56.5922 Y-45.6967 F15000.0
G1 Z11.9000 F8000.0
G1 X56.6364 Y-46.2716 F12000.0
G1 X57.0787 Y-47.5542
G1 X57.3441 Y-47.7311
G1 X58.1401 Y-47.8196
G1 X57.9190 Y-46.7581
G1 X57.6094 Y-45.7851
G1 X56.6364 Y-45.6525
G1 Z0.0000 F8000.0
G0 X57.9632 Y-45.5640 F15000.0
G1 Z11.9000 F8000.0
G1 X58.7151 Y-47.6427 F12000.0
G1 X59.5554 Y-47.7753
G1 X60.3073 Y-47.7311
G1 X59.6881 Y-45.5640
G1 Z0.0000 F8000.0
G0 X60.4842 Y-45.6967 F15000.0
G1 Z11.9000 F8000.0
G1 X60.5284 Y-46.2716 F12000.0
G1 X60.9707 Y-47.5542
G1 X61.2360 Y-47.7311
G1 X62.0321 Y-47.8196
G1 X61.8110 Y-46.7581
G1 X61.5014 Y-45.7851
G1 X60.5284 Y-45.6525
G1 Z0.0000 F8000.0
G0 X58.8035 Y-45.5640 F15000.0
G1 Z11.9000 F8000.0
G1 X59.5996 Y-47.7311 F12000.0
G1 Z0.0000 F8000.0
G0 X63.2677 Y-49.4714 F15000.0
G1 Z11.9000 F8000.0
G1 X0.0000 Y-49.4714 F12000.0
G1 Z0.0000 F8000.0
G0 X2.0564 Y-48.8417 F15000.0
G1 Z11.9000 F8000.0
G1 X1.1277 Y-46.1439 F12000.0
G1 Z0.0000 F8000.0
G0 X1.3930 Y-46.3650 F15000.0
G1 Z11.9000 F8000.0
G1 X2.7640 Y-48.0456 F12000.0
G1 Z0.0000 F8000.0
G0 X2.9410 Y-47.9572 F15000.0
G1 Z11.9000 F8000.0
G1 X2.2333 Y-45.7901 F12000.0
G1 Z0.0000 F8000.0
G0 X2.8525 Y-45.9227 F15000.0
G1 Z11.9000 F8000.0
G1 X2.8967 Y-45.7016 F12000.0
G1 X3.6044 Y-45.7458
G1 Z0.0000 F8000.0
G0 X3.6928 Y-45.8343 F15000.0
G1 Z11.9000 F8000.0
G1 X3.9139 Y-46.5861 F12000.0
G1 X3.8255 Y-46.7188
G1 X3.4717 Y-46.7188
G1 Z0.0000 F8000.0
G0 X4.0024 Y-46.8515 F15000.0
G1 Z11.9000 F8000.0
G1 X4.0909 Y-47.0726 F12000.0
G1 Z0.0000 F8000.0
G0 X4.2235 Y-47.3822 F15000.0
G1 Z11.9000 F8000.0
G1 X4.2235 Y-47.6918 F12000.0
G1 X3.8697 Y-47.8245
G1 X3.5601 Y-47.6918
G1 Z0.0000 F8000.0
G0 X3.1179 Y-48.3552 F15000.0
G1 Z11.9000 F8000.0
G1 X3.3390 Y-48.7975 F12000.0
G1 Z0.0000 F8000.0
G0 X5.1081 Y-47.8687 F15000.0
G1 Z11.9000 F8000.0
G1 X5.0638 Y-47.4264 F12000.0
G1 X5.1965 Y-46.9842
G1 Z0.0000 F8000.0
G0 X5.2850 Y-46.8957 F15000.0
G1 Z11.9000 F8000.0
G1 X5.4177 Y-46.9400 F12000.0
G1 Z0.0000 F8000.0
G0 X5.7715 Y-47.2053 F15000.0
G1 Z11.9000 F8000.0
G1 X6.0368 Y-47.3380 F12000.0
G1 Z0.0000 F8000.0
G0 X6.3464 Y-47.7803 F15000.0
G1 Z11.9000 F8000.0
G1 X6.0811 Y-47.2938 F12000.0
G1 X5.5946 Y-45.7458
G1 Z0.0000 F8000.0
G0 X6.0368 Y-45.6574 F15000.0
G1 Z11.9000 F8000.0
G1 X6.0811 Y-45.8343 F12000.0
G1 Z0.0000 F8000.0
G0 X4.8427 Y-47.2053 F15000.0
G1 Z11.9000 F8000.0
G1 X4.1351 Y-45.5689 F12000.0
G1 Z0.0000 F8000.0
G0 X0.9065 Y-45.7458 F15000.0
G1 Z11.9000 F8000.0
G1 X0.8623 Y-45.6131 F12000.0
G1 Z0.0000 F8000.0
G0 X0.0000 Y-44.6110 F15000.0
G1 Z11.9000 F8000.0
G1 X63.2677 Y-44.6110 F12000.0
G1 Z0.0000 F8000.0
G0 X65.7707 Y-23.8993 F15000.0
G1 Z11.9000 F8000.0
G1 X65.1073 Y-21.4668 F12000.0
G1 X65.2400 Y-20.0516
G1 X66.4341 Y-19.9631
G1 Z0.0000 F8000.0
G0 X67.3868 Y-19.9096 F15000.0
G1 Z11.9000 F8000.0
G1 X68.5810 Y-24.0669 F12000.0
G1 Z0.0000 F8000.0
G0 X69.9520 Y-23.6247 F15000.0
G1 Z11.9000 F8000.0
G1 X68.8906 Y-19.9096 F12000.0
G1 Z0.0000 F8000.0
G0 X70.0404 Y-23.8900 F15000.0
G1 Z11.9000 F8000.0
G1 X70.0847 Y-24.2881 F12000.0
G1 Z0.0000 F8000.0
G0 X53.5469 Y-15.3662 F15000.0
G1 Z11.9000 F8000.0
G1 X53.5469 Y-68.9131 F12000.0
G1 Z0.0000 F8000.0
G0 X38.9657 Y-68.9131 F15000.0
G1 Z11.9000 F8000.0
G1 X38.9657 Y-15.3662 F12000.0
G1 Z0.0000 F8000.0
G0 X16.5584 Y-15.3662 F15000.0
G1 Z11.9000 F8000.0
G1 X16.5584 Y-68.9131 F12000.0
G1 Z0.0000 F8000.0
G0 X8.0368 Y-39.0325 F15000.0
G1 Z11.9000 F8000.0
G1 X8.2579 Y-38.9883 F12000.0
G1 X8.3021 Y-38.6345
G1 Z0.0000 F8000.0
G0 X8.2137 Y-38.5460 F15000.0
G1 Z11.9000 F8000.0
G1 X7.9483 Y-38.2807 F12000.0
G1 Z0.0000 F8000.0
G0 X8.3021 Y-38.0595 F15000.0
G1 Z11.9000 F8000.0
G1 X7.4618 Y-38.0595 F12000.0
G1 Z0.0000 F8000.0
G0 X7.6830 Y-38.8114 F15000.0
G1 Z11.9000 F8000.0
G1 X6.8869 Y-36.6885 F12000.0
G1 X6.7542 Y-35.9367
G1 X7.7714 Y-36.0251
G1 X8.3906 Y-37.6615
G1 X8.3906 Y-37.9711
G1 Z0.0000 F8000.0
G0 X6.1350 Y-36.2905 F15000.0
G1 Z11.9000 F8000.0
G1 X6.6657 Y-37.7942 F12000.0
G1 X6.5331 Y-38.0595
G1 X5.5158 Y-37.8384
G1 X4.8967 Y-36.0251
G1 X5.6043 Y-35.8924
G1 X5.9139 Y-35.9809
G1 Z0.0000 F8000.0
G0 X84.6618 Y-43.3173 F15000.0
G1 Z11.9000 F8000.0
G1 X82.9812 Y-38.2312 F12000.0
G1 X85.6790 Y-38.1870
G1 X87.5808 Y-43.7153
G1 X88.8633 Y-47.1650
G1 Z0.0000 F8000.0
G0 X91.6496 Y-47.1650 F15000.0
G1 Z11.9000 F8000.0
G1 X90.8978 Y-45.1306 F12000.0
G1 Z0.0000 F8000.0
G0 X90.4113 Y-43.8038 F15000.0
G1 Z11.9000 F8000.0
G1 X90.3671 Y-43.6711 F12000.0
G1 Z0.0000 F8000.0
G0 X90.2344 Y-43.3173 F15000.0
G1 Z11.9000 F8000.0
G1 X90.1901 Y-43.1846 F12000.0
G1 Z0.0000 F8000.0
G0 X90.0575 Y-42.8308 F15000.0
G1 Z11.9000 F8000.0
G1 X88.2884 Y-38.2754 F12000.0
G1 X85.7675 Y-38.1870
G1 Z0.0000 F8000.0
G0 X90.3489 Y-38.5880 F15000.0
G1 Z11.9000 F8000.0
G1 X91.3219 Y-41.7724 F12000.0
G1 Z0.0000 F8000.0
G0 X91.6757 Y-42.7453 F15000.0
G1 Z11.9000 F8000.0
G1 X92.2064 Y-43.8510 F12000.0
G1 X92.4718 Y-44.1164
G1 X95.6119 Y-44.4260
G1 Z0.0000 F8000.0
G0 X95.7888 Y-44.5144 F15000.0
G1 Z11.9000 F8000.0
G1 X95.6561 Y-44.3817 F12000.0
G1 X95.4792 Y-43.5857
G1 X93.7543 Y-38.6322
G1 X90.6585 Y-38.2784
G1 Z0.0000 F8000.0
G0 X93.9755 Y-38.3669 F15000.0
G1 Z11.9000 F8000.0
G1 X94.0639 Y-38.2342 F12000.0
G1 Z0.0000 F8000.0
G0 X96.0775 Y-40.6225 F15000.0
G1 Z11.9000 F8000.0
G1 X95.5025 Y-38.6765 F12000.0
G1 X98.2003 Y-38.1900
G1 X98.6426 Y-38.3227
G1 X99.8367 Y-41.5070
G1 Z0.0000 F8000.0
G0 X100.4559 Y-43.1876 F15000.0
G1 Z11.9000 F8000.0
G1 X100.5001 Y-43.3203 F12000.0
G1 Z0.0000 F8000.0
G0 X100.6328 Y-43.6741 F15000.0
G1 Z11.9000 F8000.0
G1 X100.8982 Y-44.3817 F12000.0
G1 Z0.0000 F8000.0
G0 X102.4645 Y-43.8445 F15000.0
G1 Z11.9000 F8000.0
G1 X102.2434 Y-43.4465 F12000.0
G1 X100.6512 Y-38.5815
G1 Z0.0000 F8000.0
G0 X100.9608 Y-38.2719 F15000.0
G1 Z11.9000 F8000.0
G1 X103.2164 Y-38.2719 F12000.0
G1 Z0.0000 F8000.0
G0 X103.6587 Y-38.5373 F15000.0
G1 Z11.9000 F8000.0
G1 X103.9240 Y-38.7584 F12000.0
G1 Z0.0000 F8000.0
G0 X104.1009 Y-39.0680 F15000.0
G1 Z11.9000 F8000.0
G1 X104.2336 Y-39.3776 F12000.0
G1 Z0.0000 F8000.0
G0 X104.3663 Y-39.6872 F15000.0
G1 Z11.9000 F8000.0
G1 X104.9412 Y-41.3678 F12000.0
G1 Z0.0000 F8000.0
G0 X105.2508 Y-42.2081 F15000.0
G1 Z11.9000 F8000.0
G1 X105.7373 Y-43.8887 F12000.0
G1 X105.5162 Y-44.2868
G1 Z0.0000 F8000.0
G0 X105.4277 Y-44.3752 F15000.0
G1 Z11.9000 F8000.0
G1 X105.0297 Y-44.4637 F12000.0
G1 X102.8184 Y-44.1541
G1 X102.6857 Y-44.0214
G1 Z0.0000 F8000.0
G0 X105.1182 Y-44.5521 F15000.0
G1 Z11.9000 F8000.0
G1 X104.7201 Y-45.5251 F12000.0
G1 X104.3221 Y-46.1443
G1 Z0.0000 F8000.0
G0 X104.1009 Y-46.4981 F15000.0
G1 Z11.9000 F8000.0
G1 X103.9683 Y-47.1173 F12000.0
G1 X107.0641 Y-47.2942
G1 Z0.0000 F8000.0
G0 X107.1219 Y-42.7453 F15000.0
G1 Z11.9000 F8000.0
G1 X107.6526 Y-43.8510 F12000.0
G1 X107.9180 Y-44.1164
G1 X111.0581 Y-44.4260
G1 Z0.0000 F8000.0
G0 X111.2350 Y-44.5144 F15000.0
G1 Z11.9000 F8000.0
G1 X111.1023 Y-44.3817 F12000.0
G1 X110.9254 Y-43.5857
G1 X109.2006 Y-38.6322
G1 X106.1047 Y-38.2784
G1 Z0.0000 F8000.0
G0 X105.7951 Y-38.5880 F15000.0
G1 Z11.9000 F8000.0
G1 X106.7681 Y-41.7724 F12000.0
G1 Z0.0000 F8000.0
G0 X109.4217 Y-38.3669 F15000.0
G1 Z11.9000 F8000.0
G1 X109.5101 Y-38.2342 F12000.0
G1 Z0.0000 F8000.0
G0 X100.7200 Y-47.2500 F15000.0
G1 Z11.9000 F8000.0
G1 X99.5701 Y-47.1615 F12000.0
G1 Z0.0000 F8000.0
G0 X97.4043 Y-44.2933 F15000.0
G1 Z11.9000 F8000.0
G1 X96.6082 Y-42.0819 F12000.0
G1 Z0.0000 F8000.0
G0 X96.2544 Y-41.1090 F15000.0
G1 Z11.9000 F8000.0
G1 X96.2101 Y-40.9763 F12000.0
G1 Z0.0000 F8000.0
G0 X85.4579 Y-45.4844 F15000.0
G1 Z11.9000 F8000.0
G1 X85.5021 Y-45.6171 F12000.0
G1 Z0.0000 F8000.0
G0 X85.6348 Y-45.9709 F15000.0
G1 Z11.9000 F8000.0
G1 X86.0770 Y-47.1650 F12000.0
G1 Z0.0000 F8000.0
G0 X84.8387 Y-43.8038 F15000.0
G1 Z11.9000 F8000.0
G1 X84.7945 Y-43.6711 F12000.0
G1 Z0.0000 F8000.0
G0 X92.4482 Y-26.2433 F15000.0
G1 Z11.9000 F8000.0
G1 X93.9962 Y-26.3318 F12000.0
G1 Z0.0000 F8000.0
G0 X98.3559 Y-58.8163 F15000.0
G1 Z11.9000 F8000.0
G1 X99.6384 Y-62.2217 F12000.0
G1 Z0.0000 F8000.0
G0 X100.0365 Y-63.2832 F15000.0
G1 Z11.9000 F8000.0
G1 X100.7883 Y-65.2292 F12000.0
G1 Z0.0000 F8000.0
G0 X100.7883 Y-64.5215 F15000.0
G1 Z11.9000 F8000.0
G1 X101.4517 Y-62.3544 F12000.0
G1 X102.6459 Y-63.1505
G1 Z0.0000 F8000.0
G0 X103.3093 Y-63.8139 F15000.0
G1 Z11.9000 F8000.0
G1 X104.2380 Y-64.4773 F12000.0
G1 X104.2823 Y-64.4331
G1 X102.3363 Y-58.9490
G1 Z0.0000 F8000.0
G0 X101.4517 Y-62.1333 F15000.0
G1 Z11.9000 F8000.0
G1 X101.4960 Y-62.2660 F12000.0
G1 Z0.0000 F8000.0
G0 X104.4592 Y-64.8311 F15000.0
G1 Z11.9000 F8000.0
G1 X104.6361 Y-65.0965 F12000.0
G1 Z0.0000 F8000.0
G0 X105.7429 Y-65.1495 F15000.0
G1 Z11.9000 F8000.0
G1 X104.9026 Y-62.5401 F12000.0
G1 X105.0353 Y-62.1421
G1 X105.3006 Y-61.9209
G1 X107.2908 Y-61.7883
G1 X106.3621 Y-58.8251
G1 Z0.0000 F8000.0
G0 X108.1159 Y-59.1923 F15000.0
G1 Z11.9000 F8000.0
G1 X108.0717 Y-60.2095 F12000.0
G1 X108.2486 Y-60.6960
G1 Z0.0000 F8000.0
G0 X108.3813 Y-61.0498 F15000.0
G1 Z11.9000 F8000.0
G1 X108.4255 Y-61.1825 F12000.0
G1 Z0.0000 F8000.0
G0 X108.5582 Y-61.5363 F15000.0
G1 Z11.9000 F8000.0
G1 X108.6466 Y-61.8017 F12000.0
G1 Z0.0000 F8000.0
G0 X108.7793 Y-62.1555 F15000.0
G1 Z11.9000 F8000.0
G1 X108.8678 Y-62.4209 F12000.0
G1 Z0.0000 F8000.0
G0 X109.0004 Y-62.7747 F15000.0
G1 Z11.9000 F8000.0
G1 X109.0447 Y-62.9074 F12000.0
G1 Z0.0000 F8000.0
G0 X109.1773 Y-63.2612 F15000.0
G1 Z11.9000 F8000.0
G1 X109.5312 Y-64.1015 F12000.0
G1 Z0.0000 F8000.0
G0 X109.7081 Y-64.4111 F15000.0
G1 Z11.9000 F8000.0
G1 X109.9292 Y-64.6322 F12000.0
G1 Z0.0000 F8000.0
G0 X110.1946 Y-64.8534 F15000.0
G1 Z11.9000 F8000.0
G1 X110.3272 Y-64.9418 F12000.0
G1 X111.5656 Y-65.2072
G1 X112.1848 Y-64.9860
G1 Z0.0000 F8000.0
G0 X112.3617 Y-64.8091 F15000.0
G1 Z11.9000 F8000.0
G1 X112.4501 Y-64.5880 F12000.0
G1 X112.4059 Y-63.9246
G1 X112.1848 Y-63.2612
G1 Z0.0000 F8000.0
G0 X112.0521 Y-62.9074 F15000.0
G1 Z11.9000 F8000.0
G1 X112.0079 Y-62.7747 F12000.0
G1 Z0.0000 F8000.0
G0 X111.8752 Y-62.4209 F15000.0
G1 Z11.9000 F8000.0
G1 X111.7867 Y-62.1555 F12000.0
G1 Z0.0000 F8000.0
G0 X111.6540 Y-61.8017 F15000.0
G1 Z11.9000 F8000.0
G1 X111.5656 Y-61.5363 F12000.0
G1 Z0.0000 F8000.0
G0 X111.4329 Y-61.1825 F15000.0
G1 Z11.9000 F8000.0
G1 X111.3887 Y-61.0498 F12000.0
G1 Z0.0000 F8000.0
G0 X111.2560 Y-60.6960 F15000.0
G1 Z11.9000 F8000.0
G1 X110.9906 Y-59.9884 F12000.0
G1 Z0.0000 F8000.0
G0 X110.7695 Y-59.5904 F15000.0
G1 Z11.9000 F8000.0
G1 X110.2830 Y-59.1481 F12000.0
G1 Z0.0000 F8000.0
G0 X109.9292 Y-58.9712 F15000.0
G1 Z11.9000 F8000.0
G1 X109.6638 Y-58.8827 F12000.0
G1 X108.4255 Y-58.9270
G1 Z0.0000 F8000.0
G0 X107.4235 Y-61.8325 F15000.0
G1 Z11.9000 F8000.0
G1 X108.4407 Y-64.4861 F12000.0
G1 Z0.0000 F8000.0
G0 X113.1894 Y-62.9074 F15000.0
G1 Z11.9000 F8000.0
G1 X113.1452 Y-62.7747 F12000.0
G1 Z0.0000 F8000.0
G0 X113.0125 Y-62.4209 F15000.0
G1 Z11.9000 F8000.0
G1 X112.9240 Y-62.1555 F12000.0
G1 Z0.0000 F8000.0
G0 X112.7914 Y-61.8017 F15000.0
G1 Z11.9000 F8000.0
G1 X112.7029 Y-61.5363 F12000.0
G1 Z0.0000 F8000.0
G0 X112.5702 Y-61.1825 F15000.0
G1 Z11.9000 F8000.0
G1 X112.5260 Y-61.0498 F12000.0
G1 Z0.0000 F8000.0
G0 X112.3933 Y-60.6960 F15000.0
G1 Z11.9000 F8000.0
G1 X112.2164 Y-60.2095 F12000.0
G1 X112.2606 Y-59.1923
G1 Z0.0000 F8000.0
G0 X112.5702 Y-58.9270 F15000.0
G1 Z11.9000 F8000.0
G1 X113.8086 Y-58.8827 F12000.0
G1 X114.0739 Y-58.9712
G1 Z0.0000 F8000.0
G0 X114.4278 Y-59.1481 F15000.0
G1 Z11.9000 F8000.0
G1 X114.9143 Y-59.5904 F12000.0
G1 Z0.0000 F8000.0
G0 X115.1354 Y-59.9884 F15000.0
G1 Z11.9000 F8000.0
G1 X115.4008 Y-60.6960 F12000.0
G1 Z0.0000 F8000.0
G0 X115.5334 Y-61.0498 F15000.0
G1 Z11.9000 F8000.0
G1 X115.5777 Y-61.1825 F12000.0
G1 Z0.0000 F8000.0
G0 X115.7103 Y-61.5363 F15000.0
G1 Z11.9000 F8000.0
G1 X115.7988 Y-61.8017 F12000.0
G1 Z0.0000 F8000.0
G0 X115.9315 Y-62.1555 F15000.0
G1 Z11.9000 F8000.0
G1 X116.0199 Y-62.4209 F12000.0
G1 Z0.0000 F8000.0
G0 X116.1526 Y-62.7747 F15000.0
G1 Z11.9000 F8000.0
G1 X116.1968 Y-62.9074 F12000.0
G1 Z0.0000 F8000.0
G0 X116.3295 Y-63.2612 F15000.0
G1 Z11.9000 F8000.0
G1 X116.5507 Y-63.9246 F12000.0
G1 X116.5949 Y-64.5880
G1 X116.5064 Y-64.8091
G1 Z0.0000 F8000.0
G0 X116.3295 Y-64.9860 F15000.0
G1 Z11.9000 F8000.0
G1 X115.7103 Y-65.2072 F12000.0
G1 X114.4720 Y-64.9418
G1 X114.3393 Y-64.8534
G1 Z0.0000 F8000.0
G0 X114.0739 Y-64.6322 F15000.0
G1 Z11.9000 F8000.0
G1 X113.8528 Y-64.4111 F12000.0
G1 Z0.0000 F8000.0
G0 X113.6759 Y-64.1015 F15000.0
G1 Z11.9000 F8000.0
G1 X113.3221 Y-63.2612 F12000.0
G1 Z0.0000 F8000.0
G0 X115.7126 Y-58.9643 F15000.0
G1 Z11.9000 F8000.0
G1 X115.9072 Y-58.9643 F12000.0
G1 Z0.0000 F8000.0
G0 X117.4864 Y-59.1923 F15000.0
G1 Z11.9000 F8000.0
G1 X117.4421 Y-60.2095 F12000.0
G1 Z0.0000 F8000.0
G0 X117.5748 Y-60.5634 F15000.0
G1 Z11.9000 F8000.0
G1 X117.6191 Y-60.6960 F12000.0
G1 Z0.0000 F8000.0
G0 X118.2382 Y-62.2440 F15000.0
G1 Z11.9000 F8000.0
G1 X118.3709 Y-62.3324 F12000.0
G1 X118.6363 Y-63.0401
G1 Z0.0000 F8000.0
G0 X118.8132 Y-63.3054 F15000.0
G1 Z11.9000 F8000.0
G1 X118.9901 Y-63.5266 F12000.0
G1 Z0.0000 F8000.0
G0 X119.4766 Y-64.0573 F15000.0
G1 Z11.9000 F8000.0
G1 X120.2727 Y-64.7207 F12000.0
G1 Z0.0000 F8000.0
G0 X120.7149 Y-64.9418 F15000.0
G1 Z11.9000 F8000.0
G1 X121.1130 Y-65.1187 F12000.0
G1 Z0.0000 F8000.0
G0 X123.0466 Y-64.1015 F15000.0
G1 Z11.9000 F8000.0
G1 X122.6928 Y-63.2612 F12000.0
G1 Z0.0000 F8000.0
G0 X122.5601 Y-62.9074 F15000.0
G1 Z11.9000 F8000.0
G1 X122.5159 Y-62.7747 F12000.0
G1 Z0.0000 F8000.0
G0 X122.3832 Y-62.4209 F15000.0
G1 Z11.9000 F8000.0
G1 X122.2947 Y-62.1555 F12000.0
G1 Z0.0000 F8000.0
G0 X122.1621 Y-61.8017 F15000.0
G1 Z11.9000 F8000.0
G1 X122.0736 Y-61.5363 F12000.0
G1 Z0.0000 F8000.0
G0 X121.9409 Y-61.1825 F15000.0
G1 Z11.9000 F8000.0
G1 X121.8967 Y-61.0498 F12000.0
G1 Z0.0000 F8000.0
G0 X121.7640 Y-60.6960 F15000.0
G1 Z11.9000 F8000.0
G1 X121.5871 Y-60.2095 F12000.0
G1 X121.6313 Y-59.1923
G1 Z0.0000 F8000.0
G0 X121.9409 Y-58.9270 F15000.0
G1 Z11.9000 F8000.0
G1 X123.1793 Y-58.8827 F12000.0
G1 X123.4446 Y-58.9712
G1 Z0.0000 F8000.0
G0 X123.7985 Y-59.1481 F15000.0
G1 Z11.9000 F8000.0
G1 X124.2850 Y-59.5904 F12000.0
G1 Z0.0000 F8000.0
G0 X124.5061 Y-59.9884 F15000.0
G1 Z11.9000 F8000.0
G1 X124.7714 Y-60.6960 F12000.0
G1 Z0.0000 F8000.0
G0 X124.9041 Y-61.0498 F15000.0
G1 Z11.9000 F8000.0
G1 X124.9484 Y-61.1825 F12000.0
G1 Z0.0000 F8000.0
G0 X125.0810 Y-61.5363 F15000.0
G1 Z11.9000 F8000.0
G1 X125.1695 Y-61.8017 F12000.0
G1 Z0.0000 F8000.0
G0 X125.3022 Y-62.1555 F15000.0
G1 Z11.9000 F8000.0
G1 X125.3906 Y-62.4209 F12000.0
G1 Z0.0000 F8000.0
G0 X125.5233 Y-62.7747 F15000.0
G1 Z11.9000 F8000.0
G1 X125.5675 Y-62.9074 F12000.0
G1 Z0.0000 F8000.0
G0 X125.7002 Y-63.2612 F15000.0
G1 Z11.9000 F8000.0
G1 X125.9213 Y-63.9246 F12000.0
G1 X125.9656 Y-64.5880
G1 X125.8771 Y-64.8091
G1 Z0.0000 F8000.0
G0 X125.7002 Y-64.9860 F15000.0
G1 Z11.9000 F8000.0
G1 X125.0810 Y-65.2072 F12000.0
G1 X123.8427 Y-64.9418
G1 X123.7100 Y-64.8534
G1 Z0.0000 F8000.0
G0 X123.4446 Y-64.6322 F15000.0
G1 Z11.9000 F8000.0
G1 X123.2235 Y-64.4111 F12000.0
G1 Z0.0000 F8000.0
G0 X120.6707 Y-61.8902 F15000.0
G1 Z11.9000 F8000.0
G1 X120.8034 Y-61.4479 F12000.0
G1 X120.6707 Y-60.9172
G1 X120.1400 Y-59.6346
G1 X119.6535 Y-59.1481
G1 Z0.0000 F8000.0
G0 X119.2997 Y-58.9712 F15000.0
G1 Z11.9000 F8000.0
G1 X119.0343 Y-58.8827 F12000.0
G1 X117.7960 Y-58.9270
G1 Z0.0000 F8000.0
G0 X118.3709 Y-62.3324 F15000.0
G1 Z11.9000 F8000.0
G1 X120.3611 Y-62.1555 F12000.0
G1 Z0.0000 F8000.0
G0 X125.0833 Y-58.9643 F15000.0
G1 Z11.9000 F8000.0
G1 X125.2779 Y-58.9643 F12000.0
G1 Z0.0000 F8000.0
G0 X126.8573 Y-59.1923 F15000.0
G1 Z11.9000 F8000.0
G1 X126.8131 Y-60.2095 F12000.0
G1 X126.9900 Y-60.6960
G1 Z0.0000 F8000.0
G0 X127.1227 Y-61.0498 F15000.0
G1 Z11.9000 F8000.0
G1 X127.1669 Y-61.1825 F12000.0
G1 Z0.0000 F8000.0
G0 X127.2996 Y-61.5363 F15000.0
G1 Z11.9000 F8000.0
G1 X127.3880 Y-61.8017 F12000.0
G1 Z0.0000 F8000.0
G0 X127.5207 Y-62.1555 F15000.0
G1 Z11.9000 F8000.0
G1 X127.6092 Y-62.4209 F12000.0
G1 Z0.0000 F8000.0
G0 X127.7418 Y-62.7747 F15000.0
G1 Z11.9000 F8000.0
G1 X127.7861 Y-62.9074 F12000.0
G1 Z0.0000 F8000.0
G0 X127.9188 Y-63.2612 F15000.0
G1 Z11.9000 F8000.0
G1 X128.2726 Y-64.1015 F12000.0
G1 Z0.0000 F8000.0
G0 X128.4495 Y-64.4111 F15000.0
G1 Z11.9000 F8000.0
G1 X128.6706 Y-64.6322 F12000.0
G1 Z0.0000 F8000.0
G0 X128.9360 Y-64.8534 F15000.0
G1 Z11.9000 F8000.0
G1 X129.0687 Y-64.9418 F12000.0
G1 X130.3070 Y-65.2072
G1 X130.9262 Y-64.9860
G1 Z0.0000 F8000.0
G0 X131.1031 Y-64.8091 F15000.0
G1 Z11.9000 F8000.0
G1 X131.1915 Y-64.5880 F12000.0
G1 X131.1473 Y-63.9246
G1 X130.9262 Y-63.2612
G1 Z0.0000 F8000.0
G0 X130.7935 Y-62.9074 F15000.0
G1 Z11.9000 F8000.0
G1 X130.7493 Y-62.7747 F12000.0
G1 Z0.0000 F8000.0
G0 X130.6166 Y-62.4209 F15000.0
G1 Z11.9000 F8000.0
G1 X130.5281 Y-62.1555 F12000.0
G1 Z0.0000 F8000.0
G0 X130.3955 Y-61.8017 F15000.0
G1 Z11.9000 F8000.0
G1 X130.3070 Y-61.5363 F12000.0
G1 Z0.0000 F8000.0
G0 X130.1743 Y-61.1825 F15000.0
G1 Z11.9000 F8000.0
G1 X130.1301 Y-61.0498 F12000.0
G1 Z0.0000 F8000.0
G0 X129.9974 Y-60.6960 F15000.0
G1 Z11.9000 F8000.0
G1 X129.7321 Y-59.9884 F12000.0
G1 Z0.0000 F8000.0
G0 X129.5109 Y-59.5904 F15000.0
G1 Z11.9000 F8000.0
G1 X129.0244 Y-59.1481 F12000.0
G1 Z0.0000 F8000.0
G0 X128.6706 Y-58.9712 F15000.0
G1 Z11.9000 F8000.0
G1 X128.4053 Y-58.8827 F12000.0
G1 X127.1669 Y-58.9270
G1 Z0.0000 F8000.0
G0 X131.0020 Y-59.1923 F15000.0
G1 Z11.9000 F8000.0
G1 X130.9578 Y-60.2095 F12000.0
G1 X131.1347 Y-60.6960
G1 Z0.0000 F8000.0
G0 X131.2674 Y-61.0498 F15000.0
G1 Z11.9000 F8000.0
G1 X131.3116 Y-61.1825 F12000.0
G1 Z0.0000 F8000.0
G0 X131.4443 Y-61.5363 F15000.0
G1 Z11.9000 F8000.0
G1 X131.5328 Y-61.8017 F12000.0
G1 Z0.0000 F8000.0
G0 X131.6655 Y-62.1555 F15000.0
G1 Z11.9000 F8000.0
G1 X131.7539 Y-62.4209 F12000.0
G1 Z0.0000 F8000.0
G0 X131.8866 Y-62.7747 F15000.0
G1 Z11.9000 F8000.0
G1 X131.9308 Y-62.9074 F12000.0
G1 Z0.0000 F8000.0
G0 X132.0635 Y-63.2612 F15000.0
G1 Z11.9000 F8000.0
G1 X132.4173 Y-64.1015 F12000.0
G1 Z0.0000 F8000.0
G0 X132.5942 Y-64.4111 F15000.0
G1 Z11.9000 F8000.0
G1 X132.8154 Y-64.6322 F12000.0
G1 Z0.0000 F8000.0
G0 X133.0807 Y-64.8534 F15000.0
G1 Z11.9000 F8000.0
G1 X133.2134 Y-64.9418 F12000.0
G1 X134.4517 Y-65.2072
G1 X135.0709 Y-64.9860
G1 Z0.0000 F8000.0
G0 X135.2478 Y-64.8091 F15000.0
G1 Z11.9000 F8000.0
G1 X135.3363 Y-64.5880 F12000.0
G1 X135.2921 Y-63.9246
G1 X135.0709 Y-63.2612
G1 Z0.0000 F8000.0
G0 X134.9382 Y-62.9074 F15000.0
G1 Z11.9000 F8000.0
G1 X134.8940 Y-62.7747 F12000.0
G1 Z0.0000 F8000.0
G0 X134.7613 Y-62.4209 F15000.0
G1 Z11.9000 F8000.0
G1 X134.6729 Y-62.1555 F12000.0
G1 Z0.0000 F8000.0
G0 X134.5402 Y-61.8017 F15000.0
G1 Z11.9000 F8000.0
G1 X134.4517 Y-61.5363 F12000.0
G1 Z0.0000 F8000.0
G0 X134.3191 Y-61.1825 F15000.0
G1 Z11.9000 F8000.0
G1 X134.2748 Y-61.0498 F12000.0
G1 Z0.0000 F8000.0
G0 X134.1422 Y-60.6960 F15000.0
G1 Z11.9000 F8000.0
G1 X133.8768 Y-59.9884 F12000.0
G1 Z0.0000 F8000.0
G0 X133.6557 Y-59.5904 F15000.0
G1 Z11.9000 F8000.0
G1 X133.1692 Y-59.1481 F12000.0
G1 Z0.0000 F8000.0
G0 X132.8154 Y-58.9712 F15000.0
G1 Z11.9000 F8000.0
G1 X132.5500 Y-58.8827 F12000.0
G1 X131.3116 Y-58.9270
G1 Z0.0000 F8000.0
G0 X134.4540 Y-58.9643 F15000.0
G1 Z11.9000 F8000.0
G1 X134.6486 Y-58.9643 F12000.0
G1 Z0.0000 F8000.0
G0 X136.2280 Y-59.1923 F15000.0
G1 Z11.9000 F8000.0
G1 X136.1838 Y-60.2095 F12000.0
G1 X136.3607 Y-60.6960
G1 Z0.0000 F8000.0
G0 X136.4934 Y-61.0498 F15000.0
G1 Z11.9000 F8000.0
G1 X136.5376 Y-61.1825 F12000.0
G1 Z0.0000 F8000.0
G0 X136.6703 Y-61.5363 F15000.0
G1 Z11.9000 F8000.0
G1 X136.7587 Y-61.8017 F12000.0
G1 Z0.0000 F8000.0
G0 X136.8914 Y-62.1555 F15000.0
G1 Z11.9000 F8000.0
G1 X136.9799 Y-62.4209 F12000.0
G1 Z0.0000 F8000.0
G0 X137.1126 Y-62.7747 F15000.0
G1 Z11.9000 F8000.0
G1 X137.1568 Y-62.9074 F12000.0
G1 Z0.0000 F8000.0
G0 X137.2895 Y-63.2612 F15000.0
G1 Z11.9000 F8000.0
G1 X137.6433 Y-64.1015 F12000.0
G1 Z0.0000 F8000.0
G0 X137.8202 Y-64.4111 F15000.0
G1 Z11.9000 F8000.0
G1 X138.0413 Y-64.6322 F12000.0
G1 Z0.0000 F8000.0
G0 X138.3067 Y-64.8534 F15000.0
G1 Z11.9000 F8000.0
G1 X138.4394 Y-64.9418 F12000.0
G1 X139.6777 Y-65.2072
G1 X140.2969 Y-64.9860
G1 Z0.0000 F8000.0
G0 X140.4738 Y-64.8091 F15000.0
G1 Z11.9000 F8000.0
G1 X140.5623 Y-64.5880 F12000.0
G1 X140.5180 Y-63.9246
G1 X140.2969 Y-63.2612
G1 Z0.0000 F8000.0
G0 X140.1642 Y-62.9074 F15000.0
G1 Z11.9000 F8000.0
G1 X140.1200 Y-62.7747 F12000.0
G1 Z0.0000 F8000.0
G0 X139.9873 Y-62.4209 F15000.0
G1 Z11.9000 F8000.0
G1 X139.8989 Y-62.1555 F12000.0
G1 Z0.0000 F8000.0
G0 X139.7662 Y-61.8017 F15000.0
G1 Z11.9000 F8000.0
G1 X139.6777 Y-61.5363 F12000.0
G1 Z0.0000 F8000.0
G0 X139.5450 Y-61.1825 F15000.0
G1 Z11.9000 F8000.0
G1 X139.5008 Y-61.0498 F12000.0
G1 Z0.0000 F8000.0
G0 X139.3681 Y-60.6960 F15000.0
G1 Z11.9000 F8000.0
G1 X139.1028 Y-59.9884 F12000.0
G1 Z0.0000 F8000.0
G0 X138.8816 Y-59.5904 F15000.0
G1 Z11.9000 F8000.0
G1 X138.3951 Y-59.1481 F12000.0
G1 Z0.0000 F8000.0
G0 X138.0413 Y-58.9712 F15000.0
G1 Z11.9000 F8000.0
G1 X137.7760 Y-58.8827 F12000.0
G1 X136.5376 Y-58.9270
G1 Z0.0000 F8000.0
G0 X140.3728 Y-59.1923 F15000.0
G1 Z11.9000 F8000.0
G1 X140.3285 Y-60.2095 F12000.0
G1 X140.8592 Y-61.3594
G1 Z0.0000 F8000.0
G0 X141.3900 Y-61.9344 F15000.0
G1 Z11.9000 F8000.0
G1 X141.8322 Y-62.1997 F12000.0
G1 X143.2475 Y-62.2440
G1 X143.6898 Y-61.4921
G1 X143.2033 Y-59.9884
G1 Z0.0000 F8000.0
G0 X143.0264 Y-59.6346 F15000.0
G1 Z11.9000 F8000.0
G1 X142.5399 Y-59.1481 F12000.0
G1 Z0.0000 F8000.0
G0 X142.1861 Y-58.9712 F15000.0
G1 Z11.9000 F8000.0
G1 X141.9207 Y-58.8827 F12000.0
G1 X140.6823 Y-58.9270
G1 Z0.0000 F8000.0
G0 X141.9207 Y-62.3767 F15000.0
G1 Z11.9000 F8000.0
G1 X141.7880 Y-63.4823 F12000.0
G1 X142.0534 Y-64.0573
G1 Z0.0000 F8000.0
G0 X142.4072 Y-64.5880 F15000.0
G1 Z11.9000 F8000.0
G1 X142.8937 Y-64.9860 F12000.0
G1 X143.8667 Y-65.2072
G1 X144.2205 Y-64.9860
G1 Z0.0000 F8000.0
G0 X144.4416 Y-64.6765 F15000.0
G1 Z11.9000 F8000.0
G1 X144.4859 Y-64.5880 F12000.0
G1 X144.2647 Y-63.5266
G1 Z0.0000 F8000.0
G0 X144.1320 Y-63.2170 F15000.0
G1 Z11.9000 F8000.0
G1 X143.8667 Y-62.8632 F12000.0
G1 Z0.0000 F8000.0
G0 X143.6455 Y-62.6420 F15000.0
G1 Z11.9000 F8000.0
G1 X143.4686 Y-62.5093 F12000.0
G1 Z0.0000 F8000.0
G0 X145.9771 Y-54.3318 F15000.0
G1 Z11.9000 F8000.0
G1 X145.9771 Y-34.8078 F12000.0
G1 Z0.0000 F8000.0
G0 X141.1167 Y-34.8078 F15000.0
G1 Z11.9000 F8000.0
G1 X141.1167 Y-49.4714 F12000.0
G1 Z0.0000 F8000.0
G0 X141.4216 Y-50.3636 F15000.0
G1 Z11.9000 F8000.0
G1 X142.1292 Y-52.5308 F12000.0
G1 X142.0407 Y-52.6192
G1 X141.2004 Y-52.6634
G1 X140.2717 Y-52.3981
G1 Z0.0000 F8000.0
G0 X140.1390 Y-52.0885 F15000.0
G1 Z11.9000 F8000.0
G1 X139.4756 Y-50.3636 F12000.0
G1 Z0.0000 F8000.0
G0 X139.0333 Y-50.7175 F15000.0
G1 Z11.9000 F8000.0
G1 X137.9276 Y-50.5848 F12000.0
G1 X138.0603 Y-51.1597
G1 X138.6795 Y-52.7077
G1 Z0.0000 F8000.0
G0 X138.0161 Y-52.7961 F15000.0
G1 Z11.9000 F8000.0
G1 X137.9719 Y-52.6634 F12000.0
G1 Z0.0000 F8000.0
G0 X138.1488 Y-53.1499 F15000.0
G1 Z11.9000 F8000.0
G1 X138.2372 Y-53.6364 F12000.0
G1 X137.6180 Y-53.5922
G1 Z0.0000 F8000.0
G0 X137.3085 Y-53.1499 F15000.0
G1 Z11.9000 F8000.0
G1 X137.2200 Y-53.0615 F12000.0
G1 Z0.0000 F8000.0
G0 X136.8220 Y-52.4423 F15000.0
G1 Z11.9000 F8000.0
G1 X136.5566 Y-52.0885 F12000.0
G1 Z0.0000 F8000.0
G0 X136.2470 Y-51.6020 F15000.0
G1 Z11.9000 F8000.0
G1 X135.5394 Y-50.5405 F12000.0
G1 Z0.0000 F8000.0
G0 X136.1739 Y-49.4714 F15000.0
G1 Z11.9000 F8000.0
G1 X136.1739 Y-34.8078 F12000.0
G1 Z0.0000 F8000.0
G0 X144.5427 Y-26.1549 F15000.0
G1 Z11.9000 F8000.0
G1 X145.9580 Y-26.2433 F12000.0
G1 X145.7811 Y-25.4915
G1 X143.7467 Y-20.0516
G1 Z0.0000 F8000.0
G0 X146.2210 Y-19.9189 F15000.0
G1 Z11.9000 F8000.0
G1 X146.7075 Y-21.2015 F12000.0
G1 Z0.0000 F8000.0
G0 X146.9729 Y-21.9091 F15000.0
G1 Z11.9000 F8000.0
G1 X148.4766 Y-26.2433 F12000.0
G1 X149.9803 Y-26.3318
G1 Z0.0000 F8000.0
G0 X148.4324 Y-26.2876 F15000.0
G1 Z11.9000 F8000.0
G1 X147.1940 Y-26.2433 F12000.0
G1 Z0.0000 F8000.0
G0 X149.5359 Y-22.0441 F15000.0
G1 Z11.9000 F8000.0
G1 X152.3222 Y-22.1768 F12000.0
G1 Z0.0000 F8000.0
G0 X152.6330 Y-19.9189 F15000.0
G1 Z11.9000 F8000.0
G1 X154.3137 Y-20.0516 F12000.0
G1 X154.7559 Y-20.2727
G1 Z0.0000 F8000.0
G0 X154.9771 Y-20.4496 F15000.0
G1 Z11.9000 F8000.0
G1 X155.1540 Y-20.6265 F12000.0
G1 Z0.0000 F8000.0
G0 X155.2866 Y-20.8919 F15000.0
G1 Z11.9000 F8000.0
G1 X155.5520 Y-21.4668 F12000.0
G1 Z0.0000 F8000.0
G0 X155.7289 Y-21.9091 F15000.0
G1 Z11.9000 F8000.0
G1 X155.7289 Y-23.0148 F12000.0
G1 X155.3751 Y-23.2801
G1 X153.9156 Y-23.4128
G1 X157.2326 Y-26.3318
G1 Z0.0000 F8000.0
G0 X157.9278 Y-24.8305 F15000.0
G1 Z11.9000 F8000.0
G1 X159.0777 Y-25.6266 F12000.0
G1 X159.6084 Y-25.8035
G1 X160.0065 Y-26.2900
G1 Z0.0000 F8000.0
G0 X159.7411 Y-25.8920 F15000.0
G1 Z11.9000 F8000.0
G1 X159.6527 Y-25.7593 F12000.0
G1 X159.5642 Y-25.2286
G1 Z0.0000 F8000.0
G0 X159.4315 Y-24.8747 F15000.0
G1 Z11.9000 F8000.0
G1 X159.3873 Y-24.7421 F12000.0
G1 Z0.0000 F8000.0
G0 X159.2546 Y-24.3883 F15000.0
G1 Z11.9000 F8000.0
G1 X158.8123 Y-23.1499 F12000.0
G1 Z0.0000 F8000.0
G0 X158.6797 Y-22.7961 F15000.0
G1 Z11.9000 F8000.0
G1 X158.6354 Y-22.6634 F12000.0
G1 Z0.0000 F8000.0
G0 X158.5028 Y-22.3096 F15000.0
G1 Z11.9000 F8000.0
G1 X157.6625 Y-20.0540 F12000.0
G1 Z0.0000 F8000.0
G0 X159.8221 Y-19.9189 F15000.0
G1 Z11.9000 F8000.0
G1 X160.3086 Y-20.1400 F12000.0
G1 Z0.0000 F8000.0
G0 X160.5740 Y-20.2727 F15000.0
G1 Z11.9000 F8000.0
G1 X161.0605 Y-20.5381 F12000.0
G1 X162.2988 Y-21.8207
G1 X162.6969 Y-22.8379
G1 X160.3529 Y-23.2801
G1 X160.3529 Y-24.0320
G1 X160.7951 Y-25.1377
G1 X161.1489 Y-25.6684
G1 Z0.0000 F8000.0
G0 X161.4143 Y-25.9337 F15000.0
G1 Z11.9000 F8000.0
G1 X162.8296 Y-26.2876 F12000.0
G1 X163.3603 Y-26.1549
G1 Z0.0000 F8000.0
G0 X163.6256 Y-25.8895 F15000.0
G1 Z11.9000 F8000.0
G1 X163.7141 Y-25.0934 F12000.0
G1 X163.6256 Y-24.8281
G1 Z0.0000 F8000.0
G0 X163.0507 Y-23.2801 F15000.0
G1 Z11.9000 F8000.0
G1 X163.0065 Y-23.1475 F12000.0
G1 Z0.0000 F8000.0
G0 X163.5919 Y-22.0441 F15000.0
G1 Z11.9000 F8000.0
G1 X166.3782 Y-22.1768 F12000.0
G1 Z0.0000 F8000.0
G0 X166.6891 Y-19.9189 F15000.0
G1 Z11.9000 F8000.0
G1 X168.3697 Y-20.0516 F12000.0
G1 X168.8120 Y-20.2727
G1 Z0.0000 F8000.0
G0 X169.0331 Y-20.4496 F15000.0
G1 Z11.9000 F8000.0
G1 X169.2100 Y-20.6265 F12000.0
G1 Z0.0000 F8000.0
G0 X169.3427 Y-20.8919 F15000.0
G1 Z11.9000 F8000.0
G1 X169.8734 Y-22.2629 F12000.0
G1 X169.8734 Y-22.8379
G1 X169.5196 Y-23.3244
G1 X168.9447 Y-23.3244
G1 Z0.0000 F8000.0
G0 X169.7407 Y-23.6340 F15000.0
G1 Z11.9000 F8000.0
G1 X170.1830 Y-24.0320 F12000.0
G1 Z0.0000 F8000.0
G0 X170.4042 Y-24.4743 F15000.0
G1 Z11.9000 F8000.0
G1 X170.7137 Y-25.5357 F12000.0
G1 X170.5811 Y-25.9337
G1 Z0.0000 F8000.0
G0 X170.3599 Y-26.1549 F15000.0
G1 Z11.9000 F8000.0
G1 X170.1388 Y-26.2433 F12000.0
G1 X168.9889 Y-26.2433
G1 Z0.0000 F8000.0
G0 X174.2446 Y-31.0770 F15000.0
G1 Z11.9000 F8000.0
G1 X174.4215 Y-31.3866 F12000.0
G1 X175.2618 Y-33.7306
G1 Z0.0000 F8000.0
G0 X174.8195 Y-33.7306 F15000.0
G1 Z11.9000 F8000.0
G1 X174.5984 Y-33.5979 F12000.0
G1 Z0.0000 F8000.0
G0 X172.4094 Y-40.1990 F15000.0
G1 Z11.9000 F8000.0
G1 X173.8689 Y-44.2679 F12000.0
G1 X174.1343 Y-44.6217
G1 Z0.0000 F8000.0
G0 X173.8247 Y-44.3121 F15000.0
G1 Z11.9000 F8000.0
G1 X173.5151 Y-44.2237 F12000.0
G1 Z0.0000 F8000.0
G0 X172.7632 Y-43.7372 F15000.0
G1 Z11.9000 F8000.0
G1 X172.5863 Y-43.5603 F12000.0
G1 Z0.0000 F8000.0
G0 X171.6563 Y-43.1622 F15000.0
G1 Z11.9000 F8000.0
G1 X171.4352 Y-43.0295 F12000.0
G1 Z0.0000 F8000.0
G0 X170.9929 Y-44.3121 F15000.0
G1 Z11.9000 F8000.0
G1 X170.6833 Y-44.2237 F12000.0
G1 Z0.0000 F8000.0
G0 X171.3025 Y-44.6217 F15000.0
G1 Z11.9000 F8000.0
G1 X171.0371 Y-44.2679 F12000.0
G1 X169.5776 Y-40.1990
G1 Z0.0000 F8000.0
G0 X170.8160 Y-41.2605 F15000.0
G1 Z11.9000 F8000.0
G1 X170.9487 Y-41.3931 F12000.0
G1 Z0.0000 F8000.0
G0 X169.7545 Y-43.5603 F15000.0
G1 Z11.9000 F8000.0
G1 X169.9314 Y-43.7372 F12000.0
G1 Z0.0000 F8000.0
G0 X169.2401 Y-50.4426 F15000.0
G1 Z11.9000 F8000.0
G1 X168.1787 Y-50.9291 F12000.0
G1 Z0.0000 F8000.0
G0 X168.3114 Y-51.2829 F15000.0
G1 Z11.9000 F8000.0
G1 X168.5767 Y-52.1232 F12000.0
G1 Z0.0000 F8000.0
G0 X168.8421 Y-52.5213 F15000.0
G1 Z11.9000 F8000.0
G1 X170.0362 Y-52.6097 F12000.0
G1 Z0.0000 F8000.0
G0 X170.6884 Y-52.7107 F15000.0
G1 Z11.9000 F8000.0
G1 X170.0692 Y-51.1628 F12000.0
G1 X169.9807 Y-50.5878
G1 X170.8210 Y-50.5436
G1 X171.6614 Y-52.7107
G1 Z0.0000 F8000.0
G0 X172.6343 Y-52.7107 F15000.0
G1 Z11.9000 F8000.0
G1 X171.7498 Y-50.6763 F12000.0
G1 Z0.0000 F8000.0
G0 X171.6614 Y-50.5436 F15000.0
G1 Z11.9000 F8000.0
G1 X170.8210 Y-50.5436 F12000.0
G1 Z0.0000 F8000.0
G0 X172.2280 Y-50.3617 F15000.0
G1 Z11.9000 F8000.0
G1 X172.8914 Y-52.1750 F12000.0
G1 Z0.0000 F8000.0
G0 X173.0241 Y-52.4846 F15000.0
G1 Z11.9000 F8000.0
G1 X173.9528 Y-52.6615 F12000.0
G1 X174.8374 Y-52.3077
G1 X174.1740 Y-50.3617
G1 Z0.0000 F8000.0
G0 X175.0265 Y-50.5386 F15000.0
G1 Z11.9000 F8000.0
G1 X174.9380 Y-50.8039 F12000.0
G1 X175.5572 Y-52.4403
G1 X176.7514 Y-52.6615
G1 X176.1764 Y-50.7155
G1 X175.7341 Y-50.5386
G1 X175.1150 Y-50.4943
G1 Z0.0000 F8000.0
G0 X176.7418 Y-50.6501 F15000.0
G1 Z11.9000 F8000.0
G1 X176.7418 Y-50.7828 F12000.0
G1 Z0.0000 F8000.0
G0 X176.8745 Y-50.5174 F15000.0
G1 Z11.9000 F8000.0
G1 X178.5109 Y-52.5519 F12000.0
G1 X178.2898 Y-52.7288
G1 X177.4052 Y-52.4634
G1 X176.9187 Y-51.2693
G1 Z0.0000 F8000.0
G0 X178.2455 Y-52.7730 F15000.0
G1 Z11.9000 F8000.0
G1 X177.9359 Y-53.5691 F12000.0
G1 X179.0858 Y-53.5691
G1 Z0.0000 F8000.0
G0 X180.0000 Y-49.4714 F15000.0
G1 Z11.9000 F8000.0
G1 X145.9771 Y-49.4714 F12000.0
G1 X131.3959 Y-49.4714 F12000.0
G1 Z0.0000 F8000.0
G0 X131.3959 Y-54.3318 F15000.0
G1 Z11.9000 F8000.0
G1 X131.3959 Y-15.3662 F12000.0
G1 Z0.0000 F8000.0
G0 X151.4142 Y-29.9474 F15000.0
G1 Z11.9000 F8000.0
G1 X151.4142 Y-34.8078 F12000.0
G1 Z0.0000 F8000.0
G0 X154.9787 Y-32.6287 F15000.0
G1 Z11.9000 F8000.0
G1 X155.2441 Y-32.9825 F12000.0
G1 Z0.0000 F8000.0
G0 X155.6421 Y-33.6017 F15000.0
G1 Z11.9000 F8000.0
G1 X155.7306 Y-33.6901 F12000.0
G1 Z0.0000 F8000.0
G0 X156.0402 Y-34.1324 F15000.0
G1 Z11.9000 F8000.0
G1 X156.6593 Y-34.1766 F12000.0
G1 X156.5709 Y-33.6901
G1 Z0.0000 F8000.0
G0 X156.4382 Y-33.3363 F15000.0
G1 Z11.9000 F8000.0
G1 X156.3940 Y-33.2036 F12000.0
G1 Z0.0000 F8000.0
G0 X157.0901 Y-33.2509 F15000.0
G1 Z11.9000 F8000.0
G1 X156.4709 Y-31.7030 F12000.0
G1 X156.3824 Y-31.1280
G1 X157.5766 Y-31.4818
G1 X157.7535 Y-31.8799
G1 Z0.0000 F8000.0
G0 X157.8861 Y-32.1895 F15000.0
G1 Z11.9000 F8000.0
G1 X158.3284 Y-33.2509 F12000.0
G1 Z0.0000 F8000.0
G0 X158.8479 Y-33.0615 F15000.0
G1 Z11.9000 F8000.0
G1 X160.0420 Y-33.1499 F12000.0
G1 Z0.0000 F8000.0
G0 X160.5070 Y-33.0248 F15000.0
G1 Z11.9000 F8000.0
G1 X161.4358 Y-33.2017 F12000.0
G1 X162.3203 Y-32.8479
G1 X161.6569 Y-30.9019
G1 Z0.0000 F8000.0
G0 X162.5094 Y-31.0743 F15000.0
G1 Z11.9000 F8000.0
G1 X162.4210 Y-31.3396 F12000.0
G1 X163.0402 Y-32.9760
G1 X163.4382 Y-33.1972
G1 X164.1901 Y-33.0203
G1 X162.5979 Y-31.0300
G1 Z0.0000 F8000.0
G0 X160.6839 Y-30.9019 F15000.0
G1 Z11.9000 F8000.0
G1 X161.3031 Y-32.6267 F12000.0
G1 Z0.0000 F8000.0
G0 X161.4358 Y-32.9363 F15000.0
G1 Z11.9000 F8000.0
G1 X161.4800 Y-33.1575 F12000.0
G1 Z0.0000 F8000.0
G0 X160.3743 Y-32.7152 F15000.0
G1 Z11.9000 F8000.0
G1 X159.7109 Y-30.9019 F12000.0
G1 Z0.0000 F8000.0
G0 X159.2459 Y-30.9828 F15000.0
G1 Z11.9000 F8000.0
G1 X158.1845 Y-31.4693 F12000.0
G1 Z0.0000 F8000.0
G0 X158.3172 Y-31.8231 F15000.0
G1 Z11.9000 F8000.0
G1 X158.5825 Y-32.6634 F12000.0
G1 Z0.0000 F8000.0
G0 X155.8190 Y-31.6115 F15000.0
G1 Z11.9000 F8000.0
G1 X155.7748 Y-31.4788 F12000.0
G1 Z0.0000 F8000.0
G0 X154.6691 Y-32.1422 F15000.0
G1 Z11.9000 F8000.0
G1 X153.9615 Y-31.0807 F12000.0
G1 Z0.0000 F8000.0
G0 X151.9074 Y-39.4129 F15000.0
G1 Z11.9000 F8000.0
G1 X152.0401 Y-39.5014 F12000.0
G1 X152.3055 Y-39.9437
G1 Z0.0000 F8000.0
G0 X152.0843 Y-41.5358 F15000.0
G1 Z11.9000 F8000.0
G1 X151.7305 Y-40.6955 F12000.0
G1 X151.3325 Y-40.3417
G1 X151.0671 Y-40.2532
G1 X150.0499 Y-40.2532
G1 Z0.0000 F8000.0
G0 X149.9172 Y-40.3417 F15000.0
G1 Z11.9000 F8000.0
G1 X149.7403 Y-40.9609 F12000.0
G1 X150.8902 Y-43.9683
G1 X151.3325 Y-44.4548
G1 Z0.0000 F8000.0
G0 X151.5094 Y-44.5432 F15000.0
G1 Z11.9000 F8000.0
G1 X152.8804 Y-44.4548 F12000.0
G1 X152.9246 Y-43.8798
G1 Z0.0000 F8000.0
G0 X152.5708 Y-42.9069 F15000.0
G1 Z11.9000 F8000.0
G1 X152.5266 Y-42.7742 F12000.0
G1 Z0.0000 F8000.0
G0 X152.3055 Y-42.1550 F15000.0
G1 Z11.9000 F8000.0
G1 X152.2612 Y-42.0223 F12000.0
G1 Z0.0000 F8000.0
G0 X154.6580 Y-43.5603 F15000.0
G1 Z11.9000 F8000.0
G1 X154.8349 Y-43.7372 F12000.0
G1 Z0.0000 F8000.0
G0 X155.5867 Y-44.2237 F15000.0
G1 Z11.9000 F8000.0
G1 X155.8963 Y-44.3121 F12000.0
G1 Z0.0000 F8000.0
G0 X156.2059 Y-44.6217 F15000.0
G1 Z11.9000 F8000.0
G1 X155.9406 Y-44.2679 F12000.0
G1 X154.4811 Y-40.1990
G1 Z0.0000 F8000.0
G0 X156.4713 Y-40.1990 F15000.0
G1 Z11.9000 F8000.0
G1 X156.5597 Y-40.3317 F12000.0
G1 Z0.0000 F8000.0
G0 X157.5769 Y-42.0566 F15000.0
G1 Z11.9000 F8000.0
G1 X158.8153 Y-44.1352 F12000.0
G1 X158.9922 Y-44.6217
G1 X157.0905 Y-44.6217
G1 Z0.0000 F8000.0
G0 X156.9578 Y-44.4448 F15000.0
G1 Z11.9000 F8000.0
G1 X156.9135 Y-44.3121 F12000.0
G1 Z0.0000 F8000.0
G0 X156.5493 Y-50.4605 F15000.0
G1 Z11.9000 F8000.0
G1 X155.4436 Y-50.5932 F12000.0
G1 X155.4436 Y-50.8143
G1 Z0.0000 F8000.0
G0 X155.5763 Y-51.1681 F15000.0
G1 Z11.9000 F8000.0
G1 X155.7974 Y-51.8758 F12000.0
G1 Z0.0000 F8000.0
G0 X155.9301 Y-52.2296 F15000.0
G1 Z11.9000 F8000.0
G1 X156.6820 Y-52.6276 F12000.0
G1 X157.3454 Y-52.6276
G1 Z0.0000 F8000.0
G0 X157.6992 Y-52.2296 F15000.0
G1 Z11.9000 F8000.0
G1 X159.0260 Y-52.6276 F12000.0
G1 X158.4068 Y-50.6816
G1 X157.7876 Y-50.4605
G1 X157.2127 Y-50.8143
G1 Z0.0000 F8000.0
G0 X157.3454 Y-51.1681 F15000.0
G1 Z11.9000 F8000.0
G1 X157.5665 Y-51.8758 F12000.0
G1 Z0.0000 F8000.0
G0 X155.5321 Y-52.6276 F15000.0
G1 Z11.9000 F8000.0
G1 X154.5148 Y-52.5834 F12000.0
G1 X154.1168 Y-52.2296
G1 Z0.0000 F8000.0
G0 X153.9841 Y-51.8758 F15000.0
G1 Z11.9000 F8000.0
G1 X153.6745 Y-50.9470 F12000.0
G1 X153.6745 Y-50.5932
G1 X154.7360 Y-50.4605
G1 Z0.0000 F8000.0
G0 X153.2323 Y-51.3450 F15000.0
G1 Z11.9000 F8000.0
G1 X152.9669 Y-50.6816 F12000.0
G1 X152.3477 Y-50.4605
G1 X151.8170 Y-50.8143
G1 X152.3035 Y-52.2738
G1 Z0.0000 F8000.0
G0 X152.5246 Y-52.5392 F15000.0
G1 Z11.9000 F8000.0
G1 X153.5861 Y-52.6719 F12000.0
G1 X153.3649 Y-51.6989
G1 Z0.0000 F8000.0
G0 X151.1094 Y-50.6374 F15000.0
G1 Z11.9000 F8000.0
G1 X151.9497 Y-53.1583 F12000.0
G1 X151.4190 Y-52.8045
G1 X150.8440 Y-52.2738
G1 X150.6671 Y-52.2296
G1 Z0.0000 F8000.0
G0 X150.5787 Y-52.0084 F15000.0
G1 Z11.9000 F8000.0
G1 X150.6229 Y-52.2738 F12000.0
G1 X150.3575 Y-53.2468
G1 X150.4017 Y-53.7333
G1 Z0.0000 F8000.0
G0 X150.0922 Y-52.9372 F15000.0
G1 Z11.9000 F8000.0
G1 X149.0749 Y-50.3721 F12000.0
G1 Z0.0000 F8000.0
G0 X142.0407 Y-50.5848 F15000.0
G1 Z11.9000 F8000.0
G1 X141.9081 Y-50.4521 F12000.0
G1 Z0.0000 F8000.0
G0 X140.4486 Y-50.3636 F15000.0
G1 Z11.9000 F8000.0
G1 X141.0677 Y-52.0885 F12000.0
G1 Z0.0000 F8000.0
G0 X141.2004 Y-52.3981 F15000.0
G1 Z11.9000 F8000.0
G1 X141.2446 Y-52.6192 F12000.0
G1 Z0.0000 F8000.0
G0 X139.8736 Y-52.7077 F15000.0
G1 Z11.9000 F8000.0
G1 X139.6083 Y-52.0885 F12000.0
G1 Z0.0000 F8000.0
G0 X139.4756 Y-51.7789 F15000.0
G1 Z11.9000 F8000.0
G1 X139.1218 Y-50.8944 F12000.0
G1 Z0.0000 F8000.0
G0 X137.3969 Y-51.0713 F15000.0
G1 Z11.9000 F8000.0
G1 X137.3527 Y-50.9386 F12000.0
G1 Z0.0000 F8000.0
G0 X162.5355 Y-54.3318 F15000.0
G1 Z11.9000 F8000.0
G1 X162.5355 Y-34.8078 F12000.0
G1 Z0.0000 F8000.0
G0 X165.1977 Y-33.9446 F15000.0
G1 Z11.9000 F8000.0
G1 X164.2247 Y-31.3352 F12000.0
G1 X164.3132 Y-31.0699
G1 X165.2862 Y-31.1583
G1 X165.9938 Y-32.9274
G1 X165.4631 Y-33.2370
G1 X164.9766 Y-33.1928
G1 Z0.0000 F8000.0
G0 X165.5958 Y-33.5466 F15000.0
G1 Z11.9000 F8000.0
G1 X165.8611 Y-33.9446 F12000.0
G1 Z0.0000 F8000.0
G0 X165.7727 Y-34.1215 F15000.0
G1 Z11.9000 F8000.0
G1 X165.5515 Y-34.1657 F12000.0
G1 Z0.0000 F8000.0
G0 X163.5794 Y-50.3721 F15000.0
G1 Z11.9000 F8000.0
G1 X164.5966 Y-52.9372 F12000.0
G1 Z0.0000 F8000.0
G0 X164.9062 Y-53.7333 F15000.0
G1 Z11.9000 F8000.0
G1 X164.8620 Y-53.2468 F12000.0
G1 X165.1273 Y-52.2738
G1 X165.0831 Y-52.0084
G1 Z0.0000 F8000.0
G0 X165.1716 Y-52.2296 F15000.0
G1 Z11.9000 F8000.0
G1 X165.3485 Y-52.2738 F12000.0
G1 X165.9234 Y-52.8045
G1 X166.4541 Y-53.1583
G1 X165.6138 Y-50.6374
G1 Z0.0000 F8000.0
G0 X166.3766 Y-50.5386 F15000.0
G1 Z11.9000 F8000.0
G1 X166.2882 Y-50.8039 F12000.0
G1 X166.9073 Y-52.4403
G1 X168.1015 Y-52.6615
G1 X167.5265 Y-50.7155
G1 X167.0842 Y-50.5386
G1 X166.4651 Y-50.4943
G1 Z0.0000 F8000.0
G0 X173.2010 Y-50.3617 F15000.0
G1 Z11.9000 F8000.0
G1 X173.8201 Y-52.0865 F12000.0
G1 Z0.0000 F8000.0
G0 X173.9528 Y-52.3961 F15000.0
G1 Z11.9000 F8000.0
G1 X173.9971 Y-52.6173 F12000.0
G1 Z0.0000 F8000.0

G0 Z0.0000 F800.0
G4 P0.06
G0 X0.0000 Y0.0000 F15000.0
M5
G4 P0.10
$1=0
