$X
$1=255
G21
G90
G92 Z4.0000
G0 Z0.0000 F800.0
G4 P0.06
G92 Z0.0000
G0 Z0.0000 F800.0
G0 X0.0000 Y0.0000 F15000.0
G21
G90
G17
G91.1
G0 Z0.0000
G0 X166.2997 Y-104.9494 F15000.0
G1 Z11.9000 F8000.0
G1 X164.4185 Y-107.0813 F12000.0
G1 X164.2514 Y-106.0781
G1 X163.7497 Y-105.8273
G1 X162.7883 Y-106.1617
G1 Z0.0000 F8000.0
G0 X166.2578 Y-102.7757 F15000.0
G1 Z11.9000 F8000.0
G1 X166.1324 Y-103.0684 F12000.0
G1 Z0.0000 F8000.0
G0 X165.9652 Y-103.4028 F15000.0
G1 Z11.9000 F8000.0
G1 X165.8398 Y-103.5699 F12000.0
G1 Z0.0000 F8000.0
G0 X165.9652 Y-107.9173 F15000.0
G1 Z11.9000 F8000.0
G1 X165.6308 Y-108.1264 F12000.0
G1 Z0.0000 F8000.0
G0 X165.1710 Y-104.2388 F15000.0
G1 Z11.9000 F8000.0
G1 X164.4185 Y-104.6568 F12000.0
G1 X164.1259 Y-103.1101
G1 Z0.0000 F8000.0
G0 X165.1710 Y-108.4189 F15000.0
G1 Z11.9000 F8000.0
G1 X164.7112 Y-108.7534 F12000.0
G1 Z0.0000 F8000.0
G0 X165.0456 Y-108.6698 F15000.0
G1 Z11.9000 F8000.0
G1 X164.7948 Y-109.6312 F12000.0
G1 Z0.0000 F8000.0
G0 X164.9202 Y-108.4189 F15000.0
G1 Z11.9000 F8000.0
G1 X164.7112 Y-108.1681 F12000.0
G1 Z0.0000 F8000.0
G0 X164.6276 Y-109.8402 F15000.0
G1 Z11.9000 F8000.0
G1 X164.3767 Y-110.0910 F12000.0
G1 X163.9587 Y-110.2582
G1 X163.2899 Y-110.2582
G1 Z0.0000 F8000.0
G0 X164.5857 Y-108.0845 F15000.0
G1 Z11.9000 F8000.0
G1 X163.6661 Y-108.3353 F12000.0
G1 Z0.0000 F8000.0
G0 X164.2095 Y-104.8241 F15000.0
G1 Z11.9000 F8000.0
G1 X162.4121 Y-105.3256 F12000.0
G1 X162.2031 Y-105.2002
G1 Z0.0000 F8000.0
G0 X163.9587 Y-103.0265 F15000.0
G1 Z11.9000 F8000.0
G1 X163.5825 Y-103.0684 F12000.0
G1 X162.7047 Y-103.4028
G1 X162.2449 Y-103.8207
G1 Z0.0000 F8000.0
G0 X163.4571 Y-108.5026 F15000.0
G1 Z11.9000 F8000.0
G1 X162.9555 Y-109.7984 F12000.0
G1 X163.2481 Y-109.7148
G1 Z0.0000 F8000.0
G0 X162.9972 Y-110.0074 F15000.0
G1 Z11.9000 F8000.0
G1 X162.7465 Y-110.0910 F12000.0
G1 Z0.0000 F8000.0
G0 X162.5374 Y-106.2871 F15000.0
G1 Z11.9000 F8000.0
G1 X162.4538 Y-106.3707 F12000.0
G1 Z0.0000 F8000.0
G0 X162.4121 Y-110.3000 F15000.0
G1 Z11.9000 F8000.0
G1 X162.0359 Y-110.5508 F12000.0
G1 Z0.0000 F8000.0
G0 X162.2866 Y-106.5796 F15000.0
G1 Z11.9000 F8000.0
G1 X161.9104 Y-108.1681 F12000.0
G1 Z0.0000 F8000.0
G0 X162.1613 Y-103.9880 F15000.0
G1 Z11.9000 F8000.0
G1 X162.1195 Y-105.0748 F12000.0
G1 Z0.0000 F8000.0
G0 X176.0006 Y-59.6838 F15000.0
G1 Z11.9000 F8000.0
G1 X174.8720 Y-59.5583 F12000.0
G1 X174.3703 Y-59.3075
G1 Z0.0000 F8000.0
G0 X173.8687 Y-57.4265 F15000.0
G1 Z11.9000 F8000.0
G1 X174.9556 Y-57.2175 F12000.0
G1 X174.4121 Y-55.5873
G1 X172.8237 Y-55.3364
G1 Z0.0000 F8000.0
G0 X174.0777 Y-58.9732 F15000.0
G1 Z11.9000 F8000.0
G1 X173.9105 Y-58.5969 F12000.0
G1 Z0.0000 F8000.0
G0 X173.9523 Y-60.3108 F15000.0
G1 Z11.9000 F8000.0
G1 X173.8269 Y-60.2272 F12000.0
G1 X173.5761 Y-59.8092
G1 Z0.0000 F8000.0
G0 X173.7851 Y-58.2626 F15000.0
G1 Z11.9000 F8000.0
G1 X173.7433 Y-57.5519 F12000.0
G1 Z0.0000 F8000.0
G0 X172.6146 Y-59.6838 F15000.0
G1 Z11.9000 F8000.0
G1 X171.0680 Y-59.3911 F12000.0
G1 X170.9008 Y-59.2658
G1 Z0.0000 F8000.0
G0 X170.6500 Y-58.9732 F15000.0
G1 Z11.9000 F8000.0
G1 X170.4410 Y-58.5134 F12000.0
G1 X170.2738 Y-57.6773
G1 X170.5246 Y-57.3847
G1 X171.5278 Y-57.2175
G1 X171.4860 Y-56.8831
G1 Z0.0000 F8000.0
G0 X171.3188 Y-56.4650 F15000.0
G1 Z11.9000 F8000.0
G1 X170.9426 Y-55.4618 F12000.0
G1 Z0.0000 F8000.0
G0 X170.8589 Y-55.3782 F15000.0
G1 Z11.9000 F8000.0
G1 X169.3959 Y-55.3364 F12000.0
G1 Z0.0000 F8000.0
G0 X84.2472 Y-167.6176 F15000.0
G1 Z11.9000 F8000.0
G1 X84.1636 Y-167.4922 F12000.0
G1 Z0.0000 F8000.0
G0 X83.8710 Y-163.8137 F15000.0
G1 Z11.9000 F8000.0
G1 X81.9063 Y-163.3956 F12000.0
G1 X82.6588 Y-164.9423
G1 Z0.0000 F8000.0
G0 X82.1153 Y-167.4086 F15000.0
G1 Z11.9000 F8000.0
G1 X82.2407 Y-167.1160 F12000.0
G1 X81.6555 Y-165.4021
G1 X81.4047 Y-164.9005
G1 Z0.0000 F8000.0
G0 X81.9481 Y-167.5758 F15000.0
G1 Z11.9000 F8000.0
G1 X80.9031 Y-167.5758 F12000.0
G1 Z0.0000 F8000.0
G0 X81.4883 Y-165.3185 F15000.0
G1 Z11.9000 F8000.0
G1 X80.1924 Y-165.4021 F12000.0
G1 X79.9835 Y-165.5694
G1 Z0.0000 F8000.0
G0 X80.9867 Y-164.3571 F15000.0
G1 Z11.9000 F8000.0
G1 X80.4433 Y-163.8554 F12000.0
G1 X79.6490 Y-163.4375
G1 Z0.0000 F8000.0
G0 X80.7358 Y-167.4922 F15000.0
G1 Z11.9000 F8000.0
G1 X80.3597 Y-167.1578 F12000.0
G1 X79.8999 Y-165.7366
G1 Z0.0000 F8000.0
G0 X22.0916 Y-111.8944 F15000.0
G1 Z11.9000 F8000.0
G1 X22.3841 Y-111.4763 F12000.0
G1 X22.5096 Y-110.4731
G1 X22.6350 Y-110.3059
G1 X23.5964 Y-109.8043
G1 X24.2653 Y-110.0969
G1 X24.1817 Y-110.8075
G1 Z0.0000 F8000.0
G0 X23.9726 Y-111.1001 F15000.0
G1 Z11.9000 F8000.0
G1 X23.8890 Y-111.1837 F12000.0
G1 Z0.0000 F8000.0
G0 X23.3875 Y-111.5182 F15000.0
G1 Z11.9000 F8000.0
G1 X22.5096 Y-111.5599 F12000.0
G1 Z0.0000 F8000.0
G0 X22.4678 Y-110.5149 F15000.0
G1 Z11.9000 F8000.0
G1 X22.3841 Y-110.5985 F12000.0
G1 X22.1752 Y-110.4731
G1 X21.1301 Y-110.5149
G1 X20.5867 Y-110.7657
G1 X20.3359 Y-111.0165
G1 Z0.0000 F8000.0
G0 X21.8407 Y-112.1452 F15000.0
G1 Z11.9000 F8000.0
G1 X21.7571 Y-112.2288 F12000.0
G1 X20.4195 Y-112.6468
G1 X20.2941 Y-112.5632
G1 Z0.0000 F8000.0
G0 X20.2105 Y-112.4796 F15000.0
G1 Z11.9000 F8000.0
G1 X20.0433 Y-111.7271 F12000.0
G1 X20.1269 Y-111.3510
G1 Z0.0000 F8000.0
G0 X22.0916 Y-105.3247 F15000.0
G1 Z11.9000 F8000.0
G1 X22.3841 Y-104.9067 F12000.0
G1 X22.5096 Y-103.9035
G1 X22.6350 Y-103.7363
G1 X23.5964 Y-103.2346
G1 X24.2653 Y-103.5273
G1 X24.1817 Y-104.2379
G1 Z0.0000 F8000.0
G0 X24.0145 Y-108.6689 F15000.0
G1 Z11.9000 F8000.0
G1 X24.3071 Y-106.7460 F12000.0
G1 X23.8473 Y-106.8296
G1 X22.0498 Y-107.9164
G1 Z0.0000 F8000.0
G0 X23.9726 Y-104.5305 F15000.0
G1 Z11.9000 F8000.0
G1 X23.8890 Y-104.6141 F12000.0
G1 Z0.0000 F8000.0
G0 X23.3875 Y-104.9485 F15000.0
G1 Z11.9000 F8000.0
G1 X22.5096 Y-104.9903 F12000.0
G1 Z0.0000 F8000.0
G0 X22.4678 Y-103.9452 F15000.0
G1 Z11.9000 F8000.0
G1 X22.3841 Y-104.0288 F12000.0
G1 X22.1752 Y-103.9035
G1 X21.1301 Y-103.9452
G1 X20.5867 Y-104.1961
G1 X20.3359 Y-104.4469
G1 Z0.0000 F8000.0
G0 X21.8407 Y-105.5756 F15000.0
G1 Z11.9000 F8000.0
G1 X21.7571 Y-105.6592 F12000.0
G1 X20.4195 Y-106.0771
G1 X20.2941 Y-105.9936
G1 Z0.0000 F8000.0
G0 X20.2105 Y-105.9100 F15000.0
G1 Z11.9000 F8000.0
G1 X20.0433 Y-105.1575 F12000.0
G1 X20.1269 Y-104.7813
G1 Z0.0000 F8000.0
G0 X20.2105 Y-109.0032 F15000.0
G1 Z11.9000 F8000.0
G1 X19.9597 Y-109.2541 F12000.0
G1 Z0.0000 F8000.0
G0 X19.9597 Y-107.3312 F15000.0
G1 Z11.9000 F8000.0
G1 X19.2491 Y-107.8328 F12000.0
G1 Z0.0000 F8000.0
G0 X9.8263 Y-250.5058 F15000.0
G1 Z11.9000 F8000.0
G1 X8.4469 Y-246.6601 F12000.0
G1 X8.1960 Y-246.3256
G1 Z0.0000 F8000.0
G0 X9.6590 Y-247.3289 F15000.0
G1 Z11.9000 F8000.0
G1 X9.4918 Y-247.1617 F12000.0
G1 Z0.0000 F8000.0
G0 X8.7812 Y-246.7018 F15000.0
G1 Z11.9000 F8000.0
G1 X8.4886 Y-246.6182 F12000.0
G1 Z0.0000 F8000.0
G0 X8.6558 Y-249.5026 F15000.0
G1 Z11.9000 F8000.0
G1 X8.5305 Y-249.3772 F12000.0
G1 Z0.0000 F8000.0
G0 X8.0706 Y-247.8305 F15000.0
G1 Z11.9000 F8000.0
G1 X7.8616 Y-247.7051 F12000.0
G1 Z0.0000 F8000.0
G0 X27.8665 Y-250.5058 F15000.0
G1 Z11.9000 F8000.0
G1 X26.4870 Y-246.6601 F12000.0
G1 X26.2362 Y-246.3256
G1 Z0.0000 F8000.0
G0 X27.6993 Y-247.3289 F15000.0
G1 Z11.9000 F8000.0
G1 X27.5321 Y-247.1617 F12000.0
G1 Z0.0000 F8000.0
G0 X27.5321 Y-251.3419 F15000.0
G1 Z11.9000 F8000.0
G1 X26.9468 Y-250.4640 F12000.0
G1 Z0.0000 F8000.0
G0 X26.8214 Y-246.7018 F15000.0
G1 Z11.9000 F8000.0
G1 X26.5289 Y-246.6182 F12000.0
G1 Z0.0000 F8000.0
G0 X25.0035 Y-250.5095 F15000.0
G1 Z11.9000 F8000.0
G1 X24.9199 Y-250.3841 F12000.0
G1 Z0.0000 F8000.0
G0 X24.6272 Y-246.7055 F15000.0
G1 Z11.9000 F8000.0
G1 X22.6625 Y-246.2875 F12000.0
G1 X23.4150 Y-247.8342
G1 Z0.0000 F8000.0
G0 X22.8716 Y-250.3005 F15000.0
G1 Z11.9000 F8000.0
G1 X22.9970 Y-250.0078 F12000.0
G1 X22.4117 Y-248.2940
G1 X22.1609 Y-247.7923
G1 Z0.0000 F8000.0
G0 X22.7044 Y-250.4677 F15000.0
G1 Z11.9000 F8000.0
G1 X21.6593 Y-250.4677 F12000.0
G1 Z0.0000 F8000.0
G0 X22.2445 Y-248.2104 F15000.0
G1 Z11.9000 F8000.0
G1 X20.9487 Y-248.2940 F12000.0
G1 X20.7396 Y-248.4612
G1 Z0.0000 F8000.0
G0 X21.7429 Y-247.2489 F15000.0
G1 Z11.9000 F8000.0
G1 X21.1995 Y-246.7474 F12000.0
G1 X20.4053 Y-246.3293
G1 Z0.0000 F8000.0
G0 X21.4921 Y-250.3841 F15000.0
G1 Z11.9000 F8000.0
G1 X21.1159 Y-250.0497 F12000.0
G1 X20.6561 Y-248.6284
G1 Z0.0000 F8000.0
G0 X137.5506 Y-207.7362 F15000.0
G1 Z11.9000 F8000.0
G1 X136.5055 Y-208.1960 F12000.0
G1 X136.1712 Y-208.0288
G1 Z0.0000 F8000.0
G0 X137.3416 Y-207.1928 F15000.0
G1 Z11.9000 F8000.0
G1 X136.7564 Y-205.6461 F12000.0
G1 Z0.0000 F8000.0
G0 X136.6310 Y-205.5207 F15000.0
G1 Z11.9000 F8000.0
G1 X135.1261 Y-205.2281 F12000.0
G1 X135.1679 Y-205.6879
G1 X136.0457 Y-207.9452
G1 Z0.0000 F8000.0
G0 X136.0876 Y-203.9322 F15000.0
G1 Z11.9000 F8000.0
G1 X134.7917 Y-204.0576 F12000.0
G1 X134.9172 Y-204.8937
G1 Z0.0000 F8000.0
G0 X135.2933 Y-208.1960 F15000.0
G1 Z11.9000 F8000.0
G1 X134.4573 Y-206.8166 F12000.0
G1 Z0.0000 F8000.0
G0 X133.7049 Y-208.1960 F15000.0
G1 Z11.9000 F8000.0
G1 X133.1615 Y-206.8166 F12000.0
G1 Z0.0000 F8000.0
G0 X133.5377 Y-205.3117 F15000.0
G1 Z11.9000 F8000.0
G1 X132.7017 Y-205.2699 F12000.0
G1 X133.0360 Y-206.4822
G1 Z0.0000 F8000.0
G0 X132.3672 Y-207.6526 F15000.0
G1 Z11.9000 F8000.0
G1 X132.2418 Y-207.5272 F12000.0
G1 Z0.0000 F8000.0
G0 X132.1582 Y-206.5658 F15000.0
G1 Z11.9000 F8000.0
G1 X131.9074 Y-205.6461 F12000.0
G1 Z0.0000 F8000.0
G0 X132.0328 Y-206.6911 F15000.0
G1 Z11.9000 F8000.0
G1 X131.7402 Y-206.7748 F12000.0
G1 X130.8205 Y-206.7330
G1 X130.8205 Y-207.0673
G1 X131.2804 Y-208.1960
G1 Z0.0000 F8000.0
G0 X131.9910 Y-207.2346 F15000.0
G1 Z11.9000 F8000.0
G1 X131.7402 Y-206.8166 F12000.0
G1 Z0.0000 F8000.0
G0 X131.7820 Y-205.5207 F15000.0
G1 Z11.9000 F8000.0
G1 X130.2353 Y-205.2699 F12000.0
G1 X130.3190 Y-205.7715
G1 Z0.0000 F8000.0
G0 X130.6951 Y-206.6911 F15000.0
G1 Z11.9000 F8000.0
G1 X130.4443 Y-206.1059 F12000.0
G1 Z0.0000 F8000.0
G0 X180.0000 Y-78.6978 F15000.0
G1 Z11.9000 F8000.0
G1 X144.2791 Y-78.6978 F12000.0
G1 Z0.0000 F8000.0
G0 X180.0000 Y-133.9023 F15000.0
G1 Z11.9000 F8000.0
G1 X144.2791 Y-133.9023 F12000.0
G1 Z0.0000 F8000.0
G0 X180.0000 Y-80.5665 F15000.0
G1 Z11.9000 F8000.0
G1 X157.7494 Y-80.5665 F12000.0
G1 Z0.0000 F8000.0
G0 X180.0000 Y-132.0336 F15000.0
G1 Z11.9000 F8000.0
G1 X157.7494 Y-132.0336 F12000.0
G1 Z0.0000 F8000.0
G0 X178.3051 Y-61.8795 F15000.0
G1 Z11.9000 F8000.0
G1 X166.8594 Y-61.8795 F12000.0
G1 Z0.0000 F8000.0
G0 X152.7802 Y-109.5902 F15000.0
G1 Z11.9000 F8000.0
G1 X152.6548 Y-109.6738 F12000.0
G1 Z0.0000 F8000.0
G0 X152.6130 Y-112.1819 F15000.0
G1 Z11.9000 F8000.0
G1 X152.3204 Y-112.1819 F12000.0
G1 X152.1113 Y-112.4327
G1 Z0.0000 F8000.0
G0 X152.2368 Y-112.1400 F15000.0
G1 Z11.9000 F8000.0
G1 X152.1113 Y-112.0983 F12000.0
G1 Z0.0000 F8000.0
G0 X151.8188 Y-109.9664 F15000.0
G1 Z11.9000 F8000.0
G1 X152.1950 Y-109.9664 F12000.0
G1 X152.1113 Y-110.2172
G1 Z0.0000 F8000.0
G0 X151.8188 Y-110.5098 F15000.0
G1 Z11.9000 F8000.0
G1 X151.3590 Y-110.9696 F12000.0
G1 Z0.0000 F8000.0
G0 X151.6934 Y-111.9728 F15000.0
G1 Z11.9000 F8000.0
G1 X150.8573 Y-111.7638 F12000.0
G1 X150.6065 Y-111.8057
G1 Z0.0000 F8000.0
G0 X151.3590 Y-110.1336 F15000.0
G1 Z11.9000 F8000.0
G1 X151.2335 Y-110.1753 F12000.0
G1 Z0.0000 F8000.0
G0 X150.8992 Y-110.3008 F15000.0
G1 Z11.9000 F8000.0
G1 X148.6001 Y-111.1368 F12000.0
G1 Z0.0000 F8000.0
G0 X150.8992 Y-111.4712 F15000.0
G1 Z11.9000 F8000.0
G1 X150.8156 Y-111.7221 F12000.0
G1 Z0.0000 F8000.0
G0 X152.6683 Y-107.5813 F15000.0
G1 Z11.9000 F8000.0
G1 X152.5429 Y-107.8739 F12000.0
G1 Z0.0000 F8000.0
G0 X152.3757 Y-108.2083 F15000.0
G1 Z11.9000 F8000.0
G1 X152.2503 Y-108.3755 F12000.0
G1 Z0.0000 F8000.0
G0 X151.5814 Y-109.0444 F15000.0
G1 Z11.9000 F8000.0
G1 X150.8291 Y-109.4623 F12000.0
G1 X150.5364 Y-107.9157
G1 Z0.0000 F8000.0
G0 X150.6200 Y-109.6296 F15000.0
G1 Z11.9000 F8000.0
G1 X148.8225 Y-110.1312 F12000.0
G1 X148.6136 Y-110.0058
G1 Z0.0000 F8000.0
G0 X150.3693 Y-107.8321 F15000.0
G1 Z11.9000 F8000.0
G1 X149.9930 Y-107.8739 F12000.0
G1 X149.1151 Y-108.2083
G1 X148.6553 Y-108.6264
G1 Z0.0000 F8000.0
G0 X148.5717 Y-108.7936 F15000.0
G1 Z11.9000 F8000.0
G1 X148.5300 Y-109.8804 F12000.0
G1 Z0.0000 F8000.0
G0 X152.3470 Y-106.0315 F15000.0
G1 Z11.9000 F8000.0
G1 X152.6397 Y-105.6553 F12000.0
G1 X152.5142 Y-104.4013
G1 X152.0126 Y-104.3177
G1 Z0.0000 F8000.0
G0 X152.0962 Y-106.2406 F15000.0
G1 Z11.9000 F8000.0
G1 X149.9643 Y-107.0766 F12000.0
G1 Z0.0000 F8000.0
G0 X151.0929 Y-104.6521 F15000.0
G1 Z11.9000 F8000.0
G1 X150.9676 Y-104.6939 F12000.0
G1 Z0.0000 F8000.0
G0 X150.3823 Y-104.9030 F15000.0
G1 Z11.9000 F8000.0
G1 X150.2570 Y-104.9447 F12000.0
G1 Z0.0000 F8000.0
G0 X149.7972 Y-105.1119 F15000.0
G1 Z11.9000 F8000.0
G1 X149.0447 Y-105.4464 F12000.0
G1 X148.6266 Y-105.9062
G1 X148.5430 Y-106.1570
G1 X148.5430 Y-107.0766
G1 Z0.0000 F8000.0
G0 X149.5463 Y-107.2438 F15000.0
G1 Z11.9000 F8000.0
G1 X148.8775 Y-107.3692 F12000.0
G1 X148.6266 Y-107.2020
G1 Z0.0000 F8000.0
G0 X151.4302 Y-102.0804 F15000.0
G1 Z11.9000 F8000.0
G1 X150.9285 Y-102.5402 F12000.0
G1 Z0.0000 F8000.0
G0 X151.3047 Y-103.7107 F15000.0
G1 Z11.9000 F8000.0
G1 X149.7581 Y-103.4181 F12000.0
G1 X149.5909 Y-103.7525
G1 X149.3818 Y-103.9615
G1 Z0.0000 F8000.0
G0 X150.5524 Y-102.8747 F15000.0
G1 Z11.9000 F8000.0
G1 X150.4687 Y-102.9583 F12000.0
G1 Z0.0000 F8000.0
G0 X150.2179 Y-103.2091 F15000.0
G1 Z11.9000 F8000.0
G1 X150.1343 Y-103.3763 F12000.0
G1 Z0.0000 F8000.0
G0 X149.6745 Y-103.4181 F15000.0
G1 Z11.9000 F8000.0
G1 X148.5458 Y-103.2091 F12000.0
G1 Z0.0000 F8000.0
G0 X148.7967 Y-104.5049 F15000.0
G1 Z11.9000 F8000.0
G1 X148.6712 Y-104.5885 F12000.0
G1 Z0.0000 F8000.0
G0 X152.6397 Y-99.8725 F15000.0
G1 Z11.9000 F8000.0
G1 X152.5978 Y-100.9593 F12000.0
G1 Z0.0000 F8000.0
G0 X152.5142 Y-99.7053 F15000.0
G1 Z11.9000 F8000.0
G1 X152.3888 Y-99.6217 F12000.0
G1 X151.7200 Y-99.7470
G1 Z0.0000 F8000.0
G0 X151.2184 Y-99.9560 F15000.0
G1 Z11.9000 F8000.0
G1 X150.8004 Y-100.4159 F12000.0
G1 X150.6331 Y-101.0011
G1 Z0.0000 F8000.0
G0 X150.5913 Y-100.3323 F15000.0
G1 Z11.9000 F8000.0
G1 X150.0479 Y-100.1651 F12000.0
G1 X148.9193 Y-100.6666
G1 Z0.0000 F8000.0
G0 X148.7521 Y-100.8757 F15000.0
G1 Z11.9000 F8000.0
G1 X148.3340 Y-102.5059 F12000.0
G1 Z0.0000 F8000.0
G0 X146.1478 Y-78.6978 F15000.0
G1 Z11.9000 F8000.0
G1 X145.5250 Y-83.2917 F12000.0
G1 X146.1478 Y-82.8245 F12000.0
G1 X146.7708 Y-83.2917 F12000.0
G1 X146.1478 Y-78.6978 F12000.0
G1 Z0.0000 F8000.0
G0 X145.8365 Y-80.5420 F15000.0
G1 Z11.9000 F8000.0
G1 X145.8365 Y-81.3696 F12000.0
G1 Z0.0000 F8000.0
G0 X146.4204 Y-80.8145 F15000.0
G1 Z11.9000 F8000.0
G1 X146.4204 Y-81.6421 F12000.0
G1 Z0.0000 F8000.0
G0 X146.1478 Y-133.9023 F15000.0
G1 Z11.9000 F8000.0
G1 X146.7708 Y-129.3084 F12000.0
G1 X146.1478 Y-129.7755 F12000.0
G1 X145.5250 Y-129.3084 F12000.0
G1 X146.1478 Y-133.9023 F12000.0
G1 Z0.0000 F8000.0
G0 X146.4204 Y-130.8800 F15000.0
G1 Z11.9000 F8000.0
G1 X146.4204 Y-131.7077 F12000.0
G1 Z0.0000 F8000.0
G0 X145.8365 Y-131.1526 F15000.0
G1 Z11.9000 F8000.0
G1 X145.8365 Y-131.9803 F12000.0
G1 Z0.0000 F8000.0
G0 X146.1478 Y-78.6978 F15000.0
G1 Z11.9000 F8000.0
G1 X146.1478 Y-133.9023 F12000.0
G1 Z0.0000 F8000.0
G0 X159.5402 Y-80.5665 F15000.0
G1 Z11.9000 F8000.0
G1 X158.9952 Y-85.1604 F12000.0
G1 X159.5402 Y-84.6932 F12000.0
G1 X160.1631 Y-85.1604 F12000.0
G1 X159.5402 Y-80.5665 F12000.0
G1 Z0.0000 F8000.0
G0 X159.2678 Y-82.4107 F15000.0
G1 Z11.9000 F8000.0
G1 X159.2678 Y-83.2383 F12000.0
G1 Z0.0000 F8000.0
G0 X159.8127 Y-82.6832 F15000.0
G1 Z11.9000 F8000.0
G1 X159.8127 Y-83.5108 F12000.0
G1 Z0.0000 F8000.0
G0 X159.5402 Y-132.0336 F15000.0
G1 Z11.9000 F8000.0
G1 X160.1631 Y-127.4397 F12000.0
G1 X159.5402 Y-127.9068 F12000.0
G1 X158.9952 Y-127.4397 F12000.0
G1 X159.5402 Y-132.0336 F12000.0
G1 Z0.0000 F8000.0
G0 X159.8127 Y-129.0113 F15000.0
G1 Z11.9000 F8000.0
G1 X159.8127 Y-129.8390 F12000.0
G1 Z0.0000 F8000.0
G0 X159.2678 Y-129.2839 F15000.0
G1 Z11.9000 F8000.0
G1 X159.2678 Y-130.1116 F12000.0
G1 Z0.0000 F8000.0
G0 X159.5402 Y-80.5665 F15000.0
G1 Z11.9000 F8000.0
G1 X159.5402 Y-132.0336 F12000.0
G1 Z0.0000 F8000.0
G0 X180.0000 Y-62.2726 F15000.0
G1 Z11.9000 F8000.0
G1 X178.3051 Y-62.5024 F12000.0
G1 X178.7722 Y-61.8795 F12000.0
G1 X178.3051 Y-61.3344 F12000.0
G1 X180.0000 Y-61.5355 F12000.0
G1 Z0.0000 F8000.0
G0 X180.0000 Y-61.8795 F15000.0
G1 Z11.9000 F8000.0
G1 X176.4364 Y-61.8795 F12000.0
G1 Z0.0000 F8000.0
G0 X180.0000 Y-61.6069 F15000.0
G1 Z11.9000 F8000.0
G1 X179.8378 Y-61.6069 F12000.0
G1 Z0.0000 F8000.0
G0 X82.0670 Y-139.1191 F15000.0
G1 Z11.9000 F8000.0
G1 X82.0670 Y-129.3084 F12000.0
G1 Z0.0000 F8000.0
G0 X82.0670 Y-127.9068 F15000.0
G1 Z11.9000 F8000.0
G1 X82.0670 Y-126.5053 F12000.0
G1 Z0.0000 F8000.0
G0 X82.0670 Y-125.1817 F15000.0
G1 Z11.9000 F8000.0
G1 X82.0670 Y-115.3710 F12000.0
G1 Z0.0000 F8000.0
G0 X82.0670 Y-113.9695 F15000.0
G1 Z11.9000 F8000.0
G1 X82.0670 Y-112.5679 F12000.0
G1 Z0.0000 F8000.0
G0 X82.0670 Y-111.1664 F15000.0
G1 Z11.9000 F8000.0
G1 X82.0670 Y-106.2611 F12000.0
G1 Z0.0000 F8000.0
G0 X82.0670 Y-73.4810 F15000.0
G1 Z11.9000 F8000.0
G1 X82.0670 Y-83.2917 F12000.0
G1 Z0.0000 F8000.0
G0 X82.0670 Y-84.6932 F15000.0
G1 Z11.9000 F8000.0
G1 X82.0670 Y-86.0168 F12000.0
G1 Z0.0000 F8000.0
G0 X82.0670 Y-87.4184 F15000.0
G1 Z11.9000 F8000.0
G1 X82.0670 Y-97.2290 F12000.0
G1 Z0.0000 F8000.0
G0 X82.0670 Y-98.6306 F15000.0
G1 Z11.9000 F8000.0
G1 X82.0670 Y-100.0321 F12000.0
G1 Z0.0000 F8000.0
G0 X82.0670 Y-101.3557 F15000.0
G1 Z11.9000 F8000.0
G1 X82.0670 Y-106.2611 F12000.0
G1 Z0.0000 F8000.0
G0 X49.2090 Y-106.2611 F15000.0
G1 Z11.9000 F8000.0
G1 X59.0197 Y-106.2611 F12000.0
G1 Z0.0000 F8000.0
G0 X60.4212 Y-106.2611 F15000.0
G1 Z11.9000 F8000.0
G1 X61.8228 Y-106.2611 F12000.0
G1 Z0.0000 F8000.0
G0 X63.2243 Y-106.2611 F15000.0
G1 Z11.9000 F8000.0
G1 X73.0350 Y-106.2611 F12000.0
G1 Z0.0000 F8000.0
G0 X74.3587 Y-106.2611 F15000.0
G1 Z11.9000 F8000.0
G1 X75.7602 Y-106.2611 F12000.0
G1 Z0.0000 F8000.0
G0 X77.1617 Y-106.2611 F15000.0
G1 Z11.9000 F8000.0
G1 X82.0670 Y-106.2611 F12000.0
G1 Z0.0000 F8000.0
G0 X114.8472 Y-106.2611 F15000.0
G1 Z11.9000 F8000.0
G1 X105.0365 Y-106.2611 F12000.0
G1 Z0.0000 F8000.0
G0 X103.7129 Y-106.2611 F15000.0
G1 Z11.9000 F8000.0
G1 X102.3113 Y-106.2611 F12000.0
G1 Z0.0000 F8000.0
G0 X100.9098 Y-106.2611 F15000.0
G1 Z11.9000 F8000.0
G1 X91.0991 Y-106.2611 F12000.0
G1 Z0.0000 F8000.0
G0 X89.6976 Y-106.2611 F15000.0
G1 Z11.9000 F8000.0
G1 X88.3739 Y-106.2611 F12000.0
G1 Z0.0000 F8000.0
G0 X86.9723 Y-106.2611 F15000.0
G1 Z11.9000 F8000.0
G1 X82.0670 Y-106.2611 F12000.0
G1 Z0.0000 F8000.0
G0 X117.0273 Y-126.5053 F15000.0
G1 Z11.9000 F8000.0
G1 X117.0273 Y-86.0947 F12000.0
G1 Z0.0000 F8000.0
G0 X82.0670 Y-65.9283 F15000.0
G1 Z11.9000 F8000.0
G1 X47.1067 Y-86.0947 F12000.0
G1 X47.1067 Y-126.5053 F12000.0
G1 Z0.0000 F8000.0
G0 X82.0670 Y-146.6718 F15000.0
G1 Z11.9000 F8000.0
G1 X117.0273 Y-126.5053 F12000.0
G1 Z0.0000 F8000.0
G0 X47.1067 Y-126.5053 F15000.0
G1 Z11.9000 F8000.0
G1 X82.0670 Y-146.6718 F12000.0
G1 Z0.0000 F8000.0
G0 X117.0273 Y-86.0947 F15000.0
G1 Z11.9000 F8000.0
G1 X82.0670 Y-65.9283 F12000.0
G1 Z0.0000 F8000.0
G0 X64.5480 Y-106.2611 F15000.0
G1 Z11.9000 F8000.0
G1 X64.7037 Y-103.9252 F12000.0
G1 X65.1709 Y-101.6672 F12000.0
G1 X65.9495 Y-99.4870 F12000.0
G1 X67.0396 Y-97.3847 F12000.0
G1 X68.3632 Y-95.4382 F12000.0
G1 X69.9205 Y-93.7252 F12000.0
G1 X71.7113 Y-92.2458 F12000.0
G1 X73.6579 Y-91.0001 F12000.0
G1 X75.7602 Y-89.9878 F12000.0
G1 X78.0182 Y-89.2871 F12000.0
G1 X80.2762 Y-88.8978 F12000.0
G1 X82.6121 Y-88.8199 F12000.0
G1 X84.9480 Y-89.0535 F12000.0
G1 X87.2059 Y-89.5985 F12000.0
G1 X89.3861 Y-90.4550 F12000.0
G1 X91.4105 Y-91.5450 F12000.0
G1 X93.2792 Y-92.9466 F12000.0
G1 X94.9922 Y-94.5039 F12000.0
G1 X96.4716 Y-96.3726 F12000.0
G1 X97.6396 Y-98.3970 F12000.0
G1 X98.5739 Y-100.4993 F12000.0
G1 X99.1968 Y-102.7573 F12000.0
G1 X99.5083 Y-105.0931 F12000.0
G1 X99.5083 Y-107.4290 F12000.0
G1 X99.1968 Y-109.6871 F12000.0
G1 X98.5739 Y-111.9451 F12000.0
G1 X97.7174 Y-114.1253 F12000.0
G1 X96.4716 Y-116.1497 F12000.0
G1 X95.0701 Y-117.9405 F12000.0
G1 X93.4350 Y-119.5756 F12000.0
G1 X91.4884 Y-120.9771 F12000.0
G1 X89.4640 Y-122.0671 F12000.0
G1 X87.2838 Y-122.9237 F12000.0
G1 X85.0258 Y-123.4687 F12000.0
G1 X82.7678 Y-123.7802 F12000.0
G1 X80.4319 Y-123.7023 F12000.0
G1 X78.0960 Y-123.3130 F12000.0
G1 X75.8380 Y-122.6122 F12000.0
G1 X73.7357 Y-121.6779 F12000.0
G1 X71.7892 Y-120.4320 F12000.0
G1 X69.9983 Y-118.9527 F12000.0
G1 X68.4411 Y-117.2397 F12000.0
G1 X67.1175 Y-115.2932 F12000.0
G1 X66.0273 Y-113.1909 F12000.0
G1 X65.2488 Y-111.0107 F12000.0
G1 X64.7816 Y-108.7527 F12000.0
G1 X64.5480 Y-106.4169 F12000.0
G1 Z0.0000 F8000.0
G0 X48.9754 Y-106.2611 F15000.0
G1 Z11.9000 F8000.0
G1 X49.1312 Y-103.0687 F12000.0
G1 X49.5984 Y-99.8764 F12000.0
G1 X50.3770 Y-96.7619 F12000.0
G1 X51.3892 Y-93.8031 F12000.0
G1 X52.7907 Y-90.8443 F12000.0
G1 X54.4259 Y-88.1191 F12000.0
G1 X56.2946 Y-85.4718 F12000.0
G1 X58.3968 Y-83.1360 F12000.0
G1 X60.8106 Y-80.9558 F12000.0
G1 X63.3022 Y-79.0092 F12000.0
G1 X66.1052 Y-77.2963 F12000.0
G1 X68.9862 Y-75.8948 F12000.0
G1 X71.9449 Y-74.7268 F12000.0
G1 X75.0595 Y-73.9482 F12000.0
G1 X78.2518 Y-73.4031 F12000.0
G1 X81.4441 Y-73.1695 F12000.0
G1 X84.6365 Y-73.2474 F12000.0
G1 X87.8289 Y-73.7146 F12000.0
G1 X90.9433 Y-74.4153 F12000.0
G1 X93.9800 Y-75.4276 F12000.0
G1 X96.9388 Y-76.7512 F12000.0
G1 X99.7419 Y-78.3084 F12000.0
G1 X102.3891 Y-80.1771 F12000.0
G1 X104.8029 Y-82.2016 F12000.0
G1 X106.9831 Y-84.5375 F12000.0
G1 X109.0075 Y-87.0291 F12000.0
G1 X110.7204 Y-89.7542 F12000.0
G1 X112.1998 Y-92.6352 F12000.0
G1 X113.3678 Y-95.5939 F12000.0
G1 X114.3021 Y-98.7085 F12000.0
G1 X114.8472 Y-101.8229 F12000.0
G1 X115.1586 Y-105.0153 F12000.0
G1 X115.0808 Y-108.2856 F12000.0
G1 X114.7693 Y-111.4779 F12000.0
G1 X114.0685 Y-114.5924 F12000.0
G1 X113.1342 Y-117.6290 F12000.0
G1 X111.8883 Y-120.5878 F12000.0
G1 X110.4090 Y-123.4687 F12000.0
G1 X108.6182 Y-126.1160 F12000.0
G1 X106.5159 Y-128.6076 F12000.0
G1 X104.2578 Y-130.8657 F12000.0
G1 X101.7663 Y-132.8901 F12000.0
G1 X99.1189 Y-134.6809 F12000.0
G1 X96.3159 Y-136.1603 F12000.0
G1 X93.3571 Y-137.4061 F12000.0
G1 X90.2426 Y-138.3405 F12000.0
G1 X87.1281 Y-139.0413 F12000.0
G1 X83.9357 Y-139.3526 F12000.0
G1 X80.7434 Y-139.3526 F12000.0
G1 X77.5510 Y-139.1191 F12000.0
G1 X74.3587 Y-138.4962 F12000.0
G1 X71.2442 Y-137.5618 F12000.0
G1 X68.2854 Y-136.3939 F12000.0
G1 X65.4045 Y-134.9145 F12000.0
G1 X62.7571 Y-133.2016 F12000.0
G1 X60.2655 Y-131.1771 F12000.0
G1 X57.9297 Y-128.9191 F12000.0
G1 X55.8274 Y-126.5053 F12000.0
G1 X54.0366 Y-123.8580 F12000.0
G1 X52.4015 Y-121.0550 F12000.0
G1 X51.1556 Y-118.1741 F12000.0
G1 X50.1434 Y-115.0596 F12000.0
G1 X49.4426 Y-111.9451 F12000.0
G1 X49.0533 Y-108.7527 F12000.0
G1 X48.9754 Y-106.2611 F12000.0
G1 Z0.0000 F8000.0
G0 X117.0273 Y-126.5053 F15000.0
G1 Z11.9000 F8000.0
G1 X117.0273 Y-171.8213 F12000.0
G1 Z0.0000 F8000.0
G0 X47.1067 Y-126.5053 F15000.0
G1 Z11.9000 F8000.0
G1 X47.1067 Y-171.8213 F12000.0
G1 Z0.0000 F8000.0
G0 X82.0670 Y-146.6718 F15000.0
G1 Z11.9000 F8000.0
G1 X15.8839 Y-146.6718 F12000.0
G1 Z0.0000 F8000.0
G0 X82.0670 Y-65.9283 F15000.0
G1 Z11.9000 F8000.0
G1 X15.8839 Y-65.9283 F12000.0
G1 Z0.0000 F8000.0
G0 X117.0273 Y-169.9526 F15000.0
G1 Z11.9000 F8000.0
G1 X112.4334 Y-169.3298 F12000.0
G1 X112.9006 Y-169.9526 F12000.0
G1 X112.4334 Y-170.5755 F12000.0
G1 X117.0273 Y-169.9526 F12000.0
G1 Z0.0000 F8000.0
G0 X114.8327 Y-169.6412 F15000.0
G1 Z11.9000 F8000.0
G1 X114.0051 Y-169.6412 F12000.0
G1 Z0.0000 F8000.0
G0 X115.1442 Y-170.2251 F15000.0
G1 Z11.9000 F8000.0
G1 X114.3166 Y-170.2251 F12000.0
G1 Z0.0000 F8000.0
G0 X47.1067 Y-169.9526 F15000.0
G1 Z11.9000 F8000.0
G1 X51.7007 Y-170.5755 F12000.0
G1 X51.2335 Y-169.9526 F12000.0
G1 X51.7007 Y-169.3298 F12000.0
G1 X47.1067 Y-169.9526 F12000.0
G1 Z0.0000 F8000.0
G0 X49.7787 Y-170.2251 F15000.0
G1 Z11.9000 F8000.0
G1 X48.9510 Y-170.2251 F12000.0
G1 Z0.0000 F8000.0
G0 X50.0511 Y-169.6412 F15000.0
G1 Z11.9000 F8000.0
G1 X49.2235 Y-169.6412 F12000.0
G1 Z0.0000 F8000.0
G0 X117.0273 Y-169.9526 F15000.0
G1 Z11.9000 F8000.0
G1 X47.1067 Y-169.9526 F12000.0
G1 Z0.0000 F8000.0
G0 X24.2234 Y-100.7033 F15000.0
G1 Z11.9000 F8000.0
G1 X23.8054 Y-101.1213 F12000.0
G1 X23.5547 Y-101.2468
G1 X23.0948 Y-101.1213
G1 Z0.0000 F8000.0
G0 X24.2234 Y-101.2886 F15000.0
G1 Z11.9000 F8000.0
G1 X23.9309 Y-101.2468 F12000.0
G1 Z0.0000 F8000.0
G0 X23.6800 Y-101.0377 F15000.0
G1 Z11.9000 F8000.0
G1 X23.6383 Y-100.6615 F12000.0
G1 Z0.0000 F8000.0
G0 X23.6383 Y-101.4558 F15000.0
G1 Z11.9000 F8000.0
G1 X23.5547 Y-101.9992 F12000.0
G1 Z0.0000 F8000.0
G0 X23.5128 Y-101.3722 F15000.0
G1 Z11.9000 F8000.0
G1 X23.2202 Y-101.6230 F12000.0
G1 Z0.0000 F8000.0
G0 X17.7526 Y-146.6718 F15000.0
G1 Z11.9000 F8000.0
G1 X18.3755 Y-142.0779 F12000.0
G1 X17.7526 Y-142.4672 F12000.0
G1 X17.1297 Y-142.0779 F12000.0
G1 X17.7526 Y-146.6718 F12000.0
G1 Z0.0000 F8000.0
G0 X18.0252 Y-143.6496 F15000.0
G1 Z11.9000 F8000.0
G1 X18.0252 Y-144.4772 F12000.0
G1 Z0.0000 F8000.0
G0 X17.4412 Y-143.9220 F15000.0
G1 Z11.9000 F8000.0
G1 X17.4412 Y-144.7497 F12000.0
G1 Z0.0000 F8000.0
G0 X17.7526 Y-65.9283 F15000.0
G1 Z11.9000 F8000.0
G1 X17.1297 Y-70.5222 F12000.0
G1 X17.7526 Y-70.0551 F12000.0
G1 X18.3755 Y-70.5222 F12000.0
G1 X17.7526 Y-65.9283 F12000.0
G1 Z0.0000 F8000.0
G0 X17.4412 Y-67.7725 F15000.0
G1 Z11.9000 F8000.0
G1 X17.4412 Y-68.6002 F12000.0
G1 Z0.0000 F8000.0
G0 X18.0252 Y-68.0450 F15000.0
G1 Z11.9000 F8000.0
G1 X18.0252 Y-68.8727 F12000.0
G1 Z0.0000 F8000.0
G0 X17.7526 Y-146.6718 F15000.0
G1 Z11.9000 F8000.0
G1 X17.7526 Y-65.9283 F12000.0
G1 Z0.0000 F8000.0
G0 X0.0000 Y-216.9595 F15000.0
G1 Z11.9000 F8000.0
G1 X0.0000 Y-273.9770 F12000.0
G1 X174.7310 Y-273.9770 F12000.0
G1 Z0.0000 F8000.0
G0 X170.1296 Y-223.3663 F15000.0
G1 Z11.9000 F8000.0
G1 X0.0000 Y-223.3663 F12000.0
G1 Z0.0000 F8000.0
G0 X170.1296 Y-232.5541 F15000.0
G1 Z11.9000 F8000.0
G1 X110.3311 Y-232.5541 F12000.0
G1 Z0.0000 F8000.0
G0 X170.1296 Y-237.1480 F15000.0
G1 Z11.9000 F8000.0
G1 X110.3311 Y-237.1480 F12000.0
G1 Z0.0000 F8000.0
G0 X170.1296 Y-250.9296 F15000.0
G1 Z11.9000 F8000.0
G1 X110.3311 Y-250.9296 F12000.0
G1 Z0.0000 F8000.0
G0 X170.1296 Y-255.6014 F15000.0
G1 Z11.9000 F8000.0
G1 X110.3311 Y-255.6014 F12000.0
G1 Z0.0000 F8000.0
G0 X170.1296 Y-260.1953 F15000.0
G1 Z11.9000 F8000.0
G1 X110.3311 Y-260.1953 F12000.0
G1 Z0.0000 F8000.0
G0 X170.1296 Y-264.7892 F15000.0
G1 Z11.9000 F8000.0
G1 X110.3311 Y-264.7892 F12000.0
G1 Z0.0000 F8000.0
G0 X170.1296 Y-269.3830 F15000.0
G1 Z11.9000 F8000.0
G1 X110.3311 Y-269.3830 F12000.0
G1 Z0.0000 F8000.0
G0 X170.1296 Y-273.9770 F15000.0
G1 Z11.9000 F8000.0
G1 X170.1296 Y-223.3663 F12000.0
G1 Z0.0000 F8000.0
G0 X170.1296 Y-227.9602 F15000.0
G1 Z11.9000 F8000.0
G1 X110.3311 Y-227.9602 F12000.0
G1 Z0.0000 F8000.0
G0 X154.4792 Y-273.9770 F15000.0
G1 Z11.9000 F8000.0
G1 X154.4792 Y-223.3663 F12000.0
G1 Z0.0000 F8000.0
G0 X133.3006 Y-273.9770 F15000.0
G1 Z11.9000 F8000.0
G1 X133.3006 Y-223.3663 F12000.0
G1 Z0.0000 F8000.0
G0 X119.5189 Y-273.9770 F15000.0
G1 Z11.9000 F8000.0
G1 X119.5189 Y-223.3663 F12000.0
G1 Z0.0000 F8000.0
G0 X110.3311 Y-273.9770 F15000.0
G1 Z11.9000 F8000.0
G1 X110.3311 Y-223.3663 F12000.0
G1 Z0.0000 F8000.0
G0 X45.9388 Y-273.9770 F15000.0
G1 Z11.9000 F8000.0
G1 X45.9388 Y-237.1480 F12000.0
G1 Z0.0000 F8000.0
G0 X32.1572 Y-255.6014 F15000.0
G1 Z11.9000 F8000.0
G1 X32.1572 Y-237.1480 F12000.0
G1 Z0.0000 F8000.0
G0 X16.5068 Y-255.6014 F15000.0
G1 Z11.9000 F8000.0
G1 X16.5068 Y-237.1480 F12000.0
G1 Z0.0000 F8000.0
G0 X170.1296 Y-241.7419 F15000.0
G1 Z11.9000 F8000.0
G1 X110.3311 Y-241.7419 F12000.0
G1 Z0.0000 F8000.0
G0 X170.1296 Y-246.3357 F15000.0
G1 Z11.9000 F8000.0
G1 X110.3311 Y-246.3357 F12000.0
G1 Z0.0000 F8000.0
G0 X45.9388 Y-260.1953 F15000.0
G1 Z11.9000 F8000.0
G1 X0.0000 Y-260.1953 F12000.0
G1 Z0.0000 F8000.0
G0 X32.1572 Y-241.7419 F15000.0
G1 Z11.9000 F8000.0
G1 X0.0000 Y-241.7419 F12000.0
G1 Z0.0000 F8000.0
G0 X45.9388 Y-241.7419 F15000.0
G1 Z11.9000 F8000.0
G1 X32.1572 Y-241.7419 F12000.0
G1 Z0.0000 F8000.0
G0 X110.3311 Y-237.1480 F15000.0
G1 Z11.9000 F8000.0
G1 X0.0000 Y-237.1480 F12000.0
G1 Z0.0000 F8000.0
G0 X110.3311 Y-260.1953 F15000.0
G1 Z11.9000 F8000.0
G1 X45.9388 Y-260.1953 F12000.0
G1 Z0.0000 F8000.0
G0 X45.9388 Y-255.6014 F15000.0
G1 Z11.9000 F8000.0
G1 X0.0000 Y-255.6014 F12000.0
G1 Z0.0000 F8000.0
G0 X27.0183 Y-260.1953 F15000.0
G1 Z11.9000 F8000.0
G1 X27.0183 Y-255.6014 F12000.0
G1 Z0.0000 F8000.0
G0 X41.3449 Y-255.6014 F15000.0
G1 Z11.9000 F8000.0
G1 X41.3449 Y-241.7419 F12000.0
G1 Z0.0000 F8000.0
G0 X36.7511 Y-255.6014 F15000.0
G1 Z11.9000 F8000.0
G1 X36.7511 Y-241.7419 F12000.0
G1 Z0.0000 F8000.0
G0 X163.6669 Y-246.3357 F15000.0
G1 Z11.9000 F8000.0
G1 X163.6669 Y-223.3663 F12000.0
G1 Z0.0000 F8000.0
G0 X7.1497 Y-250.5058 F15000.0
G1 Z11.9000 F8000.0
G1 X5.7703 Y-246.6601 F12000.0
G1 X5.5195 Y-246.3256
G1 Z0.0000 F8000.0
G0 X6.9825 Y-247.3289 F15000.0
G1 Z11.9000 F8000.0
G1 X6.8153 Y-247.1617 F12000.0
G1 Z0.0000 F8000.0
G0 X6.1047 Y-246.7018 F15000.0
G1 Z11.9000 F8000.0
G1 X5.8121 Y-246.6182 F12000.0
G1 Z0.0000 F8000.0
G0 X5.4152 Y-259.1276 F15000.0
G1 Z11.9000 F8000.0
G1 X5.2480 Y-258.8351 F12000.0
G1 X4.4538 Y-256.6196
G1 Z0.0000 F8000.0
G0 X5.0808 Y-256.7449 F15000.0
G1 Z11.9000 F8000.0
G1 X4.8718 Y-256.6196 F12000.0
G1 Z0.0000 F8000.0
G0 X163.9964 Y-208.1895 F15000.0
G1 Z11.9000 F8000.0
G1 X162.6170 Y-204.3436 F12000.0
G1 X162.3662 Y-204.0093
G1 Z0.0000 F8000.0
G0 X163.8292 Y-205.0125 F15000.0
G1 Z11.9000 F8000.0
G1 X163.6621 Y-204.8453 F12000.0
G1 Z0.0000 F8000.0
G0 X162.9515 Y-204.3855 F15000.0
G1 Z11.9000 F8000.0
G1 X162.6588 Y-204.3019 F12000.0
G1 Z0.0000 F8000.0
G0 X158.8270 Y-204.6686 F15000.0
G1 Z11.9000 F8000.0
G1 X158.1582 Y-204.7105 F12000.0
G1 X157.9910 Y-205.1703
G1 Z0.0000 F8000.0
G0 X158.5344 Y-205.1703 F15000.0
G1 Z11.9000 F8000.0
G1 X158.3254 Y-204.9194 F12000.0
G1 Z0.0000 F8000.0
G0 X158.1164 Y-204.0416 F15000.0
G1 Z11.9000 F8000.0
G1 X157.9910 Y-204.4596 F12000.0
G1 X157.7820 Y-204.6269
G1 X157.4475 Y-204.5851
G1 Z0.0000 F8000.0
G0 X157.6566 Y-204.1671 F15000.0
G1 Z11.9000 F8000.0
G1 X157.4058 Y-203.8326 F12000.0
G1 Z0.0000 F8000.0
G0 X157.5122 Y-208.1382 F15000.0
G1 Z11.9000 F8000.0
G1 X156.8016 Y-206.2989 F12000.0
G1 X156.0491 Y-204.0416
G1 Z0.0000 F8000.0
G0 X156.7598 Y-206.2571 F15000.0
G1 Z11.9000 F8000.0
G1 X155.8402 Y-206.2571 F12000.0
G1 X155.2967 Y-206.1735
G1 X154.7533 Y-205.7555
G1 X154.4189 Y-204.9194
G1 X154.2934 Y-204.3343
G1 Z0.0000 F8000.0
G0 X155.9655 Y-203.9580 F15000.0
G1 Z11.9000 F8000.0
G1 X154.5861 Y-203.9998 F12000.0
G1 Z0.0000 F8000.0
G0 X154.5853 Y-207.7373 F15000.0
G1 Z11.9000 F8000.0
G1 X153.4985 Y-208.1971 F12000.0
G1 X152.9969 Y-208.0299
G1 X152.8715 Y-207.6537
G1 Z0.0000 F8000.0
G0 X154.5017 Y-207.5284 F15000.0
G1 Z11.9000 F8000.0
G1 X153.7493 Y-205.5636 F12000.0
G1 Z0.0000 F8000.0
G0 X153.5821 Y-205.4382 F15000.0
G1 Z11.9000 F8000.0
G1 X152.1609 Y-205.2710 F12000.0
G1 X152.2445 Y-205.8144
G1 Z0.0000 F8000.0
G0 X152.7043 Y-207.1939 F15000.0
G1 Z11.9000 F8000.0
G1 X152.4117 Y-206.2742 F12000.0
G1 Z0.0000 F8000.0
G0 X152.0190 Y-208.1560 F15000.0
G1 Z11.9000 F8000.0
G1 X150.8067 Y-207.9052 F12000.0
G1 Z0.0000 F8000.0
G0 X151.3083 Y-205.6897 F15000.0
G1 Z11.9000 F8000.0
G1 X151.0575 Y-205.4389 F12000.0
G1 X150.0543 Y-205.3553
G1 X149.9707 Y-205.4807
G1 X150.2633 Y-206.4003
G1 X150.5141 Y-206.6512
G1 X151.3083 Y-206.8184
G1 Z0.0000 F8000.0
G0 X150.7231 Y-207.7798 F15000.0
G1 Z11.9000 F8000.0
G1 X150.5141 Y-206.9437 F12000.0
G1 X150.5559 Y-206.7765
G1 Z0.0000 F8000.0
G0 X149.9711 Y-208.1261 F15000.0
G1 Z11.9000 F8000.0
G1 X149.1350 Y-205.8688 F12000.0
G1 Z0.0000 F8000.0
G0 X148.0900 Y-208.1679 F15000.0
G1 Z11.9000 F8000.0
G1 X147.2540 Y-205.7852 F12000.0
G1 X147.7138 Y-205.9942
G1 X148.5080 Y-206.5795
G1 X148.9260 Y-205.6598
G1 X148.8842 Y-205.4090
G1 Z0.0000 F8000.0
G0 X147.0006 Y-208.0724 F15000.0
G1 Z11.9000 F8000.0
G1 X146.8752 Y-207.2782 F12000.0
G1 X146.2064 Y-205.5643
G1 Z0.0000 F8000.0
G0 X146.9170 Y-208.1560 F15000.0
G1 Z11.9000 F8000.0
G1 X145.4957 Y-208.1560 F12000.0
G1 Z0.0000 F8000.0
G0 X146.5827 Y-206.7348 F15000.0
G1 Z11.9000 F8000.0
G1 X145.0778 Y-206.6930 F12000.0
G1 X144.6597 Y-205.4807
G1 X144.9942 Y-205.2299
G1 X146.0391 Y-205.4389
G1 Z0.0000 F8000.0
G0 X145.1770 Y-209.2428 F15000.0
G1 Z11.9000 F8000.0
G1 X143.7139 Y-205.3135 F12000.0
G1 X142.2091 Y-205.5643
G1 X142.2509 Y-205.7733
G1 Z0.0000 F8000.0
G0 X144.7172 Y-208.2396 F15000.0
G1 Z11.9000 F8000.0
G1 X143.2960 Y-208.0724 F12000.0
G1 X143.1288 Y-207.9471
G1 X142.4599 Y-206.3167
G1 Z0.0000 F8000.0
G0 X140.6838 Y-206.9447 F15000.0
G1 Z11.9000 F8000.0
G1 X140.7256 Y-207.3209 F12000.0
G1 X141.0182 Y-207.9479
G1 X141.1854 Y-208.0733
G1 X142.3141 Y-208.1988
G1 X141.2691 Y-205.2308
G1 Z0.0000 F8000.0
G0 X141.6871 Y-206.6939 F15000.0
G1 Z11.9000 F8000.0
G1 X140.8093 Y-206.7775 F12000.0
G1 Z0.0000 F8000.0
G0 X140.3912 Y-208.1988 F15000.0
G1 Z11.9000 F8000.0
G1 X139.4716 Y-205.7324 F12000.0
G1 Z0.0000 F8000.0
G0 X128.3866 Y-208.0820 F15000.0
G1 Z11.9000 F8000.0
G1 X128.3030 Y-207.4131 F12000.0
G1 X127.5924 Y-205.5738
G1 X127.4251 Y-205.4484
G1 X125.9621 Y-205.2395
G1 Z0.0000 F8000.0
G0 X128.3030 Y-208.1656 F15000.0
G1 Z11.9000 F8000.0
G1 X126.8817 Y-208.1656 F12000.0
G1 Z0.0000 F8000.0
G0 X126.0839 Y-208.0307 F15000.0
G1 Z11.9000 F8000.0
G1 X125.1225 Y-205.3971 F12000.0
G1 Z0.0000 F8000.0
G0 X125.0389 Y-205.3135 F15000.0
G1 Z11.9000 F8000.0
G1 X123.7848 Y-205.3135 F12000.0
G1 Z0.0000 F8000.0
G0 X124.5791 Y-208.1978 F15000.0
G1 Z11.9000 F8000.0
G1 X123.6594 Y-205.4807 F12000.0
G1 Z0.0000 F8000.0
G0 X124.1298 Y-209.2428 F15000.0
G1 Z11.9000 F8000.0
G1 X122.6668 Y-205.3135 F12000.0
G1 X121.1619 Y-205.5643
G1 X121.2037 Y-205.7733
G1 Z0.0000 F8000.0
G0 X123.6700 Y-208.2396 F15000.0
G1 Z11.9000 F8000.0
G1 X122.2487 Y-208.0724 F12000.0
G1 X122.0815 Y-207.9471
G1 X121.4127 Y-206.3167
G1 Z0.0000 F8000.0
G0 X121.1289 Y-207.7373 F15000.0
G1 Z11.9000 F8000.0
G1 X120.0419 Y-208.1971 F12000.0
G1 X119.5404 Y-208.0299
G1 X119.4149 Y-207.6537
G1 Z0.0000 F8000.0
G0 X121.0452 Y-207.5284 F15000.0
G1 Z11.9000 F8000.0
G1 X120.2928 Y-205.5636 F12000.0
G1 Z0.0000 F8000.0
G0 X120.1255 Y-205.4382 F15000.0
G1 Z11.9000 F8000.0
G1 X118.7043 Y-205.2710 F12000.0
G1 X118.7879 Y-205.8144
G1 Z0.0000 F8000.0
G0 X119.2477 Y-207.1939 F15000.0
G1 Z11.9000 F8000.0
G1 X118.9551 Y-206.2742 F12000.0
G1 Z0.0000 F8000.0
G0 X118.6933 Y-207.7219 F15000.0
G1 Z11.9000 F8000.0
G1 X117.6482 Y-208.2235 F12000.0
G1 X117.2720 Y-208.0145
G1 X117.0212 Y-207.5965
G1 X116.3106 Y-205.5482
G1 X116.3942 Y-205.3810
G1 X117.1466 Y-205.2138
G1 X117.0630 Y-205.0048
G1 X116.7286 Y-204.7121
G1 X116.4778 Y-204.1687
G1 X116.9376 Y-203.9598
G1 Z0.0000 F8000.0
G0 X118.6097 Y-207.5129 F15000.0
G1 Z11.9000 F8000.0
G1 X117.9408 Y-205.6318 F12000.0
G1 Z0.0000 F8000.0
G0 X117.1884 Y-205.2138 F15000.0
G1 Z11.9000 F8000.0
G1 X117.7318 Y-205.2556 F12000.0
G1 X117.3557 Y-204.2106
G1 X117.1884 Y-204.0851
G1 Z0.0000 F8000.0
G0 X116.2624 Y-207.7380 F15000.0
G1 Z11.9000 F8000.0
G1 X115.1756 Y-208.1978 F12000.0
G1 X114.8411 Y-208.0307
G1 Z0.0000 F8000.0
G0 X116.1788 Y-207.5290 F15000.0
G1 Z11.9000 F8000.0
G1 X115.4264 Y-205.5643 F12000.0
G1 Z0.0000 F8000.0
G0 X115.2592 Y-205.4389 F15000.0
G1 Z11.9000 F8000.0
G1 X114.2141 Y-205.2299 F12000.0
G1 X113.9633 Y-205.3553
G1 X113.8797 Y-205.4807
G1 X114.6322 Y-207.7380
G1 Z0.0000 F8000.0
G0 X113.9330 Y-207.9598 F15000.0
G1 Z11.9000 F8000.0
G1 X113.4732 Y-206.9148 F12000.0
G1 X112.9297 Y-205.2427
G1 Z0.0000 F8000.0
G0 X113.3478 Y-206.7893 F15000.0
G1 Z11.9000 F8000.0
G1 X112.8461 Y-206.6639 F12000.0
G1 X112.7626 Y-206.4967
G1 X111.9684 Y-205.8279
G1 Z0.0000 F8000.0
G0 X112.8043 Y-206.6639 F15000.0
G1 Z11.9000 F8000.0
G1 X112.4282 Y-208.1269 F12000.0
G1 Z0.0000 F8000.0
G0 X68.0976 Y-226.9900 F15000.0
G1 Z11.9000 F8000.0
G1 X68.5903 Y-227.4005 F12000.0
G1 Z0.0000 F8000.0
G0 X68.0906 Y-227.0107 F15000.0
G1 Z11.9000 F8000.0
G1 X67.5098 Y-226.9877 F12000.0
G1 X66.9603 Y-227.3301
G1 X66.7258 Y-227.8557
G1 X66.5900 Y-228.9150
G1 X66.7194 Y-230.0947
G1 X66.9697 Y-230.6248
G1 X67.1613 Y-230.7469
G1 X67.9626 Y-230.9589
G1 X68.5868 Y-230.5459
G1 X68.3856 Y-230.7897
G1 X68.0976 Y-230.9444
G1 Z0.0000 F8000.0
G0 X68.6494 Y-230.4846 F15000.0
G1 Z11.9000 F8000.0
G1 X68.9084 Y-229.3232 F12000.0
G1 X68.6034 Y-227.4038
G1 Z0.0000 F8000.0
G0 X70.1668 Y-228.2315 F15000.0
G1 Z11.9000 F8000.0
G1 X70.1668 Y-229.6109 F12000.0
G1 Z0.0000 F8000.0
G0 X70.1668 Y-230.8984 F15000.0
G1 Z11.9000 F8000.0
G1 X70.2244 Y-229.6491 F12000.0
G1 X71.4947 Y-229.7730
G1 X71.8090 Y-229.6345
G1 X72.0838 Y-229.2617
G1 X72.1900 Y-228.1855
G1 Z0.0000 F8000.0
G0 X73.3855 Y-230.8984 F15000.0
G1 Z11.9000 F8000.0
G1 X73.5681 Y-227.4535 F12000.0
G1 X73.5075 Y-227.2159
G1 X73.9429 Y-227.7372
G1 X74.9816 Y-230.5274
G1 X75.2637 Y-230.6115
G1 X76.9588 Y-227.3560
G1 X77.0215 Y-227.6609
G1 X77.0641 Y-230.8984
G1 Z0.0000 F8000.0
G0 X75.2248 Y-230.7145 F15000.0
G1 Z11.9000 F8000.0
G1 X75.1329 Y-230.6225 F12000.0
G1 Z0.0000 F8000.0
G0 X67.2240 Y-230.8984 F15000.0
G1 Z11.9000 F8000.0
G1 X66.9481 Y-230.6225 F12000.0
G1 Z0.0000 F8000.0
G0 X65.2008 Y-230.4846 F15000.0
G1 Z11.9000 F8000.0
G1 X65.4597 Y-229.3232 F12000.0
G1 X65.2005 Y-227.5522
G1 X65.0855 Y-227.3559
G1 Z0.0000 F8000.0
G0 X64.7169 Y-227.0462 F15000.0
G1 Z11.9000 F8000.0
G1 X65.1334 Y-227.3936 F12000.0
G1 X64.6175 Y-227.0031
G1 X64.0357 Y-226.9939
G1 X63.5571 Y-227.2725
G1 X63.3014 Y-227.7680
G1 X63.1401 Y-228.9413
G1 X63.3115 Y-230.2311
G1 X63.5731 Y-230.7122
G1 X63.8027 Y-230.8826
G1 X64.5670 Y-230.9612
G1 X65.1424 Y-230.5529
G1 X64.9850 Y-230.7637
G1 X64.6490 Y-230.9444
G1 Z0.0000 F8000.0
G0 X60.0048 Y-230.4846 F15000.0
G1 Z11.9000 F8000.0
G1 X59.6722 Y-230.7987 F12000.0
G1 X59.3502 Y-230.9301
G1 X58.5240 Y-230.8744
G1 X58.2575 Y-230.6685
G1 Z0.0000 F8000.0
G0 X56.5562 Y-230.4846 F15000.0
G1 Z11.9000 F8000.0
G1 X56.8152 Y-229.3232 F12000.0
G1 X56.5559 Y-227.5522
G1 X56.4409 Y-227.3559
G1 Z0.0000 F8000.0
G0 X56.0723 Y-227.0462 F15000.0
G1 Z11.9000 F8000.0
G1 X56.4888 Y-227.3936 F12000.0
G1 X55.9730 Y-227.0031
G1 X55.3911 Y-226.9939
G1 X54.9125 Y-227.2725
G1 X54.6568 Y-227.7680
G1 X54.4956 Y-228.9413
G1 X54.6669 Y-230.2311
G1 X55.0233 Y-230.7913
G1 X54.9670 Y-230.7615
G1 X55.1581 Y-230.8824
G1 X55.9215 Y-230.9615
G1 X56.4979 Y-230.5526
G1 X56.3411 Y-230.7632
G1 X56.0044 Y-230.9444
G1 Z0.0000 F8000.0
G0 X54.6709 Y-230.2547 F15000.0
G1 Z11.9000 F8000.0
G1 X54.6250 Y-230.1627 F12000.0
G1 Z0.0000 F8000.0
G0 X51.3602 Y-230.4846 F15000.0
G1 Z11.9000 F8000.0
G1 X51.6192 Y-229.3232 F12000.0
G1 X51.3600 Y-227.5522
G1 X51.2449 Y-227.3559
G1 Z0.0000 F8000.0
G0 X50.8763 Y-227.0462 F15000.0
G1 Z11.9000 F8000.0
G1 X51.2928 Y-227.3936 F12000.0
G1 X50.7770 Y-227.0031
G1 X50.4284 Y-226.9560
G1 X50.0842 Y-227.0347
G1 X49.7166 Y-227.2725
G1 X49.4608 Y-227.7680
G1 X49.2996 Y-228.9413
G1 X49.4365 Y-230.1197
G1 X49.6296 Y-230.5495
G1 X49.9101 Y-230.8589
G1 Z0.0000 F8000.0
G0 X50.6864 Y-230.9663 F15000.0
G1 Z11.9000 F8000.0
G1 X51.3036 Y-230.5424 F12000.0
G1 X51.0873 Y-230.8003
G1 X50.7729 Y-230.9248
G1 X49.9475 Y-230.8180
G1 X49.6589 Y-230.6225
G1 Z0.0000 F8000.0
G0 X47.9116 Y-230.4846 F15000.0
G1 Z11.9000 F8000.0
G1 X48.1706 Y-229.3232 F12000.0
G1 X47.9113 Y-227.5522
G1 X47.7963 Y-227.3559
G1 Z0.0000 F8000.0
G0 X47.4277 Y-227.0462 F15000.0
G1 Z11.9000 F8000.0
G1 X47.8442 Y-227.3936 F12000.0
G1 X47.3284 Y-227.0031
G1 X46.7465 Y-226.9939
G1 X46.2679 Y-227.2725
G1 X46.0122 Y-227.7680
G1 X45.8510 Y-228.9413
G1 X46.0223 Y-230.2311
G1 X46.3788 Y-230.7913
G1 X46.3224 Y-230.7615
G1 X46.5135 Y-230.8824
G1 X47.2770 Y-230.9615
G1 X47.8533 Y-230.5526
G1 X47.6965 Y-230.7632
G1 X47.3598 Y-230.9444
G1 Z0.0000 F8000.0
G0 X46.0263 Y-230.2547 F15000.0
G1 Z11.9000 F8000.0
G1 X45.9804 Y-230.1627 F12000.0
G1 Z0.0000 F8000.0
G0 X42.7616 Y-230.4846 F15000.0
G1 Z11.9000 F8000.0
G1 X43.0206 Y-229.3232 F12000.0
G1 X42.7614 Y-227.5522
G1 X42.6463 Y-227.3559
G1 Z0.0000 F8000.0
G0 X42.2777 Y-227.0462 F15000.0
G1 Z11.9000 F8000.0
G1 X42.6942 Y-227.3936 F12000.0
G1 X42.1784 Y-227.0031
G1 X41.8298 Y-226.9560
G1 X41.4856 Y-227.0347
G1 X41.1180 Y-227.2725
G1 X40.8622 Y-227.7680
G1 X40.7010 Y-228.9413
G1 X40.8379 Y-230.1197
G1 X41.0310 Y-230.5495
G1 X41.3115 Y-230.8589
G1 Z0.0000 F8000.0
G0 X42.0878 Y-230.9663 F15000.0
G1 Z11.9000 F8000.0
G1 X42.7050 Y-230.5424 F12000.0
G1 X42.4887 Y-230.8003
G1 X42.1743 Y-230.9248
G1 X41.3489 Y-230.8180
G1 X41.0603 Y-230.6225
G1 Z0.0000 F8000.0
G0 X39.3130 Y-228.9672 F15000.0
G1 Z11.9000 F8000.0
G1 X39.2210 Y-228.8293 F12000.0
G1 Z0.0000 F8000.0
G0 X38.3014 Y-227.5418 F15000.0
G1 Z11.9000 F8000.0
G1 X39.5839 Y-229.3715 F12000.0
G1 X39.6799 Y-229.7935
G1 X37.8603 Y-229.9137
G1 X37.8103 Y-230.8176
G1 X37.3297 Y-229.9080
G1 X37.8284 Y-229.8614
G1 X38.2600 Y-227.7925
G1 X38.2427 Y-227.5873
G1 X37.8967 Y-227.3094
G1 X37.7956 Y-226.9900
G1 Z0.0000 F8000.0
G0 X58.1196 Y-227.4958 F15000.0
G1 Z11.9000 F8000.0
G1 X58.4224 Y-227.1443 F12000.0
G1 X58.8575 Y-226.9790
G1 X59.3240 Y-226.9980
G1 X59.6378 Y-227.1493
G1 X59.9411 Y-227.4320
G1 X59.7056 Y-227.1965
G1 X60.0355 Y-227.6005
G1 X60.2750 Y-228.9460
G1 X59.4965 Y-228.6400
G1 X60.1809 Y-228.9789
G1 X59.8134 Y-228.8218
G1 Z0.0000 F8000.0
G0 X60.1838 Y-228.9874 F15000.0
G1 Z11.9000 F8000.0
G1 X60.2586 Y-229.1510 F12000.0
G1 X59.9920 Y-230.4243
G1 X59.8789 Y-230.6157
G1 X59.2766 Y-230.9582
G1 X58.2675 Y-230.6574
G1 X58.0738 Y-230.3662
G1 X57.9493 Y-229.9093
G1 X58.0084 Y-229.3214
G1 X58.2161 Y-228.9117
G1 X58.4557 Y-228.7016
G1 X58.8985 Y-228.5395
G1 X59.2461 Y-228.5684
G1 X59.6830 Y-228.7373
G1 Z0.0000 F8000.0
G0 X38.2775 Y-238.4241 F15000.0
G1 Z11.9000 F8000.0
G1 X37.1279 Y-238.4241 F12000.0
G1 Z0.0000 F8000.0
G0 X37.7257 Y-238.4241 F15000.0
G1 Z11.9000 F8000.0
G1 X37.6797 Y-239.8495 F12000.0
G1 Z0.0000 F8000.0
G0 X38.8293 Y-239.8955 F15000.0
G1 Z11.9000 F8000.0
G1 X38.8903 Y-238.7437 F12000.0
G1 X39.7869 Y-239.6138
G1 X39.8556 Y-239.4580
G1 X39.9073 Y-238.5533
G1 X39.2715 Y-238.9936
G1 X38.9384 Y-238.6954
G1 X38.8293 Y-238.4701
G1 Z0.0000 F8000.0
G0 X39.3811 Y-239.2058 F15000.0
G1 Z11.9000 F8000.0
G1 X39.7029 Y-239.6196 F12000.0
G1 Z0.0000 F8000.0
G0 X40.6685 Y-239.8495 F15000.0
G1 Z11.9000 F8000.0
G1 X40.7274 Y-237.8693 F12000.0
G1 X41.9560 Y-239.8495
G1 Z0.0000 F8000.0
G0 X27.7533 Y-238.3431 F15000.0
G1 Z11.9000 F8000.0
G1 X27.8256 Y-238.5913 F12000.0
G1 X27.6917 Y-238.2235
G1 X27.3708 Y-237.7959
G1 X27.4299 Y-238.0427
G1 X27.2934 Y-239.4926
G1 Z0.0000 F8000.0
G0 X28.1671 Y-239.3087 F15000.0
G1 Z11.9000 F8000.0
G1 X28.2164 Y-239.3481 F12000.0
G1 X27.8861 Y-238.7401
G1 X28.1362 Y-239.2754
G1 X28.2914 Y-239.2612
G1 X29.0382 Y-237.8464
G1 X29.1109 Y-237.9458
G1 X29.1787 Y-239.5386
G1 Z0.0000 F8000.0
G0 X26.4658 Y-238.2511 F15000.0
G1 Z11.9000 F8000.0
G1 X26.2756 Y-238.1628 F12000.0
G1 X25.6217 Y-238.7009
G1 X26.4695 Y-238.9755
G1 X26.6149 Y-239.2721
G1 X26.4538 Y-239.5511
G1 X26.2418 Y-239.5977
G1 X25.5908 Y-239.4085
G1 X25.5150 Y-239.4551
G1 X25.5647 Y-238.8387
G1 X24.8475 Y-238.5025
G1 X24.8791 Y-239.0440
G1 X24.6992 Y-239.4634
G1 X24.4068 Y-239.6022
G1 X23.8908 Y-239.4466
G1 Z0.0000 F8000.0
G0 X23.8448 Y-238.3431 F15000.0
G1 Z11.9000 F8000.0
G1 X24.0349 Y-238.1689 F12000.0
G1 X24.4844 Y-238.1402
G1 X24.7039 Y-238.2926
G1 X24.3673 Y-238.1484
G1 X23.2839 Y-238.4923
G1 X23.3122 Y-239.0590
G1 X23.1246 Y-239.4715
G1 X22.8286 Y-239.6033
G1 X22.3923 Y-239.4527
G1 X22.2895 Y-239.2711
G1 X22.3103 Y-238.3164
G1 X22.5554 Y-238.1338
G1 X23.0016 Y-238.1848
G1 X23.2011 Y-238.3431
G1 Z0.0000 F8000.0
G0 X21.5917 Y-238.2511 F15000.0
G1 Z11.9000 F8000.0
G1 X21.4015 Y-238.1628 F12000.0
G1 X20.7476 Y-238.7009
G1 X21.5955 Y-238.9755
G1 X21.7409 Y-239.2721
G1 X21.5797 Y-239.5511
G1 X21.3678 Y-239.5977
G1 X20.7167 Y-239.4085
G1 X20.6409 Y-239.4551
G1 X20.6721 Y-238.8029
G1 Z0.0000 F8000.0
G0 X1.8098 Y-237.7661 F15000.0
G1 Z11.9000 F8000.0
G1 X2.8430 Y-238.0469 F12000.0
G1 X3.0502 Y-238.3493
G1 X3.0516 Y-238.6663
G1 X2.0574 Y-238.6421
G1 X1.8153 Y-239.0143
G1 X1.7816 Y-239.2467
G1 X1.8481 Y-239.4518
G1 X2.5293 Y-240.0636
G1 X2.7868 Y-239.8906
G1 X3.0581 Y-238.8767
G1 X2.7663 Y-238.6305
G1 X3.0514 Y-238.8237
G1 Z0.0000 F8000.0
G0 X3.8330 Y-239.0996 F15000.0
G1 Z11.9000 F8000.0
G1 X3.8026 Y-239.6925 F12000.0
G1 X3.8859 Y-239.8972
G1 X4.4752 Y-240.0797
G1 X4.9087 Y-239.8211
G1 X3.9597 Y-239.1769
G1 X3.8434 Y-239.0014
G1 X3.8825 Y-238.6748
G1 X4.5444 Y-238.5233
G1 X4.7967 Y-238.5844
G1 X4.7067 Y-238.5018
G1 Z0.0000 F8000.0
G0 X5.4884 Y-238.5018 F15000.0
G1 Z11.9000 F8000.0
G1 X6.6379 Y-238.5018 F12000.0
G1 Z0.0000 F8000.0
G0 X7.1437 Y-238.5478 F15000.0
G1 Z11.9000 F8000.0
G1 X8.1094 Y-240.0192 F12000.0
G1 Z0.0000 F8000.0
G0 X8.1553 Y-238.5478 F15000.0
G1 Z11.9000 F8000.0
G1 X8.1779 Y-239.9663 F12000.0
G1 X8.3401 Y-240.0478
G1 X8.9307 Y-239.9902
G1 X9.0968 Y-239.9014
G1 X9.1210 Y-238.5478
G1 Z0.0000 F8000.0
G0 X9.7647 Y-238.7777 F15000.0
G1 Z11.9000 F8000.0
G1 X9.9922 Y-238.5281 F12000.0
G1 X10.5576 Y-238.5498
G1 X10.7803 Y-238.8127
G1 X10.8939 Y-239.3892
G1 X10.6642 Y-239.9187
G1 X10.2478 Y-240.0756
G1 X9.9225 Y-239.9561
G1 X9.7596 Y-239.7702
G1 X9.8107 Y-239.8813
G1 Z0.0000 F8000.0
G0 X11.5580 Y-239.8353 F15000.0
G1 Z11.9000 F8000.0
G1 X11.5566 Y-239.1929 F12000.0
G1 X11.6205 Y-239.8944
G1 X12.2132 Y-240.0760
G1 X12.6283 Y-239.8135
G1 X11.6729 Y-239.1687
G1 X11.5650 Y-238.9887
G1 X11.6161 Y-238.6657
G1 X12.2837 Y-238.5220
G1 X12.5187 Y-238.5795
G1 X12.4316 Y-238.5018
G1 Z0.0000 F8000.0
G0 X13.5812 Y-238.1340 F15000.0
G1 Z11.9000 F8000.0
G1 X13.9545 Y-238.7425 F12000.0
G1 X13.5939 Y-238.2271
G1 X13.4892 Y-240.0192
G1 Z0.0000 F8000.0
G0 X14.4089 Y-239.8353 F15000.0
G1 Z11.9000 F8000.0
G1 X14.1747 Y-239.3621 F12000.0
G1 X14.2516 Y-239.6222
G1 X14.0771 Y-239.0877
G1 X14.4480 Y-239.7658
G1 X15.2327 Y-238.3642
G1 X15.4064 Y-238.1868
G1 X15.3862 Y-238.0797
G1 X15.4665 Y-239.9732
G1 Z0.0000 F8000.0
G0 X6.0402 Y-240.0192 F15000.0
G1 Z11.9000 F8000.0
G1 X6.0862 Y-238.5018 F12000.0
G1 Z0.0000 F8000.0
G0 X2.9134 Y-239.8353 F15000.0
G1 Z11.9000 F8000.0
G1 X2.7755 Y-239.9732 F12000.0
G1 Z0.0000 F8000.0
G0 X148.9109 Y-242.5107 F15000.0
G1 Z11.9000 F8000.0
G1 X148.9399 Y-243.8866 F12000.0
G1 X149.0826 Y-243.9538
G1 X149.3080 Y-243.9006
G1 X149.0360 Y-244.0205
G1 X149.5152 Y-243.5840
G1 X149.4891 Y-243.6387
G1 X149.5803 Y-243.4132
G1 X150.1140 Y-242.8479
G1 X150.2634 Y-242.8360
G1 X150.2904 Y-244.2580
G1 Z0.0000 F8000.0
G0 X149.5546 Y-243.5223 F15000.0
G1 Z11.9000 F8000.0
G1 X149.9536 Y-242.9574 F12000.0
G1 X150.1984 Y-242.7866
G1 Z0.0000 F8000.0
G0 X148.4511 Y-243.1544 F15000.0
G1 Z11.9000 F8000.0
G1 X148.3928 Y-243.5927 F12000.0
G1 X147.8674 Y-243.6346
G1 X147.9305 Y-243.7931
G1 X147.7548 Y-244.1056
G1 X147.9738 Y-243.8480
G1 X148.3738 Y-243.7224
G1 X148.0144 Y-243.7704
G1 X147.7481 Y-243.5205
G1 X147.7963 Y-243.1440
G1 X147.8931 Y-242.9820
G1 X148.0504 Y-242.9074
G1 X148.2672 Y-242.9705
G1 Z0.0000 F8000.0
G0 X146.4077 Y-244.2580 F15000.0
G1 Z11.9000 F8000.0
G1 X145.4755 Y-244.2718 F12000.0
G1 X145.4192 Y-244.2004
G1 X145.4951 Y-243.0604
G1 X146.5530 Y-244.4178
G1 X146.5547 Y-244.6076
G1 X145.3741 Y-244.2900
G1 X145.1351 Y-244.6693
G1 X144.0272 Y-244.2925
G1 X143.7024 Y-244.1091
G1 X143.0794 Y-244.1891
G1 X142.9973 Y-243.6601
G1 X142.6084 Y-243.4097
G1 X142.2019 Y-242.9990
G1 X141.9786 Y-242.9732
G1 X141.7969 Y-243.0552
G1 X141.4439 Y-243.9036
G1 X141.0518 Y-243.7777
G1 X140.7785 Y-243.0432
G1 X140.7921 Y-243.1634
G1 X140.2980 Y-243.3179
G1 X140.2590 Y-244.1998
G1 X139.6380 Y-244.2209
G1 X139.1925 Y-243.4250
G1 X139.0469 Y-243.3119
G1 X138.9127 Y-244.2580
G1 Z0.0000 F8000.0
G0 X139.6024 Y-244.0741 F15000.0
G1 Z11.9000 F8000.0
G1 X140.2002 Y-243.2004 F12000.0
G1 Z0.0000 F8000.0
G0 X141.1198 Y-243.9821 F15000.0
G1 Z11.9000 F8000.0
G1 X141.3642 Y-243.9862 F12000.0
G1 X141.0520 Y-243.7711
G1 X140.9639 Y-243.5595
G1 X141.4139 Y-244.7164
G1 X141.7176 Y-244.9477
G1 Z0.0000 F8000.0
G0 X142.3154 Y-244.2580 F15000.0
G1 Z11.9000 F8000.0
G1 X142.5964 Y-243.5714 F12000.0
G1 X142.6045 Y-243.7079
G1 X143.0133 Y-243.5352
G1 X143.0511 Y-243.0165
G1 Z0.0000 F8000.0
G0 X143.7408 Y-243.1544 F15000.0
G1 Z11.9000 F8000.0
G1 X143.9523 Y-243.0129 F12000.0
G1 X143.7570 Y-243.3324
G1 X143.6760 Y-243.8013
G1 X143.7301 Y-244.0067
G1 X144.1109 Y-244.2564
G1 X144.3394 Y-244.2715
G1 X144.5439 Y-244.1765
G1 X144.6770 Y-244.0040
G1 X144.7711 Y-243.6706
G1 X144.6471 Y-243.2202
G1 X144.4812 Y-243.0718
G1 X144.0167 Y-242.9705
G1 Z0.0000 F8000.0
G0 X144.5685 Y-243.0625 F15000.0
G1 Z11.9000 F8000.0
G1 X144.6144 Y-243.1544 F12000.0
G1 Z0.0000 F8000.0
G0 X128.4872 Y-244.1441 F15000.0
G1 Z11.9000 F8000.0
G1 X128.5860 Y-242.3962 F12000.0
G1 X129.8667 Y-244.1441
G1 Z0.0000 F8000.0
G0 X127.1078 Y-242.8567 F15000.0
G1 Z11.9000 F8000.0
G1 X127.6597 Y-242.9957 F12000.0
G1 X127.8652 Y-243.5909
G1 X127.7541 Y-243.9227
G1 X127.6094 Y-244.0852
G1 X127.2826 Y-244.1598
G1 X126.8959 Y-244.0191
G1 X126.9368 Y-244.0880
G1 X126.7701 Y-243.8283
G1 X126.8706 Y-243.1326
G1 X127.0364 Y-242.9058
G1 X126.8319 Y-243.0406
G1 Z0.0000 F8000.0
G0 X126.3721 Y-244.1901 F15000.0
G1 Z11.9000 F8000.0
G1 X126.3980 Y-244.4795 F12000.0
G1 X126.1536 Y-244.0383
G1 X125.3086 Y-242.9379
G1 X125.2529 Y-244.1071
G1 X125.3225 Y-244.1650
G1 X126.1448 Y-244.1455
G1 X125.1543 Y-244.1935
G1 X125.0076 Y-244.5396
G1 X124.4883 Y-244.1306
G1 X123.5961 Y-242.9318
G1 X123.5212 Y-244.1441
G1 Z0.0000 F8000.0
G0 X169.0263 Y-242.5960 F15000.0
G1 Z11.9000 F8000.0
G1 X168.9339 Y-244.2312 F12000.0
G1 X168.6398 Y-243.9424
G1 X167.9762 Y-243.0227
G1 X168.1585 Y-243.2617
G1 X167.6841 Y-242.7546
G1 X167.7652 Y-243.0030
G1 X167.6642 Y-244.1876
G1 X167.5838 Y-244.3618
G1 X166.6639 Y-244.4014
G1 X166.2564 Y-244.2179
G1 X166.3424 Y-243.8310
G1 X166.4897 Y-243.7448
G1 X166.2958 Y-243.6098
G1 X166.3376 Y-243.1915
G1 X166.6626 Y-243.1209
G1 X166.8876 Y-243.2788
G1 X165.6156 Y-243.4653
G1 X165.6167 Y-244.3122
G1 X165.5213 Y-243.3902
G1 X164.8963 Y-244.2986
G1 X164.5484 Y-243.5926
G1 X164.3492 Y-243.4655
G1 X164.2442 Y-244.3893
G1 Z0.0000 F8000.0
G0 X161.7195 Y-242.5501 F15000.0
G1 Z11.9000 F8000.0
G1 X160.8267 Y-242.5745 F12000.0
G1 X160.7702 Y-242.6391
G1 X160.6554 Y-244.3421
G1 X160.1116 Y-244.2132
G1 X159.6093 Y-243.9104
G1 X159.0472 Y-243.2363
G1 X159.1905 Y-243.3777
G1 Z0.0000 F8000.0
G0 X160.0182 Y-243.1478 F15000.0
G1 Z11.9000 F8000.0
G1 X159.9544 Y-244.0736 F12000.0
G1 X159.7737 Y-244.0932
G1 X159.8662 Y-244.1430
G1 Z0.0000 F8000.0
G0 X159.7275 Y-244.0836 F15000.0
G1 Z11.9000 F8000.0
G1 X159.3993 Y-243.6138 F12000.0
G1 X159.1734 Y-243.4456
G1 X159.0066 Y-244.3893
G1 Z0.0000 F8000.0
G0 X157.4892 Y-244.2974 F15000.0
G1 Z11.9000 F8000.0
G1 X157.4553 Y-244.2379 F12000.0
G1 X157.8338 Y-244.3996
G1 X158.3304 Y-244.1326
G1 X158.3929 Y-243.7974
G1 X158.2943 Y-243.3539
G1 X157.7542 Y-243.1407
G1 X156.0637 Y-243.1018
G1 Z0.0000 F8000.0
G0 X156.5695 Y-243.1018 F15000.0
G1 Z11.9000 F8000.0
G1 X156.5236 Y-244.3893 F12000.0
G1 Z0.0000 F8000.0
G0 X162.0414 Y-244.4813 F15000.0
G1 Z11.9000 F8000.0
G1 X161.8884 Y-244.4110 F12000.0
G1 X161.8130 Y-244.2288
G1 X161.7655 Y-242.6420
G1 Z0.0000 F8000.0
G0 X118.2744 Y-242.4275 F15000.0
G1 Z11.9000 F8000.0
G1 X117.2929 Y-242.4834 F12000.0
G1 X117.2026 Y-244.4226
G1 X117.0600 Y-244.5056
G1 X117.0038 Y-244.9058
G1 X117.3248 Y-244.4702
G1 X118.4894 Y-244.4313
G1 X118.7697 Y-244.9136
G1 X118.7664 Y-244.6175
G1 X118.5106 Y-244.2748
G1 X118.4145 Y-243.9334
G1 X118.3204 Y-242.5194
G1 Z0.0000 F8000.0
G0 X116.2512 Y-243.1172 F15000.0
G1 Z11.9000 F8000.0
G1 X116.2910 Y-243.1741 F12000.0
G1 X116.1281 Y-243.0787
G1 X115.6650 Y-243.0490
G1 X115.4640 Y-243.1588
G1 X115.3454 Y-243.3436
G1 X115.4220 Y-243.6247
G1 X116.1027 Y-243.7926
G1 X116.4425 Y-244.2229
G1 X116.2657 Y-244.4853
G1 X116.0430 Y-244.5163
G1 X115.3254 Y-244.3674
G1 X115.3162 Y-243.6841
G1 X114.8796 Y-243.1452
G1 X114.6719 Y-243.0737
G1 X113.7222 Y-243.0712
G1 Z0.0000 F8000.0
G0 X114.3200 Y-243.0712 F15000.0
G1 Z11.9000 F8000.0
G1 X114.2740 Y-244.4507 F12000.0
G1 Z0.0000 F8000.0
G0 X113.0784 Y-243.1172 F15000.0
G1 Z11.9000 F8000.0
G1 X113.1183 Y-243.1741 F12000.0
G1 X112.9554 Y-243.0787
G1 X112.4923 Y-243.0490
G1 X112.2145 Y-243.2410
G1 X112.1841 Y-243.5580
G1 X113.0292 Y-243.8434
G1 X113.2697 Y-244.2229
G1 X113.0929 Y-244.4854
G1 X112.1217 Y-244.4470
G1 X112.1838 Y-243.7424
G1 X112.1831 Y-244.4320
G1 X112.4515 Y-244.4737
G1 X112.3887 Y-244.4047
G1 Z0.0000 F8000.0
G0 X78.4735 Y-243.9297 F15000.0
G1 Z11.9000 F8000.0
G1 X78.8086 Y-244.4142 F12000.0
G1 X79.4867 Y-244.5988
G1 X80.2535 Y-244.4024
G1 X80.4100 Y-244.2270
G1 X80.3128 Y-244.3435
G1 Z0.0000 F8000.0
G0 X81.2324 Y-245.9529 F15000.0
G1 Z11.9000 F8000.0
G1 X81.0606 Y-249.5619 F12000.0
G1 X81.1159 Y-249.7722
G1 X78.7215 Y-246.6201
G1 X78.1750 Y-246.4440
G1 X78.0635 Y-249.7497
G1 X77.9956 Y-249.9254
G1 X76.0288 Y-249.9151
G1 X75.9905 Y-247.9301
G1 Z0.0000 F8000.0
G0 X75.9905 Y-245.9529 F15000.0
G1 Z11.9000 F8000.0
G1 X75.9703 Y-247.8446 F12000.0
G1 X75.9126 Y-247.9036
G1 X75.1045 Y-247.8763
G1 X74.8325 Y-247.6914
G1 Z0.0000 F8000.0
G0 X74.4864 Y-247.2691 F15000.0
G1 Z11.9000 F8000.0
G1 X74.9457 Y-247.8202 F12000.0
G1 X74.9149 Y-247.9797
G1 X74.2943 Y-248.6632
G1 X73.4989 Y-249.9647
G1 X72.8637 Y-250.3671
G1 Z0.0000 F8000.0
G0 X71.6222 Y-248.4359 F15000.0
G1 Z11.9000 F8000.0
G1 X71.5762 Y-248.3439 F12000.0
G1 Z0.0000 F8000.0
G0 X71.9441 Y-246.7806 F15000.0
G1 Z11.9000 F8000.0
G1 X71.2987 Y-246.1314 F12000.0
G1 X70.4216 Y-245.8051
G1 X69.2419 Y-245.9079
G1 X68.7626 Y-246.2261
G1 X68.5712 Y-247.3915
G1 X68.5985 Y-247.5850
G1 X70.7992 Y-247.9990
G1 X71.6090 Y-248.4066
G1 X70.8662 Y-248.0038
G1 X71.3531 Y-248.1792
G1 X71.5245 Y-248.3316
G1 X71.8184 Y-249.2185
G1 X71.7099 Y-249.5529
G1 X71.5602 Y-249.7084
G1 X70.4344 Y-250.0976
G1 X70.2066 Y-250.0970
G1 X69.5248 Y-249.8827
G1 X68.6140 Y-249.3315
G1 X68.5486 Y-249.1324
G1 X68.5874 Y-247.6542
G1 Z0.0000 F8000.0
G0 X68.5874 Y-249.3555 F15000.0
G1 Z11.9000 F8000.0
G1 X67.8977 Y-250.3671 F12000.0
G1 Z0.0000 F8000.0
G0 X68.9553 Y-249.5395 F15000.0
G1 Z11.9000 F8000.0
G1 X69.5071 Y-249.9073 F12000.0
G1 Z0.0000 F8000.0
G0 X73.2776 Y-245.8609 F15000.0
G1 Z11.9000 F8000.0
G1 X73.7307 Y-245.9996 F12000.0
G1 X74.0391 Y-246.3439
G1 X74.3914 Y-247.1164
G1 Z0.0000 F8000.0
G0 X74.0919 Y-246.4430 F15000.0
G1 Z11.9000 F8000.0
G1 X74.1972 Y-246.6886 F12000.0
G1 Z0.0000 F8000.0
G0 X78.0597 Y-245.9989 F15000.0
G1 Z11.9000 F8000.0
G1 X78.2704 Y-246.4019 F12000.0
G1 X78.7034 Y-246.5966
G1 Z0.0000 F8000.0
G0 X83.3476 Y-247.6542 F15000.0
G1 Z11.9000 F8000.0
G1 X83.3465 Y-249.3023 F12000.0
G1 X84.2448 Y-249.8625
G1 X85.0378 Y-250.1073
G1 X86.3781 Y-249.6714
G1 X86.5858 Y-249.1476
G1 X86.4053 Y-248.4858
G1 X86.0823 Y-248.1581
G1 X86.1216 Y-248.2124
G1 X85.5077 Y-247.9845
G1 X83.3385 Y-247.5518
G1 X83.4659 Y-246.3919
G1 X83.5545 Y-246.1864
G1 X83.9393 Y-245.9237
G1 X85.0023 Y-245.7856
G1 X86.0974 Y-246.1560
G1 X86.6257 Y-246.7486
G1 X86.6234 Y-246.9364
G1 X86.0296 Y-248.0785
G1 X85.5547 Y-247.9761
G1 Z0.0000 F8000.0
G0 X83.5271 Y-249.4475 F15000.0
G1 Z11.9000 F8000.0
G1 X83.3364 Y-249.4214 F12000.0
G1 X82.6579 Y-250.3671
G1 Z0.0000 F8000.0
G0 X87.3480 Y-244.0676 F15000.0
G1 Z11.9000 F8000.0
G1 X90.6729 Y-244.0904 F12000.0
G1 X90.7311 Y-244.1522
G1 X90.7967 Y-249.9073
G1 Z0.0000 F8000.0
G0 X160.1018 Y-245.5174 F15000.0
G1 Z11.9000 F8000.0
G1 X161.0151 Y-245.6948 F12000.0
G1 X161.1331 Y-245.8280
G1 X161.2212 Y-246.1506
G1 X161.1355 Y-247.1349
G1 X160.9991 Y-247.3170
G1 X160.6812 Y-247.4117
G1 X160.3474 Y-247.2992
G1 X160.1787 Y-247.1525
G1 X160.1274 Y-246.9365
G1 X160.2989 Y-246.2594
G1 X160.4905 Y-246.1531
G1 X160.8373 Y-246.1522
G1 X161.0870 Y-246.2754
G1 X160.4566 Y-246.1894
G1 X160.2707 Y-246.2755
G1 X160.1965 Y-246.4632
G1 X160.2397 Y-247.2648
G1 Z0.0000 F8000.0
G0 X161.8491 Y-247.4027 F15000.0
G1 Z11.9000 F8000.0
G1 X161.9569 Y-247.2334 F12000.0
G1 X161.9122 Y-246.6577
G1 X162.0417 Y-246.2132
G1 X162.2221 Y-246.1555
G1 X162.7565 Y-246.3567
G1 X162.8572 Y-247.1497
G1 X162.7884 Y-247.3507
G1 X162.5889 Y-247.4261
G1 X161.8581 Y-247.3910
G1 X161.9689 Y-246.7651
G1 X162.5654 Y-246.8326
G1 X162.1347 Y-247.3071
G1 X161.9870 Y-247.3107
G1 Z0.0000 F8000.0
G0 X163.4584 Y-247.1268 F15000.0
G1 Z11.9000 F8000.0
G1 X163.5044 Y-247.2188 F12000.0
G1 Z0.0000 F8000.0
G0 X164.4241 Y-247.2648 F15000.0
G1 Z11.9000 F8000.0
G1 X163.8585 Y-247.4184 F12000.0
G1 X163.6540 Y-247.3495
G1 X163.4384 Y-247.0233
G1 X163.5323 Y-246.3288
G1 X163.6861 Y-246.1699
G1 X164.1400 Y-246.1731
G1 X164.4013 Y-246.3588
G1 X164.4700 Y-248.0005
G1 Z0.0000 F8000.0
G0 X165.7575 Y-247.4027 F15000.0
G1 Z11.9000 F8000.0
G1 X165.4230 Y-247.3779 F12000.0
G1 X165.1342 Y-247.2166
G1 X165.2493 Y-246.8268
G1 X165.3891 Y-246.7608
G1 X165.2224 Y-246.6916
G1 X165.1841 Y-246.2642
G1 X165.4650 Y-246.1391
G1 X165.6789 Y-246.1694
G1 X165.8495 Y-246.3451
G1 Z0.0000 F8000.0
G0 X166.5852 Y-246.1612 F15000.0
G1 Z11.9000 F8000.0
G1 X166.4697 Y-246.6232 F12000.0
G1 X166.4692 Y-247.3476
G1 X166.7649 Y-247.2553
G1 X167.1152 Y-246.8391
G1 X166.5253 Y-246.7575
G1 X166.4111 Y-247.3851
G1 X167.2321 Y-247.4065
G1 X167.3581 Y-246.9411
G1 X167.2405 Y-246.8615
G1 X167.4159 Y-247.2351
G1 X167.3363 Y-246.3787
G1 X166.6772 Y-246.1152
G1 Z0.0000 F8000.0
G0 X167.9187 Y-246.2072 F15000.0
G1 Z11.9000 F8000.0
G1 X168.0053 Y-245.8570 F12000.0
G1 X169.1313 Y-245.6032
G1 X169.2122 Y-245.7502
G1 X169.2494 Y-247.3185
G1 X169.1526 Y-246.5938
G1 X167.9647 Y-246.2991
G1 Z0.0000 F8000.0
G0 X151.6252 Y-247.4253 F15000.0
G1 Z11.9000 F8000.0
G1 X152.2526 Y-247.3221 F12000.0
G1 X152.6473 Y-247.4799
G1 X153.0077 Y-248.1960
G1 X152.7831 Y-248.5710
G1 X152.2631 Y-248.7721
G1 X152.1195 Y-248.9720
G1 X151.3953 Y-248.4829
G1 Z0.0000 F8000.0
G0 X151.5332 Y-247.4713 F15000.0
G1 Z11.9000 F8000.0
G1 X151.3009 Y-248.1468 F12000.0
G1 X151.3355 Y-248.3562
G1 X151.5812 Y-248.5847
G1 X152.1300 Y-248.6691
G1 X152.2230 Y-247.3334
G1 Z0.0000 F8000.0
G0 X150.4757 Y-247.7932 F15000.0
G1 Z11.9000 F8000.0
G1 X150.4919 Y-247.8911 F12000.0
G1 X149.6044 Y-248.2426
G1 X149.7228 Y-247.8677
G1 X149.9570 Y-247.7264
G1 X150.5067 Y-247.8780
G1 X150.6878 Y-248.2970
G1 X150.6116 Y-248.7622
G1 X150.4768 Y-248.9248
G1 X150.0281 Y-249.0513
G1 X149.7066 Y-249.0485
G1 X149.2064 Y-249.4199
G1 X149.0504 Y-249.0725
G1 X148.1141 Y-249.0790
G1 X147.7492 Y-249.4185
G1 X147.7686 Y-249.1696
G1 X147.9382 Y-248.9331
G1 X148.0154 Y-247.7729
G1 X148.5421 Y-247.7033
G1 X148.7181 Y-247.7778
G1 X148.9123 Y-248.6208
G1 Z0.0000 F8000.0
G0 X146.8891 Y-249.0347 F15000.0
G1 Z11.9000 F8000.0
G1 X147.1260 Y-248.8306 F12000.0
G1 X147.1716 Y-248.0313
G1 X146.9623 Y-247.7628
G1 X147.2013 Y-248.1469
G1 X147.2569 Y-248.4842
G1 X147.2515 Y-248.2934
G1 X147.2215 Y-248.6144
G1 X146.9158 Y-248.9805
G1 X146.7108 Y-249.0627
G1 X146.3696 Y-249.0073
G1 X146.0880 Y-248.6023
G1 X146.1769 Y-248.0214
G1 X146.4619 Y-247.7260
G1 X146.8891 Y-247.7012
G1 Z0.0000 F8000.0
G0 X145.4636 Y-248.8967 F15000.0
G1 Z11.9000 F8000.0
G1 X145.3793 Y-247.8670 F12000.0
G1 X144.8272 Y-247.7290
G1 X144.6218 Y-247.7923
G1 X144.4945 Y-247.9792
G1 X144.3905 Y-248.5553
G1 X144.5722 Y-248.9384
G1 X144.7404 Y-249.0393
G1 X145.3999 Y-248.9434
G1 X145.5096 Y-249.6324
G1 Z0.0000 F8000.0
G0 X143.4864 Y-249.0347 F15000.0
G1 Z11.9000 F8000.0
G1 X143.7233 Y-248.8306 F12000.0
G1 X143.7689 Y-248.0313
G1 X143.5596 Y-247.7628
G1 X143.7986 Y-248.1469
G1 X143.8704 Y-248.4871
G1 X143.8566 Y-248.2874
G1 X143.8189 Y-248.6132
G1 X143.5218 Y-248.9729
G1 X143.3197 Y-249.0625
G1 X142.8955 Y-248.9629
G1 X142.7235 Y-248.7200
G1 X142.6845 Y-248.5003
G1 X142.8719 Y-247.8492
G1 X143.0483 Y-247.7301
G1 X143.4864 Y-247.7012
G1 Z0.0000 F8000.0
G0 X142.0610 Y-248.3450 F15000.0
G1 Z11.9000 F8000.0
G1 X141.0690 Y-248.6189 F12000.0
G1 X141.3392 Y-249.0217
G1 X142.0186 Y-248.4362
G1 X142.0144 Y-248.3466
G1 X141.2729 Y-247.8028
G1 X141.1905 Y-247.8141
G1 X141.1184 Y-247.9996
G1 X141.1701 Y-248.4197
G1 X141.0494 Y-248.5749
G1 Z0.0000 F8000.0
G0 X138.4959 Y-247.1034 F15000.0
G1 Z11.9000 F8000.0
G1 X139.1961 Y-247.9139 F12000.0
G1 X139.5933 Y-248.0828
G1 X139.3159 Y-248.0554
G1 X139.2361 Y-248.1732
G1 X139.6307 Y-248.9499
G1 X138.4521 Y-249.1500
G1 X139.0525 Y-248.3152
G1 X139.6534 Y-247.9983
G1 X139.6914 Y-247.1494
G1 Z0.0000 F8000.0
G0 X137.0705 Y-247.1954 F15000.0
G1 Z11.9000 F8000.0
G1 X137.0503 Y-247.8934 F12000.0
G1 X136.9926 Y-247.9578
G1 X136.0589 Y-248.0231
G1 Z0.0000 F8000.0
G0 X137.0705 Y-248.0691 F15000.0
G1 Z11.9000 F8000.0
G1 X136.9932 Y-248.9776 F12000.0
G1 X135.7432 Y-248.5420
G1 X135.9924 Y-247.9818
G1 X135.9090 Y-247.7318
G1 X137.0245 Y-247.1034
G1 Z0.0000 F8000.0
G0 X167.9177 Y-251.6872 F15000.0
G1 Z11.9000 F8000.0
G1 X168.0165 Y-249.9393 F12000.0
G1 X169.2971 Y-251.6872
G1 Z0.0000 F8000.0
G0 X167.1820 Y-251.5492 F15000.0
G1 Z11.9000 F8000.0
G1 X166.6163 Y-251.7029 F12000.0
G1 X166.2815 Y-251.5142
G1 X166.1928 Y-251.3139
G1 X166.2883 Y-250.6167
G1 X166.4405 Y-250.4562
G1 X166.8938 Y-250.4568
G1 X167.1581 Y-250.6399
G1 X167.2279 Y-252.2850
G1 Z0.0000 F8000.0
G0 X164.8829 Y-250.3997 F15000.0
G1 Z11.9000 F8000.0
G1 X165.4348 Y-250.5388 F12000.0
G1 X165.6403 Y-251.1339
G1 X165.5292 Y-251.4658
G1 X165.3845 Y-251.6283
G1 X165.0577 Y-251.7029
G1 X164.6688 Y-251.5633
G1 X164.7105 Y-251.6312
G1 X164.5397 Y-251.2588
G1 X164.6948 Y-250.5754
G1 X164.8113 Y-250.4490
G1 X164.0253 Y-250.9487
G1 X163.1197 Y-251.1405
G1 X163.0004 Y-251.4481
G1 X163.0045 Y-251.3600
G1 X163.0331 Y-251.5852
G1 X163.3027 Y-251.6754
G1 X163.8303 Y-251.2111
G1 X163.9248 Y-251.0337
G1 X163.2444 Y-250.4508
G1 X163.1588 Y-250.4718
G1 X163.0718 Y-250.6654
G1 X163.0896 Y-251.6872
G1 Z0.0000 F8000.0
G0 X150.4433 Y-250.3643 F15000.0
G1 Z11.9000 F8000.0
G1 X150.8091 Y-251.3758 F12000.0
G1 X151.0440 Y-251.7221
G1 X151.1201 Y-252.1798
G1 X151.3874 Y-252.4312
G1 X151.1927 Y-252.3089
G1 X151.2198 Y-252.3784
G1 X151.0303 Y-251.6949
G1 X151.5469 Y-250.4103
G1 Z0.0000 F8000.0
G0 X152.1906 Y-251.7438 F15000.0
G1 Z11.9000 F8000.0
G1 X152.2550 Y-249.8910 F12000.0
G1 X153.6620 Y-251.7438
G1 Z0.0000 F8000.0
G0 X149.7536 Y-251.8357 F15000.0
G1 Z11.9000 F8000.0
G1 X149.9246 Y-251.6708 F12000.0
G1 X149.6914 Y-251.8399
G1 X149.3490 Y-251.8408
G1 X149.1643 Y-251.7224
G1 X149.1044 Y-251.5220
G1 X149.3049 Y-251.1293
G1 X149.4770 Y-251.0926
G1 X149.2234 Y-250.9050
G1 X149.2665 Y-250.4684
G1 X149.5758 Y-250.3902
G1 X149.8915 Y-250.5022
G1 Z0.0000 F8000.0
G0 X148.3741 Y-250.5022 F15000.0
G1 Z11.9000 F8000.0
G1 X148.1839 Y-250.4140 F12000.0
G1 X147.5302 Y-250.9521
G1 X148.2808 Y-251.1642
G1 X148.4548 Y-251.3108
G1 X148.5018 Y-251.6293
G1 X148.3622 Y-251.8023
G1 X148.1496 Y-251.8510
G1 X147.7141 Y-251.7170
G1 X147.4686 Y-251.1038
G1 X147.3756 Y-251.7429
G1 X146.7521 Y-251.6952
G1 X146.7188 Y-250.5525
G1 X146.6482 Y-251.0317
G1 X145.9587 Y-251.0889
G1 X145.7772 Y-251.0356
G1 X145.7106 Y-250.5384
G1 X145.6887 Y-251.6980
G1 X145.5378 Y-251.7552
G1 X145.0216 Y-251.6091
G1 X145.1199 Y-251.0714
G1 X144.9217 Y-250.5423
G1 X144.5662 Y-250.3674
G1 X144.2309 Y-250.4250
G1 X144.0377 Y-250.6654
G1 X143.9701 Y-251.4712
G1 X144.1781 Y-251.7724
G1 X144.0049 Y-251.5820
G1 X144.4096 Y-251.8467
G1 X144.8795 Y-251.7438
G1 Z0.0000 F8000.0
G0 X143.2701 Y-251.1460 F15000.0
G1 Z11.9000 F8000.0
G1 X143.2098 Y-250.4992 F12000.0
G1 X143.1505 Y-250.4652
G1 X142.3542 Y-250.8508
G1 X142.3989 Y-251.0657
G1 X143.1913 Y-251.1317
G1 X142.6239 Y-251.7671
G1 X142.4255 Y-251.7631
G1 X142.2932 Y-251.6108
G1 X142.3622 Y-250.9911
G1 X142.3085 Y-251.1852
G1 X141.3464 Y-250.4136
G1 X140.6703 Y-250.9462
G1 X141.4140 Y-251.1571
G1 X141.5951 Y-251.2963
G1 X141.6558 Y-251.6142
G1 X141.5248 Y-251.7929
G1 X141.3155 Y-251.8500
G1 X140.6601 Y-251.6619
G1 X140.5722 Y-251.7151
G1 X140.6032 Y-251.0540
G1 Z0.0000 F8000.0
G0 X168.5922 Y-256.3438 F15000.0
G1 Z11.9000 F8000.0
G1 X167.2128 Y-256.3438 F12000.0
G1 Z0.0000 F8000.0
G0 X167.9945 Y-256.3438 F15000.0
G1 Z11.9000 F8000.0
G1 X167.9485 Y-258.2750 F12000.0
G1 Z0.0000 F8000.0
G0 X166.2012 Y-258.2750 F15000.0
G1 Z11.9000 F8000.0
G1 X166.1781 Y-257.6921 F12000.0
G1 X165.7114 Y-257.3878
G1 X165.3368 Y-256.9964
G1 X164.8650 Y-257.2749
G1 X164.8494 Y-257.8276
G1 X164.6396 Y-258.1784
G1 X164.8243 Y-257.9309
G1 X164.4483 Y-258.2760
G1 X164.0024 Y-258.1883
G1 X163.7575 Y-257.9672
G1 X163.8274 Y-257.2710
G1 X163.9183 Y-257.0787
G1 X164.4711 Y-256.9705
G1 X164.7757 Y-257.1714
G1 Z0.0000 F8000.0
G0 X165.3735 Y-258.2750 F15000.0
G1 Z11.9000 F8000.0
G1 X165.7460 Y-257.5386 F12000.0
G1 X165.6779 Y-257.7834
G1 X166.1669 Y-257.4967
G1 X166.2012 Y-256.9875
G1 Z0.0000 F8000.0
G0 X163.1204 Y-256.9875 F15000.0
G1 Z11.9000 F8000.0
G1 X163.1204 Y-258.1864 F12000.0
G1 X163.1002 Y-257.6708
G1 X162.9433 Y-257.5962
G1 X162.1754 Y-257.7004
G1 X162.1116 Y-258.1974
G1 X162.0529 Y-257.0137
G1 X160.5914 Y-256.9415
G1 Z0.0000 F8000.0
G0 X161.1432 Y-256.9415 F15000.0
G1 Z11.9000 F8000.0
G1 X161.0664 Y-258.2187 F12000.0
G1 X160.0505 Y-258.1533
G1 X159.3785 Y-258.2580
G1 X159.0987 Y-258.0485
G1 X159.0040 Y-257.8493
G1 X159.0929 Y-257.1515
G1 X159.3683 Y-257.0056
G1 X159.9346 Y-257.1005
G1 X160.0682 Y-257.8790
G1 X160.0617 Y-258.7839
G1 X159.0740 Y-258.0451
G1 Z0.0000 F8000.0
G0 X42.3541 Y-258.4605 F15000.0
G1 Z11.9000 F8000.0
G1 X42.4159 Y-256.2451 F12000.0
G1 X44.0094 Y-258.5525
G1 Z0.0000 F8000.0
G0 X41.4344 Y-258.2766 F15000.0
G1 Z11.9000 F8000.0
G1 X41.1446 Y-258.1052 F12000.0
G1 X40.2726 Y-257.0133
G1 X40.0879 Y-256.9744
G1 X39.4206 Y-257.1073
G1 X39.5113 Y-257.9965
G1 X39.2039 Y-258.4674
G1 X38.9993 Y-258.5048
G1 X38.2563 Y-258.2319
G1 X37.2484 Y-258.4245
G1 X37.1611 Y-258.2928
G1 X37.2217 Y-256.9209
G1 X37.8019 Y-256.8511
G1 Z0.0000 F8000.0
G0 X38.3536 Y-257.0810 F15000.0
G1 Z11.9000 F8000.0
G1 X38.7554 Y-256.8444 F12000.0
G1 X39.3193 Y-256.9891
G1 Z0.0000 F8000.0
G0 X40.2389 Y-258.4605 F15000.0
G1 Z11.9000 F8000.0
G1 X40.3667 Y-257.2452 F12000.0
G1 X40.8986 Y-257.7824
G1 X41.0598 Y-258.0581
G1 X40.7463 Y-257.5340
G1 Z0.0000 F8000.0
G0 X41.0061 Y-257.9759 F15000.0
G1 Z11.9000 F8000.0
G1 X41.4119 Y-258.1993 F12000.0
G1 X41.4804 Y-256.8971
G1 Z0.0000 F8000.0
G0 X37.1581 Y-256.8971 F15000.0
G1 Z11.9000 F8000.0
G1 X36.5603 Y-256.8511 F12000.0
G1 Z0.0000 F8000.0
G0 X18.7213 Y-256.8671 F15000.0
G1 Z11.9000 F8000.0
G1 X17.6487 Y-256.8775 F12000.0
G1 X17.0692 Y-257.1699
G1 X16.8928 Y-256.9784
G1 X17.0655 Y-257.2970
G1 X17.1137 Y-257.8730
G1 X16.6888 Y-258.3975
G1 X16.0143 Y-258.2188
G1 X15.8771 Y-258.0587
G1 X15.7966 Y-257.7161
G1 X15.9158 Y-257.1462
G1 X16.4090 Y-256.8531
G1 X16.8361 Y-256.9131
G1 Z0.0000 F8000.0
G0 X17.0660 Y-258.0627 F15000.0
G1 Z11.9000 F8000.0
G1 X16.8361 Y-258.3386 F12000.0
G1 Z0.0000 F8000.0
G0 X18.1695 Y-258.3845 F15000.0
G1 Z11.9000 F8000.0
G1 X18.2155 Y-256.8671 F12000.0
G1 Z0.0000 F8000.0
G0 X19.3191 Y-256.9591 F15000.0
G1 Z11.9000 F8000.0
G1 X19.7756 Y-256.8474 F12000.0
G1 X20.0923 Y-256.9797
G1 X20.3302 Y-257.3724
G1 X20.3442 Y-257.9592
G1 X20.1826 Y-258.2646
G1 X19.8894 Y-258.4007
G1 X19.3276 Y-258.2613
G1 X19.1352 Y-258.0167
G1 Z0.0000 F8000.0
G0 X21.0664 Y-258.3386 F15000.0
G1 Z11.9000 F8000.0
G1 X21.4831 Y-257.4934 F12000.0
G1 X21.4605 Y-257.3979
G1 X21.1836 Y-257.1887
G1 X21.4299 Y-257.3454
G1 X21.8199 Y-257.9020
G1 X22.1418 Y-258.0435
G1 X22.1744 Y-256.9729
G1 X21.5397 Y-257.3746
G1 X21.7904 Y-257.8547
G1 X22.1672 Y-258.2288
G1 X22.1700 Y-258.1546
G1 Z0.0000 F8000.0
G0 X23.0436 Y-258.3386 F15000.0
G1 Z11.9000 F8000.0
G1 X23.1070 Y-256.2530 F12000.0
G1 X24.3867 Y-258.3486
G1 X24.5610 Y-258.4305
G1 Z0.0000 F8000.0
G0 X15.0888 Y-257.6488 F15000.0
G1 Z11.9000 F8000.0
G1 X15.0133 Y-258.3306 F12000.0
G1 X14.1290 Y-258.3257
G1 X14.0255 Y-258.2102
G1 X14.1376 Y-257.6603
G1 X14.0821 Y-257.2240
G1 X14.3873 Y-256.9263
G1 X15.0154 Y-257.5133
G1 X14.2151 Y-257.6028
G1 Z0.0000 F8000.0
G0 X19.4421 Y-263.7390 F15000.0
G1 Z11.9000 F8000.0
G1 X19.6195 Y-264.2743 F12000.0
G1 X20.5513 Y-264.7535
G1 X19.5659 Y-264.3044
G1 X19.4881 Y-267.6015
G1 Z0.0000 F8000.0
G0 X16.9591 Y-267.6475 F15000.0
G1 Z11.9000 F8000.0
G1 X17.3627 Y-267.3120 F12000.0
G1 X16.9054 Y-267.6505
G1 X16.0973 Y-267.6016
G1 X15.6545 Y-267.2426
G1 X15.4174 Y-266.7586
G1 X15.3225 Y-266.1736
G1 X15.4081 Y-265.6754
G1 X15.7636 Y-265.8542
G1 Z0.0000 F8000.0
G0 X17.0051 Y-266.0381 F15000.0
G1 Z11.9000 F8000.0
G1 X17.3250 Y-265.7828 F12000.0
G1 X17.5623 Y-265.3503
G1 X17.4649 Y-265.5783
G1 Z0.0000 F8000.0
G0 X17.5109 Y-264.4747 F15000.0
G1 Z11.9000 F8000.0
G1 X17.0276 Y-263.8820 F12000.0
G1 X17.4688 Y-264.4443
G1 X17.4148 Y-265.6044
G1 X16.9004 Y-266.0804
G1 X16.0844 Y-266.0324
G1 X15.3898 Y-265.6116
G1 X15.4054 Y-264.6803
G1 X15.6445 Y-264.1605
G1 X15.8918 Y-263.9553
G1 X16.5621 Y-263.7619
G1 X16.9591 Y-263.8310
G1 Z0.0000 F8000.0
G0 X14.2922 Y-266.3140 F15000.0
G1 Z11.9000 F8000.0
G1 X13.2228 Y-266.3393 F12000.0
G1 X12.1954 Y-266.9273
G1 X11.9659 Y-267.3222
G1 X11.7200 Y-267.5488
G1 X10.7951 Y-267.6586
G1 X10.4149 Y-267.5019
G1 X10.5815 Y-267.5999
G1 X10.2282 Y-267.3268
G1 X9.9976 Y-266.8491
G1 X10.2516 Y-265.9459
G1 X10.6136 Y-265.5323
G1 Z0.0000 F8000.0
G0 X11.3033 Y-265.7163 F15000.0
G1 Z11.9000 F8000.0
G1 X10.6336 Y-265.5121 F12000.0
G1 X10.3564 Y-265.1720
G1 X10.1800 Y-264.7494
G1 X10.3292 Y-264.1862
G1 X11.1399 Y-263.7696
G1 X11.8565 Y-264.0352
G1 X12.0850 Y-264.4747
G1 Z0.0000 F8000.0
G0 X22.2470 Y-263.8310 F15000.0
G1 Z11.9000 F8000.0
G1 X23.8681 Y-263.8535 F12000.0
G1 X23.9768 Y-264.1222
G1 X24.1101 Y-265.4258
G1 X23.0944 Y-265.2370
G1 X22.6449 Y-265.3825
G1 X22.3829 Y-265.5693
G1 X22.1300 Y-266.0875
G1 X22.2372 Y-267.0323
G1 X22.4325 Y-267.3810
G1 X22.9457 Y-267.6234
G1 X23.5362 Y-267.6743
G1 X23.7367 Y-267.5712
G1 X24.2676 Y-267.0209
G1 X23.9965 Y-267.4397
G1 X23.7285 Y-267.6085
G1 X22.4824 Y-267.4324
G1 X22.3850 Y-267.3256
G1 Z0.0000 F8000.0
G0 X25.3738 Y-266.3140 F15000.0
G1 Z11.9000 F8000.0
G1 X26.4314 Y-266.3140 F12000.0
G1 Z0.0000 F8000.0
G0 X28.7305 Y-267.5555 F15000.0
G1 Z11.9000 F8000.0
G1 X28.7764 Y-263.7850 F12000.0
G1 Z0.0000 F8000.0
G0 X30.2019 Y-263.7850 F15000.0
G1 Z11.9000 F8000.0
G1 X27.3050 Y-263.7850 F12000.0
G1 Z0.0000 F8000.0
G0 X31.3974 Y-267.6015 F15000.0
G1 Z11.9000 F8000.0
G1 X31.4876 Y-263.8208 F12000.0
G1 X33.4354 Y-263.8362
G1 X33.6206 Y-267.2625
G1 X33.7228 Y-267.5046
G1 X34.2023 Y-267.6935
G1 Z0.0000 F8000.0
G0 X108.2833 Y-266.5279 F15000.0
G1 Z11.9000 F8000.0
G1 X108.5064 Y-266.0549 F12000.0
G1 X108.5917 Y-265.5884
G1 X108.4201 Y-264.5362
G1 X108.1608 Y-264.1447
G1 X107.5576 Y-263.8098
G1 X106.9635 Y-263.7827
G1 X106.4285 Y-264.0134
G1 X105.9851 Y-264.4986
G1 X105.3029 Y-264.7118
G1 X104.4951 Y-264.8008
G1 X104.4397 Y-264.8679
G1 X104.4208 Y-266.8958
G1 Z0.0000 F8000.0
G0 X106.0761 Y-266.2061 F15000.0
G1 Z11.9000 F8000.0
G1 X106.2306 Y-266.5262 F12000.0
G1 X106.4904 Y-266.8016
G1 X107.2890 Y-266.9740
G1 X107.7522 Y-266.8859
G1 X108.1199 Y-266.6432
G1 X107.7775 Y-266.8958
G1 Z0.0000 F8000.0
G0 X108.5132 Y-264.6887 F15000.0
G1 Z11.9000 F8000.0
G1 X108.4672 Y-264.5967 F12000.0
G1 Z0.0000 F8000.0
G0 X104.4208 Y-264.7806 F15000.0
G1 Z11.9000 F8000.0
G1 X103.5890 Y-264.7545 F12000.0
G1 X102.8283 Y-265.0519
G1 X102.5800 Y-264.8352
G1 X102.2949 Y-264.7304
G1 X101.8229 Y-264.7108
G1 X101.3895 Y-264.8764
G1 X101.2819 Y-265.0606
G1 X101.2299 Y-265.7165
G1 X102.4968 Y-265.9451
G1 X102.7083 Y-266.0437
G1 X102.8396 Y-266.2231
G1 X102.7883 Y-266.7827
G1 X102.3645 Y-266.9739
G1 X102.0214 Y-266.9899
G1 X101.2667 Y-266.7818
G1 X100.9567 Y-267.0597
G1 X101.2157 Y-266.7310
G1 X101.2481 Y-265.7462
G1 Z0.0000 F8000.0
G0 X100.0065 Y-266.9418 F15000.0
G1 Z11.9000 F8000.0
G1 X98.3164 Y-264.8340 F12000.0
G1 X98.2592 Y-266.8958
G1 Z0.0000 F8000.0
G0 X97.2017 Y-265.7003 F15000.0
G1 Z11.9000 F8000.0
G1 X95.6930 Y-265.9905 F12000.0
G1 X95.6265 Y-266.1224
G1 X95.6530 Y-266.6186
G1 X97.1276 Y-266.8609
G1 X97.1829 Y-266.8053
G1 X97.2017 Y-264.7806
G1 Z0.0000 F8000.0
G0 X89.8618 Y-263.8610 F15000.0
G1 Z11.9000 F8000.0
G1 X89.2859 Y-263.8052 F12000.0
G1 X88.8809 Y-264.0567
G1 X88.7514 Y-264.2992
G1 X88.5848 Y-266.0717
G1 X88.7236 Y-266.5433
G1 X88.9762 Y-266.9039
G1 X89.2488 Y-266.9865
G1 X89.7379 Y-266.9702
G1 X90.2955 Y-266.4350
G1 X90.3915 Y-264.7654
G1 Z0.0000 F8000.0
G0 X89.9001 Y-263.9277 F15000.0
G1 Z11.9000 F8000.0
G1 X90.4136 Y-264.7806 F12000.0
G1 Z0.0000 F8000.0
G0 X90.4136 Y-266.0681 F15000.0
G1 Z11.9000 F8000.0
G1 X90.3217 Y-266.2520 F12000.0
G1 Z0.0000 F8000.0
G0 X90.0458 Y-266.8038 F15000.0
G1 Z11.9000 F8000.0
G1 X89.8618 Y-266.8958 F12000.0
G1 Z0.0000 F8000.0
G0 X89.0342 Y-266.8958 F15000.0
G1 Z11.9000 F8000.0
G1 X88.9422 Y-266.8038 F12000.0
G1 Z0.0000 F8000.0
G0 X91.4252 Y-266.9877 F15000.0
G1 Z11.9000 F8000.0
G1 X92.9317 Y-266.8620 F12000.0
G1 X92.8139 Y-266.4486
G1 X92.1299 Y-265.8397
G1 X91.4250 Y-265.0151
G1 X91.3540 Y-264.7310
G1 X91.4874 Y-264.1605
G1 X91.5891 Y-264.0202
G1 X92.1138 Y-263.7932
G1 X92.8047 Y-263.9529
G1 Z0.0000 F8000.0
G0 X86.1315 Y-266.8498 F15000.0
G1 Z11.9000 F8000.0
G1 X86.0614 Y-263.8866 F12000.0
G1 X85.8909 Y-263.8169
G1 X84.3480 Y-263.8400
G1 X83.6888 Y-264.4583
G1 X83.8241 Y-264.8888
G1 X83.8229 Y-265.8396
G1 X83.7249 Y-266.0394
G1 X82.9399 Y-266.8770
G1 X83.1406 Y-266.8016
G1 X83.5732 Y-266.4166
G1 Z0.0000 F8000.0
G0 X83.7905 Y-266.0141 F15000.0
G1 Z11.9000 F8000.0
G1 X83.5273 Y-266.4820 F12000.0
G1 X82.8344 Y-266.9332
G1 X82.4840 Y-266.9739
G1 X81.8971 Y-266.8884
G1 X81.4289 Y-266.5875
G1 X81.1716 Y-266.1637
G1 X81.0412 Y-265.7119
G1 X81.1195 Y-264.7613
G1 X81.2895 Y-264.3298
G1 X81.6405 Y-264.0053
G1 X82.1830 Y-263.7865
G1 X83.0083 Y-263.8712
G1 X83.4949 Y-264.2200
G1 X83.0507 Y-263.8610
G1 Z0.0000 F8000.0
G0 X79.6941 Y-264.1828 F15000.0
G1 Z11.9000 F8000.0
G1 X79.9599 Y-264.7139 F12000.0
G1 X80.0495 Y-265.5426
G1 X79.9754 Y-266.0108
G1 X79.7767 Y-266.4375
G1 X79.4032 Y-266.8078
G1 X78.8502 Y-266.9678
G1 X78.1515 Y-266.8525
G1 X77.6784 Y-266.5090
G1 X77.7257 Y-266.6001
G1 X77.6736 Y-266.5126
G1 X77.9927 Y-266.8498
G1 Z0.0000 F8000.0
G0 X75.6477 Y-266.8958 F15000.0
G1 Z11.9000 F8000.0
G1 X75.6936 Y-263.8150 F12000.0
G1 Z0.0000 F8000.0
G0 X76.7972 Y-263.8150 F15000.0
G1 Z11.9000 F8000.0
G1 X74.4981 Y-263.8150 F12000.0
G1 Z0.0000 F8000.0
G0 X77.5789 Y-264.4587 F15000.0
G1 Z11.9000 F8000.0
G1 X77.7864 Y-264.0929 F12000.0
G1 X78.3805 Y-263.7857
G1 X79.1983 Y-263.8635
G1 X79.5808 Y-264.1388
G1 X79.8760 Y-264.5241
G1 X79.6021 Y-264.0909
G1 Z0.0000 F8000.0
G0 X69.3123 Y-264.5967 F15000.0
G1 Z11.9000 F8000.0
G1 X69.3733 Y-264.7217 F12000.0
G1 X68.8347 Y-263.8819
G1 X68.3666 Y-263.8005
G1 X67.8024 Y-264.1338
G1 X67.6596 Y-264.7034
G1 X67.5782 Y-266.0890
G1 X67.7212 Y-266.5598
G1 X68.0231 Y-266.9369
G1 X68.7860 Y-266.9429
G1 X69.3055 Y-266.3732
G1 X69.3892 Y-264.7940
G1 X68.8866 Y-263.9172
G1 X69.1284 Y-264.2288
G1 Z0.0000 F8000.0
G0 X69.4043 Y-266.0681 F15000.0
G1 Z11.9000 F8000.0
G1 X69.3123 Y-266.2520 F12000.0
G1 Z0.0000 F8000.0
G0 X69.0364 Y-266.8038 F15000.0
G1 Z11.9000 F8000.0
G1 X68.8525 Y-266.8958 F12000.0
G1 Z0.0000 F8000.0
G0 X68.0248 Y-266.8958 F15000.0
G1 Z11.9000 F8000.0
G1 X67.7489 Y-266.6199 F12000.0
G1 Z0.0000 F8000.0
G0 X66.1855 Y-266.8958 F15000.0
G1 Z11.9000 F8000.0
G1 X66.3127 Y-266.7686 F12000.0
G1 X66.0433 Y-266.9678
G1 X65.1760 Y-266.8647
G1 X64.8779 Y-266.4803
G1 X64.7413 Y-266.0193
G1 X64.8897 Y-265.4582
G1 X65.4269 Y-265.0360
G1 X66.3610 Y-265.1191
G1 X66.4585 Y-264.6874
G1 X66.3335 Y-264.0283
G1 X66.1661 Y-263.8647
G1 X64.9900 Y-263.8610
G1 Z0.0000 F8000.0
G0 X63.7945 Y-264.5967 F15000.0
G1 Z11.9000 F8000.0
G1 X63.8864 Y-264.7806 F12000.0
G1 Z0.0000 F8000.0
G0 X63.6105 Y-264.2288 F15000.0
G1 Z11.9000 F8000.0
G1 X63.3731 Y-263.9283 F12000.0
G1 Z0.0000 F8000.0
G0 X63.6053 Y-264.2314 F15000.0
G1 Z11.9000 F8000.0
G1 X63.8638 Y-264.7641 F12000.0
G1 X63.7690 Y-266.4338
G1 X63.2121 Y-266.9699
G1 X62.6309 Y-266.9702
G1 X62.2132 Y-266.5709
G1 X62.0628 Y-266.1036
G1 X62.2779 Y-264.1450
G1 X62.7454 Y-263.8354
G1 X63.3346 Y-263.8610
G1 Z0.0000 F8000.0
G0 X63.8864 Y-266.0681 F15000.0
G1 Z11.9000 F8000.0
G1 X63.7945 Y-266.2520 F12000.0
G1 Z0.0000 F8000.0
G0 X63.5186 Y-266.8038 F15000.0
G1 Z11.9000 F8000.0
G1 X63.3346 Y-266.8958 F12000.0
G1 Z0.0000 F8000.0
G0 X62.2311 Y-266.6199 F15000.0
G1 Z11.9000 F8000.0
G1 X62.4150 Y-266.8958 F12000.0
G1 X62.5070 Y-266.8958
G1 X62.2311 Y-266.6199
G1 X62.4150 Y-266.8038
G1 Z0.0000 F8000.0
G0 X61.1275 Y-265.9761 F15000.0
G1 Z11.9000 F8000.0
G1 X60.3918 Y-265.9761 F12000.0
G1 Z0.0000 F8000.0
G0 X58.7365 Y-266.1601 F15000.0
G1 Z11.9000 F8000.0
G1 X58.6445 Y-265.9761 F12000.0
G1 Z0.0000 F8000.0
G0 X57.7249 Y-266.9877 F15000.0
G1 Z11.9000 F8000.0
G1 X59.2313 Y-266.8620 F12000.0
G1 X59.1665 Y-266.5259
G1 X57.7305 Y-265.0300
G1 X57.6723 Y-264.5551
G1 X57.8187 Y-264.1011
G1 X58.3979 Y-263.7924
G1 X59.1963 Y-264.0449
G1 Z0.0000 F8000.0
G0 X56.6213 Y-264.5967 F15000.0
G1 Z11.9000 F8000.0
G1 X56.6823 Y-264.7217 F12000.0
G1 X56.1437 Y-263.8819
G1 X55.6756 Y-263.8005
G1 X55.1114 Y-264.1338
G1 X54.9686 Y-264.7034
G1 X54.8872 Y-266.0890
G1 X54.9885 Y-266.4703
G1 X55.2896 Y-266.9122
G1 X55.5661 Y-266.9867
G1 X56.0537 Y-266.9667
G1 X56.6023 Y-266.4201
G1 X56.7025 Y-264.8437
G1 X56.4730 Y-264.3036
G1 X56.2088 Y-263.9298
G1 X56.4374 Y-264.2288
G1 Z0.0000 F8000.0
G0 X56.7133 Y-266.0681 F15000.0
G1 Z11.9000 F8000.0
G1 X56.6213 Y-266.2520 F12000.0
G1 Z0.0000 F8000.0
G0 X56.3454 Y-266.8038 F15000.0
G1 Z11.9000 F8000.0
G1 X56.1615 Y-266.8958 F12000.0
G1 Z0.0000 F8000.0
G0 X55.3338 Y-266.8958 F15000.0
G1 Z11.9000 F8000.0
G1 X55.2418 Y-266.8038 F12000.0
G1 Z0.0000 F8000.0
G0 X52.7588 Y-266.8958 F15000.0
G1 Z11.9000 F8000.0
G1 X52.8797 Y-264.2849 F12000.0
G1 X53.6785 Y-264.5967
G1 Z0.0000 F8000.0
G0 X50.9196 Y-264.0449 F15000.0
G1 Z11.9000 F8000.0
G1 X50.3065 Y-263.7940 F12000.0
G1 X49.9296 Y-263.8995
G1 X49.6984 Y-264.0772
G1 X49.5599 Y-264.7352
G1 X49.6831 Y-264.9953
G1 X49.5823 Y-264.8339
G1 X49.8605 Y-265.2324
G1 X49.5041 Y-265.5770
G1 X49.3736 Y-266.2399
G1 X49.4121 Y-266.4214
G1 X49.7614 Y-266.8807
G1 X50.6318 Y-266.9633
G1 X50.8513 Y-266.8452
G1 X50.8276 Y-266.8958
G1 Z0.0000 F8000.0
G0 X70.9676 Y-266.8958 F15000.0
G1 Z11.9000 F8000.0
G1 X71.0885 Y-264.2849 F12000.0
G1 X71.8873 Y-264.5967
G1 Z0.0000 F8000.0
G0 X169.2729 Y-265.4462 F15000.0
G1 Z11.9000 F8000.0
G1 X169.2729 Y-267.1888 F12000.0
G1 X169.2214 Y-266.3088
G1 X167.9763 Y-266.2806
G1 X167.8969 Y-265.5398
G1 X167.8934 Y-267.3315
G1 Z0.0000 F8000.0
G0 X166.3300 Y-267.3315 F15000.0
G1 Z11.9000 F8000.0
G1 X166.3069 Y-266.7486 F12000.0
G1 X165.8402 Y-266.4443
G1 X165.5023 Y-265.9980
G1 Z0.0000 F8000.0
G0 X166.3300 Y-266.0440 F15000.0
G1 Z11.9000 F8000.0
G1 X166.2594 Y-266.5805 F12000.0
G1 X165.8216 Y-266.8340
G1 X165.9015 Y-266.6090
G1 X165.9027 Y-266.7109
G1 X165.5287 Y-267.2557
G1 X165.0255 Y-266.9009
G1 X164.9405 Y-266.3301
G1 X164.6958 Y-266.0409
G1 X164.7541 Y-266.0870
G1 X164.3824 Y-265.9993
G1 X164.0668 Y-266.1058
G1 X163.9638 Y-266.2881
G1 X163.8751 Y-266.9879
G1 X163.9940 Y-267.1717
G1 X164.4283 Y-267.3414
G1 X164.6382 Y-267.2961
G1 X164.9539 Y-267.0124
G1 X164.8059 Y-267.2289
G1 X164.6285 Y-267.3177
G1 X163.3494 Y-267.2994
G1 X163.2952 Y-266.1229
G1 X163.2531 Y-266.6071
G1 X162.3687 Y-266.7226
G1 X162.2890 Y-267.2321
G1 X162.2524 Y-266.0975
G1 X161.8318 Y-266.0072
G1 X160.7202 Y-265.9980
G1 Z0.0000 F8000.0
G0 X161.2720 Y-265.9980 F15000.0
G1 Z11.9000 F8000.0
G1 X161.1952 Y-267.2752 F12000.0
G1 X160.1794 Y-267.2098
G1 X159.5074 Y-267.3146
G1 X159.2277 Y-267.1050
G1 X159.1329 Y-266.9058
G1 X159.2218 Y-266.2080
G1 X159.4972 Y-266.0622
G1 X160.0634 Y-266.1570
G1 X160.1971 Y-266.9356
G1 X160.1905 Y-267.8404
G1 X159.2028 Y-267.1016
G1 Z0.0000 F8000.0
G0 X169.0333 Y-268.1729 F15000.0
G1 Z11.9000 F8000.0
G1 X168.2486 Y-269.4713 F12000.0
G1 X168.4091 Y-270.0101
G1 X168.5373 Y-270.1125
G1 X168.7278 Y-270.0833
G1 X168.0499 Y-269.3044
G1 X167.4780 Y-268.2597
G1 X167.0405 Y-268.7510
G1 X166.0904 Y-268.7706
G1 Z0.0000 F8000.0
G0 X166.6422 Y-268.7706 F15000.0
G1 Z11.9000 F8000.0
G1 X166.5709 Y-270.0336 F12000.0
G1 X165.5101 Y-269.4297
G1 X164.9173 Y-269.4537
G1 X164.6249 Y-269.5745
G1 X164.6914 Y-269.4251
G1 X164.6900 Y-268.8840
G1 X164.5742 Y-269.6440
G1 X164.6356 Y-269.8416
G1 X164.8443 Y-270.0862
G1 X165.5309 Y-269.5248
G1 X165.5444 Y-269.4354
G1 X164.7570 Y-268.8166
G1 Z0.0000 F8000.0

G0 Z0.0000 F800.0
G4 P0.06
G0 X0.0000 Y0.0000 F15000.0
M5
G4 P0.10
$1=0
