$X
$1=255
G21
G90
G92 Z4.0000
G0 Z0.0000 F800.0
G4 P0.06
G92 Z0.0000
G0 Z0.0000 F800.0
G4 P0.06
G92 Z0.0000
G0 X0.0000 Y0.0000 F15000.0
G21
G90
G17
G91.1
G0 Z0.0000
G0 X123.8607 Y-246.4659 F15000.0
G1 Z11.9000 F2500.0
G4 P0.02
G1 X123.8607 Y-237.9962 F12000.0
G1 Z0.0000 F2500.0
G4 P0.02
G0 X123.9323 Y-238.2322 F15000.0
G1 Z11.9000 F2500.0
G4 P0.02
G1 X123.9323 Y-236.9291 F12000.0
G1 Z0.0000 F2500.0
G4 P0.02
G0 X123.8607 Y-234.0871 F15000.0
G1 Z11.9000 F2500.0
G4 P0.02
G1 X123.8607 Y-225.6173 F12000.0
G1 Z0.0000 F2500.0
G4 P0.02
G0 X123.8607 Y-224.3867 F15000.0
G1 Z11.9000 F2500.0
G4 P0.02
G1 X123.8607 Y-223.0113 F12000.0
G1 Z0.0000 F2500.0
G4 P0.02
G0 X123.8607 Y-221.7082 F15000.0
G1 Z11.9000 F2500.0
G4 P0.02
G1 X123.8607 Y-213.3109 F12000.0
G1 Z0.0000 F2500.0
G4 P0.02
G0 X123.8607 Y-212.0079 F15000.0
G1 Z11.9000 F2500.0
G4 P0.02
G1 X123.8607 Y-210.6324 F12000.0
G1 Z0.0000 F2500.0
G4 P0.02
G0 X123.8607 Y-209.4018 F15000.0
G1 Z11.9000 F2500.0
G4 P0.02
G1 X123.8607 Y-200.9321 F12000.0
G1 Z0.0000 F2500.0
G4 P0.02
G0 X62.5457 Y-196.0095 F15000.0
G1 Z11.9000 F2500.0
G4 P0.02
G1 X77.3858 Y-196.0095 F12000.0
G1 Z0.0000 F2500.0
G4 P0.02
G0 X78.6889 Y-196.0095 F15000.0
G1 Z11.9000 F2500.0
G4 P0.02
G1 X79.9919 Y-196.0095 F12000.0
G1 Z0.0000 F2500.0
G4 P0.02
G0 X81.2949 Y-196.0095 F15000.0
G1 Z11.9000 F2500.0
G4 P0.02
G1 X96.1350 Y-196.0095 F12000.0
G1 Z0.0000 F2500.0
G4 P0.02
G0 X97.4380 Y-196.0095 F15000.0
G1 Z11.9000 F2500.0
G4 P0.02
G1 X98.7411 Y-196.0095 F12000.0
G1 Z0.0000 F2500.0
G4 P0.02
G0 X100.0441 Y-196.0095 F15000.0
G1 Z11.9000 F2500.0
G4 P0.02
G1 X114.8843 Y-196.0095 F12000.0
G1 Z0.0000 F2500.0
G4 P0.02
G0 X116.1873 Y-196.0095 F15000.0
G1 Z11.9000 F2500.0
G4 P0.02
G1 X117.4903 Y-196.0095 F12000.0
G1 Z0.0000 F2500.0
G4 P0.02
G0 X118.7934 Y-196.0095 F15000.0
G1 Z11.9000 F2500.0
G4 P0.02
G1 X133.6335 Y-196.0095 F12000.0
G1 Z0.0000 F2500.0
G4 P0.02
G0 X134.9365 Y-196.0095 F15000.0
G1 Z11.9000 F2500.0
G4 P0.02
G1 X136.2395 Y-196.0095 F12000.0
G1 Z0.0000 F2500.0
G4 P0.02
G0 X137.5426 Y-196.0095 F15000.0
G1 Z11.9000 F2500.0
G4 P0.02
G1 X152.3827 Y-196.0095 F12000.0
G1 Z0.0000 F2500.0
G4 P0.02
G0 X153.6858 Y-196.0095 F15000.0
G1 Z11.9000 F2500.0
G4 P0.02
G1 X154.9888 Y-196.0095 F12000.0
G1 Z0.0000 F2500.0
G4 P0.02
G0 X156.2918 Y-196.0095 F15000.0
G1 Z11.9000 F2500.0
G4 P0.02
G1 X171.1319 Y-196.0095 F12000.0
G1 Z0.0000 F2500.0
G4 P0.02
G0 X169.3945 Y-203.5381 F15000.0
G1 Z11.9000 F2500.0
G4 P0.02
G1 X169.3945 Y-188.4809 F12000.0
G1 X156.5813 Y-188.4809 F12000.0
G1 X156.5813 Y-203.5381 F12000.0
G1 X169.3945 Y-203.5381 F12000.0
G1 Z0.0000 F2500.0
G4 P0.02
G0 X64.2830 Y-208.8227 F15000.0
G1 Z11.9000 F2500.0
G4 P0.02
G1 X95.9178 Y-208.8227 F12000.0
G1 Z0.0000 F2500.0
G4 P0.02
G0 X64.2830 Y-183.1239 F15000.0
G1 Z11.9000 F2500.0
G4 P0.02
G1 X95.9178 Y-183.1239 F12000.0
G1 X95.9178 Y-208.8227 F12000.0
G1 Z0.0000 F2500.0
G4 P0.02
G0 X165.7750 Y-184.8613 F15000.0
G1 Z11.9000 F2500.0
G4 P0.02
G1 X169.3945 Y-188.4809 F12000.0
G1 Z0.0000 F2500.0
G4 P0.02
G0 X161.4316 Y-184.2098 F15000.0
G1 Z11.9000 F2500.0
G4 P0.02
G1 X166.4265 Y-189.1324 F12000.0
G1 Z0.0000 F2500.0
G4 P0.02
G0 X154.8440 Y-181.2418 F15000.0
G1 Z11.9000 F2500.0
G4 P0.02
G1 X162.8070 Y-189.1324 F12000.0
G1 Z0.0000 F2500.0
G4 P0.02
G0 X148.2564 Y-178.2738 F15000.0
G1 Z11.9000 F2500.0
G4 P0.02
G1 X159.1874 Y-189.1324 F12000.0
G1 Z0.0000 F2500.0
G4 P0.02
G0 X142.2479 Y-175.8849 F15000.0
G1 Z11.9000 F2500.0
G4 P0.02
G1 X155.5679 Y-189.1324 F12000.0
G1 Z0.0000 F2500.0
G4 P0.02
G0 X138.6284 Y-175.8849 F15000.0
G1 Z11.9000 F2500.0
G4 P0.02
G1 X152.8171 Y-190.0734 F12000.0
G1 Z0.0000 F2500.0
G4 P0.02
G0 X165.5578 Y-202.8143 F15000.0
G1 Z11.9000 F2500.0
G4 P0.02
G1 X169.3945 Y-206.6510 F12000.0
G1 Z0.0000 F2500.0
G4 P0.02
G0 X161.9383 Y-202.8143 F15000.0
G1 Z11.9000 F2500.0
G4 P0.02
G1 X166.2094 Y-207.1577 F12000.0
G1 Z0.0000 F2500.0
G4 P0.02
G0 X135.0089 Y-175.8849 F15000.0
G1 Z11.9000 F2500.0
G4 P0.02
G1 X151.5140 Y-192.3900 F12000.0
G1 Z0.0000 F2500.0
G4 P0.02
G0 X131.3894 Y-175.8849 F15000.0
G1 Z11.9000 F2500.0
G4 P0.02
G1 X149.3423 Y-193.8378 F12000.0
G1 Z0.0000 F2500.0
G4 P0.02
G0 X158.3187 Y-202.8143 F15000.0
G1 Z11.9000 F2500.0
G4 P0.02
G1 X162.7346 Y-207.2301 F12000.0
G1 Z0.0000 F2500.0
G4 P0.02
G0 X154.6992 Y-202.8143 F15000.0
G1 Z11.9000 F2500.0
G4 P0.02
G1 X160.3457 Y-208.4607 F12000.0
G1 Z0.0000 F2500.0
G4 P0.02
G0 X149.9938 Y-198.1812 F15000.0
G1 Z11.9000 F2500.0
G4 P0.02
G1 X151.5140 Y-199.6290 F12000.0
G1 Z0.0000 F2500.0
G4 P0.02
G0 X139.4971 Y-187.6122 F15000.0
G1 Z11.9000 F2500.0
G4 P0.02
G1 X145.7227 Y-193.8378 F12000.0
G1 Z0.0000 F2500.0
G4 P0.02
G0 X127.7698 Y-175.8849 F15000.0
G1 Z11.9000 F2500.0
G4 P0.02
G1 X138.9180 Y-187.0330 F12000.0
G1 Z0.0000 F2500.0
G4 P0.02
G0 X124.1503 Y-175.8849 F15000.0
G1 Z11.9000 F2500.0
G4 P0.02
G1 X135.2261 Y-187.0330 F12000.0
G1 Z0.0000 F2500.0
G4 P0.02
G0 X139.4971 Y-191.3041 F15000.0
G1 Z11.9000 F2500.0
G4 P0.02
G1 X142.1032 Y-193.8378 F12000.0
G1 Z0.0000 F2500.0
G4 P0.02
G0 X146.3742 Y-198.1812 F15000.0
G1 Z11.9000 F2500.0
G4 P0.02
G1 X157.8844 Y-209.6914 F12000.0
G1 Z0.0000 F2500.0
G4 P0.02
G0 X142.7547 Y-198.1812 F15000.0
G1 Z11.9000 F2500.0
G4 P0.02
G1 X155.4955 Y-210.8496 F12000.0
G1 Z0.0000 F2500.0
G4 P0.02
G0 X120.5308 Y-175.8849 F15000.0
G1 Z11.9000 F2500.0
G4 P0.02
G1 X131.6066 Y-187.0330 F12000.0
G1 Z0.0000 F2500.0
G4 P0.02
G0 X116.9112 Y-175.8849 F15000.0
G1 Z11.9000 F2500.0
G4 P0.02
G1 X127.9870 Y-187.0330 F12000.0
G1 Z0.0000 F2500.0
G4 P0.02
G0 X140.1486 Y-199.1947 F15000.0
G1 Z11.9000 F2500.0
G4 P0.02
G1 X153.0342 Y-212.0803 F12000.0
G1 Z0.0000 F2500.0
G4 P0.02
G0 X139.4971 Y-202.1628 F15000.0
G1 Z11.9000 F2500.0
G4 P0.02
G1 X150.6453 Y-213.3109 F12000.0
G1 Z0.0000 F2500.0
G4 P0.02
G0 X113.2916 Y-175.8849 F15000.0
G1 Z11.9000 F2500.0
G4 P0.02
G1 X124.3675 Y-187.0330 F12000.0
G1 Z0.0000 F2500.0
G4 P0.02
G0 X109.5997 Y-175.8849 F15000.0
G1 Z11.9000 F2500.0
G4 P0.02
G1 X120.7479 Y-187.0330 F12000.0
G1 Z0.0000 F2500.0
G4 P0.02
G0 X138.7008 Y-204.9860 F15000.0
G1 Z11.9000 F2500.0
G4 P0.02
G1 X148.2564 Y-214.5415 F12000.0
G1 Z0.0000 F2500.0
G4 P0.02
G0 X135.0812 Y-204.9860 F15000.0
G1 Z11.9000 F2500.0
G4 P0.02
G1 X145.9399 Y-215.8446 F12000.0
G1 Z0.0000 F2500.0
G4 P0.02
G0 X105.9802 Y-175.8849 F15000.0
G1 Z11.9000 F2500.0
G4 P0.02
G1 X113.9432 Y-183.8478 F12000.0
G1 Z0.0000 F2500.0
G4 P0.02
G0 X102.3607 Y-175.8849 F15000.0
G1 Z11.9000 F2500.0
G4 P0.02
G1 X110.3236 Y-183.8478 F12000.0
G1 Z0.0000 F2500.0
G4 P0.02
G0 X131.4617 Y-204.9860 F15000.0
G1 Z11.9000 F2500.0
G4 P0.02
G1 X143.4062 Y-216.9304 F12000.0
G1 Z0.0000 F2500.0
G4 P0.02
G0 X127.8422 Y-204.9860 F15000.0
G1 Z11.9000 F2500.0
G4 P0.02
G1 X141.8136 Y-219.0298 F12000.0
G1 Z0.0000 F2500.0
G4 P0.02
G0 X101.7092 Y-178.9253 F15000.0
G1 Z11.9000 F2500.0
G4 P0.02
G1 X106.6317 Y-183.8478 F12000.0
G1 Z0.0000 F2500.0
G4 P0.02
G0 X98.0896 Y-178.9253 F15000.0
G1 Z11.9000 F2500.0
G4 P0.02
G1 X103.0122 Y-183.8478 F12000.0
G1 Z0.0000 F2500.0
G4 P0.02
G0 X125.5981 Y-206.3614 F15000.0
G1 Z11.9000 F2500.0
G4 P0.02
G1 X139.5695 Y-220.4052 F12000.0
G1 Z0.0000 F2500.0
G4 P0.02
G0 X125.5981 Y-210.0533 F15000.0
G1 Z11.9000 F2500.0
G4 P0.02
G1 X135.9499 Y-220.4052 F12000.0
G1 Z0.0000 F2500.0
G4 P0.02
G0 X120.5308 Y-204.9860 F15000.0
G1 Z11.9000 F2500.0
G4 P0.02
G1 X122.1957 Y-206.5786 F12000.0
G1 Z0.0000 F2500.0
G4 P0.02
G0 X94.4700 Y-178.9253 F15000.0
G1 Z11.9000 F2500.0
G4 P0.02
G1 X99.3926 Y-183.8478 F12000.0
G1 Z0.0000 F2500.0
G4 P0.02
G0 X90.8505 Y-178.9253 F15000.0
G1 Z11.9000 F2500.0
G4 P0.02
G1 X95.7731 Y-183.8478 F12000.0
G1 Z0.0000 F2500.0
G4 P0.02
G0 X117.2732 Y-205.3479 F15000.0
G1 Z11.9000 F2500.0
G4 P0.02
G1 X122.1957 Y-210.1981 F12000.0
G1 Z0.0000 F2500.0
G4 P0.02
G0 X125.5981 Y-213.6728 F15000.0
G1 Z11.9000 F2500.0
G4 P0.02
G1 X135.8776 Y-223.8799 F12000.0
G1 Z0.0000 F2500.0
G4 P0.02
G0 X125.5981 Y-217.2924 F15000.0
G1 Z11.9000 F2500.0
G4 P0.02
G1 X135.8776 Y-227.5719 F12000.0
G1 Z0.0000 F2500.0
G4 P0.02
G0 X116.5492 Y-208.1712 F15000.0
G1 Z11.9000 F2500.0
G4 P0.02
G1 X122.1957 Y-213.8900 F12000.0
G1 Z0.0000 F2500.0
G4 P0.02
G0 X87.2309 Y-178.9253 F15000.0
G1 Z11.9000 F2500.0
G4 P0.02
G1 X92.1536 Y-183.8478 F12000.0
G1 Z0.0000 F2500.0
G4 P0.02
G0 X83.6114 Y-178.9253 F15000.0
G1 Z11.9000 F2500.0
G4 P0.02
G1 X88.5340 Y-183.8478 F12000.0
G1 Z0.0000 F2500.0
G4 P0.02
G0 X112.8573 Y-208.1712 F15000.0
G1 Z11.9000 F2500.0
G4 P0.02
G1 X122.1957 Y-217.5096 F12000.0
G1 Z0.0000 F2500.0
G4 P0.02
G0 X125.5981 Y-220.9119 F15000.0
G1 Z11.9000 F2500.0
G4 P0.02
G1 X135.8776 Y-231.1915 F12000.0
G1 Z0.0000 F2500.0
G4 P0.02
G0 X131.6066 Y-230.5400 F15000.0
G1 Z11.9000 F2500.0
G4 P0.02
G1 X135.8776 Y-234.8110 F12000.0
G1 Z0.0000 F2500.0
G4 P0.02
G0 X109.2378 Y-208.1712 F15000.0
G1 Z11.9000 F2500.0
G4 P0.02
G1 X122.1957 Y-221.1291 F12000.0
G1 Z0.0000 F2500.0
G4 P0.02
G0 X79.9919 Y-178.9253 F15000.0
G1 Z11.9000 F2500.0
G4 P0.02
G1 X84.9144 Y-183.8478 F12000.0
G1 Z0.0000 F2500.0
G4 P0.02
G0 X76.3723 Y-178.9253 F15000.0
G1 Z11.9000 F2500.0
G4 P0.02
G1 X81.2949 Y-183.8478 F12000.0
G1 Z0.0000 F2500.0
G4 P0.02
G0 X105.6182 Y-208.1712 F15000.0
G1 Z11.9000 F2500.0
G4 P0.02
G1 X121.4718 Y-224.0248 F12000.0
G1 Z0.0000 F2500.0
G4 P0.02
G0 X131.6066 Y-234.1595 F15000.0
G1 Z11.9000 F2500.0
G4 P0.02
G1 X135.8776 Y-238.4305 F12000.0
G1 Z0.0000 F2500.0
G4 P0.02
G0 X131.6066 Y-237.7790 F15000.0
G1 Z11.9000 F2500.0
G4 P0.02
G1 X135.8776 Y-242.0500 F12000.0
G1 Z0.0000 F2500.0
G4 P0.02
G0 X101.9987 Y-208.1712 F15000.0
G1 Z11.9000 F2500.0
G4 P0.02
G1 X119.6621 Y-225.8345 F12000.0
G1 Z0.0000 F2500.0
G4 P0.02
G0 X72.7528 Y-178.9253 F15000.0
G1 Z11.9000 F2500.0
G4 P0.02
G1 X77.6753 Y-183.8478 F12000.0
G1 Z0.0000 F2500.0
G4 P0.02
G0 X69.0608 Y-178.9253 F15000.0
G1 Z11.9000 F2500.0
G4 P0.02
G1 X73.9835 Y-183.8478 F12000.0
G1 Z0.0000 F2500.0
G4 P0.02
G0 X98.3791 Y-208.1712 F15000.0
G1 Z11.9000 F2500.0
G4 P0.02
G1 X110.5408 Y-220.4052 F12000.0
G1 Z0.0000 F2500.0
G4 P0.02
G0 X111.9162 Y-221.7082 F15000.0
G1 Z11.9000 F2500.0
G4 P0.02
G1 X117.8523 Y-227.7167 F12000.0
G1 Z0.0000 F2500.0
G4 P0.02
G0 X131.6066 Y-241.3985 F15000.0
G1 Z11.9000 F2500.0
G4 P0.02
G1 X135.7328 Y-245.5248 F12000.0
G1 Z0.0000 F2500.0
G4 P0.02
G0 X131.6066 Y-245.0181 F15000.0
G1 Z11.9000 F2500.0
G4 P0.02
G1 X132.9819 Y-246.4659 F12000.0
G1 Z0.0000 F2500.0
G4 P0.02
G0 X111.9162 Y-225.3278 F15000.0
G1 Z11.9000 F2500.0
G4 P0.02
G1 X116.1873 Y-229.6713 F12000.0
G1 Z0.0000 F2500.0
G4 P0.02
G0 X105.9078 Y-219.3917 F15000.0
G1 Z11.9000 F2500.0
G4 P0.02
G1 X106.9212 Y-220.4052 F12000.0
G1 Z0.0000 F2500.0
G4 P0.02
G0 X101.8539 Y-215.3379 F15000.0
G1 Z11.9000 F2500.0
G4 P0.02
G1 X103.5189 Y-216.9304 F12000.0
G1 Z0.0000 F2500.0
G4 P0.02
G0 X94.7596 Y-208.1712 F15000.0
G1 Z11.9000 F2500.0
G4 P0.02
G1 X99.6822 Y-213.0937 F12000.0
G1 Z0.0000 F2500.0
G4 P0.02
G0 X65.4413 Y-178.9253 F15000.0
G1 Z11.9000 F2500.0
G4 P0.02
G1 X70.3639 Y-183.8478 F12000.0
G1 Z0.0000 F2500.0
G4 P0.02
G0 X91.1400 Y-208.1712 F15000.0
G1 Z11.9000 F2500.0
G4 P0.02
G1 X96.0627 Y-213.0937 F12000.0
G1 Z0.0000 F2500.0
G4 P0.02
G0 X111.9162 Y-229.0198 F15000.0
G1 Z11.9000 F2500.0
G4 P0.02
G1 X116.1873 Y-233.2908 F12000.0
G1 Z0.0000 F2500.0
G4 P0.02
G0 X111.9162 Y-232.6393 F15000.0
G1 Z11.9000 F2500.0
G4 P0.02
G1 X116.1873 Y-236.9103 F12000.0
G1 Z0.0000 F2500.0
G4 P0.02
G0 X87.5205 Y-208.1712 F15000.0
G1 Z11.9000 F2500.0
G4 P0.02
G1 X92.4431 Y-213.0937 F12000.0
G1 Z0.0000 F2500.0
G4 P0.02
G0 X83.9010 Y-208.1712 F15000.0
G1 Z11.9000 F2500.0
G4 P0.02
G1 X88.7511 Y-213.0937 F12000.0
G1 Z0.0000 F2500.0
G4 P0.02
G0 X111.9162 Y-236.2588 F15000.0
G1 Z11.9000 F2500.0
G4 P0.02
G1 X116.1873 Y-240.5298 F12000.0
G1 Z0.0000 F2500.0
G4 P0.02
G0 X111.9162 Y-239.8783 F15000.0
G1 Z11.9000 F2500.0
G4 P0.02
G1 X116.1873 Y-244.1494 F12000.0
G1 Z0.0000 F2500.0
G4 P0.02
G0 X80.2091 Y-208.1712 F15000.0
G1 Z11.9000 F2500.0
G4 P0.02
G1 X85.1316 Y-213.0937 F12000.0
G1 Z0.0000 F2500.0
G4 P0.02
G0 X76.5895 Y-208.1712 F15000.0
G1 Z11.9000 F2500.0
G4 P0.02
G1 X81.5121 Y-213.0937 F12000.0
G1 Z0.0000 F2500.0
G4 P0.02
G0 X111.9162 Y-243.4979 F15000.0
G1 Z11.9000 F2500.0
G4 P0.02
G1 X114.8843 Y-246.4659 F12000.0
G1 Z0.0000 F2500.0
G4 P0.02
G0 X72.9699 Y-208.1712 F15000.0
G1 Z11.9000 F2500.0
G4 P0.02
G1 X77.8925 Y-213.0937 F12000.0
G1 Z0.0000 F2500.0
G4 P0.02
G0 X69.3504 Y-208.1712 F15000.0
G1 Z11.9000 F2500.0
G4 P0.02
G1 X74.2730 Y-213.0937 F12000.0
G1 Z0.0000 F2500.0
G4 P0.02
G0 X65.7309 Y-208.1712 F15000.0
G1 Z11.9000 F2500.0
G4 P0.02
G1 X70.6535 Y-213.0937 F12000.0
G1 Z0.0000 F2500.0
G4 P0.02
G0 X64.2830 Y-210.3429 F15000.0
G1 Z11.9000 F2500.0
G4 P0.02
G1 X67.0339 Y-213.0937 F12000.0
G1 Z0.0000 F2500.0
G4 P0.02
G0 X65.2966 Y-208.1712 F15000.0
G1 Z11.9000 F2500.0
G4 P0.02
G1 X65.2966 Y-183.8478 F12000.0
G1 Z0.0000 F2500.0
G4 P0.02
G0 X64.2830 Y-209.2570 F15000.0
G1 Z11.9000 F2500.0
G4 P0.02
G1 X64.2830 Y-182.7620 F12000.0
G1 Z0.0000 F2500.0
G4 P0.02
G0 X117.2732 Y-204.9860 F15000.0
G1 Z11.9000 F2500.0
G4 P0.02
G1 X117.2732 Y-198.9775 F12000.0
G1 Z0.0000 F2500.0
G4 P0.02
G0 X125.5981 Y-204.9860 F15000.0
G1 Z11.9000 F2500.0
G4 P0.02
G1 X125.3086 Y-204.9136 F12000.0
G1 X124.8018 Y-204.8412 F12000.0
G1 X124.0055 Y-204.8412 F12000.0
G1 X122.9197 Y-204.8412 F12000.0
G1 X122.3405 Y-204.9860 F12000.0
G1 Z0.0000 F2500.0
G4 P0.02
G0 X131.6066 Y-246.4659 F15000.0
G1 Z11.9000 F2500.0
G4 P0.02
G1 X116.1873 Y-246.4659 F12000.0
G1 Z0.0000 F2500.0
G4 P0.02
G0 X131.6066 Y-229.3817 F15000.0
G1 Z11.9000 F2500.0
G4 P0.02
G1 X116.1873 Y-229.3817 F12000.0
G1 Z0.0000 F2500.0
G4 P0.02
G0 X125.5981 Y-223.3733 F15000.0
G1 Z11.9000 F2500.0
G4 P0.02
G1 X122.1957 Y-223.3733 F12000.0
G1 Z0.0000 F2500.0
G4 P0.02
G0 X141.2345 Y-193.8378 F15000.0
G1 Z11.9000 F2500.0
G4 P0.02
G1 X141.2345 Y-198.1812 F12000.0
G1 Z0.0000 F2500.0
G4 P0.02
G0 X150.6453 Y-193.8378 F15000.0
G1 Z11.9000 F2500.0
G4 P0.02
G1 X150.6453 Y-198.1812 F12000.0
G1 Z0.0000 F2500.0
G4 P0.02
G0 X153.3238 Y-189.1324 F15000.0
G1 Z11.9000 F2500.0
G4 P0.02
G1 X153.3238 Y-202.8143 F12000.0
G1 Z0.0000 F2500.0
G4 P0.02
G0 X139.4971 Y-198.9775 F15000.0
G1 Z11.9000 F2500.0
G4 P0.02
G1 X117.2732 Y-198.9775 F12000.0
G1 Z0.0000 F2500.0
G4 P0.02
G0 X139.4971 Y-193.0415 F15000.0
G1 Z11.9000 F2500.0
G4 P0.02
G1 X117.2732 Y-193.0415 F12000.0
G1 Z0.0000 F2500.0
G4 P0.02
G0 X168.7430 Y-189.1324 F15000.0
G1 Z11.9000 F2500.0
G4 P0.02
G1 X168.7430 Y-202.8143 F12000.0
G1 Z0.0000 F2500.0
G4 P0.02
G0 X64.2830 Y-209.2570 F15000.0
G1 Z11.9000 F2500.0
G4 P0.02
G1 X65.2966 Y-208.1712 F12000.0
G1 Z0.0000 F2500.0
G4 P0.02
G0 X145.9399 Y-215.6998 F15000.0
G1 Z11.9000 F2500.0
G4 P0.02
G1 X163.0242 Y-207.1577 F12000.0
G1 Z0.0000 F2500.0
G4 P0.02
G0 X117.2732 Y-208.1712 F15000.0
G1 Z11.9000 F2500.0
G4 P0.02
G1 X65.2966 Y-208.1712 F12000.0
G1 Z0.0000 F2500.0
G4 P0.02
G0 X105.9078 Y-220.4052 F15000.0
G1 Z11.9000 F2500.0
G4 P0.02
G1 X111.9162 Y-220.4052 F12000.0
G1 Z0.0000 F2500.0
G4 P0.02
G0 X135.8776 Y-220.4052 F15000.0
G1 Z11.9000 F2500.0
G4 P0.02
G1 X141.8136 Y-220.4052 F12000.0
G1 Z0.0000 F2500.0
G4 P0.02
G0 X135.8776 Y-245.3800 F15000.0
G1 Z11.9000 F2500.0
G4 P0.02
G1 X134.7917 Y-246.4659 F12000.0
G1 Z0.0000 F2500.0
G4 P0.02
G0 X153.3238 Y-202.8143 F15000.0
G1 Z11.9000 F2500.0
G4 P0.02
G1 X168.7430 Y-202.8143 F12000.0
G1 Z0.0000 F2500.0
G4 P0.02
G0 X153.3238 Y-189.1324 F15000.0
G1 Z11.9000 F2500.0
G4 P0.02
G1 X150.6453 Y-193.8378 F12000.0
G1 Z0.0000 F2500.0
G4 P0.02
G0 X139.4971 Y-199.8462 F15000.0
G1 Z11.9000 F2500.0
G4 P0.02
G1 X139.4971 Y-204.9860 F12000.0
G1 Z0.0000 F2500.0
G4 P0.02
G0 X153.3238 Y-202.8143 F15000.0
G1 Z11.9000 F2500.0
G4 P0.02
G1 X150.6453 Y-198.1812 F12000.0
G1 Z0.0000 F2500.0
G4 P0.02
G0 X122.1957 Y-204.9860 F15000.0
G1 Z11.9000 F2500.0
G4 P0.02
G1 X122.1957 Y-223.3733 F12000.0
G1 Z0.0000 F2500.0
G4 P0.02
G0 X131.6066 Y-246.4659 F15000.0
G1 Z11.9000 F2500.0
G4 P0.02
G1 X134.7917 Y-246.4659 F12000.0
G1 Z0.0000 F2500.0
G4 P0.02
G0 X131.6066 Y-229.3817 F15000.0
G1 Z11.9000 F2500.0
G4 P0.02
G1 X131.6066 Y-246.4659 F12000.0
G1 Z0.0000 F2500.0
G4 P0.02
G0 X139.4971 Y-204.9860 F15000.0
G1 Z11.9000 F2500.0
G4 P0.02
G1 X125.5981 Y-204.9860 F12000.0
G1 Z0.0000 F2500.0
G4 P0.02
G0 X64.2830 Y-182.7620 F15000.0
G1 Z11.9000 F2500.0
G4 P0.02
G1 X65.2966 Y-183.8478 F12000.0
G1 Z0.0000 F2500.0
G4 P0.02
G0 X139.4971 Y-199.8462 F15000.0
G1 Z11.9000 F2500.0
G4 P0.02
G1 X141.2345 Y-198.1812 F12000.0
G1 Z0.0000 F2500.0
G4 P0.02
G0 X163.0242 Y-184.8613 F15000.0
G1 Z11.9000 F2500.0
G4 P0.02
G1 X145.9399 Y-177.1879 F12000.0
G1 Z0.0000 F2500.0
G4 P0.02
G0 X141.8136 Y-216.9304 F15000.0
G1 Z11.9000 F2500.0
G4 P0.02
G1 X145.9399 Y-216.9304 F12000.0
G1 Z0.0000 F2500.0
G4 P0.02
G0 X145.9399 Y-177.1879 F15000.0
G1 Z11.9000 F2500.0
G4 P0.02
G1 X145.9399 Y-175.8849 F12000.0
G1 Z0.0000 F2500.0
G4 P0.02
G0 X111.9162 Y-220.4052 F15000.0
G1 Z11.9000 F2500.0
G4 P0.02
G1 X111.9162 Y-245.3800 F12000.0
G1 Z0.0000 F2500.0
G4 P0.02
G0 X117.2732 Y-183.8478 F15000.0
G1 Z11.9000 F2500.0
G4 P0.02
G1 X65.2966 Y-183.8478 F12000.0
G1 Z0.0000 F2500.0
G4 P0.02
G0 X163.0242 Y-184.8613 F15000.0
G1 Z11.9000 F2500.0
G4 P0.02
G1 X169.3945 Y-184.8613 F12000.0
G1 Z0.0000 F2500.0
G4 P0.02
G0 X101.8539 Y-213.0937 F15000.0
G1 Z11.9000 F2500.0
G4 P0.02
G1 X101.8539 Y-216.9304 F12000.0
G1 Z0.0000 F2500.0
G4 P0.02
G0 X139.4971 Y-192.1728 F15000.0
G1 Z11.9000 F2500.0
G4 P0.02
G1 X141.2345 Y-193.8378 F12000.0
G1 Z0.0000 F2500.0
G4 P0.02
G0 X169.3945 Y-203.5381 F15000.0
G1 Z11.9000 F2500.0
G4 P0.02
G1 X168.7430 Y-202.8143 F12000.0
G1 Z0.0000 F2500.0
G4 P0.02
G0 X111.9162 Y-245.3800 F15000.0
G1 Z11.9000 F2500.0
G4 P0.02
G1 X113.0021 Y-246.4659 F12000.0
G1 Z0.0000 F2500.0
G4 P0.02
G0 X125.5981 Y-204.9860 F15000.0
G1 Z11.9000 F2500.0
G4 P0.02
G1 X125.5981 Y-223.3733 F12000.0
G1 Z0.0000 F2500.0
G4 P0.02
G0 X163.0242 Y-207.1577 F15000.0
G1 Z11.9000 F2500.0
G4 P0.02
G1 X169.3945 Y-207.1577 F12000.0
G1 Z0.0000 F2500.0
G4 P0.02
G0 X101.8539 Y-216.9304 F15000.0
G1 Z11.9000 F2500.0
G4 P0.02
G1 X105.9078 Y-216.9304 F12000.0
G1 Z0.0000 F2500.0
G4 P0.02
G0 X141.8136 Y-216.9304 F15000.0
G1 Z11.9000 F2500.0
G4 P0.02
G1 X141.8136 Y-220.4052 F12000.0
G1 Z0.0000 F2500.0
G4 P0.02
G0 X145.9399 Y-216.9304 F15000.0
G1 Z11.9000 F2500.0
G4 P0.02
G1 X145.9399 Y-215.6998 F12000.0
G1 Z0.0000 F2500.0
G4 P0.02
G0 X117.2732 Y-204.9860 F15000.0
G1 Z11.9000 F2500.0
G4 P0.02
G1 X117.2732 Y-208.1712 F12000.0
G1 Z0.0000 F2500.0
G4 P0.02
G0 X153.3238 Y-189.1324 F15000.0
G1 Z11.9000 F2500.0
G4 P0.02
G1 X168.7430 Y-189.1324 F12000.0
G1 Z0.0000 F2500.0
G4 P0.02
G0 X101.8539 Y-178.9253 F15000.0
G1 Z11.9000 F2500.0
G4 P0.02
G1 X64.2830 Y-178.9253 F12000.0
G1 Z0.0000 F2500.0
G4 P0.02
G0 X116.1873 Y-229.3817 F15000.0
G1 Z11.9000 F2500.0
G4 P0.02
G1 X116.1873 Y-246.4659 F12000.0
G1 Z0.0000 F2500.0
G4 P0.02
G0 X169.3945 Y-188.4809 F15000.0
G1 Z11.9000 F2500.0
G4 P0.02
G1 X168.7430 Y-189.1324 F12000.0
G1 Z0.0000 F2500.0
G4 P0.02
G0 X101.8539 Y-175.8849 F15000.0
G1 Z11.9000 F2500.0
G4 P0.02
G1 X101.8539 Y-178.9253 F12000.0
G1 Z0.0000 F2500.0
G4 P0.02
G0 X101.8539 Y-213.0937 F15000.0
G1 Z11.9000 F2500.0
G4 P0.02
G1 X64.2830 Y-213.0937 F12000.0
G1 Z0.0000 F2500.0
G4 P0.02
G0 X125.5981 Y-223.3733 F15000.0
G1 Z11.9000 F2500.0
G4 P0.02
G1 X131.6066 Y-229.3817 F12000.0
G1 Z0.0000 F2500.0
G4 P0.02
G0 X141.2345 Y-198.1812 F15000.0
G1 Z11.9000 F2500.0
G4 P0.02
G1 X150.6453 Y-198.1812 F12000.0
G1 Z0.0000 F2500.0
G4 P0.02
G0 X122.1957 Y-223.3733 F15000.0
G1 Z11.9000 F2500.0
G4 P0.02
G1 X116.1873 Y-229.3817 F12000.0
G1 Z0.0000 F2500.0
G4 P0.02
G0 X101.8539 Y-175.8849 F15000.0
G1 Z11.9000 F2500.0
G4 P0.02
G1 X145.9399 Y-175.8849 F12000.0
G1 Z0.0000 F2500.0
G4 P0.02
G0 X135.8776 Y-220.4052 F15000.0
G1 Z11.9000 F2500.0
G4 P0.02
G1 X135.8776 Y-245.3800 F12000.0
G1 Z0.0000 F2500.0
G4 P0.02
G0 X141.2345 Y-193.8378 F15000.0
G1 Z11.9000 F2500.0
G4 P0.02
G1 X150.6453 Y-193.8378 F12000.0
G1 Z0.0000 F2500.0
G4 P0.02
G0 X105.9078 Y-216.9304 F15000.0
G1 Z11.9000 F2500.0
G4 P0.02
G1 X105.9078 Y-220.4052 F12000.0
G1 Z0.0000 F2500.0
G4 P0.02
G0 X139.4971 Y-187.0330 F15000.0
G1 Z11.9000 F2500.0
G4 P0.02
G1 X117.2732 Y-187.0330 F12000.0
G1 Z0.0000 F2500.0
G4 P0.02
G0 X111.9162 Y-232.7840 F15000.0
G1 Z11.9000 F2500.0
G4 P0.02
G1 X116.1873 Y-232.7840 F12000.0
G1 Z0.0000 F2500.0
G4 P0.02
G0 X112.6401 Y-246.1040 F15000.0
G1 Z11.9000 F2500.0
G4 P0.02
G1 X112.6401 Y-232.7840 F12000.0
G1 Z0.0000 F2500.0
G4 P0.02
G0 X131.6066 Y-232.7840 F15000.0
G1 Z11.9000 F2500.0
G4 P0.02
G1 X129.0005 Y-232.7840 F12000.0
G1 Z0.0000 F2500.0
G4 P0.02
G0 X127.3354 Y-232.7840 F15000.0
G1 Z11.9000 F2500.0
G4 P0.02
G1 X124.7294 Y-232.7840 F12000.0
G1 Z0.0000 F2500.0
G4 P0.02
G0 X123.0644 Y-232.7840 F15000.0
G1 Z11.9000 F2500.0
G4 P0.02
G1 X120.4583 Y-232.7840 F12000.0
G1 Z0.0000 F2500.0
G4 P0.02
G0 X118.7934 Y-232.7840 F15000.0
G1 Z11.9000 F2500.0
G4 P0.02
G1 X116.1873 Y-232.7840 F12000.0
G1 Z0.0000 F2500.0
G4 P0.02
G0 X135.1537 Y-246.1040 F15000.0
G1 Z11.9000 F2500.0
G4 P0.02
G1 X135.1537 Y-232.7840 F12000.0
G1 Z0.0000 F2500.0
G4 P0.02
G0 X131.6066 Y-232.7840 F15000.0
G1 Z11.9000 F2500.0
G4 P0.02
G1 X135.8776 Y-232.7840 F12000.0
G1 Z0.0000 F2500.0
G4 P0.02
G0 X95.4835 Y-208.1712 F15000.0
G1 Z11.9000 F2500.0
G4 P0.02
G1 X95.4835 Y-213.0937 F12000.0
G1 Z0.0000 F2500.0
G4 P0.02
G0 X95.4835 Y-208.1712 F15000.0
G1 Z11.9000 F2500.0
G4 P0.02
G1 X95.4835 Y-204.6964 F12000.0
G1 Z0.0000 F2500.0
G4 P0.02
G0 X95.4835 Y-202.9590 F15000.0
G1 Z11.9000 F2500.0
G4 P0.02
G1 X95.4835 Y-199.4843 F12000.0
G1 Z0.0000 F2500.0
G4 P0.02
G0 X95.4835 Y-197.7469 F15000.0
G1 Z11.9000 F2500.0
G4 P0.02
G1 X95.4835 Y-194.2721 F12000.0
G1 Z0.0000 F2500.0
G4 P0.02
G0 X95.4835 Y-192.5347 F15000.0
G1 Z11.9000 F2500.0
G4 P0.02
G1 X95.4835 Y-189.0600 F12000.0
G1 Z0.0000 F2500.0
G4 P0.02
G0 X95.4835 Y-187.3226 F15000.0
G1 Z11.9000 F2500.0
G4 P0.02
G1 X95.4835 Y-183.8478 F12000.0
G1 Z0.0000 F2500.0
G4 P0.02
G0 X65.2966 Y-208.1712 F15000.0
G1 Z11.9000 F2500.0
G4 P0.02
G1 X64.2830 Y-208.1712 F12000.0
G1 Z0.0000 F2500.0
G4 P0.02
G0 X65.2966 Y-183.8478 F15000.0
G1 Z11.9000 F2500.0
G4 P0.02
G1 X64.2830 Y-183.8478 F12000.0
G1 Z0.0000 F2500.0
G4 P0.02
G0 X95.4835 Y-178.9253 F15000.0
G1 Z11.9000 F2500.0
G4 P0.02
G1 X95.4835 Y-183.8478 F12000.0
G1 Z0.0000 F2500.0
G4 P0.02
G0 X64.2830 Y-213.0937 F15000.0
G1 Z11.9000 F2500.0
G4 P0.02
G1 X42.7830 Y-213.0937 F12000.0
G1 Z0.0000 F2500.0
G4 P0.02
G0 X64.2830 Y-178.9253 F15000.0
G1 Z11.9000 F2500.0
G4 P0.02
G1 X42.7830 Y-178.9253 F12000.0
G1 Z0.0000 F2500.0
G4 P0.02
G0 X145.9399 Y-177.1879 F15000.0
G1 Z11.9000 F2500.0
G4 P0.02
G1 X180.0000 Y-177.1879 F12000.0
G1 Z0.0000 F2500.0
G4 P0.02
G0 X145.9399 Y-215.6998 F15000.0
G1 Z11.9000 F2500.0
G4 P0.02
G1 X180.0000 Y-215.6998 F12000.0
G1 Z0.0000 F2500.0
G4 P0.02
G0 X156.5813 Y-203.5381 F15000.0
G1 Z11.9000 F2500.0
G4 P0.02
G1 X156.5813 Y-226.2688 F12000.0
G1 Z0.0000 F2500.0
G4 P0.02
G0 X169.3945 Y-203.5381 F15000.0
G1 Z11.9000 F2500.0
G4 P0.02
G1 X169.3945 Y-226.2688 F12000.0
G1 Z0.0000 F2500.0
G4 P0.02
G0 X168.7430 Y-202.8143 F15000.0
G1 Z11.9000 F2500.0
G4 P0.02
G1 X168.7430 Y-222.0702 F12000.0
G1 Z0.0000 F2500.0
G4 P0.02
G0 X173.6656 Y-220.4052 F15000.0
G1 Z11.9000 F2500.0
G4 P0.02
G1 X180.0000 Y-220.4052 F12000.0
G1 Z0.0000 F2500.0
G4 P0.02
G0 X116.1873 Y-246.4659 F15000.0
G1 Z11.9000 F2500.0
G4 P0.02
G1 X95.5559 Y-246.4659 F12000.0
G1 Z0.0000 F2500.0
G4 P0.02
G0 X116.1873 Y-229.3817 F15000.0
G1 Z11.9000 F2500.0
G4 P0.02
G1 X95.5559 Y-229.3817 F12000.0
G1 Z0.0000 F2500.0
G4 P0.02
G0 X122.1957 Y-223.3733 F15000.0
G1 Z11.9000 F2500.0
G4 P0.02
G1 X95.7007 Y-223.3733 F12000.0
G1 X87.9549 Y-223.3733 F12000.0
G1 Z0.0000 F2500.0
G4 P0.02
G0 X64.2830 Y-182.7620 F15000.0
G1 Z11.9000 F2500.0
G4 P0.02
G1 X64.2830 Y-154.7467 F12000.0
G1 Z0.0000 F2500.0
G4 P0.02
G0 X139.4971 Y-202.4523 F15000.0
G1 Z11.9000 F2500.0
G4 P0.02
G1 X139.4971 Y-154.7467 F12000.0
G1 Z0.0000 F2500.0
G4 P0.02
G0 X117.2732 Y-202.0179 F15000.0
G1 Z11.9000 F2500.0
G4 P0.02
G1 X117.2732 Y-161.7686 F12000.0
G1 Z0.0000 F2500.0
G4 P0.02
G0 X125.5981 Y-204.9860 F15000.0
G1 Z11.9000 F2500.0
G4 P0.02
G1 X108.9482 Y-204.9860 F12000.0
G1 Z0.0000 F2500.0
G4 P0.02
G0 X117.2732 Y-187.0330 F15000.0
G1 Z11.9000 F2500.0
G4 P0.02
G1 X108.9482 Y-187.0330 F12000.0
G1 Z0.0000 F2500.0
G4 P0.02
G0 X132.9819 Y-230.7571 F15000.0
G1 Z11.9000 F2500.0
G4 P0.02
G1 X131.5342 Y-231.9878 F12000.0
G1 X129.8692 Y-233.0736 F12000.0
G1 X128.1318 Y-233.7976 F12000.0
G1 X126.2496 Y-234.3042 F12000.0
G1 X124.3675 Y-234.5214 F12000.0
G1 X122.4129 Y-234.4491 F12000.0
G1 X120.5308 Y-234.0871 F12000.0
G1 X118.7210 Y-233.4355 F12000.0
G1 X116.9836 Y-232.4945 F12000.0
G1 X115.4634 Y-231.4087 F12000.0
G1 X114.8119 Y-230.7571 F12000.0
G1 Z0.0000 F2500.0
G4 P0.02
G0 X131.6066 Y-229.3817 F15000.0
G1 Z11.9000 F2500.0
G4 P0.02
G1 X134.2126 Y-231.9878 F12000.0
G1 Z0.0000 F2500.0
G4 P0.02
G0 X116.1873 Y-229.3817 F15000.0
G1 Z11.9000 F2500.0
G4 P0.02
G1 X113.5812 Y-231.9878 F12000.0
G1 Z0.0000 F2500.0
G4 P0.02
G0 X116.1873 Y-246.4659 F15000.0
G1 Z11.9000 F2500.0
G4 P0.02
G1 X116.1873 Y-261.4508 F12000.0
G1 Z0.0000 F2500.0
G4 P0.02
G0 X131.6066 Y-259.7134 F15000.0
G1 Z11.9000 F2500.0
G4 P0.02
G1 X135.8776 Y-259.7134 F12000.0
G1 Z0.0000 F2500.0
G4 P0.02
G0 X131.6066 Y-246.4659 F15000.0
G1 Z11.9000 F2500.0
G4 P0.02
G1 X131.6066 Y-261.4508 F12000.0
G1 Z0.0000 F2500.0
G4 P0.02
G0 X135.8776 Y-259.7134 F15000.0
G1 Z11.9000 F2500.0
G4 P0.02
G1 X149.0527 Y-259.7134 F12000.0
G1 Z0.0000 F2500.0
G4 P0.02
G0 X156.4366 Y-208.1712 F15000.0
G1 Z11.9000 F2500.0
G4 P0.02
G1 X158.1016 Y-207.0129 F12000.0
G1 X159.5494 Y-205.6375 F12000.0
G1 X160.8525 Y-204.1173 F12000.0
G1 X161.8659 Y-202.3799 F12000.0
G1 Z0.0000 F2500.0
G4 P0.02
G0 X160.3269 Y-201.8554 F15000.0
G1 Z11.9000 F2500.0
G4 P0.02
G1 X161.1232 Y-200.0456 F12000.0
G1 X161.6299 Y-198.0910 F12000.0
G1 Z0.0000 F2500.0
G4 P0.02
G0 X163.1689 Y-198.6156 F15000.0
G1 Z11.9000 F2500.0
G4 P0.02
G1 X163.4585 Y-196.5886 F12000.0
G1 X163.3861 Y-194.5617 F12000.0
G1 Z0.0000 F2500.0
G4 P0.02
G0 X161.8471 Y-194.0372 F15000.0
G1 Z11.9000 F2500.0
G4 P0.02
G1 X161.4852 Y-192.0826 F12000.0
G1 X160.8337 Y-190.1281 F12000.0
G1 Z0.0000 F2500.0
G4 P0.02
G0 X162.3727 Y-190.6526 F15000.0
G1 Z11.9000 F2500.0
G4 P0.02
G1 X161.5040 Y-188.8428 F12000.0
G1 X160.3457 Y-187.2502 F12000.0
G1 X158.9702 Y-185.7300 F12000.0
G1 X157.3777 Y-184.4994 F12000.0
G1 X156.4366 Y-183.8478 F12000.0
G1 Z0.0000 F2500.0
G4 P0.02
G0 X153.3238 Y-202.8143 F15000.0
G1 Z11.9000 F2500.0
G4 P0.02
G1 X157.3053 Y-209.6190 F12000.0
G1 Z0.0000 F2500.0
G4 P0.02
G0 X153.3238 Y-189.1324 F15000.0
G1 Z11.9000 F2500.0
G4 P0.02
G1 X157.3053 Y-182.4000 F12000.0
G1 Z0.0000 F2500.0
G4 P0.02
G0 X163.0242 Y-184.8613 F15000.0
G1 Z11.9000 F2500.0
G4 P0.02
G1 X163.0242 Y-168.6457 F12000.0
G1 Z0.0000 F2500.0
G4 P0.02
G0 X173.7380 Y-170.3831 F15000.0
G1 Z11.9000 F2500.0
G4 P0.02
G1 X180.0000 Y-170.3831 F12000.0
G1 Z0.0000 F2500.0
G4 P0.02
G0 X153.6133 Y-189.1324 F15000.0
G1 Z11.9000 F2500.0
G4 P0.02
G1 X153.6133 Y-158.8006 F12000.0
G1 Z0.0000 F2500.0
G4 P0.02
G0 X169.3945 Y-188.4809 F15000.0
G1 Z11.9000 F2500.0
G4 P0.02
G1 X169.3945 Y-158.8006 F12000.0
G1 Z0.0000 F2500.0
G4 P0.02
G0 X169.3945 Y-203.5381 F15000.0
G1 Z11.9000 F2500.0
G4 P0.02
G1 X180.0000 Y-203.5381 F12000.0
G1 Z0.0000 F2500.0
G4 P0.02
G0 X169.3945 Y-188.4809 F15000.0
G1 Z11.9000 F2500.0
G4 P0.02
G1 X180.0000 Y-188.4809 F12000.0
G1 Z0.0000 F2500.0
G4 P0.02
G0 X141.2345 Y-198.1812 F15000.0
G1 Z11.9000 F2500.0
G4 P0.02
G1 X129.3624 Y-198.1812 F12000.0
G1 Z0.0000 F2500.0
G4 P0.02
G0 X131.0998 Y-193.8378 F15000.0
G1 Z11.9000 F2500.0
G4 P0.02
G1 X131.0998 Y-174.0751 F12000.0
G1 Z0.0000 F2500.0
G4 P0.02
G0 X141.2345 Y-193.8378 F15000.0
G1 Z11.9000 F2500.0
G4 P0.02
G1 X129.3624 Y-193.8378 F12000.0
G1 Z0.0000 F2500.0
G4 P0.02
G0 X131.0998 Y-174.0751 F15000.0
G1 Z11.9000 F2500.0
G4 P0.02
G1 X131.0998 Y-161.5515 F12000.0
G1 Z0.0000 F2500.0
G4 P0.02
G0 X64.2830 Y-209.2570 F15000.0
G1 Z11.9000 F2500.0
G4 P0.02
G1 X64.2830 Y-229.3817 F12000.0
G1 Z0.0000 F2500.0
G4 P0.02
G0 X65.2966 Y-208.1712 F15000.0
G1 Z11.9000 F2500.0
G4 P0.02
G1 X65.2966 Y-229.3817 F12000.0
G1 Z0.0000 F2500.0
G4 P0.02
G0 X60.0120 Y-227.6443 F15000.0
G1 Z11.9000 F2500.0
G4 P0.02
G1 X39.9598 Y-227.6443 F12000.0
G1 Z0.0000 F2500.0
G4 P0.02
G0 X95.9178 Y-182.5448 F15000.0
G1 Z11.9000 F2500.0
G4 P0.02
G1 X95.9178 Y-168.7906 F12000.0
G1 Z0.0000 F2500.0
G4 P0.02
G0 X64.2830 Y-208.8227 F15000.0
G1 Z11.9000 F2500.0
G4 P0.02
G1 X56.1029 Y-208.8227 F12000.0
G1 Z0.0000 F2500.0
G4 P0.02
G0 X64.2830 Y-183.1239 F15000.0
G1 Z11.9000 F2500.0
G4 P0.02
G1 X56.1029 Y-183.1239 F12000.0
G1 Z0.0000 F2500.0
G4 P0.02
G0 X44.5204 Y-213.0937 F15000.0
G1 Z11.9000 F2500.0
G4 P0.02
G1 X45.0271 Y-208.8227 F12000.0
G1 X44.5204 Y-209.2570 F12000.0
G1 X43.9412 Y-208.8227 F12000.0
G1 X44.5204 Y-213.0937 F12000.0
G1 Z0.0000 F2500.0
G4 P0.02
G0 X44.7737 Y-211.3792 F15000.0
G1 Z11.9000 F2500.0
G4 P0.02
G1 X44.7737 Y-210.6097 F12000.0
G1 Z0.0000 F2500.0
G4 P0.02
G0 X44.2670 Y-211.1258 F15000.0
G1 Z11.9000 F2500.0
G4 P0.02
G1 X44.2670 Y-210.3562 F12000.0
G1 Z0.0000 F2500.0
G4 P0.02
G0 X44.5204 Y-178.9253 F15000.0
G1 Z11.9000 F2500.0
G4 P0.02
G1 X43.9412 Y-183.1963 F12000.0
G1 X44.5204 Y-182.7620 F12000.0
G1 X45.0271 Y-183.1963 F12000.0
G1 X44.5204 Y-178.9253 F12000.0
G1 Z0.0000 F2500.0
G4 P0.02
G0 X44.2670 Y-181.7351 F15000.0
G1 Z11.9000 F2500.0
G4 P0.02
G1 X44.2670 Y-180.9656 F12000.0
G1 Z0.0000 F2500.0
G4 P0.02
G0 X44.7737 Y-181.4818 F15000.0
G1 Z11.9000 F2500.0
G4 P0.02
G1 X44.7737 Y-180.7123 F12000.0
G1 Z0.0000 F2500.0
G4 P0.02
G0 X44.5204 Y-213.0937 F15000.0
G1 Z11.9000 F2500.0
G4 P0.02
G1 X44.5204 Y-178.9253 F12000.0
G1 Z0.0000 F2500.0
G4 P0.02
G0 X156.5813 Y-224.5315 F15000.0
G1 Z11.9000 F2500.0
G4 P0.02
G1 X160.8525 Y-225.1107 F12000.0
G1 Z0.0000 F2500.0
G4 P0.02
G0 X160.8284 Y-226.6497 F15000.0
G1 Z11.9000 F2500.0
G4 P0.02
G1 X160.3941 Y-226.0705 F12000.0
G1 Z0.0000 F2500.0
G4 P0.02
G0 X160.4181 Y-224.5315 F15000.0
G1 Z11.9000 F2500.0
G4 P0.02
G1 X160.8525 Y-223.9524 F12000.0
G1 X156.5813 Y-224.5315 F12000.0
G1 Z0.0000 F2500.0
G4 P0.02
G0 X158.6217 Y-224.8211 F15000.0
G1 Z11.9000 F2500.0
G4 P0.02
G1 X159.3913 Y-224.8211 F12000.0
G1 Z0.0000 F2500.0
G4 P0.02
G0 X158.3321 Y-224.2781 F15000.0
G1 Z11.9000 F2500.0
G4 P0.02
G1 X159.1017 Y-224.2781 F12000.0
G1 Z0.0000 F2500.0
G4 P0.02
G0 X169.3945 Y-224.5315 F15000.0
G1 Z11.9000 F2500.0
G4 P0.02
G1 X165.1235 Y-223.9524 F12000.0
G1 X165.5578 Y-224.5315 F12000.0
G1 Z0.0000 F2500.0
G4 P0.02
G0 X165.5339 Y-226.0705 F15000.0
G1 Z11.9000 F2500.0
G4 P0.02
G1 X165.0996 Y-226.6497 F12000.0
G1 Z0.0000 F2500.0
G4 P0.02
G0 X165.1235 Y-225.1107 F15000.0
G1 Z11.9000 F2500.0
G4 P0.02
G1 X169.3945 Y-224.5315 F12000.0
G1 Z0.0000 F2500.0
G4 P0.02
G0 X166.9105 Y-224.2781 F15000.0
G1 Z11.9000 F2500.0
G4 P0.02
G1 X167.6800 Y-224.2781 F12000.0
G1 Z0.0000 F2500.0
G4 P0.02
G0 X166.6570 Y-224.8211 F15000.0
G1 Z11.9000 F2500.0
G4 P0.02
G1 X167.4266 Y-224.8211 F12000.0
G1 Z0.0000 F2500.0
G4 P0.02
G0 X156.5813 Y-224.5315 F15000.0
G1 Z11.9000 F2500.0
G4 P0.02
G1 X169.3945 Y-224.5315 F12000.0
G1 Z0.0000 F2500.0
G4 P0.02
G0 X168.7430 Y-220.4052 F15000.0
G1 Z11.9000 F2500.0
G4 P0.02
G1 X164.4720 Y-220.9119 F12000.0
G1 X164.9063 Y-220.4052 F12000.0
G1 X164.4720 Y-219.8261 F12000.0
G1 X168.7430 Y-220.4052 F12000.0
G1 X162.7346 Y-220.4052 F12000.0
G1 Z0.0000 F2500.0
G4 P0.02
G0 X165.9694 Y-220.6586 F15000.0
G1 Z11.9000 F2500.0
G4 P0.02
G1 X166.7389 Y-220.6586 F12000.0
G1 Z0.0000 F2500.0
G4 P0.02
G0 X166.2590 Y-220.1518 F15000.0
G1 Z11.9000 F2500.0
G4 P0.02
G1 X167.0285 Y-220.1518 F12000.0
G1 Z0.0000 F2500.0
G4 P0.02
G0 X169.3945 Y-220.4052 F15000.0
G1 Z11.9000 F2500.0
G4 P0.02
G1 X173.6656 Y-219.8261 F12000.0
G1 X173.3036 Y-220.4052 F12000.0
G1 X173.6656 Y-220.9119 F12000.0
G1 X169.3945 Y-220.4052 F12000.0
G1 X175.4029 Y-220.4052 F12000.0
G1 Z0.0000 F2500.0
G4 P0.02
G0 X171.1453 Y-220.1518 F15000.0
G1 Z11.9000 F2500.0
G4 P0.02
G1 X171.9148 Y-220.1518 F12000.0
G1 Z0.0000 F2500.0
G4 P0.02
G0 X171.4711 Y-220.6586 F15000.0
G1 Z11.9000 F2500.0
G4 P0.02
G1 X172.2406 Y-220.6586 F12000.0
G1 Z0.0000 F2500.0
G4 P0.02
G0 X168.7430 Y-220.4052 F15000.0
G1 Z11.9000 F2500.0
G4 P0.02
G1 X169.3945 Y-220.4052 F12000.0
G1 Z0.0000 F2500.0
G4 P0.02
G0 X97.2933 Y-246.4659 F15000.0
G1 Z11.9000 F2500.0
G4 P0.02
G1 X97.8000 Y-242.1949 F12000.0
G1 X97.2933 Y-242.6292 F12000.0
G1 X96.7142 Y-242.1949 F12000.0
G1 X97.2933 Y-246.4659 F12000.0
G1 Z0.0000 F2500.0
G4 P0.02
G0 X97.5466 Y-244.7514 F15000.0
G1 Z11.9000 F2500.0
G4 P0.02
G1 X97.5466 Y-243.9818 F12000.0
G1 Z0.0000 F2500.0
G4 P0.02
G0 X97.0399 Y-244.4979 F15000.0
G1 Z11.9000 F2500.0
G4 P0.02
G1 X97.0399 Y-243.7284 F12000.0
G1 Z0.0000 F2500.0
G4 P0.02
G0 X97.2933 Y-229.3817 F15000.0
G1 Z11.9000 F2500.0
G4 P0.02
G1 X96.7142 Y-233.6527 F12000.0
G1 X97.2933 Y-233.2184 F12000.0
G1 X97.8000 Y-233.6527 F12000.0
G1 X97.2933 Y-229.3817 F12000.0
G1 Z0.0000 F2500.0
G4 P0.02
G0 X97.0399 Y-232.1915 F15000.0
G1 Z11.9000 F2500.0
G4 P0.02
G1 X97.0399 Y-231.4220 F12000.0
G1 Z0.0000 F2500.0
G4 P0.02
G0 X97.5466 Y-231.9382 F15000.0
G1 Z11.9000 F2500.0
G4 P0.02
G1 X97.5466 Y-231.1687 F12000.0
G1 Z0.0000 F2500.0
G4 P0.02
G0 X97.2933 Y-246.4659 F15000.0
G1 Z11.9000 F2500.0
G4 P0.02
G1 X97.2933 Y-229.3817 F12000.0
G1 Z0.0000 F2500.0
G4 P0.02
G0 X125.5981 Y-223.3733 F15000.0
G1 Z11.9000 F2500.0
G4 P0.02
G1 X129.8692 Y-222.7941 F12000.0
G1 X129.4348 Y-223.3733 F12000.0
G1 X129.8692 Y-223.9524 F12000.0
G1 X125.5981 Y-223.3733 F12000.0
G1 X131.6066 Y-223.3733 F12000.0
G1 Z0.0000 F2500.0
G4 P0.02
G0 X127.3489 Y-223.1198 F15000.0
G1 Z11.9000 F2500.0
G4 P0.02
G1 X128.1184 Y-223.1198 F12000.0
G1 Z0.0000 F2500.0
G4 P0.02
G0 X127.6385 Y-223.6628 F15000.0
G1 Z11.9000 F2500.0
G4 P0.02
G1 X128.4080 Y-223.6628 F12000.0
G1 Z0.0000 F2500.0
G4 P0.02
G0 X122.1957 Y-223.3733 F15000.0
G1 Z11.9000 F2500.0
G4 P0.02
G1 X117.9247 Y-223.9524 F12000.0
G1 X118.3590 Y-223.3733 F12000.0
G1 X117.9247 Y-222.7941 F12000.0
G1 X122.1957 Y-223.3733 F12000.0
G1 Z0.0000 F2500.0
G4 P0.02
G0 X119.4582 Y-223.6628 F15000.0
G1 Z11.9000 F2500.0
G4 P0.02
G1 X120.2277 Y-223.6628 F12000.0
G1 Z0.0000 F2500.0
G4 P0.02
G0 X119.7117 Y-223.1198 F15000.0
G1 Z11.9000 F2500.0
G4 P0.02
G1 X120.4812 Y-223.1198 F12000.0
G1 Z0.0000 F2500.0
G4 P0.02
G0 X64.2830 Y-156.4841 F15000.0
G1 Z11.9000 F2500.0
G4 P0.02
G1 X68.5542 Y-157.0633 F12000.0
G1 X68.1198 Y-156.4841 F12000.0
G1 X68.5542 Y-155.9050 F12000.0
G1 X64.2830 Y-156.4841 F12000.0
G1 Z0.0000 F2500.0
G4 P0.02
G0 X66.3234 Y-156.7737 F15000.0
G1 Z11.9000 F2500.0
G4 P0.02
G1 X67.0929 Y-156.7737 F12000.0
G1 Z0.0000 F2500.0
G4 P0.02
G0 X66.0338 Y-156.2307 F15000.0
G1 Z11.9000 F2500.0
G4 P0.02
G1 X66.8033 Y-156.2307 F12000.0
G1 Z0.0000 F2500.0
G4 P0.02
G0 X139.4971 Y-156.4841 F15000.0
G1 Z11.9000 F2500.0
G4 P0.02
G1 X135.2261 Y-155.9050 F12000.0
G1 X135.6604 Y-156.4841 F12000.0
G1 X135.2261 Y-157.0633 F12000.0
G1 X139.4971 Y-156.4841 F12000.0
G1 Z0.0000 F2500.0
G4 P0.02
G0 X137.0131 Y-156.2307 F15000.0
G1 Z11.9000 F2500.0
G4 P0.02
G1 X137.7826 Y-156.2307 F12000.0
G1 Z0.0000 F2500.0
G4 P0.02
G0 X136.7596 Y-156.7737 F15000.0
G1 Z11.9000 F2500.0
G4 P0.02
G1 X137.5291 Y-156.7737 F12000.0
G1 Z0.0000 F2500.0
G4 P0.02
G0 X64.2830 Y-156.4841 F15000.0
G1 Z11.9000 F2500.0
G4 P0.02
G1 X139.4971 Y-156.4841 F12000.0
G1 Z0.0000 F2500.0
G4 P0.02
G0 X64.2830 Y-163.4336 F15000.0
G1 Z11.9000 F2500.0
G4 P0.02
G1 X68.5542 Y-164.0128 F12000.0
G1 X68.1198 Y-163.4336 F12000.0
G1 X68.5542 Y-162.8545 F12000.0
G1 X64.2830 Y-163.4336 F12000.0
G1 Z0.0000 F2500.0
G4 P0.02
G0 X66.3234 Y-163.7232 F15000.0
G1 Z11.9000 F2500.0
G4 P0.02
G1 X67.0929 Y-163.7232 F12000.0
G1 Z0.0000 F2500.0
G4 P0.02
G0 X66.0338 Y-163.1803 F15000.0
G1 Z11.9000 F2500.0
G4 P0.02
G1 X66.8033 Y-163.1803 F12000.0
G1 Z0.0000 F2500.0
G4 P0.02
G0 X115.7342 Y-161.8946 F15000.0
G1 Z11.9000 F2500.0
G4 P0.02
G1 X111.4630 Y-161.3155 F12000.0
G1 X111.8974 Y-161.8946 F12000.0
G1 Z0.0000 F2500.0
G4 P0.02
G0 X113.4364 Y-163.4336 F15000.0
G1 Z11.9000 F2500.0
G4 P0.02
G1 X113.0021 Y-164.0128 F12000.0
G1 X117.2732 Y-163.4336 F12000.0
G1 Z0.0000 F2500.0
G4 P0.02
G0 X113.2500 Y-161.6412 F15000.0
G1 Z11.9000 F2500.0
G4 P0.02
G1 X114.0195 Y-161.6412 F12000.0
G1 Z0.0000 F2500.0
G4 P0.02
G0 X114.5357 Y-163.7232 F15000.0
G1 Z11.9000 F2500.0
G4 P0.02
G1 X115.3052 Y-163.7232 F12000.0
G1 Z0.0000 F2500.0
G4 P0.02
G0 X64.2830 Y-163.4336 F15000.0
G1 Z11.9000 F2500.0
G4 P0.02
G1 X117.2732 Y-163.4336 F12000.0
G1 Z0.0000 F2500.0
G4 P0.02
G0 X110.6132 Y-204.9860 F15000.0
G1 Z11.9000 F2500.0
G4 P0.02
G1 X111.1923 Y-200.7149 F12000.0
G1 X110.6132 Y-201.1492 F12000.0
G1 Z0.0000 F2500.0
G4 P0.02
G0 X109.0741 Y-200.6931 F15000.0
G1 Z11.9000 F2500.0
G4 P0.02
G1 X108.5675 Y-200.2587 F12000.0
G1 Z0.0000 F2500.0
G4 P0.02
G0 X110.1065 Y-200.7149 F15000.0
G1 Z11.9000 F2500.0
G4 P0.02
G1 X110.6132 Y-204.9860 F12000.0
G1 Z0.0000 F2500.0
G4 P0.02
G0 X110.9027 Y-203.2714 F15000.0
G1 Z11.9000 F2500.0
G4 P0.02
G1 X110.9027 Y-202.5019 F12000.0
G1 Z0.0000 F2500.0
G4 P0.02
G0 X110.3960 Y-202.9819 F15000.0
G1 Z11.9000 F2500.0
G4 P0.02
G1 X110.3960 Y-202.2124 F12000.0
G1 Z0.0000 F2500.0
G4 P0.02
G0 X110.6132 Y-187.0330 F15000.0
G1 Z11.9000 F2500.0
G4 P0.02
G1 X110.1065 Y-191.3041 F12000.0
G1 Z0.0000 F2500.0
G4 P0.02
G0 X108.5675 Y-190.8479 F15000.0
G1 Z11.9000 F2500.0
G4 P0.02
G1 X109.0741 Y-190.4135 F12000.0
G1 Z0.0000 F2500.0
G4 P0.02
G0 X110.6132 Y-190.8698 F15000.0
G1 Z11.9000 F2500.0
G4 P0.02
G1 X111.1923 Y-191.3041 F12000.0
G1 X110.6132 Y-187.0330 F12000.0
G1 Z0.0000 F2500.0
G4 P0.02
G0 X110.3960 Y-189.8791 F15000.0
G1 Z11.9000 F2500.0
G4 P0.02
G1 X110.3960 Y-189.1096 F12000.0
G1 Z0.0000 F2500.0
G4 P0.02
G0 X110.9027 Y-189.5895 F15000.0
G1 Z11.9000 F2500.0
G4 P0.02
G1 X110.9027 Y-188.8200 F12000.0
G1 Z0.0000 F2500.0
G4 P0.02
G0 X110.6132 Y-204.9860 F15000.0
G1 Z11.9000 F2500.0
G4 P0.02
G1 X110.6132 Y-187.0330 F12000.0
G1 Z0.0000 F2500.0
G4 P0.02
G0 X132.9819 Y-230.7571 F15000.0
G1 Z11.9000 F2500.0
G4 P0.02
G1 X129.2177 Y-232.8564 F12000.0
G1 X129.8692 Y-233.0736 F12000.0
G1 X129.8692 Y-233.7251 F12000.0
G1 X132.9819 Y-230.7571 F12000.0
G1 Z0.0000 F2500.0
G4 P0.02
G0 X130.5703 Y-231.9878 F15000.0
G1 Z11.9000 F2500.0
G4 P0.02
G1 X131.3398 Y-231.9878 F12000.0
G1 Z0.0000 F2500.0
G4 P0.02
G0 X130.9816 Y-232.6489 F15000.0
G1 Z11.9000 F2500.0
G4 P0.02
G1 X131.5801 Y-232.0504 F12000.0
G1 Z0.0000 F2500.0
G4 P0.02
G0 X114.8119 Y-230.7571 F15000.0
G1 Z11.9000 F2500.0
G4 P0.02
G1 X117.9247 Y-233.7251 F12000.0
G1 X117.9247 Y-233.0736 F12000.0
G1 X118.5762 Y-232.8564 F12000.0
G1 X114.8119 Y-230.7571 F12000.0
G1 Z0.0000 F2500.0
G4 P0.02
G0 X116.2500 Y-232.6489 F15000.0
G1 Z11.9000 F2500.0
G4 P0.02
G1 X116.8485 Y-232.0504 F12000.0
G1 Z0.0000 F2500.0
G4 P0.02
G0 X116.4902 Y-231.9878 F15000.0
G1 Z11.9000 F2500.0
G4 P0.02
G1 X117.2597 Y-231.9878 F12000.0
G1 Z0.0000 F2500.0
G4 P0.02
G0 X116.1873 Y-259.7134 F15000.0
G1 Z11.9000 F2500.0
G4 P0.02
G1 X120.4583 Y-260.2925 F12000.0
G1 X120.0240 Y-259.7134 F12000.0
G1 X120.4583 Y-259.1343 F12000.0
G1 X116.1873 Y-259.7134 F12000.0
G1 Z0.0000 F2500.0
G4 P0.02
G0 X118.2276 Y-260.0030 F15000.0
G1 Z11.9000 F2500.0
G4 P0.02
G1 X118.9971 Y-260.0030 F12000.0
G1 Z0.0000 F2500.0
G4 P0.02
G0 X117.9380 Y-259.4601 F15000.0
G1 Z11.9000 F2500.0
G4 P0.02
G1 X118.7075 Y-259.4601 F12000.0
G1 Z0.0000 F2500.0
G4 P0.02
G0 X131.6066 Y-259.7134 F15000.0
G1 Z11.9000 F2500.0
G4 P0.02
G1 X127.3354 Y-259.1343 F12000.0
G1 X127.7698 Y-259.7134 F12000.0
G1 X127.3354 Y-260.2925 F12000.0
G1 X131.6066 Y-259.7134 F12000.0
G1 Z0.0000 F2500.0
G4 P0.02
G0 X129.1224 Y-259.4601 F15000.0
G1 Z11.9000 F2500.0
G4 P0.02
G1 X129.8919 Y-259.4601 F12000.0
G1 Z0.0000 F2500.0
G4 P0.02
G0 X128.8691 Y-260.0030 F15000.0
G1 Z11.9000 F2500.0
G4 P0.02
G1 X129.6386 Y-260.0030 F12000.0
G1 Z0.0000 F2500.0
G4 P0.02
G0 X116.1873 Y-259.7134 F15000.0
G1 Z11.9000 F2500.0
G4 P0.02
G1 X131.6066 Y-259.7134 F12000.0
G1 Z0.0000 F2500.0
G4 P0.02
G0 X156.4366 Y-208.1712 F15000.0
G1 Z11.9000 F2500.0
G4 P0.02
G1 X160.1285 Y-205.9995 F12000.0
G1 X159.4770 Y-205.7823 F12000.0
G1 X159.4770 Y-205.0583 F12000.0
G1 X156.4366 Y-208.1712 F12000.0
G1 Z0.0000 F2500.0
G4 P0.02
G0 X158.0919 Y-207.2398 F15000.0
G1 Z11.9000 F2500.0
G4 P0.02
G1 X158.6904 Y-206.6413 F12000.0
G1 Z0.0000 F2500.0
G4 P0.02
G0 X157.6937 Y-206.9864 F15000.0
G1 Z11.9000 F2500.0
G4 P0.02
G1 X158.2922 Y-206.3879 F12000.0
G1 Z0.0000 F2500.0
G4 P0.02
G0 X156.4366 Y-183.8478 F15000.0
G1 Z11.9000 F2500.0
G4 P0.02
G1 X159.4770 Y-186.9607 F12000.0
G1 X159.4770 Y-186.2367 F12000.0
G1 X160.1285 Y-186.0196 F12000.0
G1 X156.4366 Y-183.8478 F12000.0
G1 Z0.0000 F2500.0
G4 P0.02
G0 X157.7300 Y-185.7035 F15000.0
G1 Z11.9000 F2500.0
G4 P0.02
G1 X158.3285 Y-185.1050 F12000.0
G1 Z0.0000 F2500.0
G4 P0.02
G0 X158.0426 Y-185.1147 F15000.0
G1 Z11.9000 F2500.0
G4 P0.02
G1 X158.8121 Y-185.1147 F12000.0
G1 Z0.0000 F2500.0
G4 P0.02
G0 X169.3945 Y-170.3831 F15000.0
G1 Z11.9000 F2500.0
G4 P0.02
G1 X173.6656 Y-169.8040 F12000.0
G1 X173.3036 Y-170.3831 F12000.0
G1 X173.6656 Y-170.9623 F12000.0
G1 X169.3945 Y-170.3831 F12000.0
G1 X175.4029 Y-170.3831 F12000.0
G1 Z0.0000 F2500.0
G4 P0.02
G0 X171.1453 Y-170.1298 F15000.0
G1 Z11.9000 F2500.0
G4 P0.02
G1 X171.9148 Y-170.1298 F12000.0
G1 Z0.0000 F2500.0
G4 P0.02
G0 X171.4348 Y-170.6727 F15000.0
G1 Z11.9000 F2500.0
G4 P0.02
G1 X172.2044 Y-170.6727 F12000.0
G1 Z0.0000 F2500.0
G4 P0.02
G0 X163.0242 Y-170.3831 F15000.0
G1 Z11.9000 F2500.0
G4 P0.02
G1 X158.7531 Y-170.9623 F12000.0
G1 X159.1874 Y-170.3831 F12000.0
G1 X158.7531 Y-169.8040 F12000.0
G1 X163.0242 Y-170.3831 F12000.0
G1 X157.0157 Y-170.3831 F12000.0
G1 Z0.0000 F2500.0
G4 P0.02
G0 X160.2867 Y-170.6727 F15000.0
G1 Z11.9000 F2500.0
G4 P0.02
G1 X161.0562 Y-170.6727 F12000.0
G1 Z0.0000 F2500.0
G4 P0.02
G0 X160.5400 Y-170.1298 F15000.0
G1 Z11.9000 F2500.0
G4 P0.02
G1 X161.3096 Y-170.1298 F12000.0
G1 Z0.0000 F2500.0
G4 P0.02
G0 X169.3945 Y-170.3831 F15000.0
G1 Z11.9000 F2500.0
G4 P0.02
G1 X163.0242 Y-170.3831 F12000.0
G1 Z0.0000 F2500.0
G4 P0.02
G0 X153.6133 Y-160.4656 F15000.0
G1 Z11.9000 F2500.0
G4 P0.02
G1 X157.8844 Y-161.0447 F12000.0
G1 X157.4500 Y-160.4656 F12000.0
G1 X157.8844 Y-159.9588 F12000.0
G1 X153.6133 Y-160.4656 F12000.0
G1 Z0.0000 F2500.0
G4 P0.02
G0 X155.6537 Y-160.7552 F15000.0
G1 Z11.9000 F2500.0
G4 P0.02
G1 X156.4232 Y-160.7552 F12000.0
G1 Z0.0000 F2500.0
G4 P0.02
G0 X155.3642 Y-160.2484 F15000.0
G1 Z11.9000 F2500.0
G4 P0.02
G1 X156.1337 Y-160.2484 F12000.0
G1 Z0.0000 F2500.0
G4 P0.02
G0 X169.3945 Y-160.4656 F15000.0
G1 Z11.9000 F2500.0
G4 P0.02
G1 X165.1235 Y-159.9588 F12000.0
G1 X165.5578 Y-160.4656 F12000.0
G1 X165.1235 Y-161.0447 F12000.0
G1 X169.3945 Y-160.4656 F12000.0
G1 Z0.0000 F2500.0
G4 P0.02
G0 X166.9105 Y-160.2484 F15000.0
G1 Z11.9000 F2500.0
G4 P0.02
G1 X167.6800 Y-160.2484 F12000.0
G1 Z0.0000 F2500.0
G4 P0.02
G0 X166.6570 Y-160.7552 F15000.0
G1 Z11.9000 F2500.0
G4 P0.02
G1 X167.4266 Y-160.7552 F12000.0
G1 Z0.0000 F2500.0
G4 P0.02
G0 X153.6133 Y-160.4656 F15000.0
G1 Z11.9000 F2500.0
G4 P0.02
G1 X169.3945 Y-160.4656 F12000.0
G1 Z0.0000 F2500.0
G4 P0.02
G0 X131.0998 Y-198.1812 F15000.0
G1 Z11.9000 F2500.0
G4 P0.02
G1 X131.6789 Y-202.4523 F12000.0
G1 X131.0998 Y-202.0179 F12000.0
G1 X130.5207 Y-202.4523 F12000.0
G1 X131.0998 Y-198.1812 F12000.0
G1 X131.0998 Y-204.1173 F12000.0
G1 Z0.0000 F2500.0
G4 P0.02
G0 X131.3894 Y-200.7377 F15000.0
G1 Z11.9000 F2500.0
G4 P0.02
G1 X131.3894 Y-199.9682 F12000.0
G1 Z0.0000 F2500.0
G4 P0.02
G0 X130.8465 Y-200.9911 F15000.0
G1 Z11.9000 F2500.0
G4 P0.02
G1 X130.8465 Y-200.2215 F12000.0
G1 Z0.0000 F2500.0
G4 P0.02
G0 X131.0998 Y-193.8378 F15000.0
G1 Z11.9000 F2500.0
G4 P0.02
G1 X130.5207 Y-189.5667 F12000.0
G1 X131.0998 Y-190.0011 F12000.0
G1 X131.6789 Y-189.5667 F12000.0
G1 X131.0998 Y-193.8378 F12000.0
G1 Z0.0000 F2500.0
G4 P0.02
G0 X130.8465 Y-191.8698 F15000.0
G1 Z11.9000 F2500.0
G4 P0.02
G1 X130.8465 Y-191.1003 F12000.0
G1 Z0.0000 F2500.0
G4 P0.02
G0 X131.3894 Y-192.1232 F15000.0
G1 Z11.9000 F2500.0
G4 P0.02
G1 X131.3894 Y-191.3537 F12000.0
G1 Z0.0000 F2500.0
G4 P0.02
G0 X131.0998 Y-198.1812 F15000.0
G1 Z11.9000 F2500.0
G4 P0.02
G1 X131.0998 Y-193.8378 F12000.0
G1 Z0.0000 F2500.0
G4 P0.02
G0 X64.2830 Y-227.6443 F15000.0
G1 Z11.9000 F2500.0
G4 P0.02
G1 X60.0120 Y-228.2234 F12000.0
G1 X60.3739 Y-227.6443 F12000.0
G1 X60.0120 Y-227.0652 F12000.0
G1 X64.2830 Y-227.6443 F12000.0
G1 X58.2746 Y-227.6443 F12000.0
G1 Z0.0000 F2500.0
G4 P0.02
G0 X61.5456 Y-227.9339 F15000.0
G1 Z11.9000 F2500.0
G4 P0.02
G1 X62.3151 Y-227.9339 F12000.0
G1 Z0.0000 F2500.0
G4 P0.02
G0 X61.7990 Y-227.3910 F15000.0
G1 Z11.9000 F2500.0
G4 P0.02
G1 X62.5685 Y-227.3910 F12000.0
G1 Z0.0000 F2500.0
G4 P0.02
G0 X65.2966 Y-227.6443 F15000.0
G1 Z11.9000 F2500.0
G4 P0.02
G1 X69.5676 Y-227.0652 F12000.0
G1 X69.2057 Y-227.6443 F12000.0
G1 X69.5676 Y-228.2234 F12000.0
G1 X65.2966 Y-227.6443 F12000.0
G1 X71.3050 Y-227.6443 F12000.0
G1 Z0.0000 F2500.0
G4 P0.02
G0 X67.0473 Y-227.3910 F15000.0
G1 Z11.9000 F2500.0
G4 P0.02
G1 X67.8168 Y-227.3910 F12000.0
G1 Z0.0000 F2500.0
G4 P0.02
G0 X67.3369 Y-227.9339 F15000.0
G1 Z11.9000 F2500.0
G4 P0.02
G1 X68.1064 Y-227.9339 F12000.0
G1 Z0.0000 F2500.0
G4 P0.02
G0 X64.2830 Y-227.6443 F15000.0
G1 Z11.9000 F2500.0
G4 P0.02
G1 X65.2966 Y-227.6443 F12000.0
G1 Z0.0000 F2500.0
G4 P0.02
G0 X94.3788 Y-168.9165 F15000.0
G1 Z11.9000 F2500.0
G4 P0.02
G1 X90.1078 Y-168.4098 F12000.0
G1 X90.4697 Y-168.9165 F12000.0
G1 Z0.0000 F2500.0
G4 P0.02
G0 X92.0087 Y-170.4555 F15000.0
G1 Z11.9000 F2500.0
G4 P0.02
G1 X91.6468 Y-171.0346 F12000.0
G1 X95.9178 Y-170.4555 F12000.0
G1 Z0.0000 F2500.0
G4 P0.02
G0 X91.8947 Y-168.6994 F15000.0
G1 Z11.9000 F2500.0
G4 P0.02
G1 X92.6643 Y-168.6994 F12000.0
G1 Z0.0000 F2500.0
G4 P0.02
G0 X93.1804 Y-170.7451 F15000.0
G1 Z11.9000 F2500.0
G4 P0.02
G1 X93.9499 Y-170.7451 F12000.0
G1 Z0.0000 F2500.0
G4 P0.02
G0 X64.2830 Y-170.4555 F15000.0
G1 Z11.9000 F2500.0
G4 P0.02
G1 X68.5542 Y-171.0346 F12000.0
G1 X68.1198 Y-170.4555 F12000.0
G1 X68.5542 Y-169.9488 F12000.0
G1 X64.2830 Y-170.4555 F12000.0
G1 Z0.0000 F2500.0
G4 P0.02
G0 X66.3234 Y-170.7451 F15000.0
G1 Z11.9000 F2500.0
G4 P0.02
G1 X67.0929 Y-170.7451 F12000.0
G1 Z0.0000 F2500.0
G4 P0.02
G0 X66.0338 Y-170.2384 F15000.0
G1 Z11.9000 F2500.0
G4 P0.02
G1 X66.8033 Y-170.2384 F12000.0
G1 Z0.0000 F2500.0
G4 P0.02
G0 X95.9178 Y-170.4555 F15000.0
G1 Z11.9000 F2500.0
G4 P0.02
G1 X64.2830 Y-170.4555 F12000.0
G1 Z0.0000 F2500.0
G4 P0.02
G0 X57.7679 Y-208.8227 F15000.0
G1 Z11.9000 F2500.0
G4 P0.02
G1 X58.3470 Y-204.5517 F12000.0
G1 X57.7679 Y-204.9860 F12000.0
G1 X57.2612 Y-204.5517 F12000.0
G1 X57.7679 Y-208.8227 F12000.0
G1 Z0.0000 F2500.0
G4 P0.02
G0 X58.0574 Y-207.1081 F15000.0
G1 Z11.9000 F2500.0
G4 P0.02
G1 X58.0574 Y-206.3386 F12000.0
G1 Z0.0000 F2500.0
G4 P0.02
G0 X57.5507 Y-206.8186 F15000.0
G1 Z11.9000 F2500.0
G4 P0.02
G1 X57.5507 Y-206.0490 F12000.0
G1 Z0.0000 F2500.0
G4 P0.02
G0 X57.7679 Y-183.1239 F15000.0
G1 Z11.9000 F2500.0
G4 P0.02
G1 X57.2612 Y-187.3950 F12000.0
G1 X57.7679 Y-187.0330 F12000.0
G1 X58.3470 Y-187.3950 F12000.0
G1 X57.7679 Y-183.1239 F12000.0
G1 Z0.0000 F2500.0
G4 P0.02
G0 X57.5507 Y-185.9700 F15000.0
G1 Z11.9000 F2500.0
G4 P0.02
G1 X57.5507 Y-185.2005 F12000.0
G1 Z0.0000 F2500.0
G4 P0.02
G0 X58.0574 Y-185.6804 F15000.0
G1 Z11.9000 F2500.0
G4 P0.02
G1 X58.0574 Y-184.9109 F12000.0
G1 Z0.0000 F2500.0
G4 P0.02
G0 X57.7679 Y-208.8227 F15000.0
G1 Z11.9000 F2500.0
G4 P0.02
G1 X57.7679 Y-183.1239 F12000.0
G1 Z0.0000 F2500.0
G4 P0.02
G0 X62.5457 Y-98.1371 F15000.0
G1 Z11.9000 F2500.0
G4 P0.02
G1 X77.3858 Y-98.1371 F12000.0
G1 Z0.0000 F2500.0
G4 P0.02
G0 X78.6889 Y-98.1371 F15000.0
G1 Z11.9000 F2500.0
G4 P0.02
G1 X79.9919 Y-98.1371 F12000.0
G1 Z0.0000 F2500.0
G4 P0.02
G0 X81.2949 Y-98.1371 F15000.0
G1 Z11.9000 F2500.0
G4 P0.02
G1 X96.1350 Y-98.1371 F12000.0
G1 Z0.0000 F2500.0
G4 P0.02
G0 X97.4380 Y-98.1371 F15000.0
G1 Z11.9000 F2500.0
G4 P0.02
G1 X98.7411 Y-98.1371 F12000.0
G1 Z0.0000 F2500.0
G4 P0.02
G0 X100.0441 Y-98.1371 F15000.0
G1 Z11.9000 F2500.0
G4 P0.02
G1 X114.8843 Y-98.1371 F12000.0
G1 Z0.0000 F2500.0
G4 P0.02
G0 X116.1873 Y-98.1371 F15000.0
G1 Z11.9000 F2500.0
G4 P0.02
G1 X117.4903 Y-98.1371 F12000.0
G1 Z0.0000 F2500.0
G4 P0.02
G0 X118.7934 Y-98.1371 F15000.0
G1 Z11.9000 F2500.0
G4 P0.02
G1 X133.6335 Y-98.1371 F12000.0
G1 Z0.0000 F2500.0
G4 P0.02
G0 X137.5426 Y-98.1371 F15000.0
G1 Z11.9000 F2500.0
G4 P0.02
G1 X152.3827 Y-98.1371 F12000.0
G1 Z0.0000 F2500.0
G4 P0.02
G0 X153.6858 Y-98.1371 F15000.0
G1 Z11.9000 F2500.0
G4 P0.02
G1 X154.9888 Y-98.1371 F12000.0
G1 Z0.0000 F2500.0
G4 P0.02
G0 X156.2918 Y-98.1371 F15000.0
G1 Z11.9000 F2500.0
G4 P0.02
G1 X171.1319 Y-98.1371 F12000.0
G1 Z0.0000 F2500.0
G4 P0.02
G0 X123.8607 Y-117.8274 F15000.0
G1 Z11.9000 F2500.0
G4 P0.02
G1 X123.8607 Y-107.2584 F12000.0
G1 Z0.0000 F2500.0
G4 P0.02
G0 X123.8607 Y-105.9553 F15000.0
G1 Z11.9000 F2500.0
G4 P0.02
G1 X123.8607 Y-104.7246 F12000.0
G1 Z0.0000 F2500.0
G4 P0.02
G0 X123.8607 Y-103.4216 F15000.0
G1 Z11.9000 F2500.0
G4 P0.02
G1 X123.8607 Y-98.1371 F12000.0
G1 Z0.0000 F2500.0
G4 P0.02
G0 X143.5510 Y-98.1371 F15000.0
G1 Z11.9000 F2500.0
G4 P0.02
G1 X132.9819 Y-98.1371 F12000.0
G1 Z0.0000 F2500.0
G4 P0.02
G0 X116.0425 Y-98.1371 F15000.0
G1 Z11.9000 F2500.0
G4 P0.02
G1 X117.3455 Y-98.1371 F12000.0
G1 Z0.0000 F2500.0
G4 P0.02
G0 X145.9399 Y-81.0529 F15000.0
G1 Z11.9000 F2500.0
G4 P0.02
G1 X145.9399 Y-115.2214 F12000.0
G1 Z0.0000 F2500.0
G4 P0.02
G0 X140.8002 Y-120.3611 F15000.0
G1 Z11.9000 F2500.0
G4 P0.02
G1 X106.9936 Y-120.3611 F12000.0
G1 Z0.0000 F2500.0
G4 P0.02
G0 X106.9936 Y-75.9131 F15000.0
G1 Z11.9000 F2500.0
G4 P0.02
G1 X140.8002 Y-75.9131 F12000.0
G1 Z0.0000 F2500.0
G4 P0.02
G0 X101.8539 Y-115.2214 F15000.0
G1 Z11.9000 F2500.0
G4 P0.02
G1 X101.8539 Y-81.0529 F12000.0
G1 X64.2830 Y-81.0529 F12000.0
G1 Z0.0000 F2500.0
G4 P0.02
G0 X101.8539 Y-115.2214 F15000.0
G1 Z11.9000 F2500.0
G4 P0.02
G1 X64.2830 Y-115.2214 F12000.0
G1 Z0.0000 F2500.0
G4 P0.02
G0 X64.2830 Y-81.0529 F15000.0
G1 Z11.9000 F2500.0
G4 P0.02
G1 X64.2830 Y-115.2214 F12000.0
G1 Z0.0000 F2500.0
G4 P0.02
G0 X140.8002 Y-75.9131 F15000.0
G1 Z11.9000 F2500.0
G4 P0.02
G1 X145.9399 Y-81.0529 F12000.0
G1 Z0.0000 F2500.0
G4 P0.02
G0 X101.8539 Y-81.0529 F15000.0
G1 Z11.9000 F2500.0
G4 P0.02
G1 X106.9936 Y-75.9131 F12000.0
G1 Z0.0000 F2500.0
G4 P0.02
G0 X106.9936 Y-120.3611 F15000.0
G1 Z11.9000 F2500.0
G4 P0.02
G1 X101.8539 Y-115.2214 F12000.0
G1 Z0.0000 F2500.0
G4 P0.02
G0 X145.9399 Y-115.2214 F15000.0
G1 Z11.9000 F2500.0
G4 P0.02
G1 X140.8002 Y-120.3611 F12000.0
G1 Z0.0000 F2500.0
G4 P0.02
G0 X123.8607 Y-116.0900 F15000.0
G1 Z11.9000 F2500.0
G4 P0.02
G1 X121.6166 Y-115.9453 F12000.0
G1 X119.3725 Y-115.5109 F12000.0
G1 X117.2008 Y-114.7870 F12000.0
G1 X115.1738 Y-113.8459 F12000.0
G1 X113.2192 Y-112.6153 F12000.0
G1 X111.4818 Y-111.1675 F12000.0
G1 X109.9616 Y-109.4301 F12000.0
G1 X108.6586 Y-107.6203 F12000.0
G1 X107.5727 Y-105.5933 F12000.0
G1 X106.7765 Y-103.4940 F12000.0
G1 X106.1974 Y-101.2499 F12000.0
G1 X105.9802 Y-99.0058 F12000.0
G1 X105.9802 Y-96.6893 F12000.0
G1 X106.3421 Y-94.4452 F12000.0
G1 X106.9212 Y-92.2735 F12000.0
G1 X107.7899 Y-90.1741 F12000.0
G1 X108.9482 Y-88.2196 F12000.0
G1 X110.3236 Y-86.3374 F12000.0
G1 X111.9162 Y-84.7448 F12000.0
G1 X113.7260 Y-83.3694 F12000.0
G1 X115.6805 Y-82.2111 F12000.0
G1 X117.7799 Y-81.2701 F12000.0
G1 X119.9516 Y-80.6186 F12000.0
G1 X122.1957 Y-80.2565 F12000.0
G1 X124.5122 Y-80.1842 F12000.0
G1 X126.7564 Y-80.4014 F12000.0
G1 X129.0005 Y-80.9081 F12000.0
G1 X131.0998 Y-81.7044 F12000.0
G1 X133.1268 Y-82.7903 F12000.0
G1 X135.0089 Y-84.0933 F12000.0
G1 X136.7463 Y-85.6135 F12000.0
G1 X138.1941 Y-87.2785 F12000.0
G1 X139.4971 Y-89.2330 F12000.0
G1 X140.4382 Y-91.2599 F12000.0
G1 X141.2345 Y-93.4317 F12000.0
G1 X141.6688 Y-95.6758 F12000.0
G1 X141.8136 Y-97.9200 F12000.0
G1 X141.7413 Y-100.1640 F12000.0
G1 X141.3069 Y-102.4082 F12000.0
G1 X140.6554 Y-104.5799 F12000.0
G1 X139.7143 Y-106.6792 F12000.0
G1 X138.4837 Y-108.6338 F12000.0
G1 X137.0358 Y-110.3711 F12000.0
G1 X135.3708 Y-111.9638 F12000.0
G1 X133.5611 Y-113.2668 F12000.0
G1 X131.5342 Y-114.4251 F12000.0
G1 X129.4348 Y-115.2214 F12000.0
G1 X127.1907 Y-115.8004 F12000.0
G1 X124.9465 Y-116.0900 F12000.0
G1 X123.8607 Y-116.0900 F12000.0
G1 Z0.0000 F2500.0
G4 P0.02
G0 X123.8607 Y-110.1540 F15000.0
G1 Z11.9000 F2500.0
G4 P0.02
G1 X122.0510 Y-110.0092 F12000.0
G1 X120.2412 Y-109.5749 F12000.0
G1 X118.5038 Y-108.8509 F12000.0
G1 X116.9112 Y-107.9099 F12000.0
G1 X115.4634 Y-106.6792 F12000.0
G1 X114.3051 Y-105.3038 F12000.0
G1 X113.2916 Y-103.7112 F12000.0
G1 X112.5677 Y-101.9738 F12000.0
G1 X112.0610 Y-100.1640 F12000.0
G1 X111.9162 Y-98.3543 F12000.0
G1 X112.0610 Y-96.4721 F12000.0
G1 X112.4230 Y-94.6624 F12000.0
G1 X113.1469 Y-92.9250 F12000.0
G1 X114.0879 Y-91.3324 F12000.0
G1 X115.2462 Y-89.8846 F12000.0
G1 X116.6217 Y-88.6539 F12000.0
G1 X118.2142 Y-87.6404 F12000.0
G1 X119.8792 Y-86.8441 F12000.0
G1 X121.6890 Y-86.4098 F12000.0
G1 X123.4988 Y-86.1926 F12000.0
G1 X125.3809 Y-86.2650 F12000.0
G1 X127.1907 Y-86.6270 F12000.0
G1 X128.9281 Y-87.2785 F12000.0
G1 X130.5930 Y-88.2196 F12000.0
G1 X132.0409 Y-89.3778 F12000.0
G1 X133.2715 Y-90.7533 F12000.0
G1 X134.3574 Y-92.2735 F12000.0
G1 X135.0812 Y-93.9384 F12000.0
G1 X135.5880 Y-95.7482 F12000.0
G1 X135.8776 Y-97.6304 F12000.0
G1 X135.8052 Y-99.4402 F12000.0
G1 X135.4433 Y-101.3223 F12000.0
G1 X134.7917 Y-103.0597 F12000.0
G1 X133.9230 Y-104.6523 F12000.0
G1 X132.7648 Y-106.1725 F12000.0
G1 X131.4617 Y-107.4031 F12000.0
G1 X129.9415 Y-108.4890 F12000.0
G1 X128.2041 Y-109.2853 F12000.0
G1 X126.4668 Y-109.8645 F12000.0
G1 X124.5846 Y-110.0816 F12000.0
G1 X123.8607 Y-110.1540 F12000.0
G1 Z0.0000 F2500.0
G4 P0.02
G0 X123.8607 Y-109.0681 F15000.0
G1 Z11.9000 F2500.0
G4 P0.02
G1 X122.1233 Y-108.9233 F12000.0
G1 X120.3859 Y-108.4890 F12000.0
G1 X118.7934 Y-107.7651 F12000.0
G1 X117.2732 Y-106.8240 F12000.0
G1 X115.9701 Y-105.5933 F12000.0
G1 X114.8843 Y-104.2180 F12000.0
G1 X114.0156 Y-102.6978 F12000.0
G1 X113.3641 Y-101.0327 F12000.0
G1 X113.0745 Y-99.2953 F12000.0
G1 X113.0021 Y-97.4856 F12000.0
G1 X113.2916 Y-95.7482 F12000.0
G1 X113.7984 Y-94.0832 F12000.0
G1 X114.5947 Y-92.4906 F12000.0
G1 X115.6081 Y-91.0428 F12000.0
G1 X116.9112 Y-89.8121 F12000.0
G1 X118.3590 Y-88.7263 F12000.0
G1 X119.9516 Y-88.0024 F12000.0
G1 X121.6166 Y-87.4957 F12000.0
G1 X123.4263 Y-87.2785 F12000.0
G1 X125.1637 Y-87.3509 F12000.0
G1 X126.9011 Y-87.7128 F12000.0
G1 X128.5662 Y-88.2919 F12000.0
G1 X130.0864 Y-89.2330 F12000.0
G1 X131.4617 Y-90.3189 F12000.0
G1 X132.6924 Y-91.6943 F12000.0
G1 X133.5611 Y-93.1422 F12000.0
G1 X134.2850 Y-94.8071 F12000.0
G1 X134.6469 Y-96.5445 F12000.0
G1 X134.7917 Y-98.2819 F12000.0
G1 X134.6469 Y-100.0917 F12000.0
G1 X134.1402 Y-101.8291 F12000.0
G1 X133.4163 Y-103.4216 F12000.0
G1 X132.4753 Y-104.8695 F12000.0
G1 X131.2446 Y-106.1725 F12000.0
G1 X129.8692 Y-107.2584 F12000.0
G1 X128.2766 Y-108.1271 F12000.0
G1 X126.6116 Y-108.7062 F12000.0
G1 X124.8742 Y-108.9958 F12000.0
G1 X123.8607 Y-109.0681 F12000.0
G1 Z0.0000 F2500.0
G4 P0.02
G0 X123.8607 Y-105.8105 F15000.0
G1 Z11.9000 F2500.0
G4 P0.02
G1 X122.4129 Y-105.6658 F12000.0
G1 X120.9651 Y-105.3038 F12000.0
G1 X119.6621 Y-104.5799 F12000.0
G1 X118.5038 Y-103.6388 F12000.0
G1 X117.5627 Y-102.4806 F12000.0
G1 X116.8388 Y-101.1775 F12000.0
G1 X116.4045 Y-99.8021 F12000.0
G1 X116.1873 Y-98.2819 F12000.0
G1 X116.3321 Y-96.8341 F12000.0
G1 X116.6940 Y-95.3862 F12000.0
G1 X117.4179 Y-94.0108 F12000.0
G1 X118.2866 Y-92.8526 F12000.0
G1 X119.4449 Y-91.9115 F12000.0
G1 X120.7479 Y-91.1152 F12000.0
G1 X122.1233 Y-90.6808 F12000.0
G1 X123.6435 Y-90.4637 F12000.0
G1 X125.0914 Y-90.5361 F12000.0
G1 X126.5392 Y-90.8980 F12000.0
G1 X127.9146 Y-91.5495 F12000.0
G1 X129.0728 Y-92.4906 F12000.0
G1 X130.0864 Y-93.5765 F12000.0
G1 X130.8102 Y-94.8795 F12000.0
G1 X131.3170 Y-96.2549 F12000.0
G1 X131.6066 Y-97.7028 F12000.0
G1 X131.5342 Y-99.2230 F12000.0
G1 X131.1722 Y-100.6708 F12000.0
G1 X130.5207 Y-102.0462 F12000.0
G1 X129.6520 Y-103.2044 F12000.0
G1 X128.5662 Y-104.2180 F12000.0
G1 X127.3354 Y-105.0142 F12000.0
G1 X125.9601 Y-105.5933 F12000.0
G1 X124.4399 Y-105.8105 F12000.0
G1 X123.8607 Y-105.8105 F12000.0
G1 Z0.0000 F2500.0
G4 P0.02
G0 X123.8607 Y-99.8745 F15000.0
G1 Z11.9000 F2500.0
G4 P0.02
G1 X123.2092 Y-99.7297 F12000.0
G1 X122.6301 Y-99.2953 F12000.0
G1 X122.2681 Y-98.7162 F12000.0
G1 X122.1957 Y-97.9923 F12000.0
G1 X122.4129 Y-97.3408 F12000.0
G1 X122.8472 Y-96.8341 F12000.0
G1 X123.4263 Y-96.4721 F12000.0
G1 X124.1503 Y-96.4721 F12000.0
G1 X124.8018 Y-96.6893 F12000.0
G1 X125.3086 Y-97.1960 F12000.0
G1 X125.5981 Y-97.8475 F12000.0
G1 X125.5257 Y-98.5715 F12000.0
G1 X125.2361 Y-99.1506 F12000.0
G1 X124.7294 Y-99.6573 F12000.0
G1 X124.0779 Y-99.8745 F12000.0
G1 Z0.0000 F2500.0
G4 P0.02
G0 X145.9399 Y-109.2853 F15000.0
G1 Z11.9000 F2500.0
G4 P0.02
G1 X169.3945 Y-109.2853 F12000.0
G1 X169.3945 Y-87.0613 F12000.0
G1 Z0.0000 F2500.0
G4 P0.02
G0 X145.9399 Y-87.0613 F15000.0
G1 Z11.9000 F2500.0
G4 P0.02
G1 X169.3945 Y-87.0613 F12000.0
G1 Z0.0000 F2500.0
G4 P0.02
G0 X163.0242 Y-96.2549 F15000.0
G1 Z11.9000 F2500.0
G4 P0.02
G1 X145.9399 Y-96.2549 F12000.0
G1 Z0.0000 F2500.0
G4 P0.02
G0 X163.0242 Y-99.6573 F15000.0
G1 Z11.9000 F2500.0
G4 P0.02
G1 X163.0242 Y-98.1371 F12000.0
G1 Z0.0000 F2500.0
G4 P0.02
G0 X163.0242 Y-99.6573 F15000.0
G1 Z11.9000 F2500.0
G4 P0.02
G1 X145.9399 Y-99.6573 F12000.0
G1 Z0.0000 F2500.0
G4 P0.02
G0 X163.0242 Y-98.1371 F15000.0
G1 Z11.9000 F2500.0
G4 P0.02
G1 X163.0242 Y-96.2549 F12000.0
G1 Z0.0000 F2500.0
G4 P0.02
G0 X113.2916 Y-101.9738 F15000.0
G1 Z11.9000 F2500.0
G4 P0.02
G1 X112.7849 Y-100.2364 F12000.0
G1 X112.6401 Y-98.4991 F12000.0
G1 X112.7125 Y-96.6893 F12000.0
G1 X113.0745 Y-94.8795 F12000.0
G1 X113.7260 Y-93.2145 F12000.0
G1 X114.6671 Y-91.6943 F12000.0
G1 X115.8253 Y-90.2465 F12000.0
G1 X117.2008 Y-89.0882 F12000.0
G1 X118.7210 Y-88.1472 F12000.0
G1 X120.3859 Y-87.4232 F12000.0
G1 X122.1233 Y-86.9889 F12000.0
G1 X123.9331 Y-86.8441 F12000.0
G1 X125.7429 Y-87.0613 F12000.0
G1 X127.4803 Y-87.4957 F12000.0
G1 X129.1453 Y-88.1472 F12000.0
G1 X130.6655 Y-89.1606 F12000.0
G1 X132.0409 Y-90.3189 F12000.0
G1 X133.1991 Y-91.7667 F12000.0
G1 X134.0678 Y-93.2869 F12000.0
G1 X134.7193 Y-94.9519 F12000.0
G1 X135.0812 Y-96.7617 F12000.0
G1 X135.1537 Y-98.5715 F12000.0
G1 X134.9365 Y-100.3812 F12000.0
G1 X134.4297 Y-102.1186 F12000.0
G1 X133.7059 Y-103.7112 F12000.0
G1 X132.6924 Y-105.2314 F12000.0
G1 X131.4617 Y-106.5344 F12000.0
G1 X130.0139 Y-107.6203 F12000.0
G1 X128.4213 Y-108.4890 F12000.0
G1 X127.7698 Y-108.7786 F12000.0
G1 Z0.0000 F2500.0
G4 P0.02
G0 X95.4835 Y-86.0479 F15000.0
G1 Z11.9000 F2500.0
G4 P0.02
G1 X64.2830 Y-86.0479 F12000.0
G1 Z0.0000 F2500.0
G4 P0.02
G0 X95.4835 Y-110.2988 F15000.0
G1 Z11.9000 F2500.0
G4 P0.02
G1 X64.2830 Y-110.2988 F12000.0
G1 Z0.0000 F2500.0
G4 P0.02
G0 X95.4835 Y-81.0529 F15000.0
G1 Z11.9000 F2500.0
G4 P0.02
G1 X95.4835 Y-115.2214 F12000.0
G1 Z0.0000 F2500.0
G4 P0.02
G0 X101.8539 Y-115.2214 F15000.0
G1 Z11.9000 F2500.0
G4 P0.02
G1 X101.8539 Y-143.1642 F12000.0
G1 Z0.0000 F2500.0
G4 P0.02
G0 X145.9399 Y-115.2214 F15000.0
G1 Z11.9000 F2500.0
G4 P0.02
G1 X145.9399 Y-143.1642 F12000.0
G1 Z0.0000 F2500.0
G4 P0.02
G0 X64.2830 Y-81.0529 F15000.0
G1 Z11.9000 F2500.0
G4 P0.02
G1 X64.2830 Y-46.4500 F12000.0
G1 Z0.0000 F2500.0
G4 P0.02
G0 X169.3945 Y-87.0613 F15000.0
G1 Z11.9000 F2500.0
G4 P0.02
G1 X169.3945 Y-46.4500 F12000.0
G1 Z0.0000 F2500.0
G4 P0.02
G0 X101.8539 Y-81.0529 F15000.0
G1 Z11.9000 F2500.0
G4 P0.02
G1 X101.8539 Y-64.1858 F12000.0
G1 Z0.0000 F2500.0
G4 P0.02
G0 X140.8002 Y-120.3611 F15000.0
G1 Z11.9000 F2500.0
G4 P0.02
G1 X140.8002 Y-135.6356 F12000.0
G1 Z0.0000 F2500.0
G4 P0.02
G0 X150.1386 Y-133.9705 F15000.0
G1 Z11.9000 F2500.0
G4 P0.02
G1 X172.4350 Y-133.9705 F12000.0
G1 Z0.0000 F2500.0
G4 P0.02
G0 X169.3945 Y-109.2853 F15000.0
G1 Z11.9000 F2500.0
G4 P0.02
G1 X180.0000 Y-109.2853 F12000.0
G1 Z0.0000 F2500.0
G4 P0.02
G0 X169.3945 Y-87.0613 F15000.0
G1 Z11.9000 F2500.0
G4 P0.02
G1 X180.0000 Y-87.0613 F12000.0
G1 Z0.0000 F2500.0
G4 P0.02
G0 X64.2830 Y-81.0529 F15000.0
G1 Z11.9000 F2500.0
G4 P0.02
G1 X39.1634 Y-81.0529 F12000.0
G1 Z0.0000 F2500.0
G4 P0.02
G0 X64.2830 Y-115.2214 F15000.0
G1 Z11.9000 F2500.0
G4 P0.02
G1 X39.1634 Y-115.2214 F12000.0
G1 Z0.0000 F2500.0
G4 P0.02
G0 X123.8607 Y-98.1371 F15000.0
G1 Z11.9000 F2500.0
G4 P0.02
G1 X123.8607 Y-55.5713 F12000.0
G1 Z0.0000 F2500.0
G4 P0.02
G0 X163.0242 Y-96.2549 F15000.0
G1 Z11.9000 F2500.0
G4 P0.02
G1 X180.0000 Y-96.2549 F12000.0
G1 Z0.0000 F2500.0
G4 P0.02
G0 X163.0242 Y-99.6573 F15000.0
G1 Z11.9000 F2500.0
G4 P0.02
G1 X180.0000 Y-99.6573 F12000.0
G1 Z0.0000 F2500.0
G4 P0.02
G0 X101.8539 Y-141.4268 F15000.0
G1 Z11.9000 F2500.0
G4 P0.02
G1 X106.1249 Y-142.0059 F12000.0
G1 X105.6906 Y-141.4268 F12000.0
G1 X106.1249 Y-140.9201 F12000.0
G1 X101.8539 Y-141.4268 F12000.0
G1 Z0.0000 F2500.0
G4 P0.02
G0 X103.8942 Y-141.7164 F15000.0
G1 Z11.9000 F2500.0
G4 P0.02
G1 X104.6637 Y-141.7164 F12000.0
G1 Z0.0000 F2500.0
G4 P0.02
G0 X103.6047 Y-141.2097 F15000.0
G1 Z11.9000 F2500.0
G4 P0.02
G1 X104.3742 Y-141.2097 F12000.0
G1 Z0.0000 F2500.0
G4 P0.02
G0 X145.9399 Y-141.4268 F15000.0
G1 Z11.9000 F2500.0
G4 P0.02
G1 X141.6688 Y-140.9201 F12000.0
G1 X142.0308 Y-141.4268 F12000.0
G1 X141.6688 Y-142.0059 F12000.0
G1 X145.9399 Y-141.4268 F12000.0
G1 Z0.0000 F2500.0
G4 P0.02
G0 X143.4558 Y-141.2097 F15000.0
G1 Z11.9000 F2500.0
G4 P0.02
G1 X144.2253 Y-141.2097 F12000.0
G1 Z0.0000 F2500.0
G4 P0.02
G0 X143.2025 Y-141.7164 F15000.0
G1 Z11.9000 F2500.0
G4 P0.02
G1 X143.9720 Y-141.7164 F12000.0
G1 Z0.0000 F2500.0
G4 P0.02
G0 X101.8539 Y-141.4268 F15000.0
G1 Z11.9000 F2500.0
G4 P0.02
G1 X145.9399 Y-141.4268 F12000.0
G1 Z0.0000 F2500.0
G4 P0.02
G0 X64.2830 Y-48.1874 F15000.0
G1 Z11.9000 F2500.0
G4 P0.02
G1 X68.5542 Y-48.7666 F12000.0
G1 X68.1198 Y-48.1874 F12000.0
G1 X68.5542 Y-47.6083 F12000.0
G1 X64.2830 Y-48.1874 F12000.0
G1 Z0.0000 F2500.0
G4 P0.02
G0 X66.3234 Y-48.4770 F15000.0
G1 Z11.9000 F2500.0
G4 P0.02
G1 X67.0929 Y-48.4770 F12000.0
G1 Z0.0000 F2500.0
G4 P0.02
G0 X66.0338 Y-47.9341 F15000.0
G1 Z11.9000 F2500.0
G4 P0.02
G1 X66.8033 Y-47.9341 F12000.0
G1 Z0.0000 F2500.0
G4 P0.02
G0 X169.3945 Y-48.1874 F15000.0
G1 Z11.9000 F2500.0
G4 P0.02
G1 X165.1235 Y-47.6083 F12000.0
G1 X165.5578 Y-48.1874 F12000.0
G1 X165.1235 Y-48.7666 F12000.0
G1 X169.3945 Y-48.1874 F12000.0
G1 Z0.0000 F2500.0
G4 P0.02
G0 X166.9105 Y-47.9341 F15000.0
G1 Z11.9000 F2500.0
G4 P0.02
G1 X167.6800 Y-47.9341 F12000.0
G1 Z0.0000 F2500.0
G4 P0.02
G0 X166.6570 Y-48.4770 F15000.0
G1 Z11.9000 F2500.0
G4 P0.02
G1 X167.4266 Y-48.4770 F12000.0
G1 Z0.0000 F2500.0
G4 P0.02
G0 X64.2830 Y-48.1874 F15000.0
G1 Z11.9000 F2500.0
G4 P0.02
G1 X169.3945 Y-48.1874 F12000.0
G1 Z0.0000 F2500.0
G4 P0.02
G0 X101.8539 Y-65.9231 F15000.0
G1 Z11.9000 F2500.0
G4 P0.02
G1 X97.5829 Y-65.3440 F12000.0
G1 X98.0172 Y-65.9231 F12000.0
G1 X97.5829 Y-66.4299 F12000.0
G1 X101.8539 Y-65.9231 F12000.0
G1 Z0.0000 F2500.0
G4 P0.02
G0 X99.3698 Y-65.6698 F15000.0
G1 Z11.9000 F2500.0
G4 P0.02
G1 X100.1394 Y-65.6698 F12000.0
G1 Z0.0000 F2500.0
G4 P0.02
G0 X99.0803 Y-66.1766 F15000.0
G1 Z11.9000 F2500.0
G4 P0.02
G1 X99.8498 Y-66.1766 F12000.0
G1 Z0.0000 F2500.0
G4 P0.02
G0 X64.2830 Y-65.9231 F15000.0
G1 Z11.9000 F2500.0
G4 P0.02
G1 X68.5542 Y-66.4299 F12000.0
G1 X68.1198 Y-65.9231 F12000.0
G1 X68.5542 Y-65.3440 F12000.0
G1 X64.2830 Y-65.9231 F12000.0
G1 Z0.0000 F2500.0
G4 P0.02
G0 X66.3596 Y-66.1766 F15000.0
G1 Z11.9000 F2500.0
G4 P0.02
G1 X67.1291 Y-66.1766 F12000.0
G1 Z0.0000 F2500.0
G4 P0.02
G0 X66.0338 Y-65.6698 F15000.0
G1 Z11.9000 F2500.0
G4 P0.02
G1 X66.8033 Y-65.6698 F12000.0
G1 Z0.0000 F2500.0
G4 P0.02
G0 X101.8539 Y-65.9231 F15000.0
G1 Z11.9000 F2500.0
G4 P0.02
G1 X64.2830 Y-65.9231 F12000.0
G1 Z0.0000 F2500.0
G4 P0.02
G0 X145.9399 Y-133.9705 F15000.0
G1 Z11.9000 F2500.0
G4 P0.02
G1 X150.2110 Y-133.3914 F12000.0
G1 X149.7767 Y-133.9705 F12000.0
G1 X150.2110 Y-134.4773 F12000.0
G1 X145.9399 Y-133.9705 F12000.0
G1 X151.8760 Y-133.9705 F12000.0
G1 Z0.0000 F2500.0
G4 P0.02
G0 X147.6907 Y-133.7172 F15000.0
G1 Z11.9000 F2500.0
G4 P0.02
G1 X148.4602 Y-133.7172 F12000.0
G1 Z0.0000 F2500.0
G4 P0.02
G0 X148.0164 Y-134.2240 F15000.0
G1 Z11.9000 F2500.0
G4 P0.02
G1 X148.7860 Y-134.2240 F12000.0
G1 Z0.0000 F2500.0
G4 P0.02
G0 X140.8002 Y-133.9705 F15000.0
G1 Z11.9000 F2500.0
G4 P0.02
G1 X136.5291 Y-134.4773 F12000.0
G1 X136.9635 Y-133.9705 F12000.0
G1 X136.5291 Y-133.3914 F12000.0
G1 X140.8002 Y-133.9705 F12000.0
G1 X134.7917 Y-133.9705 F12000.0
G1 Z0.0000 F2500.0
G4 P0.02
G0 X138.0265 Y-134.2240 F15000.0
G1 Z11.9000 F2500.0
G4 P0.02
G1 X138.7960 Y-134.2240 F12000.0
G1 Z0.0000 F2500.0
G4 P0.02
G0 X138.3161 Y-133.7172 F15000.0
G1 Z11.9000 F2500.0
G4 P0.02
G1 X139.0856 Y-133.7172 F12000.0
G1 Z0.0000 F2500.0
G4 P0.02
G0 X145.9399 Y-133.9705 F15000.0
G1 Z11.9000 F2500.0
G4 P0.02
G1 X140.8002 Y-133.9705 F12000.0
G1 Z0.0000 F2500.0
G4 P0.02
G0 X40.9008 Y-81.0529 F15000.0
G1 Z11.9000 F2500.0
G4 P0.02
G1 X40.3217 Y-85.3239 F12000.0
G1 X40.9008 Y-84.8896 F12000.0
G1 X41.4076 Y-85.3239 F12000.0
G1 X40.9008 Y-81.0529 F12000.0
G1 Z0.0000 F2500.0
G4 P0.02
G0 X40.6475 Y-83.8627 F15000.0
G1 Z11.9000 F2500.0
G4 P0.02
G1 X40.6475 Y-83.0932 F12000.0
G1 Z0.0000 F2500.0
G4 P0.02
G0 X41.1542 Y-83.6094 F15000.0
G1 Z11.9000 F2500.0
G4 P0.02
G1 X41.1542 Y-82.8399 F12000.0
G1 Z0.0000 F2500.0
G4 P0.02
G0 X40.9008 Y-115.2214 F15000.0
G1 Z11.9000 F2500.0
G4 P0.02
G1 X41.4076 Y-110.9503 F12000.0
G1 X40.9008 Y-111.3847 F12000.0
G1 X40.3217 Y-110.9503 F12000.0
G1 X40.9008 Y-115.2214 F12000.0
G1 Z0.0000 F2500.0
G4 P0.02
G0 X41.1542 Y-113.5068 F15000.0
G1 Z11.9000 F2500.0
G4 P0.02
G1 X41.1542 Y-112.7373 F12000.0
G1 Z0.0000 F2500.0
G4 P0.02
G0 X40.6475 Y-113.2534 F15000.0
G1 Z11.9000 F2500.0
G4 P0.02
G1 X40.6475 Y-112.4839 F12000.0
G1 Z0.0000 F2500.0
G4 P0.02
G0 X40.9008 Y-81.0529 F15000.0
G1 Z11.9000 F2500.0
G4 P0.02
G1 X40.9008 Y-115.2214 F12000.0
G1 Z0.0000 F2500.0
G4 P0.02
G0 X64.2830 Y-57.3087 F15000.0
G1 Z11.9000 F2500.0
G4 P0.02
G1 X68.5542 Y-57.8878 F12000.0
G1 X68.1198 Y-57.3087 F12000.0
G1 X68.5542 Y-56.7296 F12000.0
G1 X64.2830 Y-57.3087 F12000.0
G1 Z0.0000 F2500.0
G4 P0.02
G0 X66.3234 Y-57.5983 F15000.0
G1 Z11.9000 F2500.0
G4 P0.02
G1 X67.0929 Y-57.5983 F12000.0
G1 Z0.0000 F2500.0
G4 P0.02
G0 X66.0338 Y-57.0553 F15000.0
G1 Z11.9000 F2500.0
G4 P0.02
G1 X66.8033 Y-57.0553 F12000.0
G1 Z0.0000 F2500.0
G4 P0.02
G0 X123.8607 Y-57.3087 F15000.0
G1 Z11.9000 F2500.0
G4 P0.02
G1 X119.5897 Y-56.7296 F12000.0
G1 X120.0240 Y-57.3087 F12000.0
G1 X119.5897 Y-57.8878 F12000.0
G1 X123.8607 Y-57.3087 F12000.0
G1 Z0.0000 F2500.0
G4 P0.02
G0 X121.3766 Y-57.0553 F15000.0
G1 Z11.9000 F2500.0
G4 P0.02
G1 X122.1461 Y-57.0553 F12000.0
G1 Z0.0000 F2500.0
G4 P0.02
G0 X121.1233 Y-57.5983 F15000.0
G1 Z11.9000 F2500.0
G4 P0.02
G1 X121.8928 Y-57.5983 F12000.0
G1 Z0.0000 F2500.0
G4 P0.02
G0 X64.2830 Y-57.3087 F15000.0
G1 Z11.9000 F2500.0
G4 P0.02
G1 X123.8607 Y-57.3087 F12000.0
G1 Z0.0000 F2500.0
G4 P0.02
G0 X20.5203 Y-277.7388 F15000.0
G1 Z11.9000 F2500.0
G4 P0.02
G1 X180.0000 Y-277.7388 F12000.0
G1 Z0.0000 F2500.0
G4 P0.02
G0 X180.0000 Y-32.3338 F15000.0
G1 Z11.9000 F2500.0
G4 P0.02
G1 X20.5203 Y-32.3338 F12000.0
G1 Z0.0000 F2500.0
G4 P0.02
G0 X77.3858 Y-265.7943 F15000.0
G1 Z11.9000 F2500.0
G4 P0.02
G1 X20.5203 Y-265.7943 F12000.0
G1 Z0.0000 F2500.0
G4 P0.02
G0 X77.3858 Y-277.7388 F15000.0
G1 Z11.9000 F2500.0
G4 P0.02
G1 X77.3858 Y-265.7943 F12000.0
G1 Z0.0000 F2500.0
G4 P0.02
G0 X70.4786 Y-71.2421 F15000.0
G1 Z11.9000 F2500.0
G4 P0.02
G1 X70.6829 Y-71.3609 F12000.0
G1 X70.2887 Y-70.9668
G1 X70.6579 Y-71.3314
G1 X70.8476 Y-71.4100
G1 X71.3924 Y-71.3742
G1 X71.7080 Y-71.0825
G1 X71.8995 Y-70.3566
G1 X71.6303 Y-69.6483
G1 X72.0075 Y-69.0061
G1 X72.0873 Y-68.3476
G1 X71.8198 Y-67.7559
G1 X71.5853 Y-67.5408
G1 X71.2640 Y-67.4953
G1 X70.5008 Y-67.5867
G1 X70.0817 Y-68.0771
G1 X70.1372 Y-69.1262
G1 X70.4531 Y-69.3881
G1 X71.5901 Y-69.6176
G1 Z0.0000 F2500.0
G4 P0.02
G0 X70.2221 Y-69.1901 F15000.0
G1 Z11.9000 F2500.0
G4 P0.02
G1 X70.5094 Y-69.5858 F12000.0
G1 X70.2390 Y-70.1454
G1 X70.2221 Y-70.9001
G1 Z0.0000 F2500.0
G4 P0.02
G0 X69.9656 Y-68.2495 F15000.0
G1 Z11.9000 F2500.0
G4 P0.02
G1 X70.0511 Y-68.0785 F12000.0
G1 Z0.0000 F2500.0
G4 P0.02
G0 X73.4711 Y-68.2495 F15000.0
G1 Z11.9000 F2500.0
G4 P0.02
G1 X73.5566 Y-68.0785 F12000.0
G1 Z0.0000 F2500.0
G4 P0.02
G0 X73.7277 Y-69.1901 F15000.0
G1 Z11.9000 F2500.0
G4 P0.02
G1 X74.0149 Y-69.5858 F12000.0
G1 X73.7445 Y-70.1454
G1 X73.7335 Y-70.8057
G1 X73.9441 Y-71.1720
G1 X74.1773 Y-71.3497
G1 X73.7831 Y-70.9556
G1 X74.2840 Y-71.3950
G1 X74.9297 Y-71.3608
G1 X75.1744 Y-71.1460
G1 X75.3467 Y-70.7462
G1 X75.3977 Y-70.3235
G1 X75.1344 Y-69.6173
G1 X75.4873 Y-69.0756
G1 X75.5711 Y-68.2094
G1 X75.2395 Y-67.6402
G1 X75.0584 Y-67.5277
G1 X73.9783 Y-67.6042
G1 X73.6203 Y-68.0143
G1 X73.5696 Y-68.2143
G1 X73.6355 Y-69.0830
G1 X73.8018 Y-69.3128
G1 X75.0957 Y-69.6176
G1 Z0.0000 F2500.0
G4 P0.02
G0 X81.2452 Y-62.9979 F15000.0
G1 Z11.9000 F2500.0
G4 P0.02
G1 X81.9573 Y-62.9903 F12000.0
G1 X82.4883 Y-62.7340
G1 X82.6729 Y-62.0767
G1 X82.5863 Y-61.7934
G1 X82.3329 Y-61.4502
G1 X82.5403 Y-61.0785
G1 X82.6863 Y-60.1771
G1 X82.6151 Y-59.8856
G1 X82.4852 Y-59.7537
G1 X81.2452 Y-59.4924
G1 Z0.0000 F2500.0
G4 P0.02
G0 X82.4423 Y-59.5779 F15000.0
G1 Z11.9000 F2500.0
G4 P0.02
G1 X82.3268 Y-59.5349 F12000.0
G1 X82.5278 Y-59.7489
G1 Z0.0000 F2500.0
G4 P0.02
G0 X84.8363 Y-59.7489 F15000.0
G1 Z11.9000 F2500.0
G4 P0.02
G1 X85.2636 Y-60.3923 F12000.0
G1 X85.4161 Y-61.0658
G1 X85.3478 Y-62.5854
G1 X85.1947 Y-62.8487
G1 X84.9345 Y-62.9733
G1 X84.2428 Y-62.8867
G1 X84.1031 Y-62.7575
G1 X83.9121 Y-61.5611
G1 X84.1384 Y-61.1347
G1 X84.3036 Y-61.0423
G1 X85.1143 Y-61.0298
G1 X85.3493 Y-60.9459
G1 Z0.0000 F2500.0
G4 P0.02
G0 X89.1114 Y-59.5779 F15000.0
G1 Z11.9000 F2500.0
G4 P0.02
G1 X89.2823 Y-59.8344 F12000.0
G1 Z0.0000 F2500.0
G4 P0.02
G0 X89.2823 Y-62.9979 F15000.0
G1 Z11.9000 F2500.0
G4 P0.02
G1 X87.9931 Y-62.9958 F12000.0
G1 X87.8444 Y-62.7824
G1 X87.8556 Y-61.5893
G1 X88.7155 Y-61.4343
G1 X89.1536 Y-61.2010
G1 X89.2812 Y-60.9547
G1 X89.3549 Y-60.1453
G1 X89.2864 Y-59.8621
G1 X88.9919 Y-59.5299
G1 X89.0434 Y-59.5620
G1 X87.9143 Y-59.4924
G1 Z0.0000 F2500.0
G4 P0.02
G0 X86.6318 Y-59.6634 F15000.0
G1 Z11.9000 F2500.0
G4 P0.02
G1 X86.6098 Y-59.2586 F12000.0
G1 X86.4608 Y-58.7228
G1 Z0.0000 F2500.0
G4 P0.02
G0 X79.9627 Y-59.4924 F15000.0
G1 Z11.9000 F2500.0
G4 P0.02
G1 X79.9287 Y-62.6237 F12000.0
G1 X79.9627 Y-62.5704
G1 Z0.0000 F2500.0
G4 P0.02
G0 X113.0904 Y-53.5602 F15000.0
G1 Z11.9000 F2500.0
G4 P0.02
G1 X113.6096 Y-53.6042 F12000.0
G1 X114.1462 Y-53.2964
G1 X114.2731 Y-53.0369
G1 X114.3305 Y-52.6451
G1 X113.8907 Y-51.7443
G1 X114.2019 Y-52.2777
G1 Z0.0000 F2500.0
G4 P0.02
G0 X113.8599 Y-51.6792 F15000.0
G1 Z11.9000 F2500.0
G4 P0.02
G1 X112.9749 Y-50.2405 F12000.0
G1 X112.9917 Y-49.9860
G1 X114.2874 Y-49.8837
G1 Z0.0000 F2500.0
G4 P0.02
G0 X113.2614 Y-50.8242 F15000.0
G1 Z11.9000 F2500.0
G4 P0.02
G1 X113.4324 Y-50.9952 F12000.0
G1 Z0.0000 F2500.0
G4 P0.02
G0 X116.2539 Y-53.1327 F15000.0
G1 Z11.9000 F2500.0
G4 P0.02
G1 X116.3034 Y-53.1583 F12000.0
G1 X115.7700 Y-51.3066
G1 X115.8130 Y-50.8390
G1 X116.9515 Y-50.6915
G1 X117.0212 Y-50.5162
G1 X117.0234 Y-49.8837
G1 Z0.0000 F2500.0
G4 P0.02
G0 X118.9899 Y-52.0212 F15000.0
G1 Z11.9000 F2500.0
G4 P0.02
G1 X119.9529 Y-51.9136 F12000.0
G1 X120.3904 Y-51.6273
G1 X120.5146 Y-50.4664
G1 X120.4316 Y-50.1594
G1 X120.2483 Y-49.9467
G1 X119.2662 Y-49.9070
G1 X119.0929 Y-49.9919
G1 X118.9260 Y-50.2445
G1 X118.9072 Y-51.7479
G1 X119.0098 Y-52.3721
G1 X119.5030 Y-53.2182
G1 Z0.0000 F2500.0
G4 P0.02
G0 X120.1015 Y-51.8502 F15000.0
G1 Z11.9000 F2500.0
G4 P0.02
G1 X120.2725 Y-51.7647 F12000.0
G1 Z0.0000 F2500.0
G4 P0.02

G0 Z0.0000 F800.0
G4 P0.06
G0 X0.0000 Y0.0000 F15000.0
M5
G4 P0.10
