$X
$1=255
G21
G90
G92 Z4.0000
G0 Z0.0000 F800.0
G4 P0.06
G92 Z0.0000
G0 Z0.0000 F800.0
G0 X0.0000 Y0.0000 F15000.0
G21
G90
G17
G91.1
G0 Z0.0000
G0 X40.2970 Y-86.3778 F15000.0
G1 Z11.9000 F8000.0
G1 X39.7580 Y-85.5900 F12000.0
G1 Z0.0000 F8000.0
G0 X39.3434 Y-85.0095 F15000.0
G1 Z11.9000 F8000.0
G1 X39.1775 Y-84.9266 F12000.0
G1 X39.0532 Y-84.5120
G1 Z0.0000 F8000.0
G0 X39.1775 Y-84.9266 F15000.0
G1 Z11.9000 F8000.0
G1 X37.1873 Y-84.9681 F12000.0
G1 X37.0215 Y-83.8486
G1 X36.8557 Y-81.4438
G1 X36.6898 Y-80.8219
G1 Z0.0000 F8000.0
G0 X37.5605 Y-82.1487 F15000.0
G1 Z11.9000 F8000.0
G1 X37.1044 Y-81.5268 F12000.0
G1 X36.8971 Y-81.4438
G1 Z0.0000 F8000.0
G0 X37.3118 Y-86.6680 F15000.0
G1 Z11.9000 F8000.0
G1 X37.1459 Y-85.0095 F12000.0
G1 Z0.0000 F8000.0
G0 X47.3892 Y-97.5979 F15000.0
G1 Z11.9000 F8000.0
G1 X45.9795 Y-93.7005 F12000.0
G1 Z0.0000 F8000.0
G0 X45.8966 Y-93.6175 F15000.0
G1 Z11.9000 F8000.0
G1 X44.1137 Y-93.5761 F12000.0
G1 X44.6527 Y-95.3589
G1 Z0.0000 F8000.0
G0 X45.5649 Y-97.7637 F15000.0
G1 Z11.9000 F8000.0
G1 X44.7771 Y-95.6907 F12000.0
G1 Z0.0000 F8000.0
G0 X44.5283 Y-97.3076 F15000.0
G1 Z11.9000 F8000.0
G1 X43.4918 Y-97.8052 F12000.0
G1 X43.2430 Y-97.7222
G1 Z0.0000 F8000.0
G0 X44.4454 Y-97.1003 F15000.0
G1 Z11.9000 F8000.0
G1 X44.4040 Y-96.9760 F12000.0
G1 Z0.0000 F8000.0
G0 X44.2381 Y-96.5199 F15000.0
G1 Z11.9000 F8000.0
G1 X44.1966 Y-96.3955 F12000.0
G1 Z0.0000 F8000.0
G0 X44.0722 Y-96.0638 F15000.0
G1 Z11.9000 F8000.0
G1 X44.0308 Y-95.9394 F12000.0
G1 Z0.0000 F8000.0
G0 X43.6991 Y-95.1931 F15000.0
G1 Z11.9000 F8000.0
G1 X43.6161 Y-95.1102 F12000.0
G1 X42.4552 Y-94.8614
G1 X42.1650 Y-95.0687
G1 X42.9113 Y-97.3076
G1 Z0.0000 F8000.0
G0 X42.1650 Y-97.5979 F15000.0
G1 Z11.9000 F8000.0
G1 X41.1699 Y-97.7637 F12000.0
G1 X40.5894 Y-97.1418
G1 Z0.0000 F8000.0
G0 X41.2114 Y-95.1931 F15000.0
G1 Z11.9000 F8000.0
G1 X41.1285 Y-95.1102 F12000.0
G1 X40.0919 Y-94.9443
G1 Z0.0000 F8000.0
G0 X41.0041 Y-96.3126 F15000.0
G1 Z11.9000 F8000.0
G1 X40.5894 Y-96.3126 F12000.0
G1 X40.4651 Y-96.6028
G1 X40.5065 Y-96.8931
G1 Z0.0000 F8000.0
G0 X40.4651 Y-96.2296 F15000.0
G1 Z11.9000 F8000.0
G1 X40.1333 Y-95.8150 F12000.0
G1 X39.9675 Y-95.0687
G1 Z0.0000 F8000.0
G0 X40.0919 Y-97.8052 F15000.0
G1 Z11.9000 F8000.0
G1 X40.0504 Y-97.6808 F12000.0
G1 Z0.0000 F8000.0
G0 X89.4389 Y-111.0213 F15000.0
G1 Z11.9000 F8000.0
G1 X89.7291 Y-111.5188 F12000.0
G1 X89.6877 Y-111.8506
G1 X89.4389 Y-112.3896
G1 X88.9413 Y-112.8871
G1 Z0.0000 F8000.0
G0 X89.3560 Y-106.9995 F15000.0
G1 Z11.9000 F8000.0
G1 X89.6462 Y-106.6264 F12000.0
G1 X89.5218 Y-105.3824
G1 X89.0242 Y-105.2995
G1 Z0.0000 F8000.0
G0 X89.2730 Y-109.9848 F15000.0
G1 Z11.9000 F8000.0
G1 X89.5632 Y-109.8603 F12000.0
G1 X89.5632 Y-107.9946
G1 X88.0292 Y-108.8653
G1 Z0.0000 F8000.0
G0 X89.2730 Y-110.9384 F15000.0
G1 Z11.9000 F8000.0
G1 X88.6926 Y-110.9798 F12000.0
G1 X87.1585 Y-112.4310
G1 Z0.0000 F8000.0
G0 X89.1072 Y-107.2068 F15000.0
G1 Z11.9000 F8000.0
G1 X86.9926 Y-108.0360 F12000.0
G1 Z0.0000 F8000.0
G0 X88.1121 Y-105.6313 F15000.0
G1 Z11.9000 F8000.0
G1 X87.9878 Y-105.6727 F12000.0
G1 Z0.0000 F8000.0
G0 X87.4073 Y-105.8800 F15000.0
G1 Z11.9000 F8000.0
G1 X87.2828 Y-105.9215 F12000.0
G1 Z0.0000 F8000.0
G0 X87.2414 Y-109.3213 F15000.0
G1 Z11.9000 F8000.0
G1 X85.5000 Y-110.3579 F12000.0
G1 Z0.0000 F8000.0
G0 X86.8268 Y-106.0874 F15000.0
G1 Z11.9000 F8000.0
G1 X86.0804 Y-106.4190 F12000.0
G1 X85.6658 Y-106.8751
G1 X85.5829 Y-107.1239
G1 X85.5829 Y-108.0360
G1 Z0.0000 F8000.0
G0 X86.5780 Y-108.2019 F15000.0
G1 Z11.9000 F8000.0
G1 X85.9146 Y-108.3263 F12000.0
G1 X85.6658 Y-108.1604
G1 Z0.0000 F8000.0
G0 X85.7903 Y-113.7992 F15000.0
G1 Z11.9000 F8000.0
G1 X85.5829 Y-113.8821 F12000.0
G1 X85.5000 Y-112.3067
G1 Z0.0000 F8000.0
G0 X88.3017 Y-102.9203 F15000.0
G1 Z11.9000 F8000.0
G1 X88.4261 Y-101.6350 F12000.0
G1 X88.3846 Y-100.6399
G1 Z0.0000 F8000.0
G0 X88.3846 Y-97.2401 F15000.0
G1 Z11.9000 F8000.0
G1 X88.3846 Y-98.5254 F12000.0
G1 X85.6897 Y-99.5620
G1 Z0.0000 F8000.0
G0 X88.3846 Y-99.5205 F15000.0
G1 Z11.9000 F8000.0
G1 X85.8140 Y-100.4741 F12000.0
G1 Z0.0000 F8000.0
G0 X88.3432 Y-101.7179 F15000.0
G1 Z11.9000 F8000.0
G1 X87.1822 Y-102.0497 F12000.0
G1 Z0.0000 F8000.0
G0 X88.3017 Y-100.5570 F15000.0
G1 Z11.9000 F8000.0
G1 X88.0944 Y-100.4741 F12000.0
G1 X87.3066 Y-100.7229
G1 Z0.0000 F8000.0
G0 X88.2602 Y-97.1571 F15000.0
G1 Z11.9000 F8000.0
G1 X87.5969 Y-97.2401 F12000.0
G1 Z0.0000 F8000.0
G0 X88.0944 Y-103.0033 F15000.0
G1 Z11.9000 F8000.0
G1 X86.6432 Y-103.5423 F12000.0
G1 Z0.0000 F8000.0
G0 X87.2651 Y-97.3645 F15000.0
G1 Z11.9000 F8000.0
G1 X87.0164 Y-97.4474 F12000.0
G1 Z0.0000 F8000.0
G0 X86.8506 Y-100.8888 F15000.0
G1 Z11.9000 F8000.0
G1 X85.4408 Y-101.3863 F12000.0
G1 Z0.0000 F8000.0
G0 X86.7261 Y-102.2155 F15000.0
G1 Z11.9000 F8000.0
G1 X85.4408 Y-102.6716 F12000.0
G1 Z0.0000 F8000.0
G0 X86.6847 Y-97.5718 F15000.0
G1 Z11.9000 F8000.0
G1 X86.3116 Y-97.6962 F12000.0
G1 Z0.0000 F8000.0
G0 X86.1042 Y-103.7496 F15000.0
G1 Z11.9000 F8000.0
G1 X85.4823 Y-103.9569 F12000.0
G1 Z0.0000 F8000.0
G0 X85.9798 Y-97.8205 F15000.0
G1 Z11.9000 F8000.0
G1 X85.5237 Y-98.0279 F12000.0
G1 X85.5652 Y-97.9864
G1 Z0.0000 F8000.0
G0 X168.8600 Y-149.2142 F15000.0
G1 Z11.9000 F8000.0
G1 X168.7356 Y-150.7069 F12000.0
G1 X166.9943 Y-151.3288
G1 X166.7869 Y-150.2508
G1 Z0.0000 F8000.0
G0 X168.8186 Y-152.0751 F15000.0
G1 Z11.9000 F8000.0
G1 X168.7771 Y-153.0702 F12000.0
G1 Z0.0000 F8000.0
G0 X168.7356 Y-154.3555 F15000.0
G1 Z11.9000 F8000.0
G1 X168.5283 Y-154.4799 F12000.0
G1 X168.4454 Y-154.8530
G1 Z0.0000 F8000.0
G0 X168.6942 Y-153.2360 F15000.0
G1 Z11.9000 F8000.0
G1 X168.3625 Y-153.6092 F12000.0
G1 X166.9113 Y-154.1897
G1 Z0.0000 F8000.0
G0 X168.4868 Y-151.7849 F15000.0
G1 Z11.9000 F8000.0
G1 X166.1650 Y-152.4897 F12000.0
G1 Z0.0000 F8000.0
G0 X168.4868 Y-154.4799 F15000.0
G1 Z11.9000 F8000.0
G1 X164.7553 Y-155.8067 F12000.0
G1 Z0.0000 F8000.0
G0 X168.0723 Y-155.4335 F15000.0
G1 Z11.9000 F8000.0
G1 X167.7820 Y-155.7652 F12000.0
G1 Z0.0000 F8000.0
G0 X166.6625 Y-150.1264 F15000.0
G1 Z11.9000 F8000.0
G1 X166.3309 Y-150.0435 F12000.0
G1 X165.9577 Y-150.1679
G1 Z0.0000 F8000.0
G0 X166.0406 Y-154.5214 F15000.0
G1 Z11.9000 F8000.0
G1 X165.0040 Y-154.7701 F12000.0
G1 X164.8797 Y-154.6872
G1 Z0.0000 F8000.0
G0 X165.8333 Y-152.6141 F15000.0
G1 Z11.9000 F8000.0
G1 X165.3358 Y-152.8215 F12000.0
G1 Z0.0000 F8000.0
G0 X165.5430 Y-150.3337 F15000.0
G1 Z11.9000 F8000.0
G1 X164.9626 Y-150.7069 F12000.0
G1 Z0.0000 F8000.0
G0 X164.8797 Y-153.1945 F15000.0
G1 Z11.9000 F8000.0
G1 X164.6309 Y-153.8580 F12000.0
G1 X164.7968 Y-154.6043
G1 Z0.0000 F8000.0
G0 X164.7968 Y-150.9556 F15000.0
G1 Z11.9000 F8000.0
G1 X164.5065 Y-152.3654 F12000.0
G1 Z0.0000 F8000.0
G0 X1.8657 Y-143.3499 F15000.0
G1 Z11.9000 F8000.0
G1 X0.9951 Y-142.0645 F12000.0
G1 Z0.0000 F8000.0
G0 X1.1609 Y-142.5621 F15000.0
G1 Z11.9000 F8000.0
G1 X0.4146 Y-142.5621 F12000.0
G1 X0.4146 Y-143.5157
G1 Z0.0000 F8000.0
G0 X0.7877 Y-141.7329 F15000.0
G1 Z11.9000 F8000.0
G1 X0.7048 Y-141.6085 F12000.0
G1 Z0.0000 F8000.0
G0 X0.2902 Y-140.9450 F15000.0
G1 Z11.9000 F8000.0
G1 X0.1658 Y-140.8621 F12000.0
G1 X0.0000 Y-140.5305
G1 Z0.0000 F8000.0
G0 X0.2487 Y-142.4377 F15000.0
G1 Z11.9000 F8000.0
G1 X0.0829 Y-140.9036 F12000.0
G1 Z0.0000 F8000.0
G0 X13.1553 Y-249.6193 F15000.0
G1 Z11.9000 F8000.0
G1 X11.7870 Y-245.8048 F12000.0
G1 X11.5382 Y-245.4731
G1 Z0.0000 F8000.0
G0 X12.9894 Y-246.4682 F15000.0
G1 Z11.9000 F8000.0
G1 X12.8235 Y-246.3023 F12000.0
G1 Z0.0000 F8000.0
G0 X12.1187 Y-245.8463 F15000.0
G1 Z11.9000 F8000.0
G1 X11.8284 Y-245.7633 F12000.0
G1 Z0.0000 F8000.0
G0 X11.4553 Y-249.7022 F15000.0
G1 Z11.9000 F8000.0
G1 X11.2065 Y-249.6193 F12000.0
G1 X11.0821 Y-249.3291
G1 Z0.0000 F8000.0
G0 X11.4139 Y-246.9658 F15000.0
G1 Z11.9000 F8000.0
G1 X11.2065 Y-246.8413 F12000.0
G1 Z0.0000 F8000.0
G0 X11.1236 Y-249.6193 F15000.0
G1 Z11.9000 F8000.0
G1 X9.6310 Y-249.6607 F12000.0
G1 Z0.0000 F8000.0
G0 X10.1700 Y-246.1780 F15000.0
G1 Z11.9000 F8000.0
G1 X9.7968 Y-245.7633 F12000.0
G1 X9.2578 Y-245.5146
G1 X8.8432 Y-245.4317
G1 X8.3871 Y-245.6804
G1 X8.2627 Y-245.9292
G1 X8.4285 Y-246.6341
G1 Z0.0000 F8000.0
G0 X9.9627 Y-248.1682 F15000.0
G1 Z11.9000 F8000.0
G1 X9.7968 Y-248.0023 F12000.0
G1 Z0.0000 F8000.0
G0 X30.1881 Y-138.9880 F15000.0
G1 Z11.9000 F8000.0
G1 X30.3427 Y-137.4434 F12000.0
G1 X30.8060 Y-135.8989 F12000.0
G1 X31.5783 Y-134.5087 F12000.0
G1 X32.5823 Y-133.2730 F12000.0
G1 X33.7407 Y-132.2690 F12000.0
G1 X35.1309 Y-131.4968 F12000.0
G1 X36.6754 Y-130.9562 F12000.0
G1 X38.2972 Y-130.8017 F12000.0
G1 X39.8419 Y-130.9562 F12000.0
G1 X41.3865 Y-131.3423 F12000.0
G1 X42.7766 Y-132.1146 F12000.0
G1 X44.0895 Y-133.0414 F12000.0
G1 X45.0935 Y-134.2771 F12000.0
G1 X45.8658 Y-135.6672 F12000.0
G1 X46.4064 Y-137.1345 F12000.0
G1 X46.6380 Y-138.7563 F12000.0
G1 X46.4836 Y-140.3010 F12000.0
G1 X46.0975 Y-141.8455 F12000.0
G1 X45.4024 Y-143.3129 F12000.0
G1 X44.4757 Y-144.5485 F12000.0
G1 X43.3172 Y-145.6298 F12000.0
G1 X41.9271 Y-146.4020 F12000.0
G1 X40.4597 Y-146.9427 F12000.0
G1 X38.8379 Y-147.2516 F12000.0
G1 X37.2933 Y-147.1744 F12000.0
G1 X35.7487 Y-146.7883 F12000.0
G1 X34.2814 Y-146.0932 F12000.0
G1 X32.9684 Y-145.1664 F12000.0
G1 X31.8872 Y-144.0080 F12000.0
G1 X31.0377 Y-142.6950 F12000.0
G1 X30.4971 Y-141.1505 F12000.0
G1 X30.1881 Y-139.6059 F12000.0
G1 X30.1881 Y-138.9880 F12000.0
G1 Z0.0000 F8000.0
G0 X35.2081 Y-135.8216 F15000.0
G1 Z11.9000 F8000.0
G1 X41.6182 Y-135.8216 F12000.0
G1 X41.6182 Y-142.2316 F12000.0
G1 X35.2081 Y-142.2316 F12000.0
G1 X35.2081 Y-135.8216 F12000.0
G1 Z0.0000 F8000.0
G0 X71.2743 Y-138.9880 F15000.0
G1 Z11.9000 F8000.0
G1 X61.3890 Y-138.9880 F12000.0
G1 Z0.0000 F8000.0
G0 X59.9988 Y-138.9880 F15000.0
G1 Z11.9000 F8000.0
G1 X58.6859 Y-138.9880 F12000.0
G1 Z0.0000 F8000.0
G0 X57.2957 Y-138.9880 F15000.0
G1 Z11.9000 F8000.0
G1 X47.4104 Y-138.9880 F12000.0
G1 Z0.0000 F8000.0
G0 X46.0975 Y-138.9880 F15000.0
G1 Z11.9000 F8000.0
G1 X44.7074 Y-138.9880 F12000.0
G1 Z0.0000 F8000.0
G0 X43.3172 Y-138.9880 F15000.0
G1 Z11.9000 F8000.0
G1 X33.5090 Y-138.9880 F12000.0
G1 Z0.0000 F8000.0
G0 X32.1189 Y-138.9880 F15000.0
G1 Z11.9000 F8000.0
G1 X30.7288 Y-138.9880 F12000.0
G1 Z0.0000 F8000.0
G0 X29.4159 Y-138.9880 F15000.0
G1 Z11.9000 F8000.0
G1 X19.5305 Y-138.9880 F12000.0
G1 Z0.0000 F8000.0
G0 X18.1403 Y-138.9880 F15000.0
G1 Z11.9000 F8000.0
G1 X16.8274 Y-138.9880 F12000.0
G1 Z0.0000 F8000.0
G0 X15.4373 Y-138.9880 F15000.0
G1 Z11.9000 F8000.0
G1 X5.5520 Y-138.9880 F12000.0
G1 Z0.0000 F8000.0
G0 X38.3745 Y-106.1654 F15000.0
G1 Z11.9000 F8000.0
G1 X38.3745 Y-116.0508 F12000.0
G1 Z0.0000 F8000.0
G0 X38.3745 Y-117.3638 F15000.0
G1 Z11.9000 F8000.0
G1 X38.3745 Y-118.7539 F12000.0
G1 Z0.0000 F8000.0
G0 X38.3745 Y-120.1440 F15000.0
G1 Z11.9000 F8000.0
G1 X38.3745 Y-129.9521 F12000.0
G1 Z0.0000 F8000.0
G0 X38.3745 Y-131.3423 F15000.0
G1 Z11.9000 F8000.0
G1 X38.3745 Y-132.7324 F12000.0
G1 Z0.0000 F8000.0
G0 X38.3745 Y-134.1225 F15000.0
G1 Z11.9000 F8000.0
G1 X38.3745 Y-143.9307 F12000.0
G1 Z0.0000 F8000.0
G0 X38.3745 Y-145.3209 F15000.0
G1 Z11.9000 F8000.0
G1 X38.3745 Y-146.7110 F12000.0
G1 Z0.0000 F8000.0
G0 X38.3745 Y-148.0239 F15000.0
G1 Z11.9000 F8000.0
G1 X38.3745 Y-157.9093 F12000.0
G1 Z0.0000 F8000.0
G0 X38.3745 Y-159.2994 F15000.0
G1 Z11.9000 F8000.0
G1 X38.3745 Y-160.6123 F12000.0
G1 Z0.0000 F8000.0
G0 X38.3745 Y-162.0025 F15000.0
G1 Z11.9000 F8000.0
G1 X38.3745 Y-171.8878 F12000.0
G1 Z0.0000 F8000.0
G0 X58.3770 Y-118.9856 F15000.0
G1 Z11.9000 F8000.0
G1 X51.4263 Y-126.0134 F12000.0
G1 Z0.0000 F8000.0
G0 X18.4493 Y-118.9856 F15000.0
G1 Z11.9000 F8000.0
G1 X25.3999 Y-126.0134 F12000.0
G1 Z0.0000 F8000.0
G0 X16.5958 Y-160.8440 F15000.0
G1 Z11.9000 F8000.0
G1 X25.3999 Y-152.0398 F12000.0
G1 Z0.0000 F8000.0
G0 X58.3770 Y-158.9905 F15000.0
G1 Z11.9000 F8000.0
G1 X51.4263 Y-152.0398 F12000.0
G1 Z0.0000 F8000.0
G0 X53.0482 Y-119.2173 F15000.0
G1 Z11.9000 F8000.0
G1 X52.5075 Y-120.1440 F12000.0
G1 X52.1986 Y-121.1480 F12000.0
G1 X52.1986 Y-122.2292 F12000.0
G1 X52.5075 Y-123.2332 F12000.0
G1 X53.1253 Y-124.0827 F12000.0
G1 X53.9749 Y-124.7778 F12000.0
G1 X54.9788 Y-125.1639 F12000.0
G1 X55.9829 Y-125.2412 F12000.0
G1 X57.0640 Y-125.0095 F12000.0
G1 X57.9908 Y-124.5461 F12000.0
G1 X58.2225 Y-124.3916 F12000.0
G1 X59.6899 Y-126.7085 F12000.0
G1 X61.0028 Y-129.1026 F12000.0
G1 X61.9295 Y-131.7285 F12000.0
G1 X62.6246 Y-134.3542 F12000.0
G1 X62.7791 Y-135.3582 F12000.0
G1 Z0.0000 F8000.0
G0 X62.7791 Y-142.6950 F15000.0
G1 Z11.9000 F8000.0
G1 X61.6978 Y-142.4633 F12000.0
G1 X60.8483 Y-141.9228 F12000.0
G1 X60.0760 Y-141.1505 F12000.0
G1 X59.6126 Y-140.2237 F12000.0
G1 X59.3809 Y-139.1425 F12000.0
G1 X59.5355 Y-138.1385 F12000.0
G1 X59.9216 Y-137.1345 F12000.0
G1 X60.6166 Y-136.2850 F12000.0
G1 X61.4661 Y-135.7444 F12000.0
G1 X62.4701 Y-135.4355 F12000.0
G1 X62.7791 Y-135.3582 F12000.0
G1 Z0.0000 F8000.0
G0 X62.7791 Y-142.6950 F15000.0
G1 Z11.9000 F8000.0
G1 X62.2385 Y-145.3209 F12000.0
G1 X61.3890 Y-147.9467 F12000.0
G1 X60.2305 Y-150.4953 F12000.0
G1 X58.7631 Y-152.8122 F12000.0
G1 X58.2225 Y-153.6617 F12000.0
G1 X57.2957 Y-153.1210 F12000.0
G1 X56.2918 Y-152.8122 F12000.0
G1 X55.2105 Y-152.8122 F12000.0
G1 X54.2066 Y-153.1210 F12000.0
G1 X53.3570 Y-153.7389 F12000.0
G1 X52.6620 Y-154.5884 F12000.0
G1 X52.2758 Y-155.5924 F12000.0
G1 X52.1986 Y-156.5963 F12000.0
G1 X52.3531 Y-157.6776 F12000.0
G1 X52.8936 Y-158.6044 F12000.0
G1 X53.0482 Y-158.8361 F12000.0
G1 X50.7313 Y-160.3034 F12000.0
G1 X48.2599 Y-161.5391 F12000.0
G1 X45.7113 Y-162.5431 F12000.0
G1 X43.0083 Y-163.2382 F12000.0
G1 X42.6993 Y-163.2382 F12000.0
G1 X42.3132 Y-162.2341 F12000.0
G1 X41.6954 Y-161.3074 F12000.0
G1 X40.8458 Y-160.6123 F12000.0
G1 X39.8419 Y-160.1489 F12000.0
G1 X38.7606 Y-159.9945 F12000.0
G1 X37.6022 Y-160.1489 F12000.0
G1 X36.5983 Y-160.6123 F12000.0
G1 X35.7487 Y-161.3074 F12000.0
G1 X35.1309 Y-162.2341 F12000.0
G1 X34.8219 Y-163.2382 F12000.0
G1 Z0.0000 F8000.0
G0 X34.7447 Y-163.3926 F15000.0
G1 Z11.9000 F8000.0
G1 X32.0417 Y-162.8519 F12000.0
G1 X29.4159 Y-161.9252 F12000.0
G1 X26.9445 Y-160.8440 F12000.0
G1 X24.5504 Y-159.3766 F12000.0
G1 X23.7781 Y-158.8361 F12000.0
G1 X24.3188 Y-157.9093 F12000.0
G1 X24.6276 Y-156.9053 F12000.0
G1 X24.6276 Y-155.8241 F12000.0
G1 X24.2415 Y-154.8201 F12000.0
G1 X23.7009 Y-153.9706 F12000.0
G1 X22.8514 Y-153.2755 F12000.0
G1 X21.8473 Y-152.8893 F12000.0
G1 X20.8434 Y-152.8122 F12000.0
G1 X19.7621 Y-152.9666 F12000.0
G1 X18.8354 Y-153.5072 F12000.0
G1 X18.6037 Y-153.6617 F12000.0
G1 X17.1364 Y-151.3448 F12000.0
G1 X15.8234 Y-148.8735 F12000.0
G1 X14.8967 Y-146.3249 F12000.0
G1 X14.2016 Y-143.6218 F12000.0
G1 X14.0472 Y-142.6950 F12000.0
G1 X15.0512 Y-142.4633 F12000.0
G1 X15.9780 Y-141.9228 F12000.0
G1 X16.7502 Y-141.1505 F12000.0
G1 X17.2136 Y-140.2237 F12000.0
G1 X17.4453 Y-139.1425 F12000.0
G1 X17.2908 Y-138.1385 F12000.0
G1 X16.9047 Y-137.1345 F12000.0
G1 X16.2096 Y-136.2850 F12000.0
G1 X15.3601 Y-135.7444 F12000.0
G1 X14.3561 Y-135.4355 F12000.0
G1 X14.0472 Y-135.3582 F12000.0
G1 X14.5878 Y-132.6552 F12000.0
G1 X15.4373 Y-130.0294 F12000.0
G1 X16.5958 Y-127.5581 F12000.0
G1 X18.0632 Y-125.1639 F12000.0
G1 X18.6037 Y-124.3916 F12000.0
G1 X19.5305 Y-124.9322 F12000.0
G1 X20.5345 Y-125.2412 F12000.0
G1 X21.6157 Y-125.2412 F12000.0
G1 X22.6197 Y-124.8550 F12000.0
G1 X23.4692 Y-124.3144 F12000.0
G1 X24.1642 Y-123.4648 F12000.0
G1 X24.5504 Y-122.4609 F12000.0
G1 X24.6276 Y-121.4569 F12000.0
G1 X24.4732 Y-120.3757 F12000.0
G1 X23.9325 Y-119.4490 F12000.0
G1 X23.7781 Y-119.2173 F12000.0
G1 X26.0950 Y-117.6726 F12000.0
G1 X28.4892 Y-116.4370 F12000.0
G1 X31.1149 Y-115.5103 F12000.0
G1 X33.8180 Y-114.8152 F12000.0
G1 X34.1269 Y-114.7379 F12000.0
G1 X34.5131 Y-115.8191 F12000.0
G1 X35.1309 Y-116.7459 F12000.0
G1 X35.9804 Y-117.4409 F12000.0
G1 X36.9844 Y-117.9043 F12000.0
G1 X38.0656 Y-118.0588 F12000.0
G1 X39.1468 Y-117.9043 F12000.0
G1 X40.2280 Y-117.4409 F12000.0
G1 X41.0775 Y-116.7459 F12000.0
G1 X41.6954 Y-115.8191 F12000.0
G1 X42.0043 Y-114.7379 F12000.0
G1 Z0.0000 F8000.0
G0 X42.0815 Y-114.6607 F15000.0
G1 Z11.9000 F8000.0
G1 X44.7845 Y-115.2013 F12000.0
G1 X47.3331 Y-116.0508 F12000.0
G1 X49.8817 Y-117.2093 F12000.0
G1 X52.2758 Y-118.6766 F12000.0
G1 X53.0482 Y-119.2173 F12000.0
G1 Z0.0000 F8000.0
G0 X37.5868 Y-97.8881 F15000.0
G1 Z11.9000 F8000.0
G1 X36.4673 Y-97.7637 F12000.0
G1 X35.9697 Y-97.5150
G1 Z0.0000 F8000.0
G0 X35.4722 Y-95.6491 F15000.0
G1 Z11.9000 F8000.0
G1 X36.5502 Y-95.4418 F12000.0
G1 X36.0112 Y-93.8248
G1 X34.4356 Y-93.5761
G1 Z0.0000 F8000.0
G0 X35.6794 Y-97.1832 F15000.0
G1 Z11.9000 F8000.0
G1 X35.5136 Y-96.8101 F12000.0
G1 Z0.0000 F8000.0
G0 X35.3893 Y-96.4784 F15000.0
G1 Z11.9000 F8000.0
G1 X35.3478 Y-95.7736 F12000.0
G1 Z0.0000 F8000.0
G0 X124.7944 Y-177.2939 F15000.0
G1 Z11.9000 F8000.0
G1 X145.8010 Y-177.2939 F12000.0
G1 Z0.0000 F8000.0
G0 X149.4307 Y-173.6642 F15000.0
G1 Z11.9000 F8000.0
G1 X149.4307 Y-111.6487 F12000.0
G1 Z0.0000 F8000.0
G0 X149.4307 Y-173.6642 F15000.0
G1 Z11.9000 F8000.0
G1 X149.2763 Y-174.7453 F12000.0
G1 X148.8129 Y-175.6721 F12000.0
G1 X148.1178 Y-176.4444 F12000.0
G1 X147.1911 Y-176.9850 F12000.0
G1 X146.1871 Y-177.2939 F12000.0
G1 X145.8010 Y-177.2939 F12000.0
G1 Z0.0000 F8000.0
G0 X124.7944 Y-109.7952 F15000.0
G1 Z11.9000 F8000.0
G1 X151.2842 Y-109.7952 F12000.0
G1 X151.2842 Y-104.3119 F12000.0
G1 X124.7944 Y-104.3119 F12000.0
G1 Z0.0000 F8000.0
G0 X124.7944 Y-106.1654 F15000.0
G1 Z11.9000 F8000.0
G1 X151.2842 Y-106.1654 F12000.0
G1 Z0.0000 F8000.0
G0 X151.2842 Y-108.0190 F15000.0
G1 Z11.9000 F8000.0
G1 X124.7944 Y-108.0190 F12000.0
G1 Z0.0000 F8000.0
G0 X151.2842 Y-109.7952 F15000.0
G1 Z11.9000 F8000.0
G1 X150.5119 Y-109.9497 F12000.0
G1 X149.8941 Y-110.4131 F12000.0
G1 X149.5080 Y-111.0309 F12000.0
G1 X149.4307 Y-111.6487 F12000.0
G1 Z0.0000 F8000.0
G0 X124.7944 Y-177.2939 F15000.0
G1 Z11.9000 F8000.0
G1 X103.7880 Y-177.2939 F12000.0
G1 X102.7840 Y-177.1395 F12000.0
G1 X101.7800 Y-176.6761 F12000.0
G1 X101.0078 Y-175.9810 F12000.0
G1 X100.4671 Y-175.1315 F12000.0
G1 X100.2354 Y-174.0503 F12000.0
G1 X100.1582 Y-173.6642 F12000.0
G1 X100.1582 Y-111.6487 F12000.0
G1 Z0.0000 F8000.0
G0 X124.7944 Y-109.7952 F15000.0
G1 Z11.9000 F8000.0
G1 X98.3819 Y-109.7952 F12000.0
G1 X98.3819 Y-104.3119 F12000.0
G1 X124.7944 Y-104.3119 F12000.0
G1 Z0.0000 F8000.0
G0 X124.7944 Y-106.1654 F15000.0
G1 Z11.9000 F8000.0
G1 X98.3819 Y-106.1654 F12000.0
G1 Z0.0000 F8000.0
G0 X98.3819 Y-108.0190 F15000.0
G1 Z11.9000 F8000.0
G1 X124.7944 Y-108.0190 F12000.0
G1 Z0.0000 F8000.0
G0 X98.3819 Y-109.7952 F15000.0
G1 Z11.9000 F8000.0
G1 X99.0770 Y-109.9497 F12000.0
G1 X99.6948 Y-110.4131 F12000.0
G1 X100.0810 Y-111.0309 F12000.0
G1 X100.1582 Y-111.6487 F12000.0
G1 Z0.0000 F8000.0
G0 X121.1647 Y-129.4116 F15000.0
G1 Z11.9000 F8000.0
G1 X121.3191 Y-128.4076 F12000.0
G1 X121.7825 Y-127.4036 F12000.0
G1 X122.4776 Y-126.6313 F12000.0
G1 X123.3271 Y-126.0907 F12000.0
G1 X124.4083 Y-125.7817 F12000.0
G1 X125.4123 Y-125.8590 F12000.0
G1 X126.4163 Y-126.1679 F12000.0
G1 X127.3430 Y-126.7858 F12000.0
G1 X127.9609 Y-127.6352 F12000.0
G1 X128.3470 Y-128.5620 F12000.0
G1 X128.4243 Y-129.6433 F12000.0
G1 X128.1926 Y-130.7245 F12000.0
G1 X127.7292 Y-131.6512 F12000.0
G1 X126.9569 Y-132.3463 F12000.0
G1 X126.0301 Y-132.8869 F12000.0
G1 X125.0261 Y-133.0414 F12000.0
G1 X123.9449 Y-132.9641 F12000.0
G1 X122.9409 Y-132.5780 F12000.0
G1 X122.1687 Y-131.8829 F12000.0
G1 X121.5508 Y-131.0334 F12000.0
G1 X121.2419 Y-130.0294 F12000.0
G1 X121.1647 Y-129.4116 F12000.0
G1 Z0.0000 F8000.0
G0 X117.5348 Y-129.4116 F15000.0
G1 Z11.9000 F8000.0
G1 X117.6893 Y-127.9442 F12000.0
G1 X118.1527 Y-126.4768 F12000.0
G1 X118.8478 Y-125.1639 F12000.0
G1 X119.8517 Y-124.0827 F12000.0
G1 X121.0102 Y-123.1560 F12000.0
G1 X122.4004 Y-122.5381 F12000.0
G1 X123.8677 Y-122.1520 F12000.0
G1 X125.3351 Y-122.1520 F12000.0
G1 X126.8025 Y-122.3837 F12000.0
G1 X128.1926 Y-123.0015 F12000.0
G1 X129.5055 Y-123.7738 F12000.0
G1 X130.5095 Y-124.8550 F12000.0
G1 X131.3590 Y-126.1679 F12000.0
G1 X131.8224 Y-127.5581 F12000.0
G1 X132.0541 Y-129.0254 F12000.0
G1 X132.0541 Y-130.4928 F12000.0
G1 X131.6679 Y-131.9602 F12000.0
G1 X130.9729 Y-133.3503 F12000.0
G1 X130.0461 Y-134.5087 F12000.0
G1 X128.8877 Y-135.4355 F12000.0
G1 X127.5747 Y-136.2077 F12000.0
G1 X126.1074 Y-136.5939 F12000.0
G1 X124.6400 Y-136.7484 F12000.0
G1 X123.1726 Y-136.5167 F12000.0
G1 X121.7053 Y-136.0533 F12000.0
G1 X120.4696 Y-135.2810 F12000.0
G1 X119.3112 Y-134.2771 F12000.0
G1 X118.4616 Y-133.0414 F12000.0
G1 X117.8438 Y-131.6512 F12000.0
G1 X117.5348 Y-130.1838 F12000.0
G1 X117.5348 Y-129.4116 F12000.0
G1 Z0.0000 F8000.0
G0 X114.7546 Y-129.4116 F15000.0
G1 Z11.9000 F8000.0
G1 X114.9091 Y-127.6352 F12000.0
G1 X115.3725 Y-125.9363 F12000.0
G1 X116.1447 Y-124.3916 F12000.0
G1 X117.1487 Y-122.9243 F12000.0
G1 X118.3844 Y-121.6886 F12000.0
G1 X119.8517 Y-120.6846 F12000.0
G1 X121.4736 Y-119.9895 F12000.0
G1 X123.1726 Y-119.5261 F12000.0
G1 X124.8717 Y-119.3717 F12000.0
G1 X126.6479 Y-119.5261 F12000.0
G1 X128.3470 Y-120.0668 F12000.0
G1 X129.8916 Y-120.7618 F12000.0
G1 X131.3590 Y-121.8430 F12000.0
G1 X132.5947 Y-123.0787 F12000.0
G1 X133.5986 Y-124.5461 F12000.0
G1 X134.2937 Y-126.1679 F12000.0
G1 X134.6799 Y-127.8669 F12000.0
G1 X134.8343 Y-129.5660 F12000.0
G1 X134.6799 Y-131.3423 F12000.0
G1 X134.1393 Y-133.0414 F12000.0
G1 X133.3669 Y-134.5859 F12000.0
G1 X132.3630 Y-136.0533 F12000.0
G1 X131.0500 Y-137.2890 F12000.0
G1 X129.5827 Y-138.2158 F12000.0
G1 X128.0381 Y-138.9108 F12000.0
G1 X126.2618 Y-139.3742 F12000.0
G1 X124.5627 Y-139.4514 F12000.0
G1 X122.7865 Y-139.2197 F12000.0
G1 X121.0874 Y-138.7563 F12000.0
G1 X119.5429 Y-137.9841 F12000.0
G1 X118.1527 Y-136.9028 F12000.0
G1 X116.9170 Y-135.5899 F12000.0
G1 X115.9903 Y-134.1225 F12000.0
G1 X115.2952 Y-132.5007 F12000.0
G1 X114.8318 Y-130.8017 F12000.0
G1 X114.7546 Y-129.4116 F12000.0
G1 Z0.0000 F8000.0
G0 X112.5149 Y-129.4116 F15000.0
G1 Z11.9000 F8000.0
G1 X112.6694 Y-127.4808 F12000.0
G1 X113.1327 Y-125.5500 F12000.0
G1 X113.8278 Y-123.7738 F12000.0
G1 X114.9091 Y-122.1520 F12000.0
G1 X116.1447 Y-120.6846 F12000.0
G1 X117.6121 Y-119.3717 F12000.0
G1 X119.3112 Y-118.3677 F12000.0
G1 X121.0874 Y-117.6726 F12000.0
G1 X123.0182 Y-117.2093 F12000.0
G1 X124.9490 Y-117.1321 F12000.0
G1 X126.8796 Y-117.2865 F12000.0
G1 X128.8104 Y-117.7499 F12000.0
G1 X130.5867 Y-118.5222 F12000.0
G1 X132.2085 Y-119.6034 F12000.0
G1 X133.6759 Y-120.9163 F12000.0
G1 X134.9116 Y-122.3837 F12000.0
G1 X135.9155 Y-124.0827 F12000.0
G1 X136.6106 Y-125.9363 F12000.0
G1 X136.9968 Y-127.7898 F12000.0
G1 X137.1512 Y-129.7204 F12000.0
G1 X136.9195 Y-131.7285 F12000.0
G1 X136.3789 Y-133.5820 F12000.0
G1 X135.6066 Y-135.3582 F12000.0
G1 X134.5254 Y-136.9801 F12000.0
G1 X133.2125 Y-138.4475 F12000.0
G1 X131.6679 Y-139.6059 F12000.0
G1 X129.9689 Y-140.6098 F12000.0
G1 X128.1926 Y-141.3049 F12000.0
G1 X126.2618 Y-141.6911 F12000.0
G1 X124.3311 Y-141.6911 F12000.0
G1 X122.4004 Y-141.4594 F12000.0
G1 X120.4696 Y-140.9960 F12000.0
G1 X118.6933 Y-140.1464 F12000.0
G1 X117.1487 Y-139.0653 F12000.0
G1 X115.6813 Y-137.6751 F12000.0
G1 X114.5229 Y-136.2077 F12000.0
G1 X113.5961 Y-134.4315 F12000.0
G1 X112.9010 Y-132.6552 F12000.0
G1 X112.5922 Y-130.7245 F12000.0
G1 X112.5149 Y-129.4116 F12000.0
G1 Z0.0000 F8000.0
G0 X111.1248 Y-129.4116 F15000.0
G1 Z11.9000 F8000.0
G1 X111.2792 Y-127.4036 F12000.0
G1 X111.7426 Y-125.3956 F12000.0
G1 X112.5149 Y-123.4648 F12000.0
G1 X113.5189 Y-121.6886 F12000.0
G1 X114.8318 Y-120.0668 F12000.0
G1 X116.2992 Y-118.6766 F12000.0
G1 X117.9982 Y-117.5182 F12000.0
G1 X119.8517 Y-116.6687 F12000.0
G1 X121.8597 Y-116.0508 F12000.0
G1 X123.8677 Y-115.7419 F12000.0
G1 X125.9529 Y-115.8191 F12000.0
G1 X127.9609 Y-116.1281 F12000.0
G1 X129.8916 Y-116.7459 F12000.0
G1 X131.7451 Y-117.6726 F12000.0
G1 X133.4442 Y-118.8311 F12000.0
G1 X134.9116 Y-120.2212 F12000.0
G1 X136.2245 Y-121.8430 F12000.0
G1 X137.2285 Y-123.6194 F12000.0
G1 X137.9235 Y-125.5500 F12000.0
G1 X138.3869 Y-127.5581 F12000.0
G1 X138.4641 Y-129.6433 F12000.0
G1 X138.3096 Y-131.6512 F12000.0
G1 X137.8463 Y-133.6592 F12000.0
G1 X136.9968 Y-135.5899 F12000.0
G1 X135.9928 Y-137.2890 F12000.0
G1 X134.6799 Y-138.9108 F12000.0
G1 X133.1352 Y-140.3010 F12000.0
G1 X131.4362 Y-141.3821 F12000.0
G1 X129.5827 Y-142.2316 F12000.0
G1 X127.5747 Y-142.8495 F12000.0
G1 X125.5668 Y-143.0812 F12000.0
G1 X123.4816 Y-143.0040 F12000.0
G1 X121.4736 Y-142.6950 F12000.0
G1 X119.5429 Y-142.0772 F12000.0
G1 X117.6893 Y-141.0732 F12000.0
G1 X115.9903 Y-139.9148 F12000.0
G1 X114.5229 Y-138.4475 F12000.0
G1 X113.2873 Y-136.8256 F12000.0
G1 X112.2832 Y-135.0493 F12000.0
G1 X111.5882 Y-133.1186 F12000.0
G1 X111.2021 Y-131.1106 F12000.0
G1 X111.1248 Y-129.4116 F12000.0
G1 Z0.0000 F8000.0
G0 X124.7944 Y-113.6567 F15000.0
G1 Z11.9000 F8000.0
G1 X138.4641 Y-121.5342 F12000.0
G1 X138.4641 Y-137.2890 F12000.0
G1 X124.7944 Y-145.2436 F12000.0
G1 X111.1248 Y-137.2890 F12000.0
G1 X111.1248 Y-121.5342 F12000.0
G1 X124.7944 Y-113.6567 F12000.0
G1 Z0.0000 F8000.0
G0 X152.1337 Y-129.4116 F15000.0
G1 Z11.9000 F8000.0
G1 X141.5533 Y-129.4116 F12000.0
G1 Z0.0000 F8000.0
G0 X140.1632 Y-129.4116 F15000.0
G1 Z11.9000 F8000.0
G1 X138.8503 Y-129.4116 F12000.0
G1 Z0.0000 F8000.0
G0 X137.4602 Y-129.4116 F15000.0
G1 Z11.9000 F8000.0
G1 X126.8796 Y-129.4116 F12000.0
G1 Z0.0000 F8000.0
G0 X122.7865 Y-129.4116 F15000.0
G1 Z11.9000 F8000.0
G1 X112.1288 Y-129.4116 F12000.0
G1 Z0.0000 F8000.0
G0 X110.8158 Y-129.4116 F15000.0
G1 Z11.9000 F8000.0
G1 X109.4257 Y-129.4116 F12000.0
G1 Z0.0000 F8000.0
G0 X108.0356 Y-129.4116 F15000.0
G1 Z11.9000 F8000.0
G1 X97.4552 Y-129.4116 F12000.0
G1 Z0.0000 F8000.0
G0 X121.1647 Y-129.3343 F15000.0
G1 Z11.9000 F8000.0
G1 X128.4243 Y-129.3343 F12000.0
G1 Z0.0000 F8000.0
G0 X121.7053 Y-127.4808 F15000.0
G1 Z11.9000 F8000.0
G1 X127.8837 Y-127.4808 F12000.0
G1 Z0.0000 F8000.0
G0 X143.0207 Y-104.3119 F15000.0
G1 Z11.9000 F8000.0
G1 X143.0207 Y-94.2721 F12000.0
G1 X106.5683 Y-94.2721 F12000.0
G1 Z0.0000 F8000.0
G0 X106.5683 Y-104.3119 F15000.0
G1 Z11.9000 F8000.0
G1 X106.5683 Y-94.2721 F12000.0
G1 Z0.0000 F8000.0
G0 X143.0207 Y-97.9791 F15000.0
G1 Z11.9000 F8000.0
G1 X141.4760 Y-96.6662 F12000.0
G1 X139.7770 Y-95.6622 F12000.0
G1 X137.8463 Y-94.8900 F12000.0
G1 X135.9155 Y-94.4266 F12000.0
G1 X133.9076 Y-94.2721 F12000.0
G1 X131.8996 Y-94.5037 F12000.0
G1 X129.8916 Y-94.9671 F12000.0
G1 X128.0381 Y-95.6622 F12000.0
G1 X126.2618 Y-96.7435 F12000.0
G1 X124.7944 Y-97.9791 F12000.0
G1 X123.2499 Y-96.6662 F12000.0
G1 X121.4736 Y-95.6622 F12000.0
G1 X119.6200 Y-94.8900 F12000.0
G1 X117.6893 Y-94.4266 F12000.0
G1 X115.6041 Y-94.2721 F12000.0
G1 X113.5961 Y-94.5037 F12000.0
G1 X111.6654 Y-94.9671 F12000.0
G1 X109.8119 Y-95.6622 F12000.0
G1 X108.0356 Y-96.7435 F12000.0
G1 X106.5683 Y-97.9791 F12000.0
G1 Z0.0000 F8000.0
G0 X141.2443 Y-94.2721 F15000.0
G1 Z11.9000 F8000.0
G1 X141.2443 Y-75.1191 F12000.0
G1 Z0.0000 F8000.0
G0 X108.4218 Y-94.2721 F15000.0
G1 Z11.9000 F8000.0
G1 X108.4218 Y-75.1191 F12000.0
G1 X141.2443 Y-75.1191 F12000.0
G1 Z0.0000 F8000.0
G0 X104.7148 Y-72.4160 F15000.0
G1 Z11.9000 F8000.0
G1 X144.8742 Y-72.4160 F12000.0
G1 X141.2443 Y-75.1191 F12000.0
G1 Z0.0000 F8000.0
G0 X108.4218 Y-75.1191 F15000.0
G1 Z11.9000 F8000.0
G1 X104.7148 Y-72.4160 F12000.0
G1 X104.7148 Y-63.3030 F12000.0
G1 Z0.0000 F8000.0
G0 X144.8742 Y-72.4160 F15000.0
G1 Z11.9000 F8000.0
G1 X144.8742 Y-63.3030 F12000.0
G1 X104.7148 Y-63.3030 F12000.0
G1 Z0.0000 F8000.0
G0 X135.7611 Y-63.3030 F15000.0
G1 Z11.9000 F8000.0
G1 X135.7611 Y-59.6732 F12000.0
G1 X137.5373 Y-59.6732 F12000.0
G1 X137.5373 Y-55.9661 F12000.0
G1 X131.6679 Y-55.9661 F12000.0
G1 X131.6679 Y-54.1899 F12000.0
G1 X130.7412 Y-54.1899 F12000.0
G1 X130.7412 Y-45.9264 F12000.0
G1 X128.8877 Y-45.9264 F12000.0
G1 X128.8877 Y-39.5935 F12000.0
G1 X127.1113 Y-39.5935 F12000.0
G1 X127.1113 Y-32.7201 F12000.0
G1 X124.7944 Y-32.7201 F12000.0
G1 Z0.0000 F8000.0
G0 X135.7611 Y-59.6732 F15000.0
G1 Z11.9000 F8000.0
G1 X124.7944 Y-59.6732 F12000.0
G1 Z0.0000 F8000.0
G0 X131.6679 Y-55.9661 F15000.0
G1 Z11.9000 F8000.0
G1 X128.8877 Y-55.9661 F12000.0
G1 Z0.0000 F8000.0
G0 X130.7412 Y-54.1899 F15000.0
G1 Z11.9000 F8000.0
G1 X124.7944 Y-54.1899 F12000.0
G1 Z0.0000 F8000.0
G0 X128.8877 Y-45.9264 F15000.0
G1 Z11.9000 F8000.0
G1 X124.7944 Y-45.9264 F12000.0
G1 Z0.0000 F8000.0
G0 X127.1113 Y-39.5935 F15000.0
G1 Z11.9000 F8000.0
G1 X124.7944 Y-39.5935 F12000.0
G1 Z0.0000 F8000.0
G0 X128.6560 Y-55.9661 F15000.0
G1 Z11.9000 F8000.0
G1 X128.5015 Y-55.7345 F12000.0
G1 Z0.0000 F8000.0
G0 X122.5548 Y-32.7201 F15000.0
G1 Z11.9000 F8000.0
G1 X124.7944 Y-32.7201 F12000.0
G1 Z0.0000 F8000.0
G0 X122.5548 Y-39.5935 F15000.0
G1 Z11.9000 F8000.0
G1 X122.5548 Y-32.7201 F12000.0
G1 Z0.0000 F8000.0
G0 X122.5548 Y-39.5935 F15000.0
G1 Z11.9000 F8000.0
G1 X124.7944 Y-39.5935 F12000.0
G1 Z0.0000 F8000.0
G0 X120.7013 Y-45.9264 F15000.0
G1 Z11.9000 F8000.0
G1 X120.7013 Y-39.5935 F12000.0
G1 X122.5548 Y-39.5935 F12000.0
G1 Z0.0000 F8000.0
G0 X120.7013 Y-45.9264 F15000.0
G1 Z11.9000 F8000.0
G1 X124.7944 Y-45.9264 F12000.0
G1 Z0.0000 F8000.0
G0 X118.8478 Y-54.1899 F15000.0
G1 Z11.9000 F8000.0
G1 X118.8478 Y-45.9264 F12000.0
G1 X120.7013 Y-45.9264 F12000.0
G1 Z0.0000 F8000.0
G0 X118.8478 Y-54.1899 F15000.0
G1 Z11.9000 F8000.0
G1 X124.7944 Y-54.1899 F12000.0
G1 Z0.0000 F8000.0
G0 X117.9982 Y-55.9661 F15000.0
G1 Z11.9000 F8000.0
G1 X117.9982 Y-54.1899 F12000.0
G1 Z0.0000 F8000.0
G0 X117.9982 Y-55.9661 F15000.0
G1 Z11.9000 F8000.0
G1 X120.7013 Y-55.9661 F12000.0
G1 Z0.0000 F8000.0
G0 X120.9330 Y-55.9661 F15000.0
G1 Z11.9000 F8000.0
G1 X121.0874 Y-55.7345 F12000.0
G1 Z0.0000 F8000.0
G0 X117.9982 Y-54.1899 F15000.0
G1 Z11.9000 F8000.0
G1 X118.8478 Y-54.1899 F12000.0
G1 Z0.0000 F8000.0
G0 X112.0516 Y-55.9661 F15000.0
G1 Z11.9000 F8000.0
G1 X117.9982 Y-55.9661 F12000.0
G1 Z0.0000 F8000.0
G0 X112.0516 Y-59.6732 F15000.0
G1 Z11.9000 F8000.0
G1 X112.0516 Y-55.9661 F12000.0
G1 Z0.0000 F8000.0
G0 X113.8278 Y-59.6732 F15000.0
G1 Z11.9000 F8000.0
G1 X124.7944 Y-59.6732 F12000.0
G1 Z0.0000 F8000.0
G0 X113.8278 Y-59.6732 F15000.0
G1 Z11.9000 F8000.0
G1 X112.0516 Y-59.6732 F12000.0
G1 Z0.0000 F8000.0
G0 X113.8278 Y-63.3030 F15000.0
G1 Z11.9000 F8000.0
G1 X113.8278 Y-59.6732 F12000.0
G1 Z0.0000 F8000.0
G0 X128.8877 Y-39.5935 F15000.0
G1 Z11.9000 F8000.0
G1 X120.7013 Y-45.9264 F12000.0
G1 Z0.0000 F8000.0
G0 X120.7013 Y-39.5935 F15000.0
G1 Z11.9000 F8000.0
G1 X128.8877 Y-45.9264 F12000.0
G1 Z0.0000 F8000.0
G0 X128.8877 Y-54.1899 F15000.0
G1 Z11.9000 F8000.0
G1 X128.8877 Y-51.4096 F12000.0
G1 X124.7944 Y-51.4096 F12000.0
G1 Z0.0000 F8000.0
G0 X127.5747 Y-51.4096 F15000.0
G1 Z11.9000 F8000.0
G1 X127.5747 Y-49.6334 F12000.0
G1 X124.7944 Y-49.6334 F12000.0
G1 Z0.0000 F8000.0
G0 X124.7944 Y-51.4096 F15000.0
G1 Z11.9000 F8000.0
G1 X124.7944 Y-54.1899 F12000.0
G1 Z0.0000 F8000.0
G0 X122.0914 Y-49.6334 F15000.0
G1 Z11.9000 F8000.0
G1 X124.7944 Y-49.6334 F12000.0
G1 Z0.0000 F8000.0
G0 X120.7013 Y-51.4096 F15000.0
G1 Z11.9000 F8000.0
G1 X124.7944 Y-51.4096 F12000.0
G1 Z0.0000 F8000.0
G0 X122.0914 Y-51.4096 F15000.0
G1 Z11.9000 F8000.0
G1 X122.0914 Y-49.6334 F12000.0
G1 Z0.0000 F8000.0
G0 X120.7013 Y-54.1899 F15000.0
G1 Z11.9000 F8000.0
G1 X120.7013 Y-51.4096 F12000.0
G1 Z0.0000 F8000.0
G0 X127.5747 Y-59.6732 F15000.0
G1 Z11.9000 F8000.0
G1 X127.5747 Y-63.3030 F12000.0
G1 Z0.0000 F8000.0
G0 X122.0914 Y-63.3030 F15000.0
G1 Z11.9000 F8000.0
G1 X122.0914 Y-59.6732 F12000.0
G1 Z0.0000 F8000.0
G0 X126.6479 Y-49.6334 F15000.0
G1 Z11.9000 F8000.0
G1 X126.6479 Y-51.4096 F12000.0
G1 Z0.0000 F8000.0
G0 X122.9409 Y-49.6334 F15000.0
G1 Z11.9000 F8000.0
G1 X122.9409 Y-51.4096 F12000.0
G1 Z0.0000 F8000.0
G0 X122.9409 Y-59.6732 F15000.0
G1 Z11.9000 F8000.0
G1 X122.9409 Y-63.3030 F12000.0
G1 Z0.0000 F8000.0
G0 X126.6479 Y-63.3030 F15000.0
G1 Z11.9000 F8000.0
G1 X126.6479 Y-59.6732 F12000.0
G1 Z0.0000 F8000.0
G0 X126.1846 Y-32.7201 F15000.0
G1 Z11.9000 F8000.0
G1 X126.1846 Y-39.5935 F12000.0
G1 Z0.0000 F8000.0
G0 X123.4043 Y-32.7201 F15000.0
G1 Z11.9000 F8000.0
G1 X123.4043 Y-39.5935 F12000.0
G1 Z0.0000 F8000.0
G0 X124.7944 Y-30.0170 F15000.0
G1 Z11.9000 F8000.0
G1 X124.7944 Y-47.9343 F12000.0
G1 Z0.0000 F8000.0
G0 X124.7944 Y-49.2472 F15000.0
G1 Z11.9000 F8000.0
G1 X124.7944 Y-50.6373 F12000.0
G1 Z0.0000 F8000.0
G0 X124.7944 Y-52.0274 F15000.0
G1 Z11.9000 F8000.0
G1 X124.7944 Y-69.9447 F12000.0
G1 Z0.0000 F8000.0
G0 X124.7944 Y-71.3349 F15000.0
G1 Z11.9000 F8000.0
G1 X124.7944 Y-72.6477 F12000.0
G1 Z0.0000 F8000.0
G0 X124.7944 Y-74.0379 F15000.0
G1 Z11.9000 F8000.0
G1 X124.7944 Y-91.9552 F12000.0
G1 Z0.0000 F8000.0
G0 X124.7944 Y-93.3453 F15000.0
G1 Z11.9000 F8000.0
G1 X124.7944 Y-94.6583 F12000.0
G1 Z0.0000 F8000.0
G0 X124.7944 Y-96.0484 F15000.0
G1 Z11.9000 F8000.0
G1 X124.7944 Y-113.9656 F12000.0
G1 Z0.0000 F8000.0
G0 X124.7944 Y-115.3557 F15000.0
G1 Z11.9000 F8000.0
G1 X124.7944 Y-116.7459 F12000.0
G1 Z0.0000 F8000.0
G0 X124.7944 Y-118.0588 F15000.0
G1 Z11.9000 F8000.0
G1 X124.7944 Y-135.9760 F12000.0
G1 Z0.0000 F8000.0
G0 X124.7944 Y-137.3662 F15000.0
G1 Z11.9000 F8000.0
G1 X124.7944 Y-138.7563 F12000.0
G1 Z0.0000 F8000.0
G0 X124.7944 Y-140.1464 F15000.0
G1 Z11.9000 F8000.0
G1 X124.7944 Y-158.0637 F12000.0
G1 Z0.0000 F8000.0
G0 X124.7944 Y-159.3766 F15000.0
G1 Z11.9000 F8000.0
G1 X124.7944 Y-160.7667 F12000.0
G1 Z0.0000 F8000.0
G0 X124.7944 Y-162.1569 F15000.0
G1 Z11.9000 F8000.0
G1 X124.7944 Y-180.0742 F12000.0
G1 Z0.0000 F8000.0
G0 X122.5548 Y-143.9307 F15000.0
G1 Z11.9000 F8000.0
G1 X122.5548 Y-175.9810 F12000.0
G1 Z0.0000 F8000.0
G0 X127.1113 Y-143.9307 F15000.0
G1 Z11.9000 F8000.0
G1 X127.1113 Y-175.9810 F12000.0
G1 Z0.0000 F8000.0
G0 X122.5548 Y-175.9810 F15000.0
G1 Z11.9000 F8000.0
G1 X122.4004 Y-176.5988 F12000.0
G1 X121.9370 Y-177.0622 F12000.0
G1 X121.3191 Y-177.2939 F12000.0
G1 Z0.0000 F8000.0
G0 X127.1113 Y-175.9810 F15000.0
G1 Z11.9000 F8000.0
G1 X127.2658 Y-176.5988 F12000.0
G1 X127.6520 Y-177.0622 F12000.0
G1 X128.2698 Y-177.2939 F12000.0
G1 Z0.0000 F8000.0
G0 X89.8479 Y-99.0573 F15000.0
G1 Z11.9000 F8000.0
G1 X89.6655 Y-99.0573 F12000.0
G1 Z0.0000 F8000.0
G0 X83.0132 Y-32.7201 F15000.0
G1 Z11.9000 F8000.0
G1 X82.3954 Y-37.2766 F12000.0
G1 X83.0132 Y-36.8132 F12000.0
G1 X83.6311 Y-37.2766 F12000.0
G1 X83.0132 Y-32.7201 F12000.0
G1 Z0.0000 F8000.0
G0 X82.7043 Y-34.5492 F15000.0
G1 Z11.9000 F8000.0
G1 X82.7043 Y-35.3702 F12000.0
G1 Z0.0000 F8000.0
G0 X83.2836 Y-34.8195 F15000.0
G1 Z11.9000 F8000.0
G1 X83.2836 Y-35.6405 F12000.0
G1 Z0.0000 F8000.0
G0 X83.0132 Y-177.2939 F15000.0
G1 Z11.9000 F8000.0
G1 X83.6311 Y-172.7374 F12000.0
G1 X83.0132 Y-173.2008 F12000.0
G1 X82.3954 Y-172.7374 F12000.0
G1 X83.0132 Y-177.2939 F12000.0
G1 Z0.0000 F8000.0
G0 X83.2836 Y-174.2963 F15000.0
G1 Z11.9000 F8000.0
G1 X83.2836 Y-175.1172 F12000.0
G1 Z0.0000 F8000.0
G0 X82.7043 Y-174.5666 F15000.0
G1 Z11.9000 F8000.0
G1 X82.7043 Y-175.3875 F12000.0
G1 Z0.0000 F8000.0
G0 X83.0132 Y-32.7201 F15000.0
G1 Z11.9000 F8000.0
G1 X83.0132 Y-177.2939 F12000.0
G1 Z0.0000 F8000.0
G0 X122.5548 Y-32.7201 F15000.0
G1 Z11.9000 F8000.0
G1 X81.1597 Y-32.7201 F12000.0
G1 Z0.0000 F8000.0
G0 X103.7880 Y-177.2939 F15000.0
G1 Z11.9000 F8000.0
G1 X81.1597 Y-177.2939 F12000.0
G1 Z0.0000 F8000.0
G0 X162.1736 Y-129.4116 F15000.0
G1 Z11.9000 F8000.0
G1 X161.6330 Y-133.9681 F12000.0
G1 X162.1736 Y-133.5047 F12000.0
G1 X162.7914 Y-133.9681 F12000.0
G1 X162.1736 Y-129.4116 F12000.0
G1 Z0.0000 F8000.0
G0 X161.9033 Y-131.2407 F15000.0
G1 Z11.9000 F8000.0
G1 X161.9033 Y-132.0617 F12000.0
G1 Z0.0000 F8000.0
G0 X162.4439 Y-131.5110 F15000.0
G1 Z11.9000 F8000.0
G1 X162.4439 Y-132.3320 F12000.0
G1 Z0.0000 F8000.0
G0 X162.1736 Y-177.2939 F15000.0
G1 Z11.9000 F8000.0
G1 X162.7914 Y-172.7374 F12000.0
G1 X162.1736 Y-173.2008 F12000.0
G1 X161.6330 Y-172.7374 F12000.0
G1 X162.1736 Y-177.2939 F12000.0
G1 Z0.0000 F8000.0
G0 X162.4439 Y-174.2963 F15000.0
G1 Z11.9000 F8000.0
G1 X162.4439 Y-175.1172 F12000.0
G1 Z0.0000 F8000.0
G0 X161.9033 Y-174.5666 F15000.0
G1 Z11.9000 F8000.0
G1 X161.9033 Y-175.3875 F12000.0
G1 Z0.0000 F8000.0
G0 X162.1736 Y-129.4116 F15000.0
G1 Z11.9000 F8000.0
G1 X162.1736 Y-177.2939 F12000.0
G1 Z0.0000 F8000.0
G0 X152.1337 Y-129.4116 F15000.0
G1 Z11.9000 F8000.0
G1 X164.0271 Y-129.4116 F12000.0
G1 Z0.0000 F8000.0
G0 X145.8010 Y-177.2939 F15000.0
G1 Z11.9000 F8000.0
G1 X164.0271 Y-177.2939 F12000.0
G1 Z0.0000 F8000.0
G0 X2.9261 Y-216.3503 F15000.0
G1 Z11.9000 F8000.0
G1 X2.9261 Y-272.9042 F12000.0
G1 X176.2367 Y-272.9042 F12000.0
G1 Z0.0000 F8000.0
G0 X94.2989 Y-10.2529 F15000.0
G1 Z11.9000 F8000.0
G1 X94.1331 Y-9.9627 F12000.0
G1 X93.3453 Y-7.7652
G1 Z0.0000 F8000.0
G0 X93.9672 Y-7.8895 F15000.0
G1 Z11.9000 F8000.0
G1 X93.7599 Y-7.7652 F12000.0
G1 Z0.0000 F8000.0
G0 X171.6728 Y-222.7049 F15000.0
G1 Z11.9000 F8000.0
G1 X2.9261 Y-222.7049 F12000.0
G1 Z0.0000 F8000.0
G0 X171.6728 Y-231.8180 F15000.0
G1 Z11.9000 F8000.0
G1 X112.3605 Y-231.8180 F12000.0
G1 Z0.0000 F8000.0
G0 X171.6728 Y-236.3746 F15000.0
G1 Z11.9000 F8000.0
G1 X112.3605 Y-236.3746 F12000.0
G1 Z0.0000 F8000.0
G0 X171.6728 Y-250.1215 F15000.0
G1 Z11.9000 F8000.0
G1 X112.3605 Y-250.1215 F12000.0
G1 Z0.0000 F8000.0
G0 X171.6728 Y-254.6780 F15000.0
G1 Z11.9000 F8000.0
G1 X112.3605 Y-254.6780 F12000.0
G1 Z0.0000 F8000.0
G0 X171.6728 Y-259.2345 F15000.0
G1 Z11.9000 F8000.0
G1 X112.3605 Y-259.2345 F12000.0
G1 Z0.0000 F8000.0
G0 X171.6728 Y-263.7911 F15000.0
G1 Z11.9000 F8000.0
G1 X112.3605 Y-263.7911 F12000.0
G1 Z0.0000 F8000.0
G0 X171.6728 Y-268.3476 F15000.0
G1 Z11.9000 F8000.0
G1 X112.3605 Y-268.3476 F12000.0
G1 Z0.0000 F8000.0
G0 X171.6728 Y-272.9042 F15000.0
G1 Z11.9000 F8000.0
G1 X171.6728 Y-222.7049 F12000.0
G1 Z0.0000 F8000.0
G0 X171.6728 Y-227.2614 F15000.0
G1 Z11.9000 F8000.0
G1 X112.3605 Y-227.2614 F12000.0
G1 Z0.0000 F8000.0
G0 X156.1497 Y-272.9042 F15000.0
G1 Z11.9000 F8000.0
G1 X156.1497 Y-222.7049 F12000.0
G1 Z0.0000 F8000.0
G0 X135.1433 Y-272.9042 F15000.0
G1 Z11.9000 F8000.0
G1 X135.1433 Y-222.7049 F12000.0
G1 Z0.0000 F8000.0
G0 X121.4736 Y-272.9042 F15000.0
G1 Z11.9000 F8000.0
G1 X121.4736 Y-222.7049 F12000.0
G1 Z0.0000 F8000.0
G0 X112.3605 Y-272.9042 F15000.0
G1 Z11.9000 F8000.0
G1 X112.3605 Y-222.7049 F12000.0
G1 Z0.0000 F8000.0
G0 X48.4916 Y-272.9042 F15000.0
G1 Z11.9000 F8000.0
G1 X48.4916 Y-236.3746 F12000.0
G1 Z0.0000 F8000.0
G0 X34.8219 Y-254.6780 F15000.0
G1 Z11.9000 F8000.0
G1 X34.8219 Y-236.3746 F12000.0
G1 Z0.0000 F8000.0
G0 X19.2988 Y-254.6780 F15000.0
G1 Z11.9000 F8000.0
G1 X19.2988 Y-236.3746 F12000.0
G1 Z0.0000 F8000.0
G0 X171.6728 Y-240.9311 F15000.0
G1 Z11.9000 F8000.0
G1 X112.3605 Y-240.9311 F12000.0
G1 Z0.0000 F8000.0
G0 X171.6728 Y-245.4877 F15000.0
G1 Z11.9000 F8000.0
G1 X112.3605 Y-245.4877 F12000.0
G1 Z0.0000 F8000.0
G0 X48.4916 Y-259.2345 F15000.0
G1 Z11.9000 F8000.0
G1 X2.9261 Y-259.2345 F12000.0
G1 Z0.0000 F8000.0
G0 X34.8219 Y-240.9311 F15000.0
G1 Z11.9000 F8000.0
G1 X2.9261 Y-240.9311 F12000.0
G1 Z0.0000 F8000.0
G0 X48.4916 Y-240.9311 F15000.0
G1 Z11.9000 F8000.0
G1 X34.8219 Y-240.9311 F12000.0
G1 Z0.0000 F8000.0
G0 X112.3605 Y-236.3746 F15000.0
G1 Z11.9000 F8000.0
G1 X2.9261 Y-236.3746 F12000.0
G1 Z0.0000 F8000.0
G0 X112.3605 Y-259.2345 F15000.0
G1 Z11.9000 F8000.0
G1 X48.4916 Y-259.2345 F12000.0
G1 Z0.0000 F8000.0
G0 X48.4916 Y-254.6780 F15000.0
G1 Z11.9000 F8000.0
G1 X2.9261 Y-254.6780 F12000.0
G1 Z0.0000 F8000.0
G0 X29.7248 Y-259.2345 F15000.0
G1 Z11.9000 F8000.0
G1 X29.7248 Y-254.6780 F12000.0
G1 Z0.0000 F8000.0
G0 X43.9350 Y-254.6780 F15000.0
G1 Z11.9000 F8000.0
G1 X43.9350 Y-240.9311 F12000.0
G1 Z0.0000 F8000.0
G0 X39.3785 Y-254.6780 F15000.0
G1 Z11.9000 F8000.0
G1 X39.3785 Y-240.9311 F12000.0
G1 Z0.0000 F8000.0
G0 X165.2628 Y-245.4877 F15000.0
G1 Z11.9000 F8000.0
G1 X165.2628 Y-222.7049 F12000.0
G1 Z0.0000 F8000.0
G0 X8.2974 Y-258.1805 F15000.0
G1 Z11.9000 F8000.0
G1 X8.1315 Y-257.8902 F12000.0
G1 X7.3437 Y-255.6928
G1 Z0.0000 F8000.0
G0 X7.9656 Y-255.8172 F15000.0
G1 Z11.9000 F8000.0
G1 X7.7583 Y-255.6928 F12000.0
G1 Z0.0000 F8000.0
G0 X65.3279 Y-226.9153 F15000.0
G1 Z11.9000 F8000.0
G1 X65.3435 Y-226.9703 F12000.0
G1 X65.1492 Y-226.6785
G1 X64.5498 Y-226.3293
G1 X63.9800 Y-226.3964
G1 X63.5040 Y-226.7296
G1 X63.3481 Y-227.2894
G1 X63.4141 Y-227.6271
G1 X63.6341 Y-228.0677
G1 X65.3391 Y-229.9680
G1 X63.3211 Y-230.0166
G1 Z0.0000 F8000.0
G0 X60.4478 Y-229.4237 F15000.0
G1 Z11.9000 F8000.0
G1 X60.4022 Y-229.5149 F12000.0
G1 Z0.0000 F8000.0
G0 X60.4478 Y-227.0065 F15000.0
G1 Z11.9000 F8000.0
G1 X60.0948 Y-226.5153 F12000.0
G1 X60.4418 Y-227.0532
G1 X60.5975 Y-228.4557
G1 X60.4226 Y-229.3866
G1 X60.3048 Y-229.5687
G1 X59.3963 Y-230.0810
G1 X58.9412 Y-229.9000
G1 X58.6174 Y-229.4192
G1 X58.4626 Y-228.4933
G1 X58.6133 Y-227.0791
G1 X58.9006 Y-226.5774
G1 X59.1881 Y-226.3849
G1 X59.4098 Y-226.3471
G1 X60.0373 Y-226.4592
G1 Z0.0000 F8000.0
G0 X57.2096 Y-227.0065 F15000.0
G1 Z11.9000 F8000.0
G1 X56.8566 Y-226.5153 F12000.0
G1 X57.2036 Y-227.0532
G1 X57.3593 Y-228.4557
G1 X57.1844 Y-229.3866
G1 X57.0666 Y-229.5687
G1 X56.1551 Y-230.0797
G1 X55.8451 Y-229.9518
G1 X55.4770 Y-229.6285
G1 X55.6517 Y-229.8516
G1 X55.3756 Y-229.3985
G1 X55.2349 Y-228.8242
G1 X55.3800 Y-227.0599
G1 X55.6758 Y-226.5629
G1 X55.9682 Y-226.3771
G1 X56.1910 Y-226.3479
G1 X56.7992 Y-226.4592
G1 Z0.0000 F8000.0
G0 X57.2096 Y-229.4237 F15000.0
G1 Z11.9000 F8000.0
G1 X57.1640 Y-229.5149 F12000.0
G1 Z0.0000 F8000.0
G0 X55.7502 Y-229.9254 F15000.0
G1 Z11.9000 F8000.0
G1 X55.7502 Y-229.9710 F12000.0
G1 Z0.0000 F8000.0
G0 X52.3752 Y-229.4237 F15000.0
G1 Z11.9000 F8000.0
G1 X52.3296 Y-229.5149 F12000.0
G1 Z0.0000 F8000.0
G0 X52.3752 Y-227.0065 F15000.0
G1 Z11.9000 F8000.0
G1 X52.0222 Y-226.5153 F12000.0
G1 X52.3692 Y-227.0532
G1 X52.5249 Y-228.4557
G1 X52.3500 Y-229.3866
G1 X52.2321 Y-229.5687
G1 X51.3237 Y-230.0810
G1 X50.8686 Y-229.9000
G1 X50.5447 Y-229.4192
G1 X50.3899 Y-228.4933
G1 X50.5407 Y-227.0791
G1 X50.8280 Y-226.5774
G1 X51.1155 Y-226.3849
G1 X51.3371 Y-226.3471
G1 X51.9647 Y-226.4592
G1 Z0.0000 F8000.0
G0 X49.1370 Y-227.0065 F15000.0
G1 Z11.9000 F8000.0
G1 X48.7838 Y-226.5146 F12000.0
G1 X49.1305 Y-227.0516
G1 X49.2870 Y-228.4541
G1 X49.0702 Y-229.4877
G1 X48.1922 Y-230.0548
G1 X47.7556 Y-229.9681
G1 X47.3602 Y-229.5547
G1 X47.1516 Y-228.7558
G1 X47.3238 Y-226.9939
G1 X47.6507 Y-226.5144
G1 X48.0716 Y-226.3468
G1 X48.7445 Y-226.5086
G1 X49.0458 Y-226.8241
G1 Z0.0000 F8000.0
G0 X49.1370 Y-229.4237 F15000.0
G1 Z11.9000 F8000.0
G1 X49.0914 Y-229.5149 F12000.0
G1 Z0.0000 F8000.0
G0 X66.6961 Y-226.4136 F15000.0
G1 Z11.9000 F8000.0
G1 X67.9994 Y-226.4150 F12000.0
G1 X68.1906 Y-226.4754
G1 X68.4233 Y-227.2501
G1 X68.4169 Y-227.8618
G1 X67.4000 Y-227.7127
G1 X66.8762 Y-227.9348
G1 X66.6674 Y-228.1722
G1 X66.4966 Y-228.8510
G1 X66.7267 Y-229.6260
G1 X67.2821 Y-230.0390
G1 X67.6274 Y-230.0936
G1 X67.9633 Y-230.0111
G1 Z0.0000 F8000.0
G0 X68.3658 Y-229.7671 F15000.0
G1 Z11.9000 F8000.0
G1 X68.5821 Y-229.4478 F12000.0
G1 Z0.0000 F8000.0
G0 X68.3667 Y-229.7678 F15000.0
G1 Z11.9000 F8000.0
G1 X67.8819 Y-230.0622 F12000.0
G1 Z0.0000 F8000.0
G0 X73.3093 Y-229.5149 F15000.0
G1 Z11.9000 F8000.0
G1 X73.3549 Y-229.4237 F12000.0
G1 Z0.0000 F8000.0
G0 X75.1336 Y-229.9254 F15000.0
G1 Z11.9000 F8000.0
G1 X75.3160 Y-230.0166 F12000.0
G1 Z0.0000 F8000.0
G0 X76.5474 Y-229.5149 F15000.0
G1 Z11.9000 F8000.0
G1 X76.5930 Y-229.4237 F12000.0
G1 Z0.0000 F8000.0
G0 X77.8701 Y-229.9710 F15000.0
G1 Z11.9000 F8000.0
G1 X77.9400 Y-228.8668 F12000.0
G1 X79.0839 Y-228.9888
G1 X79.4962 Y-228.8009
G1 X79.6956 Y-228.5331
G1 X79.8312 Y-227.5082
G1 Z0.0000 F8000.0
G0 X81.4275 Y-226.8241 F15000.0
G1 Z11.9000 F8000.0
G1 X81.6142 Y-227.2409 F12000.0
G1 X81.3336 Y-226.7929
G1 X81.1628 Y-226.7299
G1 X81.1009 Y-226.8927
G1 X80.9714 Y-229.9710
G1 Z0.0000 F8000.0
G0 X82.5221 Y-229.6518 F15000.0
G1 Z11.9000 F8000.0
G1 X82.6854 Y-229.8836 F12000.0
G1 X82.1408 Y-228.8070
G1 X82.2581 Y-229.1222
G1 X81.6756 Y-227.4000
G1 X82.4963 Y-229.6393
G1 X82.6806 Y-229.7401
G1 X82.9411 Y-229.5660
G1 X83.8701 Y-226.9479
G1 X84.1462 Y-226.6868
G1 X83.9669 Y-226.8233
G1 X84.2948 Y-226.6640
G1 X84.3935 Y-226.9655
G1 X84.4376 Y-229.9710
G1 Z0.0000 F8000.0
G0 X77.8701 Y-228.8308 F15000.0
G1 Z11.9000 F8000.0
G1 X77.8394 Y-227.5472 F12000.0
G1 X76.6779 Y-227.0316
G1 X76.3233 Y-226.5798
G1 X76.5856 Y-227.0405
G1 X76.7594 Y-228.2100
G1 X76.5302 Y-229.4787
G1 X75.5528 Y-230.0809
G1 X75.0952 Y-229.9081
G1 X74.8654 Y-229.6432
G1 X74.5997 Y-228.6230
G1 X74.7838 Y-226.9784
G1 X75.0378 Y-226.5861
G1 X75.3224 Y-226.3900
G1 X75.5433 Y-226.3470
G1 X76.1826 Y-226.4592
G1 Z0.0000 F8000.0
G0 X73.3549 Y-227.0065 F15000.0
G1 Z11.9000 F8000.0
G1 X73.0019 Y-226.5153 F12000.0
G1 X73.3488 Y-227.0532
G1 X73.5046 Y-228.4557
G1 X73.2876 Y-229.4890
G1 X72.4078 Y-230.0579
G1 X71.9766 Y-229.9846
G1 X71.5843 Y-229.5668
G1 X71.3658 Y-228.5355
G1 X71.5384 Y-227.0071
G1 X71.7799 Y-226.6082
G1 X72.0570 Y-226.4029
G1 X72.2761 Y-226.3467
G1 X72.9444 Y-226.4592
G1 Z0.0000 F8000.0
G0 X35.8664 Y-226.2768 F15000.0
G1 Z11.9000 F8000.0
G1 X37.1619 Y-226.4079 F12000.0
G1 X37.3651 Y-226.4990
G1 X38.0558 Y-227.8437
G1 X37.9841 Y-229.1044
G1 X37.6151 Y-229.8216
G1 X36.8457 Y-230.0766
G1 X36.3995 Y-229.9676
G1 X36.0644 Y-229.6788
G1 X36.1847 Y-229.8571
G1 X35.9869 Y-229.4733
G1 X35.8416 Y-228.4172
G1 X35.8721 Y-228.1927
G1 X36.1105 Y-227.7885
G1 X36.3938 Y-227.5866
G1 X36.7204 Y-227.4871
G1 X37.4088 Y-227.6327
G1 X37.9644 Y-227.9643
G1 Z0.0000 F8000.0
G0 X39.1046 Y-229.0589 F15000.0
G1 Z11.9000 F8000.0
G1 X39.4078 Y-229.5291 F12000.0
G1 X39.3344 Y-229.4391
G1 X39.5664 Y-229.7104
G1 X40.1628 Y-230.0105
G1 X41.3195 Y-229.8819
G1 X41.7716 Y-229.5633
G1 X42.1366 Y-228.8276
G1 X42.1783 Y-228.2446
G1 X41.9924 Y-227.1982
G1 X41.7582 Y-226.8008
G1 X41.2310 Y-226.4192
G1 Z0.0000 F8000.0
G0 X41.7039 Y-226.7551 F15000.0
G1 Z11.9000 F8000.0
G1 X41.5020 Y-226.5635 F12000.0
G1 X41.5892 Y-226.6389
G1 X41.0209 Y-226.3515
G1 X40.5515 Y-226.2924
G1 X39.9754 Y-226.3958
G1 X39.6705 Y-226.5602
G1 X39.2870 Y-227.0521
G1 Z0.0000 F8000.0
G0 X39.4695 Y-229.6061 F15000.0
G1 Z11.9000 F8000.0
G1 X39.6063 Y-229.7886 F12000.0
G1 Z0.0000 F8000.0
G0 X44.5425 Y-239.0970 F15000.0
G1 Z11.9000 F8000.0
G1 X44.1593 Y-237.0954 F12000.0
G1 X43.0831 Y-239.0058
G1 Z0.0000 F8000.0
G0 X42.3534 Y-237.7288 F15000.0
G1 Z11.9000 F8000.0
G1 X42.2648 Y-238.7317 F12000.0
G1 X42.1106 Y-238.6522
G1 X41.6385 Y-238.1227
G1 X41.3824 Y-237.9707
G1 X41.3044 Y-239.0514
G1 Z0.0000 F8000.0
G0 X41.6236 Y-238.0936 F15000.0
G1 Z11.9000 F8000.0
G1 X41.1831 Y-237.7584 F12000.0
G1 X39.7081 Y-237.6831
G1 Z0.0000 F8000.0
G0 X40.2554 Y-237.6831 F15000.0
G1 Z11.9000 F8000.0
G1 X40.2098 Y-239.0514 F12000.0
G1 Z0.0000 F8000.0
G0 X31.8709 Y-238.8572 F15000.0
G1 Z11.9000 F8000.0
G1 X31.8309 Y-237.4350 F12000.0
G1 X31.7596 Y-237.1746
G1 X30.9409 Y-238.5559
G1 X30.6166 Y-238.1420
G1 X30.0720 Y-237.0150
G1 X30.1660 Y-237.3800
G1 X30.0010 Y-238.8572
G1 Z0.0000 F8000.0
G0 X30.6395 Y-238.2187 F15000.0
G1 Z11.9000 F8000.0
G1 X30.9131 Y-238.8116 F12000.0
G1 Z0.0000 F8000.0
G0 X28.9976 Y-237.4433 F15000.0
G1 Z11.9000 F8000.0
G1 X28.3201 Y-238.0819 F12000.0
G1 X28.9831 Y-238.2088
G1 X29.1614 Y-238.3332
G1 X29.3209 Y-238.6273
G1 X29.1426 Y-238.8870
G1 X28.9255 Y-238.9220
G1 X28.2762 Y-238.7085
G1 X28.2398 Y-238.1899
G1 X27.5684 Y-237.8542
G1 X27.5989 Y-238.4049
G1 X27.3963 Y-238.7894
G1 X27.1015 Y-238.9197
G1 X26.8741 Y-238.9113
G1 X26.5327 Y-238.6172
G1 X26.6260 Y-238.8116
G1 Z0.0000 F8000.0
G0 X26.6260 Y-237.5802 F15000.0
G1 Z11.9000 F8000.0
G1 X27.0863 Y-237.4460 F12000.0
G1 X27.3418 Y-237.5312
G1 X27.2829 Y-237.4846
G1 X27.4925 Y-237.6714
G1 Z0.0000 F8000.0
G0 X25.9419 Y-237.7626 F15000.0
G1 Z11.9000 F8000.0
G1 X26.0138 Y-238.3467 F12000.0
G1 X25.8339 Y-238.7496
G1 X25.6661 Y-238.8659
G1 X25.3345 Y-238.9257
G1 X25.0443 Y-238.7943
G1 X25.0810 Y-238.8341
G1 X24.9841 Y-238.7204
G1 Z0.0000 F8000.0
G0 X25.0297 Y-237.5802 F15000.0
G1 Z11.9000 F8000.0
G1 X25.2594 Y-237.4624 F12000.0
G1 X25.6828 Y-237.5042
G1 X25.8962 Y-237.6714
G1 Z0.0000 F8000.0
G0 X24.0719 Y-237.4433 F15000.0
G1 Z11.9000 F8000.0
G1 X23.3945 Y-238.0819 F12000.0
G1 X24.1572 Y-238.2544
G1 X24.3953 Y-238.6273
G1 X24.3053 Y-238.8177
G1 X24.1126 Y-238.9241
G1 X23.6677 Y-238.8420
G1 X23.2966 Y-238.1731
G1 Z0.0000 F8000.0
G0 X4.5877 Y-236.9978 F15000.0
G1 Z11.9000 F8000.0
G1 X5.7180 Y-237.3230 F12000.0
G1 X5.8410 Y-237.6182
G1 X5.8300 Y-237.9738
G1 X5.6149 Y-237.8098
G1 X5.1709 Y-237.6703
G1 X4.6709 Y-237.9172
G1 X4.5947 Y-238.1278
G1 X4.5921 Y-238.7179
G1 X4.6647 Y-238.9299
G1 X4.8655 Y-239.1364
G1 X5.0611 Y-239.2046
G1 X5.6003 Y-239.0250
G1 X5.8398 Y-238.1347
G1 X5.8191 Y-237.9555
G1 Z0.0000 F8000.0
G0 X6.5489 Y-238.3660 F15000.0
G1 Z11.9000 F8000.0
G1 X6.6785 Y-238.3532 F12000.0
G1 X7.6544 Y-238.9397
G1 X7.3506 Y-239.1652
G1 X6.5154 Y-239.1369
G1 X6.5991 Y-237.8898
G1 X6.7117 Y-237.7143
G1 X7.0297 Y-237.6125
G1 X7.4797 Y-237.7044
G1 X7.6435 Y-237.9099
G1 Z0.0000 F8000.0
G0 X8.2364 Y-237.6363 F15000.0
G1 Z11.9000 F8000.0
G1 X9.2806 Y-237.6363 F12000.0
G1 X8.9062 Y-237.6873
G1 X8.8293 Y-239.1413
G1 Z0.0000 F8000.0
G0 X9.9695 Y-237.6819 F15000.0
G1 Z11.9000 F8000.0
G1 X10.0075 Y-239.0759 F12000.0
G1 X10.0873 Y-239.1257
G1 X11.8262 Y-239.0689
G1 X11.8850 Y-237.6819
G1 Z0.0000 F8000.0
G0 X12.5235 Y-237.9099 F15000.0
G1 Z11.9000 F8000.0
G1 X13.0037 Y-237.6177 F12000.0
G1 X13.3375 Y-237.6879
G1 X13.6023 Y-238.0448
G1 X13.6088 Y-238.7486
G1 X13.4506 Y-239.0411
G1 X12.7858 Y-239.1341
G1 X12.5181 Y-238.8947
G1 X12.6603 Y-239.0957
G1 Z0.0000 F8000.0
G0 X14.3022 Y-239.1413 F15000.0
G1 Z11.9000 F8000.0
G1 X14.3834 Y-238.3961 F12000.0
G1 X14.5918 Y-238.9800
G1 X14.7384 Y-239.1307
G1 X15.0679 Y-239.1914
G1 X15.4432 Y-238.9263
G1 X14.3846 Y-238.2562
G1 X14.3877 Y-237.9234
G1 X14.4795 Y-237.7326
G1 X14.7925 Y-237.6122
G1 X15.2469 Y-237.6911
G1 X15.4424 Y-237.9099
G1 Z0.0000 F8000.0
G0 X16.3546 Y-237.3626 F15000.0
G1 Z11.9000 F8000.0
G1 X16.2634 Y-239.0957 F12000.0
G1 Z0.0000 F8000.0
G0 X17.2211 Y-238.9133 F15000.0
G1 Z11.9000 F8000.0
G1 X17.0738 Y-238.7593 F12000.0
G1 X16.7101 Y-237.7849
G1 X16.4458 Y-237.4082
G1 Z0.0000 F8000.0
G0 X17.8597 Y-237.5450 F15000.0
G1 Z11.9000 F8000.0
G1 X17.3124 Y-238.9133 F12000.0
G1 Z0.0000 F8000.0
G0 X18.2701 Y-239.0957 F15000.0
G1 Z11.9000 F8000.0
G1 X18.2430 Y-237.4795 F12000.0
G1 X17.8708 Y-237.5588
G1 X18.1830 Y-237.3654
G1 X18.1789 Y-237.2714
G1 Z0.0000 F8000.0
G0 X10.9272 Y-237.6819 F15000.0
G1 Z11.9000 F8000.0
G1 X10.9272 Y-239.0957 F12000.0
G1 Z0.0000 F8000.0
G0 X6.8225 Y-239.0957 F15000.0
G1 Z11.9000 F8000.0
G1 X6.5489 Y-238.9589 F12000.0
G1 Z0.0000 F8000.0
G0 X88.7430 Y-240.0298 F15000.0
G1 Z11.9000 F8000.0
G1 X89.0646 Y-240.1423 F12000.0
G1 X89.4657 Y-240.5732
G1 X89.8476 Y-241.3052
G1 X90.2723 Y-241.8749
G1 X89.8947 Y-241.3894
G1 X90.2143 Y-241.8342
G1 X90.2488 Y-242.0414
G1 X89.7545 Y-242.6250
G1 X88.9400 Y-243.8914
G1 X88.4485 Y-244.1482
G1 X87.6858 Y-243.8709
G1 X85.5448 Y-241.2481
G1 X85.4592 Y-243.9065
G1 Z0.0000 F8000.0
G0 X83.9086 Y-242.7663 F15000.0
G1 Z11.9000 F8000.0
G1 X83.8630 Y-242.6750 F12000.0
G1 Z0.0000 F8000.0
G0 X83.9086 Y-241.4436 F15000.0
G1 Z11.9000 F8000.0
G1 X83.5830 Y-241.2064 F12000.0
G1 X83.8745 Y-241.3775
G1 X84.2171 Y-241.7552
G1 X83.5324 Y-241.2176
G1 X82.6122 Y-241.2145
G1 X82.1468 Y-241.5370
G1 X82.0547 Y-242.1027
G1 X82.0991 Y-242.2927
G1 X83.6935 Y-242.6517
G1 X83.9875 Y-242.8256
G1 X84.1739 Y-243.2487
G1 X84.1906 Y-243.4726
G1 X84.0458 Y-243.7809
G1 X83.8580 Y-243.9144
G1 X83.4039 Y-244.0265
G1 X83.0539 Y-243.9974
G1 X82.1325 Y-243.5847
G1 Z0.0000 F8000.0
G0 X82.8756 Y-243.9233 F15000.0
G1 Z11.9000 F8000.0
G1 X82.0034 Y-243.9166 F12000.0
G1 X82.0386 Y-242.3102
G1 Z0.0000 F8000.0
G0 X80.6704 Y-243.9065 F15000.0
G1 Z11.9000 F8000.0
G1 X78.7844 Y-241.2452 F12000.0
G1 X78.7093 Y-243.9065
G1 Z0.0000 F8000.0
G0 X77.1586 Y-242.7663 F15000.0
G1 Z11.9000 F8000.0
G1 X77.1130 Y-242.6750 F12000.0
G1 Z0.0000 F8000.0
G0 X77.1130 Y-241.3524 F15000.0
G1 Z11.9000 F8000.0
G1 X76.8262 Y-241.2035 F12000.0
G1 X77.1370 Y-241.3883
G1 X77.4609 Y-241.7510
G1 X76.6608 Y-241.1792
G1 X75.9564 Y-241.1848
G1 X75.4474 Y-241.4575
G1 X75.3198 Y-241.8841
G1 X75.2902 Y-243.3050
G1 X75.3463 Y-243.5138
G1 X75.6989 Y-243.7300
G1 X75.3239 Y-243.5947
G1 X75.1974 Y-243.9521
G1 Z0.0000 F8000.0
G0 X76.0184 Y-243.9065 F15000.0
G1 Z11.9000 F8000.0
G1 X75.8674 Y-243.8132 F12000.0
G1 X76.3025 Y-243.9970
G1 X76.9988 Y-243.9584
G1 X77.2947 Y-243.7819
G1 X77.4468 Y-243.3624
G1 X77.2385 Y-242.8266
G1 X76.9450 Y-242.6521
G1 X75.4392 Y-242.3446
G1 X73.9913 Y-242.4871
G1 X71.9137 Y-242.5382
G1 Z0.0000 F8000.0
G0 X71.8680 Y-241.2612 F15000.0
G1 Z11.9000 F8000.0
G1 X71.8680 Y-243.9065 F12000.0
G1 Z0.0000 F8000.0
G0 X73.9204 Y-243.9065 F15000.0
G1 Z11.9000 F8000.0
G1 X73.9204 Y-241.2612 F12000.0
G1 Z0.0000 F8000.0
G0 X87.4660 Y-243.6784 F15000.0
G1 Z11.9000 F8000.0
G1 X87.6484 Y-243.9065 F12000.0
G1 Z0.0000 F8000.0
G0 X90.3393 Y-241.9453 F15000.0
G1 Z11.9000 F8000.0
G1 X91.2059 Y-241.8997 F12000.0
G1 Z0.0000 F8000.0
G0 X91.2059 Y-240.0754 F15000.0
G1 Z11.9000 F8000.0
G1 X91.2059 Y-243.9065 F12000.0
G1 Z0.0000 F8000.0
G0 X150.5242 Y-241.7259 F15000.0
G1 Z11.9000 F8000.0
G1 X150.5595 Y-243.2875 F12000.0
G1 X150.6442 Y-243.4936
G1 X150.9021 Y-243.3250
G1 X151.4207 Y-242.4917
G1 X151.8875 Y-242.0529
G1 X151.9818 Y-242.2803
G1 X151.9837 Y-243.7327
G1 Z0.0000 F8000.0
G0 X149.7945 Y-243.0942 F15000.0
G1 Z11.9000 F8000.0
G1 X149.6373 Y-243.1466 F12000.0
G1 X149.2960 Y-243.0458
G1 X149.2807 Y-243.5826
G1 X149.9393 Y-242.9640
G1 X149.9267 Y-242.3291
G1 X149.2822 Y-242.3005
G1 X149.4016 Y-242.2080
G1 X149.7293 Y-242.1869
G1 X149.2694 Y-242.3228
G1 X149.1795 Y-242.7843
G1 X149.2472 Y-243.0030
G1 Z0.0000 F8000.0
G0 X144.0023 Y-242.3644 F15000.0
G1 Z11.9000 F8000.0
G1 X143.9657 Y-242.9953 F12000.0
G1 X143.5154 Y-242.7987
G1 X143.2715 Y-242.3717
G1 X143.0149 Y-242.2840
G1 X142.5810 Y-242.6451
G1 X142.1765 Y-243.4652
G1 X142.0794 Y-243.4705
G1 X141.9237 Y-243.3272
G1 X141.5121 Y-242.3653
G1 X141.3459 Y-242.3505
G1 X140.7839 Y-242.6191
G1 X140.6684 Y-242.7601
G1 X140.8763 Y-243.6905
G1 X140.1620 Y-243.5227
G1 X139.8990 Y-243.0964
G1 X140.0358 Y-243.3799
G1 X140.1919 Y-243.4901
G1 X140.5645 Y-242.7651
G1 X139.8074 Y-242.7772
G1 X139.5954 Y-242.5992
G1 X139.4415 Y-243.7327
G1 Z0.0000 F8000.0
G0 X142.1779 Y-243.5046 F15000.0
G1 Z11.9000 F8000.0
G1 X142.1204 Y-243.7196 F12000.0
G1 X142.2590 Y-244.1633
G1 X142.3893 Y-244.3344
G1 X142.5884 Y-244.4168
G1 Z0.0000 F8000.0
G0 X143.1357 Y-243.7783 F15000.0
G1 Z11.9000 F8000.0
G1 X143.4950 Y-243.2020 F12000.0
G1 X143.9241 Y-242.9749
G1 X143.5576 Y-242.8934
G1 X144.0023 Y-243.7327
G1 Z0.0000 F8000.0
G0 X144.6408 Y-243.4134 F15000.0
G1 Z11.9000 F8000.0
G1 X144.7776 Y-243.6415 F12000.0
G1 Z0.0000 F8000.0
G0 X145.5985 Y-243.6871 F15000.0
G1 Z11.9000 F8000.0
G1 X145.8081 Y-243.3077 F12000.0
G1 X145.7321 Y-242.6075
G1 X145.6368 Y-242.4170
G1 X145.7542 Y-242.6611
G1 X145.8449 Y-243.2385
G1 X145.5335 Y-243.7086
G1 X145.3281 Y-243.7892
G1 X144.7999 Y-243.5583
G1 X144.6528 Y-243.3966
G1 X144.6276 Y-242.8152
G1 X144.6999 Y-242.5974
G1 X144.9285 Y-242.3522
G1 X145.1427 Y-242.2966
G1 X145.5985 Y-242.3644
G1 Z0.0000 F8000.0
G0 X147.3773 Y-242.3188 F15000.0
G1 Z11.9000 F8000.0
G1 X146.6019 Y-242.3188 F12000.0
G1 X146.5563 Y-243.7327
G1 X146.3739 Y-243.7783
G1 X146.3283 Y-244.1888
G1 X146.6019 Y-243.7783
G1 X147.8333 Y-243.7783
G1 X147.6509 Y-243.5046
G1 Z0.0000 F8000.0
G0 X147.8333 Y-243.7783 F15000.0
G1 Z11.9000 F8000.0
G1 X147.8789 Y-244.1888 F12000.0
G1 Z0.0000 F8000.0
G0 X130.3703 Y-243.3195 F15000.0
G1 Z11.9000 F8000.0
G1 X130.4684 Y-241.5857 F12000.0
G1 X131.7385 Y-243.3195
G1 Z0.0000 F8000.0
G0 X129.0021 Y-242.0425 F15000.0
G1 Z11.9000 F8000.0
G1 X129.5495 Y-242.1804 F12000.0
G1 X129.7533 Y-242.7707
G1 X129.6432 Y-243.0998
G1 X129.4997 Y-243.2610
G1 X129.1755 Y-243.3350
G1 X128.7920 Y-243.1954
G1 X128.8326 Y-243.2637
G1 X128.6672 Y-243.0062
G1 X128.7669 Y-242.3162
G1 X128.9313 Y-242.0912
G1 X128.7284 Y-242.2249
G1 Z0.0000 F8000.0
G0 X128.0443 Y-243.3195 F15000.0
G1 Z11.9000 F8000.0
G1 X127.1196 Y-243.3331 F12000.0
G1 X127.0491 Y-243.1559
G1 X127.0986 Y-242.1346
G1 X128.1884 Y-243.4779
G1 X128.1900 Y-243.6662
G1 X127.0191 Y-243.3512
G1 X126.7989 Y-243.6992
G1 X126.3023 Y-243.2391
G1 X125.4866 Y-242.1264
G1 X125.3990 Y-243.3195
G1 Z0.0000 F8000.0
G0 X170.5801 Y-241.7831 F15000.0
G1 Z11.9000 F8000.0
G1 X170.4884 Y-243.4051 F12000.0
G1 X170.1967 Y-243.1186
G1 X169.5385 Y-242.2064
G1 X169.7193 Y-242.4434
G1 X169.2487 Y-241.9404
G1 X169.3292 Y-242.1869
G1 X169.2291 Y-243.3618
G1 X169.1493 Y-243.5346
G1 X168.2369 Y-243.5739
G1 X167.8326 Y-243.3919
G1 X167.9180 Y-243.0082
G1 X168.0641 Y-242.9227
G1 X167.8718 Y-242.7888
G1 X167.9133 Y-242.3738
G1 X168.2356 Y-242.3037
G1 X168.4587 Y-242.4604
G1 X167.1971 Y-242.6454
G1 X167.1981 Y-243.4854
G1 X167.1036 Y-242.5710
G1 X166.4836 Y-243.4720
G1 X166.1386 Y-242.7717
G1 X165.9409 Y-242.6457
G1 X165.8368 Y-243.5618
G1 Z0.0000 F8000.0
G0 X163.2828 Y-241.7375 F15000.0
G1 Z11.9000 F8000.0
G1 X162.3973 Y-241.7619 F12000.0
G1 X162.2273 Y-243.5150
G1 X161.5034 Y-243.3407
G1 X161.1995 Y-243.1235
G1 X161.3353 Y-243.2637
G1 X161.4983 Y-243.2852
G1 X161.5440 Y-242.3999
G1 X161.0618 Y-242.8212
G1 X161.0893 Y-242.9740
G1 X160.6395 Y-242.4007
G1 X160.6709 Y-242.6920
G1 X160.5442 Y-243.4687
G1 X159.8865 Y-242.5330
G1 Z0.0000 F8000.0
G0 X159.2816 Y-242.3157 F15000.0
G1 Z11.9000 F8000.0
G1 X159.8919 Y-242.5470 F12000.0
G1 X159.9523 Y-243.1102
G1 X159.9052 Y-243.3266
G1 X159.4065 Y-243.5767
G1 X159.0472 Y-243.4067
G1 X158.9390 Y-243.4816
G1 X158.1655 Y-243.5128
G1 X158.2386 Y-242.3123
G1 X158.5303 Y-242.2848
G1 X157.6730 Y-242.2848
G1 Z0.0000 F8000.0
G0 X163.3284 Y-241.8287 F15000.0
G1 Z11.9000 F8000.0
G1 X163.4286 Y-243.5609 F12000.0
G1 X163.6020 Y-243.6531
G1 Z0.0000 F8000.0
G0 X120.2410 Y-241.6160 F15000.0
G1 Z11.9000 F8000.0
G1 X119.2675 Y-241.6715 F12000.0
G1 X119.1780 Y-243.5950
G1 X119.0365 Y-243.6772
G1 X118.9808 Y-244.0742
G1 X119.2991 Y-243.6421
G1 X120.4542 Y-243.6035
G1 X120.7323 Y-244.0820
G1 X120.7290 Y-243.7882
G1 X120.4753 Y-243.4484
G1 X120.3800 Y-243.1097
G1 X120.2866 Y-241.7072
G1 Z0.0000 F8000.0
G0 X118.2343 Y-242.3001 F15000.0
G1 Z11.9000 F8000.0
G1 X118.2738 Y-242.3566 F12000.0
G1 X118.1122 Y-242.2620
G1 X117.6529 Y-242.2326
G1 X117.4535 Y-242.3414
G1 X117.3358 Y-242.5247
G1 X117.4117 Y-242.8036
G1 X118.0870 Y-242.9700
G1 X118.4239 Y-243.3968
G1 X118.2486 Y-243.6572
G1 X118.0278 Y-243.6879
G1 X117.3159 Y-243.5401
G1 X117.2627 Y-242.7625
G1 X116.7624 Y-242.2811
G1 X115.6802 Y-242.2545
G1 Z0.0000 F8000.0
G0 X116.2731 Y-242.2545 F15000.0
G1 Z11.9000 F8000.0
G1 X116.2275 Y-243.6228 F12000.0
G1 Z0.0000 F8000.0
G0 X114.9961 Y-242.3001 F15000.0
G1 Z11.9000 F8000.0
G1 X115.0356 Y-242.3566 F12000.0
G1 X114.8741 Y-242.2620
G1 X114.4147 Y-242.2326
G1 X114.1391 Y-242.4229
G1 X114.1090 Y-242.7373
G1 X114.8488 Y-242.9700
G1 X115.0251 Y-243.1012
G1 X115.1857 Y-243.3968
G1 X115.0104 Y-243.6572
G1 X114.7896 Y-243.6879
G1 X114.0777 Y-243.5401
G1 X114.0839 Y-242.8018
G1 Z0.0000 F8000.0
G0 X161.5497 Y-244.6809 F15000.0
G1 Z11.9000 F8000.0
G1 X162.4555 Y-244.8568 F12000.0
G1 X162.5726 Y-244.9889
G1 X162.6613 Y-245.3110
G1 X162.6755 Y-245.8813
G1 X162.4843 Y-246.4236
G1 X162.1846 Y-246.5689
G1 X161.7488 Y-246.4217
G1 X161.6042 Y-246.2559
G1 X161.6680 Y-245.5717
G1 X161.7796 Y-245.3823
G1 X162.2194 Y-245.2945
G1 X162.5041 Y-245.4154
G1 X161.8521 Y-245.3507
G1 X161.6860 Y-245.4664
G1 X161.6865 Y-246.4140
G1 Z0.0000 F8000.0
G0 X163.5564 Y-246.5052 F15000.0
G1 Z11.9000 F8000.0
G1 X163.3922 Y-246.3924 F12000.0
G1 X163.3413 Y-245.8205
G1 X163.4701 Y-245.3778
G1 X163.6448 Y-245.3130
G1 X164.1771 Y-245.5089
G1 X164.2686 Y-246.4015
G1 X164.0246 Y-246.5753
G1 X163.3142 Y-246.4722
G1 X163.3846 Y-245.9493
G1 X163.4513 Y-245.8984
G1 X164.0581 Y-245.9579
G1 Z0.0000 F8000.0
G0 X165.8824 Y-246.4140 F15000.0
G1 Z11.9000 F8000.0
G1 X165.3214 Y-246.5663 F12000.0
G1 X164.9892 Y-246.3792
G1 X164.9013 Y-246.1806
G1 X164.9960 Y-245.4891
G1 X165.1470 Y-245.3298
G1 X165.5967 Y-245.3304
G1 X165.8588 Y-245.5120
G1 X165.9281 Y-247.1437
G1 Z0.0000 F8000.0
G0 X167.1139 Y-246.5508 F15000.0
G1 Z11.9000 F8000.0
G1 X166.8928 Y-246.5493 F12000.0
G1 X166.5241 Y-246.3362
G1 X166.6806 Y-245.9481
G1 X166.8062 Y-245.9123
G1 X166.6120 Y-245.8122
G1 X166.6060 Y-245.3857
G1 X166.9155 Y-245.2937
G1 X167.1151 Y-245.3517
G1 X167.2507 Y-245.5018
G1 Z0.0000 F8000.0
G0 X168.0716 Y-245.3194 F15000.0
G1 Z11.9000 F8000.0
G1 X167.9570 Y-245.7777 F12000.0
G1 X167.9564 Y-246.4962
G1 X168.2498 Y-246.4046
G1 X168.5972 Y-245.9917
G1 X168.0122 Y-245.9108
G1 X167.8989 Y-246.5334
G1 X168.7230 Y-246.5592
G1 X168.8886 Y-246.4289
G1 X168.8422 Y-246.1220
G1 X168.7281 Y-246.0074
G1 X168.8105 Y-246.0588
G1 X168.7991 Y-245.5210
G1 X168.1628 Y-245.2738
G1 Z0.0000 F8000.0
G0 X169.4855 Y-245.3650 F15000.0
G1 Z11.9000 F8000.0
G1 X169.5713 Y-245.0177 F12000.0
G1 X170.6882 Y-244.7659
G1 X170.7683 Y-244.9117
G1 X170.8053 Y-246.4673
G1 X170.7092 Y-245.7485
G1 X169.5311 Y-245.4562
G1 Z0.0000 F8000.0
G0 X154.5412 Y-247.9367 F15000.0
G1 Z11.9000 F8000.0
G1 X154.8236 Y-247.1791 F12000.0
G1 X154.6684 Y-246.6314
G1 X154.4215 Y-246.3456
G1 X154.6006 Y-246.5021
G1 X154.2581 Y-246.3114
G1 X153.5963 Y-246.3983
G1 X153.2933 Y-246.6789
G1 X152.8834 Y-246.8526
G1 X152.4857 Y-247.7531
G1 X152.1466 Y-247.6345
G1 Z0.0000 F8000.0
G0 X151.8727 Y-246.9173 F15000.0
G1 Z11.9000 F8000.0
G1 X152.2246 Y-247.8422 F12000.0
G1 X152.1592 Y-247.7218
G1 X152.3259 Y-247.9203
G1 X152.4485 Y-248.4540
G1 X152.5773 Y-248.6354
G1 X152.7196 Y-248.6903
G1 X152.4247 Y-247.9232
G1 X152.5056 Y-247.8040
G1 Z0.0000 F8000.0
G0 X153.3464 Y-247.6712 F15000.0
G1 Z11.9000 F8000.0
G1 X153.5535 Y-247.9855 F12000.0
G1 X153.4854 Y-247.9176
G1 X153.8792 Y-248.1196
G1 X154.4085 Y-248.0252
G1 Z0.0000 F8000.0
G0 X151.3551 Y-247.4058 F15000.0
G1 Z11.9000 F8000.0
G1 X150.5905 Y-247.5104 F12000.0
G1 X150.5144 Y-248.0695
G1 Z0.0000 F8000.0
G0 X150.5144 Y-246.9632 F15000.0
G1 Z11.9000 F8000.0
G1 X150.5840 Y-246.8879 F12000.0
G1 X150.4299 Y-247.8567
G1 X150.4297 Y-247.7535
G1 X150.4585 Y-247.9800
G1 X150.6723 Y-248.0785
G1 X151.3189 Y-247.4870
G1 X151.2424 Y-247.3178
G1 X150.6075 Y-246.8597
G1 X149.8498 Y-246.9865
G1 X149.2746 Y-246.8460
G1 X149.7467 Y-247.0074
G1 X149.9056 Y-247.4260
G1 X149.8937 Y-247.6439
G1 X149.7519 Y-247.9457
G1 X149.4666 Y-248.0895
G1 X149.0463 Y-247.9626
G1 X148.8617 Y-247.7053
G1 X148.9794 Y-247.0427
G1 X149.1112 Y-246.8766
G1 X148.8856 Y-246.9742
G1 X148.2683 Y-246.8991
G1 X148.2135 Y-247.2081
G1 X148.2514 Y-248.5461
G1 X148.1537 Y-247.9832
G1 X147.7408 Y-248.0804
G1 X147.5305 Y-248.0459
G1 X147.3321 Y-247.8769
G1 X147.2599 Y-247.6733
G1 X147.3289 Y-247.1086
G1 X147.5321 Y-246.8689
G1 X147.9719 Y-246.8977
G1 X148.2133 Y-247.0074
G1 Z0.0000 F8000.0
G0 X148.9213 Y-247.8925 F15000.0
G1 Z11.9000 F8000.0
G1 X149.0983 Y-248.0695 F12000.0
G1 Z0.0000 F8000.0
G0 X146.5760 Y-247.0074 F15000.0
G1 Z11.9000 F8000.0
G1 X146.0808 Y-246.8443 F12000.0
G1 X146.5249 Y-246.9748
G1 X146.7250 Y-247.4857
G1 X146.5922 Y-247.9024
G1 X146.2207 Y-248.0888
G1 X145.8131 Y-247.9236
G1 X145.6809 Y-247.7526
G1 X145.7751 Y-247.0893
G1 X145.9348 Y-246.8754
G1 X145.0549 Y-247.3912
G1 X144.2809 Y-247.5081
G1 X144.1467 Y-247.7928
G1 X144.2307 Y-248.0695
G1 Z0.0000 F8000.0
G0 X144.2307 Y-246.9632 F15000.0
G1 Z11.9000 F8000.0
G1 X144.1239 Y-247.8683 F12000.0
G1 X144.3321 Y-248.0769
G1 X144.9388 Y-247.6160
G1 X145.0346 Y-247.4461
G1 X144.3634 Y-246.8305
G1 Z0.0000 F8000.0
G0 X145.7352 Y-247.8925 F15000.0
G1 Z11.9000 F8000.0
G1 X145.9122 Y-248.0695 F12000.0
G1 Z0.0000 F8000.0
G0 X142.7704 Y-248.0695 F15000.0
G1 Z11.9000 F8000.0
G1 X141.6453 Y-248.0809 F12000.0
G1 X141.5946 Y-248.0077
G1 X141.6417 Y-246.3694
G1 X142.6888 Y-247.9454
G1 X142.9317 Y-248.4742
G1 X142.8404 Y-248.1372
G1 X141.6005 Y-248.0794
G1 X141.4223 Y-248.1609
G1 X141.3544 Y-248.5563
G1 Z0.0000 F8000.0
G0 X139.8055 Y-247.9367 F15000.0
G1 Z11.9000 F8000.0
G1 X140.0839 Y-247.2889 F12000.0
G1 X139.8885 Y-246.5522
G1 X139.6927 Y-246.3537
G1 X139.7825 Y-246.4227
G1 X139.5892 Y-246.3204
G1 X139.0231 Y-246.3414
G1 X138.8323 Y-246.4189
G1 X138.7015 Y-246.5788
G1 X138.6221 Y-247.5978
G1 X138.8395 Y-248.0025
G1 X139.0921 Y-248.1174
G1 X139.6728 Y-248.0252
G1 Z0.0000 F8000.0
G0 X101.6573 Y-249.0852 F15000.0
G1 Z11.9000 F8000.0
G1 X103.2831 Y-249.4199 F12000.0
G1 X103.7251 Y-249.6903
G1 X103.9460 Y-250.0829
G1 X104.0244 Y-250.8686
G1 X103.8689 Y-250.9557
G1 X102.4677 Y-250.4922
G1 X101.9677 Y-250.7331
G1 X101.7016 Y-251.2270
G1 X101.6284 Y-252.1676
G1 X101.7223 Y-252.5009
G1 X102.0264 Y-252.9146
G1 X103.0390 Y-253.1651
G1 X103.2510 Y-253.0978
G1 X103.6965 Y-252.7181
G1 X103.9833 Y-250.9551
G1 Z0.0000 F8000.0
G0 X105.3059 Y-250.0429 F15000.0
G1 Z11.9000 F8000.0
G1 X105.4632 Y-249.7349 F12000.0
G1 X105.7134 Y-249.4902
G1 X106.2526 Y-249.2584
G1 X107.5250 Y-249.4520
G1 X107.7579 Y-249.6139
G1 X107.6482 Y-249.4967
G1 X108.0265 Y-249.8973
G1 X108.2834 Y-250.5474
G1 X108.3309 Y-251.7268
G1 X107.9646 Y-252.5814
G1 X106.6809 Y-253.1327
G1 X106.1090 Y-253.1185
G1 X105.7068 Y-252.8777
G1 X105.2581 Y-252.2609
G1 X105.6252 Y-252.8706
G1 Z0.0000 F8000.0
G0 X103.8009 Y-252.5970 F15000.0
G1 Z11.9000 F8000.0
G1 X103.5145 Y-252.9549 F12000.0
G1 X103.2164 Y-253.1267
G1 X102.2754 Y-253.0867
G1 X101.9766 Y-252.8706
G1 Z0.0000 F8000.0
G0 X100.3803 Y-252.6426 F15000.0
G1 Z11.9000 F8000.0
G1 X100.0967 Y-252.9609 F12000.0
G1 X99.7834 Y-253.0785
G1 X98.6231 Y-252.9282
G1 X98.4647 Y-252.8250
G1 Z0.0000 F8000.0
G0 X96.9141 Y-252.8250 F15000.0
G1 Z11.9000 F8000.0
G1 X95.6633 Y-253.1583 F12000.0
G1 X95.0791 Y-252.8314
G1 X94.7948 Y-252.0088
G1 X95.0224 Y-250.8493
G1 X95.1713 Y-250.6194
G1 X95.5682 Y-250.4082
G1 X95.7914 Y-250.4029
G1 X96.7928 Y-250.7305
G1 X96.9080 Y-250.8431
G1 X96.9597 Y-254.3301
G1 Z0.0000 F8000.0
G0 X96.8685 Y-250.7727 F15000.0
G1 Z11.9000 F8000.0
G1 X96.4124 Y-250.5446 F12000.0
G1 Z0.0000 F8000.0
G0 X93.4479 Y-250.8183 F15000.0
G1 Z11.9000 F8000.0
G1 X93.1100 Y-250.5107 F12000.0
G1 X93.4302 Y-250.8352
G1 X93.6900 Y-252.0936
G1 X93.5080 Y-252.6483
G1 X92.8744 Y-253.1518
G1 X91.6913 Y-252.8838
G1 X91.4932 Y-252.6228
G1 X91.3699 Y-252.1760
G1 X91.6278 Y-250.7883
G1 X91.8631 Y-250.5453
G1 X92.5309 Y-250.3733
G1 X93.0374 Y-250.4534
G1 Z0.0000 F8000.0
G0 X93.5391 Y-252.6426 F15000.0
G1 Z11.9000 F8000.0
G1 X93.3343 Y-252.9020 F12000.0
G1 X93.0374 Y-253.0987
G1 Z0.0000 F8000.0
G0 X90.3009 Y-250.4534 F15000.0
G1 Z11.9000 F8000.0
G1 X90.1972 Y-251.5111 F12000.0
G1 X89.9652 Y-251.8483
G1 X89.6639 Y-251.9830
G1 X88.4930 Y-251.8496
G1 X88.3212 Y-251.8906
G1 X88.2941 Y-253.0987
G1 Z0.0000 F8000.0
G0 X88.2941 Y-251.8216 F15000.0
G1 Z11.9000 F8000.0
G1 X88.2613 Y-250.5501 F12000.0
G1 X86.9536 Y-250.5632
G1 X86.9259 Y-253.0987
G1 Z0.0000 F8000.0
G0 X86.9259 Y-251.6848 F15000.0
G1 Z11.9000 F8000.0
G1 X84.9648 Y-251.7304 F12000.0
G1 Z0.0000 F8000.0
G0 X84.9192 Y-250.4990 F15000.0
G1 Z11.9000 F8000.0
G1 X84.9192 Y-253.0987 F12000.0
G1 Z0.0000 F8000.0
G0 X83.5509 Y-251.6392 F15000.0
G1 Z11.9000 F8000.0
G1 X82.0306 Y-251.8000 F12000.0
G1 X81.5653 Y-252.4604
G1 X81.5655 Y-252.6639
G1 X81.6798 Y-252.8672
G1 X81.9513 Y-253.0708
G1 X82.1471 Y-253.0704
G1 X83.4960 Y-251.7607
G1 X83.5509 Y-250.4990
G1 Z0.0000 F8000.0
G0 X82.0915 Y-251.7304 F15000.0
G1 Z11.9000 F8000.0
G1 X81.9440 Y-251.8999 F12000.0
G1 X81.5897 Y-252.7492
G1 X81.6297 Y-252.9240
G1 X80.5718 Y-253.0397
G1 X80.4790 Y-250.5276
G1 X79.2316 Y-250.5283
G1 X79.1657 Y-250.7064
G1 X79.0929 Y-252.8894
G1 X78.5635 Y-252.5177
G1 X77.8459 Y-251.3484
G1 Z0.0000 F8000.0
G0 X78.5559 Y-252.5043 F15000.0
G1 Z11.9000 F8000.0
G1 X78.8533 Y-252.6882 F12000.0
G1 Z0.0000 F8000.0
G0 X77.1202 Y-253.0987 F15000.0
G1 Z11.9000 F8000.0
G1 X77.2284 Y-250.8294 F12000.0
G1 X77.5230 Y-250.9538
G1 X77.7587 Y-251.1831
G1 Z0.0000 F8000.0
G0 X78.4884 Y-249.5412 F15000.0
G1 Z11.9000 F8000.0
G1 X78.6410 Y-249.4225 F12000.0
G1 X78.2730 Y-249.6114
G1 X77.6149 Y-249.4990
G1 X77.3482 Y-249.1764
G1 Z0.0000 F8000.0
G0 X99.7418 Y-250.4078 F15000.0
G1 Z11.9000 F8000.0
G1 X99.2707 Y-250.3760 F12000.0
G1 X98.9267 Y-250.4435
G1 X98.6224 Y-250.6042
G1 X98.3996 Y-250.9918
G1 X98.2115 Y-252.1601
G1 X98.2818 Y-252.5005
G1 X98.4636 Y-252.7914
G1 X99.6889 Y-253.1564
G1 X100.2533 Y-252.7561
G1 X100.4304 Y-252.4633
G1 X100.5341 Y-251.8922
G1 X100.2808 Y-250.8630
G1 X99.8068 Y-250.4530
G1 X100.2891 Y-250.8183
G1 Z0.0000 F8000.0
G0 X65.8565 Y-250.6814 F15000.0
G1 Z11.9000 F8000.0
G1 X66.0645 Y-250.5098 F12000.0
G1 X66.3866 Y-250.3896
G1 X67.0725 Y-250.5471
G1 X67.6239 Y-250.8402
G1 X67.6808 Y-254.3301
G1 Z0.0000 F8000.0
G0 X67.6352 Y-252.8250 F15000.0
G1 Z11.9000 F8000.0
G1 X66.3844 Y-253.1583 F12000.0
G1 X65.7518 Y-252.7644
G1 X65.5176 Y-252.1233
G1 X65.7215 Y-250.7570
G1 X64.6226 Y-250.4272
G1 X63.6802 Y-250.4466
G1 X63.5369 Y-250.5114
G1 X63.5304 Y-253.0987
G1 Z0.0000 F8000.0
G0 X61.6149 Y-251.6392 F15000.0
G1 Z11.9000 F8000.0
G1 X61.4387 Y-250.9565 F12000.0
G1 X60.9025 Y-250.4575
G1 X61.3775 Y-250.8270
G1 X61.2165 Y-250.6479
G1 X61.3219 Y-250.7639
G1 X60.8927 Y-250.4591
G1 X60.5568 Y-250.3787
G1 X60.3322 Y-250.4151
G1 X59.5175 Y-250.8662
G1 X59.3952 Y-251.6084
G1 X61.5667 Y-251.6752
G1 X61.3912 Y-252.6764
G1 X61.2036 Y-252.9310
G1 X60.6869 Y-253.1729
G1 X59.9877 Y-253.0926
G1 X59.4829 Y-252.7051
G1 X59.8493 Y-253.1130
G1 X58.5541 Y-253.2983
G1 X58.2869 Y-253.1058
G1 X57.3614 Y-251.7426
G1 X58.0446 Y-250.5581
G1 X58.3767 Y-250.4534
G1 Z0.0000 F8000.0
G0 X56.6892 Y-250.4990 F15000.0
G1 Z11.9000 F8000.0
G1 X56.6627 Y-251.7297 F12000.0
G1 X56.1325 Y-251.7440
G1 X55.8690 Y-251.9362
G1 X55.9429 Y-251.8061
G1 X55.0733 Y-253.1021
G1 X54.6825 Y-253.3723
G1 Z0.0000 F8000.0
G0 X56.6892 Y-253.0987 F15000.0
G1 Z11.9000 F8000.0
G1 X56.0837 Y-251.8119 F12000.0
G1 X55.7400 Y-251.3989
G1 X55.9099 Y-251.5782
G1 X55.3205 Y-250.5758
G1 X54.9561 Y-250.4078
G1 Z0.0000 F8000.0
G0 X56.7348 Y-251.7304 F15000.0
G1 Z11.9000 F8000.0
G1 X57.3054 Y-251.7213 F12000.0
G1 X57.3734 Y-251.8672
G1 Z0.0000 F8000.0
G0 X58.1487 Y-252.8706 F15000.0
G1 Z11.9000 F8000.0
G1 X58.1943 Y-252.9618 F12000.0
G1 Z0.0000 F8000.0
G0 X62.4815 Y-250.4078 F15000.0
G1 Z11.9000 F8000.0
G1 X63.4848 Y-250.4534 F12000.0
G1 Z0.0000 F8000.0
G0 X69.5507 Y-253.1443 F15000.0
G1 Z11.9000 F8000.0
G1 X69.1000 Y-252.7037 F12000.0
G1 X69.5822 Y-253.0840
G1 X70.1629 Y-253.1694
G1 X70.5020 Y-253.1154
G1 X70.8817 Y-252.8797
G1 X71.0382 Y-252.5944
G1 X71.1961 Y-251.6957
G1 X69.0393 Y-251.6170
G1 X68.9934 Y-251.5567
G1 X69.1252 Y-250.8910
G1 X70.0362 Y-250.3896
G1 X70.4914 Y-250.4416
G1 X70.7903 Y-250.6172
G1 X71.0527 Y-250.9275
G1 X70.9604 Y-250.7906
G1 X71.2382 Y-251.6392
G1 Z0.0000 F8000.0
G0 X72.4696 Y-251.8216 F15000.0
G1 Z11.9000 F8000.0
G1 X72.4696 Y-250.4990 F12000.0
G1 Z0.0000 F8000.0
G0 X74.4764 Y-250.4534 F15000.0
G1 Z11.9000 F8000.0
G1 X74.3727 Y-251.5111 F12000.0
G1 X74.1407 Y-251.8483
G1 X73.8393 Y-251.9830
G1 X72.6685 Y-251.8496
G1 X72.4966 Y-251.8906
G1 X72.4696 Y-253.0987
G1 Z0.0000 F8000.0
G0 X169.4800 Y-250.8005 F15000.0
G1 Z11.9000 F8000.0
G1 X169.5781 Y-249.0667 F12000.0
G1 X170.8482 Y-250.8005
G1 Z0.0000 F8000.0
G0 X168.7503 Y-250.6637 F15000.0
G1 Z11.9000 F8000.0
G1 X168.1892 Y-250.8161 F12000.0
G1 X167.8571 Y-250.6289
G1 X167.7692 Y-250.4302
G1 X167.8638 Y-249.7387
G1 X168.0148 Y-249.5795
G1 X168.4645 Y-249.5801
G1 X168.7267 Y-249.7616
G1 X168.7959 Y-251.3934
G1 Z0.0000 F8000.0
G0 X166.4699 Y-249.5235 F15000.0
G1 Z11.9000 F8000.0
G1 X167.0174 Y-249.6615 F12000.0
G1 X167.2109 Y-250.1385
G1 X167.1981 Y-250.3631
G1 X167.0516 Y-250.6740
G1 X166.8665 Y-250.7938
G1 X166.6433 Y-250.8161
G1 X166.2575 Y-250.6776
G1 X166.2989 Y-250.7449
G1 X166.1370 Y-250.4864
G1 X166.2344 Y-249.7976
G1 X166.3989 Y-249.5723
G1 X165.5033 Y-250.0998
G1 X164.8042 Y-250.1718
G1 X164.5789 Y-250.3198
G1 X164.6347 Y-249.7466
G1 X164.5877 Y-250.7056
G1 X164.7831 Y-250.8096
G1 X165.4658 Y-250.2192
G1 X165.4161 Y-250.0437
G1 X164.7824 Y-249.5235
G1 Z0.0000 F8000.0
G0 X153.9203 Y-250.4420 F15000.0
G1 Z11.9000 F8000.0
G1 X153.9839 Y-248.6044 F12000.0
G1 X155.3341 Y-250.3964
G1 Z0.0000 F8000.0
G0 X153.2818 Y-249.1194 F15000.0
G1 Z11.9000 F8000.0
G1 X152.7958 Y-250.1727 F12000.0
G1 X152.7258 Y-250.1909
G1 X152.5831 Y-250.0526
G1 X152.2358 Y-249.1966
G1 X151.7219 Y-249.2643
G1 X151.1667 Y-249.1565
G1 X150.9496 Y-249.4885
G1 X151.0946 Y-249.1822
G1 X151.0343 Y-249.7652
G1 X151.2297 Y-249.8035
G1 X151.0108 Y-249.9179
G1 X150.9289 Y-250.3379
G1 X151.2186 Y-250.4669
G1 X151.6081 Y-250.3860
G1 X151.5031 Y-250.4420
G1 Z0.0000 F8000.0
G0 X152.6889 Y-250.2140 F15000.0
G1 Z11.9000 F8000.0
G1 X152.8618 Y-250.7904 F12000.0
G1 X153.1205 Y-251.0305
G1 X152.9268 Y-250.9098
G1 X152.9625 Y-251.0349
G1 Z0.0000 F8000.0
G0 X150.1348 Y-250.4420 F15000.0
G1 Z11.9000 F8000.0
G1 X149.2494 Y-250.3264 F12000.0
G1 X149.1633 Y-249.7045
G1 X147.6023 Y-249.8698
G1 X147.5382 Y-250.3636
G1 X147.4818 Y-249.1952
G1 X146.1033 Y-249.1629
G1 X145.8733 Y-249.3800
G1 X145.7880 Y-249.5871
G1 X145.8770 Y-250.1600
G1 X146.0296 Y-250.3952
G1 X146.4609 Y-250.4640
G1 X146.6491 Y-250.3480
G1 X146.9155 Y-249.9706
G1 X146.9025 Y-249.5445
G1 X146.7340 Y-249.2631
G1 Z0.0000 F8000.0
G0 X146.8830 Y-249.5742 F15000.0
G1 Z11.9000 F8000.0
G1 X146.8030 Y-250.2587 F12000.0
G1 X146.5774 Y-250.4420
G1 Z0.0000 F8000.0
G0 X145.2091 Y-249.7579 F15000.0
G1 Z11.9000 F8000.0
G1 X144.2252 Y-250.0296 F12000.0
G1 X144.4932 Y-250.4291
G1 X145.1671 Y-249.8484
G1 X145.1630 Y-249.7595
G1 X144.4275 Y-249.2202
G1 X144.3458 Y-249.2313
G1 X144.2741 Y-249.4155
G1 X144.3034 Y-249.8497
G1 X144.0513 Y-249.9952
G1 X143.5928 Y-250.0055
G1 X143.2683 Y-249.8147
G1 Z0.0000 F8000.0
G0 X142.8705 Y-249.7414 F15000.0
G1 Z11.9000 F8000.0
G1 X143.3368 Y-249.8299 F12000.0
G1 X143.5065 Y-249.9831
G1 X143.5786 Y-250.1840
G1 X143.4749 Y-250.3715
G1 X143.2792 Y-250.4668
G1 X142.5715 Y-250.3188
G1 X142.5441 Y-249.3879
G1 X142.7792 Y-249.1585
G1 X143.3509 Y-249.2490
G1 X142.8337 Y-249.6593
G1 X142.5503 Y-249.7242
G1 Z0.0000 F8000.0
G0 X143.4304 Y-250.4420 F15000.0
G1 Z11.9000 F8000.0
G1 X143.5673 Y-250.3052 F12000.0
G1 Z0.0000 F8000.0
G0 X148.5841 Y-250.4420 F15000.0
G1 Z11.9000 F8000.0
G1 X148.5841 Y-249.1650 F12000.0
G1 Z0.0000 F8000.0
G0 X150.1348 Y-249.2106 F15000.0
G1 Z11.9000 F8000.0
G1 X149.4486 Y-249.1758 F12000.0
G1 X149.2803 Y-249.3229
G1 X149.2578 Y-249.6290
G1 X150.0183 Y-249.8388
G1 X150.2498 Y-250.0758
G1 X150.2670 Y-250.2285
G1 X150.1804 Y-249.9403
G1 Z0.0000 F8000.0
G0 X170.1508 Y-255.4259 F15000.0
G1 Z11.9000 F8000.0
G1 X168.7370 Y-255.4259 F12000.0
G1 Z0.0000 F8000.0
G0 X169.4667 Y-255.4259 F15000.0
G1 Z11.9000 F8000.0
G1 X169.4211 Y-257.2502 F12000.0
G1 Z0.0000 F8000.0
G0 X167.4143 Y-257.2502 F15000.0
G1 Z11.9000 F8000.0
G1 X167.3810 Y-256.6771 F12000.0
G1 X166.9079 Y-256.3568
G1 X166.5966 Y-256.0216
G1 X165.4529 Y-256.0003
G1 X165.2840 Y-256.0944
G1 X165.1341 Y-256.9414
G1 X165.4743 Y-257.2295
G1 X165.7017 Y-257.2718
G1 X165.9176 Y-257.2099
G1 X166.1675 Y-256.8503
G1 X166.1978 Y-256.6267
G1 X166.0005 Y-256.0644
G1 Z0.0000 F8000.0
G0 X166.9582 Y-256.4748 F15000.0
G1 Z11.9000 F8000.0
G1 X166.9138 Y-256.8061 F12000.0
G1 X167.3945 Y-256.4847
G1 X167.3954 Y-256.0930
G1 X166.6163 Y-257.2423
G1 X165.4622 Y-257.2444
G1 X165.1338 Y-257.1024
G1 X164.5212 Y-257.1764
G1 X164.4954 Y-256.0970
G1 X164.4286 Y-256.5427
G1 X163.6500 Y-256.5824
G1 X163.5430 Y-256.1141
G1 X163.5023 Y-257.2054
G1 X162.6192 Y-257.2302
G1 X162.5431 Y-257.0748
G1 X162.6050 Y-256.0382
G1 X162.9515 Y-255.9732
G1 X161.6493 Y-255.9948
G1 X161.5325 Y-256.2675
G1 X161.5708 Y-257.7517
G1 X161.5145 Y-257.1981
G1 X161.0216 Y-257.2642
G1 X160.7211 Y-257.1707
G1 X160.5476 Y-256.8191
G1 X160.6250 Y-256.2373
G1 X160.8486 Y-256.0030
G1 X161.3039 Y-256.0508
G1 X161.5309 Y-256.1556
G1 Z0.0000 F8000.0
G0 X44.9373 Y-257.5188 F15000.0
G1 Z11.9000 F8000.0
G1 X44.9986 Y-255.3213 F12000.0
G1 X46.5792 Y-257.6100
G1 Z0.0000 F8000.0
G0 X44.0252 Y-257.3364 F15000.0
G1 Z11.9000 F8000.0
G1 X43.7376 Y-257.1664 F12000.0
G1 X42.8728 Y-256.0831
G1 X42.6893 Y-256.0433
G1 X42.0117 Y-256.1599
G1 X41.9650 Y-256.2261
G1 X42.0839 Y-257.0170
G1 X41.8832 Y-257.4282
G1 X41.7061 Y-257.5512
G1 X41.4974 Y-257.5432
G1 X40.8585 Y-257.2917
G1 X39.7758 Y-257.4732
G1 X39.7730 Y-256.0107
G1 X40.3765 Y-255.9225
G1 Z0.0000 F8000.0
G0 X40.9238 Y-256.1506 F15000.0
G1 Z11.9000 F8000.0
G1 X41.3222 Y-255.9159 F12000.0
G1 X41.8816 Y-256.0594
G1 Z0.0000 F8000.0
G0 X42.8394 Y-257.5188 F15000.0
G1 Z11.9000 F8000.0
G1 X42.9661 Y-256.3133 F12000.0
G1 X43.4937 Y-256.8462
G1 X43.6535 Y-257.1196
G1 X43.3426 Y-256.5997
G1 Z0.0000 F8000.0
G0 X43.6004 Y-257.0380 F15000.0
G1 Z11.9000 F8000.0
G1 X44.0028 Y-257.2597 F12000.0
G1 X44.0708 Y-255.9681
G1 Z0.0000 F8000.0
G0 X39.7380 Y-255.9681 F15000.0
G1 Z11.9000 F8000.0
G1 X39.1451 Y-255.9225 F12000.0
G1 Z0.0000 F8000.0
G0 X21.5875 Y-255.9220 F15000.0
G1 Z11.9000 F8000.0
G1 X21.0336 Y-256.0021 F12000.0
G1 X20.9946 Y-257.4270
G1 Z0.0000 F8000.0
G0 X21.9979 Y-257.1078 F15000.0
G1 Z11.9000 F8000.0
G1 X22.2118 Y-257.3888 F12000.0
G1 X22.3991 Y-257.4781
G1 X23.1348 Y-257.1585
G1 X23.2071 Y-256.8382
G1 X23.0668 Y-256.1630
G1 X22.5561 Y-255.9148
G1 X21.9699 Y-256.2034
G1 X20.5905 Y-255.9358
G1 X19.8170 Y-256.1625
G1 X19.1936 Y-255.9273
G1 X18.6540 Y-256.7963
G1 X18.6418 Y-256.9980
G1 X18.9733 Y-257.4500
G1 X19.8484 Y-256.9760
G1 X19.9422 Y-256.6475
G1 X19.9456 Y-256.7791
G1 X19.8430 Y-256.2892
G1 X19.9000 Y-256.4693
G1 Z0.0000 F8000.0
G0 X17.8932 Y-256.6061 F15000.0
G1 Z11.9000 F8000.0
G1 X16.9353 Y-256.6434 F12000.0
G1 X16.8595 Y-256.2490
G1 X16.9146 Y-256.6801
G1 X16.8060 Y-257.1010
G1 X17.8398 Y-257.3829
G1 X17.8039 Y-255.9632
G1 X16.8898 Y-256.0588
G1 Z0.0000 F8000.0
G0 X23.9135 Y-256.0132 F15000.0
G1 Z11.9000 F8000.0
G1 X24.2989 Y-256.4294 F12000.0
G1 X24.6905 Y-257.0410
G1 X24.9947 Y-257.3164
G1 X24.8639 Y-257.1597
G1 X25.0081 Y-257.2446
G1 Z0.0000 F8000.0
G0 X25.8746 Y-257.4270 F15000.0
G1 Z11.9000 F8000.0
G1 X25.9626 Y-255.3299 F12000.0
G1 X27.2885 Y-257.4727
G1 Z0.0000 F8000.0
G0 X25.0537 Y-255.9676 F15000.0
G1 Z11.9000 F8000.0
G1 X24.9890 Y-257.1154 F12000.0
G1 X24.6583 Y-256.9620
G1 X24.3024 Y-256.4305
G1 X23.9816 Y-256.2720
G1 X23.9135 Y-257.4727
G1 Z0.0000 F8000.0
G0 X22.2101 Y-262.7543 F15000.0
G1 Z11.9000 F8000.0
G1 X22.3861 Y-263.2852 F12000.0
G1 X23.3103 Y-263.7605
G1 X22.3329 Y-263.3151
G1 X22.2557 Y-266.5854
G1 Z0.0000 F8000.0
G0 X19.7473 Y-266.6310 F15000.0
G1 Z11.9000 F8000.0
G1 X20.1475 Y-266.2983 F12000.0
G1 X19.6940 Y-266.6340
G1 X18.8925 Y-266.5855
G1 X18.4532 Y-266.2294
G1 X18.2181 Y-265.7493
G1 X18.1372 Y-265.0545
G1 X18.2080 Y-264.6729
G1 X18.5284 Y-264.8269
G1 X18.1811 Y-264.8309
G1 X17.0939 Y-265.2935
G1 X16.0530 Y-265.3084
G1 Z0.0000 F8000.0
G0 X14.1375 Y-264.7155 F15000.0
G1 Z11.9000 F8000.0
G1 X13.4732 Y-264.5130 F12000.0
G1 X13.1982 Y-264.1757
G1 X13.0232 Y-263.7565
G1 X13.1711 Y-263.1978
G1 X13.9753 Y-262.7846
G1 X14.6862 Y-263.0481
G1 X14.9128 Y-263.4841
G1 Z0.0000 F8000.0
G0 X13.4534 Y-264.5331 F15000.0
G1 Z11.9000 F8000.0
G1 X13.0465 Y-265.0451 F12000.0
G1 X12.8482 Y-265.7251
G1 X12.9092 Y-266.0581
G1 X13.2154 Y-266.4668
G1 X13.7520 Y-266.6619
G1 X14.4471 Y-266.5622
G1 X14.9647 Y-265.9952
G1 X14.7555 Y-266.3477
G1 X14.4567 Y-266.5854
G1 Z0.0000 F8000.0
G0 X19.7929 Y-265.0347 F15000.0
G1 Z11.9000 F8000.0
G1 X20.1102 Y-264.7815 F12000.0
G1 X20.3456 Y-264.3525
G1 X20.2490 Y-264.5787
G1 Z0.0000 F8000.0
G0 X20.2946 Y-263.4841 F15000.0
G1 Z11.9000 F8000.0
G1 X19.8152 Y-262.8962 F12000.0
G1 X20.2528 Y-263.4539
G1 X20.1993 Y-264.6046
G1 X19.6891 Y-265.0767
G1 X18.8796 Y-265.0291
G1 X18.1907 Y-264.6117
G1 X18.2062 Y-263.6879
G1 X18.4433 Y-263.1724
G1 X18.6886 Y-262.9689
G1 X19.3535 Y-262.7771
G1 X19.7473 Y-262.8456
G1 Z0.0000 F8000.0
G0 X24.9466 Y-262.8456 F15000.0
G1 Z11.9000 F8000.0
G1 X26.5545 Y-262.8679 F12000.0
G1 X26.6622 Y-263.1344
G1 X26.7945 Y-264.4274
G1 X25.7871 Y-264.2402
G1 X25.3412 Y-264.3845
G1 X25.0814 Y-264.5697
G1 X24.8166 Y-265.0842
G1 X24.8117 Y-265.7817
G1 X25.0012 Y-266.2102
G1 X25.4828 Y-266.6028
G1 X26.1816 Y-266.6631
G1 X26.3902 Y-266.5822
G1 X26.9418 Y-266.0343
G1 X26.5486 Y-266.5321
G1 X26.3504 Y-266.6049
G1 X25.2150 Y-266.4390
G1 X25.0834 Y-266.3118
G1 Z0.0000 F8000.0
G0 X28.0479 Y-265.3084 F15000.0
G1 Z11.9000 F8000.0
G1 X29.0969 Y-265.3084 F12000.0
G1 Z0.0000 F8000.0
G0 X31.4229 Y-266.5398 F15000.0
G1 Z11.9000 F8000.0
G1 X31.4685 Y-262.7999 F12000.0
G1 Z0.0000 F8000.0
G0 X32.8824 Y-262.7999 F15000.0
G1 Z11.9000 F8000.0
G1 X30.0091 Y-262.7999 F12000.0
G1 Z0.0000 F8000.0
G0 X34.0682 Y-266.5854 F15000.0
G1 Z11.9000 F8000.0
G1 X34.1577 Y-262.8354 F12000.0
G1 X36.0896 Y-262.8508
G1 X36.2733 Y-266.2492
G1 X36.3747 Y-266.4893
G1 X36.8503 Y-266.6766
G1 Z0.0000 F8000.0
G0 X170.8218 Y-264.4477 F15000.0
G1 Z11.9000 F8000.0
G1 X170.8218 Y-266.1760 F12000.0
G1 X170.7707 Y-265.3033
G1 X169.5356 Y-265.2753
G1 X169.4570 Y-264.5404
G1 X169.4536 Y-266.3176
G1 Z0.0000 F8000.0
G0 X167.9029 Y-266.3176 F15000.0
G1 Z11.9000 F8000.0
G1 X167.8800 Y-265.7395 F12000.0
G1 X167.4171 Y-265.4377
G1 X167.0819 Y-264.9950
G1 Z0.0000 F8000.0
G0 X167.9029 Y-265.0406 F15000.0
G1 Z11.9000 F8000.0
G1 X167.8328 Y-265.5727 F12000.0
G1 X167.3985 Y-265.8241
G1 X167.4777 Y-265.6010
G1 X167.4789 Y-265.7021
G1 X167.1087 Y-266.2418
G1 X166.7753 Y-266.0401
G1 X166.6462 Y-265.8604
G1 X166.5974 Y-265.4012
G1 X166.3321 Y-265.0404
G1 X166.3729 Y-265.0763
G1 X165.9822 Y-264.9970
G1 X165.7652 Y-265.0561
G1 X165.6265 Y-265.2120
G1 X165.5221 Y-266.0072
G1 X165.6593 Y-266.1768
G1 X166.0944 Y-266.3323
G1 X166.2962 Y-266.2618
G1 X166.5805 Y-265.9732
G1 X166.4834 Y-266.1704
G1 X166.2268 Y-266.3074
G1 X164.9543 Y-266.2889
G1 X164.8940 Y-266.1121
G1 X164.8927 Y-265.1189
G1 X164.8564 Y-265.5934
G1 X163.9818 Y-265.7103
G1 X163.8909 Y-266.2174
G1 X163.8615 Y-265.1017
G1 X163.4524 Y-265.0027
G1 X162.3843 Y-264.9950
G1 Z0.0000 F8000.0
G0 X162.9316 Y-264.9950 F15000.0
G1 Z11.9000 F8000.0
G1 X162.8554 Y-266.2618 F12000.0
G1 X161.8479 Y-266.1970
G1 X161.1813 Y-266.3008
G1 X160.9038 Y-266.0930
G1 X160.8098 Y-265.8955
G1 X160.8980 Y-265.2033
G1 X161.1711 Y-265.0586
G1 X161.7328 Y-265.1528
G1 X161.8654 Y-265.9249
G1 X161.8589 Y-266.8225
G1 X160.8792 Y-266.0896
G1 Z0.0000 F8000.0
G0 X170.5868 Y-267.1522 F15000.0
G1 Z11.9000 F8000.0
G1 X169.8085 Y-268.4400 F12000.0
G1 X169.9678 Y-268.9745
G1 X170.0949 Y-269.0761
G1 X170.2838 Y-269.0471
G1 X169.6115 Y-268.2746
G1 X169.0443 Y-267.2383
G1 X168.6104 Y-267.7256
G1 X167.6679 Y-267.7451
G1 Z0.0000 F8000.0
G0 X168.2152 Y-267.7451 F15000.0
G1 Z11.9000 F8000.0
G1 X168.1441 Y-268.9984 F12000.0
G1 X167.0830 Y-268.4027
G1 X166.3820 Y-268.4355
G1 X166.1645 Y-268.5540
G1 X166.2298 Y-268.4290
G1 X166.2432 Y-267.8475
G1 X166.1185 Y-268.6786
G1 X166.3627 Y-269.0346
G1 X166.4416 Y-269.0420
G1 X167.0814 Y-268.4344
G1 X166.9671 Y-268.2747
G1 X166.2997 Y-267.7907
G1 Z0.0000 F8000.0

G0 Z0.0000 F800.0
G4 P0.06
G0 X0.0000 Y0.0000 F15000.0
M5
G4 P0.10
$1=0
