$X
$1=255
G21
G90
G92 Z4.0000
G0 Z0.0000 F800.0
G4 P0.06
G92 Z0.0000
G0 Z0.0000 F800.0
G0 X0.0000 Y0.0000 F15000.0
G21
G90
G17
G91.1
G0 Z0.0000
G0 X66.5068 Y-155.7975 F15000.0
G1 Z11.9000 F2500.0
G4 P0.02
G1 X66.7576 Y-155.8811 F3500.0
G1 X66.8412 Y-156.1110
G1 Z0.0000 F2500.0
G4 P0.02
G0 X66.7786 Y-155.8811 F15000.0
G1 Z11.9000 F2500.0
G4 P0.02
G1 X68.5552 Y-155.8811 F3500.0
G1 Z0.0000 F2500.0
G4 P0.02
G0 X67.8027 Y-159.3088 F15000.0
G1 Z11.9000 F2500.0
G4 P0.02
G1 X68.5133 Y-159.9149 F3500.0
G1 X69.3702 Y-159.9985
G1 Z0.0000 F2500.0
G4 P0.02
G0 X68.2207 Y-157.4904 F15000.0
G1 Z11.9000 F2500.0
G4 P0.02
G1 X69.7256 Y-159.6223 F3500.0
G1 X69.5375 Y-159.9149
G1 Z0.0000 F2500.0
G4 P0.02
G0 X69.6837 Y-156.0482 F15000.0
G1 Z11.9000 F2500.0
G4 P0.02
G1 X69.6211 Y-156.1528 F3500.0
G1 X69.7047 Y-156.8007
G1 X70.3108 Y-158.4309
G1 X71.0842 Y-159.3924
G1 X72.1710 Y-160.0403
G1 Z0.0000 F2500.0
G4 P0.02
G0 X69.8719 Y-155.8811 F15000.0
G1 Z11.9000 F2500.0
G4 P0.02
G1 X70.8333 Y-155.8811 F3500.0
G1 X71.2095 Y-156.1318
G1 Z0.0000 F2500.0
G4 P0.02
G0 X70.2899 Y-158.1384 F15000.0
G1 Z11.9000 F2500.0
G4 P0.02
G1 X71.6484 Y-158.0338 F3500.0
G1 X71.8575 Y-157.7622
G1 X71.4604 Y-156.3827
G1 Z0.0000 F2500.0
G4 P0.02
G0 X104.7407 Y-78.5810 F15000.0
G1 Z11.9000 F2500.0
G4 P0.02
G1 X105.9949 Y-78.7482 F3500.0
G1 X106.5173 Y-79.3126
G1 X106.7890 Y-80.0649
G1 X106.8518 Y-80.4830
G1 Z0.0000 F2500.0
G4 P0.02
G0 X106.7682 Y-80.6710 F15000.0
G1 Z11.9000 F2500.0
G4 P0.02
G1 X106.4964 Y-80.8382 F3500.0
G1 X105.5977 Y-80.9219
G1 X105.7858 Y-81.6325
G1 Z0.0000 F2500.0
G4 P0.02
G0 X105.9530 Y-82.0923 F15000.0
G1 Z11.9000 F2500.0
G4 P0.02
G1 X106.1829 Y-82.7402 F3500.0
G1 Z0.0000 F2500.0
G4 P0.02
G0 X106.2665 Y-82.8238 F15000.0
G1 Z11.9000 F2500.0
G4 P0.02
G1 X107.7714 Y-82.8448 F3500.0
G1 Z0.0000 F2500.0
G4 P0.02
G0 X106.5383 Y-79.3543 F15000.0
G1 Z11.9000 F2500.0
G4 P0.02
G1 X106.5591 Y-79.4170 F3500.0
G1 Z0.0000 F2500.0
G4 P0.02
G0 X107.7505 Y-78.6019 F15000.0
G1 Z11.9000 F2500.0
G4 P0.02
G1 X108.6910 Y-79.1244 F3500.0
G1 X109.3389 Y-79.8141
G1 X109.9869 Y-81.1518
G1 Z0.0000 F2500.0
G4 P0.02
G0 X110.0914 Y-81.4444 F15000.0
G1 Z11.9000 F2500.0
G4 P0.02
G1 X110.3213 Y-82.4894 F3500.0
G1 X110.0914 Y-82.7821
G1 X109.9659 Y-82.8238
G1 X108.9418 Y-82.6985
G1 X108.5029 Y-82.3222
G1 X108.1267 Y-81.4026
G1 X108.1476 Y-80.7756
G1 Z0.0000 F2500.0
G4 P0.02
G0 X108.3357 Y-80.6083 F15000.0
G1 Z11.9000 F2500.0
G4 P0.02
G1 X109.6524 Y-80.5457 F3500.0
G1 Z0.0000 F2500.0
G4 P0.02
G0 X96.6939 Y-94.4315 F15000.0
G1 Z11.9000 F2500.0
G4 P0.02
G1 X97.9480 Y-94.5987 F3500.0
G1 X98.5123 Y-95.2675
G1 X98.7422 Y-95.9154
G1 X98.8049 Y-96.3335
G1 Z0.0000 F2500.0
G4 P0.02
G0 X98.7214 Y-96.5215 F15000.0
G1 Z11.9000 F2500.0
G4 P0.02
G1 X98.4496 Y-96.6887 F3500.0
G1 X97.5509 Y-96.7723
G1 X97.7390 Y-97.4830
G1 Z0.0000 F2500.0
G4 P0.02
G0 X97.9062 Y-97.9428 F15000.0
G1 Z11.9000 F2500.0
G4 P0.02
G1 X98.1361 Y-98.5907 F3500.0
G1 Z0.0000 F2500.0
G4 P0.02
G0 X98.2197 Y-98.6743 F15000.0
G1 Z11.9000 F2500.0
G4 P0.02
G1 X99.7246 Y-98.6952 F3500.0
G1 Z0.0000 F2500.0
G4 P0.02
G0 X99.0140 Y-94.4105 F15000.0
G1 Z11.9000 F2500.0
G4 P0.02
G1 X99.2648 Y-94.4942 F3500.0
G1 X99.3484 Y-94.7241
G1 Z0.0000 F2500.0
G4 P0.02
G0 X99.2856 Y-94.4942 F15000.0
G1 Z11.9000 F2500.0
G4 P0.02
G1 X100.7069 Y-94.4315 F3500.0
G1 X101.0622 Y-94.4942
G1 Z0.0000 F2500.0
G4 P0.02
G0 X100.3098 Y-97.9219 F15000.0
G1 Z11.9000 F2500.0
G4 P0.02
G1 X101.0204 Y-98.5280 F3500.0
G1 X101.8774 Y-98.6116
G1 Z0.0000 F2500.0
G4 P0.02
G0 X102.0446 Y-98.5280 F15000.0
G1 Z11.9000 F2500.0
G4 P0.02
G1 X102.2117 Y-98.2772 F3500.0
G1 X102.1073 Y-97.5039
G1 Z0.0000 F2500.0
G4 P0.02
G0 X17.5629 Y-167.9012 F15000.0
G1 Z11.9000 F2500.0
G4 P0.02
G1 X18.4616 Y-166.6053 F3500.0
G1 X18.9632 Y-166.1665
G1 X19.6320 Y-165.8529
G1 X19.7992 Y-167.2950
G1 Z0.0000 F2500.0
G4 P0.02
G0 X17.6465 Y-162.9477 F15000.0
G1 Z11.9000 F2500.0
G4 P0.02
G1 X17.8972 Y-162.7804 F3500.0
G1 Z0.0000 F2500.0
G4 P0.02
G0 X17.6465 Y-160.3350 F15000.0
G1 Z11.9000 F2500.0
G4 P0.02
G1 X18.1063 Y-160.3350 F3500.0
G1 X21.9938 Y-158.7257
G1 Z0.0000 F2500.0
G4 P0.02
G0 X17.9808 Y-165.2258 F15000.0
G1 Z11.9000 F2500.0
G4 P0.02
G1 X17.7509 Y-164.8706 F3500.0
G1 X17.8555 Y-164.1181
G1 X18.3362 Y-163.4702
G1 X18.5034 Y-163.3866
G1 Z0.0000 F2500.0
G4 P0.02
G0 X18.1063 Y-165.2886 F15000.0
G1 Z11.9000 F2500.0
G4 P0.02
G1 X18.5870 Y-165.3094 F3500.0
G1 X18.8796 Y-165.2050
G1 Z0.0000 F2500.0
G4 P0.02
G0 X21.8684 Y-161.3801 F15000.0
G1 Z11.9000 F2500.0
G4 P0.02
G1 X18.4616 Y-162.6133 F3500.0
G1 X18.1690 Y-162.6133
G1 X19.5066 Y-161.1084
G1 X19.6529 Y-160.7949
G1 X19.8411 Y-160.7322
G1 Z0.0000 F2500.0
G4 P0.02
G0 X18.1690 Y-160.3978 F15000.0
G1 Z11.9000 F2500.0
G4 P0.02
G1 X19.6529 Y-160.7740 F3500.0
G1 Z0.0000 F2500.0
G4 P0.02
G0 X19.6529 Y-165.8529 F15000.0
G1 Z11.9000 F2500.0
G4 P0.02
G1 X21.0115 Y-165.2886 F3500.0
G1 X21.5549 Y-165.2050
G1 X21.7012 Y-165.2468
G1 X21.8893 Y-166.4381
G1 X21.5340 Y-166.9607
G1 X20.5308 Y-167.3996
G1 X19.9037 Y-167.3996
G1 Z0.0000 F2500.0
G4 P0.02
G0 X20.4262 Y-163.6792 F15000.0
G1 Z11.9000 F2500.0
G4 P0.02
G1 X21.8893 Y-162.3625 F3500.0
G1 X21.9520 Y-162.2162
G1 Z0.0000 F2500.0
G4 P0.02
G0 X21.2205 Y-167.1487 F15000.0
G1 Z11.9000 F2500.0
G4 P0.02
G1 X21.3041 Y-167.1070 F3500.0
G1 Z0.0000 F2500.0
G4 P0.02
G0 X21.7221 Y-166.7307 F15000.0
G1 Z11.9000 F2500.0
G4 P0.02
G1 X21.7639 Y-166.6889 F3500.0
G1 Z0.0000 F2500.0
G4 P0.02
G0 X21.9311 Y-162.4042 F15000.0
G1 Z11.9000 F2500.0
G4 P0.02
G1 X21.9938 Y-163.9927 F3500.0
G1 Z0.0000 F2500.0
G4 P0.02
G0 X179.1602 Y-167.9794 F15000.0
G1 Z11.9000 F2500.0
G4 P0.02
G1 X179.7873 Y-167.7495 F3500.0
G1 X180.0000 Y-167.7596
G1 Z0.0000 F2500.0
G4 P0.02
G0 X180.0000 Y-169.1794 F15000.0
G1 Z11.9000 F2500.0
G4 P0.02
G1 X179.3065 Y-169.5261 F3500.0
G1 X178.9094 Y-169.5469
G1 X178.5541 Y-169.2334
G1 X178.5541 Y-168.8155
G1 X178.9094 Y-168.1885
G1 Z0.0000 F2500.0
G4 P0.02
G0 X178.8677 Y-166.5791 F15000.0
G1 Z11.9000 F2500.0
G4 P0.02
G1 X178.9722 Y-166.5164 F3500.0
G1 Z0.0000 F2500.0
G4 P0.02
G0 X179.2230 Y-166.3492 F15000.0
G1 Z11.9000 F2500.0
G4 P0.02
G1 X179.8291 Y-165.9938 F3500.0
G1 X180.0000 Y-164.9750
G1 Z0.0000 F2500.0
G4 P0.02
G0 X179.8709 Y-165.8684 F15000.0
G1 Z11.9000 F2500.0
G4 P0.02
G1 X180.0000 Y-165.8110 F3500.0
G1 Z0.0000 F2500.0
G4 P0.02
G0 X132.0309 Y-219.3176 F15000.0
G1 Z11.9000 F2500.0
G4 P0.02
G1 X132.2817 Y-219.4012 F3500.0
G1 X132.3653 Y-219.6311
G1 Z0.0000 F2500.0
G4 P0.02
G0 X132.3026 Y-219.4012 F15000.0
G1 Z11.9000 F2500.0
G4 P0.02
G1 X134.0792 Y-219.4012 F3500.0
G1 Z0.0000 F2500.0
G4 P0.02
G0 X133.3267 Y-222.8290 F15000.0
G1 Z11.9000 F2500.0
G4 P0.02
G1 X134.0373 Y-223.4351 F3500.0
G1 X134.8943 Y-223.5187
G1 Z0.0000 F2500.0
G4 P0.02
G0 X133.7448 Y-221.0106 F15000.0
G1 Z11.9000 F2500.0
G4 P0.02
G1 X135.2496 Y-223.1425 F3500.0
G1 X135.0615 Y-223.4351
G1 Z0.0000 F2500.0
G4 P0.02
G0 X135.6885 Y-219.2758 F15000.0
G1 Z11.9000 F2500.0
G4 P0.02
G1 X135.7930 Y-219.2967 F3500.0
G1 X136.2947 Y-220.0909
G1 X136.2320 Y-219.9864
G1 Z0.0000 F2500.0
G4 P0.02
G0 X136.2528 Y-223.2052 F15000.0
G1 Z11.9000 F2500.0
G4 P0.02
G1 X136.2111 Y-223.1006 F3500.0
G1 X136.3991 Y-223.5187
G1 X138.3430 Y-223.6023
G1 X137.6533 Y-222.3900
G1 Z0.0000 F2500.0
G4 P0.02
G0 X136.6500 Y-220.6971 F15000.0
G1 Z11.9000 F2500.0
G4 P0.02
G1 X137.2979 Y-221.7839 F3500.0
G1 Z0.0000 F2500.0
G4 P0.02
G0 X118.1068 Y-236.0107 F15000.0
G1 Z11.9000 F2500.0
G4 P0.02
G1 X119.5280 Y-239.9401 F3500.0
G1 X119.7162 Y-240.2117
G1 Z0.0000 F2500.0
G4 P0.02
G0 X118.1904 Y-239.0622 F15000.0
G1 Z11.9000 F2500.0
G4 P0.02
G1 X118.4203 Y-239.2921 F3500.0
G1 Z0.0000 F2500.0
G4 P0.02
G0 X118.3576 Y-235.0910 F15000.0
G1 Z11.9000 F2500.0
G4 P0.02
G1 X118.8593 Y-235.7807 F3500.0
G1 Z0.0000 F2500.0
G4 P0.02
G0 X118.9219 Y-239.6266 F15000.0
G1 Z11.9000 F2500.0
G4 P0.02
G1 X119.4236 Y-239.8565 F3500.0
G1 Z0.0000 F2500.0
G4 P0.02
G0 X119.8625 Y-235.8435 F15000.0
G1 Z11.9000 F2500.0
G4 P0.02
G1 X121.1584 Y-236.0107 F3500.0
G1 X121.4509 Y-236.2197
G1 X121.7435 Y-236.6168
G1 X122.0989 Y-237.7873
G1 Z0.0000 F2500.0
G4 P0.02
G0 X122.0153 Y-237.9754 F15000.0
G1 Z11.9000 F2500.0
G4 P0.02
G1 X121.7227 Y-238.1634 F3500.0
G1 X120.8239 Y-238.2262
G1 X121.4092 Y-240.0027
G1 X122.9767 Y-240.1490
G1 Z0.0000 F2500.0
G4 P0.02
G0 X121.7644 Y-236.6586 F15000.0
G1 Z11.9000 F2500.0
G4 P0.02
G1 X121.8063 Y-236.7422 F3500.0
G1 Z0.0000 F2500.0
G4 P0.02
G0 X15.5429 Y-106.4444 F15000.0
G1 Z11.9000 F2500.0
G4 P0.02
G1 X16.9642 Y-110.3737 F3500.0
G1 X17.1522 Y-110.6455
G1 Z0.0000 F2500.0
G4 P0.02
G0 X15.6265 Y-109.4960 F15000.0
G1 Z11.9000 F2500.0
G4 P0.02
G1 X15.8564 Y-109.7259 F3500.0
G1 Z0.0000 F2500.0
G4 P0.02
G0 X16.3372 Y-106.8415 F15000.0
G1 Z11.9000 F2500.0
G4 P0.02
G1 X16.3789 Y-106.9461 F3500.0
G1 X17.4240 Y-107.6358
G1 Z0.0000 F2500.0
G4 P0.02
G0 X16.3580 Y-110.0602 F15000.0
G1 Z11.9000 F2500.0
G4 P0.02
G1 X16.8596 Y-110.2901 F3500.0
G1 Z0.0000 F2500.0
G4 P0.02
G0 X17.0895 Y-108.5136 F15000.0
G1 Z11.9000 F2500.0
G4 P0.02
G1 X17.9465 Y-107.1341 F3500.0
G1 Z0.0000 F2500.0
G4 P0.02
G0 X17.6957 Y-107.8866 F15000.0
G1 Z11.9000 F2500.0
G4 P0.02
G1 X17.7584 Y-107.9283 F3500.0
G1 Z0.0000 F2500.0
G4 P0.02
G0 X18.0092 Y-108.0956 F15000.0
G1 Z11.9000 F2500.0
G4 P0.02
G1 X18.1764 Y-108.2210 F3500.0
G1 Z0.0000 F2500.0
G4 P0.02
G0 X18.4899 Y-108.4300 F15000.0
G1 Z11.9000 F2500.0
G4 P0.02
G1 X18.7616 Y-108.7226 F3500.0
G1 Z0.0000 F2500.0
G4 P0.02
G0 X19.9947 Y-106.4444 F15000.0
G1 Z11.9000 F2500.0
G4 P0.02
G1 X20.2874 Y-107.3013 F3500.0
G1 X19.1378 Y-107.3640
G1 X19.5349 Y-108.2001
G1 Z0.0000 F2500.0
G4 P0.02
G0 X19.8694 Y-108.8062 F15000.0
G1 Z11.9000 F2500.0
G4 P0.02
G1 X20.6009 Y-110.0812 F3500.0
G1 Z0.0000 F2500.0
G4 P0.02
G0 X20.2874 Y-107.3013 F15000.0
G1 Z11.9000 F2500.0
G4 P0.02
G1 X20.3918 Y-107.3223 F3500.0
G1 X20.6636 Y-108.1165
G1 Z0.0000 F2500.0
G4 P0.02
G0 X20.4337 Y-107.3223 F15000.0
G1 Z11.9000 F2500.0
G4 P0.02
G1 X20.8517 Y-107.3013 F3500.0
G1 Z0.0000 F2500.0
G4 P0.02
G0 X20.8308 Y-110.4992 F15000.0
G1 Z11.9000 F2500.0
G4 P0.02
G1 X20.8726 Y-110.5828 F3500.0
G1 Z0.0000 F2500.0
G4 P0.02
G0 X21.4369 Y-106.2772 F15000.0
G1 Z11.9000 F2500.0
G4 P0.02
G1 X22.7328 Y-106.4444 F3500.0
G1 X23.0254 Y-106.6534
G1 X23.3180 Y-107.0505
G1 X23.6733 Y-108.2210
G1 Z0.0000 F2500.0
G4 P0.02
G0 X23.5897 Y-108.4091 F15000.0
G1 Z11.9000 F2500.0
G4 P0.02
G1 X22.3984 Y-108.6599 F3500.0
G1 X22.9836 Y-110.4365
G1 X24.5512 Y-110.5828
G1 Z0.0000 F2500.0
G4 P0.02
G0 X23.3389 Y-107.0924 F15000.0
G1 Z11.9000 F2500.0
G4 P0.02
G1 X23.3807 Y-107.1760 F3500.0
G1 Z0.0000 F2500.0
G4 P0.02
G0 X25.7425 Y-109.6840 F15000.0
G1 Z11.9000 F2500.0
G4 P0.02
G1 X25.2199 Y-109.7259 F3500.0
G1 X25.3036 Y-110.1857
G1 X25.5544 Y-110.3947
G1 X25.9724 Y-110.4573
G1 X26.0560 Y-109.9558
G1 Z0.0000 F2500.0
G4 P0.02
G0 X25.8679 Y-109.7467 F15000.0
G1 Z11.9000 F2500.0
G4 P0.02
G1 X25.9306 Y-109.8095 F3500.0
G1 Z0.0000 F2500.0
G4 P0.02
G0 X39.8294 Y-137.5252 F15000.0
G1 Z11.9000 F2500.0
G4 P0.02
G1 X39.8294 Y-192.1847 F12000.0
G1 Z0.0000 F2500.0
G4 P0.02
G0 X175.4659 Y-155.6671 F15000.0
G1 Z11.9000 F2500.0
G4 P0.02
G1 X175.4659 Y-174.0427 F12000.0
G1 Z0.0000 F2500.0
G4 P0.02
G0 X159.4262 Y-155.6671 F15000.0
G1 Z11.9000 F2500.0
G4 P0.02
G1 X159.4262 Y-164.8550 F12000.0
G1 Z0.0000 F2500.0
G4 P0.02
G0 X175.4659 Y-174.0427 F15000.0
G1 Z11.9000 F2500.0
G4 P0.02
G1 X175.4659 Y-182.0626 F3500.0
G1 Z0.0000 F2500.0
G4 P0.02
G0 X45.0462 Y-219.2808 F15000.0
G1 Z11.9000 F2500.0
G4 P0.02
G1 X39.8294 Y-208.7694 F12000.0
G1 Z0.0000 F2500.0
G4 P0.02
G0 X65.6797 Y-219.2808 F15000.0
G1 Z11.9000 F2500.0
G4 P0.02
G1 X45.0462 Y-219.2808 F12000.0
G1 Z0.0000 F2500.0
G4 P0.02
G0 X166.2781 Y-147.5695 F15000.0
G1 Z11.9000 F2500.0
G4 P0.02
G1 X175.4659 Y-147.5695 F12000.0
G1 Z0.0000 F2500.0
G4 P0.02
G0 X159.4262 Y-137.5252 F15000.0
G1 Z11.9000 F2500.0
G4 P0.02
G1 X42.5546 Y-137.5252 F12000.0
G1 Z0.0000 F2500.0
G4 P0.02
G0 X65.6797 Y-110.4290 F15000.0
G1 Z11.9000 F2500.0
G4 P0.02
G1 X70.8965 Y-120.9405 F12000.0
G1 Z0.0000 F2500.0
G4 P0.02
G0 X70.8965 Y-125.7680 F15000.0
G1 Z11.9000 F2500.0
G4 P0.02
G1 X164.0201 Y-125.7680 F12000.0
G1 Z0.0000 F2500.0
G4 P0.02
G0 X166.2781 Y-182.0626 F15000.0
G1 Z11.9000 F2500.0
G4 P0.02
G1 X175.4659 Y-182.0626 F12000.0
G1 Z0.0000 F2500.0
G4 P0.02
G0 X175.4659 Y-155.6671 F15000.0
G1 Z11.9000 F2500.0
G4 P0.02
G1 X159.4262 Y-155.6671 F12000.0
G1 Z0.0000 F2500.0
G4 P0.02
G0 X45.0462 Y-110.4290 F15000.0
G1 Z11.9000 F2500.0
G4 P0.02
G1 X65.6797 Y-110.4290 F12000.0
G1 Z0.0000 F2500.0
G4 P0.02
G0 X45.0462 Y-110.4290 F15000.0
G1 Z11.9000 F2500.0
G4 P0.02
G1 X39.8294 Y-120.9405 F12000.0
G1 Z0.0000 F2500.0
G4 P0.02
G0 X70.8965 Y-203.9419 F15000.0
G1 Z11.9000 F2500.0
G4 P0.02
G1 X164.0201 Y-203.9419 F12000.0
G1 Z0.0000 F2500.0
G4 P0.02
G0 X65.6797 Y-219.2808 F15000.0
G1 Z11.9000 F2500.0
G4 P0.02
G1 X70.8965 Y-208.7694 F12000.0
G1 Z0.0000 F2500.0
G4 P0.02
G0 X39.8294 Y-208.7694 F15000.0
G1 Z11.9000 F2500.0
G4 P0.02
G1 X39.8294 Y-192.1847 F12000.0
G1 Z0.0000 F2500.0
G4 P0.02
G0 X166.2781 Y-128.0260 F15000.0
G1 Z11.9000 F2500.0
G4 P0.02
G1 X166.2781 Y-147.5695 F12000.0
G1 Z0.0000 F2500.0
G4 P0.02
G0 X166.2781 Y-182.0626 F15000.0
G1 Z11.9000 F2500.0
G4 P0.02
G1 X166.2781 Y-201.6060 F12000.0
G1 Z0.0000 F2500.0
G4 P0.02
G0 X70.8965 Y-125.7680 F15000.0
G1 Z11.9000 F2500.0
G4 P0.02
G1 X70.8965 Y-120.9405 F3500.0
G1 Z0.0000 F2500.0
G4 P0.02
G0 X175.4659 Y-147.5695 F15000.0
G1 Z11.9000 F2500.0
G4 P0.02
G1 X175.4659 Y-155.6671 F3500.0
G1 Z0.0000 F2500.0
G4 P0.02
G0 X38.0386 Y-164.8550 F15000.0
G1 Z11.9000 F2500.0
G4 P0.02
G1 X54.3118 Y-164.8550 F12000.0
G1 Z0.0000 F2500.0
G4 P0.02
G0 X55.7133 Y-164.8550 F15000.0
G1 Z11.9000 F2500.0
G4 P0.02
G1 X57.1149 Y-164.8550 F3500.0
G1 Z0.0000 F2500.0
G4 P0.02
G0 X58.5164 Y-164.8550 F15000.0
G1 Z11.9000 F2500.0
G4 P0.02
G1 X74.8675 Y-164.8550 F12000.0
G1 Z0.0000 F2500.0
G4 P0.02
G0 X76.1912 Y-164.8550 F15000.0
G1 Z11.9000 F2500.0
G4 P0.02
G1 X77.6706 Y-164.8550 F3500.0
G1 Z0.0000 F2500.0
G4 P0.02
G0 X78.9942 Y-164.8550 F15000.0
G1 Z11.9000 F2500.0
G4 P0.02
G1 X95.3454 Y-164.8550 F12000.0
G1 Z0.0000 F2500.0
G4 P0.02
G0 X96.7469 Y-164.8550 F15000.0
G1 Z11.9000 F2500.0
G4 P0.02
G1 X98.1484 Y-164.8550 F3500.0
G1 Z0.0000 F2500.0
G4 P0.02
G0 X99.5499 Y-164.8550 F15000.0
G1 Z11.9000 F2500.0
G4 P0.02
G1 X115.8232 Y-164.8550 F12000.0
G1 Z0.0000 F2500.0
G4 P0.02
G0 X117.2247 Y-164.8550 F15000.0
G1 Z11.9000 F2500.0
G4 P0.02
G1 X118.6262 Y-164.8550 F3500.0
G1 Z0.0000 F2500.0
G4 P0.02
G0 X120.0278 Y-164.8550 F15000.0
G1 Z11.9000 F2500.0
G4 P0.02
G1 X136.3010 Y-164.8550 F12000.0
G1 Z0.0000 F2500.0
G4 P0.02
G0 X137.7025 Y-164.8550 F15000.0
G1 Z11.9000 F2500.0
G4 P0.02
G1 X139.1041 Y-164.8550 F3500.0
G1 Z0.0000 F2500.0
G4 P0.02
G0 X140.5056 Y-164.8550 F15000.0
G1 Z11.9000 F2500.0
G4 P0.02
G1 X156.8567 Y-164.8550 F12000.0
G1 Z0.0000 F2500.0
G4 P0.02
G0 X158.1804 Y-164.8550 F15000.0
G1 Z11.9000 F2500.0
G4 P0.02
G1 X159.6598 Y-164.8550 F3500.0
G1 Z0.0000 F2500.0
G4 P0.02
G0 X160.9834 Y-164.8550 F15000.0
G1 Z11.9000 F2500.0
G4 P0.02
G1 X177.3346 Y-164.8550 F12000.0
G1 Z0.0000 F2500.0
G4 P0.02
G0 X99.6278 Y-134.8779 F15000.0
G1 Z11.9000 F2500.0
G4 P0.02
G1 X39.8294 Y-134.8779 F12000.0
G1 Z0.0000 F2500.0
G4 P0.02
G0 X104.2217 Y-203.9419 F15000.0
G1 Z11.9000 F2500.0
G4 P0.02
G1 X104.2217 Y-164.8550 F12000.0
G1 Z0.0000 F2500.0
G4 P0.02
G0 X104.2217 Y-128.0260 F15000.0
G1 Z11.9000 F2500.0
G4 P0.02
G1 X166.2781 Y-128.0260 F12000.0
G1 Z0.0000 F2500.0
G4 P0.02
G0 X104.2217 Y-201.6060 F15000.0
G1 Z11.9000 F2500.0
G4 P0.02
G1 X166.2781 Y-201.6060 F12000.0
G1 Z0.0000 F2500.0
G4 P0.02
G0 X104.2217 Y-128.0260 F15000.0
G1 Z11.9000 F2500.0
G4 P0.02
G1 X104.2217 Y-125.7680 F3500.0
G1 Z0.0000 F2500.0
G4 P0.02
G0 X99.6278 Y-164.8550 F15000.0
G1 Z11.9000 F2500.0
G4 P0.02
G1 X99.6278 Y-134.8779 F12000.0
G1 Z0.0000 F2500.0
G4 P0.02
G0 X65.6797 Y-192.0289 F15000.0
G1 Z11.9000 F2500.0
G4 P0.02
G1 X45.0462 Y-192.0289 F12000.0
G1 Z0.0000 F2500.0
G4 P0.02
G0 X42.5546 Y-201.9953 F15000.0
G1 Z11.9000 F2500.0
G4 P0.02
G1 X42.5546 Y-209.3144 F3500.0
G1 Z0.0000 F2500.0
G4 P0.02
G0 X42.5546 Y-164.8550 F15000.0
G1 Z11.9000 F2500.0
G4 P0.02
G1 X42.5546 Y-172.1740 F3500.0
G1 Z0.0000 F2500.0
G4 P0.02
G0 X70.8965 Y-199.2702 F15000.0
G1 Z11.9000 F2500.0
G4 P0.02
G1 X70.8965 Y-203.8640 F3500.0
G1 Z0.0000 F2500.0
G4 P0.02
G0 X70.8965 Y-164.8550 F15000.0
G1 Z11.9000 F2500.0
G4 P0.02
G1 X70.8965 Y-169.4488 F3500.0
G1 Z0.0000 F2500.0
G4 P0.02
G0 X68.1714 Y-201.9953 F15000.0
G1 Z11.9000 F2500.0
G4 P0.02
G1 X68.1714 Y-209.3144 F3500.0
G1 Z0.0000 F2500.0
G4 P0.02
G0 X68.1714 Y-164.8550 F15000.0
G1 Z11.9000 F2500.0
G4 P0.02
G1 X68.1714 Y-172.1740 F3500.0
G1 Z0.0000 F2500.0
G4 P0.02
G0 X45.0462 Y-192.0289 F15000.0
G1 Z11.9000 F2500.0
G4 P0.02
G1 X43.9562 Y-187.0458 F3500.0
G1 X43.1775 Y-182.0626 F3500.0
G1 X42.7103 Y-177.1572 F3500.0
G1 X42.5546 Y-172.2519 F3500.0
G1 Z0.0000 F2500.0
G4 P0.02
G0 X45.0462 Y-192.0289 F15000.0
G1 Z11.9000 F2500.0
G4 P0.02
G1 X43.9562 Y-194.5984 F3500.0
G1 X43.1775 Y-197.0901 F3500.0
G1 X42.7103 Y-199.5816 F3500.0
G1 X42.5546 Y-201.9953 F3500.0
G1 Z0.0000 F2500.0
G4 P0.02
G0 X45.0462 Y-219.2808 F15000.0
G1 Z11.9000 F2500.0
G4 P0.02
G1 X43.9562 Y-216.7113 F3500.0
G1 X43.1775 Y-214.2198 F3500.0
G1 X42.7103 Y-211.8060 F3500.0
G1 X42.5546 Y-209.3144 F3500.0
G1 Z0.0000 F2500.0
G4 P0.02
G0 X39.8294 Y-199.2702 F15000.0
G1 Z11.9000 F2500.0
G4 P0.02
G1 X39.8294 Y-169.4488 F12000.0
G1 Z0.0000 F2500.0
G4 P0.02
G0 X65.6797 Y-192.0289 F15000.0
G1 Z11.9000 F2500.0
G4 P0.02
G1 X66.7699 Y-194.5984 F3500.0
G1 X67.5484 Y-197.0901 F3500.0
G1 X68.0156 Y-199.5816 F3500.0
G1 X68.1714 Y-201.9953 F3500.0
G1 Z0.0000 F2500.0
G4 P0.02
G0 X70.8965 Y-199.2702 F15000.0
G1 Z11.9000 F2500.0
G4 P0.02
G1 X70.8965 Y-169.4488 F12000.0
G1 Z0.0000 F2500.0
G4 P0.02
G0 X65.6797 Y-219.2808 F15000.0
G1 Z11.9000 F2500.0
G4 P0.02
G1 X66.7699 Y-216.7113 F3500.0
G1 X67.5484 Y-214.2198 F3500.0
G1 X68.0156 Y-211.8060 F3500.0
G1 X68.1714 Y-209.3144 F3500.0
G1 Z0.0000 F2500.0
G4 P0.02
G0 X65.6797 Y-192.0289 F15000.0
G1 Z11.9000 F2500.0
G4 P0.02
G1 X66.7699 Y-187.0458 F3500.0
G1 X67.5484 Y-182.0626 F3500.0
G1 X68.0156 Y-177.1572 F3500.0
G1 X68.1714 Y-172.2519 F3500.0
G1 Z0.0000 F2500.0
G4 P0.02
G0 X166.2781 Y-182.0626 F15000.0
G1 Z11.9000 F2500.0
G4 P0.02
G1 X166.2781 Y-164.8550 F12000.0
G1 Z0.0000 F2500.0
G4 P0.02
G0 X39.8294 Y-134.8779 F15000.0
G1 Z11.9000 F2500.0
G4 P0.02
G1 X42.5546 Y-137.5252 F3500.0
G1 X42.5546 Y-165.1664 F12000.0
G1 Z0.0000 F2500.0
G4 P0.02
G0 X166.2781 Y-201.6060 F15000.0
G1 Z11.9000 F2500.0
G4 P0.02
G1 X164.0201 Y-203.9419 F3500.0
G1 Z0.0000 F2500.0
G4 P0.02
G0 X166.2781 Y-128.0260 F15000.0
G1 Z11.9000 F2500.0
G4 P0.02
G1 X164.0201 Y-125.7680 F3500.0
G1 Z0.0000 F2500.0
G4 P0.02
G0 X164.0201 Y-203.9419 F15000.0
G1 Z11.9000 F2500.0
G4 P0.02
G1 X164.0201 Y-164.8550 F12000.0
G1 Z0.0000 F2500.0
G4 P0.02
G0 X160.7498 Y-125.7680 F15000.0
G1 Z11.9000 F2500.0
G4 P0.02
G1 X166.2781 Y-131.2962 F3500.0
G1 Z0.0000 F2500.0
G4 P0.02
G0 X156.8567 Y-125.7680 F15000.0
G1 Z11.9000 F2500.0
G4 P0.02
G1 X166.2781 Y-135.1893 F12000.0
G1 Z0.0000 F2500.0
G4 P0.02
G0 X152.9636 Y-125.7680 F15000.0
G1 Z11.9000 F2500.0
G4 P0.02
G1 X166.2781 Y-139.1603 F12000.0
G1 Z0.0000 F2500.0
G4 P0.02
G0 X174.7651 Y-147.5695 F15000.0
G1 Z11.9000 F2500.0
G4 P0.02
G1 X175.4659 Y-148.3481 F3500.0
G1 Z0.0000 F2500.0
G4 P0.02
G0 X170.8720 Y-147.5695 F15000.0
G1 Z11.9000 F2500.0
G4 P0.02
G1 X175.4659 Y-152.2412 F3500.0
G1 Z0.0000 F2500.0
G4 P0.02
G0 X149.0705 Y-125.7680 F15000.0
G1 Z11.9000 F2500.0
G4 P0.02
G1 X166.2781 Y-143.0534 F12000.0
G1 Z0.0000 F2500.0
G4 P0.02
G0 X145.0996 Y-125.7680 F15000.0
G1 Z11.9000 F2500.0
G4 P0.02
G1 X156.9346 Y-137.5252 F12000.0
G1 Z0.0000 F2500.0
G4 P0.02
G0 X159.4262 Y-140.0168 F15000.0
G1 Z11.9000 F2500.0
G4 P0.02
G1 X166.2781 Y-146.9466 F3500.0
G1 Z0.0000 F2500.0
G4 P0.02
G0 X166.9789 Y-147.5695 F15000.0
G1 Z11.9000 F2500.0
G4 P0.02
G1 X174.9987 Y-155.6671 F3500.0
G1 Z0.0000 F2500.0
G4 P0.02
G0 X159.4262 Y-143.9100 F15000.0
G1 Z11.9000 F2500.0
G4 P0.02
G1 X171.1056 Y-155.6671 F12000.0
G1 Z0.0000 F2500.0
G4 P0.02
G0 X141.2064 Y-125.7680 F15000.0
G1 Z11.9000 F2500.0
G4 P0.02
G1 X153.0415 Y-137.5252 F12000.0
G1 Z0.0000 F2500.0
G4 P0.02
G0 X137.3133 Y-125.7680 F15000.0
G1 Z11.9000 F2500.0
G4 P0.02
G1 X149.1483 Y-137.5252 F12000.0
G1 Z0.0000 F2500.0
G4 P0.02
G0 X159.4262 Y-147.8031 F15000.0
G1 Z11.9000 F2500.0
G4 P0.02
G1 X167.2125 Y-155.6671 F3500.0
G1 Z0.0000 F2500.0
G4 P0.02
G0 X159.4262 Y-151.7740 F15000.0
G1 Z11.9000 F2500.0
G4 P0.02
G1 X163.3193 Y-155.6671 F3500.0
G1 Z0.0000 F2500.0
G4 P0.02
G0 X133.4202 Y-125.7680 F15000.0
G1 Z11.9000 F2500.0
G4 P0.02
G1 X145.1774 Y-137.5252 F12000.0
G1 Z0.0000 F2500.0
G4 P0.02
G0 X129.5270 Y-125.7680 F15000.0
G1 Z11.9000 F2500.0
G4 P0.02
G1 X141.2843 Y-137.5252 F12000.0
G1 Z0.0000 F2500.0
G4 P0.02
G0 X125.6339 Y-125.7680 F15000.0
G1 Z11.9000 F2500.0
G4 P0.02
G1 X137.3912 Y-137.5252 F12000.0
G1 Z0.0000 F2500.0
G4 P0.02
G0 X121.7408 Y-125.7680 F15000.0
G1 Z11.9000 F2500.0
G4 P0.02
G1 X133.4980 Y-137.5252 F12000.0
G1 Z0.0000 F2500.0
G4 P0.02
G0 X117.8477 Y-125.7680 F15000.0
G1 Z11.9000 F2500.0
G4 P0.02
G1 X129.6049 Y-137.5252 F12000.0
G1 Z0.0000 F2500.0
G4 P0.02
G0 X113.9545 Y-125.7680 F15000.0
G1 Z11.9000 F2500.0
G4 P0.02
G1 X125.7118 Y-137.5252 F12000.0
G1 Z0.0000 F2500.0
G4 P0.02
G0 X109.9835 Y-125.7680 F15000.0
G1 Z11.9000 F2500.0
G4 P0.02
G1 X121.8187 Y-137.5252 F12000.0
G1 Z0.0000 F2500.0
G4 P0.02
G0 X106.0904 Y-125.7680 F15000.0
G1 Z11.9000 F2500.0
G4 P0.02
G1 X117.9255 Y-137.5252 F12000.0
G1 Z0.0000 F2500.0
G4 P0.02
G0 X102.1973 Y-125.7680 F15000.0
G1 Z11.9000 F2500.0
G4 P0.02
G1 X114.0324 Y-137.5252 F12000.0
G1 Z0.0000 F2500.0
G4 P0.02
G0 X98.3041 Y-125.7680 F15000.0
G1 Z11.9000 F2500.0
G4 P0.02
G1 X110.0614 Y-137.5252 F12000.0
G1 Z0.0000 F2500.0
G4 P0.02
G0 X94.4110 Y-125.7680 F15000.0
G1 Z11.9000 F2500.0
G4 P0.02
G1 X106.1683 Y-137.5252 F12000.0
G1 Z0.0000 F2500.0
G4 P0.02
G0 X90.5179 Y-125.7680 F15000.0
G1 Z11.9000 F2500.0
G4 P0.02
G1 X102.2751 Y-137.5252 F12000.0
G1 Z0.0000 F2500.0
G4 P0.02
G0 X86.6248 Y-125.7680 F15000.0
G1 Z11.9000 F2500.0
G4 P0.02
G1 X98.3820 Y-137.5252 F12000.0
G1 Z0.0000 F2500.0
G4 P0.02
G0 X82.7316 Y-125.7680 F15000.0
G1 Z11.9000 F2500.0
G4 P0.02
G1 X94.4889 Y-137.5252 F12000.0
G1 Z0.0000 F2500.0
G4 P0.02
G0 X78.8385 Y-125.7680 F15000.0
G1 Z11.9000 F2500.0
G4 P0.02
G1 X90.5957 Y-137.5252 F12000.0
G1 Z0.0000 F2500.0
G4 P0.02
G0 X63.4996 Y-110.4290 F15000.0
G1 Z11.9000 F2500.0
G4 P0.02
G1 X67.8599 Y-114.7894 F3500.0
G1 Z0.0000 F2500.0
G4 P0.02
G0 X59.5286 Y-110.4290 F15000.0
G1 Z11.9000 F2500.0
G4 P0.02
G1 X70.8965 Y-121.7191 F12000.0
G1 Z0.0000 F2500.0
G4 P0.02
G0 X74.8675 Y-125.7680 F15000.0
G1 Z11.9000 F2500.0
G4 P0.02
G1 X86.7026 Y-137.5252 F12000.0
G1 Z0.0000 F2500.0
G4 P0.02
G0 X70.9744 Y-125.7680 F15000.0
G1 Z11.9000 F2500.0
G4 P0.02
G1 X82.8095 Y-137.5252 F12000.0
G1 Z0.0000 F2500.0
G4 P0.02
G0 X55.6355 Y-110.4290 F15000.0
G1 Z11.9000 F2500.0
G4 P0.02
G1 X70.8965 Y-125.6901 F12000.0
G1 Z0.0000 F2500.0
G4 P0.02
G0 X51.7424 Y-110.4290 F15000.0
G1 Z11.9000 F2500.0
G4 P0.02
G1 X78.9164 Y-137.5252 F12000.0
G1 Z0.0000 F2500.0
G4 P0.02
G0 X47.8493 Y-110.4290 F15000.0
G1 Z11.9000 F2500.0
G4 P0.02
G1 X74.9454 Y-137.5252 F12000.0
G1 Z0.0000 F2500.0
G4 P0.02
G0 X44.7347 Y-111.2077 F15000.0
G1 Z11.9000 F2500.0
G4 P0.02
G1 X71.0522 Y-137.5252 F12000.0
G1 Z0.0000 F2500.0
G4 P0.02
G0 X43.4111 Y-113.7771 F15000.0
G1 Z11.9000 F2500.0
G4 P0.02
G1 X67.1591 Y-137.5252 F12000.0
G1 Z0.0000 F2500.0
G4 P0.02
G0 X42.0875 Y-116.3466 F15000.0
G1 Z11.9000 F2500.0
G4 P0.02
G1 X63.2660 Y-137.5252 F12000.0
G1 Z0.0000 F2500.0
G4 P0.02
G0 X40.8416 Y-118.9940 F15000.0
G1 Z11.9000 F2500.0
G4 P0.02
G1 X59.3729 Y-137.5252 F12000.0
G1 Z0.0000 F2500.0
G4 P0.02
G0 X39.8294 Y-121.9527 F15000.0
G1 Z11.9000 F2500.0
G4 P0.02
G1 X55.4798 Y-137.5252 F12000.0
G1 Z0.0000 F2500.0
G4 P0.02
G0 X39.8294 Y-125.8458 F15000.0
G1 Z11.9000 F2500.0
G4 P0.02
G1 X51.5867 Y-137.5252 F12000.0
G1 Z0.0000 F2500.0
G4 P0.02
G0 X39.8294 Y-129.7390 F15000.0
G1 Z11.9000 F2500.0
G4 P0.02
G1 X47.6936 Y-137.5252 F3500.0
G1 Z0.0000 F2500.0
G4 P0.02
G0 X39.8294 Y-133.6321 F15000.0
G1 Z11.9000 F2500.0
G4 P0.02
G1 X43.8004 Y-137.5252 F3500.0
G1 Z0.0000 F2500.0
G4 P0.02
G0 X39.8294 Y-120.9405 F15000.0
G1 Z11.9000 F2500.0
G4 P0.02
G1 X39.8294 Y-74.2230 F12000.0
G1 Z0.0000 F2500.0
G4 P0.02
G0 X175.4659 Y-147.5695 F15000.0
G1 Z11.9000 F2500.0
G4 P0.02
G1 X175.4659 Y-74.2230 F12000.0
G1 Z0.0000 F2500.0
G4 P0.02
G0 X166.2781 Y-129.8168 F15000.0
G1 Z11.9000 F2500.0
G4 P0.02
G1 X166.2781 Y-113.9328 F12000.0
G1 Z0.0000 F2500.0
G4 P0.02
G0 X159.4262 Y-160.2611 F15000.0
G1 Z11.9000 F2500.0
G4 P0.02
G1 X159.4262 Y-90.3406 F12000.0
G1 Z0.0000 F2500.0
G4 P0.02
G0 X164.0201 Y-203.9419 F15000.0
G1 Z11.9000 F2500.0
G4 P0.02
G1 X180.0000 Y-203.9419 F12000.0
G1 Z0.0000 F2500.0
G4 P0.02
G0 X164.0201 Y-125.7680 F15000.0
G1 Z11.9000 F2500.0
G4 P0.02
G1 X180.0000 Y-125.7680 F12000.0
G1 Z0.0000 F2500.0
G4 P0.02
G0 X175.4659 Y-182.0626 F15000.0
G1 Z11.9000 F2500.0
G4 P0.02
G1 X180.0000 Y-182.0626 F3500.0
G1 Z0.0000 F2500.0
G4 P0.02
G0 X175.4659 Y-147.5695 F15000.0
G1 Z11.9000 F2500.0
G4 P0.02
G1 X180.0000 Y-147.5695 F3500.0
G1 Z0.0000 F2500.0
G4 P0.02
G0 X39.8294 Y-134.8779 F15000.0
G1 Z11.9000 F2500.0
G4 P0.02
G1 X22.3882 Y-134.8779 F12000.0
G1 Z0.0000 F2500.0
G4 P0.02
G0 X175.4659 Y-155.6671 F15000.0
G1 Z11.9000 F2500.0
G4 P0.02
G1 X180.0000 Y-155.6671 F3500.0
G1 Z0.0000 F2500.0
G4 P0.02
G0 X104.2217 Y-201.6060 F15000.0
G1 Z11.9000 F2500.0
G4 P0.02
G1 X104.2217 Y-218.8915 F12000.0
G1 Z0.0000 F2500.0
G4 P0.02
G0 X166.2781 Y-201.6060 F15000.0
G1 Z11.9000 F2500.0
G4 P0.02
G1 X166.2781 Y-218.8915 F12000.0
G1 Z0.0000 F2500.0
G4 P0.02
G0 X166.2781 Y-203.9419 F15000.0
G1 Z11.9000 F2500.0
G4 P0.02
G1 X166.2781 Y-235.4763 F12000.0
G1 Z0.0000 F2500.0
G4 P0.02
G0 X70.8965 Y-203.9419 F15000.0
G1 Z11.9000 F2500.0
G4 P0.02
G1 X70.8965 Y-235.4763 F12000.0
G1 Z0.0000 F2500.0
G4 P0.02
G0 X39.8294 Y-137.5252 F15000.0
G1 Z11.9000 F2500.0
G4 P0.02
G1 X39.8294 Y-101.9421 F12000.0
G1 Z0.0000 F2500.0
G4 P0.02
G0 X42.5546 Y-141.6519 F15000.0
G1 Z11.9000 F2500.0
G4 P0.02
G1 X42.5546 Y-101.9421 F12000.0
G1 Z0.0000 F2500.0
G4 P0.02
G0 X35.2355 Y-103.8108 F15000.0
G1 Z11.9000 F2500.0
G4 P0.02
G1 X12.1103 Y-103.8108 F12000.0
G1 Z0.0000 F2500.0
G4 P0.02
G0 X39.8294 Y-153.3313 F15000.0
G1 Z11.9000 F2500.0
G4 P0.02
G1 X44.4233 Y-153.9542 F3500.0
G1 X43.9562 Y-153.3313 F3500.0
G1 X44.4233 Y-152.7084 F3500.0
G1 X39.8294 Y-153.3313 F3500.0
G1 Z0.0000 F2500.0
G4 P0.02
G0 X42.0240 Y-153.6427 F15000.0
G1 Z11.9000 F2500.0
G4 P0.02
G1 X42.8517 Y-153.6427 F3500.0
G1 Z0.0000 F2500.0
G4 P0.02
G0 X41.7125 Y-153.0588 F15000.0
G1 Z11.9000 F2500.0
G4 P0.02
G1 X42.5402 Y-153.0588 F3500.0
G1 Z0.0000 F2500.0
G4 P0.02
G0 X99.6278 Y-153.3313 F15000.0
G1 Z11.9000 F2500.0
G4 P0.02
G1 X95.0339 Y-152.7084 F3500.0
G1 X95.5011 Y-153.3313 F3500.0
G1 X95.0339 Y-153.9542 F3500.0
G1 X99.6278 Y-153.3313 F3500.0
G1 Z0.0000 F2500.0
G4 P0.02
G0 X96.9559 Y-153.0588 F15000.0
G1 Z11.9000 F2500.0
G4 P0.02
G1 X97.7836 Y-153.0588 F3500.0
G1 Z0.0000 F2500.0
G4 P0.02
G0 X96.6834 Y-153.6427 F15000.0
G1 Z11.9000 F2500.0
G4 P0.02
G1 X97.5111 Y-153.6427 F3500.0
G1 Z0.0000 F2500.0
G4 P0.02
G0 X39.8294 Y-153.3313 F15000.0
G1 Z11.9000 F2500.0
G4 P0.02
G1 X99.6278 Y-153.3313 F12000.0
G1 Z0.0000 F2500.0
G4 P0.02
G0 X39.8294 Y-76.0917 F15000.0
G1 Z11.9000 F2500.0
G4 P0.02
G1 X44.4233 Y-76.7146 F3500.0
G1 X43.9562 Y-76.0917 F3500.0
G1 X44.4233 Y-75.4687 F3500.0
G1 X39.8294 Y-76.0917 F3500.0
G1 Z0.0000 F2500.0
G4 P0.02
G0 X42.0240 Y-76.4031 F15000.0
G1 Z11.9000 F2500.0
G4 P0.02
G1 X42.8517 Y-76.4031 F3500.0
G1 Z0.0000 F2500.0
G4 P0.02
G0 X41.7125 Y-75.8191 F15000.0
G1 Z11.9000 F2500.0
G4 P0.02
G1 X42.5402 Y-75.8191 F3500.0
G1 Z0.0000 F2500.0
G4 P0.02
G0 X175.4659 Y-76.0917 F15000.0
G1 Z11.9000 F2500.0
G4 P0.02
G1 X170.8720 Y-75.4687 F3500.0
G1 X171.3392 Y-76.0917 F3500.0
G1 X170.8720 Y-76.7146 F3500.0
G1 X175.4659 Y-76.0917 F3500.0
G1 Z0.0000 F2500.0
G4 P0.02
G0 X172.7940 Y-75.8191 F15000.0
G1 Z11.9000 F2500.0
G4 P0.02
G1 X173.6217 Y-75.8191 F3500.0
G1 Z0.0000 F2500.0
G4 P0.02
G0 X172.5216 Y-76.4031 F15000.0
G1 Z11.9000 F2500.0
G4 P0.02
G1 X173.3492 Y-76.4031 F3500.0
G1 Z0.0000 F2500.0
G4 P0.02
G0 X39.8294 Y-76.0917 F15000.0
G1 Z11.9000 F2500.0
G4 P0.02
G1 X175.4659 Y-76.0917 F12000.0
G1 Z0.0000 F2500.0
G4 P0.02
G0 X170.4829 Y-118.3544 F15000.0
G1 Z11.9000 F2500.0
G4 P0.02
G1 X170.7755 Y-119.2113 F3500.0
G1 X169.6260 Y-119.2740
G1 X170.0231 Y-120.1100
G1 Z0.0000 F2500.0
G4 P0.02
G0 X170.3576 Y-120.7162 F15000.0
G1 Z11.9000 F2500.0
G4 P0.02
G1 X171.0890 Y-121.9911 F3500.0
G1 Z0.0000 F2500.0
G4 P0.02
G0 X170.7755 Y-119.2113 F15000.0
G1 Z11.9000 F2500.0
G4 P0.02
G1 X170.8800 Y-119.2321 F3500.0
G1 X171.2145 Y-120.1727
G1 Z0.0000 F2500.0
G4 P0.02
G0 X170.9219 Y-119.2321 F15000.0
G1 Z11.9000 F2500.0
G4 P0.02
G1 X171.3398 Y-119.2113 F3500.0
G1 Z0.0000 F2500.0
G4 P0.02
G0 X171.3190 Y-122.4091 F15000.0
G1 Z11.9000 F2500.0
G4 P0.02
G1 X171.3608 Y-122.4927 F3500.0
G1 Z0.0000 F2500.0
G4 P0.02
G0 X166.2781 Y-115.7237 F15000.0
G1 Z11.9000 F2500.0
G4 P0.02
G1 X161.6842 Y-116.3466 F3500.0
G1 X162.1514 Y-115.7237 F3500.0
G1 X161.6842 Y-115.1008 F3500.0
G1 X166.2781 Y-115.7237 F3500.0
G1 X159.8934 Y-115.7237 F3500.0
G1 Z0.0000 F2500.0
G4 P0.02
G0 X163.3337 Y-116.0351 F15000.0
G1 Z11.9000 F2500.0
G4 P0.02
G1 X164.1614 Y-116.0351 F3500.0
G1 Z0.0000 F2500.0
G4 P0.02
G0 X163.6062 Y-115.4512 F15000.0
G1 Z11.9000 F2500.0
G4 P0.02
G1 X164.4339 Y-115.4512 F3500.0
G1 Z0.0000 F2500.0
G4 P0.02
G0 X175.4659 Y-115.7237 F15000.0
G1 Z11.9000 F2500.0
G4 P0.02
G1 X180.0000 Y-115.1089 F3500.0
G1 Z0.0000 F2500.0
G4 P0.02
G0 X180.0000 Y-115.1965 F15000.0
G1 Z11.9000 F2500.0
G4 P0.02
G1 X179.6704 Y-115.7237 F3500.0
G1 X180.0000 Y-116.2509 F3500.0
G1 Z0.0000 F2500.0
G4 P0.02
G0 X180.0000 Y-116.3385 F15000.0
G1 Z11.9000 F2500.0
G4 P0.02
G1 X175.4659 Y-115.7237 F3500.0
G1 X180.0000 Y-115.7237 F3500.0
G1 Z0.0000 F2500.0
G4 P0.02
G0 X177.3490 Y-115.4512 F15000.0
G1 Z11.9000 F2500.0
G4 P0.02
G1 X178.1767 Y-115.4512 F3500.0
G1 Z0.0000 F2500.0
G4 P0.02
G0 X177.6605 Y-116.0351 F15000.0
G1 Z11.9000 F2500.0
G4 P0.02
G1 X178.4882 Y-116.0351 F3500.0
G1 Z0.0000 F2500.0
G4 P0.02
G0 X166.2781 Y-115.7237 F15000.0
G1 Z11.9000 F2500.0
G4 P0.02
G1 X175.4659 Y-115.7237 F12000.0
G1 Z0.0000 F2500.0
G4 P0.02
G0 X39.8294 Y-92.1314 F15000.0
G1 Z11.9000 F2500.0
G4 P0.02
G1 X44.4233 Y-92.7542 F3500.0
G1 X43.9562 Y-92.1314 F3500.0
G1 X44.4233 Y-91.5085 F3500.0
G1 X39.8294 Y-92.1314 F3500.0
G1 Z0.0000 F2500.0
G4 P0.02
G0 X42.0240 Y-92.4429 F15000.0
G1 Z11.9000 F2500.0
G4 P0.02
G1 X42.8517 Y-92.4429 F3500.0
G1 Z0.0000 F2500.0
G4 P0.02
G0 X41.7125 Y-91.8589 F15000.0
G1 Z11.9000 F2500.0
G4 P0.02
G1 X42.5402 Y-91.8589 F3500.0
G1 Z0.0000 F2500.0
G4 P0.02
G0 X159.4262 Y-92.1314 F15000.0
G1 Z11.9000 F2500.0
G4 P0.02
G1 X154.8323 Y-91.5085 F3500.0
G1 X155.2995 Y-92.1314 F3500.0
G1 X154.8323 Y-92.7542 F3500.0
G1 X159.4262 Y-92.1314 F3500.0
G1 Z0.0000 F2500.0
G4 P0.02
G0 X156.7544 Y-91.8589 F15000.0
G1 Z11.9000 F2500.0
G4 P0.02
G1 X157.5821 Y-91.8589 F3500.0
G1 Z0.0000 F2500.0
G4 P0.02
G0 X156.4818 Y-92.4429 F15000.0
G1 Z11.9000 F2500.0
G4 P0.02
G1 X157.3095 Y-92.4429 F3500.0
G1 Z0.0000 F2500.0
G4 P0.02
G0 X39.8294 Y-92.1314 F15000.0
G1 Z11.9000 F2500.0
G4 P0.02
G1 X159.4262 Y-92.1314 F12000.0
G1 Z0.0000 F2500.0
G4 P0.02
G0 X24.2569 Y-134.8779 F15000.0
G1 Z11.9000 F2500.0
G4 P0.02
G1 X23.6340 Y-139.4718 F3500.0
G1 X24.2569 Y-139.0046 F3500.0
G1 X24.8799 Y-139.4718 F3500.0
G1 X24.2569 Y-134.8779 F3500.0
G1 Z0.0000 F2500.0
G4 P0.02
G0 X23.9844 Y-137.9001 F15000.0
G1 Z11.9000 F2500.0
G4 P0.02
G1 X23.9844 Y-137.0725 F3500.0
G1 Z0.0000 F2500.0
G4 P0.02
G0 X24.5684 Y-137.6276 F15000.0
G1 Z11.9000 F2500.0
G4 P0.02
G1 X24.5684 Y-136.8000 F3500.0
G1 Z0.0000 F2500.0
G4 P0.02
G0 X24.2569 Y-134.8779 F15000.0
G1 Z11.9000 F2500.0
G4 P0.02
G1 X24.2569 Y-192.1847 F12000.0
G1 Z0.0000 F2500.0
G4 P0.02
G0 X104.2217 Y-217.0228 F15000.0
G1 Z11.9000 F2500.0
G4 P0.02
G1 X108.8156 Y-217.6457 F3500.0
G1 X108.3484 Y-217.0228 F3500.0
G1 X108.8156 Y-216.4778 F3500.0
G1 X104.2217 Y-217.0228 F3500.0
G1 Z0.0000 F2500.0
G4 P0.02
G0 X106.4162 Y-217.3343 F15000.0
G1 Z11.9000 F2500.0
G4 P0.02
G1 X107.2439 Y-217.3343 F3500.0
G1 Z0.0000 F2500.0
G4 P0.02
G0 X106.1048 Y-216.7892 F15000.0
G1 Z11.9000 F2500.0
G4 P0.02
G1 X106.9325 Y-216.7892 F3500.0
G1 Z0.0000 F2500.0
G4 P0.02
G0 X166.2781 Y-217.0228 F15000.0
G1 Z11.9000 F2500.0
G4 P0.02
G1 X161.6842 Y-216.4778 F3500.0
G1 X162.1514 Y-217.0228 F3500.0
G1 X161.6842 Y-217.6457 F3500.0
G1 X166.2781 Y-217.0228 F3500.0
G1 Z0.0000 F2500.0
G4 P0.02
G0 X163.6062 Y-216.7892 F15000.0
G1 Z11.9000 F2500.0
G4 P0.02
G1 X164.4339 Y-216.7892 F3500.0
G1 Z0.0000 F2500.0
G4 P0.02
G0 X163.3337 Y-217.3343 F15000.0
G1 Z11.9000 F2500.0
G4 P0.02
G1 X164.1614 Y-217.3343 F3500.0
G1 Z0.0000 F2500.0
G4 P0.02
G0 X104.2217 Y-217.0228 F15000.0
G1 Z11.9000 F2500.0
G4 P0.02
G1 X166.2781 Y-217.0228 F12000.0
G1 Z0.0000 F2500.0
G4 P0.02
G0 X115.6237 Y-236.0082 F15000.0
G1 Z11.9000 F2500.0
G4 P0.02
G1 X115.9164 Y-236.8651 F3500.0
G1 X114.7668 Y-236.9278
G1 X115.1639 Y-237.7639
G1 Z0.0000 F2500.0
G4 P0.02
G0 X115.4984 Y-238.3700 F15000.0
G1 Z11.9000 F2500.0
G4 P0.02
G1 X116.2299 Y-239.6450 F3500.0
G1 Z0.0000 F2500.0
G4 P0.02
G0 X115.9164 Y-236.8651 F15000.0
G1 Z11.9000 F2500.0
G4 P0.02
G1 X116.0209 Y-236.8861 F3500.0
G1 X116.3553 Y-237.8266
G1 Z0.0000 F2500.0
G4 P0.02
G0 X116.0627 Y-236.8861 F15000.0
G1 Z11.9000 F2500.0
G4 P0.02
G1 X116.4807 Y-236.8651 F3500.0
G1 Z0.0000 F2500.0
G4 P0.02
G0 X116.4598 Y-240.0629 F15000.0
G1 Z11.9000 F2500.0
G4 P0.02
G1 X116.5016 Y-240.1465 F3500.0
G1 Z0.0000 F2500.0
G4 P0.02
G0 X166.2781 Y-233.6076 F15000.0
G1 Z11.9000 F2500.0
G4 P0.02
G1 X161.6842 Y-232.9847 F3500.0
G1 X162.1514 Y-233.6076 F3500.0
G1 X161.6842 Y-234.2304 F3500.0
G1 X166.2781 Y-233.6076 F3500.0
G1 Z0.0000 F2500.0
G4 P0.02
G0 X163.6062 Y-233.3351 F15000.0
G1 Z11.9000 F2500.0
G4 P0.02
G1 X164.4339 Y-233.3351 F3500.0
G1 Z0.0000 F2500.0
G4 P0.02
G0 X163.3337 Y-233.9189 F15000.0
G1 Z11.9000 F2500.0
G4 P0.02
G1 X164.1614 Y-233.9189 F3500.0
G1 Z0.0000 F2500.0
G4 P0.02
G0 X70.8965 Y-233.6076 F15000.0
G1 Z11.9000 F2500.0
G4 P0.02
G1 X75.4904 Y-234.2304 F3500.0
G1 X75.0232 Y-233.6076 F3500.0
G1 X75.4904 Y-232.9847 F3500.0
G1 X70.8965 Y-233.6076 F3500.0
G1 Z0.0000 F2500.0
G4 P0.02
G0 X73.0911 Y-233.9189 F15000.0
G1 Z11.9000 F2500.0
G4 P0.02
G1 X73.9187 Y-233.9189 F3500.0
G1 Z0.0000 F2500.0
G4 P0.02
G0 X72.7797 Y-233.3351 F15000.0
G1 Z11.9000 F2500.0
G4 P0.02
G1 X73.6074 Y-233.3351 F3500.0
G1 Z0.0000 F2500.0
G4 P0.02
G0 X166.2781 Y-233.6076 F15000.0
G1 Z11.9000 F2500.0
G4 P0.02
G1 X70.8965 Y-233.6076 F12000.0
G1 Z0.0000 F2500.0
G4 P0.02
G0 X14.5018 Y-98.6567 F15000.0
G1 Z11.9000 F2500.0
G4 P0.02
G1 X14.7526 Y-98.7402 F3500.0
G1 X14.8362 Y-98.9702
G1 Z0.0000 F2500.0
G4 P0.02
G0 X14.7735 Y-98.7402 F15000.0
G1 Z11.9000 F2500.0
G4 P0.02
G1 X16.5501 Y-98.7402 F3500.0
G1 Z0.0000 F2500.0
G4 P0.02
G0 X15.7977 Y-102.1679 F15000.0
G1 Z11.9000 F2500.0
G4 P0.02
G1 X16.5083 Y-102.7740 F3500.0
G1 X17.3652 Y-102.8576
G1 Z0.0000 F2500.0
G4 P0.02
G0 X16.2157 Y-100.3496 F15000.0
G1 Z11.9000 F2500.0
G4 P0.02
G1 X17.7206 Y-102.4815 F3500.0
G1 X17.5324 Y-102.7740
G1 Z0.0000 F2500.0
G4 P0.02
G0 X20.0397 Y-101.0035 F15000.0
G1 Z11.9000 F2500.0
G4 P0.02
G1 X19.4545 Y-99.4777 F3500.0
G1 X19.4545 Y-98.9552
G1 X19.5172 Y-98.8716
G1 Z0.0000 F2500.0
G4 P0.02
G0 X19.6426 Y-98.7671 F15000.0
G1 Z11.9000 F2500.0
G4 P0.02
G1 X20.4995 Y-98.6626 F3500.0
G1 X21.3146 Y-101.0035
G1 Z0.0000 F2500.0
G4 P0.02
G0 X19.9561 Y-97.3458 F15000.0
G1 Z11.9000 F2500.0
G4 P0.02
G1 X20.3950 Y-98.6417 F3500.0
G1 Z0.0000 F2500.0
G4 P0.02
G0 X20.5413 Y-98.6626 F15000.0
G1 Z11.9000 F2500.0
G4 P0.02
G1 X21.4819 Y-98.8716 F3500.0
G1 Z0.0000 F2500.0
G4 P0.02
G0 X20.6458 Y-101.5260 F15000.0
G1 Z11.9000 F2500.0
G4 P0.02
G1 X21.6072 Y-101.6514 F3500.0
G1 X21.8163 Y-102.2993
G1 Z0.0000 F2500.0
G4 P0.02
G0 X21.4400 Y-101.3379 F15000.0
G1 Z11.9000 F2500.0
G4 P0.02
G1 X21.4819 Y-101.6096 F3500.0
G1 Z0.0000 F2500.0
G4 P0.02
G0 X21.6491 Y-101.6514 F15000.0
G1 Z11.9000 F2500.0
G4 P0.02
G1 X22.3597 Y-101.5469 F3500.0
G1 X22.5687 Y-101.2752
G1 X22.0462 Y-99.4987
G1 X21.7954 Y-99.1015
G1 Z0.0000 F2500.0
G4 P0.02
G0 X21.9835 Y-99.3524 F15000.0
G1 Z11.9000 F2500.0
G4 P0.02
G1 X22.0253 Y-99.4568 F3500.0
G1 Z0.0000 F2500.0
G4 P0.02
G0 X22.7616 Y-98.8275 F15000.0
G1 Z11.9000 F2500.0
G4 P0.02
G1 X23.1378 Y-100.2279 F3500.0
G1 Z0.0000 F2500.0
G4 P0.02
G0 X22.8660 Y-98.7230 F15000.0
G1 Z11.9000 F2500.0
G4 P0.02
G1 X24.0574 Y-98.8066 F3500.0
G1 X24.3501 Y-98.9112
G1 X25.2070 Y-101.6074
G1 X23.8484 Y-101.5447
G1 X23.5976 Y-101.3356
G1 X23.3050 Y-100.6878
G1 Z0.0000 F2500.0
G4 P0.02
G0 X24.3501 Y-98.9112 F15000.0
G1 Z11.9000 F2500.0
G4 P0.02
G1 X24.4128 Y-98.8066 F3500.0
G1 Z0.0000 F2500.0
G4 P0.02
G0 X26.4906 Y-98.6711 F15000.0
G1 Z11.9000 F2500.0
G4 P0.02
G1 X25.2366 Y-98.7964 F3500.0
G1 X25.5919 Y-100.2386
G1 X26.0308 Y-101.3254
G1 X26.1980 Y-101.4718
G1 X27.5984 Y-101.6181
G1 Z0.0000 F2500.0
G4 P0.02
G0 X27.3988 Y-98.6887 F15000.0
G1 Z11.9000 F2500.0
G4 P0.02
G1 X28.4647 Y-101.5313 F3500.0
G1 Z0.0000 F2500.0
G4 P0.02
G0 X27.9213 Y-99.9219 F15000.0
G1 Z11.9000 F2500.0
G4 P0.02
G1 X28.3393 Y-100.1935 F3500.0
G1 X28.6110 Y-100.2771
G1 X29.1127 Y-100.7997
G1 Z0.0000 F2500.0
G4 P0.02
G0 X28.6320 Y-100.2771 F15000.0
G1 Z11.9000 F2500.0
G4 P0.02
G1 X29.0082 Y-98.8141 F3500.0
G1 Z0.0000 F2500.0
G4 P0.02
G0 X29.4262 Y-101.0296 F15000.0
G1 Z11.9000 F2500.0
G4 P0.02
G1 X29.8024 Y-101.3222 F3500.0
G1 Z0.0000 F2500.0
G4 P0.02
G0 X30.2204 Y-101.6776 F15000.0
G1 Z11.9000 F2500.0
G4 P0.02
G1 X30.2413 Y-101.7612 F3500.0
G1 Z0.0000 F2500.0
G4 P0.02
G0 X32.5693 Y-101.5640 F15000.0
G1 Z11.9000 F2500.0
G4 P0.02
G1 X31.5034 Y-98.7424 F3500.0
G1 X30.0612 Y-98.8468
G1 X30.7509 Y-101.0415
G1 Z0.0000 F2500.0
G4 P0.02
G0 X30.9181 Y-101.5013 F15000.0
G1 Z11.9000 F2500.0
G4 P0.02
G1 X30.9390 Y-101.5640 F3500.0
G1 Z0.0000 F2500.0
G4 P0.02
G0 X39.8294 Y-103.8108 F15000.0
G1 Z11.9000 F2500.0
G4 P0.02
G1 X35.2355 Y-104.3558 F3500.0
G1 X35.7027 Y-103.8108 F3500.0
G1 X35.2355 Y-103.1879 F3500.0
G1 X39.8294 Y-103.8108 F3500.0
G1 X33.4447 Y-103.8108 F3500.0
G1 Z0.0000 F2500.0
G4 P0.02
G0 X36.8461 Y-104.0832 F15000.0
G1 Z11.9000 F2500.0
G4 P0.02
G1 X37.6737 Y-104.0832 F3500.0
G1 Z0.0000 F2500.0
G4 P0.02
G0 X37.1576 Y-103.5383 F15000.0
G1 Z11.9000 F2500.0
G4 P0.02
G1 X37.9852 Y-103.5383 F3500.0
G1 Z0.0000 F2500.0
G4 P0.02
G0 X42.5546 Y-103.8108 F15000.0
G1 Z11.9000 F2500.0
G4 P0.02
G1 X47.1485 Y-103.1879 F3500.0
G1 X46.6813 Y-103.8108 F3500.0
G1 X47.1485 Y-104.3558 F3500.0
G1 X42.5546 Y-103.8108 F3500.0
G1 X49.0172 Y-103.8108 F3500.0
G1 Z0.0000 F2500.0
G4 P0.02
G0 X44.4377 Y-103.5383 F15000.0
G1 Z11.9000 F2500.0
G4 P0.02
G1 X45.2653 Y-103.5383 F3500.0
G1 Z0.0000 F2500.0
G4 P0.02
G0 X44.7881 Y-104.0832 F15000.0
G1 Z11.9000 F2500.0
G4 P0.02
G1 X45.6157 Y-104.0832 F3500.0
G1 Z0.0000 F2500.0
G4 P0.02
G0 X39.8294 Y-103.8108 F15000.0
G1 Z11.9000 F2500.0
G4 P0.02
G1 X42.5546 Y-103.8108 F3500.0
G1 Z0.0000 F2500.0
G4 P0.02
G0 X61.1638 Y-264.1297 F15000.0
G1 Z11.9000 F2500.0
G4 P0.02
G1 X0.0000 Y-264.1297 F12000.0
G1 Z0.0000 F2500.0
G4 P0.02
G0 X61.1638 Y-276.9770 F15000.0
G1 Z11.9000 F2500.0
G4 P0.02
G1 X61.1638 Y-264.1297 F12000.0
G1 Z0.0000 F2500.0
G4 P0.02
G0 X25.4189 Y-267.4830 F15000.0
G1 Z11.9000 F2500.0
G4 P0.02
G1 X25.3144 Y-267.7338 F3500.0
G1 X25.3562 Y-268.1519
G1 X25.6488 Y-269.0088
G1 X25.9624 Y-269.4059
G1 X25.6906 Y-269.0924
G1 X25.6906 Y-267.2531
G1 X27.0073 Y-267.2114
G1 X28.0524 Y-267.0859
G1 X28.1778 Y-267.1486
G1 X30.8531 Y-267.2114
G1 X31.1666 Y-267.7965
G1 X28.3868 Y-267.5666
G1 X28.3032 Y-267.2114
G1 Z0.0000 F2500.0
G4 P0.02
G0 X25.8996 Y-273.0844 F15000.0
G1 Z11.9000 F2500.0
G4 P0.02
G1 X25.9414 Y-273.1263 F3500.0
G1 X26.1923 Y-270.2419
G1 X26.1504 Y-271.0571
G1 X26.6730 Y-272.3738
G1 X27.0909 Y-272.8336
G1 X27.4672 Y-273.0217
G1 X29.2228 Y-273.2307
G1 X30.8949 Y-271.7468
G1 Z0.0000 F2500.0
G4 P0.02
G0 X30.1007 Y-270.4301 F15000.0
G1 Z11.9000 F2500.0
G4 P0.02
G1 X30.2679 Y-270.7017 F3500.0
G1 Z0.0000 F2500.0
G4 P0.02
G0 X29.9753 Y-270.2211 F15000.0
G1 Z11.9000 F2500.0
G4 P0.02
G1 X31.7937 Y-273.2099 F3500.0
G1 X34.1099 Y-272.9557
G1 X34.2771 Y-273.1229
G1 X35.1281 Y-272.4783
G1 Z0.0000 F2500.0
G4 P0.02
G0 X25.9624 Y-269.4059 F15000.0
G1 Z11.9000 F2500.0
G4 P0.02
G1 X26.3176 Y-269.6985 F3500.0
G1 X26.1923 Y-269.5940
G1 X26.3803 Y-270.0539
G1 X26.4431 Y-269.9493
G1 X27.0701 Y-269.9703
G1 X26.1923 Y-270.2419
G1 Z0.0000 F2500.0
G4 P0.02
G0 X44.7114 Y-267.6013 F15000.0
G1 Z11.9000 F2500.0
G4 P0.02
G1 X44.8318 Y-267.3159 F3500.0
G1 X45.1036 Y-267.7549
G1 X46.8384 Y-272.8337
G1 X47.0265 Y-273.2100
G1 X46.8593 Y-272.8756
G1 X47.7998 Y-270.2211
G1 X47.7162 Y-269.9285
G1 X47.4027 Y-269.8240
G1 X47.7371 Y-269.9285
G1 X48.3014 Y-267.8176
G1 X48.4268 Y-267.7130
G1 X48.4059 Y-267.1696
G1 X49.1792 Y-269.1552
G1 Z0.0000 F2500.0
G4 P0.02
G0 X48.9493 Y-268.5282 F15000.0
G1 Z11.9000 F2500.0
G4 P0.02
G1 X50.4333 Y-272.5202 F3500.0
G1 Z0.0000 F2500.0
G4 P0.02
G0 X50.2034 Y-271.8932 F15000.0
G1 Z11.9000 F2500.0
G4 P0.02
G1 X50.7050 Y-273.2100 F3500.0
G1 Z0.0000 F2500.0
G4 P0.02
G0 X47.4027 Y-269.8240 F15000.0
G1 Z11.9000 F2500.0
G4 P0.02
G1 X45.2499 Y-267.8176 F12000.0
G1 X43.5775 Y-267.1072
G1 X43.8284 Y-267.5251
G1 X44.4554 Y-269.3227
G1 X44.4345 Y-269.9915
G1 X44.1419 Y-270.2840
G1 X42.2399 Y-270.3886
G1 X42.9714 Y-272.7295
G1 X40.7978 Y-267.0863
G1 X39.9443 Y-267.8592
G1 Z0.0000 F2500.0
G4 P0.02
G0 X42.9714 Y-272.7295 F15000.0
G1 Z11.9000 F2500.0
G4 P0.02
G1 X43.1596 Y-273.2102 F12000.0
G1 X41.3447 Y-272.9800
G1 X41.5746 Y-272.5829
G1 X41.5119 Y-271.9140
G1 X39.9443 Y-267.8592
G1 X39.1710 Y-267.2950
G1 X37.4780 Y-267.4830
G1 X37.3945 Y-267.6712
G1 X39.0456 Y-272.4783
G1 X39.7980 Y-273.0427
G1 X40.0071 Y-273.1054
G1 X41.2402 Y-273.0636
G1 Z0.0000 F2500.0
G4 P0.02
G0 X37.3227 Y-273.0636 F15000.0
G1 Z11.9000 F2500.0
G4 P0.02
G1 X36.0896 Y-273.1054 F3500.0
G1 X35.8805 Y-273.0427
G1 X35.1281 Y-272.4783
G1 X33.4770 Y-267.6712
G1 X33.5606 Y-267.4830
G1 X35.2535 Y-267.2950
G1 X36.0269 Y-267.8592
G1 X37.5945 Y-271.9140
G1 X37.6571 Y-272.5829
G1 X37.4272 Y-272.9800
G1 Z0.0000 F2500.0
G4 P0.02
G0 X24.0375 Y-273.0636 F15000.0
G1 Z11.9000 F2500.0
G4 P0.02
G1 X22.8043 Y-273.1054 F3500.0
G1 X22.5953 Y-273.0427
G1 X21.8428 Y-272.4783
G1 X20.1916 Y-267.6712
G1 X20.2753 Y-267.4830
G1 X21.9683 Y-267.2950
G1 X22.7416 Y-267.8592
G1 X24.3091 Y-271.9140
G1 X24.3718 Y-272.5829
G1 X24.1419 Y-272.9800
G1 Z0.0000 F2500.0
G4 P0.02
G0 X20.1200 Y-273.0636 F15000.0
G1 Z11.9000 F2500.0
G4 P0.02
G1 X18.8869 Y-273.1054 F3500.0
G1 X18.6778 Y-273.0427
G1 X17.9254 Y-272.4783
G1 X16.2743 Y-267.6712
G1 X16.3579 Y-267.4830
G1 X18.0508 Y-267.2950
G1 X18.8241 Y-267.8592
G1 X20.3917 Y-271.9140
G1 X20.4544 Y-272.5829
G1 X20.2245 Y-272.9800
G1 Z0.0000 F2500.0
G4 P0.02
G0 X17.9254 Y-272.4783 F15000.0
G1 Z11.9000 F2500.0
G4 P0.02
G1 X17.0743 Y-273.1229 F12000.0
G1 X16.9071 Y-272.9557
G1 X13.9474 Y-273.1054
G1 X13.7385 Y-273.0427
G1 X12.9860 Y-272.4783
G1 X11.3348 Y-267.6712
G1 X11.4184 Y-267.4830
G1 X13.1114 Y-267.2950
G1 X13.8847 Y-267.8592
G1 X15.4523 Y-271.9140
G1 X15.5150 Y-272.5829
G1 X15.2851 Y-272.9800
G1 Z0.0000 F2500.0
G4 P0.02
G0 X7.6721 Y-268.8416 F15000.0
G1 Z11.9000 F2500.0
G4 P0.02
G1 X7.7974 Y-268.9879 F12000.0
G1 X7.5048 Y-268.4236
G1 X7.5675 Y-267.6085
G1 X7.9437 Y-267.2950
G1 X9.0097 Y-267.2950
G1 X9.4486 Y-267.5040
G1 X8.4871 Y-269.6776
G1 X11.9358 Y-273.2099
G1 X11.7059 Y-273.1263
G1 X10.4727 Y-273.1890
G1 X9.2396 Y-273.1054
G1 X11.5805 Y-272.7709
G1 X11.7059 Y-273.1054
G1 X12.9860 Y-272.4783
G1 Z0.0000 F2500.0
G4 P0.02
G0 X9.3295 Y-267.7733 F15000.0
G1 Z11.9000 F2500.0
G4 P0.02
G1 X10.1384 Y-268.1310 F3500.0
G1 X9.7413 Y-267.7339
G1 X9.4115 Y-267.5879
G1 Z0.0000 F2500.0
G4 P0.02

G0 Z0.0000 F800.0
G4 P0.06
G0 X0.0000 Y0.0000 F15000.0
M5
G4 P0.10
$1=0
