$X
$1=255
G21
G90
G92 Z4.0000
G0 Z0.0000 F800.0
G4 P0.06
G92 Z0.0000
G0 Z0.0000 F800.0
G0 X0.0000 Y0.0000 F15000.0
G21
G90
G17
G91.1
G0 Z0.0000
G0 X160.3838 Y-122.7135 F15000.0
G1 Z11.9000 F2500.0
G4 P0.02
G1 X160.2584 Y-122.7971 F12000.0
G1 Z0.0000 F2500.0
G4 P0.02
G0 X160.2165 Y-122.0864 F15000.0
G1 Z11.9000 F2500.0
G4 P0.02
G1 X160.0912 Y-120.8324 F12000.0
G1 X158.8371 Y-121.1250
G1 X158.4191 Y-121.5848
G1 X158.2519 Y-122.1701
G1 Z0.0000 F2500.0
G4 P0.02
G0 X160.2165 Y-125.3051 F15000.0
G1 Z11.9000 F2500.0
G4 P0.02
G1 X159.9240 Y-125.3051 F12000.0
G1 X159.7150 Y-125.5560
G1 Z0.0000 F2500.0
G4 P0.02
G0 X160.0494 Y-119.0349 F15000.0
G1 Z11.9000 F2500.0
G4 P0.02
G1 X157.6249 Y-120.4144 F12000.0
G1 X157.1233 Y-120.5816
G1 X157.0397 Y-119.5783
G1 X156.0782 Y-119.8291
G1 Z0.0000 F2500.0
G4 P0.02
G0 X159.8404 Y-125.2633 F15000.0
G1 Z11.9000 F2500.0
G4 P0.02
G1 X159.7150 Y-125.2215 F12000.0
G1 Z0.0000 F2500.0
G4 P0.02
G0 X159.4223 Y-123.0897 F15000.0
G1 Z11.9000 F2500.0
G4 P0.02
G1 X159.7986 Y-123.0897 F12000.0
G1 X159.7150 Y-123.3405
G1 Z0.0000 F2500.0
G4 P0.02
G0 X159.4223 Y-123.6331 F15000.0
G1 Z11.9000 F2500.0
G4 P0.02
G1 X158.9625 Y-124.0929 F12000.0
G1 Z0.0000 F2500.0
G4 P0.02
G0 X159.2969 Y-125.0962 F15000.0
G1 Z11.9000 F2500.0
G4 P0.02
G1 X158.4610 Y-124.8871 F12000.0
G1 X158.2101 Y-124.9290
G1 Z0.0000 F2500.0
G4 P0.02
G0 X158.9625 Y-123.2569 F15000.0
G1 Z11.9000 F2500.0
G4 P0.02
G1 X158.8371 Y-123.2986 F12000.0
G1 Z0.0000 F2500.0
G4 P0.02
G0 X158.5027 Y-123.4241 F15000.0
G1 Z11.9000 F2500.0
G4 P0.02
G1 X156.2036 Y-124.2601 F12000.0
G1 Z0.0000 F2500.0
G4 P0.02
G0 X158.5027 Y-124.5945 F15000.0
G1 Z11.9000 F2500.0
G4 P0.02
G1 X158.4191 Y-124.8453 F12000.0
G1 Z0.0000 F2500.0
G4 P0.02
G0 X158.2519 Y-121.5430 F15000.0
G1 Z11.9000 F2500.0
G4 P0.02
G1 X158.0429 Y-121.3758 F12000.0
G1 X156.6217 Y-121.7520
G1 X156.3708 Y-122.0028
G1 X156.1619 Y-122.4626
G1 X155.9528 Y-123.6749
G1 Z0.0000 F2500.0
G4 P0.02
G0 X158.0429 Y-119.0349 F15000.0
G1 Z11.9000 F2500.0
G4 P0.02
G1 X157.0815 Y-119.3275 F12000.0
G1 X157.0397 Y-119.4947
G1 Z0.0000 F2500.0
G4 P0.02
G0 X157.0397 Y-118.8676 F15000.0
G1 Z11.9000 F2500.0
G4 P0.02
G1 X157.0397 Y-119.2857 F12000.0
G1 Z0.0000 F2500.0
G4 P0.02
G0 X167.9037 Y-123.2677 F15000.0
G1 Z11.9000 F2500.0
G4 P0.02
G1 X167.4439 Y-123.6021 F12000.0
G1 Z0.0000 F2500.0
G4 P0.02
G0 X167.1094 Y-123.8111 F15000.0
G1 Z11.9000 F2500.0
G4 P0.02
G1 X166.4406 Y-124.2710 F12000.0
G1 Z0.0000 F2500.0
G4 P0.02
G0 X166.9422 Y-124.0619 F15000.0
G1 Z11.9000 F2500.0
G4 P0.02
G1 X166.7332 Y-125.0233 F12000.0
G1 Z0.0000 F2500.0
G4 P0.02
G0 X166.7750 Y-123.6857 F15000.0
G1 Z11.9000 F2500.0
G4 P0.02
G1 X166.5660 Y-123.5185 F12000.0
G1 X166.0644 Y-123.4767
G1 X165.6046 Y-123.6857
G1 X165.3537 Y-123.8947
G1 Z0.0000 F2500.0
G4 P0.02
G0 X166.3152 Y-125.4414 F15000.0
G1 Z11.9000 F2500.0
G4 P0.02
G1 X165.8554 Y-125.6504 F12000.0
G1 X164.6013 Y-125.5250
G1 Z0.0000 F2500.0
G4 P0.02
G0 X165.1448 Y-124.1455 F15000.0
G1 Z11.9000 F2500.0
G4 P0.02
G1 X164.8522 Y-125.1906 F12000.0
G1 X165.1029 Y-125.1488
G1 Z0.0000 F2500.0
G4 P0.02
G0 X164.3923 Y-125.6504 F15000.0
G1 Z11.9000 F2500.0
G4 P0.02
G1 X163.9743 Y-125.9430 F12000.0
G1 Z0.0000 F2500.0
G4 P0.02
G0 X168.2162 Y-118.4906 F15000.0
G1 Z11.9000 F2500.0
G4 P0.02
G1 X168.0908 Y-120.0372 F12000.0
G1 X166.3352 Y-120.6642
G1 X165.7082 Y-119.3684
G1 X164.4540 Y-119.8700
G1 X164.2869 Y-120.0372
G1 Z0.0000 F2500.0
G4 P0.02
G0 X168.0908 Y-120.9150 F15000.0
G1 Z11.9000 F2500.0
G4 P0.02
G1 X167.8818 Y-121.0405 F12000.0
G1 X167.7982 Y-121.4167
G1 Z0.0000 F2500.0
G4 P0.02
G0 X167.8400 Y-121.0405 F15000.0
G1 Z11.9000 F2500.0
G4 P0.02
G1 X163.9942 Y-122.4618 F12000.0
G1 Z0.0000 F2500.0
G4 P0.02
G0 X167.4220 Y-122.0019 F15000.0
G1 Z11.9000 F2500.0
G4 P0.02
G1 X167.1294 Y-122.3363 F12000.0
G1 Z0.0000 F2500.0
G4 P0.02
G0 X164.1197 Y-120.2880 F15000.0
G1 Z11.9000 F2500.0
G4 P0.02
G1 X163.9525 Y-121.0823 F12000.0
G1 X163.9942 Y-121.4585
G1 Z0.0000 F2500.0
G4 P0.02
G0 X179.2513 Y-119.5431 F15000.0
G1 Z11.9000 F2500.0
G4 P0.02
G1 X179.5439 Y-119.1251 F12000.0
G1 X179.6693 Y-118.1218
G1 X180.0000 Y-117.8475
G1 Z0.0000 F2500.0
G4 P0.02
G0 X180.0000 Y-119.1930 F15000.0
G1 Z11.9000 F2500.0
G4 P0.02
G1 X179.6693 Y-119.2087 F12000.0
G1 Z0.0000 F2500.0
G4 P0.02
G0 X180.0000 Y-121.1667 F15000.0
G1 Z11.9000 F2500.0
G4 P0.02
G1 X179.5857 Y-121.4660 F12000.0
G1 Z0.0000 F2500.0
G4 P0.02
G0 X180.0000 Y-121.7051 F15000.0
G1 Z11.9000 F2500.0
G4 P0.02
G1 X179.7947 Y-122.3439 F12000.0
G1 Z0.0000 F2500.0
G4 P0.02
G0 X179.9201 Y-120.7554 F15000.0
G1 Z11.9000 F2500.0
G4 P0.02
G1 X179.3349 Y-120.6299 F12000.0
G1 X178.7915 Y-120.8807
G1 Z0.0000 F2500.0
G4 P0.02
G0 X179.6275 Y-118.1637 F15000.0
G1 Z11.9000 F2500.0
G4 P0.02
G1 X179.5439 Y-118.2473 F12000.0
G1 X179.3349 Y-118.1218
G1 X178.2898 Y-118.1637
G1 X177.7464 Y-118.4144
G1 X177.4956 Y-118.6653
G1 Z0.0000 F2500.0
G4 P0.02
G0 X179.5857 Y-122.5528 F15000.0
G1 Z11.9000 F2500.0
G4 P0.02
G1 X179.4185 Y-122.6782 F12000.0
G1 Z0.0000 F2500.0
G4 P0.02
G0 X179.1258 Y-122.8037 F15000.0
G1 Z11.9000 F2500.0
G4 P0.02
G1 X178.2062 Y-122.5947 F12000.0
G1 X177.8300 Y-122.6364
G1 Z0.0000 F2500.0
G4 P0.02
G0 X179.0005 Y-119.7939 F15000.0
G1 Z11.9000 F2500.0
G4 P0.02
G1 X178.9169 Y-119.8775 F12000.0
G1 X177.5792 Y-120.2956
G1 X177.4538 Y-120.2120
G1 Z0.0000 F2500.0
G4 P0.02
G0 X178.7496 Y-122.0094 F15000.0
G1 Z11.9000 F2500.0
G4 P0.02
G1 X178.6660 Y-122.0930 F12000.0
G1 Z0.0000 F2500.0
G4 P0.02
G0 X178.3734 Y-121.2988 F15000.0
G1 Z11.9000 F2500.0
G4 P0.02
G1 X178.1226 Y-122.3439 F12000.0
G1 X178.3316 Y-122.3020
G1 Z0.0000 F2500.0
G4 P0.02
G0 X177.3702 Y-120.1284 F15000.0
G1 Z11.9000 F2500.0
G4 P0.02
G1 X177.2030 Y-119.3759 F12000.0
G1 X177.2866 Y-118.9997
G1 Z0.0000 F2500.0
G4 P0.02
G0 X30.9799 Y-117.3126 F15000.0
G1 Z11.9000 F2500.0
G4 P0.02
G1 X30.8127 Y-116.4347 F12000.0
G1 Z0.0000 F2500.0
G4 P0.02
G0 X30.6037 Y-121.3674 F15000.0
G1 Z11.9000 F2500.0
G4 P0.02
G1 X30.8963 Y-121.2002 F12000.0
G1 X30.7709 Y-119.4027
G1 X28.6808 Y-120.6150
G1 Z0.0000 F2500.0
G4 P0.02
G0 X30.7291 Y-116.3511 F15000.0
G1 Z11.9000 F2500.0
G4 P0.02
G1 X30.6037 Y-116.2676 F12000.0
G1 X29.4333 Y-116.6020
G1 X29.0152 Y-117.0618
G1 X28.8480 Y-117.6470
G1 Z0.0000 F2500.0
G4 P0.02
G0 X29.0988 Y-115.3898 F15000.0
G1 Z11.9000 F2500.0
G4 P0.02
G1 X28.3046 Y-115.8496 F12000.0
G1 X27.7193 Y-116.0586
G1 X27.6357 Y-114.3447
G1 Z0.0000 F2500.0
G4 P0.02
G0 X28.8062 Y-116.9782 F15000.0
G1 Z11.9000 F2500.0
G4 P0.02
G1 X28.7226 Y-116.8946 F12000.0
G1 Z0.0000 F2500.0
G4 P0.02
G0 X28.6390 Y-114.5119 F15000.0
G1 Z11.9000 F2500.0
G4 P0.02
G1 X27.7193 Y-114.8045 F12000.0
G1 X27.6357 Y-114.9717
G1 X26.6743 Y-115.3062
G1 Z0.0000 F2500.0
G4 P0.02
G0 X28.5554 Y-116.8110 F15000.0
G1 Z11.9000 F2500.0
G4 P0.02
G1 X27.2178 Y-117.2290 F12000.0
G1 X26.9670 Y-117.4798
G1 X26.5489 Y-119.1519
G1 Z0.0000 F2500.0
G4 P0.02
G0 X26.8415 Y-121.7018 F15000.0
G1 Z11.9000 F2500.0
G4 P0.02
G1 X26.5907 Y-121.9526 F12000.0
G1 Z0.0000 F2500.0
G4 P0.02
G0 X26.5489 Y-120.0715 F15000.0
G1 Z11.9000 F2500.0
G4 P0.02
G1 X26.0891 Y-120.3223 F12000.0
G1 X25.8801 Y-120.5314
G1 Z0.0000 F2500.0
G4 P0.02
G0 X12.9946 Y-250.5800 F15000.0
G1 Z11.9000 F2500.0
G4 P0.02
G1 X12.7019 Y-250.4545 F12000.0
G1 X9.9012 Y-247.4448
G1 X9.7758 Y-246.7760
G1 Z0.0000 F2500.0
G4 P0.02
G0 X12.7019 Y-250.4545 F15000.0
G1 Z11.9000 F2500.0
G4 P0.02
G1 X11.1553 Y-250.5382 F12000.0
G1 Z0.0000 F2500.0
G4 P0.02
G0 X11.6151 Y-246.9014 F15000.0
G1 Z11.9000 F2500.0
G4 P0.02
G1 X11.3642 Y-246.6506 F12000.0
G1 X10.9044 Y-246.3998
G1 X10.1938 Y-246.3161
G1 Z0.0000 F2500.0
G4 P0.02
G0 X10.6955 Y-251.3324 F15000.0
G1 Z11.9000 F2500.0
G4 P0.02
G1 X10.1102 Y-250.4545 F12000.0
G1 Z0.0000 F2500.0
G4 P0.02
G0 X9.3160 Y-250.6218 F15000.0
G1 Z11.9000 F2500.0
G4 P0.02
G1 X8.1873 Y-250.4964 F12000.0
G1 X7.5603 Y-250.1201
G1 X7.2677 Y-249.6186
G1 Z0.0000 F2500.0
G4 P0.02
G0 X7.1841 Y-248.3645 F15000.0
G1 Z11.9000 F2500.0
G4 P0.02
G1 X8.2709 Y-248.1554 F12000.0
G1 X7.7275 Y-246.5252
G1 X6.1390 Y-246.2744
G1 Z0.0000 F2500.0
G4 P0.02
G0 X7.1005 Y-249.2005 F15000.0
G1 Z11.9000 F2500.0
G4 P0.02
G1 X7.0587 Y-248.4899 F12000.0
G1 Z0.0000 F2500.0
G4 P0.02
G0 X6.4734 Y-249.4931 F15000.0
G1 Z11.9000 F2500.0
G4 P0.02
G1 X6.2645 Y-249.3677 F12000.0
G1 Z0.0000 F2500.0
G4 P0.02
G0 X5.8883 Y-247.8210 F15000.0
G1 Z11.9000 F2500.0
G4 P0.02
G1 X5.6792 Y-247.6956 F12000.0
G1 Z0.0000 F2500.0
G4 P0.02
G0 X28.8953 Y-250.3709 F15000.0
G1 Z11.9000 F2500.0
G4 P0.02
G1 X29.0625 Y-249.7858 F12000.0
G1 X27.9756 Y-246.9432
G1 X27.5576 Y-246.4834
G1 Z0.0000 F2500.0
G4 P0.02
G0 X28.7698 Y-250.4545 F15000.0
G1 Z11.9000 F2500.0
G4 P0.02
G1 X27.8084 Y-250.4545 F12000.0
G1 X27.5576 Y-250.3709
G1 X27.1813 Y-250.0365
G1 X26.8470 Y-249.2423
G1 Z0.0000 F2500.0
G4 P0.02
G0 X27.3904 Y-246.3998 F15000.0
G1 Z11.9000 F2500.0
G4 P0.02
G1 X26.0945 Y-246.4834 F12000.0
G1 X26.0528 Y-247.0268
G1 Z0.0000 F2500.0
G4 P0.02
G0 X27.0141 Y-251.2488 F15000.0
G1 Z11.9000 F2500.0
G4 P0.02
G1 X26.8888 Y-251.1652 F12000.0
G1 X26.6379 Y-250.7471
G1 Z0.0000 F2500.0
G4 P0.02
G0 X26.6798 Y-248.7825 F15000.0
G1 Z11.9000 F2500.0
G4 P0.02
G1 X26.6379 Y-248.6571 F12000.0
G1 Z0.0000 F2500.0
G4 P0.02
G0 X26.4290 Y-248.0718 F15000.0
G1 Z11.9000 F2500.0
G4 P0.02
G1 X26.3871 Y-247.9465 F12000.0
G1 Z0.0000 F2500.0
G4 P0.02
G0 X25.5511 Y-250.5800 F15000.0
G1 Z11.9000 F2500.0
G4 P0.02
G1 X25.3003 Y-250.4964 F12000.0
G1 X25.1749 Y-250.2037
G1 Z0.0000 F2500.0
G4 P0.02
G0 X25.2167 Y-250.4964 F15000.0
G1 Z11.9000 F2500.0
G4 P0.02
G1 X23.7118 Y-250.5382 F12000.0
G1 Z0.0000 F2500.0
G4 P0.02
G0 X24.2552 Y-247.0268 F15000.0
G1 Z11.9000 F2500.0
G4 P0.02
G1 X23.8790 Y-246.6088 F12000.0
G1 X23.3356 Y-246.3580
G1 X22.9176 Y-246.2744
G1 X22.4578 Y-246.5252
G1 Z0.0000 F2500.0
G4 P0.02
G0 X24.1299 Y-246.8597 F15000.0
G1 Z11.9000 F2500.0
G4 P0.02
G1 X24.0462 Y-246.7760 F12000.0
G1 Z0.0000 F2500.0
G4 P0.02
G0 X23.8790 Y-248.9079 F15000.0
G1 Z11.9000 F2500.0
G4 P0.02
G1 X22.4578 Y-247.4448 F12000.0
G1 X22.3742 Y-246.6924
G1 Z0.0000 F2500.0
G4 P0.02
G0 X21.8725 Y-250.5800 F15000.0
G1 Z11.9000 F2500.0
G4 P0.02
G1 X21.5799 Y-250.2456 F12000.0
G1 X20.7021 Y-248.7825
G1 Z0.0000 F2500.0
G4 P0.02
G0 X21.3291 Y-246.6924 F15000.0
G1 Z11.9000 F2500.0
G4 P0.02
G1 X19.3644 Y-246.3161 F12000.0
G1 X20.2423 Y-247.9882
G1 Z0.0000 F2500.0
G4 P0.02
G0 X61.4335 Y-119.4199 F15000.0
G1 Z11.9000 F2500.0
G4 P0.02
G1 X61.5892 Y-116.4611 F12000.0
G1 X61.9786 Y-113.5802 F12000.0
G1 X62.7571 Y-110.7771 F12000.0
G1 X63.8473 Y-108.0520 F12000.0
G1 X65.1709 Y-105.4825 F12000.0
G1 X66.8060 Y-103.0687 F12000.0
G1 X68.6747 Y-100.8108 F12000.0
G1 X70.7770 Y-98.7863 F12000.0
G1 X73.0350 Y-96.9955 F12000.0
G1 X75.5266 Y-95.4382 F12000.0
G1 X78.1739 Y-94.1924 F12000.0
G1 X80.8991 Y-93.2581 F12000.0
G1 X83.7800 Y-92.5573 F12000.0
G1 X86.6610 Y-92.1680 F12000.0
G1 X89.5418 Y-92.0901 F12000.0
G1 X92.4228 Y-92.3237 F12000.0
G1 X95.3037 Y-92.9466 F12000.0
G1 X98.1068 Y-93.8031 F12000.0
G1 X100.7540 Y-94.8932 F12000.0
G1 X103.3235 Y-96.3726 F12000.0
G1 X105.7373 Y-98.0077 F12000.0
G1 X107.9174 Y-99.9542 F12000.0
G1 X109.8639 Y-102.1344 F12000.0
G1 X111.5770 Y-104.4703 F12000.0
G1 X113.0563 Y-107.0397 F12000.0
G1 X114.2242 Y-109.6871 F12000.0
G1 X115.0808 Y-112.4123 F12000.0
G1 X115.7036 Y-115.2932 F12000.0
G1 X115.9372 Y-118.1741 F12000.0
G1 X115.9372 Y-121.1328 F12000.0
G1 X115.6257 Y-124.0137 F12000.0
G1 X114.9250 Y-126.8168 F12000.0
G1 X113.9906 Y-129.6198 F12000.0
G1 X112.7449 Y-132.2672 F12000.0
G1 X111.2655 Y-134.7588 F12000.0
G1 X109.4747 Y-137.0947 F12000.0
G1 X107.5281 Y-139.1969 F12000.0
G1 X105.2701 Y-141.0656 F12000.0
G1 X102.8563 Y-142.7008 F12000.0
G1 X100.2869 Y-144.1023 F12000.0
G1 X97.6396 Y-145.1923 F12000.0
G1 X94.8365 Y-145.9710 F12000.0
G1 X91.9556 Y-146.5161 F12000.0
G1 X88.9968 Y-146.6718 F12000.0
G1 X86.1159 Y-146.5939 F12000.0
G1 X83.2349 Y-146.1267 F12000.0
G1 X80.4319 Y-145.4259 F12000.0
G1 X77.7067 Y-144.4138 F12000.0
G1 X75.0595 Y-143.0900 F12000.0
G1 X72.6457 Y-141.4549 F12000.0
G1 X70.3877 Y-139.6641 F12000.0
G1 X68.3632 Y-137.5618 F12000.0
G1 X66.4945 Y-135.3038 F12000.0
G1 X64.9373 Y-132.8122 F12000.0
G1 X63.6137 Y-130.2427 F12000.0
G1 X62.6014 Y-127.5176 F12000.0
G1 X61.9007 Y-124.6366 F12000.0
G1 X61.5114 Y-121.7558 F12000.0
G1 X61.4335 Y-119.4199 F12000.0
G1 Z0.0000 F2500.0
G4 P0.02
G0 X79.4975 Y-119.4199 F15000.0
G1 Z11.9000 F2500.0
G4 P0.02
G1 X79.6533 Y-117.7069 F12000.0
G1 X80.1205 Y-116.0718 F12000.0
G1 X80.8991 Y-114.5924 F12000.0
G1 X81.9113 Y-113.1909 F12000.0
G1 X83.1571 Y-112.1008 F12000.0
G1 X84.5587 Y-111.1664 F12000.0
G1 X86.1159 Y-110.5435 F12000.0
G1 X87.8289 Y-110.2321 F12000.0
G1 X89.4640 Y-110.2321 F12000.0
G1 X91.1769 Y-110.5435 F12000.0
G1 X92.7342 Y-111.1664 F12000.0
G1 X94.2136 Y-112.0230 F12000.0
G1 X95.4594 Y-113.1130 F12000.0
G1 X96.4716 Y-114.5145 F12000.0
G1 X97.2502 Y-115.9940 F12000.0
G1 X97.7174 Y-117.6290 F12000.0
G1 X97.8732 Y-119.2641 F12000.0
G1 X97.7953 Y-120.9771 F12000.0
G1 X97.3281 Y-122.6122 F12000.0
G1 X96.5494 Y-124.0916 F12000.0
G1 X95.6151 Y-125.4932 F12000.0
G1 X94.3694 Y-126.6611 F12000.0
G1 X92.9678 Y-127.5955 F12000.0
G1 X91.3327 Y-128.2183 F12000.0
G1 X89.6976 Y-128.5298 F12000.0
G1 X87.9846 Y-128.5298 F12000.0
G1 X86.3495 Y-128.2962 F12000.0
G1 X84.7923 Y-127.6733 F12000.0
G1 X83.3128 Y-126.8168 F12000.0
G1 X82.0670 Y-125.7268 F12000.0
G1 X80.9770 Y-124.4030 F12000.0
G1 X80.1983 Y-122.9237 F12000.0
G1 X79.7311 Y-121.2886 F12000.0
G1 X79.4975 Y-119.6535 F12000.0
G1 Z0.0000 F2500.0
G4 P0.02
G0 X58.7861 Y-82.2794 F15000.0
G1 Z11.9000 F2500.0
G4 P0.02
G1 X71.4778 Y-74.8825 F12000.0
G1 Z0.0000 F2500.0
G4 P0.02
G0 X118.6624 Y-156.5602 F15000.0
G1 Z11.9000 F2500.0
G4 P0.02
G1 X105.8930 Y-163.8794 F12000.0
G1 Z0.0000 F2500.0
G4 P0.02
G0 X135.7922 Y-112.0230 F15000.0
G1 Z11.9000 F2500.0
G4 P0.02
G1 X135.7922 Y-126.7389 F12000.0
G1 Z0.0000 F2500.0
G4 P0.02
G0 X71.4778 Y-163.8794 F15000.0
G1 Z11.9000 F2500.0
G4 P0.02
G1 X58.7861 Y-156.5602 F12000.0
G1 Z0.0000 F2500.0
G4 P0.02
G0 X105.8930 Y-74.8825 F15000.0
G1 Z11.9000 F2500.0
G4 P0.02
G1 X118.6624 Y-82.2794 F12000.0
G1 Z0.0000 F2500.0
G4 P0.02
G0 X41.5785 Y-126.7389 F15000.0
G1 Z11.9000 F2500.0
G4 P0.02
G1 X41.5785 Y-112.0230 F12000.0
G1 Z0.0000 F2500.0
G4 P0.02
G0 X135.7922 Y-146.5939 F15000.0
G1 Z11.9000 F2500.0
G4 P0.02
G1 X118.6624 Y-156.5602 F12000.0
G1 Z0.0000 F2500.0
G4 P0.02
G0 X88.6854 Y-64.9939 F15000.0
G1 Z11.9000 F2500.0
G4 P0.02
G1 X105.8930 Y-74.8825 F12000.0
G1 Z0.0000 F2500.0
G4 P0.02
G0 X88.6854 Y-173.8457 F15000.0
G1 Z11.9000 F2500.0
G4 P0.02
G1 X105.8930 Y-163.8794 F12000.0
G1 Z0.0000 F2500.0
G4 P0.02
G0 X88.6854 Y-173.8457 F15000.0
G1 Z11.9000 F2500.0
G4 P0.02
G1 X71.4778 Y-163.8794 F12000.0
G1 Z0.0000 F2500.0
G4 P0.02
G0 X88.6854 Y-64.9939 F15000.0
G1 Z11.9000 F2500.0
G4 P0.02
G1 X71.4778 Y-74.8825 F12000.0
G1 Z0.0000 F2500.0
G4 P0.02
G0 X41.5785 Y-92.1680 F15000.0
G1 Z11.9000 F2500.0
G4 P0.02
G1 X41.5785 Y-112.0230 F12000.0
G1 Z0.0000 F2500.0
G4 P0.02
G0 X41.5785 Y-146.5939 F15000.0
G1 Z11.9000 F2500.0
G4 P0.02
G1 X58.7861 Y-156.5602 F12000.0
G1 Z0.0000 F2500.0
G4 P0.02
G0 X135.7922 Y-92.1680 F15000.0
G1 Z11.9000 F2500.0
G4 P0.02
G1 X135.7922 Y-112.0230 F12000.0
G1 Z0.0000 F2500.0
G4 P0.02
G0 X41.5785 Y-92.1680 F15000.0
G1 Z11.9000 F2500.0
G4 P0.02
G1 X58.7861 Y-82.2794 F12000.0
G1 Z0.0000 F2500.0
G4 P0.02
G0 X135.7922 Y-92.1680 F15000.0
G1 Z11.9000 F2500.0
G4 P0.02
G1 X118.6624 Y-82.2794 F12000.0
G1 Z0.0000 F2500.0
G4 P0.02
G0 X44.7710 Y-119.4199 F15000.0
G1 Z11.9000 F2500.0
G4 P0.02
G1 X44.9266 Y-115.6825 F12000.0
G1 X45.3938 Y-112.0230 F12000.0
G1 X46.1724 Y-108.4413 F12000.0
G1 X47.2625 Y-104.8595 F12000.0
G1 X48.5862 Y-101.4336 F12000.0
G1 X50.2213 Y-98.1634 F12000.0
G1 X52.1679 Y-94.9711 F12000.0
G1 X54.3480 Y-92.0122 F12000.0
G1 X56.7617 Y-89.2092 F12000.0
G1 X59.4091 Y-86.6397 F12000.0
G1 X62.2899 Y-84.3039 F12000.0
G1 X65.3266 Y-82.2016 F12000.0
G1 X68.5968 Y-80.3329 F12000.0
G1 X71.9449 Y-78.7756 F12000.0
G1 X75.3709 Y-77.5299 F12000.0
G1 X78.9526 Y-76.5176 F12000.0
G1 X82.6121 Y-75.8948 F12000.0
G1 X86.2716 Y-75.5054 F12000.0
G1 X90.0090 Y-75.5054 F12000.0
G1 X93.6686 Y-75.7390 F12000.0
G1 X97.3281 Y-76.2840 F12000.0
G1 X100.9098 Y-77.2184 F12000.0
G1 X104.4136 Y-78.3863 F12000.0
G1 X107.8396 Y-79.8658 F12000.0
G1 X111.0319 Y-81.5787 F12000.0
G1 X114.1464 Y-83.6032 F12000.0
G1 X117.1052 Y-85.8611 F12000.0
G1 X119.8303 Y-88.3527 F12000.0
G1 X122.3220 Y-91.0779 F12000.0
G1 X124.5800 Y-94.0367 F12000.0
G1 X126.6044 Y-97.1512 F12000.0
G1 X128.3174 Y-100.4214 F12000.0
G1 X129.7968 Y-103.7695 F12000.0
G1 X130.9647 Y-107.2733 F12000.0
G1 X131.8212 Y-110.9328 F12000.0
G1 X132.3663 Y-114.5924 F12000.0
G1 X132.5999 Y-118.2519 F12000.0
G1 X132.5220 Y-121.9115 F12000.0
G1 X132.2105 Y-125.6489 F12000.0
G1 X131.5097 Y-129.2306 F12000.0
G1 X130.4976 Y-132.8122 F12000.0
G1 X129.2517 Y-136.3160 F12000.0
G1 X127.6945 Y-139.6641 F12000.0
G1 X125.8258 Y-142.8565 F12000.0
G1 X123.7235 Y-145.8931 F12000.0
G1 X121.3876 Y-148.7740 F12000.0
G1 X118.8182 Y-151.4213 F12000.0
G1 X116.0151 Y-153.8351 F12000.0
G1 X112.9785 Y-156.0153 F12000.0
G1 X109.8639 Y-157.8840 F12000.0
G1 X106.5159 Y-159.5191 F12000.0
G1 X103.0899 Y-160.9206 F12000.0
G1 X99.5861 Y-161.9328 F12000.0
G1 X95.9266 Y-162.7114 F12000.0
G1 X92.2671 Y-163.1786 F12000.0
G1 X88.5297 Y-163.3343 F12000.0
G1 X84.8701 Y-163.1786 F12000.0
G1 X81.2105 Y-162.7114 F12000.0
G1 X77.6288 Y-161.9328 F12000.0
G1 X74.0472 Y-160.8427 F12000.0
G1 X70.6213 Y-159.4412 F12000.0
G1 X67.3511 Y-157.8061 F12000.0
G1 X64.1586 Y-155.8595 F12000.0
G1 X61.1999 Y-153.6794 F12000.0
G1 X58.3968 Y-151.1877 F12000.0
G1 X55.8274 Y-148.5405 F12000.0
G1 X53.4915 Y-145.6595 F12000.0
G1 X51.3892 Y-142.6229 F12000.0
G1 X49.5984 Y-139.4305 F12000.0
G1 X48.0411 Y-136.0824 F12000.0
G1 X46.7953 Y-132.5786 F12000.0
G1 X45.8610 Y-128.9970 F12000.0
G1 X45.1602 Y-125.3374 F12000.0
G1 X44.8488 Y-121.6779 F12000.0
G1 X44.7710 Y-119.4199 F12000.0
G1 Z0.0000 F2500.0
G4 P0.02
G0 X88.6854 Y-90.2214 F15000.0
G1 Z11.9000 F2500.0
G4 P0.02
G1 X91.7220 Y-90.3771 F12000.0
G1 X94.6807 Y-90.8443 F12000.0
G1 X97.5617 Y-91.6229 F12000.0
G1 X100.4426 Y-92.7130 F12000.0
G1 X103.0899 Y-94.0367 F12000.0
G1 X105.6594 Y-95.6718 F12000.0
G1 X107.9952 Y-97.5405 F12000.0
G1 X110.1754 Y-99.6428 F12000.0
G1 X112.0441 Y-101.9787 F12000.0
G1 X113.7570 Y-104.4703 F12000.0
G1 X115.1586 Y-107.1176 F12000.0
G1 X116.2487 Y-109.9207 F12000.0
G1 X117.1052 Y-112.8015 F12000.0
G1 X117.6502 Y-115.7604 F12000.0
G1 X117.8838 Y-118.7969 F12000.0
G1 X117.7280 Y-121.8336 F12000.0
G1 X117.3388 Y-124.7924 F12000.0
G1 X116.6380 Y-127.7511 F12000.0
G1 X115.6257 Y-130.5542 F12000.0
G1 X114.3021 Y-133.2794 F12000.0
G1 X112.7449 Y-135.8488 F12000.0
G1 X110.9540 Y-138.2626 F12000.0
G1 X108.8518 Y-140.4428 F12000.0
G1 X106.5937 Y-142.3893 F12000.0
G1 X104.1021 Y-144.1023 F12000.0
G1 X101.5327 Y-145.5817 F12000.0
G1 X98.7296 Y-146.7496 F12000.0
G1 X95.8487 Y-147.6840 F12000.0
G1 X92.8899 Y-148.2290 F12000.0
G1 X89.8533 Y-148.5405 F12000.0
G1 X86.8945 Y-148.5405 F12000.0
G1 X83.8579 Y-148.1512 F12000.0
G1 X80.9770 Y-147.5282 F12000.0
G1 X78.0960 Y-146.5939 F12000.0
G1 X75.3709 Y-145.3481 F12000.0
G1 X72.7236 Y-143.7908 F12000.0
G1 X70.3098 Y-142.0000 F12000.0
G1 X68.0518 Y-139.9756 F12000.0
G1 X67.1175 Y-139.0413 F12000.0
G1 Z0.0000 F2500.0
G4 P0.02
G0 X88.6854 Y-175.6366 F15000.0
G1 Z11.9000 F2500.0
G4 P0.02
G1 X88.6854 Y-163.1007 F12000.0
G1 Z0.0000 F2500.0
G4 P0.02
G0 X88.6854 Y-161.7771 F15000.0
G1 Z11.9000 F2500.0
G4 P0.02
G1 X88.6854 Y-160.3755 F12000.0
G1 Z0.0000 F2500.0
G4 P0.02
G0 X88.6854 Y-158.9740 F15000.0
G1 Z11.9000 F2500.0
G4 P0.02
G1 X88.6854 Y-146.4382 F12000.0
G1 Z0.0000 F2500.0
G4 P0.02
G0 X88.6854 Y-145.1145 F15000.0
G1 Z11.9000 F2500.0
G4 P0.02
G1 X88.6854 Y-143.7130 F12000.0
G1 Z0.0000 F2500.0
G4 P0.02
G0 X88.6854 Y-142.3115 F15000.0
G1 Z11.9000 F2500.0
G4 P0.02
G1 X88.6854 Y-129.7755 F12000.0
G1 Z0.0000 F2500.0
G4 P0.02
G0 X88.6854 Y-128.4519 F15000.0
G1 Z11.9000 F2500.0
G4 P0.02
G1 X88.6854 Y-127.0504 F12000.0
G1 Z0.0000 F2500.0
G4 P0.02
G0 X88.6854 Y-125.6489 F15000.0
G1 Z11.9000 F2500.0
G4 P0.02
G1 X88.6854 Y-119.4199 F12000.0
G1 Z0.0000 F2500.0
G4 P0.02
G0 X88.6854 Y-63.1252 F15000.0
G1 Z11.9000 F2500.0
G4 P0.02
G1 X88.6854 Y-75.6612 F12000.0
G1 Z0.0000 F2500.0
G4 P0.02
G0 X88.6854 Y-77.0627 F15000.0
G1 Z11.9000 F2500.0
G4 P0.02
G1 X88.6854 Y-78.3863 F12000.0
G1 Z0.0000 F2500.0
G4 P0.02
G0 X88.6854 Y-79.7879 F15000.0
G1 Z11.9000 F2500.0
G4 P0.02
G1 X88.6854 Y-92.3237 F12000.0
G1 Z0.0000 F2500.0
G4 P0.02
G0 X88.6854 Y-93.7252 F15000.0
G1 Z11.9000 F2500.0
G4 P0.02
G1 X88.6854 Y-95.0489 F12000.0
G1 Z0.0000 F2500.0
G4 P0.02
G0 X88.6854 Y-96.4504 F15000.0
G1 Z11.9000 F2500.0
G4 P0.02
G1 X88.6854 Y-108.9863 F12000.0
G1 Z0.0000 F2500.0
G4 P0.02
G0 X88.6854 Y-110.3879 F15000.0
G1 Z11.9000 F2500.0
G4 P0.02
G1 X88.6854 Y-111.7894 F12000.0
G1 Z0.0000 F2500.0
G4 P0.02
G0 X88.6854 Y-113.1130 F15000.0
G1 Z11.9000 F2500.0
G4 P0.02
G1 X88.6854 Y-119.4199 F12000.0
G1 Z0.0000 F2500.0
G4 P0.02
G0 X39.7098 Y-119.4199 F15000.0
G1 Z11.9000 F2500.0
G4 P0.02
G1 X50.1434 Y-119.4199 F12000.0
G1 Z0.0000 F2500.0
G4 P0.02
G0 X51.5449 Y-119.4199 F15000.0
G1 Z11.9000 F2500.0
G4 P0.02
G1 X52.9464 Y-119.4199 F12000.0
G1 Z0.0000 F2500.0
G4 P0.02
G0 X54.2702 Y-119.4199 F15000.0
G1 Z11.9000 F2500.0
G4 P0.02
G1 X64.7816 Y-119.4199 F12000.0
G1 Z0.0000 F2500.0
G4 P0.02
G0 X66.1052 Y-119.4199 F15000.0
G1 Z11.9000 F2500.0
G4 P0.02
G1 X67.5068 Y-119.4199 F12000.0
G1 Z0.0000 F2500.0
G4 P0.02
G0 X68.9083 Y-119.4199 F15000.0
G1 Z11.9000 F2500.0
G4 P0.02
G1 X79.3418 Y-119.4199 F12000.0
G1 Z0.0000 F2500.0
G4 P0.02
G0 X80.7434 Y-119.4199 F15000.0
G1 Z11.9000 F2500.0
G4 P0.02
G1 X82.0670 Y-119.4199 F12000.0
G1 Z0.0000 F2500.0
G4 P0.02
G0 X83.4685 Y-119.4199 F15000.0
G1 Z11.9000 F2500.0
G4 P0.02
G1 X88.6854 Y-119.4199 F12000.0
G1 Z0.0000 F2500.0
G4 P0.02
G0 X137.6609 Y-119.4199 F15000.0
G1 Z11.9000 F2500.0
G4 P0.02
G1 X127.2273 Y-119.4199 F12000.0
G1 Z0.0000 F2500.0
G4 P0.02
G0 X125.8258 Y-119.4199 F15000.0
G1 Z11.9000 F2500.0
G4 P0.02
G1 X124.5021 Y-119.4199 F12000.0
G1 Z0.0000 F2500.0
G4 P0.02
G0 X123.1006 Y-119.4199 F15000.0
G1 Z11.9000 F2500.0
G4 P0.02
G1 X112.6670 Y-119.4199 F12000.0
G1 Z0.0000 F2500.0
G4 P0.02
G0 X111.2655 Y-119.4199 F15000.0
G1 Z11.9000 F2500.0
G4 P0.02
G1 X109.8639 Y-119.4199 F12000.0
G1 Z0.0000 F2500.0
G4 P0.02
G0 X108.5403 Y-119.4199 F15000.0
G1 Z11.9000 F2500.0
G4 P0.02
G1 X98.0289 Y-119.4199 F12000.0
G1 Z0.0000 F2500.0
G4 P0.02
G0 X96.7052 Y-119.4199 F15000.0
G1 Z11.9000 F2500.0
G4 P0.02
G1 X95.3037 Y-119.4199 F12000.0
G1 Z0.0000 F2500.0
G4 P0.02
G0 X93.9022 Y-119.4199 F15000.0
G1 Z11.9000 F2500.0
G4 P0.02
G1 X88.6854 Y-119.4199 F12000.0
G1 Z0.0000 F2500.0
G4 P0.02
G0 X180.0000 Y-83.0581 F15000.0
G1 Z11.9000 F2500.0
G4 P0.02
G1 X151.9097 Y-83.0581 F12000.0
G1 Z0.0000 F2500.0
G4 P0.02
G0 X180.0000 Y-161.2320 F15000.0
G1 Z11.9000 F2500.0
G4 P0.02
G1 X151.9097 Y-161.2320 F12000.0
G1 Z0.0000 F2500.0
G4 P0.02
G0 X180.0000 Y-104.9374 F15000.0
G1 Z11.9000 F2500.0
G4 P0.02
G1 X159.5402 Y-104.9374 F12000.0
G1 Z0.0000 F2500.0
G4 P0.02
G0 X180.0000 Y-139.4305 F15000.0
G1 Z11.9000 F2500.0
G4 P0.02
G1 X159.5402 Y-139.4305 F12000.0
G1 Z0.0000 F2500.0
G4 P0.02
G0 X180.0000 Y-131.3329 F15000.0
G1 Z11.9000 F2500.0
G4 P0.02
G1 X172.8547 Y-131.3329 F12000.0
G1 Z0.0000 F2500.0
G4 P0.02
G0 X135.7922 Y-119.4199 F15000.0
G1 Z11.9000 F2500.0
G4 P0.02
G1 X135.7922 Y-194.8686 F12000.0
G1 Z0.0000 F2500.0
G4 P0.02
G0 X41.5785 Y-119.4199 F15000.0
G1 Z11.9000 F2500.0
G4 P0.02
G1 X41.5785 Y-194.8686 F12000.0
G1 Z0.0000 F2500.0
G4 P0.02
G0 X88.6854 Y-173.8457 F15000.0
G1 Z11.9000 F2500.0
G4 P0.02
G1 X22.5801 Y-173.8457 F12000.0
G1 Z0.0000 F2500.0
G4 P0.02
G0 X88.6854 Y-64.9939 F15000.0
G1 Z11.9000 F2500.0
G4 P0.02
G1 X22.5801 Y-64.9939 F12000.0
G1 Z0.0000 F2500.0
G4 P0.02
G0 X180.0000 Y-171.8911 F15000.0
G1 Z11.9000 F2500.0
G4 P0.02
G1 X179.9402 Y-171.8992 F12000.0
G1 X180.0000 Y-171.8035 F12000.0
G1 Z0.0000 F2500.0
G4 P0.02
G0 X180.0000 Y-170.7491 F15000.0
G1 Z11.9000 F2500.0
G4 P0.02
G1 X179.9402 Y-170.6534 F12000.0
G1 X180.0000 Y-170.6615 F12000.0
G1 Z0.0000 F2500.0
G4 P0.02
G0 X180.0000 Y-171.2763 F15000.0
G1 Z11.9000 F2500.0
G4 P0.02
G1 X178.0715 Y-171.2763 F12000.0
G1 Z0.0000 F2500.0
G4 P0.02
G0 X153.7784 Y-83.0581 F15000.0
G1 Z11.9000 F2500.0
G4 P0.02
G1 X153.1555 Y-87.6519 F12000.0
G1 X153.7784 Y-87.1848 F12000.0
G1 X154.4013 Y-87.6519 F12000.0
G1 X153.7784 Y-83.0581 F12000.0
G1 Z0.0000 F2500.0
G4 P0.02
G0 X153.4670 Y-84.9022 F15000.0
G1 Z11.9000 F2500.0
G4 P0.02
G1 X153.4670 Y-85.7299 F12000.0
G1 Z0.0000 F2500.0
G4 P0.02
G0 X154.0509 Y-85.1747 F15000.0
G1 Z11.9000 F2500.0
G4 P0.02
G1 X154.0509 Y-86.0024 F12000.0
G1 Z0.0000 F2500.0
G4 P0.02
G0 X153.7784 Y-161.2320 F15000.0
G1 Z11.9000 F2500.0
G4 P0.02
G1 X154.4013 Y-156.6381 F12000.0
G1 X153.7784 Y-157.1053 F12000.0
G1 X153.1555 Y-156.6381 F12000.0
G1 X153.7784 Y-161.2320 F12000.0
G1 Z0.0000 F2500.0
G4 P0.02
G0 X154.0509 Y-158.2098 F15000.0
G1 Z11.9000 F2500.0
G4 P0.02
G1 X154.0509 Y-159.0375 F12000.0
G1 Z0.0000 F2500.0
G4 P0.02
G0 X153.4670 Y-158.4823 F15000.0
G1 Z11.9000 F2500.0
G4 P0.02
G1 X153.4670 Y-159.3100 F12000.0
G1 Z0.0000 F2500.0
G4 P0.02
G0 X153.7784 Y-83.0581 F15000.0
G1 Z11.9000 F2500.0
G4 P0.02
G1 X153.7784 Y-161.2320 F12000.0
G1 Z0.0000 F2500.0
G4 P0.02
G0 X161.4089 Y-104.9374 F15000.0
G1 Z11.9000 F2500.0
G4 P0.02
G1 X160.7861 Y-109.5313 F12000.0
G1 X161.4089 Y-109.0641 F12000.0
G1 X162.0318 Y-109.5313 F12000.0
G1 X161.4089 Y-104.9374 F12000.0
G1 Z0.0000 F2500.0
G4 P0.02
G0 X161.0975 Y-106.7816 F15000.0
G1 Z11.9000 F2500.0
G4 P0.02
G1 X161.0975 Y-107.6093 F12000.0
G1 Z0.0000 F2500.0
G4 P0.02
G0 X161.6814 Y-107.0542 F15000.0
G1 Z11.9000 F2500.0
G4 P0.02
G1 X161.6814 Y-107.8818 F12000.0
G1 Z0.0000 F2500.0
G4 P0.02
G0 X161.4089 Y-139.4305 F15000.0
G1 Z11.9000 F2500.0
G4 P0.02
G1 X162.0318 Y-134.8367 F12000.0
G1 X161.4089 Y-135.2260 F12000.0
G1 X160.7861 Y-134.8367 F12000.0
G1 X161.4089 Y-139.4305 F12000.0
G1 Z0.0000 F2500.0
G4 P0.02
G0 X161.6814 Y-136.4083 F15000.0
G1 Z11.9000 F2500.0
G4 P0.02
G1 X161.6814 Y-137.2360 F12000.0
G1 Z0.0000 F2500.0
G4 P0.02
G0 X161.0975 Y-136.6808 F15000.0
G1 Z11.9000 F2500.0
G4 P0.02
G1 X161.0975 Y-137.5085 F12000.0
G1 Z0.0000 F2500.0
G4 P0.02
G0 X161.4089 Y-104.9374 F15000.0
G1 Z11.9000 F2500.0
G4 P0.02
G1 X161.4089 Y-139.4305 F12000.0
G1 Z0.0000 F2500.0
G4 P0.02
G0 X174.6456 Y-131.3329 F15000.0
G1 Z11.9000 F2500.0
G4 P0.02
G1 X175.2684 Y-126.7389 F12000.0
G1 X174.6456 Y-127.2061 F12000.0
G1 X174.0227 Y-126.7389 F12000.0
G1 X174.6456 Y-131.3329 F12000.0
G1 Z0.0000 F2500.0
G4 P0.02
G0 X174.9180 Y-128.3106 F15000.0
G1 Z11.9000 F2500.0
G4 P0.02
G1 X174.9180 Y-129.1382 F12000.0
G1 Z0.0000 F2500.0
G4 P0.02
G0 X174.3341 Y-128.5831 F15000.0
G1 Z11.9000 F2500.0
G4 P0.02
G1 X174.3341 Y-129.4108 F12000.0
G1 Z0.0000 F2500.0
G4 P0.02
G0 X174.6456 Y-131.3329 F15000.0
G1 Z11.9000 F2500.0
G4 P0.02
G1 X174.6456 Y-108.9084 F12000.0
G1 Z0.0000 F2500.0
G4 P0.02
G0 X90.0884 Y-190.3759 F15000.0
G1 Z11.9000 F2500.0
G4 P0.02
G1 X89.8794 Y-189.8743 F12000.0
G1 X89.8377 Y-189.5399
G1 X90.9245 Y-189.4563
G1 X90.8826 Y-189.2055
G1 X89.9213 Y-187.5334
G1 Z0.0000 F2500.0
G4 P0.02
G0 X89.6286 Y-186.9900 F15000.0
G1 Z11.9000 F2500.0
G4 P0.02
G1 X89.2106 Y-186.2376 F12000.0
G1 Z0.0000 F2500.0
G4 P0.02
G0 X89.0016 Y-189.4563 F15000.0
G1 Z11.9000 F2500.0
G4 P0.02
G1 X89.6286 Y-189.4980 F12000.0
G1 X89.3360 Y-188.5367
G1 Z0.0000 F2500.0
G4 P0.02
G0 X87.6681 Y-190.4779 F15000.0
G1 Z11.9000 F2500.0
G4 P0.02
G1 X86.2886 Y-186.6322 F12000.0
G1 X86.0378 Y-186.2978
G1 Z0.0000 F2500.0
G4 P0.02
G0 X87.5009 Y-187.3010 F15000.0
G1 Z11.9000 F2500.0
G4 P0.02
G1 X87.3337 Y-187.1337 F12000.0
G1 Z0.0000 F2500.0
G4 P0.02
G0 X86.6231 Y-186.6739 F15000.0
G1 Z11.9000 F2500.0
G4 P0.02
G1 X86.3304 Y-186.5903 F12000.0
G1 Z0.0000 F2500.0
G4 P0.02
G0 X135.7922 Y-192.9999 F15000.0
G1 Z11.9000 F2500.0
G4 P0.02
G1 X131.1983 Y-192.3771 F12000.0
G1 X131.6655 Y-192.9999 F12000.0
G1 X131.1983 Y-193.6228 F12000.0
G1 X135.7922 Y-192.9999 F12000.0
G1 Z0.0000 F2500.0
G4 P0.02
G0 X133.5977 Y-192.6884 F15000.0
G1 Z11.9000 F2500.0
G4 P0.02
G1 X132.7700 Y-192.6884 F12000.0
G1 Z0.0000 F2500.0
G4 P0.02
G0 X133.9090 Y-193.2724 F15000.0
G1 Z11.9000 F2500.0
G4 P0.02
G1 X133.0814 Y-193.2724 F12000.0
G1 Z0.0000 F2500.0
G4 P0.02
G0 X41.5785 Y-192.9999 F15000.0
G1 Z11.9000 F2500.0
G4 P0.02
G1 X46.1724 Y-193.6228 F12000.0
G1 X45.7052 Y-192.9999 F12000.0
G1 X46.1724 Y-192.3771 F12000.0
G1 X41.5785 Y-192.9999 F12000.0
G1 Z0.0000 F2500.0
G4 P0.02
G0 X44.2504 Y-193.2724 F15000.0
G1 Z11.9000 F2500.0
G4 P0.02
G1 X43.4228 Y-193.2724 F12000.0
G1 Z0.0000 F2500.0
G4 P0.02
G0 X44.5229 Y-192.6884 F15000.0
G1 Z11.9000 F2500.0
G4 P0.02
G1 X43.6953 Y-192.6884 F12000.0
G1 Z0.0000 F2500.0
G4 P0.02
G0 X135.7922 Y-192.9999 F15000.0
G1 Z11.9000 F2500.0
G4 P0.02
G1 X41.5785 Y-192.9999 F12000.0
G1 Z0.0000 F2500.0
G4 P0.02
G0 X30.6544 Y-123.5147 F15000.0
G1 Z11.9000 F2500.0
G4 P0.02
G1 X28.2299 Y-124.8942 F12000.0
G1 X27.7283 Y-125.0614
G1 X27.6447 Y-124.0582
G1 X26.6833 Y-124.3089
G1 Z0.0000 F2500.0
G4 P0.02
G0 X28.6480 Y-123.5147 F15000.0
G1 Z11.9000 F2500.0
G4 P0.02
G1 X27.6865 Y-123.8074 F12000.0
G1 X27.6447 Y-123.9746
G1 Z0.0000 F2500.0
G4 P0.02
G0 X27.6447 Y-123.3476 F15000.0
G1 Z11.9000 F2500.0
G4 P0.02
G1 X27.6447 Y-123.7655 F12000.0
G1 Z0.0000 F2500.0
G4 P0.02
G0 X24.3709 Y-173.8457 F15000.0
G1 Z11.9000 F2500.0
G4 P0.02
G1 X24.9938 Y-169.2519 F12000.0
G1 X24.3709 Y-169.7190 F12000.0
G1 X23.8259 Y-169.2519 F12000.0
G1 X24.3709 Y-173.8457 F12000.0
G1 Z0.0000 F2500.0
G4 P0.02
G0 X24.6434 Y-170.8235 F15000.0
G1 Z11.9000 F2500.0
G4 P0.02
G1 X24.6434 Y-171.6512 F12000.0
G1 Z0.0000 F2500.0
G4 P0.02
G0 X24.0984 Y-171.0960 F15000.0
G1 Z11.9000 F2500.0
G4 P0.02
G1 X24.0984 Y-171.9237 F12000.0
G1 Z0.0000 F2500.0
G4 P0.02
G0 X24.3709 Y-64.9939 F15000.0
G1 Z11.9000 F2500.0
G4 P0.02
G1 X23.8259 Y-69.5879 F12000.0
G1 X24.3709 Y-69.1207 F12000.0
G1 X24.9938 Y-69.5879 F12000.0
G1 X24.3709 Y-64.9939 F12000.0
G1 Z0.0000 F2500.0
G4 P0.02
G0 X24.0984 Y-66.8382 F15000.0
G1 Z11.9000 F2500.0
G4 P0.02
G1 X24.0984 Y-67.6659 F12000.0
G1 Z0.0000 F2500.0
G4 P0.02
G0 X24.6434 Y-67.1107 F15000.0
G1 Z11.9000 F2500.0
G4 P0.02
G1 X24.6434 Y-67.9383 F12000.0
G1 Z0.0000 F2500.0
G4 P0.02
G0 X24.3709 Y-173.8457 F15000.0
G1 Z11.9000 F2500.0
G4 P0.02
G1 X24.3709 Y-64.9939 F12000.0
G1 Z0.0000 F2500.0
G4 P0.02
G0 X0.0000 Y-216.9595 F15000.0
G1 Z11.9000 F2500.0
G4 P0.02
G1 X0.0000 Y-273.9770 F12000.0
G1 X174.7310 Y-273.9770 F12000.0
G1 Z0.0000 F2500.0
G4 P0.02
G0 X170.1296 Y-223.3663 F15000.0
G1 Z11.9000 F2500.0
G4 P0.02
G1 X0.0000 Y-223.3663 F12000.0
G1 Z0.0000 F2500.0
G4 P0.02
G0 X170.1296 Y-232.5541 F15000.0
G1 Z11.9000 F2500.0
G4 P0.02
G1 X110.3311 Y-232.5541 F12000.0
G1 Z0.0000 F2500.0
G4 P0.02
G0 X170.1296 Y-237.1480 F15000.0
G1 Z11.9000 F2500.0
G4 P0.02
G1 X110.3311 Y-237.1480 F12000.0
G1 Z0.0000 F2500.0
G4 P0.02
G0 X170.1296 Y-250.9296 F15000.0
G1 Z11.9000 F2500.0
G4 P0.02
G1 X110.3311 Y-250.9296 F12000.0
G1 Z0.0000 F2500.0
G4 P0.02
G0 X170.1296 Y-255.6014 F15000.0
G1 Z11.9000 F2500.0
G4 P0.02
G1 X110.3311 Y-255.6014 F12000.0
G1 Z0.0000 F2500.0
G4 P0.02
G0 X170.1296 Y-260.1953 F15000.0
G1 Z11.9000 F2500.0
G4 P0.02
G1 X110.3311 Y-260.1953 F12000.0
G1 Z0.0000 F2500.0
G4 P0.02
G0 X170.1296 Y-264.7892 F15000.0
G1 Z11.9000 F2500.0
G4 P0.02
G1 X110.3311 Y-264.7892 F12000.0
G1 Z0.0000 F2500.0
G4 P0.02
G0 X170.1296 Y-269.3830 F15000.0
G1 Z11.9000 F2500.0
G4 P0.02
G1 X110.3311 Y-269.3830 F12000.0
G1 Z0.0000 F2500.0
G4 P0.02
G0 X170.1296 Y-273.9770 F15000.0
G1 Z11.9000 F2500.0
G4 P0.02
G1 X170.1296 Y-223.3663 F12000.0
G1 Z0.0000 F2500.0
G4 P0.02
G0 X170.1296 Y-227.9602 F15000.0
G1 Z11.9000 F2500.0
G4 P0.02
G1 X110.3311 Y-227.9602 F12000.0
G1 Z0.0000 F2500.0
G4 P0.02
G0 X154.4792 Y-273.9770 F15000.0
G1 Z11.9000 F2500.0
G4 P0.02
G1 X154.4792 Y-223.3663 F12000.0
G1 Z0.0000 F2500.0
G4 P0.02
G0 X133.3006 Y-273.9770 F15000.0
G1 Z11.9000 F2500.0
G4 P0.02
G1 X133.3006 Y-223.3663 F12000.0
G1 Z0.0000 F2500.0
G4 P0.02
G0 X119.5189 Y-273.9770 F15000.0
G1 Z11.9000 F2500.0
G4 P0.02
G1 X119.5189 Y-223.3663 F12000.0
G1 Z0.0000 F2500.0
G4 P0.02
G0 X110.3311 Y-273.9770 F15000.0
G1 Z11.9000 F2500.0
G4 P0.02
G1 X110.3311 Y-223.3663 F12000.0
G1 Z0.0000 F2500.0
G4 P0.02
G0 X45.9388 Y-273.9770 F15000.0
G1 Z11.9000 F2500.0
G4 P0.02
G1 X45.9388 Y-237.1480 F12000.0
G1 Z0.0000 F2500.0
G4 P0.02
G0 X32.1572 Y-255.6014 F15000.0
G1 Z11.9000 F2500.0
G4 P0.02
G1 X32.1572 Y-237.1480 F12000.0
G1 Z0.0000 F2500.0
G4 P0.02
G0 X16.5068 Y-255.6014 F15000.0
G1 Z11.9000 F2500.0
G4 P0.02
G1 X16.5068 Y-237.1480 F12000.0
G1 Z0.0000 F2500.0
G4 P0.02
G0 X170.1296 Y-241.7419 F15000.0
G1 Z11.9000 F2500.0
G4 P0.02
G1 X110.3311 Y-241.7419 F12000.0
G1 Z0.0000 F2500.0
G4 P0.02
G0 X170.1296 Y-246.3357 F15000.0
G1 Z11.9000 F2500.0
G4 P0.02
G1 X110.3311 Y-246.3357 F12000.0
G1 Z0.0000 F2500.0
G4 P0.02
G0 X45.9388 Y-260.1953 F15000.0
G1 Z11.9000 F2500.0
G4 P0.02
G1 X0.0000 Y-260.1953 F12000.0
G1 Z0.0000 F2500.0
G4 P0.02
G0 X32.1572 Y-241.7419 F15000.0
G1 Z11.9000 F2500.0
G4 P0.02
G1 X0.0000 Y-241.7419 F12000.0
G1 Z0.0000 F2500.0
G4 P0.02
G0 X45.9388 Y-241.7419 F15000.0
G1 Z11.9000 F2500.0
G4 P0.02
G1 X32.1572 Y-241.7419 F12000.0
G1 Z0.0000 F2500.0
G4 P0.02
G0 X110.3311 Y-237.1480 F15000.0
G1 Z11.9000 F2500.0
G4 P0.02
G1 X0.0000 Y-237.1480 F12000.0
G1 Z0.0000 F2500.0
G4 P0.02
G0 X110.3311 Y-260.1953 F15000.0
G1 Z11.9000 F2500.0
G4 P0.02
G1 X45.9388 Y-260.1953 F12000.0
G1 Z0.0000 F2500.0
G4 P0.02
G0 X45.9388 Y-255.6014 F15000.0
G1 Z11.9000 F2500.0
G4 P0.02
G1 X0.0000 Y-255.6014 F12000.0
G1 Z0.0000 F2500.0
G4 P0.02
G0 X27.0183 Y-260.1953 F15000.0
G1 Z11.9000 F2500.0
G4 P0.02
G1 X27.0183 Y-255.6014 F12000.0
G1 Z0.0000 F2500.0
G4 P0.02
G0 X41.3449 Y-255.6014 F15000.0
G1 Z11.9000 F2500.0
G4 P0.02
G1 X41.3449 Y-241.7419 F12000.0
G1 Z0.0000 F2500.0
G4 P0.02
G0 X36.7511 Y-255.6014 F15000.0
G1 Z11.9000 F2500.0
G4 P0.02
G1 X36.7511 Y-241.7419 F12000.0
G1 Z0.0000 F2500.0
G4 P0.02
G0 X163.6669 Y-246.3357 F15000.0
G1 Z11.9000 F2500.0
G4 P0.02
G1 X163.6669 Y-223.3663 F12000.0
G1 Z0.0000 F2500.0
G4 P0.02
G0 X4.9599 Y-250.5058 F15000.0
G1 Z11.9000 F2500.0
G4 P0.02
G1 X3.5804 Y-246.6601 F12000.0
G1 X3.3296 Y-246.3256
G1 Z0.0000 F2500.0
G4 P0.02
G0 X4.7927 Y-247.3289 F15000.0
G1 Z11.9000 F2500.0
G4 P0.02
G1 X4.6255 Y-247.1617 F12000.0
G1 Z0.0000 F2500.0
G4 P0.02
G0 X3.9148 Y-246.7018 F15000.0
G1 Z11.9000 F2500.0
G4 P0.02
G1 X3.6222 Y-246.6182 F12000.0
G1 Z0.0000 F2500.0
G4 P0.02
G0 X5.4152 Y-259.1276 F15000.0
G1 Z11.9000 F2500.0
G4 P0.02
G1 X5.2480 Y-258.8351 F12000.0
G1 X4.4538 Y-256.6196
G1 Z0.0000 F2500.0
G4 P0.02
G0 X5.0808 Y-256.7449 F15000.0
G1 Z11.9000 F2500.0
G4 P0.02
G1 X4.8718 Y-256.6196 F12000.0
G1 Z0.0000 F2500.0
G4 P0.02
G0 X66.5551 Y-227.2707 F15000.0
G1 Z11.9000 F2500.0
G4 P0.02
G1 X67.0307 Y-227.0147 F12000.0
G1 X67.6218 Y-227.0355
G1 X68.0120 Y-227.2738
G1 Z0.0000 F2500.0
G4 P0.02
G0 X68.2585 Y-227.6046 F15000.0
G1 Z11.9000 F2500.0
G4 P0.02
G1 X67.9463 Y-227.1834 F12000.0
G1 X68.3305 Y-227.7704
G1 X68.4641 Y-228.3476
G1 X68.4864 Y-229.7077
G1 Z0.0000 F2500.0
G4 P0.02
G0 X69.7739 Y-229.7077 F15000.0
G1 Z11.9000 F2500.0
G4 P0.02
G1 X69.7739 Y-228.2823 F12000.0
G1 Z0.0000 F2500.0
G4 P0.02
G0 X71.8890 Y-228.2823 F15000.0
G1 Z11.9000 F2500.0
G4 P0.02
G1 X71.5655 Y-229.6536 F12000.0
G1 X70.6568 Y-229.8723
G1 X69.8540 Y-229.7912
G1 X69.7951 Y-229.8562
G1 X69.7739 Y-230.9952
G1 Z0.0000 F2500.0
G4 P0.02
G0 X67.7966 Y-230.9952 F15000.0
G1 Z11.9000 F2500.0
G4 P0.02
G1 X68.0323 Y-230.8185 F12000.0
G1 X68.3523 Y-230.2454
G1 X68.4581 Y-229.7969
G1 X68.2273 Y-230.5750
G1 X67.7868 Y-230.9722
G1 X67.0875 Y-231.0703
G1 X66.7317 Y-230.9292
G1 X66.5297 Y-230.7308
G1 X66.2463 Y-230.0882
G1 X66.1495 Y-229.5030
G1 X66.3157 Y-227.7326
G1 X66.5091 Y-227.3626
G1 Z0.0000 F2500.0
G4 P0.02
G0 X63.4743 Y-226.9948 F15000.0
G1 Z11.9000 F2500.0
G4 P0.02
G1 X64.0704 Y-227.0340 F12000.0
G1 X64.3859 Y-227.1608
G1 X64.6655 Y-227.4984
G1 X64.9441 Y-228.5201
G1 X64.9294 Y-229.7116
G1 X64.7167 Y-230.5136
G1 X64.3187 Y-230.9604
G1 X63.5074 Y-231.0646
G1 X63.0361 Y-230.7881
G1 X63.1847 Y-230.9356
G1 X62.9319 Y-230.6172
G1 X62.6547 Y-229.8306
G1 X62.6098 Y-229.4787
G1 X62.7293 Y-227.9347
G1 X62.9379 Y-227.4343
G1 X63.4010 Y-227.0369
G1 X63.0124 Y-227.3165
G1 X62.6927 Y-228.0064
G1 Z0.0000 F2500.0
G4 P0.02
G0 X62.6927 Y-230.0755 F15000.0
G1 Z11.9000 F2500.0
G4 P0.02
G1 X62.7386 Y-230.1675 F12000.0
G1 Z0.0000 F2500.0
G4 P0.02
G0 X58.9681 Y-230.9952 F15000.0
G1 Z11.9000 F2500.0
G4 P0.02
G1 X58.8496 Y-230.1750 F12000.0
G1 X58.4031 Y-228.9552
G1 X57.6505 Y-227.6447
G1 X57.4968 Y-227.1533
G1 X57.6479 Y-227.0842
G1 X59.6119 Y-227.0407
G1 Z0.0000 F2500.0
G4 P0.02
G0 X56.0253 Y-227.7305 F15000.0
G1 Z11.9000 F2500.0
G4 P0.02
G1 X55.7565 Y-227.2645 F12000.0
G1 X55.3690 Y-227.0480
G1 X54.5494 Y-227.0561
G1 X54.2529 Y-227.2427
G1 X54.0458 Y-227.9068
G1 X54.0768 Y-228.2435
G1 X54.5316 Y-228.7645
G1 X54.9647 Y-228.8642
G1 X54.5682 Y-228.8255
G1 X53.9753 Y-229.3018
G1 X53.8092 Y-230.2143
G1 X54.0770 Y-230.7232
G1 X54.4932 Y-230.9967
G1 X55.0848 Y-231.0680
G1 X55.4237 Y-231.0051
G1 X55.9227 Y-230.5956
G1 X55.7373 Y-230.8526
G1 X55.4735 Y-230.9952
G1 Z0.0000 F2500.0
G4 P0.02
G0 X50.3235 Y-227.2247 F15000.0
G1 Z11.9000 F2500.0
G4 P0.02
G1 X50.0589 Y-227.0605 F12000.0
G1 X48.9291 Y-227.2776
G1 X49.3618 Y-227.0161
G1 X49.9527 Y-227.0341
G1 X50.4100 Y-227.2860
G1 X50.6826 Y-227.7854
G1 X50.8131 Y-228.3647
G1 X50.8637 Y-229.4350
G1 X50.6176 Y-230.4737
G1 X50.2336 Y-230.9388
G1 X49.5500 Y-231.0682
G1 X49.2123 Y-231.0047
G1 X48.9013 Y-230.7795
G1 X49.0917 Y-230.9527
G1 X48.8047 Y-230.6073
G1 X48.5260 Y-229.8230
G1 X48.5843 Y-228.0391
G1 X48.8521 Y-227.3626
G1 Z0.0000 F2500.0
G4 P0.02
G0 X47.1048 Y-227.6845 F15000.0
G1 Z11.9000 F2500.0
G4 P0.02
G1 X47.2261 Y-228.1990 F12000.0
G1 X47.0636 Y-227.6101
G1 X46.8027 Y-227.2209
G1 X46.5341 Y-227.0569
G1 X45.8284 Y-227.0152
G1 X45.3417 Y-227.3161
G1 X45.1319 Y-227.6962
G1 X45.0289 Y-228.1509
G1 X44.9643 Y-229.7003
G1 X45.3174 Y-230.7037
G1 X45.7403 Y-231.0432
G1 X46.5530 Y-230.9840
G1 X47.0462 Y-230.5445
G1 X47.2573 Y-229.7958
G1 X47.1306 Y-230.3204
G1 X46.8608 Y-230.8037
G1 X46.5223 Y-230.9584
G1 X45.3732 Y-230.6491
G1 X45.2170 Y-230.5020
G1 X45.0356 Y-230.0755
G1 Z0.0000 F2500.0
G4 P0.02
G0 X47.2887 Y-229.7077 F15000.0
G1 Z11.9000 F2500.0
G4 P0.02
G1 X47.2428 Y-228.2823 F12000.0
G1 Z0.0000 F2500.0
G4 P0.02
G0 X41.4031 Y-227.1327 F15000.0
G1 Z11.9000 F2500.0
G4 P0.02
G1 X41.2560 Y-227.0612 F12000.0
G1 X40.1127 Y-227.2716
G1 X40.5083 Y-227.0252
G1 X41.2130 Y-227.0499
G1 X41.6089 Y-227.3171
G1 X41.8569 Y-227.7959
G1 X42.0008 Y-228.6109
G1 X41.9991 Y-229.5669
G1 X41.7831 Y-230.4876
G1 X41.4799 Y-230.8920
G1 X41.1802 Y-231.0145
G1 X40.5895 Y-231.0688
G1 X40.0764 Y-230.7849
G1 X40.2589 Y-230.9474
G1 X40.0277 Y-230.6975
G1 X39.7465 Y-230.0408
G1 X39.6649 Y-229.5723
G1 X39.8082 Y-227.7967
G1 X40.0236 Y-227.3626
G1 Z0.0000 F2500.0
G4 P0.02
G0 X38.4602 Y-227.8684 F15000.0
G1 Z11.9000 F2500.0
G4 P0.02
G1 X38.0456 Y-227.2027 F12000.0
G1 X37.8100 Y-227.0578
G1 X37.2284 Y-226.9669
G1 X36.6620 Y-227.1378
G1 X36.5003 Y-227.2803
G1 X36.1904 Y-228.1729
G1 X36.2870 Y-228.5053
G1 X36.9475 Y-229.3433
G1 X37.7195 Y-230.0066
G1 X38.2505 Y-230.9235
G1 X36.1611 Y-230.9952
G1 Z0.0000 F2500.0
G4 P0.02
G0 X37.1727 Y-229.5238 F15000.0
G1 Z11.9000 F2500.0
G4 P0.02
G1 X37.6785 Y-229.9836 F12000.0
G1 Z0.0000 F2500.0
G4 P0.02
G0 X36.3910 Y-228.7421 F15000.0
G1 Z11.9000 F2500.0
G4 P0.02
G1 X36.2991 Y-228.5581 F12000.0
G1 Z0.0000 F2500.0
G4 P0.02
G0 X73.0386 Y-230.9492 F15000.0
G1 Z11.9000 F2500.0
G4 P0.02
G1 X73.2092 Y-227.4110 F12000.0
G1 X73.5628 Y-227.5986
G1 X73.7836 Y-228.0177
G1 X73.6304 Y-227.6826
G1 X74.8279 Y-230.6257
G1 X74.7766 Y-230.6623
G1 X74.9612 Y-230.6568
G1 X76.1205 Y-227.8050
G1 X76.5952 Y-227.3689
G1 X76.2349 Y-227.6049
G1 X76.7034 Y-227.4255
G1 X76.7944 Y-227.5488
G1 X76.8091 Y-230.9492
G1 Z0.0000 F2500.0
G4 P0.02
G0 X74.9698 Y-230.7193 F15000.0
G1 Z11.9000 F2500.0
G4 P0.02
G1 X74.9238 Y-230.9492 F12000.0
G1 Z0.0000 F2500.0
G4 P0.02
G0 X38.2775 Y-238.4241 F15000.0
G1 Z11.9000 F2500.0
G4 P0.02
G1 X37.1279 Y-238.4241 F12000.0
G1 Z0.0000 F2500.0
G4 P0.02
G0 X37.7257 Y-238.4241 F15000.0
G1 Z11.9000 F2500.0
G4 P0.02
G1 X37.6797 Y-239.8495 F12000.0
G1 Z0.0000 F2500.0
G4 P0.02
G0 X38.8293 Y-239.8955 F15000.0
G1 Z11.9000 F2500.0
G4 P0.02
G1 X38.8903 Y-238.7437 F12000.0
G1 X39.7869 Y-239.6138
G1 X39.8556 Y-239.4580
G1 X39.9073 Y-238.5533
G1 X39.2715 Y-238.9936
G1 X38.9384 Y-238.6954
G1 X38.8293 Y-238.4701
G1 Z0.0000 F2500.0
G4 P0.02
G0 X39.3811 Y-239.2058 F15000.0
G1 Z11.9000 F2500.0
G4 P0.02
G1 X39.7029 Y-239.6196 F12000.0
G1 Z0.0000 F2500.0
G4 P0.02
G0 X40.6685 Y-239.8495 F15000.0
G1 Z11.9000 F2500.0
G4 P0.02
G1 X40.7274 Y-237.8693 F12000.0
G1 X41.9560 Y-239.8495
G1 Z0.0000 F2500.0
G4 P0.02
G0 X27.7533 Y-238.3431 F15000.0
G1 Z11.9000 F2500.0
G4 P0.02
G1 X27.8256 Y-238.5913 F12000.0
G1 X27.6917 Y-238.2235
G1 X27.3708 Y-237.7959
G1 X27.4299 Y-238.0427
G1 X27.2934 Y-239.4926
G1 Z0.0000 F2500.0
G4 P0.02
G0 X28.1671 Y-239.3087 F15000.0
G1 Z11.9000 F2500.0
G4 P0.02
G1 X28.2164 Y-239.3481 F12000.0
G1 X27.8861 Y-238.7401
G1 X28.1362 Y-239.2754
G1 X28.2914 Y-239.2612
G1 X29.0382 Y-237.8464
G1 X29.1109 Y-237.9458
G1 X29.1787 Y-239.5386
G1 Z0.0000 F2500.0
G4 P0.02
G0 X26.4658 Y-238.2511 F15000.0
G1 Z11.9000 F2500.0
G4 P0.02
G1 X26.2756 Y-238.1628 F12000.0
G1 X25.6217 Y-238.7009
G1 X26.4695 Y-238.9755
G1 X26.6149 Y-239.2721
G1 X26.4538 Y-239.5511
G1 X26.2418 Y-239.5977
G1 X25.5908 Y-239.4085
G1 X25.5150 Y-239.4551
G1 X25.5647 Y-238.8387
G1 X24.8475 Y-238.5025
G1 X24.8791 Y-239.0440
G1 X24.6992 Y-239.4634
G1 X24.4068 Y-239.6022
G1 X23.8908 Y-239.4466
G1 Z0.0000 F2500.0
G4 P0.02
G0 X23.8448 Y-238.3431 F15000.0
G1 Z11.9000 F2500.0
G4 P0.02
G1 X24.0349 Y-238.1689 F12000.0
G1 X24.4844 Y-238.1402
G1 X24.7039 Y-238.2926
G1 X24.3673 Y-238.1484
G1 X23.2839 Y-238.4923
G1 X23.3122 Y-239.0590
G1 X23.1246 Y-239.4715
G1 X22.8286 Y-239.6033
G1 X22.3923 Y-239.4527
G1 X22.2895 Y-239.2711
G1 X22.3103 Y-238.3164
G1 X22.5554 Y-238.1338
G1 X23.0016 Y-238.1848
G1 X23.2011 Y-238.3431
G1 Z0.0000 F2500.0
G4 P0.02
G0 X21.5917 Y-238.2511 F15000.0
G1 Z11.9000 F2500.0
G4 P0.02
G1 X21.4015 Y-238.1628 F12000.0
G1 X20.7476 Y-238.7009
G1 X21.5955 Y-238.9755
G1 X21.7409 Y-239.2721
G1 X21.5797 Y-239.5511
G1 X21.3678 Y-239.5977
G1 X20.7167 Y-239.4085
G1 X20.6409 Y-239.4551
G1 X20.6721 Y-238.8029
G1 Z0.0000 F2500.0
G4 P0.02
G0 X1.8098 Y-237.7661 F15000.0
G1 Z11.9000 F2500.0
G4 P0.02
G1 X2.8430 Y-238.0469 F12000.0
G1 X3.0502 Y-238.3493
G1 X3.0516 Y-238.6663
G1 X2.0574 Y-238.6421
G1 X1.8153 Y-239.0143
G1 X1.7816 Y-239.2467
G1 X1.8481 Y-239.4518
G1 X2.5293 Y-240.0636
G1 X2.7868 Y-239.8906
G1 X3.0581 Y-238.8767
G1 X2.7663 Y-238.6305
G1 X3.0514 Y-238.8237
G1 Z0.0000 F2500.0
G4 P0.02
G0 X3.8330 Y-239.0996 F15000.0
G1 Z11.9000 F2500.0
G4 P0.02
G1 X3.8026 Y-239.6925 F12000.0
G1 X3.8859 Y-239.8972
G1 X4.4752 Y-240.0797
G1 X4.9087 Y-239.8211
G1 X3.9597 Y-239.1769
G1 X3.8434 Y-239.0014
G1 X3.8825 Y-238.6748
G1 X4.5444 Y-238.5233
G1 X4.7967 Y-238.5844
G1 X4.7067 Y-238.5018
G1 Z0.0000 F2500.0
G4 P0.02
G0 X5.4884 Y-238.5018 F15000.0
G1 Z11.9000 F2500.0
G4 P0.02
G1 X6.6379 Y-238.5018 F12000.0
G1 Z0.0000 F2500.0
G4 P0.02
G0 X7.1437 Y-238.5478 F15000.0
G1 Z11.9000 F2500.0
G4 P0.02
G1 X8.1094 Y-240.0192 F12000.0
G1 Z0.0000 F2500.0
G4 P0.02
G0 X8.1553 Y-238.5478 F15000.0
G1 Z11.9000 F2500.0
G4 P0.02
G1 X8.1779 Y-239.9663 F12000.0
G1 X8.3401 Y-240.0478
G1 X8.9307 Y-239.9902
G1 X9.0968 Y-239.9014
G1 X9.1210 Y-238.5478
G1 Z0.0000 F2500.0
G4 P0.02
G0 X9.7647 Y-238.7777 F15000.0
G1 Z11.9000 F2500.0
G4 P0.02
G1 X9.9922 Y-238.5281 F12000.0
G1 X10.5576 Y-238.5498
G1 X10.7803 Y-238.8127
G1 X10.8939 Y-239.3892
G1 X10.6642 Y-239.9187
G1 X10.2478 Y-240.0756
G1 X9.9225 Y-239.9561
G1 X9.7596 Y-239.7702
G1 X9.8107 Y-239.8813
G1 Z0.0000 F2500.0
G4 P0.02
G0 X11.5580 Y-239.8353 F15000.0
G1 Z11.9000 F2500.0
G4 P0.02
G1 X11.5566 Y-239.1929 F12000.0
G1 X11.6205 Y-239.8944
G1 X12.2132 Y-240.0760
G1 X12.6283 Y-239.8135
G1 X11.6729 Y-239.1687
G1 X11.5650 Y-238.9887
G1 X11.6161 Y-238.6657
G1 X12.2837 Y-238.5220
G1 X12.5187 Y-238.5795
G1 X12.4316 Y-238.5018
G1 Z0.0000 F2500.0
G4 P0.02
G0 X13.5812 Y-238.1340 F15000.0
G1 Z11.9000 F2500.0
G4 P0.02
G1 X13.9545 Y-238.7425 F12000.0
G1 X13.5939 Y-238.2271
G1 X13.4892 Y-240.0192
G1 Z0.0000 F2500.0
G4 P0.02
G0 X14.4089 Y-239.8353 F15000.0
G1 Z11.9000 F2500.0
G4 P0.02
G1 X14.1747 Y-239.3621 F12000.0
G1 X14.2516 Y-239.6222
G1 X14.0771 Y-239.0877
G1 X14.4480 Y-239.7658
G1 X15.2327 Y-238.3642
G1 X15.4064 Y-238.1868
G1 X15.3862 Y-238.0797
G1 X15.4665 Y-239.9732
G1 Z0.0000 F2500.0
G4 P0.02
G0 X6.0402 Y-240.0192 F15000.0
G1 Z11.9000 F2500.0
G4 P0.02
G1 X6.0862 Y-238.5018 F12000.0
G1 Z0.0000 F2500.0
G4 P0.02
G0 X2.9134 Y-239.8353 F15000.0
G1 Z11.9000 F2500.0
G4 P0.02
G1 X2.7755 Y-239.9732 F12000.0
G1 Z0.0000 F2500.0
G4 P0.02
G0 X148.9111 Y-242.5108 F15000.0
G1 Z11.9000 F2500.0
G4 P0.02
G1 X148.9400 Y-243.8867 F12000.0
G1 X149.0828 Y-243.9539
G1 X149.3082 Y-243.9007
G1 X149.0361 Y-244.0205
G1 X149.5153 Y-243.5841
G1 X149.4893 Y-243.6388
G1 X149.5804 Y-243.4133
G1 X150.1141 Y-242.8480
G1 X150.2636 Y-242.8361
G1 X150.2905 Y-244.2581
G1 Z0.0000 F2500.0
G4 P0.02
G0 X149.5548 Y-243.5224 F15000.0
G1 Z11.9000 F2500.0
G4 P0.02
G1 X149.9537 Y-242.9574 F12000.0
G1 X150.1986 Y-242.7867
G1 Z0.0000 F2500.0
G4 P0.02
G0 X148.4513 Y-243.1545 F15000.0
G1 Z11.9000 F2500.0
G4 P0.02
G1 X148.3930 Y-243.5929 F12000.0
G1 X147.8675 Y-243.6347
G1 X147.9307 Y-243.7932
G1 X147.7550 Y-244.1057
G1 X147.9740 Y-243.8481
G1 X148.3739 Y-243.7225
G1 X148.0145 Y-243.7705
G1 X147.7483 Y-243.5206
G1 X147.7964 Y-243.1440
G1 X147.8932 Y-242.9821
G1 X148.0506 Y-242.9075
G1 X148.2673 Y-242.9706
G1 Z0.0000 F2500.0
G4 P0.02
G0 X146.4079 Y-244.2581 F15000.0
G1 Z11.9000 F2500.0
G4 P0.02
G1 X145.4757 Y-244.2719 F12000.0
G1 X145.4193 Y-244.2005
G1 X145.4953 Y-243.0604
G1 X146.5532 Y-244.4179
G1 X146.5548 Y-244.6077
G1 X145.3743 Y-244.2901
G1 X145.1353 Y-244.6694
G1 X144.0273 Y-244.2926
G1 X143.7025 Y-244.1092
G1 X143.0796 Y-244.1892
G1 X142.9974 Y-243.6602
G1 X142.6084 Y-243.4098
G1 X142.2020 Y-242.9991
G1 X141.9787 Y-242.9734
G1 X141.7970 Y-243.0553
G1 X141.4441 Y-243.9038
G1 X141.0520 Y-243.7779
G1 X140.7787 Y-243.0433
G1 X140.7923 Y-243.1635
G1 X140.2982 Y-243.3180
G1 X140.2590 Y-244.1999
G1 X139.6381 Y-244.2211
G1 X139.1926 Y-243.4251
G1 X139.0471 Y-243.3120
G1 X138.9129 Y-244.2581
G1 Z0.0000 F2500.0
G4 P0.02
G0 X139.6026 Y-244.0742 F15000.0
G1 Z11.9000 F2500.0
G4 P0.02
G1 X140.2004 Y-243.2005 F12000.0
G1 Z0.0000 F2500.0
G4 P0.02
G0 X141.1200 Y-243.9822 F15000.0
G1 Z11.9000 F2500.0
G4 P0.02
G1 X141.3643 Y-243.9863 F12000.0
G1 X141.0522 Y-243.7712
G1 X140.9640 Y-243.5597
G1 X141.4141 Y-244.7165
G1 X141.7178 Y-244.9478
G1 Z0.0000 F2500.0
G4 P0.02
G0 X142.3155 Y-244.2581 F15000.0
G1 Z11.9000 F2500.0
G4 P0.02
G1 X142.5966 Y-243.5715 F12000.0
G1 X142.6046 Y-243.7081
G1 X143.0135 Y-243.5353
G1 X143.0512 Y-243.0166
G1 Z0.0000 F2500.0
G4 P0.02
G0 X143.7410 Y-243.1545 F15000.0
G1 Z11.9000 F2500.0
G4 P0.02
G1 X143.9524 Y-243.0130 F12000.0
G1 X143.7572 Y-243.3325
G1 X143.6762 Y-243.8014
G1 X143.7303 Y-244.0068
G1 X144.1110 Y-244.2565
G1 X144.3396 Y-244.2717
G1 X144.5441 Y-244.1766
G1 X144.6771 Y-244.0041
G1 X144.7712 Y-243.6708
G1 X144.6473 Y-243.2203
G1 X144.4813 Y-243.0719
G1 X144.0169 Y-242.9706
G1 Z0.0000 F2500.0
G4 P0.02
G0 X144.5686 Y-243.0626 F15000.0
G1 Z11.9000 F2500.0
G4 P0.02
G1 X144.6146 Y-243.1545 F12000.0
G1 Z0.0000 F2500.0
G4 P0.02
G0 X128.4872 Y-244.1441 F15000.0
G1 Z11.9000 F2500.0
G4 P0.02
G1 X128.5860 Y-242.3962 F12000.0
G1 X129.8667 Y-244.1441
G1 Z0.0000 F2500.0
G4 P0.02
G0 X127.1078 Y-242.8567 F15000.0
G1 Z11.9000 F2500.0
G4 P0.02
G1 X127.6597 Y-242.9957 F12000.0
G1 X127.8652 Y-243.5909
G1 X127.7541 Y-243.9227
G1 X127.6094 Y-244.0852
G1 X127.2826 Y-244.1598
G1 X126.8959 Y-244.0191
G1 X126.9368 Y-244.0880
G1 X126.7701 Y-243.8283
G1 X126.8706 Y-243.1326
G1 X127.0364 Y-242.9058
G1 X126.8319 Y-243.0406
G1 Z0.0000 F2500.0
G4 P0.02
G0 X126.3721 Y-244.1901 F15000.0
G1 Z11.9000 F2500.0
G4 P0.02
G1 X126.3980 Y-244.4795 F12000.0
G1 X126.1536 Y-244.0383
G1 X125.3086 Y-242.9379
G1 X125.2529 Y-244.1071
G1 X125.3225 Y-244.1650
G1 X126.1448 Y-244.1455
G1 X125.1543 Y-244.1935
G1 X125.0076 Y-244.5396
G1 X124.4883 Y-244.1306
G1 X123.5961 Y-242.9318
G1 X123.5212 Y-244.1441
G1 Z0.0000 F2500.0
G4 P0.02
G0 X169.0263 Y-242.5960 F15000.0
G1 Z11.9000 F2500.0
G4 P0.02
G1 X168.9339 Y-244.2312 F12000.0
G1 X168.6398 Y-243.9424
G1 X167.9762 Y-243.0227
G1 X168.1585 Y-243.2617
G1 X167.6841 Y-242.7546
G1 X167.7652 Y-243.0030
G1 X167.6642 Y-244.1876
G1 X167.5838 Y-244.3618
G1 X166.6639 Y-244.4014
G1 X166.2564 Y-244.2179
G1 X166.3424 Y-243.8310
G1 X166.4897 Y-243.7448
G1 X166.2958 Y-243.6098
G1 X166.3376 Y-243.1915
G1 X166.6626 Y-243.1209
G1 X166.8876 Y-243.2788
G1 X165.6156 Y-243.4653
G1 X165.6167 Y-244.3122
G1 X165.5213 Y-243.3902
G1 X164.8963 Y-244.2986
G1 X164.5484 Y-243.5926
G1 X164.3492 Y-243.4655
G1 X164.2442 Y-244.3893
G1 Z0.0000 F2500.0
G4 P0.02
G0 X161.7195 Y-242.5501 F15000.0
G1 Z11.9000 F2500.0
G4 P0.02
G1 X160.8267 Y-242.5745 F12000.0
G1 X160.7702 Y-242.6391
G1 X160.6554 Y-244.3421
G1 X160.1116 Y-244.2132
G1 X159.6093 Y-243.9104
G1 X159.0472 Y-243.2363
G1 X159.1905 Y-243.3777
G1 Z0.0000 F2500.0
G4 P0.02
G0 X160.0182 Y-243.1478 F15000.0
G1 Z11.9000 F2500.0
G4 P0.02
G1 X159.9544 Y-244.0736 F12000.0
G1 X159.7737 Y-244.0932
G1 X159.8662 Y-244.1430
G1 Z0.0000 F2500.0
G4 P0.02
G0 X159.7275 Y-244.0836 F15000.0
G1 Z11.9000 F2500.0
G4 P0.02
G1 X159.3993 Y-243.6138 F12000.0
G1 X159.1734 Y-243.4456
G1 X159.0066 Y-244.3893
G1 Z0.0000 F2500.0
G4 P0.02
G0 X157.4892 Y-244.2974 F15000.0
G1 Z11.9000 F2500.0
G4 P0.02
G1 X157.4553 Y-244.2379 F12000.0
G1 X157.8338 Y-244.3996
G1 X158.3304 Y-244.1326
G1 X158.3929 Y-243.7974
G1 X158.2943 Y-243.3539
G1 X157.7542 Y-243.1407
G1 X156.0637 Y-243.1018
G1 Z0.0000 F2500.0
G4 P0.02
G0 X156.5695 Y-243.1018 F15000.0
G1 Z11.9000 F2500.0
G4 P0.02
G1 X156.5236 Y-244.3893 F12000.0
G1 Z0.0000 F2500.0
G4 P0.02
G0 X162.0414 Y-244.4813 F15000.0
G1 Z11.9000 F2500.0
G4 P0.02
G1 X161.8884 Y-244.4110 F12000.0
G1 X161.8130 Y-244.2288
G1 X161.7655 Y-242.6420
G1 Z0.0000 F2500.0
G4 P0.02
G0 X118.2744 Y-242.4275 F15000.0
G1 Z11.9000 F2500.0
G4 P0.02
G1 X117.2929 Y-242.4834 F12000.0
G1 X117.2026 Y-244.4226
G1 X117.0600 Y-244.5056
G1 X117.0038 Y-244.9058
G1 X117.3248 Y-244.4702
G1 X118.4894 Y-244.4313
G1 X118.7697 Y-244.9136
G1 X118.7664 Y-244.6175
G1 X118.5106 Y-244.2748
G1 X118.4145 Y-243.9334
G1 X118.3204 Y-242.5194
G1 Z0.0000 F2500.0
G4 P0.02
G0 X116.2512 Y-243.1172 F15000.0
G1 Z11.9000 F2500.0
G4 P0.02
G1 X116.2910 Y-243.1741 F12000.0
G1 X116.1281 Y-243.0787
G1 X115.6650 Y-243.0490
G1 X115.4640 Y-243.1588
G1 X115.3454 Y-243.3436
G1 X115.4220 Y-243.6247
G1 X116.1027 Y-243.7926
G1 X116.4425 Y-244.2229
G1 X116.2657 Y-244.4853
G1 X116.0430 Y-244.5163
G1 X115.3254 Y-244.3674
G1 X115.3162 Y-243.6841
G1 X114.8796 Y-243.1452
G1 X114.6719 Y-243.0737
G1 X113.7222 Y-243.0712
G1 Z0.0000 F2500.0
G4 P0.02
G0 X114.3200 Y-243.0712 F15000.0
G1 Z11.9000 F2500.0
G4 P0.02
G1 X114.2740 Y-244.4507 F12000.0
G1 Z0.0000 F2500.0
G4 P0.02
G0 X113.0784 Y-243.1172 F15000.0
G1 Z11.9000 F2500.0
G4 P0.02
G1 X113.1183 Y-243.1741 F12000.0
G1 X112.9554 Y-243.0787
G1 X112.4923 Y-243.0490
G1 X112.2145 Y-243.2410
G1 X112.1841 Y-243.5580
G1 X113.0292 Y-243.8434
G1 X113.2697 Y-244.2229
G1 X113.0929 Y-244.4854
G1 X112.1217 Y-244.4470
G1 X112.1838 Y-243.7424
G1 X112.1831 Y-244.4320
G1 X112.4515 Y-244.4737
G1 X112.3887 Y-244.4047
G1 Z0.0000 F2500.0
G4 P0.02
G0 X78.4735 Y-243.9297 F15000.0
G1 Z11.9000 F2500.0
G4 P0.02
G1 X78.8086 Y-244.4142 F12000.0
G1 X79.4867 Y-244.5988
G1 X80.2535 Y-244.4024
G1 X80.4100 Y-244.2270
G1 X80.3128 Y-244.3435
G1 Z0.0000 F2500.0
G4 P0.02
G0 X81.2324 Y-245.9529 F15000.0
G1 Z11.9000 F2500.0
G4 P0.02
G1 X81.0606 Y-249.5619 F12000.0
G1 X81.1159 Y-249.7722
G1 X78.7215 Y-246.6201
G1 X78.1750 Y-246.4440
G1 X78.0635 Y-249.7497
G1 X77.9956 Y-249.9254
G1 X76.0288 Y-249.9151
G1 X75.9905 Y-247.9301
G1 Z0.0000 F2500.0
G4 P0.02
G0 X75.9905 Y-245.9529 F15000.0
G1 Z11.9000 F2500.0
G4 P0.02
G1 X75.9703 Y-247.8446 F12000.0
G1 X75.9126 Y-247.9036
G1 X75.1045 Y-247.8763
G1 X74.8325 Y-247.6914
G1 Z0.0000 F2500.0
G4 P0.02
G0 X74.4864 Y-247.2691 F15000.0
G1 Z11.9000 F2500.0
G4 P0.02
G1 X74.9457 Y-247.8202 F12000.0
G1 X74.9149 Y-247.9797
G1 X74.2943 Y-248.6632
G1 X73.4989 Y-249.9647
G1 X72.8637 Y-250.3671
G1 Z0.0000 F2500.0
G4 P0.02
G0 X71.6222 Y-248.4359 F15000.0
G1 Z11.9000 F2500.0
G4 P0.02
G1 X71.5762 Y-248.3439 F12000.0
G1 Z0.0000 F2500.0
G4 P0.02
G0 X71.9441 Y-246.7806 F15000.0
G1 Z11.9000 F2500.0
G4 P0.02
G1 X71.2987 Y-246.1314 F12000.0
G1 X70.4216 Y-245.8051
G1 X69.2419 Y-245.9079
G1 X68.7626 Y-246.2261
G1 X68.5712 Y-247.3915
G1 X68.5985 Y-247.5850
G1 X70.7992 Y-247.9990
G1 X71.6090 Y-248.4066
G1 X70.8662 Y-248.0038
G1 X71.3531 Y-248.1792
G1 X71.5245 Y-248.3316
G1 X71.8184 Y-249.2185
G1 X71.7099 Y-249.5529
G1 X71.5602 Y-249.7084
G1 X70.4344 Y-250.0976
G1 X70.2066 Y-250.0970
G1 X69.5248 Y-249.8827
G1 X68.6140 Y-249.3315
G1 X68.5486 Y-249.1324
G1 X68.5874 Y-247.6542
G1 Z0.0000 F2500.0
G4 P0.02
G0 X68.5874 Y-249.3555 F15000.0
G1 Z11.9000 F2500.0
G4 P0.02
G1 X67.8977 Y-250.3671 F12000.0
G1 Z0.0000 F2500.0
G4 P0.02
G0 X68.9553 Y-249.5395 F15000.0
G1 Z11.9000 F2500.0
G4 P0.02
G1 X69.5071 Y-249.9073 F12000.0
G1 Z0.0000 F2500.0
G4 P0.02
G0 X73.2776 Y-245.8609 F15000.0
G1 Z11.9000 F2500.0
G4 P0.02
G1 X73.7307 Y-245.9996 F12000.0
G1 X74.0391 Y-246.3439
G1 X74.3914 Y-247.1164
G1 Z0.0000 F2500.0
G4 P0.02
G0 X74.0919 Y-246.4430 F15000.0
G1 Z11.9000 F2500.0
G4 P0.02
G1 X74.1972 Y-246.6886 F12000.0
G1 Z0.0000 F2500.0
G4 P0.02
G0 X78.0597 Y-245.9989 F15000.0
G1 Z11.9000 F2500.0
G4 P0.02
G1 X78.2704 Y-246.4019 F12000.0
G1 X78.7034 Y-246.5966
G1 Z0.0000 F2500.0
G4 P0.02
G0 X83.3476 Y-247.6542 F15000.0
G1 Z11.9000 F2500.0
G4 P0.02
G1 X83.3465 Y-249.3023 F12000.0
G1 X84.2448 Y-249.8625
G1 X85.0378 Y-250.1073
G1 X86.3781 Y-249.6714
G1 X86.5858 Y-249.1476
G1 X86.4053 Y-248.4858
G1 X86.0823 Y-248.1581
G1 X86.1216 Y-248.2124
G1 X85.5077 Y-247.9845
G1 X83.3385 Y-247.5518
G1 X83.4659 Y-246.3919
G1 X83.5545 Y-246.1864
G1 X83.9393 Y-245.9237
G1 X85.0023 Y-245.7856
G1 X86.0974 Y-246.1560
G1 X86.6257 Y-246.7486
G1 X86.6234 Y-246.9364
G1 X86.0296 Y-248.0785
G1 X85.5547 Y-247.9761
G1 Z0.0000 F2500.0
G4 P0.02
G0 X83.5271 Y-249.4475 F15000.0
G1 Z11.9000 F2500.0
G4 P0.02
G1 X83.3364 Y-249.4214 F12000.0
G1 X82.6579 Y-250.3671
G1 Z0.0000 F2500.0
G4 P0.02
G0 X87.3480 Y-244.0676 F15000.0
G1 Z11.9000 F2500.0
G4 P0.02
G1 X90.6729 Y-244.0904 F12000.0
G1 X90.7311 Y-244.1522
G1 X90.7967 Y-249.9073
G1 Z0.0000 F2500.0
G4 P0.02
G0 X160.1018 Y-245.5174 F15000.0
G1 Z11.9000 F2500.0
G4 P0.02
G1 X161.0151 Y-245.6948 F12000.0
G1 X161.1331 Y-245.8280
G1 X161.2212 Y-246.1506
G1 X161.1355 Y-247.1349
G1 X160.9991 Y-247.3170
G1 X160.6812 Y-247.4117
G1 X160.3474 Y-247.2992
G1 X160.1787 Y-247.1525
G1 X160.1274 Y-246.9365
G1 X160.2989 Y-246.2594
G1 X160.4905 Y-246.1531
G1 X160.8373 Y-246.1522
G1 X161.0870 Y-246.2754
G1 X160.4566 Y-246.1894
G1 X160.2707 Y-246.2755
G1 X160.1965 Y-246.4632
G1 X160.2397 Y-247.2648
G1 Z0.0000 F2500.0
G4 P0.02
G0 X161.8491 Y-247.4027 F15000.0
G1 Z11.9000 F2500.0
G4 P0.02
G1 X161.9569 Y-247.2334 F12000.0
G1 X161.9122 Y-246.6577
G1 X162.0417 Y-246.2132
G1 X162.2221 Y-246.1555
G1 X162.7565 Y-246.3567
G1 X162.8572 Y-247.1497
G1 X162.7884 Y-247.3507
G1 X162.5889 Y-247.4261
G1 X161.8581 Y-247.3910
G1 X161.9689 Y-246.7651
G1 X162.5654 Y-246.8326
G1 X162.1347 Y-247.3071
G1 X161.9870 Y-247.3107
G1 Z0.0000 F2500.0
G4 P0.02
G0 X163.4584 Y-247.1268 F15000.0
G1 Z11.9000 F2500.0
G4 P0.02
G1 X163.5044 Y-247.2188 F12000.0
G1 Z0.0000 F2500.0
G4 P0.02
G0 X164.4241 Y-247.2648 F15000.0
G1 Z11.9000 F2500.0
G4 P0.02
G1 X163.8585 Y-247.4184 F12000.0
G1 X163.6540 Y-247.3495
G1 X163.4384 Y-247.0233
G1 X163.5323 Y-246.3288
G1 X163.6861 Y-246.1699
G1 X164.1400 Y-246.1731
G1 X164.4013 Y-246.3588
G1 X164.4700 Y-248.0005
G1 Z0.0000 F2500.0
G4 P0.02
G0 X165.7575 Y-247.4027 F15000.0
G1 Z11.9000 F2500.0
G4 P0.02
G1 X165.4230 Y-247.3779 F12000.0
G1 X165.1342 Y-247.2166
G1 X165.2493 Y-246.8268
G1 X165.3891 Y-246.7608
G1 X165.2224 Y-246.6916
G1 X165.1841 Y-246.2642
G1 X165.4650 Y-246.1391
G1 X165.6789 Y-246.1694
G1 X165.8495 Y-246.3451
G1 Z0.0000 F2500.0
G4 P0.02
G0 X166.5852 Y-246.1612 F15000.0
G1 Z11.9000 F2500.0
G4 P0.02
G1 X166.4697 Y-246.6232 F12000.0
G1 X166.4692 Y-247.3476
G1 X166.7649 Y-247.2553
G1 X167.1152 Y-246.8391
G1 X166.5253 Y-246.7575
G1 X166.4111 Y-247.3851
G1 X167.2321 Y-247.4065
G1 X167.3581 Y-246.9411
G1 X167.2405 Y-246.8615
G1 X167.4159 Y-247.2351
G1 X167.3363 Y-246.3787
G1 X166.6772 Y-246.1152
G1 Z0.0000 F2500.0
G4 P0.02
G0 X167.9187 Y-246.2072 F15000.0
G1 Z11.9000 F2500.0
G4 P0.02
G1 X168.0053 Y-245.8570 F12000.0
G1 X169.1313 Y-245.6032
G1 X169.2122 Y-245.7502
G1 X169.2494 Y-247.3185
G1 X169.1526 Y-246.5938
G1 X167.9647 Y-246.2991
G1 Z0.0000 F2500.0
G4 P0.02
G0 X152.8886 Y-247.1591 F15000.0
G1 Z11.9000 F2500.0
G4 P0.02
G1 X152.8380 Y-247.8726 F12000.0
G1 X152.7377 Y-248.0748
G1 X152.4407 Y-248.2356
G1 X151.6420 Y-248.1149
G1 X151.5579 Y-248.2512
G1 X151.5551 Y-248.8703
G1 X151.5189 Y-247.2245
G1 X150.9428 Y-247.7333
G1 X150.5944 Y-248.5950
G1 X150.4185 Y-248.5982
G1 X150.2022 Y-248.4764
G1 X149.9270 Y-247.7398
G1 X149.9401 Y-247.8544
G1 X149.4496 Y-248.0103
G1 X149.4400 Y-248.9524
G1 Z0.0000 F2500.0
G4 P0.02
G0 X150.2676 Y-248.6765 F15000.0
G1 Z11.9000 F2500.0
G4 P0.02
G1 X150.5119 Y-248.6806 F12000.0
G1 X150.1999 Y-248.4656
G1 X150.1117 Y-248.2540
G1 X150.3962 Y-248.8086
G1 X150.5317 Y-249.3549
G1 X150.6661 Y-249.5426
G1 X150.8654 Y-249.6421
G1 Z0.0000 F2500.0
G4 P0.02
G0 X149.3020 Y-247.9408 F15000.0
G1 Z11.9000 F2500.0
G4 P0.02
G1 X148.7705 Y-248.6937 F12000.0
G1 X148.7346 Y-248.8591
G1 X148.3643 Y-248.1569
G1 X148.1657 Y-248.0282
G1 X148.0313 Y-248.8957
G1 X147.3898 Y-248.7358
G1 X147.0018 Y-248.4677
G1 X146.3757 Y-247.7448
G1 X145.8648 Y-247.7855
G1 X145.7001 Y-248.3159
G1 X145.3904 Y-248.4269
G1 X144.9489 Y-248.4477
G1 X144.8878 Y-248.8566
G1 X144.8593 Y-247.7753
G1 X144.2459 Y-248.2301
G1 X143.2317 Y-248.1780
G1 X143.2462 Y-247.9832
G1 X143.3795 Y-247.8111
G1 X143.9362 Y-247.7086
G1 X144.1946 Y-247.9276
G1 X144.2653 Y-248.1478
G1 X144.2007 Y-248.7196
G1 X144.0482 Y-248.8691
G1 X143.4851 Y-248.9587
G1 X142.6367 Y-248.3198
G1 X141.9420 Y-248.3036
G1 X141.6717 Y-248.4810
G1 X141.6297 Y-248.7026
G1 X141.7150 Y-248.9524
G1 Z0.0000 F2500.0
G4 P0.02
G0 X141.7150 Y-247.8028 F15000.0
G1 Z11.9000 F2500.0
G4 P0.02
G1 X141.6042 Y-248.7434 F12000.0
G1 X141.8205 Y-248.9601
G1 X142.4508 Y-248.4812
G1 X142.5503 Y-248.3046
G1 X141.8530 Y-247.6649
G1 Z0.0000 F2500.0
G4 P0.02
G0 X146.4052 Y-248.9524 F15000.0
G1 Z11.9000 F2500.0
G4 P0.02
G1 X146.5984 Y-247.9926 F12000.0
G1 X147.1652 Y-248.6698
G1 X147.3553 Y-248.6319
G1 X147.4168 Y-247.7109
G1 Z0.0000 F2500.0
G4 P0.02
G0 X167.9177 Y-251.6872 F15000.0
G1 Z11.9000 F2500.0
G4 P0.02
G1 X168.0165 Y-249.9393 F12000.0
G1 X169.2971 Y-251.6872
G1 Z0.0000 F2500.0
G4 P0.02
G0 X167.1820 Y-251.5492 F15000.0
G1 Z11.9000 F2500.0
G4 P0.02
G1 X166.6163 Y-251.7029 F12000.0
G1 X166.2815 Y-251.5142
G1 X166.1928 Y-251.3139
G1 X166.2883 Y-250.6167
G1 X166.4405 Y-250.4562
G1 X166.8938 Y-250.4568
G1 X167.1581 Y-250.6399
G1 X167.2279 Y-252.2850
G1 Z0.0000 F2500.0
G4 P0.02
G0 X164.8829 Y-250.3997 F15000.0
G1 Z11.9000 F2500.0
G4 P0.02
G1 X165.4348 Y-250.5388 F12000.0
G1 X165.6403 Y-251.1339
G1 X165.5292 Y-251.4658
G1 X165.3845 Y-251.6283
G1 X165.0577 Y-251.7029
G1 X164.6688 Y-251.5633
G1 X164.7105 Y-251.6312
G1 X164.5397 Y-251.2588
G1 X164.6948 Y-250.5754
G1 X164.8113 Y-250.4490
G1 X164.0253 Y-250.9487
G1 X163.1197 Y-251.1405
G1 X163.0004 Y-251.4481
G1 X163.0045 Y-251.3600
G1 X163.0331 Y-251.5852
G1 X163.3027 Y-251.6754
G1 X163.8303 Y-251.2111
G1 X163.9248 Y-251.0337
G1 X163.2444 Y-250.4508
G1 X163.1588 Y-250.4718
G1 X163.0718 Y-250.6654
G1 X163.0896 Y-251.6872
G1 Z0.0000 F2500.0
G4 P0.02
G0 X150.4433 Y-252.1609 F15000.0
G1 Z11.9000 F2500.0
G4 P0.02
G1 X150.8091 Y-253.1724 F12000.0
G1 X151.0440 Y-253.5187
G1 X151.1201 Y-253.9765
G1 X151.3874 Y-254.2279
G1 X151.1927 Y-254.1055
G1 X151.2198 Y-254.1750
G1 X151.0303 Y-253.4915
G1 X151.5469 Y-252.2069
G1 Z0.0000 F2500.0
G4 P0.02
G0 X152.1906 Y-253.5404 F15000.0
G1 Z11.9000 F2500.0
G4 P0.02
G1 X152.2550 Y-251.6876 F12000.0
G1 X153.6620 Y-253.5404
G1 Z0.0000 F2500.0
G4 P0.02
G0 X149.7536 Y-253.6323 F15000.0
G1 Z11.9000 F2500.0
G4 P0.02
G1 X149.9246 Y-253.4675 F12000.0
G1 X149.6914 Y-253.6365
G1 X149.3490 Y-253.6374
G1 X149.1643 Y-253.5190
G1 X149.1044 Y-253.3187
G1 X149.3049 Y-252.9259
G1 X149.4770 Y-252.8892
G1 X149.2234 Y-252.7016
G1 X149.2665 Y-252.2650
G1 X149.5758 Y-252.1868
G1 X149.8915 Y-252.2988
G1 Z0.0000 F2500.0
G4 P0.02
G0 X148.3741 Y-252.2988 F15000.0
G1 Z11.9000 F2500.0
G4 P0.02
G1 X148.1839 Y-252.2107 F12000.0
G1 X147.5302 Y-252.7487
G1 X148.2808 Y-252.9608
G1 X148.4548 Y-253.1074
G1 X148.5018 Y-253.4260
G1 X148.3622 Y-253.5990
G1 X148.1496 Y-253.6476
G1 X147.7141 Y-253.5136
G1 X147.4686 Y-252.9004
G1 X147.3756 Y-253.5395
G1 X146.7521 Y-253.4919
G1 X146.7188 Y-252.3491
G1 X146.6482 Y-252.8284
G1 X145.9587 Y-252.8855
G1 X145.7772 Y-252.8322
G1 X145.7106 Y-252.3350
G1 X145.6887 Y-253.4946
G1 X145.5378 Y-253.5518
G1 X145.0216 Y-253.4058
G1 X145.1199 Y-252.8681
G1 X144.9217 Y-252.3390
G1 X144.5662 Y-252.1640
G1 X144.2309 Y-252.2217
G1 X144.0377 Y-252.4621
G1 X143.9701 Y-253.2679
G1 X144.1781 Y-253.5690
G1 X144.0049 Y-253.3786
G1 X144.4096 Y-253.6433
G1 X144.8795 Y-253.5404
G1 Z0.0000 F2500.0
G4 P0.02
G0 X143.2701 Y-252.9426 F15000.0
G1 Z11.9000 F2500.0
G4 P0.02
G1 X143.2098 Y-252.2958 F12000.0
G1 X143.1505 Y-252.2618
G1 X142.3542 Y-252.6474
G1 X142.3989 Y-252.8623
G1 X143.1913 Y-252.9283
G1 X142.6239 Y-253.5637
G1 X142.4255 Y-253.5597
G1 X142.2932 Y-253.4074
G1 X142.3622 Y-252.7877
G1 X142.3085 Y-252.9818
G1 X141.3464 Y-252.2102
G1 X140.6703 Y-252.7429
G1 X141.4140 Y-252.9537
G1 X141.5951 Y-253.0929
G1 X141.6558 Y-253.4108
G1 X141.5248 Y-253.5896
G1 X141.3155 Y-253.6467
G1 X140.6601 Y-253.4585
G1 X140.5722 Y-253.5118
G1 X140.6032 Y-252.8506
G1 Z0.0000 F2500.0
G4 P0.02
G0 X168.5922 Y-256.3438 F15000.0
G1 Z11.9000 F2500.0
G4 P0.02
G1 X167.2128 Y-256.3438 F12000.0
G1 Z0.0000 F2500.0
G4 P0.02
G0 X167.9945 Y-256.3438 F15000.0
G1 Z11.9000 F2500.0
G4 P0.02
G1 X167.9485 Y-258.2750 F12000.0
G1 Z0.0000 F2500.0
G4 P0.02
G0 X166.2012 Y-258.2750 F15000.0
G1 Z11.9000 F2500.0
G4 P0.02
G1 X166.1781 Y-257.6921 F12000.0
G1 X165.7114 Y-257.3878
G1 X165.3368 Y-256.9964
G1 X164.8650 Y-257.2749
G1 X164.8494 Y-257.8276
G1 X164.6396 Y-258.1784
G1 X164.8243 Y-257.9309
G1 X164.4483 Y-258.2760
G1 X164.0024 Y-258.1883
G1 X163.7575 Y-257.9672
G1 X163.8274 Y-257.2710
G1 X163.9183 Y-257.0787
G1 X164.4711 Y-256.9705
G1 X164.7757 Y-257.1714
G1 Z0.0000 F2500.0
G4 P0.02
G0 X165.3735 Y-258.2750 F15000.0
G1 Z11.9000 F2500.0
G4 P0.02
G1 X165.7460 Y-257.5386 F12000.0
G1 X165.6779 Y-257.7834
G1 X166.1669 Y-257.4967
G1 X166.2012 Y-256.9875
G1 Z0.0000 F2500.0
G4 P0.02
G0 X163.1204 Y-256.9875 F15000.0
G1 Z11.9000 F2500.0
G4 P0.02
G1 X163.1204 Y-258.1864 F12000.0
G1 X163.1002 Y-257.6708
G1 X162.9433 Y-257.5962
G1 X162.1754 Y-257.7004
G1 X162.1116 Y-258.1974
G1 X162.0529 Y-257.0137
G1 X160.5914 Y-256.9415
G1 Z0.0000 F2500.0
G4 P0.02
G0 X161.1432 Y-256.9415 F15000.0
G1 Z11.9000 F2500.0
G4 P0.02
G1 X161.0664 Y-258.2187 F12000.0
G1 X160.0505 Y-258.1533
G1 X159.3785 Y-258.2580
G1 X159.0987 Y-258.0485
G1 X159.0040 Y-257.8493
G1 X159.0929 Y-257.1515
G1 X159.3683 Y-257.0056
G1 X159.9346 Y-257.1005
G1 X160.0682 Y-257.8790
G1 X160.0617 Y-258.7839
G1 X159.0740 Y-258.0451
G1 Z0.0000 F2500.0
G4 P0.02
G0 X42.3541 Y-258.4605 F15000.0
G1 Z11.9000 F2500.0
G4 P0.02
G1 X42.4159 Y-256.2451 F12000.0
G1 X44.0094 Y-258.5525
G1 Z0.0000 F2500.0
G4 P0.02
G0 X41.4344 Y-258.2766 F15000.0
G1 Z11.9000 F2500.0
G4 P0.02
G1 X41.1446 Y-258.1052 F12000.0
G1 X40.2726 Y-257.0133
G1 X40.0879 Y-256.9744
G1 X39.4206 Y-257.1073
G1 X39.5113 Y-257.9965
G1 X39.2039 Y-258.4674
G1 X38.9993 Y-258.5048
G1 X38.2563 Y-258.2319
G1 X37.2484 Y-258.4245
G1 X37.1611 Y-258.2928
G1 X37.2217 Y-256.9209
G1 X37.8019 Y-256.8511
G1 Z0.0000 F2500.0
G4 P0.02
G0 X38.3536 Y-257.0810 F15000.0
G1 Z11.9000 F2500.0
G4 P0.02
G1 X38.7554 Y-256.8444 F12000.0
G1 X39.3193 Y-256.9891
G1 Z0.0000 F2500.0
G4 P0.02
G0 X40.2389 Y-258.4605 F15000.0
G1 Z11.9000 F2500.0
G4 P0.02
G1 X40.3667 Y-257.2452 F12000.0
G1 X40.8986 Y-257.7824
G1 X41.0598 Y-258.0581
G1 X40.7463 Y-257.5340
G1 Z0.0000 F2500.0
G4 P0.02
G0 X41.0061 Y-257.9759 F15000.0
G1 Z11.9000 F2500.0
G4 P0.02
G1 X41.4119 Y-258.1993 F12000.0
G1 X41.4804 Y-256.8971
G1 Z0.0000 F2500.0
G4 P0.02
G0 X37.1581 Y-256.8971 F15000.0
G1 Z11.9000 F2500.0
G4 P0.02
G1 X36.5603 Y-256.8511 F12000.0
G1 Z0.0000 F2500.0
G4 P0.02
G0 X18.7213 Y-256.8671 F15000.0
G1 Z11.9000 F2500.0
G4 P0.02
G1 X17.6487 Y-256.8775 F12000.0
G1 X17.0692 Y-257.1699
G1 X16.8928 Y-256.9784
G1 X17.0655 Y-257.2970
G1 X17.1137 Y-257.8730
G1 X16.6888 Y-258.3975
G1 X16.0143 Y-258.2188
G1 X15.8771 Y-258.0587
G1 X15.7966 Y-257.7161
G1 X15.9158 Y-257.1462
G1 X16.4090 Y-256.8531
G1 X16.8361 Y-256.9131
G1 Z0.0000 F2500.0
G4 P0.02
G0 X17.0660 Y-258.0627 F15000.0
G1 Z11.9000 F2500.0
G4 P0.02
G1 X16.8361 Y-258.3386 F12000.0
G1 Z0.0000 F2500.0
G4 P0.02
G0 X18.1695 Y-258.3845 F15000.0
G1 Z11.9000 F2500.0
G4 P0.02
G1 X18.2155 Y-256.8671 F12000.0
G1 Z0.0000 F2500.0
G4 P0.02
G0 X19.3191 Y-256.9591 F15000.0
G1 Z11.9000 F2500.0
G4 P0.02
G1 X19.7756 Y-256.8474 F12000.0
G1 X20.0923 Y-256.9797
G1 X20.3302 Y-257.3724
G1 X20.3442 Y-257.9592
G1 X20.1826 Y-258.2646
G1 X19.8894 Y-258.4007
G1 X19.3276 Y-258.2613
G1 X19.1352 Y-258.0167
G1 Z0.0000 F2500.0
G4 P0.02
G0 X21.0664 Y-258.3386 F15000.0
G1 Z11.9000 F2500.0
G4 P0.02
G1 X21.4831 Y-257.4934 F12000.0
G1 X21.4605 Y-257.3979
G1 X21.1836 Y-257.1887
G1 X21.4299 Y-257.3454
G1 X21.8199 Y-257.9020
G1 X22.1418 Y-258.0435
G1 X22.1744 Y-256.9729
G1 X21.5397 Y-257.3746
G1 X21.7904 Y-257.8547
G1 X22.1672 Y-258.2288
G1 X22.1700 Y-258.1546
G1 Z0.0000 F2500.0
G4 P0.02
G0 X23.0436 Y-258.3386 F15000.0
G1 Z11.9000 F2500.0
G4 P0.02
G1 X23.1070 Y-256.2530 F12000.0
G1 X24.3867 Y-258.3486
G1 X24.5610 Y-258.4305
G1 Z0.0000 F2500.0
G4 P0.02
G0 X15.0888 Y-257.6488 F15000.0
G1 Z11.9000 F2500.0
G4 P0.02
G1 X15.0133 Y-258.3306 F12000.0
G1 X14.1290 Y-258.3257
G1 X14.0255 Y-258.2102
G1 X14.1376 Y-257.6603
G1 X14.0821 Y-257.2240
G1 X14.3873 Y-256.9263
G1 X15.0154 Y-257.5133
G1 X14.2151 Y-257.6028
G1 Z0.0000 F2500.0
G4 P0.02
G0 X26.7279 Y-264.0563 F15000.0
G1 Z11.9000 F2500.0
G4 P0.02
G1 X25.7132 Y-262.1807 F12000.0
G1 X25.4042 Y-262.1874
G1 X24.5548 Y-263.9570
G1 X24.7330 Y-264.7294
G1 X25.1185 Y-264.9300
G1 Z0.0000 F2500.0
G4 P0.02
G0 X24.4748 Y-263.8264 F15000.0
G1 Z11.9000 F2500.0
G4 P0.02
G1 X24.3289 Y-263.6365 F12000.0
G1 X23.7390 Y-262.1711
G1 Z0.0000 F2500.0
G4 P0.02
G0 X23.0493 Y-264.0563 F15000.0
G1 Z11.9000 F2500.0
G4 P0.02
G1 X21.7375 Y-262.2864 F12000.0
G1 X21.6699 Y-264.0563
G1 Z0.0000 F2500.0
G4 P0.02
G0 X19.5547 Y-264.0103 F15000.0
G1 Z11.9000 F2500.0
G4 P0.02
G1 X19.4138 Y-263.7632 F12000.0
G1 X19.6149 Y-263.9694
G1 X20.0589 Y-264.1158
G1 X20.5897 Y-263.9116
G1 X20.7977 Y-263.4944
G1 X20.7453 Y-262.6735
G1 X20.4551 Y-262.3155
G1 X20.1412 Y-262.1934
G1 X19.5547 Y-262.3090
G1 Z0.0000 F2500.0
G4 P0.02
G0 X27.6935 Y-264.0103 F15000.0
G1 Z11.9000 F2500.0
G4 P0.02
G1 X27.7652 Y-261.4611 F12000.0
G1 X29.6707 Y-264.0103
G1 Z0.0000 F2500.0
G4 P0.02
G0 X106.6404 Y-263.7644 F15000.0
G1 Z11.9000 F2500.0
G4 P0.02
G1 X107.7079 Y-263.8677 F12000.0
G1 X108.2830 Y-264.2755
G1 X108.4101 Y-264.4708
G1 X108.6280 Y-265.3994
G1 X108.5403 Y-266.2189
G1 X108.3512 Y-266.6545
G1 X107.8183 Y-267.1168
G1 X107.3824 Y-267.2326
G1 X106.3357 Y-267.0019
G1 X106.1540 Y-266.8732
G1 X105.8518 Y-266.4516
G1 X106.1806 Y-266.9831
G1 Z0.0000 F2500.0
G4 P0.02
G0 X104.0195 Y-267.2131 F15000.0
G1 Z11.9000 F2500.0
G4 P0.02
G1 X104.0655 Y-264.8220 F12000.0
G1 Z0.0000 F2500.0
G4 P0.02
G0 X104.9391 Y-264.8220 F15000.0
G1 Z11.9000 F2500.0
G4 P0.02
G1 X101.8471 Y-264.8741 F12000.0
G1 X102.1580 Y-265.1745
G1 X101.8430 Y-264.8982
G1 X101.6324 Y-264.8176
G1 X100.9213 Y-264.7945
G1 X100.5542 Y-265.0399
G1 X100.4411 Y-265.8091
G1 X102.0241 Y-266.1955
G1 X102.1441 Y-266.3225
G1 X102.2866 Y-266.8699
G1 X102.2002 Y-267.0790
G1 X101.9061 Y-267.2587
G1 X101.6793 Y-267.2708
G1 X100.5143 Y-266.9664
G1 X100.7258 Y-267.0745
G1 X100.1209 Y-267.3927
G1 X100.3787 Y-266.9416
G1 X100.3869 Y-265.8336
G1 Z0.0000 F2500.0
G4 P0.02
G0 X101.9043 Y-266.1095 F15000.0
G1 Z11.9000 F2500.0
G4 P0.02
G1 X101.9963 Y-266.1555 F12000.0
G1 Z0.0000 F2500.0
G4 P0.02
G0 X99.0994 Y-267.1671 F15000.0
G1 Z11.9000 F2500.0
G4 P0.02
G1 X97.2465 Y-264.8957 F12000.0
G1 X97.1682 Y-267.1671
G1 Z0.0000 F2500.0
G4 P0.02
G0 X95.9727 Y-265.8796 F15000.0
G1 Z11.9000 F2500.0
G4 P0.02
G1 X94.4405 Y-266.0647 F12000.0
G1 X94.2765 Y-266.2069
G1 X94.1665 Y-266.5339
G1 X94.1841 Y-266.7616
G1 X94.3410 Y-267.0773
G1 X94.2766 Y-266.9985
G1 X94.8293 Y-267.2191
G1 X95.9223 Y-266.0070
G1 X95.9727 Y-264.8680
G1 Z0.0000 F2500.0
G4 P0.02
G0 X105.9047 Y-264.4541 F15000.0
G1 Z11.9000 F2500.0
G4 P0.02
G1 X106.0920 Y-264.1561 F12000.0
G1 X106.5485 Y-263.8104
G1 Z0.0000 F2500.0
G4 P0.02
G0 X91.7581 Y-264.6381 F15000.0
G1 Z11.9000 F2500.0
G4 P0.02
G1 X91.4183 Y-264.1697 F12000.0
G1 X90.6645 Y-263.9360
G1 X90.4879 Y-263.9613
G1 X89.9421 Y-264.3730
G1 X89.8442 Y-264.9475
G1 X90.0702 Y-265.4857
G1 X90.5404 Y-265.9921
G1 X91.5221 Y-266.8206
G1 X91.5911 Y-267.2015
G1 X89.8269 Y-267.3050
G1 Z0.0000 F2500.0
G4 P0.02
G0 X88.6314 Y-266.6613 F15000.0
G1 Z11.9000 F2500.0
G4 P0.02
G1 X88.7233 Y-266.4773 F12000.0
G1 Z0.0000 F2500.0
G4 P0.02
G0 X88.7233 Y-264.8220 F15000.0
G1 Z11.9000 F2500.0
G4 P0.02
G1 X88.6385 Y-266.5082 F12000.0
G1 X88.5445 Y-266.8855
G1 X87.9953 Y-267.2781
G1 X87.2412 Y-267.1651
G1 X86.8167 Y-266.5038
G1 X86.7131 Y-266.1247
G1 X86.7917 Y-265.1372
G1 X86.9930 Y-264.3768
G1 X87.5401 Y-263.9632
G1 X87.7165 Y-263.9333
G1 X88.2683 Y-264.1219
G1 X88.6314 Y-264.6381
G1 Z0.0000 F2500.0
G4 P0.02
G0 X91.1144 Y-266.3854 F15000.0
G1 Z11.9000 F2500.0
G4 P0.02
G1 X91.2064 Y-266.4773 F12000.0
G1 Z0.0000 F2500.0
G4 P0.02
G0 X82.1005 Y-263.7644 F15000.0
G1 Z11.9000 F2500.0
G4 P0.02
G1 X84.1237 Y-267.1671 F12000.0
G1 Z0.0000 F2500.0
G4 P0.02
G0 X81.4108 Y-266.4314 F15000.0
G1 Z11.9000 F2500.0
G4 P0.02
G1 X80.9969 Y-266.9372 F12000.0
G1 Z0.0000 F2500.0
G4 P0.02
G0 X78.8358 Y-266.7992 F15000.0
G1 Z11.9000 F2500.0
G4 P0.02
G1 X78.6059 Y-266.4773 F12000.0
G1 Z0.0000 F2500.0
G4 P0.02
G0 X76.7206 Y-264.0403 F15000.0
G1 Z11.9000 F2500.0
G4 P0.02
G1 X76.3770 Y-263.8496 F12000.0
G1 X75.4277 Y-263.7715
G1 X76.4294 Y-263.8747
G1 X77.0689 Y-264.3883
G1 X77.3453 Y-265.6585
G1 X77.0965 Y-266.5730
G1 X76.9645 Y-266.7639
G1 X76.2853 Y-267.2130
G1 X76.0590 Y-267.2319
G1 X74.9275 Y-266.9914
G1 X74.5135 Y-266.3854
G1 Z0.0000 F2500.0
G4 P0.02
G0 X74.6054 Y-264.4541 F15000.0
G1 Z11.9000 F2500.0
G4 P0.02
G1 X74.7928 Y-264.1561 F12000.0
G1 X75.2492 Y-263.8104
G1 Z0.0000 F2500.0
G4 P0.02
G0 X73.7318 Y-263.7644 F15000.0
G1 Z11.9000 F2500.0
G4 P0.02
G1 X72.4750 Y-263.8668 F12000.0
G1 X72.4443 Y-267.1671
G1 Z0.0000 F2500.0
G4 P0.02
G0 X72.4443 Y-263.8104 F15000.0
G1 Z11.9000 F2500.0
G4 P0.02
G1 X71.1568 Y-263.7644 F12000.0
G1 Z0.0000 F2500.0
G4 P0.02
G0 X81.0889 Y-264.1783 F15000.0
G1 Z11.9000 F2500.0
G4 P0.02
G1 X81.4899 Y-264.8811 F12000.0
G1 X81.5798 Y-265.8283
G1 X81.3593 Y-266.5013
G1 X80.8626 Y-266.9982
G1 X80.4301 Y-267.1982
G1 X80.2132 Y-267.2080
G1 X78.6124 Y-266.4392
G1 X78.3962 Y-265.7713
G1 X78.4971 Y-264.8291
G1 X78.7818 Y-264.3178
G1 X79.8377 Y-263.7743
G1 X80.0582 Y-263.7615
G1 X81.0569 Y-264.1292
G1 X81.3490 Y-264.4993
G1 X81.4567 Y-264.7760
G1 Z0.0000 F2500.0
G4 P0.02
G0 X60.9833 Y-263.9943 F15000.0
G1 Z11.9000 F2500.0
G4 P0.02
G1 X62.3405 Y-264.0314 F12000.0
G1 X62.4495 Y-264.2674
G1 X62.5174 Y-265.2265
G1 X61.5104 Y-265.1361
G1 X60.9465 Y-265.5266
G1 X60.7841 Y-265.8713
G1 X60.7235 Y-266.3634
G1 X60.7898 Y-266.6414
G1 X61.0466 Y-267.0596
G1 X62.0824 Y-267.2796
G1 X62.4031 Y-267.0627
G1 X62.6839 Y-266.7187
G1 X62.4547 Y-267.0291
G1 Z0.0000 F2500.0
G4 P0.02
G0 X59.7878 Y-266.4773 F15000.0
G1 Z11.9000 F2500.0
G4 P0.02
G1 X59.6958 Y-266.6613 F12000.0
G1 Z0.0000 F2500.0
G4 P0.02
G0 X59.7878 Y-264.8220 F15000.0
G1 Z11.9000 F2500.0
G4 P0.02
G1 X59.7030 Y-266.5082 F12000.0
G1 X59.6089 Y-266.8855
G1 X59.0597 Y-267.2781
G1 X58.3056 Y-267.1651
G1 X57.8812 Y-266.5038
G1 X57.7777 Y-266.1247
G1 X57.8562 Y-265.1372
G1 X58.0576 Y-264.3768
G1 X58.6047 Y-263.9632
G1 X58.7811 Y-263.9333
G1 X59.3328 Y-264.1219
G1 X59.6958 Y-264.6381
G1 Z0.0000 F2500.0
G4 P0.02
G0 X56.8450 Y-266.1095 F15000.0
G1 Z11.9000 F2500.0
G4 P0.02
G1 X55.9253 Y-266.1095 F12000.0
G1 Z0.0000 F2500.0
G4 P0.02
G0 X54.9137 Y-266.7532 F15000.0
G1 Z11.9000 F2500.0
G4 P0.02
G1 X54.8218 Y-266.9372 F12000.0
G1 Z0.0000 F2500.0
G4 P0.02
G0 X54.5459 Y-265.7416 F15000.0
G1 Z11.9000 F2500.0
G4 P0.02
G1 X54.4914 Y-265.6117 F12000.0
G1 X54.6808 Y-265.7934
G1 X54.4041 Y-265.5343
G1 Z0.0000 F2500.0
G4 P0.02
G0 X54.6758 Y-265.7922 F15000.0
G1 Z11.9000 F2500.0
G4 P0.02
G1 X54.7867 Y-266.9440 F12000.0
G1 X54.4819 Y-267.1461
G1 X53.6034 Y-267.2838
G1 X53.0640 Y-266.8966
G1 X52.9114 Y-266.5426
G1 X52.9781 Y-266.1569
G1 X53.1117 Y-265.8968
G1 X53.6529 Y-265.4841
G1 X54.3331 Y-265.4474
G1 X54.7181 Y-265.0386
G1 X54.6958 Y-264.3657
G1 X54.0649 Y-263.9288
G1 X53.5084 Y-264.0466
G1 X53.1312 Y-264.4930
G1 X53.1119 Y-264.6683
G1 X53.4023 Y-265.4058
G1 X53.2971 Y-265.2480
G1 X53.4423 Y-265.5577
G1 Z0.0000 F2500.0
G4 P0.02
G0 X51.5111 Y-265.7416 F15000.0
G1 Z11.9000 F2500.0
G4 P0.02
G1 X51.4566 Y-265.6117 F12000.0
G1 X51.6460 Y-265.7934
G1 X51.3693 Y-265.5343
G1 Z0.0000 F2500.0
G4 P0.02
G0 X51.6410 Y-265.7922 F15000.0
G1 Z11.9000 F2500.0
G4 P0.02
G1 X51.7519 Y-266.9440 F12000.0
G1 X51.4471 Y-267.1461
G1 X50.5686 Y-267.2838
G1 X50.0292 Y-266.8966
G1 X49.8766 Y-266.5426
G1 X49.9433 Y-266.1569
G1 X50.0769 Y-265.8968
G1 X50.6181 Y-265.4841
G1 X51.2970 Y-265.4469
G1 X51.6726 Y-265.0880
G1 X51.6783 Y-264.4107
G1 X50.9880 Y-263.9293
G1 X50.5141 Y-264.0178
G1 X50.0789 Y-264.5303
G1 X50.1972 Y-265.0930
G1 X50.4075 Y-265.5577
G1 Z0.0000 F2500.0
G4 P0.02
G0 X51.8789 Y-266.7532 F15000.0
G1 Z11.9000 F2500.0
G4 P0.02
G1 X51.7870 Y-266.9372 F12000.0
G1 Z0.0000 F2500.0
G4 P0.02
G0 X65.6735 Y-266.6613 F15000.0
G1 Z11.9000 F2500.0
G4 P0.02
G1 X65.7654 Y-266.4773 F12000.0
G1 Z0.0000 F2500.0
G4 P0.02
G0 X65.7654 Y-264.8220 F15000.0
G1 Z11.9000 F2500.0
G4 P0.02
G1 X65.6806 Y-266.5082 F12000.0
G1 X65.5866 Y-266.8855
G1 X65.0374 Y-267.2781
G1 X64.2833 Y-267.1651
G1 X63.8588 Y-266.5038
G1 X63.7553 Y-266.1247
G1 X63.8338 Y-265.1372
G1 X64.0352 Y-264.3768
G1 X64.5823 Y-263.9632
G1 X64.7587 Y-263.9333
G1 X65.3104 Y-264.1219
G1 X65.6735 Y-264.6381
G1 Z0.0000 F2500.0
G4 P0.02
G0 X68.5243 Y-264.8220 F15000.0
G1 Z11.9000 F2500.0
G4 P0.02
G1 X67.6549 Y-264.4096 F12000.0
G1 X67.5127 Y-267.2131
G1 Z0.0000 F2500.0
G4 P0.02
G0 X169.2729 Y-265.4462 F15000.0
G1 Z11.9000 F2500.0
G4 P0.02
G1 X169.2729 Y-267.1888 F12000.0
G1 X169.2214 Y-266.3088
G1 X167.9763 Y-266.2806
G1 X167.8969 Y-265.5398
G1 X167.8934 Y-267.3315
G1 Z0.0000 F2500.0
G4 P0.02
G0 X166.3300 Y-267.3315 F15000.0
G1 Z11.9000 F2500.0
G4 P0.02
G1 X166.3069 Y-266.7486 F12000.0
G1 X165.8402 Y-266.4443
G1 X165.5023 Y-265.9980
G1 Z0.0000 F2500.0
G4 P0.02
G0 X166.3300 Y-266.0440 F15000.0
G1 Z11.9000 F2500.0
G4 P0.02
G1 X166.2594 Y-266.5805 F12000.0
G1 X165.8216 Y-266.8340
G1 X165.9015 Y-266.6090
G1 X165.9027 Y-266.7109
G1 X165.5287 Y-267.2557
G1 X165.0255 Y-266.9009
G1 X164.9405 Y-266.3301
G1 X164.6958 Y-266.0409
G1 X164.7541 Y-266.0870
G1 X164.3824 Y-265.9993
G1 X164.0668 Y-266.1058
G1 X163.9638 Y-266.2881
G1 X163.8751 Y-266.9879
G1 X163.9940 Y-267.1717
G1 X164.4283 Y-267.3414
G1 X164.6382 Y-267.2961
G1 X164.9539 Y-267.0124
G1 X164.8059 Y-267.2289
G1 X164.6285 Y-267.3177
G1 X163.3494 Y-267.2994
G1 X163.2952 Y-266.1229
G1 X163.2531 Y-266.6071
G1 X162.3687 Y-266.7226
G1 X162.2890 Y-267.2321
G1 X162.2524 Y-266.0975
G1 X161.8318 Y-266.0072
G1 X160.7202 Y-265.9980
G1 Z0.0000 F2500.0
G4 P0.02
G0 X161.2720 Y-265.9980 F15000.0
G1 Z11.9000 F2500.0
G4 P0.02
G1 X161.1952 Y-267.2752 F12000.0
G1 X160.1794 Y-267.2098
G1 X159.5074 Y-267.3146
G1 X159.2277 Y-267.1050
G1 X159.1329 Y-266.9058
G1 X159.2218 Y-266.2080
G1 X159.4972 Y-266.0622
G1 X160.0634 Y-266.1570
G1 X160.1971 Y-266.9356
G1 X160.1905 Y-267.8404
G1 X159.2028 Y-267.1016
G1 Z0.0000 F2500.0
G4 P0.02
G0 X30.7090 Y-267.9611 F15000.0
G1 Z11.9000 F2500.0
G4 P0.02
G1 X29.2376 Y-270.5361 F12000.0
G1 Z0.0000 F2500.0
G4 P0.02
G0 X30.8929 Y-270.5821 F15000.0
G1 Z11.9000 F2500.0
G4 P0.02
G1 X30.8561 Y-270.4671 F12000.0
G1 X31.1022 Y-270.5864
G1 Z0.0000 F2500.0
G4 P0.02
G0 X30.8694 Y-270.4284 F15000.0
G1 Z11.9000 F2500.0
G4 P0.02
G1 X30.7650 Y-270.2372 F12000.0
G1 X30.7550 Y-268.0530
G1 Z0.0000 F2500.0
G4 P0.02
G0 X28.4099 Y-267.9611 F15000.0
G1 Z11.9000 F2500.0
G4 P0.02
G1 X26.4327 Y-267.9611 F12000.0
G1 Z0.0000 F2500.0
G4 P0.02
G0 X27.4902 Y-267.9611 F15000.0
G1 Z11.9000 F2500.0
G4 P0.02
G1 X27.4443 Y-270.5821 F12000.0
G1 Z0.0000 F2500.0
G4 P0.02
G0 X25.8349 Y-269.6624 F15000.0
G1 Z11.9000 F2500.0
G4 P0.02
G1 X25.1298 Y-269.6981 F12000.0
G1 X24.1592 Y-270.3800
G1 X23.5079 Y-270.6426
G1 X23.1287 Y-270.5109
G1 X22.8521 Y-270.0310
G1 X22.8319 Y-269.6819
G1 X22.9745 Y-269.2505
G1 X23.3405 Y-269.0016
G1 X24.2269 Y-269.0614
G1 X22.9179 Y-268.0561
G1 X21.8953 Y-268.6892
G1 X21.1257 Y-268.2507
G1 X21.0663 Y-268.0556
G1 X21.0988 Y-270.5821
G1 Z0.0000 F2500.0
G4 P0.02
G0 X19.3974 Y-270.5821 F15000.0
G1 Z11.9000 F2500.0
G4 P0.02
G1 X19.6094 Y-270.3701 F12000.0
G1 X19.2296 Y-270.6336
G1 X18.7645 Y-270.6076
G1 X18.5062 Y-270.4771
G1 X18.2968 Y-269.9854
G1 X18.5142 Y-269.4830
G1 X18.2909 Y-269.3313
G1 X19.1702 Y-269.5773
G1 X19.4791 Y-269.4155
G1 X19.6790 Y-269.1348
G1 X19.7410 Y-268.7922
G1 X19.6376 Y-268.3547
G1 X19.2177 Y-267.9918
G1 X18.7528 Y-268.0126
G1 X18.4286 Y-268.1823
G1 X18.2057 Y-269.1756
G1 X18.0865 Y-269.3587
G1 X17.4414 Y-269.6488
G1 X16.7487 Y-269.7146
G1 X15.9700 Y-270.4427
G1 X15.4338 Y-270.6282
G1 X15.0083 Y-270.4310
G1 X14.8791 Y-270.2819
G1 X15.0471 Y-269.6375
G1 X15.3600 Y-269.6439
G1 X15.0144 Y-269.4894
G1 X14.9803 Y-269.2816
G1 X15.2388 Y-268.7826
G1 X15.7955 Y-268.8575
G1 X15.9910 Y-269.0509
G1 X15.8443 Y-268.8784
G1 X15.9028 Y-268.9727
G1 Z0.0000 F2500.0
G4 P0.02
G0 X169.0333 Y-268.1729 F15000.0
G1 Z11.9000 F2500.0
G4 P0.02
G1 X168.2486 Y-269.4713 F12000.0
G1 X168.4091 Y-270.0101
G1 X168.5373 Y-270.1125
G1 X168.7278 Y-270.0833
G1 X168.0499 Y-269.3044
G1 X167.4780 Y-268.2597
G1 X167.0405 Y-268.7510
G1 X166.0904 Y-268.7706
G1 Z0.0000 F2500.0
G4 P0.02
G0 X166.6422 Y-268.7706 F15000.0
G1 Z11.9000 F2500.0
G4 P0.02
G1 X166.5709 Y-270.0336 F12000.0
G1 X165.5101 Y-269.4297
G1 X164.9173 Y-269.4537
G1 X164.6249 Y-269.5745
G1 X164.6914 Y-269.4251
G1 X164.6900 Y-268.8840
G1 X164.5742 Y-269.6440
G1 X164.6356 Y-269.8416
G1 X164.8443 Y-270.0862
G1 X165.5309 Y-269.5248
G1 X165.5444 Y-269.4354
G1 X164.7570 Y-268.8166
G1 Z0.0000 F2500.0
G4 P0.02

G0 Z0.0000 F800.0
G4 P0.06
G0 X0.0000 Y0.0000 F15000.0
M5
G4 P0.10
$1=0
