$X
$1=255
G21
G90
G92 Z4.0000
G0 Z0.0000 F800.0
G4 P0.06
G92 Z0.0000
G0 Z0.0000 F800.0
G0 X0.0000 Y0.0000 F15000.0
G21
G90
G17
G91.1
G0 Z0.0000
G0 X115.4643 Y-129.8708 F15000.0
G1 Z11.9000 F2500.0
G4 P0.02
G1 X116.8437 Y-133.7165 F12000.0
G1 X117.0945 Y-134.0509
G1 Z0.0000 F2500.0
G4 P0.02
G0 X115.6314 Y-133.0477 F15000.0
G1 Z11.9000 F2500.0
G4 P0.02
G1 X115.7986 Y-133.2149 F12000.0
G1 Z0.0000 F2500.0
G4 P0.02
G0 X116.5092 Y-133.6747 F15000.0
G1 Z11.9000 F2500.0
G4 P0.02
G1 X116.8019 Y-133.7583 F12000.0
G1 Z0.0000 F2500.0
G4 P0.02
G0 X116.5511 Y-129.8289 F15000.0
G1 Z11.9000 F2500.0
G4 P0.02
G1 X117.8469 Y-130.0380 F12000.0
G1 X118.2232 Y-130.3723
G1 X118.4740 Y-130.9576
G1 Z0.0000 F2500.0
G4 P0.02
G0 X118.0977 Y-134.0927 F15000.0
G1 Z11.9000 F2500.0
G4 P0.02
G1 X118.9756 Y-134.0091 F12000.0
G1 X119.1846 Y-133.4657
G1 X119.0174 Y-133.0059
G1 X118.4740 Y-132.2116
G1 X118.6411 Y-131.3338
G1 X118.5994 Y-131.2502
G1 Z0.0000 F2500.0
G4 P0.02
G0 X118.0977 Y-132.1280 F15000.0
G1 Z11.9000 F2500.0
G4 P0.02
G1 X118.3904 Y-132.1280 F12000.0
G1 Z0.0000 F2500.0
G4 P0.02
G0 X121.9853 Y-134.0509 F15000.0
G1 Z11.9000 F2500.0
G4 P0.02
G1 X120.8985 Y-133.9673 F12000.0
G1 X120.3968 Y-133.5075
G1 X119.3517 Y-130.8740
G1 X119.3517 Y-130.0797
G1 Z0.0000 F2500.0
G4 P0.02
G0 X119.4354 Y-129.9961 F15000.0
G1 Z11.9000 F2500.0
G4 P0.02
G1 X120.1878 Y-129.8289 F12000.0
G1 X120.8566 Y-130.0797
G1 Z0.0000 F2500.0
G4 P0.02
G0 X121.0657 Y-130.2888 F15000.0
G1 Z11.9000 F2500.0
G4 P0.02
G1 X121.4001 Y-130.9994 F12000.0
G1 Z0.0000 F2500.0
G4 P0.02
G0 X121.5255 Y-131.3338 F15000.0
G1 Z11.9000 F2500.0
G4 P0.02
G1 X122.2779 Y-133.7165 F12000.0
G1 Z0.0000 F2500.0
G4 P0.02
G0 X93.7457 Y-143.3817 F15000.0
G1 Z11.9000 F2500.0
G4 P0.02
G1 X94.0383 Y-143.5072 F12000.0
G1 X96.8390 Y-146.5168
G1 X96.9644 Y-147.1857
G1 Z0.0000 F2500.0
G4 P0.02
G0 X94.0383 Y-143.5072 F15000.0
G1 Z11.9000 F2500.0
G4 P0.02
G1 X95.5849 Y-143.4236 F12000.0
G1 Z0.0000 F2500.0
G4 P0.02
G0 X95.1251 Y-147.0603 F15000.0
G1 Z11.9000 F2500.0
G4 P0.02
G1 X95.3760 Y-147.3110 F12000.0
G1 X95.8358 Y-147.5619
G1 X96.5464 Y-147.6455
G1 Z0.0000 F2500.0
G4 P0.02
G0 X97.0898 Y-143.5907 F15000.0
G1 Z11.9000 F2500.0
G4 P0.02
G1 X96.9644 Y-143.7998 F12000.0
G1 X97.0481 Y-144.4685
G1 X98.0931 Y-147.1021
G1 X98.5947 Y-147.5619
G1 X99.8906 Y-147.4783
G1 X99.9742 Y-147.3110
G1 X99.2217 Y-144.9284
G1 Z0.0000 F2500.0
G4 P0.02
G0 X97.2153 Y-143.5072 F15000.0
G1 Z11.9000 F2500.0
G4 P0.02
G1 X98.0931 Y-143.4653 F12000.0
G1 X98.4275 Y-143.5907
G1 X98.8455 Y-143.9670
G1 X99.0963 Y-144.5940
G1 Z0.0000 F2500.0
G4 P0.02
G0 X121.3348 Y-143.3817 F15000.0
G1 Z11.9000 F2500.0
G4 P0.02
G1 X121.6274 Y-143.5072 F12000.0
G1 X124.4281 Y-146.5168
G1 X124.5535 Y-147.1857
G1 Z0.0000 F2500.0
G4 P0.02
G0 X121.6274 Y-143.5072 F15000.0
G1 Z11.9000 F2500.0
G4 P0.02
G1 X123.1740 Y-143.4236 F12000.0
G1 Z0.0000 F2500.0
G4 P0.02
G0 X122.7142 Y-147.0603 F15000.0
G1 Z11.9000 F2500.0
G4 P0.02
G1 X122.9650 Y-147.3110 F12000.0
G1 X123.4248 Y-147.5619
G1 X124.1355 Y-147.6455
G1 Z0.0000 F2500.0
G4 P0.02
G0 X124.6789 Y-143.5907 F15000.0
G1 Z11.9000 F2500.0
G4 P0.02
G1 X124.5535 Y-143.7998 F12000.0
G1 X124.6371 Y-144.4685
G1 X125.6822 Y-147.1021
G1 X126.1837 Y-147.5619
G1 X127.4796 Y-147.4783
G1 X127.5632 Y-147.3110
G1 X126.8107 Y-144.9284
G1 Z0.0000 F2500.0
G4 P0.02
G0 X124.8043 Y-143.5072 F15000.0
G1 Z11.9000 F2500.0
G4 P0.02
G1 X125.6822 Y-143.4653 F12000.0
G1 X126.0165 Y-143.5907
G1 X126.4346 Y-143.9670
G1 X126.6854 Y-144.5940
G1 Z0.0000 F2500.0
G4 P0.02
G0 X96.9805 Y-169.8381 F15000.0
G1 Z11.9000 F2500.0
G4 P0.02
G1 X96.9805 Y-188.2137 F12000.0
G1 Z0.0000 F2500.0
G4 P0.02
G0 X124.5438 Y-169.8381 F15000.0
G1 Z11.9000 F2500.0
G4 P0.02
G1 X124.5438 Y-188.2137 F12000.0
G1 Z0.0000 F2500.0
G4 P0.02
G0 X124.5438 Y-155.9786 F15000.0
G1 Z11.9000 F2500.0
G4 P0.02
G1 X124.5438 Y-151.3848 F12000.0
G1 Z0.0000 F2500.0
G4 P0.02
G0 X96.9805 Y-155.9786 F15000.0
G1 Z11.9000 F2500.0
G4 P0.02
G1 X96.9805 Y-151.3848 F12000.0
G1 Z0.0000 F2500.0
G4 P0.02
G0 X96.9805 Y-188.2137 F15000.0
G1 Z11.9000 F2500.0
G4 P0.02
G1 X87.7928 Y-188.2137 F12000.0
G1 X87.7928 Y-169.8381 F12000.0
G1 Z0.0000 F2500.0
G4 P0.02
G0 X87.7928 Y-181.9847 F15000.0
G1 Z11.9000 F2500.0
G4 P0.02
G1 X96.9805 Y-181.9847 F12000.0
G1 Z0.0000 F2500.0
G4 P0.02
G0 X124.5438 Y-181.9847 F15000.0
G1 Z11.9000 F2500.0
G4 P0.02
G1 X133.7316 Y-181.9847 F12000.0
G1 Z0.0000 F2500.0
G4 P0.02
G0 X133.7316 Y-160.6504 F15000.0
G1 Z11.9000 F2500.0
G4 P0.02
G1 X87.7928 Y-160.6504 F12000.0
G1 Z0.0000 F2500.0
G4 P0.02
G0 X92.3866 Y-169.8381 F15000.0
G1 Z11.9000 F2500.0
G4 P0.02
G1 X87.7928 Y-181.9847 F12000.0
G1 Z0.0000 F2500.0
G4 P0.02
G0 X92.3866 Y-169.8381 F15000.0
G1 Z11.9000 F2500.0
G4 P0.02
G1 X96.9805 Y-181.9847 F12000.0
G1 Z0.0000 F2500.0
G4 P0.02
G0 X129.1377 Y-169.8381 F15000.0
G1 Z11.9000 F2500.0
G4 P0.02
G1 X124.5438 Y-181.9847 F12000.0
G1 Z0.0000 F2500.0
G4 P0.02
G0 X129.1377 Y-169.8381 F15000.0
G1 Z11.9000 F2500.0
G4 P0.02
G1 X133.7316 Y-181.9847 F12000.0
G1 Z0.0000 F2500.0
G4 P0.02
G0 X106.1683 Y-162.4412 F15000.0
G1 Z11.9000 F2500.0
G4 P0.02
G1 X115.3560 Y-162.4412 F12000.0
G1 Z0.0000 F2500.0
G4 P0.02
G0 X124.5438 Y-151.3848 F15000.0
G1 Z11.9000 F2500.0
G4 P0.02
G1 X133.7316 Y-151.3848 F12000.0
G1 Z0.0000 F2500.0
G4 P0.02
G0 X86.9362 Y-169.8381 F15000.0
G1 Z11.9000 F2500.0
G4 P0.02
G1 X95.8125 Y-169.8381 F12000.0
G1 Z0.0000 F2500.0
G4 P0.02
G0 X97.2141 Y-169.8381 F15000.0
G1 Z11.9000 F2500.0
G4 P0.02
G1 X98.5377 Y-169.8381 F12000.0
G1 Z0.0000 F2500.0
G4 P0.02
G0 X99.9392 Y-169.8381 F15000.0
G1 Z11.9000 F2500.0
G4 P0.02
G1 X108.8156 Y-169.8381 F12000.0
G1 Z0.0000 F2500.0
G4 P0.02
G0 X110.2171 Y-169.8381 F15000.0
G1 Z11.9000 F2500.0
G4 P0.02
G1 X111.6186 Y-169.8381 F12000.0
G1 Z0.0000 F2500.0
G4 P0.02
G0 X123.2980 Y-169.8381 F15000.0
G1 Z11.9000 F2500.0
G4 P0.02
G1 X124.6216 Y-169.8381 F12000.0
G1 Z0.0000 F2500.0
G4 P0.02
G0 X126.0232 Y-169.8381 F15000.0
G1 Z11.9000 F2500.0
G4 P0.02
G1 X134.8995 Y-169.8381 F12000.0
G1 Z0.0000 F2500.0
G4 P0.02
G0 X101.1851 Y-183.6198 F15000.0
G1 Z11.9000 F2500.0
G4 P0.02
G1 X124.5438 Y-183.6198 F12000.0
G1 Z0.0000 F2500.0
G4 P0.02
G0 X101.1851 Y-183.6198 F15000.0
G1 Z11.9000 F2500.0
G4 P0.02
G1 X96.9805 Y-183.6198 F12000.0
G1 Z0.0000 F2500.0
G4 P0.02
G0 X101.1851 Y-155.9786 F15000.0
G1 Z11.9000 F2500.0
G4 P0.02
G1 X96.9805 Y-155.9786 F12000.0
G1 Z0.0000 F2500.0
G4 P0.02
G0 X101.1851 Y-155.9786 F15000.0
G1 Z11.9000 F2500.0
G4 P0.02
G1 X124.5438 Y-155.9786 F12000.0
G1 Z0.0000 F2500.0
G4 P0.02
G0 X147.5911 Y-169.8381 F15000.0
G1 Z11.9000 F2500.0
G4 P0.02
G1 X147.5911 Y-179.0259 F12000.0
G1 Z0.0000 F2500.0
G4 P0.02
G0 X152.1850 Y-169.8381 F15000.0
G1 Z11.9000 F2500.0
G4 P0.02
G1 X152.1850 Y-180.8167 F12000.0
G1 Z0.0000 F2500.0
G4 P0.02
G0 X179.7483 Y-169.8381 F15000.0
G1 Z11.9000 F2500.0
G4 P0.02
G1 X179.7483 Y-185.4107 F12000.0
G1 Z0.0000 F2500.0
G4 P0.02
G0 X147.5911 Y-179.0259 F15000.0
G1 Z11.9000 F2500.0
G4 P0.02
G1 X147.5911 Y-180.8167 F12000.0
G1 X152.1850 Y-180.8167 F12000.0
G1 X152.1850 Y-185.4107 F12000.0
G1 X179.7483 Y-185.4107 F12000.0
G1 Z0.0000 F2500.0
G4 P0.02
G0 X115.3560 Y-169.8381 F15000.0
G1 Z11.9000 F2500.0
G4 P0.02
G1 X115.3560 Y-162.4412 F12000.0
G1 Z0.0000 F2500.0
G4 P0.02
G0 X117.2247 Y-160.6504 F15000.0
G1 Z11.9000 F2500.0
G4 P0.02
G1 X147.5911 Y-160.6504 F12000.0
G1 X147.5911 Y-158.7817 F12000.0
G1 X152.1850 Y-158.7817 F12000.0
G1 X152.1850 Y-154.1878 F12000.0
G1 X179.7483 Y-154.1878 F12000.0
G1 Z0.0000 F2500.0
G4 P0.02
G0 X117.2247 Y-160.6504 F15000.0
G1 Z11.9000 F2500.0
G4 P0.02
G1 X115.3560 Y-162.4412 F12000.0
G1 Z0.0000 F2500.0
G4 P0.02
G0 X165.9667 Y-169.8381 F15000.0
G1 Z11.9000 F2500.0
G4 P0.02
G1 X165.9667 Y-181.7511 F12000.0
G1 X152.1850 Y-181.7511 F12000.0
G1 Z0.0000 F2500.0
G4 P0.02
G0 X159.0369 Y-169.8381 F15000.0
G1 Z11.9000 F2500.0
G4 P0.02
G1 X152.1850 Y-181.7511 F12000.0
G1 Z0.0000 F2500.0
G4 P0.02
G0 X159.0369 Y-169.8381 F15000.0
G1 Z11.9000 F2500.0
G4 P0.02
G1 X165.9667 Y-181.7511 F12000.0
G1 Z0.0000 F2500.0
G4 P0.02
G0 X159.5041 Y-169.8381 F15000.0
G1 Z11.9000 F2500.0
G4 P0.02
G1 X159.5041 Y-155.9786 F12000.0
G1 Z0.0000 F2500.0
G4 P0.02
G0 X156.7788 Y-169.8381 F15000.0
G1 Z11.9000 F2500.0
G4 P0.02
G1 X156.7788 Y-155.9786 F12000.0
G1 X159.5041 Y-155.9786 F12000.0
G1 Z0.0000 F2500.0
G4 P0.02
G0 X177.8796 Y-169.8381 F15000.0
G1 Z11.9000 F2500.0
G4 P0.02
G1 X177.8796 Y-157.2245 F12000.0
G1 Z0.0000 F2500.0
G4 P0.02
G0 X179.7483 Y-155.3558 F15000.0
G1 Z11.9000 F2500.0
G4 P0.02
G1 X177.8796 Y-157.2245 F12000.0
G1 X159.5041 Y-157.2245 F12000.0
G1 Z0.0000 F2500.0
G4 P0.02
G0 X159.5041 Y-156.6794 F15000.0
G1 Z11.9000 F2500.0
G4 P0.02
G1 X178.5025 Y-156.6794 F12000.0
G1 Z0.0000 F2500.0
G4 P0.02
G0 X115.3560 Y-165.2442 F15000.0
G1 Z11.9000 F2500.0
G4 P0.02
G1 X156.7788 Y-165.2442 F12000.0
G1 Z0.0000 F2500.0
G4 P0.02
G0 X142.9973 Y-169.8381 F15000.0
G1 Z11.9000 F2500.0
G4 P0.02
G1 X142.9973 Y-179.0259 F12000.0
G1 Z0.0000 F2500.0
G4 P0.02
G0 X142.9973 Y-162.4412 F15000.0
G1 Z11.9000 F2500.0
G4 P0.02
G1 X142.9973 Y-160.6504 F12000.0
G1 Z0.0000 F2500.0
G4 P0.02
G0 X113.8767 Y-169.8381 F15000.0
G1 Z11.9000 F2500.0
G4 P0.02
G1 X124.0767 Y-169.8381 F12000.0
G1 Z0.0000 F2500.0
G4 P0.02
G0 X125.4782 Y-169.8381 F15000.0
G1 Z11.9000 F2500.0
G4 P0.02
G1 X126.8018 Y-169.8381 F12000.0
G1 Z0.0000 F2500.0
G4 P0.02
G0 X128.2033 Y-169.8381 F15000.0
G1 Z11.9000 F2500.0
G4 P0.02
G1 X138.4033 Y-169.8381 F12000.0
G1 Z0.0000 F2500.0
G4 P0.02
G0 X139.7270 Y-169.8381 F15000.0
G1 Z11.9000 F2500.0
G4 P0.02
G1 X141.1286 Y-169.8381 F12000.0
G1 Z0.0000 F2500.0
G4 P0.02
G0 X142.5301 Y-169.8381 F15000.0
G1 Z11.9000 F2500.0
G4 P0.02
G1 X152.6522 Y-169.8381 F12000.0
G1 Z0.0000 F2500.0
G4 P0.02
G0 X154.0537 Y-169.8381 F15000.0
G1 Z11.9000 F2500.0
G4 P0.02
G1 X155.4552 Y-169.8381 F12000.0
G1 Z0.0000 F2500.0
G4 P0.02
G0 X156.7788 Y-169.8381 F15000.0
G1 Z11.9000 F2500.0
G4 P0.02
G1 X166.9789 Y-169.8381 F12000.0
G1 Z0.0000 F2500.0
G4 P0.02
G0 X168.3804 Y-169.8381 F15000.0
G1 Z11.9000 F2500.0
G4 P0.02
G1 X169.7041 Y-169.8381 F12000.0
G1 Z0.0000 F2500.0
G4 P0.02
G0 X171.1056 Y-169.8381 F15000.0
G1 Z11.9000 F2500.0
G4 P0.02
G1 X180.0000 Y-169.8381 F12000.0
G1 Z0.0000 F2500.0
G4 P0.02
G0 X178.7361 Y-154.1878 F15000.0
G1 Z11.9000 F2500.0
G4 P0.02
G1 X179.7483 Y-155.2000 F12000.0
G1 Z0.0000 F2500.0
G4 P0.02
G0 X174.8430 Y-154.1878 F15000.0
G1 Z11.9000 F2500.0
G4 P0.02
G1 X177.8796 Y-157.2245 F12000.0
G1 Z0.0000 F2500.0
G4 P0.02
G0 X170.9499 Y-154.1878 F15000.0
G1 Z11.9000 F2500.0
G4 P0.02
G1 X173.9865 Y-157.2245 F12000.0
G1 Z0.0000 F2500.0
G4 P0.02
G0 X167.0567 Y-154.1878 F15000.0
G1 Z11.9000 F2500.0
G4 P0.02
G1 X170.0934 Y-157.2245 F12000.0
G1 Z0.0000 F2500.0
G4 P0.02
G0 X163.1636 Y-154.1878 F15000.0
G1 Z11.9000 F2500.0
G4 P0.02
G1 X166.2003 Y-157.2245 F12000.0
G1 Z0.0000 F2500.0
G4 P0.02
G0 X159.2705 Y-154.1878 F15000.0
G1 Z11.9000 F2500.0
G4 P0.02
G1 X162.3072 Y-157.2245 F12000.0
G1 Z0.0000 F2500.0
G4 P0.02
G0 X155.2995 Y-154.1878 F15000.0
G1 Z11.9000 F2500.0
G4 P0.02
G1 X157.1682 Y-155.9786 F12000.0
G1 Z0.0000 F2500.0
G4 P0.02
G0 X152.1850 Y-154.8886 F15000.0
G1 Z11.9000 F2500.0
G4 P0.02
G1 X156.7788 Y-159.4824 F12000.0
G1 Z0.0000 F2500.0
G4 P0.02
G0 X152.1072 Y-158.7817 F15000.0
G1 Z11.9000 F2500.0
G4 P0.02
G1 X156.7788 Y-163.3755 F12000.0
G1 Z0.0000 F2500.0
G4 P0.02
G0 X148.2140 Y-158.7817 F15000.0
G1 Z11.9000 F2500.0
G4 P0.02
G1 X154.6766 Y-165.2442 F12000.0
G1 Z0.0000 F2500.0
G4 P0.02
G0 X146.1896 Y-160.6504 F15000.0
G1 Z11.9000 F2500.0
G4 P0.02
G1 X150.7835 Y-165.2442 F12000.0
G1 Z0.0000 F2500.0
G4 P0.02
G0 X142.2965 Y-160.6504 F15000.0
G1 Z11.9000 F2500.0
G4 P0.02
G1 X146.8904 Y-165.2442 F12000.0
G1 Z0.0000 F2500.0
G4 P0.02
G0 X138.3255 Y-160.6504 F15000.0
G1 Z11.9000 F2500.0
G4 P0.02
G1 X142.9194 Y-165.2442 F12000.0
G1 Z0.0000 F2500.0
G4 P0.02
G0 X134.4323 Y-160.6504 F15000.0
G1 Z11.9000 F2500.0
G4 P0.02
G1 X139.0263 Y-165.2442 F12000.0
G1 Z0.0000 F2500.0
G4 P0.02
G0 X130.5392 Y-160.6504 F15000.0
G1 Z11.9000 F2500.0
G4 P0.02
G1 X135.1331 Y-165.2442 F12000.0
G1 Z0.0000 F2500.0
G4 P0.02
G0 X126.6461 Y-160.6504 F15000.0
G1 Z11.9000 F2500.0
G4 P0.02
G1 X131.2400 Y-165.2442 F12000.0
G1 Z0.0000 F2500.0
G4 P0.02
G0 X122.7529 Y-160.6504 F15000.0
G1 Z11.9000 F2500.0
G4 P0.02
G1 X127.3469 Y-165.2442 F12000.0
G1 Z0.0000 F2500.0
G4 P0.02
G0 X118.8598 Y-160.6504 F15000.0
G1 Z11.9000 F2500.0
G4 P0.02
G1 X123.4537 Y-165.2442 F12000.0
G1 Z0.0000 F2500.0
G4 P0.02
G0 X116.0568 Y-161.7404 F15000.0
G1 Z11.9000 F2500.0
G4 P0.02
G1 X119.5606 Y-165.2442 F12000.0
G1 Z0.0000 F2500.0
G4 P0.02
G0 X115.3560 Y-164.9329 F15000.0
G1 Z11.9000 F2500.0
G4 P0.02
G1 X115.6675 Y-165.2442 F12000.0
G1 Z0.0000 F2500.0
G4 P0.02
G0 X106.1683 Y-169.8381 F15000.0
G1 Z11.9000 F2500.0
G4 P0.02
G1 X106.1683 Y-162.4412 F12000.0
G1 Z0.0000 F2500.0
G4 P0.02
G0 X78.6049 Y-169.8381 F15000.0
G1 Z11.9000 F2500.0
G4 P0.02
G1 X78.6049 Y-184.5541 F12000.0
G1 Z0.0000 F2500.0
G4 P0.02
G0 X60.2294 Y-169.8381 F15000.0
G1 Z11.9000 F2500.0
G4 P0.02
G1 X60.2294 Y-184.5541 F12000.0
G1 Z0.0000 F2500.0
G4 P0.02
G0 X78.6049 Y-184.5541 F15000.0
G1 Z11.9000 F2500.0
G4 P0.02
G1 X60.2294 Y-184.5541 F12000.0
G1 Z0.0000 F2500.0
G4 P0.02
G0 X78.6049 Y-155.1222 F15000.0
G1 Z11.9000 F2500.0
G4 P0.02
G1 X60.2294 Y-155.1222 F12000.0
G1 Z0.0000 F2500.0
G4 P0.02
G0 X104.2996 Y-160.6504 F15000.0
G1 Z11.9000 F2500.0
G4 P0.02
G1 X78.6049 Y-160.6504 F12000.0
G1 Z0.0000 F2500.0
G4 P0.02
G0 X104.2996 Y-160.6504 F15000.0
G1 Z11.9000 F2500.0
G4 P0.02
G1 X106.1683 Y-162.4412 F12000.0
G1 X83.1988 Y-162.4412 F12000.0
G1 Z0.0000 F2500.0
G4 P0.02
G0 X83.1988 Y-179.0259 F15000.0
G1 Z11.9000 F2500.0
G4 P0.02
G1 X83.1988 Y-169.8381 F12000.0
G1 Z0.0000 F2500.0
G4 P0.02
G0 X83.1988 Y-162.4412 F15000.0
G1 Z11.9000 F2500.0
G4 P0.02
G1 X83.1988 Y-160.6504 F12000.0
G1 Z0.0000 F2500.0
G4 P0.02
G0 X106.1683 Y-165.2442 F15000.0
G1 Z11.9000 F2500.0
G4 P0.02
G1 X60.2294 Y-165.2442 F12000.0
G1 Z0.0000 F2500.0
G4 P0.02
G0 X78.6049 Y-160.6504 F15000.0
G1 Z11.9000 F2500.0
G4 P0.02
G1 X78.6049 Y-155.1222 F12000.0
G1 Z0.0000 F2500.0
G4 P0.02
G0 X107.8034 Y-169.8381 F15000.0
G1 Z11.9000 F2500.0
G4 P0.02
G1 X98.4599 Y-169.8381 F12000.0
G1 Z0.0000 F2500.0
G4 P0.02
G0 X97.1362 Y-169.8381 F15000.0
G1 Z11.9000 F2500.0
G4 P0.02
G1 X95.7346 Y-169.8381 F12000.0
G1 Z0.0000 F2500.0
G4 P0.02
G0 X94.3331 Y-169.8381 F15000.0
G1 Z11.9000 F2500.0
G4 P0.02
G1 X85.0675 Y-169.8381 F12000.0
G1 Z0.0000 F2500.0
G4 P0.02
G0 X83.6660 Y-169.8381 F15000.0
G1 Z11.9000 F2500.0
G4 P0.02
G1 X82.2645 Y-169.8381 F12000.0
G1 Z0.0000 F2500.0
G4 P0.02
G0 X80.9408 Y-169.8381 F15000.0
G1 Z11.9000 F2500.0
G4 P0.02
G1 X71.5973 Y-169.8381 F12000.0
G1 Z0.0000 F2500.0
G4 P0.02
G0 X70.2737 Y-169.8381 F15000.0
G1 Z11.9000 F2500.0
G4 P0.02
G1 X68.8721 Y-169.8381 F12000.0
G1 Z0.0000 F2500.0
G4 P0.02
G0 X67.4706 Y-169.8381 F15000.0
G1 Z11.9000 F2500.0
G4 P0.02
G1 X58.2049 Y-169.8381 F12000.0
G1 Z0.0000 F2500.0
G4 P0.02
G0 X78.6049 Y-177.7023 F15000.0
G1 Z11.9000 F2500.0
G4 P0.02
G1 X60.2294 Y-177.7023 F12000.0
G1 Z0.0000 F2500.0
G4 P0.02
G0 X69.4171 Y-169.8381 F15000.0
G1 Z11.9000 F2500.0
G4 P0.02
G1 X78.6049 Y-177.7023 F12000.0
G1 Z0.0000 F2500.0
G4 P0.02
G0 X69.4171 Y-169.8381 F15000.0
G1 Z11.9000 F2500.0
G4 P0.02
G1 X60.2294 Y-177.7023 F12000.0
G1 Z0.0000 F2500.0
G4 P0.02
G0 X87.7928 Y-177.1572 F15000.0
G1 Z11.9000 F2500.0
G4 P0.02
G1 X83.1988 Y-177.1572 F12000.0
G1 Z0.0000 F2500.0
G4 P0.02
G0 X87.7928 Y-179.0259 F15000.0
G1 Z11.9000 F2500.0
G4 P0.02
G1 X78.6049 Y-179.0259 F12000.0
G1 Z0.0000 F2500.0
G4 P0.02
G0 X133.7316 Y-177.1572 F15000.0
G1 Z11.9000 F2500.0
G4 P0.02
G1 X142.9973 Y-177.1572 F12000.0
G1 Z0.0000 F2500.0
G4 P0.02
G0 X133.7316 Y-179.0259 F15000.0
G1 Z11.9000 F2500.0
G4 P0.02
G1 X147.5911 Y-179.0259 F12000.0
G1 Z0.0000 F2500.0
G4 P0.02
G0 X87.7928 Y-160.6504 F15000.0
G1 Z11.9000 F2500.0
G4 P0.02
G1 X87.7928 Y-151.3848 F12000.0
G1 X96.9805 Y-151.3848 F12000.0
G1 Z0.0000 F2500.0
G4 P0.02
G0 X133.7316 Y-169.8381 F15000.0
G1 Z11.9000 F2500.0
G4 P0.02
G1 X133.7316 Y-188.2137 F12000.0
G1 X124.5438 Y-188.2137 F12000.0
G1 Z0.0000 F2500.0
G4 P0.02
G0 X115.3560 Y-162.4412 F15000.0
G1 Z11.9000 F2500.0
G4 P0.02
G1 X142.9973 Y-162.4412 F12000.0
G1 Z0.0000 F2500.0
G4 P0.02
G0 X103.2095 Y-160.6504 F15000.0
G1 Z11.9000 F2500.0
G4 P0.02
G1 X106.1683 Y-163.5313 F12000.0
G1 Z0.0000 F2500.0
G4 P0.02
G0 X99.3164 Y-160.6504 F15000.0
G1 Z11.9000 F2500.0
G4 P0.02
G1 X103.9102 Y-165.2442 F12000.0
G1 Z0.0000 F2500.0
G4 P0.02
G0 X95.4233 Y-160.6504 F15000.0
G1 Z11.9000 F2500.0
G4 P0.02
G1 X100.0171 Y-165.2442 F12000.0
G1 Z0.0000 F2500.0
G4 P0.02
G0 X91.5301 Y-160.6504 F15000.0
G1 Z11.9000 F2500.0
G4 P0.02
G1 X96.1240 Y-165.2442 F12000.0
G1 Z0.0000 F2500.0
G4 P0.02
G0 X87.6370 Y-160.6504 F15000.0
G1 Z11.9000 F2500.0
G4 P0.02
G1 X92.2308 Y-165.2442 F12000.0
G1 Z0.0000 F2500.0
G4 P0.02
G0 X83.7439 Y-160.6504 F15000.0
G1 Z11.9000 F2500.0
G4 P0.02
G1 X88.3377 Y-165.2442 F12000.0
G1 Z0.0000 F2500.0
G4 P0.02
G0 X78.2157 Y-155.1222 F15000.0
G1 Z11.9000 F2500.0
G4 P0.02
G1 X78.6049 Y-155.4336 F12000.0
G1 Z0.0000 F2500.0
G4 P0.02
G0 X74.3225 Y-155.1222 F15000.0
G1 Z11.9000 F2500.0
G4 P0.02
G1 X78.6049 Y-159.4045 F12000.0
G1 Z0.0000 F2500.0
G4 P0.02
G0 X79.8508 Y-160.6504 F15000.0
G1 Z11.9000 F2500.0
G4 P0.02
G1 X84.4446 Y-165.2442 F12000.0
G1 Z0.0000 F2500.0
G4 P0.02
G0 X70.4294 Y-155.1222 F15000.0
G1 Z11.9000 F2500.0
G4 P0.02
G1 X80.5515 Y-165.2442 F12000.0
G1 Z0.0000 F2500.0
G4 P0.02
G0 X66.5363 Y-155.1222 F15000.0
G1 Z11.9000 F2500.0
G4 P0.02
G1 X76.6583 Y-165.2442 F12000.0
G1 Z0.0000 F2500.0
G4 P0.02
G0 X62.6431 Y-155.1222 F15000.0
G1 Z11.9000 F2500.0
G4 P0.02
G1 X72.6874 Y-165.2442 F12000.0
G1 Z0.0000 F2500.0
G4 P0.02
G0 X60.2294 Y-156.6015 F15000.0
G1 Z11.9000 F2500.0
G4 P0.02
G1 X68.7943 Y-165.2442 F12000.0
G1 Z0.0000 F2500.0
G4 P0.02
G0 X60.2294 Y-160.4947 F15000.0
G1 Z11.9000 F2500.0
G4 P0.02
G1 X64.9012 Y-165.2442 F12000.0
G1 Z0.0000 F2500.0
G4 P0.02
G0 X60.2294 Y-164.3878 F15000.0
G1 Z11.9000 F2500.0
G4 P0.02
G1 X61.0080 Y-165.2442 F12000.0
G1 Z0.0000 F2500.0
G4 P0.02
G0 X87.7928 Y-152.6305 F15000.0
G1 Z11.9000 F2500.0
G4 P0.02
G1 X89.0385 Y-151.3848 F12000.0
G1 Z0.0000 F2500.0
G4 P0.02
G0 X87.7928 Y-153.9542 F15000.0
G1 Z11.9000 F2500.0
G4 P0.02
G1 X90.3621 Y-151.3848 F12000.0
G1 Z0.0000 F2500.0
G4 P0.02
G0 X87.7928 Y-155.2779 F15000.0
G1 Z11.9000 F2500.0
G4 P0.02
G1 X91.6080 Y-151.3848 F12000.0
G1 Z0.0000 F2500.0
G4 P0.02
G0 X87.7928 Y-156.5237 F15000.0
G1 Z11.9000 F2500.0
G4 P0.02
G1 X92.9316 Y-151.3848 F12000.0
G1 Z0.0000 F2500.0
G4 P0.02
G0 X87.7928 Y-157.8473 F15000.0
G1 Z11.9000 F2500.0
G4 P0.02
G1 X94.2553 Y-151.3848 F12000.0
G1 Z0.0000 F2500.0
G4 P0.02
G0 X87.7928 Y-159.1710 F15000.0
G1 Z11.9000 F2500.0
G4 P0.02
G1 X95.5011 Y-151.3848 F12000.0
G1 Z0.0000 F2500.0
G4 P0.02
G0 X87.7928 Y-160.4947 F15000.0
G1 Z11.9000 F2500.0
G4 P0.02
G1 X96.8248 Y-151.3848 F12000.0
G1 Z0.0000 F2500.0
G4 P0.02
G0 X88.9607 Y-160.6504 F15000.0
G1 Z11.9000 F2500.0
G4 P0.02
G1 X96.9805 Y-152.5527 F12000.0
G1 Z0.0000 F2500.0
G4 P0.02
G0 X90.2064 Y-160.6504 F15000.0
G1 Z11.9000 F2500.0
G4 P0.02
G1 X96.9805 Y-153.8763 F12000.0
G1 Z0.0000 F2500.0
G4 P0.02
G0 X91.5301 Y-160.6504 F15000.0
G1 Z11.9000 F2500.0
G4 P0.02
G1 X96.9805 Y-155.2000 F12000.0
G1 Z0.0000 F2500.0
G4 P0.02
G0 X92.8538 Y-160.6504 F15000.0
G1 Z11.9000 F2500.0
G4 P0.02
G1 X97.4477 Y-155.9786 F12000.0
G1 Z0.0000 F2500.0
G4 P0.02
G0 X94.1774 Y-160.6504 F15000.0
G1 Z11.9000 F2500.0
G4 P0.02
G1 X98.7713 Y-155.9786 F12000.0
G1 Z0.0000 F2500.0
G4 P0.02
G0 X95.4233 Y-160.6504 F15000.0
G1 Z11.9000 F2500.0
G4 P0.02
G1 X100.0171 Y-155.9786 F12000.0
G1 Z0.0000 F2500.0
G4 P0.02
G0 X96.7469 Y-160.6504 F15000.0
G1 Z11.9000 F2500.0
G4 P0.02
G1 X101.3408 Y-155.9786 F12000.0
G1 Z0.0000 F2500.0
G4 P0.02
G0 X98.0705 Y-160.6504 F15000.0
G1 Z11.9000 F2500.0
G4 P0.02
G1 X102.6645 Y-155.9786 F12000.0
G1 Z0.0000 F2500.0
G4 P0.02
G0 X99.3164 Y-160.6504 F15000.0
G1 Z11.9000 F2500.0
G4 P0.02
G1 X103.9102 Y-155.9786 F12000.0
G1 Z0.0000 F2500.0
G4 P0.02
G0 X100.6400 Y-160.6504 F15000.0
G1 Z11.9000 F2500.0
G4 P0.02
G1 X105.2339 Y-155.9786 F12000.0
G1 Z0.0000 F2500.0
G4 P0.02
G0 X101.9637 Y-160.6504 F15000.0
G1 Z11.9000 F2500.0
G4 P0.02
G1 X106.5576 Y-155.9786 F12000.0
G1 Z0.0000 F2500.0
G4 P0.02
G0 X103.2095 Y-160.6504 F15000.0
G1 Z11.9000 F2500.0
G4 P0.02
G1 X107.8034 Y-155.9786 F12000.0
G1 Z0.0000 F2500.0
G4 P0.02
G0 X104.4553 Y-160.7283 F15000.0
G1 Z11.9000 F2500.0
G4 P0.02
G1 X109.1270 Y-155.9786 F12000.0
G1 Z0.0000 F2500.0
G4 P0.02
G0 X105.0782 Y-161.3511 F15000.0
G1 Z11.9000 F2500.0
G4 P0.02
G1 X110.4507 Y-155.9786 F12000.0
G1 Z0.0000 F2500.0
G4 P0.02
G0 X105.7789 Y-162.0519 F15000.0
G1 Z11.9000 F2500.0
G4 P0.02
G1 X111.7744 Y-155.9786 F12000.0
G1 Z0.0000 F2500.0
G4 P0.02
G0 X106.6355 Y-162.4412 F15000.0
G1 Z11.9000 F2500.0
G4 P0.02
G1 X113.0201 Y-155.9786 F12000.0
G1 Z0.0000 F2500.0
G4 P0.02
G0 X107.8812 Y-162.4412 F15000.0
G1 Z11.9000 F2500.0
G4 P0.02
G1 X114.3439 Y-155.9786 F12000.0
G1 Z0.0000 F2500.0
G4 P0.02
G0 X109.2049 Y-162.4412 F15000.0
G1 Z11.9000 F2500.0
G4 P0.02
G1 X115.6675 Y-155.9786 F12000.0
G1 Z0.0000 F2500.0
G4 P0.02
G0 X110.5286 Y-162.4412 F15000.0
G1 Z11.9000 F2500.0
G4 P0.02
G1 X116.9133 Y-155.9786 F12000.0
G1 Z0.0000 F2500.0
G4 P0.02
G0 X111.7744 Y-162.4412 F15000.0
G1 Z11.9000 F2500.0
G4 P0.02
G1 X118.2370 Y-155.9786 F12000.0
G1 Z0.0000 F2500.0
G4 P0.02
G0 X113.0980 Y-162.4412 F15000.0
G1 Z11.9000 F2500.0
G4 P0.02
G1 X119.5606 Y-155.9786 F12000.0
G1 Z0.0000 F2500.0
G4 P0.02
G0 X114.4217 Y-162.4412 F15000.0
G1 Z11.9000 F2500.0
G4 P0.02
G1 X120.8843 Y-155.9786 F12000.0
G1 Z0.0000 F2500.0
G4 P0.02
G0 X124.5438 Y-152.3191 F15000.0
G1 Z11.9000 F2500.0
G4 P0.02
G1 X125.4782 Y-151.3848 F12000.0
G1 Z0.0000 F2500.0
G4 P0.02
G0 X124.5438 Y-153.5649 F15000.0
G1 Z11.9000 F2500.0
G4 P0.02
G1 X126.7239 Y-151.3848 F12000.0
G1 Z0.0000 F2500.0
G4 P0.02
G0 X117.5362 Y-160.6504 F15000.0
G1 Z11.9000 F2500.0
G4 P0.02
G1 X122.1301 Y-155.9786 F12000.0
G1 Z0.0000 F2500.0
G4 P0.02
G0 X118.8598 Y-160.6504 F15000.0
G1 Z11.9000 F2500.0
G4 P0.02
G1 X123.4537 Y-155.9786 F12000.0
G1 Z0.0000 F2500.0
G4 P0.02
G0 X124.5438 Y-154.8886 F15000.0
G1 Z11.9000 F2500.0
G4 P0.02
G1 X128.0476 Y-151.3848 F12000.0
G1 Z0.0000 F2500.0
G4 P0.02
G0 X120.1836 Y-160.6504 F15000.0
G1 Z11.9000 F2500.0
G4 P0.02
G1 X129.3713 Y-151.3848 F12000.0
G1 Z0.0000 F2500.0
G4 P0.02
G0 X121.4293 Y-160.6504 F15000.0
G1 Z11.9000 F2500.0
G4 P0.02
G1 X130.6171 Y-151.3848 F12000.0
G1 Z0.0000 F2500.0
G4 P0.02
G0 X122.7529 Y-160.6504 F15000.0
G1 Z11.9000 F2500.0
G4 P0.02
G1 X131.9407 Y-151.3848 F12000.0
G1 Z0.0000 F2500.0
G4 P0.02
G0 X124.0767 Y-160.6504 F15000.0
G1 Z11.9000 F2500.0
G4 P0.02
G1 X133.2644 Y-151.3848 F12000.0
G1 Z0.0000 F2500.0
G4 P0.02
G0 X125.3224 Y-160.6504 F15000.0
G1 Z11.9000 F2500.0
G4 P0.02
G1 X133.7316 Y-152.1633 F12000.0
G1 Z0.0000 F2500.0
G4 P0.02
G0 X126.6461 Y-160.6504 F15000.0
G1 Z11.9000 F2500.0
G4 P0.02
G1 X133.7316 Y-153.4871 F12000.0
G1 Z0.0000 F2500.0
G4 P0.02
G0 X127.9698 Y-160.6504 F15000.0
G1 Z11.9000 F2500.0
G4 P0.02
G1 X133.7316 Y-154.8107 F12000.0
G1 Z0.0000 F2500.0
G4 P0.02
G0 X129.2156 Y-160.6504 F15000.0
G1 Z11.9000 F2500.0
G4 P0.02
G1 X133.7316 Y-156.1343 F12000.0
G1 Z0.0000 F2500.0
G4 P0.02
G0 X130.5392 Y-160.6504 F15000.0
G1 Z11.9000 F2500.0
G4 P0.02
G1 X133.7316 Y-157.3802 F12000.0
G1 Z0.0000 F2500.0
G4 P0.02
G0 X131.8629 Y-160.6504 F15000.0
G1 Z11.9000 F2500.0
G4 P0.02
G1 X133.7316 Y-158.7038 F12000.0
G1 Z0.0000 F2500.0
G4 P0.02
G0 X133.1866 Y-160.6504 F15000.0
G1 Z11.9000 F2500.0
G4 P0.02
G1 X133.7316 Y-160.0275 F12000.0
G1 Z0.0000 F2500.0
G4 P0.02
G0 X60.2294 Y-169.8381 F15000.0
G1 Z11.9000 F2500.0
G4 P0.02
G1 X60.2294 Y-125.4565 F12000.0
G1 Z0.0000 F2500.0
G4 P0.02
G0 X179.7483 Y-169.8381 F15000.0
G1 Z11.9000 F2500.0
G4 P0.02
G1 X179.7483 Y-125.4565 F12000.0
G1 Z0.0000 F2500.0
G4 P0.02
G0 X106.1683 Y-162.4412 F15000.0
G1 Z11.9000 F2500.0
G4 P0.02
G1 X106.1683 Y-139.0824 F12000.0
G1 Z0.0000 F2500.0
G4 P0.02
G0 X87.7928 Y-151.3848 F15000.0
G1 Z11.9000 F2500.0
G4 P0.02
G1 X87.7928 Y-139.0824 F12000.0
G1 Z0.0000 F2500.0
G4 P0.02
G0 X115.3560 Y-162.4412 F15000.0
G1 Z11.9000 F2500.0
G4 P0.02
G1 X115.3560 Y-139.0824 F12000.0
G1 Z0.0000 F2500.0
G4 P0.02
G0 X133.7316 Y-160.6504 F15000.0
G1 Z11.9000 F2500.0
G4 P0.02
G1 X133.7316 Y-139.0824 F12000.0
G1 Z0.0000 F2500.0
G4 P0.02
G0 X155.6109 Y-234.9312 F15000.0
G1 Z11.9000 F2500.0
G4 P0.02
G1 X155.6109 Y-223.8748 F12000.0
G1 Z0.0000 F2500.0
G4 P0.02
G0 X155.6109 Y-117.2031 F15000.0
G1 Z11.9000 F2500.0
G4 P0.02
G1 X155.6109 Y-106.1466 F12000.0
G1 Z0.0000 F2500.0
G4 P0.02
G0 X123.4712 Y-133.3821 F15000.0
G1 Z11.9000 F2500.0
G4 P0.02
G1 X124.1399 Y-133.3403 F12000.0
G1 X124.3072 Y-132.8805
G1 Z0.0000 F2500.0
G4 P0.02
G0 X123.7637 Y-132.8805 F15000.0
G1 Z11.9000 F2500.0
G4 P0.02
G1 X123.9727 Y-133.1313 F12000.0
G1 Z0.0000 F2500.0
G4 P0.02
G0 X124.1818 Y-134.0091 F15000.0
G1 Z11.9000 F2500.0
G4 P0.02
G1 X124.3072 Y-133.5911 F12000.0
G1 X124.5162 Y-133.4239
G1 X124.8506 Y-133.4657
G1 Z0.0000 F2500.0
G4 P0.02
G0 X124.6416 Y-133.8837 F15000.0
G1 Z11.9000 F2500.0
G4 P0.02
G1 X124.8924 Y-134.2181 F12000.0
G1 Z0.0000 F2500.0
G4 P0.02
G0 X60.2294 Y-127.3252 F15000.0
G1 Z11.9000 F2500.0
G4 P0.02
G1 X64.8233 Y-127.9481 F12000.0
G1 X64.3561 Y-127.3252 F12000.0
G1 X64.8233 Y-126.7024 F12000.0
G1 X60.2294 Y-127.3252 F12000.0
G1 Z0.0000 F2500.0
G4 P0.02
G0 X62.4239 Y-127.6367 F15000.0
G1 Z11.9000 F2500.0
G4 P0.02
G1 X63.2516 Y-127.6367 F12000.0
G1 Z0.0000 F2500.0
G4 P0.02
G0 X62.1125 Y-127.0527 F15000.0
G1 Z11.9000 F2500.0
G4 P0.02
G1 X62.9401 Y-127.0527 F12000.0
G1 Z0.0000 F2500.0
G4 P0.02
G0 X179.7483 Y-127.3252 F15000.0
G1 Z11.9000 F2500.0
G4 P0.02
G1 X175.1545 Y-126.7024 F12000.0
G1 X175.6217 Y-127.3252 F12000.0
G1 X175.1545 Y-127.9481 F12000.0
G1 X179.7483 Y-127.3252 F12000.0
G1 Z0.0000 F2500.0
G4 P0.02
G0 X177.0765 Y-127.0527 F15000.0
G1 Z11.9000 F2500.0
G4 P0.02
G1 X177.9042 Y-127.0527 F12000.0
G1 Z0.0000 F2500.0
G4 P0.02
G0 X176.8039 Y-127.6367 F15000.0
G1 Z11.9000 F2500.0
G4 P0.02
G1 X177.6316 Y-127.6367 F12000.0
G1 Z0.0000 F2500.0
G4 P0.02
G0 X60.2294 Y-127.3252 F15000.0
G1 Z11.9000 F2500.0
G4 P0.02
G1 X179.7483 Y-127.3252 F12000.0
G1 Z0.0000 F2500.0
G4 P0.02
G0 X106.1683 Y-140.9511 F15000.0
G1 Z11.9000 F2500.0
G4 P0.02
G1 X101.5743 Y-140.3282 F12000.0
G1 X102.0415 Y-140.9511 F12000.0
G1 X101.5743 Y-141.4962 F12000.0
G1 X106.1683 Y-140.9511 F12000.0
G1 Z0.0000 F2500.0
G4 P0.02
G0 X103.4964 Y-140.6786 F15000.0
G1 Z11.9000 F2500.0
G4 P0.02
G1 X104.3241 Y-140.6786 F12000.0
G1 Z0.0000 F2500.0
G4 P0.02
G0 X103.1850 Y-141.2237 F15000.0
G1 Z11.9000 F2500.0
G4 P0.02
G1 X104.0127 Y-141.2237 F12000.0
G1 Z0.0000 F2500.0
G4 P0.02
G0 X87.7928 Y-140.9511 F15000.0
G1 Z11.9000 F2500.0
G4 P0.02
G1 X92.3866 Y-141.4962 F12000.0
G1 X91.9194 Y-140.9511 F12000.0
G1 X92.3866 Y-140.3282 F12000.0
G1 X87.7928 Y-140.9511 F12000.0
G1 Z0.0000 F2500.0
G4 P0.02
G0 X90.0262 Y-141.2237 F15000.0
G1 Z11.9000 F2500.0
G4 P0.02
G1 X90.8539 Y-141.2237 F12000.0
G1 Z0.0000 F2500.0
G4 P0.02
G0 X89.6758 Y-140.6786 F15000.0
G1 Z11.9000 F2500.0
G4 P0.02
G1 X90.5035 Y-140.6786 F12000.0
G1 Z0.0000 F2500.0
G4 P0.02
G0 X106.1683 Y-140.9511 F15000.0
G1 Z11.9000 F2500.0
G4 P0.02
G1 X87.7928 Y-140.9511 F12000.0
G1 Z0.0000 F2500.0
G4 P0.02
G0 X115.3560 Y-140.9511 F15000.0
G1 Z11.9000 F2500.0
G4 P0.02
G1 X119.9500 Y-141.4962 F12000.0
G1 X119.4828 Y-140.9511 F12000.0
G1 X119.9500 Y-140.3282 F12000.0
G1 X115.3560 Y-140.9511 F12000.0
G1 Z0.0000 F2500.0
G4 P0.02
G0 X117.5895 Y-141.2237 F15000.0
G1 Z11.9000 F2500.0
G4 P0.02
G1 X118.4172 Y-141.2237 F12000.0
G1 Z0.0000 F2500.0
G4 P0.02
G0 X117.2392 Y-140.6786 F15000.0
G1 Z11.9000 F2500.0
G4 P0.02
G1 X118.0668 Y-140.6786 F12000.0
G1 Z0.0000 F2500.0
G4 P0.02
G0 X133.7316 Y-140.9511 F15000.0
G1 Z11.9000 F2500.0
G4 P0.02
G1 X129.1377 Y-140.3282 F12000.0
G1 X129.6049 Y-140.9511 F12000.0
G1 X129.1377 Y-141.4962 F12000.0
G1 X133.7316 Y-140.9511 F12000.0
G1 Z0.0000 F2500.0
G4 P0.02
G0 X131.0597 Y-140.6786 F15000.0
G1 Z11.9000 F2500.0
G4 P0.02
G1 X131.8874 Y-140.6786 F12000.0
G1 Z0.0000 F2500.0
G4 P0.02
G0 X130.7483 Y-141.2237 F15000.0
G1 Z11.9000 F2500.0
G4 P0.02
G1 X131.5759 Y-141.2237 F12000.0
G1 Z0.0000 F2500.0
G4 P0.02
G0 X115.3560 Y-140.9511 F15000.0
G1 Z11.9000 F2500.0
G4 P0.02
G1 X133.7316 Y-140.9511 F12000.0
G1 Z0.0000 F2500.0
G4 P0.02
G0 X73.6502 Y-174.0921 F15000.0
G1 Z11.9000 F2500.0
G4 P0.02
G1 X74.2940 Y-173.4483 F12000.0
G1 Z0.0000 F2500.0
G4 P0.02
G0 X91.2187 Y-217.2564 F15000.0
G1 Z11.9000 F2500.0
G4 P0.02
G1 X74.0111 Y-173.7313 F12000.0
G1 Z0.0000 F2500.0
G4 P0.02
G0 X91.2187 Y-217.2564 F15000.0
G1 Z11.9000 F2500.0
G4 P0.02
G1 X98.5377 Y-217.2564 F12000.0
G1 Z0.0000 F2500.0
G4 P0.02
G0 X94.5517 Y-219.8012 F15000.0
G1 Z11.9000 F2500.0
G4 P0.02
G1 X95.9312 Y-223.6470 F12000.0
G1 X96.1820 Y-223.9814
G1 Z0.0000 F2500.0
G4 P0.02
G0 X94.7189 Y-222.9782 F15000.0
G1 Z11.9000 F2500.0
G4 P0.02
G1 X94.8861 Y-223.1454 F12000.0
G1 Z0.0000 F2500.0
G4 P0.02
G0 X95.5968 Y-223.6052 F15000.0
G1 Z11.9000 F2500.0
G4 P0.02
G1 X95.8893 Y-223.6888 F12000.0
G1 Z0.0000 F2500.0
G4 P0.02
G0 X110.6095 Y-176.2197 F15000.0
G1 Z11.9000 F2500.0
G4 P0.02
G1 X111.2262 Y-175.6031 F12000.0
G1 Z0.0000 F2500.0
G4 P0.02
G0 X124.9331 Y-217.2564 F15000.0
G1 Z11.9000 F2500.0
G4 P0.02
G1 X110.9179 Y-175.9114 F12000.0
G1 Z0.0000 F2500.0
G4 P0.02
G0 X124.9331 Y-217.2564 F15000.0
G1 Z11.9000 F2500.0
G4 P0.02
G1 X133.1866 Y-217.2564 F12000.0
G1 Z0.0000 F2500.0
G4 P0.02
G0 X127.2775 Y-219.7271 F15000.0
G1 Z11.9000 F2500.0
G4 P0.02
G1 X127.5702 Y-219.8525 F12000.0
G1 X130.3709 Y-222.8622
G1 X130.4963 Y-223.5310
G1 Z0.0000 F2500.0
G4 P0.02
G0 X127.5702 Y-219.8525 F15000.0
G1 Z11.9000 F2500.0
G4 P0.02
G1 X129.1168 Y-219.7689 F12000.0
G1 Z0.0000 F2500.0
G4 P0.02
G0 X128.6570 Y-223.4057 F15000.0
G1 Z11.9000 F2500.0
G4 P0.02
G1 X128.9079 Y-223.6564 F12000.0
G1 X129.3677 Y-223.9072
G1 X130.0783 Y-223.9908
G1 Z0.0000 F2500.0
G4 P0.02
G0 X158.7540 Y-176.1165 F15000.0
G1 Z11.9000 F2500.0
G4 P0.02
G1 X159.3977 Y-175.4727 F12000.0
G1 Z0.0000 F2500.0
G4 P0.02
G0 X173.0522 Y-217.2564 F15000.0
G1 Z11.9000 F2500.0
G4 P0.02
G1 X159.0369 Y-175.7557 F12000.0
G1 Z0.0000 F2500.0
G4 P0.02
G0 X173.0522 Y-217.2564 F15000.0
G1 Z11.9000 F2500.0
G4 P0.02
G1 X180.0000 Y-217.2564 F12000.0
G1 Z0.0000 F2500.0
G4 P0.02
G0 X175.3568 Y-219.6853 F15000.0
G1 Z11.9000 F2500.0
G4 P0.02
G1 X176.4854 Y-219.8107 F12000.0
G1 X176.9870 Y-220.0615
G1 X177.2378 Y-220.3123
G1 X177.4886 Y-220.8975
G1 Z0.0000 F2500.0
G4 P0.02
G0 X177.1124 Y-224.0327 F15000.0
G1 Z11.9000 F2500.0
G4 P0.02
G1 X177.9903 Y-223.9491 F12000.0
G1 Z0.0000 F2500.0
G4 P0.02
G0 X177.1124 Y-222.0680 F15000.0
G1 Z11.9000 F2500.0
G4 P0.02
G1 X177.4050 Y-222.0680 F12000.0
G1 X177.6559 Y-221.2738
G1 X177.6140 Y-221.1902
G1 Z0.0000 F2500.0
G4 P0.02
G0 X177.4886 Y-222.1515 F15000.0
G1 Z11.9000 F2500.0
G4 P0.02
G1 X177.9903 Y-222.8622 F12000.0
G1 X178.2411 Y-223.6564
G1 X178.1575 Y-223.8236
G1 Z0.0000 F2500.0
G4 P0.02
G0 X155.6109 Y-232.2060 F15000.0
G1 Z11.9000 F2500.0
G4 P0.02
G1 X148.6812 Y-231.2717 F12000.0
G1 Z0.0000 F2500.0
G4 P0.02
G0 X148.6812 Y-233.0625 F15000.0
G1 Z11.9000 F2500.0
G4 P0.02
G1 X155.6109 Y-232.2060 F12000.0
G1 Z0.0000 F2500.0
G4 P0.02
G0 X149.3041 Y-232.0503 F15000.0
G1 Z11.9000 F2500.0
G4 P0.02
G1 X154.5209 Y-232.0503 F12000.0
G1 Z0.0000 F2500.0
G4 P0.02
G0 X149.1483 Y-231.8945 F15000.0
G1 Z11.9000 F2500.0
G4 P0.02
G1 X153.3529 Y-231.8945 F12000.0
G1 Z0.0000 F2500.0
G4 P0.02
G0 X149.0705 Y-231.7389 F15000.0
G1 Z11.9000 F2500.0
G4 P0.02
G1 X152.1850 Y-231.7389 F12000.0
G1 Z0.0000 F2500.0
G4 P0.02
G0 X148.9148 Y-231.5832 F15000.0
G1 Z11.9000 F2500.0
G4 P0.02
G1 X151.0170 Y-231.5832 F12000.0
G1 Z0.0000 F2500.0
G4 P0.02
G0 X149.0705 Y-232.6732 F15000.0
G1 Z11.9000 F2500.0
G4 P0.02
G1 X151.8736 Y-232.6732 F12000.0
G1 Z0.0000 F2500.0
G4 P0.02
G0 X149.1483 Y-232.5175 F15000.0
G1 Z11.9000 F2500.0
G4 P0.02
G1 X153.1193 Y-232.5175 F12000.0
G1 Z0.0000 F2500.0
G4 P0.02
G0 X149.3041 Y-232.3617 F15000.0
G1 Z11.9000 F2500.0
G4 P0.02
G1 X154.3652 Y-232.3617 F12000.0
G1 Z0.0000 F2500.0
G4 P0.02
G0 X141.8293 Y-232.2060 F15000.0
G1 Z11.9000 F2500.0
G4 P0.02
G1 X155.6109 Y-232.2060 F12000.0
G1 Z0.0000 F2500.0
G4 P0.02
G0 X155.6109 Y-108.9497 F15000.0
G1 Z11.9000 F2500.0
G4 P0.02
G1 X148.6812 Y-108.0153 F12000.0
G1 Z0.0000 F2500.0
G4 P0.02
G0 X148.6812 Y-109.8061 F15000.0
G1 Z11.9000 F2500.0
G4 P0.02
G1 X155.6109 Y-108.9497 F12000.0
G1 Z0.0000 F2500.0
G4 P0.02
G0 X149.3041 Y-108.7939 F15000.0
G1 Z11.9000 F2500.0
G4 P0.02
G1 X154.5209 Y-108.7939 F12000.0
G1 Z0.0000 F2500.0
G4 P0.02
G0 X149.1483 Y-108.6382 F15000.0
G1 Z11.9000 F2500.0
G4 P0.02
G1 X153.3529 Y-108.6382 F12000.0
G1 Z0.0000 F2500.0
G4 P0.02
G0 X149.0705 Y-108.4825 F15000.0
G1 Z11.9000 F2500.0
G4 P0.02
G1 X152.1850 Y-108.4825 F12000.0
G1 Z0.0000 F2500.0
G4 P0.02
G0 X148.9148 Y-108.3267 F15000.0
G1 Z11.9000 F2500.0
G4 P0.02
G1 X151.0170 Y-108.3267 F12000.0
G1 Z0.0000 F2500.0
G4 P0.02
G0 X149.0705 Y-109.4169 F15000.0
G1 Z11.9000 F2500.0
G4 P0.02
G1 X151.8736 Y-109.4169 F12000.0
G1 Z0.0000 F2500.0
G4 P0.02
G0 X149.1483 Y-109.2611 F15000.0
G1 Z11.9000 F2500.0
G4 P0.02
G1 X153.1193 Y-109.2611 F12000.0
G1 Z0.0000 F2500.0
G4 P0.02
G0 X149.3041 Y-109.1054 F15000.0
G1 Z11.9000 F2500.0
G4 P0.02
G1 X154.3652 Y-109.1054 F12000.0
G1 Z0.0000 F2500.0
G4 P0.02
G0 X141.8293 Y-108.9497 F15000.0
G1 Z11.9000 F2500.0
G4 P0.02
G1 X155.6109 Y-108.9497 F12000.0
G1 Z0.0000 F2500.0
G4 P0.02
G0 X61.1638 Y-264.1297 F15000.0
G1 Z11.9000 F2500.0
G4 P0.02
G1 X0.0000 Y-264.1297 F12000.0
G1 Z0.0000 F2500.0
G4 P0.02
G0 X61.1638 Y-276.9770 F15000.0
G1 Z11.9000 F2500.0
G4 P0.02
G1 X61.1638 Y-264.1297 F12000.0
G1 Z0.0000 F2500.0
G4 P0.02
G0 X142.9675 Y-235.4158 F15000.0
G1 Z11.9000 F2500.0
G4 P0.02
G1 X143.5527 Y-237.6313 F12000.0
G1 X143.7199 Y-238.0076
G1 Z0.0000 F2500.0
G4 P0.02
G0 X144.3052 Y-240.4321 F15000.0
G1 Z11.9000 F2500.0
G4 P0.02
G1 X143.7199 Y-238.0076 F12000.0
G1 X146.6879 Y-237.9657
G1 X145.6010 Y-242.6057
G1 X144.8486 Y-242.4386
G1 X144.3888 Y-240.6829
G1 Z0.0000 F2500.0
G4 P0.02
G0 X144.9814 Y-242.4681 F15000.0
G1 Z11.9000 F2500.0
G4 P0.02
G1 X144.9740 Y-242.8565 F12000.0
G1 X145.5174 Y-242.8565
G1 X145.2248 Y-243.0656
G1 X145.2248 Y-243.7344
G1 Z0.0000 F2500.0
G4 P0.02
G0 X146.6879 Y-237.9657 F15000.0
G1 Z11.9000 F2500.0
G4 P0.02
G1 X147.0641 Y-237.1297 F12000.0
G1 X147.5657 Y-235.3741
G1 Z0.0000 F2500.0
G4 P0.02
G0 X148.6812 Y-231.2717 F15000.0
G1 Z11.9000 F2500.0
G4 P0.02
G1 X149.3819 Y-232.2060 F12000.0
G1 X148.6812 Y-233.0625
G1 Z0.0000 F2500.0
G4 P0.02
G0 X149.3819 Y-232.2060 F15000.0
G1 Z11.9000 F2500.0
G4 P0.02
G1 X148.9148 Y-231.5053 F12000.0
G1 Z0.0000 F2500.0
G4 P0.02
G0 X150.4721 Y-231.5053 F15000.0
G1 Z11.9000 F2500.0
G4 P0.02
G1 X148.8370 Y-231.4274 F12000.0
G1 X148.7591 Y-231.3496
G1 X149.3041 Y-231.3496
G1 Z0.0000 F2500.0
G4 P0.02
G0 X148.7591 Y-231.3496 F15000.0
G1 Z11.9000 F2500.0
G4 P0.02
G1 X148.7591 Y-232.9847 F12000.0
G1 X149.3819 Y-232.9847
G1 X148.8370 Y-232.9068
G1 Z0.0000 F2500.0
G4 P0.02
G0 X150.6278 Y-232.8289 F15000.0
G1 Z11.9000 F2500.0
G4 P0.02
G1 X148.9148 Y-232.8289 F12000.0
G1 Z0.0000 F2500.0
G4 P0.02
G0 X142.9675 Y-99.0252 F15000.0
G1 Z11.9000 F2500.0
G4 P0.02
G1 X143.5527 Y-101.2406 F12000.0
G1 X143.7199 Y-101.6169
G1 Z0.0000 F2500.0
G4 P0.02
G0 X144.3052 Y-104.0414 F15000.0
G1 Z11.9000 F2500.0
G4 P0.02
G1 X143.7199 Y-101.6169 F12000.0
G1 X146.6879 Y-101.5751
G1 X145.6010 Y-106.2151
G1 X144.8486 Y-106.0479
G1 X144.3888 Y-104.2922
G1 Z0.0000 F2500.0
G4 P0.02
G0 X144.9814 Y-106.0774 F15000.0
G1 Z11.9000 F2500.0
G4 P0.02
G1 X144.9740 Y-106.4659 F12000.0
G1 X145.5174 Y-106.4659
G1 X145.2248 Y-106.6749
G1 X145.2248 Y-107.3437
G1 Z0.0000 F2500.0
G4 P0.02
G0 X146.6879 Y-101.5751 F15000.0
G1 Z11.9000 F2500.0
G4 P0.02
G1 X147.0641 Y-100.7391 F12000.0
G1 X147.5657 Y-98.9834
G1 Z0.0000 F2500.0
G4 P0.02
G0 X148.6812 Y-108.0153 F15000.0
G1 Z11.9000 F2500.0
G4 P0.02
G1 X149.3819 Y-108.9497 F12000.0
G1 X148.6812 Y-109.8061
G1 Z0.0000 F2500.0
G4 P0.02
G0 X149.3819 Y-108.9497 F15000.0
G1 Z11.9000 F2500.0
G4 P0.02
G1 X148.9148 Y-108.2489 F12000.0
G1 Z0.0000 F2500.0
G4 P0.02
G0 X150.4721 Y-108.2489 F15000.0
G1 Z11.9000 F2500.0
G4 P0.02
G1 X148.8370 Y-108.1710 F12000.0
G1 X148.7591 Y-108.0931
G1 X149.3041 Y-108.0931
G1 Z0.0000 F2500.0
G4 P0.02
G0 X148.7591 Y-108.0931 F15000.0
G1 Z11.9000 F2500.0
G4 P0.02
G1 X148.7591 Y-109.7283 F12000.0
G1 X149.3819 Y-109.7283
G1 X148.8370 Y-109.6504
G1 Z0.0000 F2500.0
G4 P0.02
G0 X150.6278 Y-109.5726 F15000.0
G1 Z11.9000 F2500.0
G4 P0.02
G1 X148.9148 Y-109.5726 F12000.0
G1 Z0.0000 F2500.0
G4 P0.02
G0 X23.7990 Y-267.7012 F15000.0
G1 Z11.9000 F2500.0
G4 P0.02
G1 X24.4679 Y-268.0355 F12000.0
G1 X25.4711 Y-268.8716
G1 X26.1399 Y-269.8748
G1 X26.1817 Y-270.3346
G1 X24.3424 Y-270.4182
G1 X24.0080 Y-270.7527
G1 X24.0498 Y-271.6723
G1 X24.6350 Y-272.8846
G1 X25.2621 Y-273.3862
G1 X26.2653 Y-273.5952
G1 X26.9341 Y-273.3862
G1 X27.1013 Y-273.2190
G1 X27.1849 Y-272.4665
G1 X26.5161 Y-270.6273
G1 X27.4357 Y-269.3314
G1 X27.1432 Y-268.7462
G1 X27.2268 Y-268.0355
G1 X27.4776 Y-267.7848
G1 X28.2300 Y-267.5757
G1 X28.9824 Y-267.8266
G1 X29.6930 Y-268.3700
G1 Z0.0000 F2500.0
G4 P0.02
G0 X29.4423 Y-271.3379 F15000.0
G1 Z11.9000 F2500.0
G4 P0.02
G1 X31.3651 Y-273.5534 F12000.0
G1 X28.9824 Y-273.5116
G1 Z0.0000 F2500.0
G4 P0.02
G0 X15.4734 Y-267.7012 F15000.0
G1 Z11.9000 F2500.0
G4 P0.02
G1 X14.0522 Y-267.6593 F12000.0
G1 X13.7596 Y-267.8266
G1 X13.6342 Y-267.9938
G1 X13.6760 Y-268.8716
G1 X15.0555 Y-272.5501
G1 X15.6825 Y-273.2608
G1 X16.1423 Y-273.5116
G1 X17.5636 Y-273.3862
G1 X17.8144 Y-273.0099
G1 X17.7725 Y-272.3829
G1 X16.4349 Y-268.6626
G1 Z0.0000 F2500.0
G4 P0.02
G0 X16.6857 Y-269.3314 F15000.0
G1 Z11.9000 F2500.0
G4 P0.02
G1 X16.2259 Y-268.2864 F12000.0
G1 X15.9751 Y-268.0355
G1 Z0.0000 F2500.0
G4 P0.02
G0 X17.9398 Y-269.3314 F15000.0
G1 Z11.9000 F2500.0
G4 P0.02
G1 X17.7725 Y-268.8716 F12000.0
G1 X17.7308 Y-267.9938
G1 X17.8980 Y-267.7848
G1 X18.0652 Y-269.6659
G1 X19.1520 Y-272.5501
G1 X19.7372 Y-273.2608
G1 X20.2389 Y-273.5116
G1 X21.6601 Y-273.3862
G1 X21.8273 Y-273.2190
G1 X21.9109 Y-272.4665
G1 X20.9077 Y-269.7495
G1 X20.9495 Y-269.8748
G1 X20.2807 Y-268.2446
G1 X19.8627 Y-267.8683
G1 X19.2774 Y-267.6176
G1 X18.2324 Y-267.6176
G1 Z0.0000 F2500.0
G4 P0.02
G0 X7.1923 Y-267.7012 F15000.0
G1 Z11.9000 F2500.0
G4 P0.02
G1 X7.1087 Y-267.6176 F12000.0
G1 X4.7260 Y-267.5340
G1 Z0.0000 F2500.0
G4 P0.02
G0 X5.7292 Y-270.9617 F15000.0
G1 Z11.9000 F2500.0
G4 P0.02
G1 X5.8128 Y-271.5469 F12000.0
G1 X6.2727 Y-272.6337
G1 X5.8546 Y-270.6691
G1 X6.1472 Y-270.4182
G1 X8.0283 Y-270.3346
G1 X8.0283 Y-269.9167
G1 X7.1923 Y-267.7012
G1 X8.5299 Y-267.5340
G1 X10.0766 Y-267.7012
G1 X10.4946 Y-267.9102
G1 X11.0799 Y-268.6208
G1 X12.1249 Y-271.3379
G1 X12.5429 Y-273.0099
G1 X12.4175 Y-273.2608
G1 X11.9577 Y-273.5534
G1 X10.6618 Y-273.5116
G1 Z0.0000 F2500.0
G4 P0.02
G0 X6.2727 Y-272.6337 F15000.0
G1 Z11.9000 F2500.0
G4 P0.02
G1 X6.3981 Y-272.8846 F12000.0
G1 X6.8161 Y-273.2608
G1 X7.2759 Y-273.5116
G1 X9.2406 Y-273.5952
G1 X9.1570 Y-273.0099
G1 X8.1955 Y-270.4182
G1 X8.0283 Y-270.3346
G1 Z0.0000 F2500.0
G4 P0.02
G0 X48.7448 Y-267.7779 F15000.0
G1 Z11.9000 F2500.0
G4 P0.02
G1 X50.7095 Y-269.5753 F12000.0
G1 X51.0439 Y-270.0769
G1 X50.9184 Y-269.7843
G1 X52.2979 Y-270.6621
G1 X51.3783 Y-267.8614
G1 Z0.0000 F2500.0
G4 P0.02
G0 X50.7095 Y-273.4629 F15000.0
G1 Z11.9000 F2500.0
G4 P0.02
G1 X51.0439 Y-270.0769 F12000.0
G1 X51.4201 Y-270.2023
G1 X51.7963 Y-270.5368
G1 X52.2562 Y-270.7040
G1 X52.4233 Y-270.9130
G1 X53.3012 Y-273.1285
G1 Z0.0000 F2500.0
G4 P0.02
G0 X45.9670 Y-271.6377 F15000.0
G1 Z11.9000 F2500.0
G4 P0.02
G1 X44.4566 Y-267.7224 F12000.0
G1 Z0.0000 F2500.0
G4 P0.02
G0 X47.1737 Y-267.6388 F15000.0
G1 Z11.9000 F2500.0
G4 P0.02
G1 X47.3410 Y-267.9732 F12000.0
G1 X48.0516 Y-270.3559
G1 X45.5853 Y-270.3559
G1 X46.1705 Y-272.3206
G1 X46.6303 Y-273.5746
G1 X45.3264 Y-273.5746
G1 X43.2363 Y-267.9732
G1 X40.8954 Y-267.5134
G1 Z0.0000 F2500.0
G4 P0.02
G0 X49.0966 Y-272.7804 F15000.0
G1 Z11.9000 F2500.0
G4 P0.02
G1 X48.2188 Y-270.4395 F12000.0
G1 X48.0516 Y-270.3559
G1 Z0.0000 F2500.0
G4 P0.02
G0 X48.8876 Y-272.2370 F15000.0
G1 Z11.9000 F2500.0
G4 P0.02
G1 X49.3892 Y-273.5746 F12000.0
G1 Z0.0000 F2500.0
G4 P0.02
G0 X41.8894 Y-273.4456 F15000.0
G1 Z11.9000 F2500.0
G4 P0.02
G1 X40.0432 Y-273.2190 F12000.0
G1 X40.1269 Y-273.0099
G1 X40.0850 Y-272.3829
G1 X38.7474 Y-268.6626
G1 Z0.0000 F2500.0
G4 P0.02
G0 X38.9982 Y-269.3314 F15000.0
G1 Z11.9000 F2500.0
G4 P0.02
G1 X38.5384 Y-268.2864 F12000.0
G1 X37.7859 Y-267.7012
G1 X36.3646 Y-267.6593
G1 X36.0721 Y-267.8266
G1 X35.9467 Y-267.9938
G1 X35.9885 Y-268.8716
G1 X37.3680 Y-272.5501
G1 X37.9950 Y-273.2608
G1 X38.4548 Y-273.5116
G1 X39.8760 Y-273.3862
G1 Z0.0000 F2500.0
G4 P0.02
G0 X33.7209 Y-270.4626 F15000.0
G1 Z11.9000 F2500.0
G4 P0.02
G1 X33.5982 Y-270.4601 F12000.0
G1 X33.6818 Y-270.3346
G1 X32.9294 Y-269.4986
G1 X32.5950 Y-268.6626
G1 X32.6368 Y-267.9102
G1 X32.7204 Y-267.8266
G1 X33.9744 Y-267.5340
G1 X34.1835 Y-267.6176
G1 Z0.0000 F2500.0
G4 P0.02
G0 X33.5982 Y-270.4601 F15000.0
G1 Z11.9000 F2500.0
G4 P0.02
G1 X33.4310 Y-270.6691 F12000.0
G1 X33.3056 Y-271.2125
G1 X33.6818 Y-272.2993
G1 X33.7236 Y-270.3346
G1 Z0.0000 F2500.0
G4 P0.02
G0 X34.1835 Y-270.3765 F15000.0
G1 Z11.9000 F2500.0
G4 P0.02
G1 X33.6818 Y-270.3346 F12000.0
G1 Z0.0000 F2500.0
G4 P0.02
G0 X33.6818 Y-272.2993 F15000.0
G1 Z11.9000 F2500.0
G4 P0.02
G1 X33.8491 Y-272.6337 F12000.0
G1 X34.3089 Y-273.2190
G1 X36.3571 Y-273.5952
G1 Z0.0000 F2500.0
G4 P0.02
G0 X33.0325 Y-273.4456 F15000.0
G1 Z11.9000 F2500.0
G4 P0.02
G1 X32.8486 Y-273.4456 F12000.0
G1 Z0.0000 F2500.0
G4 P0.02

G0 Z0.0000 F800.0
G4 P0.06
G0 X0.0000 Y0.0000 F15000.0
M5
G4 P0.10
$1=0
